<?xml version="1.0" encoding="UTF-8"?>
<osm generator="osmapis" version="0.6">
	<node id="-5086" lat="64.3004" lon="10.5228">
		<tag k="amenity" v="kindergarten" />
		<tag k="capacity" v="23" />
		<tag k="contact:email" v="orin.barnehage@osen.kommune.no" />
		<tag k="contact:phone" v="+47 72577236" />
		<tag k="max_age" v="5" />
		<tag k="min_age" v="1" />
		<tag k="name" v="Ã˜rin barnehage" />
		<tag k="no-barnehage:nsrid" v="1013916" />
		<tag k="operator" v="Osen kommune" />
		<tag k="operator:type" v="public" />
		<tag k="start_date" v="1990-01-01" />
	</node>
	<node id="-5085" lat="64.3004" lon="10.5228">
		<tag k="amenity" v="kindergarten" />
		<tag k="capacity" v="11" />
		<tag k="contact:email" v="strand.barnehage@osen.kommune.no" />
		<tag k="contact:phone" v="+47 72577696" />
		<tag k="max_age" v="5" />
		<tag k="min_age" v="1" />
		<tag k="name" v="Strand barnehage" />
		<tag k="no-barnehage:nsrid" v="1016116" />
		<tag k="operator" v="Osen kommune" />
		<tag k="operator:type" v="public" />
		<tag k="start_date" v="1989-01-01" />
	</node>
	<node id="-5084" lat="64.3715" lon="10.5691">
		<tag k="amenity" v="kindergarten" />
		<tag k="capacity" v="5" />
		<tag k="contact:email" v="lovise.angen@osen.kommune.no" />
		<tag k="contact:phone" v="+47 72577515" />
		<tag k="max_age" v="5" />
		<tag k="min_age" v="1" />
		<tag k="name" v="Seter barnehage" />
		<tag k="no-barnehage:nsrid" v="1012970" />
		<tag k="operator" v="Osen kommune" />
		<tag k="operator:type" v="public" />
		<tag k="start_date" v="2004-01-01" />
	</node>
</osm>
