<?xml version="1.0" encoding="UTF-8"?>
<osm generator="osmapis" version="0.6">
	<node id="-4736" lat="63.35966" lon="10.36937">
		<tag k="amenity" v="kindergarten" />
		<tag k="capacity" v="9" />
		<tag k="contact:email" v="tovelisbeth@gmail.com" />
		<tag k="contact:phone" v="93491932" />
		<tag k="max_age" v="5" />
		<tag k="min_age" v="1" />
		<tag k="name" v="Bamsehiet Familiebarnehage Da" />
		<tag k="no-barnehage:nsrid" v="1020959" />
		<tag k="operator" v="Bamsehiet Familiebarnehage Da" />
		<tag k="operator:type" v="private" />
		<tag k="start_date" v="2003-08-01" />
	</node>
	<node id="-4735" lat="63.35982" lon="10.35182">
		<tag k="amenity" v="kindergarten" />
		<tag k="capacity" v="4" />
		<tag k="contact:email" v="goranadidovic@hotmail.com" />
		<tag k="contact:phone" v="72 84 74 35" />
		<tag k="max_age" v="2" />
		<tag k="min_age" v="1" />
		<tag k="name" v="Bambi Familiebarnehage Didovic" />
		<tag k="no-barnehage:nsrid" v="1020564" />
		<tag k="operator" v="Bambi Familiebarnehage Didovic" />
		<tag k="operator:type" v="private" />
		<tag k="start_date" v="1999-01-01" />
	</node>
	<node id="-4863" lat="63.37691" lon="10.3503">
		<tag k="amenity" v="kindergarten" />
		<tag k="capacity" v="5" />
		<tag k="contact:email" v="wenchestorjord@gmail.com" />
		<tag k="contact:phone" v="72 58 16 35" />
		<tag k="max_age" v="5" />
		<tag k="min_age" v="1" />
		<tag k="name" v="Nedre Flatåsen Familiebarnehage Wenche Storfjord Lunde" />
		<tag k="no-barnehage:nsrid" v="1020823" />
		<tag k="operator" v="Nedre Flatåsen Familiebarnehage Wenche Storfjord Lunde" />
		<tag k="operator:type" v="private" />
		<tag k="start_date" v="2002-07-29" />
	</node>
	<node id="-4969" lat="63.42201" lon="10.54462">
		<tag k="amenity" v="kindergarten" />
		<tag k="capacity" v="4" />
		<tag k="contact:email" v="berger.line@yahoo.com" />
		<tag k="max_age" v="5" />
		<tag k="min_age" v="1" />
		<tag k="name" v="Vikelva Familiebarnehage" />
		<tag k="no-barnehage:nsrid" v="1020270" />
		<tag k="operator" v="Vikelva Familiebarnehage Britt Berger" />
		<tag k="operator:type" v="private" />
		<tag k="start_date" v="2009-01-01" />
	</node>
	<node id="-4852" lat="63.35546" lon="10.36608">
		<tag k="amenity" v="kindergarten" />
		<tag k="capacity" v="10" />
		<tag k="contact:email" v="benrwa@online.no" />
		<tag k="contact:phone" v="93058203" />
		<tag k="max_age" v="5" />
		<tag k="min_age" v="1" />
		<tag k="name" v="Mummitrollet Familiebarnehage" />
		<tag k="no-barnehage:nsrid" v="1020501" />
		<tag k="operator" v="Mummitrollet Familiebarnehage Bente R Wagnild" />
		<tag k="operator:type" v="private" />
		<tag k="start_date" v="2009-01-01" />
	</node>
	<node id="-4977" lat="63.42015" lon="10.50279">
		<tag k="amenity" v="kindergarten" />
		<tag k="capacity" v="3" />
		<tag k="contact:email" v="zbekick@gmail.com" />
		<tag k="contact:phone" v="73 91 19 96" />
		<tag k="max_age" v="2" />
		<tag k="min_age" v="1" />
		<tag k="name" v="Zeljka Bekic Bøkvegen Familiebarnehage" />
		<tag k="no-barnehage:nsrid" v="1021251" />
		<tag k="operator" v="Zeljka Bekic Bøkvegen Familiebarnehage" />
		<tag k="operator:type" v="private" />
		<tag k="start_date" v="2005-08-01" />
	</node>
	<node id="-4847" lat="63.43127" lon="10.36799">
		<tag k="amenity" v="kindergarten" />
		<tag k="capacity" v="8" />
		<tag k="contact:email" v="shobhadey@neohumanisme.no" />
		<tag k="contact:phone" v="73 53 15 52" />
		<tag k="max_age" v="2" />
		<tag k="min_age" v="1" />
		<tag k="name" v="Mellomila Familiebarnehage og Progressiv Institutt AS" />
		<tag k="no-barnehage:nsrid" v="1020884" />
		<tag k="operator" v="Mellomila Familiebarnehage og Progressiv Institutt AS" />
		<tag k="operator:type" v="private" />
		<tag k="start_date" v="2003-02-01" />
	</node>
	<node id="-4845" lat="63.41838" lon="10.49444">
		<tag k="amenity" v="kindergarten" />
		<tag k="capacity" v="4" />
		<tag k="contact:email" v="mkolak@ntebb.no" />
		<tag k="contact:phone" v="73 90 24 50" />
		<tag k="max_age" v="2" />
		<tag k="min_age" v="1" />
		<tag k="name" v="Marija Kolak" />
		<tag k="no-barnehage:nsrid" v="1021375" />
		<tag k="operator" v="Marija Kolak" />
		<tag k="operator:type" v="private" />
		<tag k="start_date" v="2006-01-21" />
	</node>
	<node id="-4844" lat="63.44906" lon="10.43748">
		<tag k="amenity" v="kindergarten" />
		<tag k="capacity" v="8" />
		<tag k="contact:email" v="eiaheg@frisurf.no" />
		<tag k="contact:phone" v="73 50 94 05" />
		<tag k="max_age" v="2" />
		<tag k="min_age" v="1" />
		<tag k="name" v="Marihøna Familiebarnehage" />
		<tag k="no-barnehage:nsrid" v="1021108" />
		<tag k="operator" v="Vibeke Eia Hegset" />
		<tag k="operator:type" v="private" />
		<tag k="start_date" v="2004-09-01" />
	</node>
	<node id="-4971" lat="63.41092" lon="10.53669">
		<tag k="amenity" v="kindergarten" />
		<tag k="capacity" v="10" />
		<tag k="contact:email" v="m-aadahl@outlook.com" />
		<tag k="contact:phone" v="92000200" />
		<tag k="max_age" v="5" />
		<tag k="min_age" v="1" />
		<tag k="name" v="Vikåsen Familiebarnehage AS" />
		<tag k="no-barnehage:nsrid" v="1022308" />
		<tag k="operator" v="Vikåsen Familiebarnehage AS" />
		<tag k="operator:type" v="private" />
		<tag k="start_date" v="2007-01-01" />
	</node>
	<node id="-4841" lat="63.43052" lon="10.39505">
		<tag k="amenity" v="kindergarten" />
		<tag k="capacity" v="9" />
		<tag k="contact:email" v="post@barnehag1.no" />
		<tag k="contact:phone" v="73 83 97 51" />
		<tag k="max_age" v="5" />
		<tag k="min_age" v="1" />
		<tag k="name" v="Løkka Familiebarnehage Grete Mortensen" />
		<tag k="no-barnehage:nsrid" v="1020330" />
		<tag k="operator" v="Løkka Familiebarnehage Grete Mortensen" />
		<tag k="operator:type" v="private" />
		<tag k="start_date" v="1996-08-01" />
	</node>
	<node id="-4968" lat="63.40613" lon="10.32527">
		<tag k="amenity" v="kindergarten" />
		<tag k="capacity" v="8" />
		<tag k="contact:email" v="vestmarktoppen@gamail.com" />
		<tag k="contact:phone" v="72 56 84 09" />
		<tag k="max_age" v="2" />
		<tag k="min_age" v="1" />
		<tag k="name" v="Vestmarktoppen barnehage" />
		<tag k="no-barnehage:nsrid" v="1021304" />
		<tag k="operator" v="Vestmarktoppen Familiebarnehage Anja Meland" />
		<tag k="operator:type" v="private" />
		<tag k="start_date" v="2005-10-01" />
	</node>
	<node id="-4965" lat="63.37178" lon="10.40012">
		<tag k="amenity" v="kindergarten" />
		<tag k="capacity" v="8" />
		<tag k="contact:email" v="marianne.buberg@gmail.com" />
		<tag k="max_age" v="2" />
		<tag k="min_age" v="1" />
		<tag k="name" v="Vennegjengen Familiebarnehage" />
		<tag k="no-barnehage:nsrid" v="1021252" />
		<tag k="operator" v="Vennegjengen Familiebarnehage Marianne Buberg" />
		<tag k="operator:type" v="private" />
		<tag k="start_date" v="2009-01-01" />
	</node>
	<node id="-4960" lat="63.39909" lon="10.33172">
		<tag k="amenity" v="kindergarten" />
		<tag k="capacity" v="6" />
		<tag k="contact:email" v="lisejon@online.no" />
		<tag k="max_age" v="2" />
		<tag k="min_age" v="1" />
		<tag k="name" v="Uglahuset Familiebarnehage" />
		<tag k="no-barnehage:nsrid" v="1021265" />
		<tag k="operator" v="Uglahuset Familiebarnehage Da" />
		<tag k="operator:type" v="private" />
		<tag k="start_date" v="2009-01-01" />
	</node>
	<node id="-4831" lat="63.41407" lon="10.53823">
		<tag k="amenity" v="kindergarten" />
		<tag k="capacity" v="10" />
		<tag k="contact:email" v="ninabantonsen@gmail.com" />
		<tag k="contact:phone" v="73 57 26 28" />
		<tag k="max_age" v="5" />
		<tag k="min_age" v="1" />
		<tag k="name" v="Lekeplassen Familiebarnehage" />
		<tag k="no-barnehage:nsrid" v="1020660" />
		<tag k="operator" v="Lekeplassen Familiebarnehage Nina Antonsen" />
		<tag k="operator:type" v="private" />
		<tag k="start_date" v="2000-08-01" />
	</node>
	<node id="-4958" lat="63.39645" lon="10.3518">
		<tag k="amenity" v="kindergarten" />
		<tag k="capacity" v="9" />
		<tag k="contact:email" v="annehelenelein@yahoo.no" />
		<tag k="max_age" v="5" />
		<tag k="min_age" v="1" />
		<tag k="name" v="Tusseskogen Familiebarnehage" />
		<tag k="no-barnehage:nsrid" v="1021183" />
		<tag k="operator" v="Tusseskogen Familiebarnehage Anne Helene Lein" />
		<tag k="operator:type" v="private" />
		<tag k="start_date" v="2009-01-01" />
	</node>
	<node id="-4829" lat="63.37169" lon="10.40314">
		<tag k="amenity" v="kindergarten" />
		<tag k="capacity" v="8" />
		<tag k="contact:email" v="leirfoss1@gmail.com" />
		<tag k="contact:phone" v="97130591" />
		<tag k="max_age" v="2" />
		<tag k="min_age" v="1" />
		<tag k="name" v="Leirfossen Familiebarnehage Unni Therese Nenne Iversen" />
		<tag k="no-barnehage:nsrid" v="1021815" />
		<tag k="operator" v="Leirfossen Familiebarnehage Unni Therese Nenne Iversen" />
		<tag k="operator:type" v="private" />
		<tag k="start_date" v="2008-08-18" />
	</node>
	<node id="-4892" lat="63.34781" lon="10.33683">
		<tag k="amenity" v="kindergarten" />
		<tag k="capacity" v="10" />
		<tag k="contact:email" v="rype27hilde@hotmail.com" />
		<tag k="contact:phone" v="72 58 62 30" />
		<tag k="max_age" v="5" />
		<tag k="min_age" v="1" />
		<tag k="name" v="Rypeveien Familiebarnehage Hovdahl" />
		<tag k="no-barnehage:nsrid" v="1021010" />
		<tag k="operator" v="Rypeveien Familiebarnehage Hovdahl" />
		<tag k="operator:type" v="private" />
		<tag k="start_date" v="2004-01-22" />
	</node>
	<node id="-4825" lat="63.44712" lon="10.43109">
		<tag k="amenity" v="kindergarten" />
		<tag k="capacity" v="4" />
		<tag k="contact:email" v="ladehammerenfamiliebarnehage@ntbb.no" />
		<tag k="contact:phone" v="73 92 09 28" />
		<tag k="max_age" v="2" />
		<tag k="min_age" v="1" />
		<tag k="name" v="Ladehammeren Familiebarnehage Tone Thronæs" />
		<tag k="no-barnehage:nsrid" v="1021016" />
		<tag k="operator" v="Ladehammeren Familiebarnehage Tone Thronæs" />
		<tag k="operator:type" v="private" />
		<tag k="start_date" v="2004-02-01" />
	</node>
	<node id="-4822" lat="63.39202" lon="10.33607">
		<tag k="amenity" v="kindergarten" />
		<tag k="capacity" v="8" />
		<tag k="contact:email" v="may-linnholden@hotmail.com" />
		<tag k="contact:phone" v="920 97 101" />
		<tag k="max_age" v="2" />
		<tag k="min_age" v="1" />
		<tag k="name" v="Kystadhaugen Familiebarnehage" />
		<tag k="no-barnehage:nsrid" v="1022256" />
		<tag k="operator" v="Kystadhaugen Familiebarnehage May-Linn Holden" />
		<tag k="operator:type" v="private" />
		<tag k="start_date" v="2012-02-01" />
	</node>
	<node id="-4820" lat="63.38935" lon="10.32865">
		<tag k="amenity" v="kindergarten" />
		<tag k="capacity" v="9" />
		<tag k="contact:email" v="kr-stro3@online.no" />
		<tag k="contact:phone" v="72 56 05 10" />
		<tag k="max_age" v="5" />
		<tag k="min_age" v="1" />
		<tag k="name" v="Kystad Familiebarnehage" />
		<tag k="no-barnehage:nsrid" v="1021137" />
		<tag k="operator" v="Kystad Familiebarnehage Kristin Strøm" />
		<tag k="operator:type" v="private" />
		<tag k="start_date" v="2004-09-06" />
	</node>
	<node id="-4946" lat="63.35412" lon="10.39752">
		<tag k="amenity" v="kindergarten" />
		<tag k="capacity" v="10" />
		<tag k="contact:email" v="trudesto@online.no" />
		<tag k="contact:phone" v="72 88 97 72" />
		<tag k="max_age" v="5" />
		<tag k="min_age" v="1" />
		<tag k="name" v="Tillertoppen Familiebarnehage Trude Elisabeth Kvam Størseth" />
		<tag k="no-barnehage:nsrid" v="1020998" />
		<tag k="operator" v="Tillertoppen Familiebarnehage Trude Elisabeth Kvam Størseth" />
		<tag k="operator:type" v="private" />
		<tag k="start_date" v="2004-02-01" />
	</node>
	<node id="-4950" lat="63.3978" lon="10.41024">
		<tag k="amenity" v="kindergarten" />
		<tag k="capacity" v="8" />
		<tag k="contact:email" v="ni-lund2@online.no" />
		<tag k="max_age" v="2" />
		<tag k="min_age" v="1" />
		<tag k="name" v="Toppen Familiebarnehage AS" />
		<tag k="no-barnehage:nsrid" v="1022258" />
		<tag k="operator" v="Toppen Familiebarnehage AS" />
		<tag k="operator:type" v="private" />
		<tag k="start_date" v="1998-05-12" />
	</node>
	<node id="-4814" lat="63.40462" lon="10.33603">
		<tag k="amenity" v="kindergarten" />
		<tag k="capacity" v="10" />
		<tag k="contact:email" v="wencheo@online.no" />
		<tag k="max_age" v="5" />
		<tag k="min_age" v="1" />
		<tag k="name" v="Kongletoppen Familiebarnehage AS" />
		<tag k="no-barnehage:nsrid" v="1021870" />
		<tag k="operator" v="Kongletoppen Familiebarnehage AS" />
		<tag k="operator:type" v="private" />
		<tag k="start_date" v="2002-05-01" />
	</node>
	<node id="-4941" lat="63.35601" lon="10.34927">
		<tag k="amenity" v="kindergarten" />
		<tag k="capacity" v="8" />
		<tag k="contact:email" v="tovbj@online.no" />
		<tag k="contact:phone" v="72 84 92 54" />
		<tag k="max_age" v="2" />
		<tag k="min_age" v="1" />
		<tag k="name" v="Sørbruveien Familiebarnehage Tove Bjerke" />
		<tag k="no-barnehage:nsrid" v="1021872" />
		<tag k="operator" v="Sørbruveien Familiebarnehage Tove Bjerke" />
		<tag k="operator:type" v="private" />
		<tag k="start_date" v="2009-01-01" />
	</node>
	<node id="-4935" lat="63.4025" lon="10.37926">
		<tag k="amenity" v="kindergarten" />
		<tag k="capacity" v="4" />
		<tag k="contact:email" v="svalevegenfamilebarnehage@live.no" />
		<tag k="contact:phone" v="72 56 16 19" />
		<tag k="max_age" v="2" />
		<tag k="min_age" v="1" />
		<tag k="name" v="Svalevegen Familiebarnehage Marit Dahl" />
		<tag k="no-barnehage:nsrid" v="1021841" />
		<tag k="operator" v="Svalevegen Familiebarnehage Marit Dahl" />
		<tag k="operator:type" v="private" />
		<tag k="start_date" v="2008-08-01" />
	</node>
	<node id="-4806" lat="63.4151" lon="10.49007">
		<tag k="amenity" v="kindergarten" />
		<tag k="capacity" v="4" />
		<tag k="contact:email" v="zizzlhehehe@gmail.com" />
		<tag k="contact:phone" v="73 91 69 50" />
		<tag k="max_age" v="2" />
		<tag k="min_age" v="1" />
		<tag k="name" v="Jakobsli Familiebarnehage Sissel Grøthe" />
		<tag k="no-barnehage:nsrid" v="1020856" />
		<tag k="operator" v="Jakobsli Familiebarnehage Sissel Grøthe" />
		<tag k="operator:type" v="private" />
		<tag k="start_date" v="2002-11-01" />
	</node>
	<node id="-4918" lat="63.34814" lon="10.3461">
		<tag k="amenity" v="kindergarten" />
		<tag k="capacity" v="4" />
		<tag k="contact:email" v="ok-sta@online.no" />
		<tag k="contact:phone" v="72 84 91 08" />
		<tag k="max_age" v="2" />
		<tag k="min_age" v="1" />
		<tag k="name" v="Soltun Familiebarnehage" />
		<tag k="no-barnehage:nsrid" v="1021276" />
		<tag k="operator" v="Soltun Familiebarnehage Vanja Buberg Stamsve" />
		<tag k="operator:type" v="private" />
		<tag k="start_date" v="2005-06-06" />
	</node>
	<node id="-4875" lat="63.38604" lon="10.32065">
		<tag k="amenity" v="kindergarten" />
		<tag k="capacity" v="8" />
		<tag k="contact:email" v="post@persstua-familiebarnehage.no" />
		<tag k="contact:phone" v="92836336" />
		<tag k="contact:website" v="http://www.persstua-familiebarnehage.no" />
		<tag k="max_age" v="2" />
		<tag k="min_age" v="1" />
		<tag k="name" v="Persstua Familiebarnehage AS" />
		<tag k="no-barnehage:nsrid" v="1022231" />
		<tag k="operator" v="Persstua Familiebarnehage AS" />
		<tag k="operator:type" v="private" />
		<tag k="start_date" v="2008-03-01" />
	</node>
	<node id="-4800" lat="63.36805" lon="10.34203">
		<tag k="amenity" v="kindergarten" />
		<tag k="capacity" v="5" />
		<tag k="contact:email" v="husebygrenda@gmail.com" />
		<tag k="max_age" v="5" />
		<tag k="min_age" v="1" />
		<tag k="name" v="Husebygrenda Familiebarneh Ysland" />
		<tag k="no-barnehage:nsrid" v="1020583" />
		<tag k="operator" v="Husebygrenda Familiebarnehage Toril Ysland" />
		<tag k="operator:type" v="private" />
		<tag k="start_date" v="2009-01-01" />
	</node>
	<node id="-4925" lat="63.42559" lon="10.36092">
		<tag k="amenity" v="kindergarten" />
		<tag k="capacity" v="4" />
		<tag k="contact:email" v="Mona_falk_larssen@yahoo.no" />
		<tag k="max_age" v="2" />
		<tag k="min_age" v="1" />
		<tag k="name" v="Steinberget Familiebarnehage" />
		<tag k="no-barnehage:nsrid" v="1021151" />
		<tag k="operator" v="Mona Falk- Larssen" />
		<tag k="operator:type" v="private" />
		<tag k="start_date" v="2009-01-01" />
	</node>
	<node id="-4794" lat="63.35287" lon="10.36472">
		<tag k="amenity" v="kindergarten" />
		<tag k="capacity" v="10" />
		<tag k="contact:email" v="fkvamsta@online.no" />
		<tag k="contact:phone" v="419 25 246" />
		<tag k="max_age" v="5" />
		<tag k="min_age" v="1" />
		<tag k="name" v="Heimdal Familiebarnehage Monica Svestad Kvamstad" />
		<tag k="no-barnehage:nsrid" v="1021840" />
		<tag k="operator" v="Heimdal Familiebarnehage Monica Svestad Kvamstad" />
		<tag k="operator:type" v="private" />
		<tag k="start_date" v="2008-09-01" />
	</node>
	<node id="-4791" lat="63.38831" lon="10.38989">
		<tag k="amenity" v="kindergarten" />
		<tag k="capacity" v="8" />
		<tag k="contact:email" v="be-aaker@hotmail.com" />
		<tag k="contact:phone" v="928 10 951" />
		<tag k="max_age" v="2" />
		<tag k="min_age" v="1" />
		<tag k="name" v="Haugnessvingen Familiebarnehage Beate Aakerholm" />
		<tag k="no-barnehage:nsrid" v="1022052" />
		<tag k="operator" v="Haugnessvingen Familiebarnehage Beate Aakerholm" />
		<tag k="operator:type" v="private" />
		<tag k="start_date" v="2010-08-01" />
	</node>
	<node id="-4790" lat="63.4122" lon="10.3779">
		<tag k="amenity" v="kindergarten" />
		<tag k="capacity" v="4" />
		<tag k="contact:email" v="hammersborgfbh@gmail.com" />
		<tag k="max_age" v="2" />
		<tag k="min_age" v="1" />
		<tag k="name" v="Hammersborg Familiebarnehage" />
		<tag k="no-barnehage:nsrid" v="1021018" />
		<tag k="operator" v="Hammersborg Familiebarnehage Hege Strømsem" />
		<tag k="operator:type" v="private" />
		<tag k="start_date" v="2009-01-01" />
	</node>
	<node id="-4917" lat="63.43324" lon="10.58622">
		<tag k="amenity" v="kindergarten" />
		<tag k="capacity" v="8" />
		<tag k="contact:email" v="annkolderskog@yahoo.no" />
		<tag k="contact:phone" v="73 96 84 98" />
		<tag k="max_age" v="5" />
		<tag k="min_age" v="1" />
		<tag k="name" v="Solstrålen Familiebarnehage Ann Kristin Olderskog" />
		<tag k="no-barnehage:nsrid" v="1020927" />
		<tag k="operator" v="Solstrålen Familiebarnehage Ann Kristin Olderskog" />
		<tag k="operator:type" v="private" />
		<tag k="start_date" v="2003-08-01" />
	</node>
	<node id="-4916" lat="63.35566" lon="10.39447">
		<tag k="amenity" v="kindergarten" />
		<tag k="capacity" v="9" />
		<tag k="contact:email" v="cecilie.lokken@gmail.com" />
		<tag k="contact:phone" v="99630918" />
		<tag k="max_age" v="5" />
		<tag k="min_age" v="1" />
		<tag k="name" v="Solplassen Familiebarnehage Cecilie Johansen" />
		<tag k="no-barnehage:nsrid" v="1021911" />
		<tag k="operator" v="Solplassen Familiebarnehage Cecilie Johansen" />
		<tag k="operator:type" v="private" />
		<tag k="start_date" v="2009-05-01" />
	</node>
	<node id="-4787" lat="63.39247" lon="10.37813">
		<tag k="amenity" v="kindergarten" />
		<tag k="capacity" v="4" />
		<tag k="contact:email" v="hallsetlia@yahoo.no" />
		<tag k="contact:phone" v="72 55 20 98" />
		<tag k="max_age" v="2" />
		<tag k="min_age" v="1" />
		<tag k="name" v="Gunn Hege Sollie" />
		<tag k="no-barnehage:nsrid" v="1021015" />
		<tag k="operator" v="Gunn Hege Sollie" />
		<tag k="operator:type" v="private" />
		<tag k="start_date" v="2005-11-19" />
	</node>
	<node id="-4786" lat="63.35834" lon="10.34589">
		<tag k="amenity" v="kindergarten" />
		<tag k="capacity" v="4" />
		<tag k="contact:email" v="annhovik@gmail.com" />
		<tag k="max_age" v="2" />
		<tag k="min_age" v="1" />
		<tag k="name" v="Guldbrandsvegen Familiebarnehage" />
		<tag k="no-barnehage:nsrid" v="1020846" />
		<tag k="operator" v="Gulbrandsvegen Familiebarnehage Ann Høvik Molden" />
		<tag k="operator:type" v="private" />
		<tag k="start_date" v="2002-09-30" />
	</node>
	<node id="-4785" lat="63.34888" lon="10.34014">
		<tag k="amenity" v="kindergarten" />
		<tag k="capacity" v="4" />
		<tag k="contact:email" v="hildehoff@hotmail.com" />
		<tag k="contact:phone" v="412 99 995" />
		<tag k="max_age" v="5" />
		<tag k="min_age" v="1" />
		<tag k="name" v="Gråtrostvegen Familiebarnehage Hilde Hoff" />
		<tag k="no-barnehage:nsrid" v="1021275" />
		<tag k="operator" v="Gråtrostvegen Familiebarnehage Hilde Hoff" />
		<tag k="operator:type" v="private" />
		<tag k="start_date" v="2005-09-01" />
	</node>
	<node id="-4784" lat="63.37434" lon="10.40297">
		<tag k="amenity" v="kindergarten" />
		<tag k="capacity" v="4" />
		<tag k="contact:email" v="hanne@grisungen.no" />
		<tag k="contact:phone" v="72 89 00 85" />
		<tag k="max_age" v="2" />
		<tag k="min_age" v="1" />
		<tag k="name" v="Grisungen Familiebarnehage Stølen" />
		<tag k="no-barnehage:nsrid" v="1021505" />
		<tag k="operator" v="Grisungen Familiebarnehage Stølen" />
		<tag k="operator:type" v="private" />
		<tag k="start_date" v="2006-10-01" />
	</node>
	<node id="-4957" lat="63.39275" lon="10.42973">
		<tag k="amenity" v="kindergarten" />
		<tag k="capacity" v="4" />
		<tag k="contact:email" v="tuppenoglillemorbhg@gmail.com" />
		<tag k="max_age" v="2" />
		<tag k="min_age" v="1" />
		<tag k="name" v="Tuppen og Lillemor Familiebarnehage V/ Krogh" />
		<tag k="no-barnehage:nsrid" v="1022162" />
		<tag k="operator" v="Tuppen og Lillemor Familiebarnehage V/ Krogh" />
		<tag k="operator:type" v="private" />
		<tag k="start_date" v="2010-08-01" />
	</node>
	<node id="-4905" lat="63.38105" lon="10.38715">
		<tag k="amenity" v="kindergarten" />
		<tag k="capacity" v="4" />
		<tag k="contact:email" v="mskanoy@gmail.com" />
		<tag k="contact:phone" v="996 42 118" />
		<tag k="max_age" v="2" />
		<tag k="min_age" v="1" />
		<tag k="name" v="Skogly Familiebarnehage V/monica Skånøy Andersen" />
		<tag k="no-barnehage:nsrid" v="1021925" />
		<tag k="operator" v="Skogly Familiebarnehage V/monica Skånøy Andersen" />
		<tag k="operator:type" v="private" />
		<tag k="start_date" v="2009-05-01" />
	</node>
	<node id="-4776" lat="63.38852" lon="10.37472">
		<tag k="amenity" v="kindergarten" />
		<tag k="capacity" v="4" />
		<tag k="contact:email" v="jannicke@gammellina.no" />
		<tag k="contact:phone" v="988 29 036" />
		<tag k="max_age" v="2" />
		<tag k="min_age" v="1" />
		<tag k="name" v="Gammel-Lina Familiebarnehage Jannicke Helen Gullhav" />
		<tag k="no-barnehage:nsrid" v="1022001" />
		<tag k="operator" v="Gammel-Lina Familiebarnehage Jannicke Helen Gullhav" />
		<tag k="operator:type" v="private" />
		<tag k="start_date" v="2010-08-01" />
	</node>
	<node id="-4775" lat="63.4201" lon="10.55575">
		<tag k="amenity" v="kindergarten" />
		<tag k="capacity" v="8" />
		<tag k="contact:email" v="fykfam@ntebb.no" />
		<tag k="max_age" v="2" />
		<tag k="min_age" v="1" />
		<tag k="name" v="Fykenveien Familiebarnehage" />
		<tag k="no-barnehage:nsrid" v="1021034" />
		<tag k="operator" v="Fykenveien Familie-Barnehage Ans" />
		<tag k="operator:type" v="private" />
		<tag k="start_date" v="2009-01-01" />
	</node>
	<node id="-4901" lat="63.37313" lon="10.38759">
		<tag k="amenity" v="kindergarten" />
		<tag k="capacity" v="4" />
		<tag k="contact:email" v="merethe_olsen@hotmail.com" />
		<tag k="contact:phone" v="971 15 346" />
		<tag k="max_age" v="2" />
		<tag k="min_age" v="1" />
		<tag k="name" v="Sjetnemarka Familiebarnehage Merethe Olsen" />
		<tag k="no-barnehage:nsrid" v="1022080" />
		<tag k="operator" v="Sjetnemarka Familiebarnehage Merethe Olsen" />
		<tag k="operator:type" v="private" />
		<tag k="start_date" v="2010-09-01" />
	</node>
	<node id="-4770" lat="63.3956" lon="10.33441">
		<tag k="amenity" v="kindergarten" />
		<tag k="capacity" v="8" />
		<tag k="contact:email" v="flaklypa@gmail.com" />
		<tag k="max_age" v="2" />
		<tag k="min_age" v="1" />
		<tag k="name" v="Flåklypa Familiebarnehage Anne Cathrine Hernæs" />
		<tag k="no-barnehage:nsrid" v="1022049" />
		<tag k="operator" v="Flåklypa Familiebarnehage V/anne Cathrine Hernæs" />
		<tag k="operator:type" v="private" />
		<tag k="start_date" v="2003-01-10" />
	</node>
	<node id="-4766" lat="63.32669" lon="10.32505">
		<tag k="amenity" v="kindergarten" />
		<tag k="capacity" v="4" />
		<tag k="contact:email" v="hanne@esptunet.no" />
		<tag k="contact:phone" v="72 84 99 95" />
		<tag k="max_age" v="2" />
		<tag k="min_age" v="1" />
		<tag k="name" v="Esptunet Familiebarnehage" />
		<tag k="no-barnehage:nsrid" v="1020909" />
		<tag k="operator" v="Esptunet Familiebarnehage V/hanne Ramstad" />
		<tag k="operator:type" v="private" />
		<tag k="start_date" v="2003-04-15" />
	</node>
	<node id="-4765" lat="63.41937" lon="10.55235">
		<tag k="amenity" v="kindergarten" />
		<tag k="capacity" v="8" />
		<tag k="contact:email" v="birgitte@bne.no" />
		<tag k="contact:phone" v="72 55 26 81" />
		<tag k="max_age" v="2" />
		<tag k="min_age" v="1" />
		<tag k="name" v="Einmoen Familiebarnehage Birgitte Nielsen" />
		<tag k="no-barnehage:nsrid" v="1021318" />
		<tag k="operator" v="Einmoen Familiebarnehage Birgitte Nielsen" />
		<tag k="operator:type" v="private" />
		<tag k="start_date" v="2005-11-01" />
	</node>
	<node id="-4764" lat="63.35202" lon="10.32757">
		<tag k="amenity" v="kindergarten" />
		<tag k="capacity" v="10" />
		<tag k="contact:email" v="meretena@online.no" />
		<tag k="contact:phone" v="72 84 90 65" />
		<tag k="max_age" v="5" />
		<tag k="min_age" v="1" />
		<tag k="name" v="Duttestien Familiebarnehage AS" />
		<tag k="no-barnehage:nsrid" v="1021585" />
		<tag k="operator" v="Duttestien Familiebarnehage AS" />
		<tag k="operator:type" v="private" />
		<tag k="start_date" v="2005-01-01" />
	</node>
	<node id="-4894" lat="63.40888" lon="10.53274">
		<tag k="amenity" v="kindergarten" />
		<tag k="capacity" v="4" />
		<tag k="contact:email" v="nina@sagplasstoppen.no" />
		<tag k="max_age" v="2" />
		<tag k="min_age" v="1" />
		<tag k="name" v="Sagplasstoppen Familiebarnehage" />
		<tag k="no-barnehage:nsrid" v="1021282" />
		<tag k="operator" v="Nina Wang" />
		<tag k="operator:type" v="private" />
		<tag k="start_date" v="2009-01-01" />
	</node>
	<node id="-4754" lat="63.35878" lon="10.3589">
		<tag k="amenity" v="kindergarten" />
		<tag k="capacity" v="4" />
		<tag k="contact:email" v="annirensolberg1@gmail.com" />
		<tag k="contact:phone" v="99402230" />
		<tag k="max_age" v="2" />
		<tag k="min_age" v="1" />
		<tag k="name" v="Brudalstunet Familiebarnehage" />
		<tag k="no-barnehage:nsrid" v="1020831" />
		<tag k="operator" v="Ann Iren Solberg" />
		<tag k="operator:type" v="private" />
		<tag k="start_date" v="2002-08-12" />
	</node>
	<node id="-4876" lat="63.37683" lon="10.35033">
		<tag k="amenity" v="kindergarten" />
		<tag k="capacity" v="4" />
		<tag k="contact:email" v="olevevik@online.no" />
		<tag k="max_age" v="5" />
		<tag k="min_age" v="1" />
		<tag k="name" v="Picazo Familiebarnehage" />
		<tag k="no-barnehage:nsrid" v="1021112" />
		<tag k="operator" v="Picazo Familiebarnehage Ole Vevik" />
		<tag k="operator:type" v="private" />
		<tag k="start_date" v="2009-01-01" />
	</node>
	<node id="-4747" lat="63.37733" lon="10.35079">
		<tag k="amenity" v="kindergarten" />
		<tag k="capacity" v="5" />
		<tag k="contact:email" v="blaaveisen@gmail.com" />
		<tag k="max_age" v="5" />
		<tag k="min_age" v="1" />
		<tag k="name" v="Blåveisen Familiebarnehage" />
		<tag k="no-barnehage:nsrid" v="1020538" />
		<tag k="operator" v="Blåveisen Familiebarnehage Bodil Maria Kvamtrø" />
		<tag k="operator:type" v="private" />
		<tag k="start_date" v="2009-01-01" />
	</node>
	<node id="-4874" lat="63.3566" lon="10.34087">
		<tag k="amenity" v="kindergarten" />
		<tag k="capacity" v="5" />
		<tag k="contact:email" v="anne@tesaker.com" />
		<tag k="contact:phone" v="400 94 559" />
		<tag k="max_age" v="5" />
		<tag k="min_age" v="3" />
		<tag k="name" v="Perslia Familiebarnehage" />
		<tag k="no-barnehage:nsrid" v="1021353" />
		<tag k="operator" v="Perslia Familebarnehage Tesaker" />
		<tag k="operator:type" v="private" />
		<tag k="start_date" v="2009-01-01" />
	</node>
	<node id="-4745" lat="63.39714" lon="10.33159">
		<tag k="amenity" v="kindergarten" />
		<tag k="capacity" v="9" />
		<tag k="contact:email" v="bb.fam.bhg@gmail.com" />
		<tag k="contact:phone" v="472 54 133" />
		<tag k="max_age" v="5" />
		<tag k="min_age" v="1" />
		<tag k="name" v="Bjørnebyen Familiebarnehage Ans" />
		<tag k="no-barnehage:nsrid" v="1021025" />
		<tag k="operator" v="Bjørnebyen Familiebarnehage Ans" />
		<tag k="operator:type" v="private" />
		<tag k="start_date" v="2004-05-01" />
	</node>
	<node id="-4972" lat="63.34393" lon="10.36376">
		<tag k="amenity" v="kindergarten" />
		<tag k="capacity" v="10" />
		<tag k="contact:email" v="r.lernes@online.no" />
		<tag k="contact:phone" v="72 88 90 38" />
		<tag k="max_age" v="5" />
		<tag k="min_age" v="1" />
		<tag k="name" v="Vindheim Familiebarnehage Rita Soleim Lernes" />
		<tag k="no-barnehage:nsrid" v="1020887" />
		<tag k="operator" v="Vindheim Familiebarnehage Rita Soleim Lernes" />
		<tag k="operator:type" v="private" />
		<tag k="start_date" v="2003-08-01" />
	</node>
	<node id="-4742" lat="63.41835" lon="10.42633">
		<tag k="amenity" v="kindergarten" />
		<tag k="capacity" v="8" />
		<tag k="contact:email" v="berg.fbh@ntebb.no" />
		<tag k="contact:phone" v="73 93 77 51" />
		<tag k="max_age" v="5" />
		<tag k="min_age" v="1" />
		<tag k="name" v="Berg Familiebarnehage Ruth Rødsjø Lein" />
		<tag k="no-barnehage:nsrid" v="1020824" />
		<tag k="operator" v="Berg Familiebarnehage Ruth Rødsjø Lein" />
		<tag k="operator:type" v="private" />
		<tag k="start_date" v="2002-07-29" />
	</node>
	<node id="-4869" lat="63.41338" lon="10.53657">
		<tag k="amenity" v="kindergarten" />
		<tag k="capacity" v="5" />
		<tag k="contact:email" v="hegedah@gmail.com" />
		<tag k="max_age" v="5" />
		<tag k="min_age" v="1" />
		<tag k="name" v="Nydammen Familiebarnehage" />
		<tag k="no-barnehage:nsrid" v="1020735" />
		<tag k="operator" v="Nydammen Familiebarne Hege Skylstad Dahl" />
		<tag k="operator:type" v="private" />
		<tag k="start_date" v="2009-01-01" />
	</node>
	<node id="-4739" lat="63.3932" lon="10.33177">
		<tag k="amenity" v="kindergarten" />
		<tag k="capacity" v="8" />
		<tag k="contact:email" v="bekken.sk@gmail.com" />
		<tag k="contact:phone" v="41293646" />
		<tag k="max_age" v="2" />
		<tag k="min_age" v="1" />
		<tag k="name" v="Bekken Familiebarnehage AS" />
		<tag k="no-barnehage:nsrid" v="1022399" />
		<tag k="operator" v="Bekken Familiebarnehage AS" />
		<tag k="operator:type" v="private" />
		<tag k="start_date" v="2010-01-25" />
	</node>
	<node id="-4737" lat="63.43183" lon="10.41185">
		<tag k="amenity" v="kindergarten" />
		<tag k="capacity" v="8" />
		<tag k="contact:email" v="christina.barnasfamiliebhg@outlook.com" />
		<tag k="contact:phone" v="926 04 695" />
		<tag k="max_age" v="2" />
		<tag k="min_age" v="1" />
		<tag k="name" v="Barnas Familiebarnehage" />
		<tag k="no-barnehage:nsrid" v="1022012" />
		<tag k="operator" v="Barnas Familiebarnehage Heidi Torvik" />
		<tag k="operator:type" v="private" />
		<tag k="start_date" v="2010-08-01" />
	</node>
</osm>
