<?xml version="1.0" encoding="UTF-8"?>
<osm generator="osmapis" version="0.6">
	<node id="-4992" lat="63.4111" lon="10.4502">
		<tag k="amenity" v="kindergarten" />
		<tag k="capacity" v="65" />
		<tag k="contact:email" v="trine.almenning@trondheim.kommune.no" />
		<tag k="max_age" v="5" />
		<tag k="min_age" v="1" />
		<tag k="name" v="Åsvang barnehage" />
		<tag k="no-barnehage:nsrid" v="1013420" />
		<tag k="operator" v="Trondheim kommune" />
		<tag k="operator:type" v="public" />
		<tag k="start_date" v="2006-01-01" />
	</node>
	<node id="-4991" lat="63.4291" lon="10.4399">
		<tag k="amenity" v="kindergarten" />
		<tag k="capacity" v="69" />
		<tag k="contact:email" v="astrid.sorensen-rokke@trondheim.kommune.no" />
		<tag k="max_age" v="5" />
		<tag k="min_age" v="1" />
		<tag k="name" v="Aastahagen barnehage" />
		<tag k="no-barnehage:nsrid" v="1017815" />
		<tag k="operator" v="Trondheim kommune" />
		<tag k="operator:type" v="public" />
		<tag k="start_date" v="2006-01-01" />
	</node>
	<node id="-4990" lat="63.4181" lon="10.3907">
		<tag k="amenity" v="kindergarten" />
		<tag k="capacity" v="71" />
		<tag k="contact:email" v="egx@trondheim.kommune.no" />
		<tag k="max_age" v="5" />
		<tag k="min_age" v="1" />
		<tag k="name" v="Øya barnehage" />
		<tag k="no-barnehage:nsrid" v="1016734" />
		<tag k="operator" v="Trondheim kommune" />
		<tag k="operator:type" v="public" />
		<tag k="start_date" v="1989-01-02" />
	</node>
	<node id="-4989" lat="63.4146" lon="10.4911">
		<tag k="amenity" v="kindergarten" />
		<tag k="capacity" v="86" />
		<tag k="contact:email" v="margrethe.skevik@trondheim.kommune.no" />
		<tag k="max_age" v="5" />
		<tag k="min_age" v="1" />
		<tag k="name" v="Øvre Jakobsli barnehage" />
		<tag k="no-barnehage:nsrid" v="1015184" />
		<tag k="operator" v="Trondheim kommune" />
		<tag k="operator:type" v="public" />
		<tag k="start_date" v="2013-08-01" />
	</node>
	<node id="-4988" lat="63.3748" lon="10.3473">
		<tag k="amenity" v="kindergarten" />
		<tag k="capacity" v="45" />
		<tag k="contact:email" v="trine.mogstad@trondheim.kommune.no" />
		<tag k="max_age" v="5" />
		<tag k="min_age" v="1" />
		<tag k="name" v="Øvre Flatåsen barnehage" />
		<tag k="no-barnehage:nsrid" v="1018210" />
		<tag k="operator" v="Trondheim kommune" />
		<tag k="operator:type" v="public" />
		<tag k="start_date" v="1989-01-01" />
	</node>
	<node id="-4987" lat="63.4522" lon="10.4433">
		<tag k="amenity" v="kindergarten" />
		<tag k="capacity" v="25" />
		<tag k="contact:email" v="elisabeth.holmvik@trondheim.kommune.no" />
		<tag k="max_age" v="2" />
		<tag k="min_age" v="1" />
		<tag k="name" v="Østmarkneset barnehage" />
		<tag k="no-barnehage:nsrid" v="1017328" />
		<tag k="operator" v="Trondheim kommune" />
		<tag k="operator:type" v="public" />
		<tag k="start_date" v="1973-01-01" />
	</node>
	<node id="-4985" lat="63.43421" lon="10.42275">
		<tag k="amenity" v="kindergarten" />
		<tag k="capacity" v="26" />
		<tag k="contact:email" v="gkrijens@online.no" />
		<tag k="contact:phone" v="+47 73530177" />
		<tag k="contact:website" v="http://wvbarnehage.no" />
		<tag k="max_age" v="5" />
		<tag k="min_age" v="1" />
		<tag k="name" v="Weidemannsveien barnehage" />
		<tag k="no-barnehage:nsrid" v="1020377" />
		<tag k="operator" v="Weidemannsveien barnehage Sa" />
		<tag k="operator:type" v="private" />
		<tag k="start_date" v="1995-02-23" />
	</node>
	<node id="-4984" lat="63.40753" lon="10.36374">
		<tag k="amenity" v="kindergarten" />
		<tag k="capacity" v="54" />
		<tag k="contact:email" v="vaarres@barnehage.no" />
		<tag k="contact:phone" v="+47 72 55 30 80" />
		<tag k="contact:website" v="http://vaarres.barnehage.no" />
		<tag k="max_age" v="5" />
		<tag k="min_age" v="1" />
		<tag k="name" v="Vårres barnehage" />
		<tag k="no-barnehage:nsrid" v="1020091" />
		<tag k="operator" v="Småbarnsforeldrenes barnehage Byåsen Sa" />
		<tag k="operator:type" v="private" />
		<tag k="start_date" v="1992-08-01" />
	</node>
	<node id="-4983" lat="63.41034" lon="10.44834">
		<tag k="amenity" v="kindergarten" />
		<tag k="capacity" v="21" />
		<tag k="contact:email" v="lisbeth@vollgardsbarnehage.com" />
		<tag k="max_age" v="5" />
		<tag k="min_age" v="1" />
		<tag k="name" v="Voll Gårdsbarnehage AS" />
		<tag k="no-barnehage:nsrid" v="1021971" />
		<tag k="operator" v="Voll Gårdsbarnehage AS" />
		<tag k="operator:type" v="private" />
		<tag k="start_date" v="2009-07-30" />
	</node>
	<node id="-4982" lat="63.4376" lon="10.4289">
		<tag k="amenity" v="kindergarten" />
		<tag k="capacity" v="46" />
		<tag k="contact:email" v="oyvind.svendsen@trondheim.kommune.no" />
		<tag k="max_age" v="5" />
		<tag k="min_age" v="1" />
		<tag k="name" v="Voldsminde barnehage" />
		<tag k="no-barnehage:nsrid" v="1016908" />
		<tag k="operator" v="Trondheim kommune" />
		<tag k="operator:type" v="public" />
		<tag k="start_date" v="1976-12-24" />
	</node>
	<node id="-4979" lat="63.4129" lon="10.5347">
		<tag k="amenity" v="kindergarten" />
		<tag k="capacity" v="43" />
		<tag k="contact:email" v="renate.kvivesen@trondheim.kommune.no" />
		<tag k="max_age" v="5" />
		<tag k="min_age" v="1" />
		<tag k="name" v="Vikåsen barnehage" />
		<tag k="no-barnehage:nsrid" v="1014783" />
		<tag k="operator" v="Trondheim kommune" />
		<tag k="operator:type" v="public" />
		<tag k="start_date" v="1993-08-01" />
	</node>
	<node id="-4976" lat="63.4027" lon="10.4351">
		<tag k="amenity" v="kindergarten" />
		<tag k="capacity" v="108" />
		<tag k="contact:email" v="aul@trondheim.kommune.no" />
		<tag k="max_age" v="5" />
		<tag k="min_age" v="1" />
		<tag k="name" v="Vestlia barnehage" />
		<tag k="no-barnehage:nsrid" v="1018228" />
		<tag k="operator" v="Trondheim kommune" />
		<tag k="operator:type" v="public" />
		<tag k="start_date" v="1989-01-01" />
	</node>
	<node id="-4975" lat="63.4096" lon="10.437">
		<tag k="amenity" v="kindergarten" />
		<tag k="capacity" v="30" />
		<tag k="contact:email" v="heidi.kiel@trondheim.kommune.no" />
		<tag k="max_age" v="5" />
		<tag k="min_age" v="1" />
		<tag k="name" v="Vesletun barnehage" />
		<tag k="no-barnehage:nsrid" v="1018227" />
		<tag k="operator" v="Trondheim kommune" />
		<tag k="operator:type" v="public" />
		<tag k="start_date" v="1989-01-01" />
	</node>
	<node id="-4973" lat="63.4139" lon="10.3529">
		<tag k="amenity" v="kindergarten" />
		<tag k="capacity" v="61" />
		<tag k="contact:email" v="brynhild1.henriksen@trondheim.kommune.no" />
		<tag k="max_age" v="5" />
		<tag k="min_age" v="1" />
		<tag k="name" v="Valset barnehage" />
		<tag k="no-barnehage:nsrid" v="1016863" />
		<tag k="operator" v="Trondheim kommune" />
		<tag k="operator:type" v="public" />
		<tag k="start_date" v="1989-01-02" />
	</node>
	<node id="-4972" lat="63.4236" lon="10.442">
		<tag k="amenity" v="kindergarten" />
		<tag k="capacity" v="56" />
		<tag k="contact:email" v="Britt.Monstad@Trondheim.kommune.no" />
		<tag k="max_age" v="5" />
		<tag k="min_age" v="1" />
		<tag k="name" v="Valentinlyst barnehage" />
		<tag k="no-barnehage:nsrid" v="1016933" />
		<tag k="operator" v="Trondheim kommune" />
		<tag k="operator:type" v="public" />
		<tag k="start_date" v="1971-12-29" />
	</node>
	<node id="-4971" lat="63.3472" lon="10.3375">
		<tag k="amenity" v="kindergarten" />
		<tag k="capacity" v="36" />
		<tag k="contact:email" v="gjertrud.forbord@trondheim.kommune.no" />
		<tag k="max_age" v="5" />
		<tag k="min_age" v="3" />
		<tag k="name" v="Ustmyra barnehage" />
		<tag k="no-barnehage:nsrid" v="1013985" />
		<tag k="operator" v="Trondheim kommune" />
		<tag k="operator:type" v="public" />
		<tag k="start_date" v="2009-08-01" />
	</node>
	<node id="-4969" lat="63.4252" lon="10.4339">
		<tag k="amenity" v="kindergarten" />
		<tag k="capacity" v="40" />
		<tag k="contact:email" v="toril.johansen@tyholttunet.no" />
		<tag k="contact:phone" v="+47 73595505" />
		<tag k="max_age" v="5" />
		<tag k="min_age" v="1" />
		<tag k="name" v="Tyholttunet barnehage" />
		<tag k="no-barnehage:nsrid" v="1015982" />
		<tag k="operator" v="Sintef-Barnehagene Prestegårdsjordet og Tyholttunet Sa" />
		<tag k="operator:type" v="private" />
		<tag k="start_date" v="1995-02-23" />
	</node>
	<node id="-4966" lat="63.42004" lon="10.44284">
		<tag k="amenity" v="kindergarten" />
		<tag k="capacity" v="13" />
		<tag k="contact:email" v="styrer@troabarnehage.no" />
		<tag k="contact:phone" v="+47 73 91 30 00" />
		<tag k="max_age" v="2" />
		<tag k="min_age" v="1" />
		<tag k="name" v="Trøa Eberg barnehage AS" />
		<tag k="no-barnehage:nsrid" v="1021339" />
		<tag k="operator" v="Trøa Eberg barnehage AS" />
		<tag k="operator:type" v="private" />
		<tag k="start_date" v="2005-09-01" />
	</node>
	<node id="-4965" lat="63.42995" lon="10.41396">
		<tag k="amenity" v="kindergarten" />
		<tag k="capacity" v="40" />
		<tag k="contact:email" v="manager@preschool.no" />
		<tag k="contact:phone" v="+47 48 85 30 70" />
		<tag k="contact:website" v="http://www.preschool.no" />
		<tag k="max_age" v="5" />
		<tag k="min_age" v="3" />
		<tag k="name" v="Trondheim International Preschool" />
		<tag k="no-barnehage:nsrid" v="1021342" />
		<tag k="operator" v="Trondheim International Preschool" />
		<tag k="operator:type" v="private" />
		<tag k="start_date" v="2005-11-16" />
	</node>
	<node id="-4964" lat="63.43443" lon="10.44663">
		<tag k="amenity" v="kindergarten" />
		<tag k="contact:email" v="mariasjavag@hotmail.com" />
		<tag k="name" v="Trondheim International Playground" />
		<tag k="no-barnehage:nsrid" v="1014098" />
		<tag k="operator" v="Aziz Drums Kunya" />
		<tag k="operator:type" v="private" />
		<tag k="start_date" v="2009-10-20" />
	</node>
	<node id="-4963" lat="63.4508" lon="10.3001">
		<tag k="amenity" v="kindergarten" />
		<tag k="capacity" v="31" />
		<tag k="contact:email" v="hege.hansen@trondheim.kommune.no" />
		<tag k="max_age" v="5" />
		<tag k="min_age" v="1" />
		<tag k="name" v="Trolla barnehage" />
		<tag k="no-barnehage:nsrid" v="1018226" />
		<tag k="operator" v="Trondheim kommune" />
		<tag k="operator:type" v="public" />
		<tag k="start_date" v="1989-01-01" />
	</node>
	<node id="-4962" lat="63.3473" lon="10.3352">
		<tag k="amenity" v="kindergarten" />
		<tag k="capacity" v="47" />
		<tag k="contact:email" v="gjertrud.forbord@trondheim.kommune.no" />
		<tag k="max_age" v="5" />
		<tag k="min_age" v="1" />
		<tag k="name" v="Torvsletta barnehage" />
		<tag k="no-barnehage:nsrid" v="1013984" />
		<tag k="operator" v="Trondheim kommune" />
		<tag k="operator:type" v="public" />
		<tag k="start_date" v="2009-08-01" />
	</node>
	<node id="-4961" lat="63.4291" lon="10.4426">
		<tag k="amenity" v="kindergarten" />
		<tag k="capacity" v="58" />
		<tag k="contact:email" v="arne.kjos@trondheim.kommune.no" />
		<tag k="max_age" v="5" />
		<tag k="min_age" v="1" />
		<tag k="name" v="Tordenskjold barnehage" />
		<tag k="no-barnehage:nsrid" v="1017813" />
		<tag k="operator" v="Trondheim kommune" />
		<tag k="operator:type" v="public" />
		<tag k="start_date" v="2006-01-01" />
	</node>
	<node id="-4959" lat="63.3626" lon="10.3873">
		<tag k="amenity" v="kindergarten" />
		<tag k="capacity" v="62" />
		<tag k="contact:email" v="berit.ryggvik@trondheim.kommune.no" />
		<tag k="max_age" v="5" />
		<tag k="min_age" v="1" />
		<tag k="name" v="Tonstad barnehage" />
		<tag k="no-barnehage:nsrid" v="1013758" />
		<tag k="operator" v="Trondheim kommune" />
		<tag k="operator:type" v="public" />
		<tag k="start_date" v="1989-01-02" />
	</node>
	<node id="-4958" lat="63.4159" lon="10.55719">
		<tag k="amenity" v="kindergarten" />
		<tag k="capacity" v="11" />
		<tag k="contact:email" v="barnehage@tjonnstuggu.no" />
		<tag k="contact:phone" v="+47 73 96 25 61" />
		<tag k="contact:website" v="http://www.tjonnstuggu.no" />
		<tag k="max_age" v="5" />
		<tag k="min_age" v="1" />
		<tag k="name" v="Tjønnstuggu Friluftsbarnehage" />
		<tag k="no-barnehage:nsrid" v="1020979" />
		<tag k="operator" v="Reppe Foreldrelag" />
		<tag k="operator:type" v="private" />
		<tag k="start_date" v="2003-04-09" />
	</node>
	<node id="-4957" lat="63.4191" lon="10.488">
		<tag k="amenity" v="kindergarten" />
		<tag k="capacity" v="68" />
		<tag k="contact:email" v="siri-anita.sandstad@trondheim.kommune.no" />
		<tag k="max_age" v="5" />
		<tag k="min_age" v="1" />
		<tag k="name" v="Tiriltoppen barnehage" />
		<tag k="no-barnehage:nsrid" v="1016732" />
		<tag k="operator" v="Trondheim kommune" />
		<tag k="operator:type" v="public" />
		<tag k="start_date" v="1989-01-02" />
	</node>
	<node id="-4955" lat="63.3602" lon="10.3854">
		<tag k="amenity" v="kindergarten" />
		<tag k="contact:email" v="eli_romstad@hotmail.com" />
		<tag k="name" v="Tiller Åpen barnehage" />
		<tag k="no-barnehage:nsrid" v="1016882" />
		<tag k="operator" v="Tiller Sokn" />
		<tag k="operator:type" v="private" />
		<tag k="start_date" v="1992-08-01" />
	</node>
	<node id="-4954" lat="63.34823" lon="10.3801">
		<tag k="amenity" v="kindergarten" />
		<tag k="capacity" v="56" />
		<tag k="contact:email" v="tildra@barnehage.no" />
		<tag k="contact:phone" v="+47 72 89 85 10" />
		<tag k="contact:website" v="http://www.tildra.barnehage.no" />
		<tag k="max_age" v="5" />
		<tag k="min_age" v="1" />
		<tag k="name" v="Tildra barnehage" />
		<tag k="no-barnehage:nsrid" v="1020254" />
		<tag k="operator" v="Småbarnsforeldrenes barnehage Heimdal Sa" />
		<tag k="operator:type" v="private" />
		<tag k="start_date" v="1994-08-01" />
	</node>
	<node id="-4953" lat="63.40755" lon="10.39441">
		<tag k="amenity" v="kindergarten" />
		<tag k="capacity" v="59" />
		<tag k="contact:email" v="tempe@barnehage.no" />
		<tag k="contact:phone" v="+47 73 93 20 40" />
		<tag k="contact:website" v="http://www.tempebarnehage.no" />
		<tag k="max_age" v="5" />
		<tag k="min_age" v="1" />
		<tag k="name" v="Tempe barnehage Sa" />
		<tag k="no-barnehage:nsrid" v="1020725" />
		<tag k="operator" v="Tempe barnehage Sa" />
		<tag k="operator:type" v="private" />
		<tag k="start_date" v="2001-06-13" />
	</node>
	<node id="-4952" lat="63.4156" lon="10.4475">
		<tag k="amenity" v="kindergarten" />
		<tag k="capacity" v="46" />
		<tag k="contact:email" v="heidi.kiel@trondheim.kommune.no" />
		<tag k="max_age" v="5" />
		<tag k="min_age" v="1" />
		<tag k="name" v="Teglverket barnehage" />
		<tag k="no-barnehage:nsrid" v="1018225" />
		<tag k="operator" v="Trondheim kommune" />
		<tag k="operator:type" v="public" />
		<tag k="start_date" v="1989-01-01" />
	</node>
	<node id="-4950" lat="63.4121" lon="10.44294">
		<tag k="amenity" v="kindergarten" />
		<tag k="capacity" v="45" />
		<tag k="contact:email" v="saetra@saetra.no" />
		<tag k="contact:phone" v="+47 73 51 52 52" />
		<tag k="contact:website" v="http://www.saetra.no/" />
		<tag k="max_age" v="5" />
		<tag k="min_age" v="1" />
		<tag k="name" v="Sætra barnehage" />
		<tag k="no-barnehage:nsrid" v="1022201" />
		<tag k="operator" v="Sætra-Barnehage AS" />
		<tag k="operator:type" v="private" />
		<tag k="start_date" v="1990-11-01" />
	</node>
	<node id="-4949" lat="63.42132" lon="10.35688">
		<tag k="amenity" v="kindergarten" />
		<tag k="contact:email" v="marte.tveit@sverresborg.no" />
		<tag k="name" v="Sverrestunet Åpen barnehage" />
		<tag k="no-barnehage:nsrid" v="1019614" />
		<tag k="operator" v="Trøndelag Folkemuseum Stiftelse" />
		<tag k="operator:type" v="private" />
		<tag k="start_date" v="2009-01-01" />
	</node>
	<node id="-4948" lat="63.4187" lon="10.363">
		<tag k="amenity" v="kindergarten" />
		<tag k="capacity" v="24" />
		<tag k="contact:email" v="thorstein.venas@trondheim.kommune.no" />
		<tag k="max_age" v="2" />
		<tag k="min_age" v="1" />
		<tag k="name" v="Sverresli barnehage" />
		<tag k="no-barnehage:nsrid" v="1017330" />
		<tag k="operator" v="Trondheim kommune" />
		<tag k="operator:type" v="public" />
		<tag k="start_date" v="1974-01-01" />
	</node>
	<node id="-4947" lat="63.4382" lon="10.4234">
		<tag k="amenity" v="kindergarten" />
		<tag k="capacity" v="44" />
		<tag k="contact:email" v="ann-sylvi1.olsen@trondheim.kommune.no" />
		<tag k="max_age" v="5" />
		<tag k="min_age" v="1" />
		<tag k="name" v="Svartlamon Kunst- og Kulturbarnehage" />
		<tag k="no-barnehage:nsrid" v="1016958" />
		<tag k="operator" v="Trondheim kommune" />
		<tag k="operator:type" v="public" />
		<tag k="start_date" v="2005-09-01" />
	</node>
	<node id="-4945" lat="63.4015" lon="10.4103">
		<tag k="amenity" v="kindergarten" />
		<tag k="capacity" v="64" />
		<tag k="contact:email" v="jgx@trondheim.kommune.no" />
		<tag k="max_age" v="5" />
		<tag k="min_age" v="1" />
		<tag k="name" v="Sunnland barnehage" />
		<tag k="no-barnehage:nsrid" v="1014733" />
		<tag k="operator" v="Trondheim kommune" />
		<tag k="operator:type" v="public" />
		<tag k="start_date" v="1992-08-01" />
	</node>
	<node id="-4944" lat="63.4097" lon="10.4638">
		<tag k="amenity" v="kindergarten" />
		<tag k="capacity" v="68" />
		<tag k="contact:email" v="beathe.lillejord@sit.no" />
		<tag k="max_age" v="5" />
		<tag k="min_age" v="1" />
		<tag k="name" v="Studentsamskipnaden i Gjøvik, Ålesund og Trondheim Dragvoll barnehage" />
		<tag k="no-barnehage:nsrid" v="1016840" />
		<tag k="operator" v="Studentsamskipnaden i Gjøvik, Ålesund og Trondheim" />
		<tag k="operator:type" v="private" />
		<tag k="start_date" v="1993-08-01" />
	</node>
	<node id="-4943" lat="63.4094" lon="10.4302">
		<tag k="amenity" v="kindergarten" />
		<tag k="capacity" v="81" />
		<tag k="contact:email" v="guri.evensen@sit.no" />
		<tag k="max_age" v="5" />
		<tag k="min_age" v="1" />
		<tag k="name" v="Studentsamskipnaden i Gjøvik, Ålesund og Trondheim" />
		<tag k="no-barnehage:nsrid" v="1016819" />
		<tag k="operator" v="Studentsamskipnaden i Gjøvik, Ålesund og Trondheim" />
		<tag k="operator:type" v="private" />
		<tag k="start_date" v="1989-01-02" />
	</node>
	<node id="-4942" lat="63.41" lon="10.4298">
		<tag k="amenity" v="kindergarten" />
		<tag k="capacity" v="96" />
		<tag k="contact:email" v="marit.landsem@sit.no" />
		<tag k="max_age" v="5" />
		<tag k="min_age" v="1" />
		<tag k="name" v="Studentsamskipnaden i Gjøvik, Ålesund og Trondheim" />
		<tag k="no-barnehage:nsrid" v="1016818" />
		<tag k="operator" v="Studentsamskipnaden i Gjøvik, Ålesund og Trondheim" />
		<tag k="operator:type" v="private" />
		<tag k="start_date" v="1989-01-02" />
	</node>
	<node id="-4941" lat="63.38923" lon="10.42691">
		<tag k="amenity" v="kindergarten" />
		<tag k="name" v="Stubban barnehage" />
		<tag k="no-barnehage:nsrid" v="2000013" />
		<tag k="operator" v="Trondheim kommune" />
		<tag k="operator:type" v="public" />
		<tag k="start_date" v="2016-07-01" />
	</node>
	<node id="-4940" lat="63.43057" lon="10.37314">
		<tag k="amenity" v="kindergarten" />
		<tag k="capacity" v="24" />
		<tag k="contact:email" v="steinerbarenhagenila@gmail.com" />
		<tag k="max_age" v="5" />
		<tag k="min_age" v="1" />
		<tag k="name" v="Stiftelsen Steinerbarnehagen i Ila" />
		<tag k="no-barnehage:nsrid" v="1021600" />
		<tag k="operator" v="Stiftelsen Steinerbarnehagen i Ila" />
		<tag k="operator:type" v="private" />
		<tag k="start_date" v="1989-01-02" />
	</node>
	<node id="-4939" lat="63.42345" lon="10.43357">
		<tag k="amenity" v="kindergarten" />
		<tag k="capacity" v="26" />
		<tag k="contact:email" v="sn-barne@online.no" />
		<tag k="contact:phone" v="+47 73 50 24 80" />
		<tag k="max_age" v="5" />
		<tag k="min_age" v="1" />
		<tag k="name" v="Stiftelsen Nrk-Marintek barnehage" />
		<tag k="no-barnehage:nsrid" v="1020092" />
		<tag k="operator" v="Stiftelsen Nrk - Marintek barnehage" />
		<tag k="operator:type" v="private" />
		<tag k="start_date" v="1992-08-01" />
	</node>
	<node id="-4938" lat="63.42804" lon="10.39598">
		<tag k="amenity" v="kindergarten" />
		<tag k="contact:email" v="mari.berg@bymisjon.no" />
		<tag k="contact:phone" v="+47 73526844" />
		<tag k="contact:website" v="http://www.bymisjon.no" />
		<tag k="name" v="Stiftelsen Kirkens Bymisjon" />
		<tag k="no-barnehage:nsrid" v="1020399" />
		<tag k="operator" v="Stiftelsen Kirkens Bymisjon i Trondheim" />
		<tag k="operator:type" v="private" />
		<tag k="start_date" v="1995-02-23" />
	</node>
	<node id="-4937" lat="63.43788" lon="10.48151">
		<tag k="amenity" v="kindergarten" />
		<tag k="capacity" v="82" />
		<tag k="contact:email" v="fjaeba@online.no" />
		<tag k="contact:phone" v="+47 97731355" />
		<tag k="max_age" v="5" />
		<tag k="min_age" v="1" />
		<tag k="name" v="Stiftelsen Fjæraskogen barnehage" />
		<tag k="no-barnehage:nsrid" v="1020149" />
		<tag k="operator" v="Stiftelsen Fjæraskogen barnehage" />
		<tag k="operator:type" v="private" />
		<tag k="start_date" v="1993-12-01" />
	</node>
	<node id="-4936" lat="63.43948" lon="10.48376">
		<tag k="amenity" v="kindergarten" />
		<tag k="capacity" v="56" />
		<tag k="contact:email" v="rotnissen@steinerbarnehage.no" />
		<tag k="contact:phone" v="+47 73 91 32 44" />
		<tag k="max_age" v="5" />
		<tag k="min_age" v="1" />
		<tag k="name" v="Steinerbarnehagen Rotnissen" />
		<tag k="no-barnehage:nsrid" v="1021049" />
		<tag k="operator" v="Stiftelsen Steinerbarnehagen Rotnissen" />
		<tag k="operator:type" v="private" />
		<tag k="start_date" v="1992-01-01" />
	</node>
	<node id="-4934" lat="63.38604" lon="10.33278">
		<tag k="amenity" v="kindergarten" />
		<tag k="capacity" v="73" />
		<tag k="contact:email" v="dagligleder.stavsetmyra@barnehage.no" />
		<tag k="contact:phone" v="+47 72 56 60 70" />
		<tag k="max_age" v="5" />
		<tag k="min_age" v="1" />
		<tag k="name" v="Stavsetmyra barnehage Sa" />
		<tag k="no-barnehage:nsrid" v="1020550" />
		<tag k="operator" v="Stavsetmyra barnehage Sa" />
		<tag k="operator:type" v="private" />
		<tag k="start_date" v="1999-08-01" />
	</node>
	<node id="-4933" lat="63.41492" lon="10.37908">
		<tag k="amenity" v="kindergarten" />
		<tag k="capacity" v="19" />
		<tag k="contact:email" v="lkj@stavnebarnehage.no" />
		<tag k="contact:phone" v="+47 73 93 18 70" />
		<tag k="contact:website" v="http://stavne-barnehage.com" />
		<tag k="max_age" v="5" />
		<tag k="min_age" v="1" />
		<tag k="name" v="Stavne Tospråklige barnehage" />
		<tag k="no-barnehage:nsrid" v="1021001" />
		<tag k="operator" v="Byåsen Tospråklige barnehage AS" />
		<tag k="operator:type" v="private" />
		<tag k="start_date" v="2003-12-07" />
	</node>
	<node id="-4932" lat="63.4489" lon="10.4405">
		<tag k="amenity" v="kindergarten" />
		<tag k="capacity" v="80" />
		<tag k="contact:email" v="elisabeth.holmvik@trondheim.kommune.no" />
		<tag k="max_age" v="5" />
		<tag k="min_age" v="3" />
		<tag k="name" v="Stabburet barnehage" />
		<tag k="no-barnehage:nsrid" v="1016846" />
		<tag k="operator" v="Trondheim kommune" />
		<tag k="operator:type" v="public" />
		<tag k="start_date" v="1970-12-30" />
	</node>
	<node id="-4931" lat="63.3577" lon="10.1603">
		<tag k="amenity" v="kindergarten" />
		<tag k="capacity" v="34" />
		<tag k="contact:email" v="torill-stolan.hafsmo@trondheim.kommune.no" />
		<tag k="max_age" v="5" />
		<tag k="min_age" v="1" />
		<tag k="name" v="Spongdal barnehage" />
		<tag k="no-barnehage:nsrid" v="1017804" />
		<tag k="operator" v="Trondheim kommune" />
		<tag k="operator:type" v="public" />
		<tag k="start_date" v="2006-01-01" />
	</node>
	<node id="-4930" lat="63.40434" lon="10.36275">
		<tag k="amenity" v="kindergarten" />
		<tag k="capacity" v="56" />
		<tag k="contact:email" v="sommerfuglen@steinerbarnehage.no" />
		<tag k="contact:phone" v="+47 72 55 83 00" />
		<tag k="contact:website" v="http://www.sommerfuglen.steinerbarnehagene.no" />
		<tag k="max_age" v="5" />
		<tag k="min_age" v="1" />
		<tag k="name" v="Sommerfuglen Steinerbarnehage AS" />
		<tag k="no-barnehage:nsrid" v="1021142" />
		<tag k="operator" v="Sommerfuglen Steinerbarnehage AS" />
		<tag k="operator:type" v="private" />
		<tag k="start_date" v="2006-01-01" />
	</node>
	<node id="-4929" lat="63.39236" lon="10.36269">
		<tag k="amenity" v="kindergarten" />
		<tag k="capacity" v="73" />
		<tag k="contact:email" v="administrasjon@solvangen.com" />
		<tag k="contact:phone" v="+47 72 56 70 10" />
		<tag k="contact:website" v="http://www.solvangen.com" />
		<tag k="max_age" v="5" />
		<tag k="min_age" v="1" />
		<tag k="name" v="Solvangen barnehage Sa" />
		<tag k="no-barnehage:nsrid" v="1020780" />
		<tag k="operator" v="Solvangen barnehage Sa" />
		<tag k="operator:type" v="private" />
		<tag k="start_date" v="2002-02-19" />
	</node>
	<node id="-4925" lat="63.397" lon="10.4318">
		<tag k="amenity" v="kindergarten" />
		<tag k="capacity" v="58" />
		<tag k="contact:email" v="blakli-bhg.postmottak@trondheim.kommune.no" />
		<tag k="max_age" v="5" />
		<tag k="min_age" v="1" />
		<tag k="name" v="Sollia barnehage" />
		<tag k="no-barnehage:nsrid" v="1013901" />
		<tag k="operator" v="Trondheim kommune" />
		<tag k="operator:type" v="public" />
		<tag k="start_date" v="1990-01-01" />
	</node>
	<node id="-4924" lat="63.4054" lon="10.40206">
		<tag k="amenity" v="kindergarten" />
		<tag k="capacity" v="27" />
		<tag k="contact:email" v="post@solflata.no" />
		<tag k="contact:phone" v="+47 73 93 27 68" />
		<tag k="contact:website" v="http://www.solflata.no" />
		<tag k="max_age" v="5" />
		<tag k="min_age" v="1" />
		<tag k="name" v="Solflata barnehage" />
		<tag k="no-barnehage:nsrid" v="1019873" />
		<tag k="operator" v="Stiftelsen Barnas Beste" />
		<tag k="operator:type" v="private" />
		<tag k="start_date" v="1989-12-01" />
	</node>
	<node id="-4923" lat="63.40767" lon="10.50194">
		<tag k="amenity" v="kindergarten" />
		<tag k="capacity" v="113" />
		<tag k="contact:email" v="anita.gaustad@solbakken-barnehage.no" />
		<tag k="contact:phone" v="+47 73 83 96 83" />
		<tag k="contact:website" v="http://solbakken.barnehage.no" />
		<tag k="max_age" v="5" />
		<tag k="min_age" v="1" />
		<tag k="name" v="Solbakken barnehage" />
		<tag k="no-barnehage:nsrid" v="1021714" />
		<tag k="operator" v="Solbakken Barnehager AS" />
		<tag k="operator:type" v="private" />
		<tag k="start_date" v="1992-08-01" />
	</node>
	<node id="-4922" lat="63.37634" lon="10.16502">
		<tag k="amenity" v="kindergarten" />
		<tag k="capacity" v="29" />
		<tag k="contact:email" v="marit@snillet.no" />
		<tag k="contact:phone" v="+47 92200335" />
		<tag k="max_age" v="5" />
		<tag k="min_age" v="1" />
		<tag k="name" v="Snillet Gård Friluftsbarnehage AS" />
		<tag k="no-barnehage:nsrid" v="1021677" />
		<tag k="operator" v="Snillet Gård Friluftsbarnehage AS" />
		<tag k="operator:type" v="private" />
		<tag k="start_date" v="2005-06-21" />
	</node>
	<node id="-4921" lat="63.4299" lon="10.414">
		<tag k="amenity" v="kindergarten" />
		<tag k="capacity" v="30" />
		<tag k="contact:email" v="smaabergan@beteltrondheim.no" />
		<tag k="max_age" v="5" />
		<tag k="min_age" v="1" />
		<tag k="name" v="Småbergan barnehage" />
		<tag k="no-barnehage:nsrid" v="1017048" />
		<tag k="operator" v="Pinsemenigheten Betel, Trondheim" />
		<tag k="operator:type" v="private" />
		<tag k="start_date" v="2006-01-01" />
	</node>
	<node id="-4920" lat="63.3949" lon="10.3963">
		<tag k="amenity" v="kindergarten" />
		<tag k="capacity" v="57" />
		<tag k="contact:email" v="hilde.haugan@aurorastiftelsen.no" />
		<tag k="max_age" v="5" />
		<tag k="min_age" v="1" />
		<tag k="name" v="Sluppen barnehage" />
		<tag k="no-barnehage:nsrid" v="1015948" />
		<tag k="operator" v="Stiftelsen Aurora" />
		<tag k="operator:type" v="private" />
		<tag k="start_date" v="1990-01-01" />
	</node>
	<node id="-4919" lat="63.3608" lon="10.3445">
		<tag k="amenity" v="kindergarten" />
		<tag k="capacity" v="50" />
		<tag k="contact:email" v="gjertrud.forbord@trondheim.kommune.no.no" />
		<tag k="max_age" v="5" />
		<tag k="min_age" v="1" />
		<tag k="name" v="Skyttervegen barnehage" />
		<tag k="no-barnehage:nsrid" v="1017808" />
		<tag k="operator" v="Trondheim kommune" />
		<tag k="operator:type" v="public" />
		<tag k="start_date" v="2006-01-01" />
	</node>
	<node id="-4918" lat="63.36265" lon="10.37085">
		<tag k="amenity" v="kindergarten" />
		<tag k="capacity" v="20" />
		<tag k="contact:email" v="skutabhg@frisurf.no" />
		<tag k="contact:phone" v="+47 73979390" />
		<tag k="max_age" v="5" />
		<tag k="min_age" v="1" />
		<tag k="name" v="Skuta barnehage Sa" />
		<tag k="no-barnehage:nsrid" v="1019836" />
		<tag k="operator" v="Skuta barnehage Sa" />
		<tag k="operator:type" v="private" />
		<tag k="start_date" v="1989-01-02" />
	</node>
	<node id="-4917" lat="63.40549" lon="10.32333">
		<tag k="amenity" v="kindergarten" />
		<tag k="capacity" v="8" />
		<tag k="contact:email" v="beritstower@hotmail.com" />
		<tag k="contact:phone" v="+47 98601675" />
		<tag k="max_age" v="2" />
		<tag k="min_age" v="1" />
		<tag k="name" v="Skogstua Private Bhg AS" />
		<tag k="no-barnehage:nsrid" v="1021857" />
		<tag k="operator" v="Skogstua Private Bhg AS" />
		<tag k="operator:type" v="private" />
		<tag k="start_date" v="2005-08-30" />
	</node>
	<node id="-4915" lat="63.3468" lon="10.3322">
		<tag k="amenity" v="kindergarten" />
		<tag k="capacity" v="40" />
		<tag k="contact:email" v="trine.kirknes@trondheim.kommune.no" />
		<tag k="max_age" v="5" />
		<tag k="min_age" v="1" />
		<tag k="name" v="Skjetlein barnehage" />
		<tag k="no-barnehage:nsrid" v="1018224" />
		<tag k="operator" v="Trondheim kommune" />
		<tag k="operator:type" v="public" />
		<tag k="start_date" v="1989-01-01" />
	</node>
	<node id="-4914" lat="63.3973" lon="10.3642">
		<tag k="amenity" v="kindergarten" />
		<tag k="capacity" v="64" />
		<tag k="contact:email" v="mari-ann-viken.larssen@trondheim.kommune.no" />
		<tag k="max_age" v="5" />
		<tag k="min_age" v="1" />
		<tag k="name" v="Skjermvegen barnehage" />
		<tag k="no-barnehage:nsrid" v="1016909" />
		<tag k="operator" v="Trondheim kommune" />
		<tag k="operator:type" v="public" />
		<tag k="start_date" v="1976-12-24" />
	</node>
	<node id="-4913" lat="63.42683" lon="10.52289">
		<tag k="amenity" v="kindergarten" />
		<tag k="capacity" v="80" />
		<tag k="contact:email" v="dl.sjoskogbekken@bhg.no" />
		<tag k="contact:phone" v="+47 73 83 80 60" />
		<tag k="max_age" v="5" />
		<tag k="min_age" v="1" />
		<tag k="name" v="Sjøskogbekken Fus barnehage AS" />
		<tag k="no-barnehage:nsrid" v="1021143" />
		<tag k="operator" v="Sjøskogbekken Fus barnehage AS" />
		<tag k="operator:type" v="private" />
		<tag k="start_date" v="2003-11-12" />
	</node>
	<node id="-4911" lat="63.3681" lon="10.3971">
		<tag k="amenity" v="kindergarten" />
		<tag k="capacity" v="75" />
		<tag k="contact:email" v="ella-marie.ingdal@trondheim.kommune.no" />
		<tag k="max_age" v="5" />
		<tag k="min_age" v="1" />
		<tag k="name" v="Sjetne barnehage" />
		<tag k="no-barnehage:nsrid" v="1016842" />
		<tag k="operator" v="Trondheim kommune" />
		<tag k="operator:type" v="public" />
		<tag k="start_date" v="1976-12-24" />
	</node>
	<node id="-4910" lat="63.4235" lon="10.4137">
		<tag k="amenity" v="kindergarten" />
		<tag k="capacity" v="33" />
		<tag k="contact:email" v="kristin.eimhjellen@trondheim.kommune.no" />
		<tag k="max_age" v="5" />
		<tag k="min_age" v="1" />
		<tag k="name" v="Singsaker barnehage" />
		<tag k="no-barnehage:nsrid" v="1017323" />
		<tag k="operator" v="Trondheim kommune" />
		<tag k="operator:type" v="public" />
		<tag k="start_date" v="1971-12-29" />
	</node>
	<node id="-4909" lat="63.396" lon="10.3802">
		<tag k="amenity" v="kindergarten" />
		<tag k="capacity" v="57" />
		<tag k="contact:email" v="mari-ann-viken.larssen@trondheim.kommune.no" />
		<tag k="max_age" v="5" />
		<tag k="min_age" v="1" />
		<tag k="name" v="Selsbakkhøgda barnehage" />
		<tag k="no-barnehage:nsrid" v="1016306" />
		<tag k="operator" v="Trondheim kommune" />
		<tag k="operator:type" v="public" />
		<tag k="start_date" v="2001-07-14" />
	</node>
	<node id="-4908" lat="63.43694" lon="10.44495">
		<tag k="amenity" v="kindergarten" />
		<tag k="capacity" v="38" />
		<tag k="contact:email" v="barnehage@saxenborg.no" />
		<tag k="contact:phone" v="+47 95914618" />
		<tag k="contact:website" v="http://www.saxenborg.no" />
		<tag k="max_age" v="5" />
		<tag k="min_age" v="1" />
		<tag k="name" v="Saxenborg barnehage Sa" />
		<tag k="no-barnehage:nsrid" v="1021406" />
		<tag k="operator" v="Saxenborg barnehage Sa" />
		<tag k="operator:type" v="private" />
		<tag k="start_date" v="2006-03-14" />
	</node>
	<node id="-4907" lat="63.3655" lon="10.3452">
		<tag k="amenity" v="kindergarten" />
		<tag k="capacity" v="62" />
		<tag k="contact:email" v="terje.nilsen@trondheim.kommune.no" />
		<tag k="max_age" v="5" />
		<tag k="min_age" v="1" />
		<tag k="name" v="Saupstad barnehage" />
		<tag k="no-barnehage:nsrid" v="1018432" />
		<tag k="operator" v="Trondheim kommune" />
		<tag k="operator:type" v="public" />
		<tag k="start_date" v="2008-08-01" />
	</node>
	<node id="-4906" lat="63.34105" lon="10.3637">
		<tag k="amenity" v="kindergarten" />
		<tag k="capacity" v="14" />
		<tag k="contact:email" v="sandbakken.barnehage@gmail.com" />
		<tag k="contact:phone" v="+47 72887817" />
		<tag k="max_age" v="5" />
		<tag k="min_age" v="1" />
		<tag k="name" v="Sandbakken barnehage Randi Viken" />
		<tag k="no-barnehage:nsrid" v="1019732" />
		<tag k="operator" v="Sandbakken barnehage Randi Viken" />
		<tag k="operator:type" v="private" />
		<tag k="start_date" v="1989-01-02" />
	</node>
	<node id="-4904" lat="63.4351" lon="10.4415">
		<tag k="amenity" v="kindergarten" />
		<tag k="capacity" v="32" />
		<tag k="contact:email" v="Heidi.Reese@trondheim.kommune.no" />
		<tag k="max_age" v="5" />
		<tag k="min_age" v="1" />
		<tag k="name" v="Rønningen barnehage" />
		<tag k="no-barnehage:nsrid" v="1025412" />
		<tag k="operator" v="Trondheim kommune" />
		<tag k="operator:type" v="public" />
		<tag k="start_date" v="1971-12-29" />
	</node>
	<node id="-4902" lat="63.4226" lon="10.1492">
		<tag k="amenity" v="kindergarten" />
		<tag k="capacity" v="71" />
		<tag k="contact:email" v="torill-stolan.hafsmo@trondheim.kommune.no" />
		<tag k="max_age" v="5" />
		<tag k="min_age" v="1" />
		<tag k="name" v="Rye barnehage" />
		<tag k="no-barnehage:nsrid" v="1017803" />
		<tag k="operator" v="Trondheim kommune" />
		<tag k="operator:type" v="public" />
		<tag k="start_date" v="2006-01-01" />
	</node>
	<node id="-4901" lat="63.44027" lon="10.43304">
		<tag k="amenity" v="kindergarten" />
		<tag k="capacity" v="23" />
		<tag k="contact:email" v="bts@online.no" />
		<tag k="contact:phone" v="+47 73 50 95 93" />
		<tag k="max_age" v="5" />
		<tag k="min_age" v="1" />
		<tag k="name" v="Rosenborg barnehage AS" />
		<tag k="no-barnehage:nsrid" v="1022334" />
		<tag k="operator" v="Rosenborg barnehage AS" />
		<tag k="operator:type" v="private" />
		<tag k="start_date" v="2013-01-01" />
	</node>
	<node id="-4900" lat="63.3783" lon="10.3635">
		<tag k="amenity" v="kindergarten" />
		<tag k="capacity" v="112" />
		<tag k="contact:email" v="nina.lidahl@trondheim.kommune.no" />
		<tag k="max_age" v="5" />
		<tag k="min_age" v="1" />
		<tag k="name" v="Romolslia barnehage" />
		<tag k="no-barnehage:nsrid" v="1018223" />
		<tag k="operator" v="Trondheim kommune" />
		<tag k="operator:type" v="public" />
		<tag k="start_date" v="1989-01-01" />
	</node>
	<node id="-4899" lat="63.3603" lon="10.3868">
		<tag k="amenity" v="kindergarten" />
		<tag k="capacity" v="53" />
		<tag k="contact:email" v="rfh@trondheim.kommune.no" />
		<tag k="max_age" v="5" />
		<tag k="min_age" v="1" />
		<tag k="name" v="Romemyra barnehage" />
		<tag k="no-barnehage:nsrid" v="1012524" />
		<tag k="operator" v="Trondheim kommune" />
		<tag k="operator:type" v="public" />
		<tag k="start_date" v="1989-01-01" />
	</node>
	<node id="-4898" lat="63.3552" lon="10.3817">
		<tag k="amenity" v="kindergarten" />
		<tag k="capacity" v="57" />
		<tag k="contact:email" v="lisbeth.jorgensen@trondheim.kommune.no" />
		<tag k="max_age" v="5" />
		<tag k="min_age" v="1" />
		<tag k="name" v="Rognbudalen barnehage" />
		<tag k="no-barnehage:nsrid" v="1018222" />
		<tag k="operator" v="Trondheim kommune" />
		<tag k="operator:type" v="public" />
		<tag k="start_date" v="1989-01-01" />
	</node>
	<node id="-4897" lat="63.3964" lon="10.4323">
		<tag k="amenity" v="kindergarten" />
		<tag k="capacity" v="77" />
		<tag k="contact:email" v="blakli-bhg.postmottak@trondheim.kommune.no" />
		<tag k="max_age" v="5" />
		<tag k="min_age" v="1" />
		<tag k="name" v="Risvollan barnehage" />
		<tag k="no-barnehage:nsrid" v="1018221" />
		<tag k="operator" v="Trondheim kommune" />
		<tag k="operator:type" v="public" />
		<tag k="start_date" v="1989-01-01" />
	</node>
	<node id="-4896" lat="63.35649" lon="10.25177">
		<tag k="amenity" v="kindergarten" />
		<tag k="capacity" v="58" />
		<tag k="contact:email" v="gunvor.krognes@ringvalskogen-barnehage.no" />
		<tag k="contact:phone" v="+47 72845653" />
		<tag k="contact:website" v="http://ringvalskogen.barnehage.no" />
		<tag k="max_age" v="5" />
		<tag k="min_age" v="1" />
		<tag k="name" v="Ringvålskogen barnehage Sa" />
		<tag k="no-barnehage:nsrid" v="1020146" />
		<tag k="operator" v="Ringvålskogen barnehage Sa" />
		<tag k="operator:type" v="private" />
		<tag k="start_date" v="1989-01-02" />
	</node>
	<node id="-4895" lat="63.3655" lon="10.3572">
		<tag k="amenity" v="kindergarten" />
		<tag k="capacity" v="81" />
		<tag k="contact:email" v="terje.nilsen@trondheim.kommune.no" />
		<tag k="max_age" v="5" />
		<tag k="min_age" v="1" />
		<tag k="name" v="Ringen barnehage" />
		<tag k="no-barnehage:nsrid" v="1018220" />
		<tag k="operator" v="Trondheim kommune" />
		<tag k="operator:type" v="public" />
		<tag k="start_date" v="1989-01-01" />
	</node>
	<node id="-4894" lat="63.4146" lon="10.4148">
		<tag k="amenity" v="kindergarten" />
		<tag k="capacity" v="59" />
		<tag k="contact:email" v="Kristin.T.Sivertsen@aurorastiftelsen.no" />
		<tag k="max_age" v="5" />
		<tag k="min_age" v="1" />
		<tag k="name" v="Regnbuen barnehage" />
		<tag k="no-barnehage:nsrid" v="1016835" />
		<tag k="operator" v="Stiftelsen Aurora" />
		<tag k="operator:type" v="private" />
		<tag k="start_date" v="1992-08-01" />
	</node>
	<node id="-4893" lat="63.4292" lon="10.5433">
		<tag k="amenity" v="kindergarten" />
		<tag k="capacity" v="38" />
		<tag k="contact:email" v="ingeborg.gulaker@trondheim.kommune.no" />
		<tag k="max_age" v="5" />
		<tag k="min_age" v="1" />
		<tag k="name" v="Ranheimssletta barnehage" />
		<tag k="no-barnehage:nsrid" v="1017821" />
		<tag k="operator" v="Trondheim kommune" />
		<tag k="operator:type" v="public" />
		<tag k="start_date" v="2006-01-01" />
	</node>
	<node id="-4892" lat="63.4261" lon="10.5345">
		<tag k="amenity" v="kindergarten" />
		<tag k="capacity" v="56" />
		<tag k="contact:email" v="ingeborg.gulaker@trondheim.kommune.no" />
		<tag k="max_age" v="5" />
		<tag k="min_age" v="1" />
		<tag k="name" v="Ranheim barnehage" />
		<tag k="no-barnehage:nsrid" v="1017820" />
		<tag k="operator" v="Trondheim kommune" />
		<tag k="operator:type" v="public" />
		<tag k="start_date" v="2006-01-01" />
	</node>
	<node id="-4891" lat="63.41913" lon="10.49301">
		<tag k="amenity" v="kindergarten" />
		<tag k="capacity" v="16" />
		<tag k="contact:email" v="viwanvik@online.no" />
		<tag k="max_age" v="5" />
		<tag k="min_age" v="1" />
		<tag k="name" v="Presthusaunet Junior barnehage AS" />
		<tag k="no-barnehage:nsrid" v="1021745" />
		<tag k="operator" v="Presthusaunet Junior barnehage AS" />
		<tag k="operator:type" v="private" />
		<tag k="start_date" v="1990-01-01" />
	</node>
	<node id="-4890" lat="63.4235" lon="10.5141">
		<tag k="amenity" v="kindergarten" />
		<tag k="capacity" v="73" />
		<tag k="contact:email" v="renate.kvivesen@trondheim.kommune.no" />
		<tag k="max_age" v="5" />
		<tag k="min_age" v="1" />
		<tag k="name" v="Presthus Gård barnehage" />
		<tag k="no-barnehage:nsrid" v="1017819" />
		<tag k="operator" v="Trondheim kommune" />
		<tag k="operator:type" v="public" />
		<tag k="start_date" v="2006-01-01" />
	</node>
	<node id="-4889" lat="63.4149" lon="10.4142">
		<tag k="amenity" v="kindergarten" />
		<tag k="capacity" v="38" />
		<tag k="contact:email" v="post@prestegardsjordet.no" />
		<tag k="max_age" v="5" />
		<tag k="min_age" v="1" />
		<tag k="name" v="Prestegårdsjordet barnehage" />
		<tag k="no-barnehage:nsrid" v="1016824" />
		<tag k="operator" v="Sintef-Barnehagene Prestegårdsjordet og Tyholttunet Sa" />
		<tag k="operator:type" v="private" />
		<tag k="start_date" v="1989-01-02" />
	</node>
	<node id="-4888" lat="63.3592" lon="10.3979">
		<tag k="amenity" v="kindergarten" />
		<tag k="capacity" v="77" />
		<tag k="contact:email" v="rfh@trondheim.kommune.no" />
		<tag k="max_age" v="5" />
		<tag k="min_age" v="1" />
		<tag k="name" v="Porsmyra barnehage" />
		<tag k="no-barnehage:nsrid" v="1017829" />
		<tag k="operator" v="Trondheim kommune" />
		<tag k="operator:type" v="public" />
		<tag k="start_date" v="2006-01-01" />
	</node>
	<node id="-4885" lat="63.4294" lon="10.4407">
		<tag k="amenity" v="kindergarten" />
		<tag k="capacity" v="73" />
		<tag k="contact:email" v="Heidi.Reese@trondheim.kommune.no" />
		<tag k="max_age" v="5" />
		<tag k="min_age" v="1" />
		<tag k="name" v="Persaunet barnehage" />
		<tag k="no-barnehage:nsrid" v="1018219" />
		<tag k="operator" v="Trondheim kommune" />
		<tag k="operator:type" v="public" />
		<tag k="start_date" v="1989-01-01" />
	</node>
	<node id="-4884" lat="63.3816" lon="10.3773">
		<tag k="amenity" v="kindergarten" />
		<tag k="capacity" v="66" />
		<tag k="contact:email" v="eva-karin-karlsen.brevik@trondheim.kommune.no" />
		<tag k="max_age" v="5" />
		<tag k="min_age" v="1" />
		<tag k="name" v="Okstadvegen barnehage" />
		<tag k="no-barnehage:nsrid" v="1017812" />
		<tag k="operator" v="Trondheim kommune" />
		<tag k="operator:type" v="public" />
		<tag k="start_date" v="2006-01-01" />
	</node>
	<node id="-4883" lat="63.3823" lon="10.3793">
		<tag k="amenity" v="kindergarten" />
		<tag k="capacity" v="65" />
		<tag k="contact:email" v="eva-karin-karlsen.brevik@trondheim.kommune.no" />
		<tag k="max_age" v="5" />
		<tag k="min_age" v="1" />
		<tag k="name" v="Okstad barnehage" />
		<tag k="no-barnehage:nsrid" v="1014732" />
		<tag k="operator" v="Trondheim kommune" />
		<tag k="operator:type" v="public" />
		<tag k="start_date" v="1992-08-01" />
	</node>
	<node id="-4882" lat="63.3306" lon="10.3107">
		<tag k="amenity" v="kindergarten" />
		<tag k="capacity" v="67" />
		<tag k="contact:email" v="Marianne.snoan@trondheim.kommune.no" />
		<tag k="max_age" v="5" />
		<tag k="min_age" v="1" />
		<tag k="name" v="Nypvang barnehage" />
		<tag k="no-barnehage:nsrid" v="1017802" />
		<tag k="operator" v="Trondheim kommune" />
		<tag k="operator:type" v="public" />
		<tag k="start_date" v="2006-01-01" />
	</node>
	<node id="-4880" lat="63.41" lon="10.3517">
		<tag k="amenity" v="kindergarten" />
		<tag k="capacity" v="69" />
		<tag k="contact:email" v="grete.knudsen@trondheim.kommune.no" />
		<tag k="max_age" v="5" />
		<tag k="min_age" v="1" />
		<tag k="name" v="Nyborg barnehage" />
		<tag k="no-barnehage:nsrid" v="1014900" />
		<tag k="operator" v="Trondheim kommune" />
		<tag k="operator:type" v="public" />
		<tag k="start_date" v="1994-08-01" />
	</node>
	<node id="-4879" lat="63.3846" lon="10.4021">
		<tag k="amenity" v="kindergarten" />
		<tag k="capacity" v="43" />
		<tag k="contact:email" v="nardo-bhg.postmottak@trondheim.kommune.no" />
		<tag k="max_age" v="5" />
		<tag k="min_age" v="1" />
		<tag k="name" v="Nordslettveien barnehage" />
		<tag k="no-barnehage:nsrid" v="1012523" />
		<tag k="operator" v="Trondheim kommune" />
		<tag k="operator:type" v="public" />
		<tag k="start_date" v="1989-01-01" />
	</node>
	<node id="-4878" lat="63.3935" lon="10.4286">
		<tag k="amenity" v="kindergarten" />
		<tag k="capacity" v="31" />
		<tag k="contact:email" v="spiren@nlmbhg.no" />
		<tag k="contact:phone" v="+47 45975498" />
		<tag k="max_age" v="5" />
		<tag k="min_age" v="1" />
		<tag k="name" v="Nlm Barnehagene AS Avd Spiren Barnehage" />
		<tag k="no-barnehage:nsrid" v="1016780" />
		<tag k="operator" v="Nlm-Barnehagene AS" />
		<tag k="operator:type" v="private" />
		<tag k="start_date" v="1972-12-26" />
	</node>
	<node id="-4877" lat="63.388" lon="10.3202">
		<tag k="amenity" v="kindergarten" />
		<tag k="capacity" v="24" />
		<tag k="contact:email" v="ptv@trondheim.kommune.no" />
		<tag k="max_age" v="5" />
		<tag k="min_age" v="3" />
		<tag k="name" v="Nilsbyen Friluftsbarnehage" />
		<tag k="no-barnehage:nsrid" v="1014899" />
		<tag k="operator" v="Trondheim kommune" />
		<tag k="operator:type" v="public" />
		<tag k="start_date" v="1992-08-01" />
	</node>
	<node id="-4876" lat="63.4023" lon="10.4117">
		<tag k="amenity" v="kindergarten" />
		<tag k="capacity" v="83" />
		<tag k="contact:email" v="jgx@trondheim.kommune.no" />
		<tag k="max_age" v="5" />
		<tag k="min_age" v="1" />
		<tag k="name" v="Nidarvoll barnehage" />
		<tag k="no-barnehage:nsrid" v="1016843" />
		<tag k="operator" v="Trondheim kommune" />
		<tag k="operator:type" v="public" />
		<tag k="start_date" v="1976-12-24" />
	</node>
	<node id="-4874" lat="63.3786" lon="10.347">
		<tag k="amenity" v="kindergarten" />
		<tag k="capacity" v="106" />
		<tag k="contact:email" v="trine.mogstad@trondheim.kommune.no" />
		<tag k="max_age" v="5" />
		<tag k="min_age" v="1" />
		<tag k="name" v="Nedre Flatåsen barnehage" />
		<tag k="no-barnehage:nsrid" v="1018587" />
		<tag k="operator" v="Trondheim kommune" />
		<tag k="operator:type" v="public" />
		<tag k="start_date" v="2009-08-01" />
	</node>
	<node id="-4873" lat="63.4365" lon="10.4128">
		<tag k="amenity" v="kindergarten" />
		<tag k="capacity" v="32" />
		<tag k="contact:email" v="oyvind.svendsen@trondheim.kommune.no" />
		<tag k="max_age" v="5" />
		<tag k="min_age" v="1" />
		<tag k="name" v="Nedre Elvehavn barnehage" />
		<tag k="no-barnehage:nsrid" v="1017798" />
		<tag k="operator" v="Trondheim kommune" />
		<tag k="operator:type" v="public" />
		<tag k="start_date" v="2006-02-15" />
	</node>
	<node id="-4872" lat="63.4069" lon="10.4177">
		<tag k="amenity" v="kindergarten" />
		<tag k="capacity" v="68" />
		<tag k="contact:email" v="aul@trondheim.kommune.no" />
		<tag k="max_age" v="5" />
		<tag k="min_age" v="1" />
		<tag k="name" v="Nardo barnehage" />
		<tag k="no-barnehage:nsrid" v="1015950" />
		<tag k="operator" v="Trondheim kommune" />
		<tag k="operator:type" v="public" />
		<tag k="start_date" v="1989-12-01" />
	</node>
	<node id="-4871" lat="63.3614" lon="10.3515">
		<tag k="amenity" v="kindergarten" />
		<tag k="capacity" v="23" />
		<tag k="contact:email" v="post@statped.no" />
		<tag k="max_age" v="5" />
		<tag k="min_age" v="1" />
		<tag k="name" v="Møller barnehage" />
		<tag k="no-barnehage:nsrid" v="1014004" />
		<tag k="operator" v="Kunnskapsdepartementet" />
		<tag k="start_date" v="2009-01-01" />
	</node>
	<node id="-4870" lat="63.4309" lon="10.4119">
		<tag k="amenity" v="kindergarten" />
		<tag k="capacity" v="66" />
		<tag k="contact:email" v="vigdis-sather.halsli@trondheim.kommune.no" />
		<tag k="max_age" v="5" />
		<tag k="min_age" v="1" />
		<tag k="name" v="Møllenberg barnehage" />
		<tag k="no-barnehage:nsrid" v="1018218" />
		<tag k="operator" v="Trondheim kommune" />
		<tag k="operator:type" v="public" />
		<tag k="start_date" v="1989-01-01" />
	</node>
	<node id="-4869" lat="63.4295" lon="10.3614">
		<tag k="amenity" v="kindergarten" />
		<tag k="capacity" v="49" />
		<tag k="contact:email" v="hege.hansen@trondheim.kommune.no" />
		<tag k="max_age" v="5" />
		<tag k="min_age" v="1" />
		<tag k="name" v="Møllebakken barnehage" />
		<tag k="no-barnehage:nsrid" v="1018217" />
		<tag k="operator" v="Trondheim kommune" />
		<tag k="operator:type" v="public" />
		<tag k="start_date" v="1989-01-01" />
	</node>
	<node id="-4868" lat="63.4026" lon="10.3391">
		<tag k="amenity" v="kindergarten" />
		<tag k="capacity" v="68" />
		<tag k="contact:email" v="unni.schjelderup@trondheim.kommune.no" />
		<tag k="max_age" v="5" />
		<tag k="min_age" v="1" />
		<tag k="name" v="Myra barnehage" />
		<tag k="no-barnehage:nsrid" v="1016737" />
		<tag k="operator" v="Trondheim kommune" />
		<tag k="operator:type" v="public" />
		<tag k="start_date" v="1989-01-02" />
	</node>
	<node id="-4867" lat="63.42745" lon="10.36337">
		<tag k="amenity" v="kindergarten" />
		<tag k="contact:email" v="nora.kulset@ntnu.no" />
		<tag k="contact:phone" v="+47 95086983" />
		<tag k="contact:website" v="http://www.musikkmanesjen.no" />
		<tag k="name" v="Musikkmanesjen" />
		<tag k="no-barnehage:nsrid" v="1021564" />
		<tag k="operator" v="Kulset Musikkmanesjen" />
		<tag k="operator:type" v="private" />
		<tag k="start_date" v="2007-01-01" />
	</node>
	<node id="-4866" lat="63.4003" lon="10.361">
		<tag k="amenity" v="kindergarten" />
		<tag k="capacity" v="41" />
		<tag k="contact:email" v="trond.rokke@trondheim.kommune.no" />
		<tag k="max_age" v="5" />
		<tag k="min_age" v="1" />
		<tag k="name" v="Munkvoll barnehage" />
		<tag k="no-barnehage:nsrid" v="1016910" />
		<tag k="operator" v="Trondheim kommune" />
		<tag k="operator:type" v="public" />
		<tag k="start_date" v="1976-12-24" />
	</node>
	<node id="-4864" lat="63.43534" lon="10.43338">
		<tag k="amenity" v="kindergarten" />
		<tag k="capacity" v="15" />
		<tag k="contact:email" v="motbakken.barnehage@gmail.com" />
		<tag k="contact:phone" v="+47 73965596" />
		<tag k="contact:website" v="http://www.motbakken.no" />
		<tag k="max_age" v="2" />
		<tag k="min_age" v="1" />
		<tag k="name" v="Motbakken barnehage Sa" />
		<tag k="no-barnehage:nsrid" v="1020095" />
		<tag k="operator" v="Motbakken barnehage Sa" />
		<tag k="operator:type" v="private" />
		<tag k="start_date" v="1992-08-01" />
	</node>
	<node id="-4863" lat="63.41786" lon="10.41222">
		<tag k="amenity" v="kindergarten" />
		<tag k="capacity" v="31" />
		<tag k="contact:email" v="linda@mb-s.no" />
		<tag k="contact:phone" v="+47 907 77 324" />
		<tag k="max_age" v="5" />
		<tag k="min_age" v="1" />
		<tag k="name" v="Montessoribarnehagene Trondheim AS" />
		<tag k="no-barnehage:nsrid" v="1021969" />
		<tag k="operator" v="Montessoribarnehagene Trondheim AS" />
		<tag k="operator:type" v="private" />
		<tag k="start_date" v="2009-06-25" />
	</node>
	<node id="-4862" lat="63.3627" lon="10.3964">
		<tag k="amenity" v="kindergarten" />
		<tag k="capacity" v="74" />
		<tag k="contact:email" v="ruth-kjellaug.sandvik@trondheim.kommune.no" />
		<tag k="max_age" v="5" />
		<tag k="min_age" v="1" />
		<tag k="name" v="Moltmyra barnehage" />
		<tag k="no-barnehage:nsrid" v="1018606" />
		<tag k="operator" v="Trondheim kommune" />
		<tag k="operator:type" v="public" />
		<tag k="start_date" v="2009-08-01" />
	</node>
	<node id="-4861" lat="63.4271" lon="10.3865">
		<tag k="amenity" v="kindergarten" />
		<tag k="capacity" v="35" />
		<tag k="contact:email" v="rmj@asylselskapet.no" />
		<tag k="contact:phone" v="+47 73 87 68 80" />
		<tag k="max_age" v="5" />
		<tag k="min_age" v="1" />
		<tag k="name" v="Midtbyen barnehage" />
		<tag k="no-barnehage:nsrid" v="1025398" />
		<tag k="operator" v="Trondhjems Asylselskap" />
		<tag k="operator:type" v="private" />
		<tag k="start_date" v="1976-12-24" />
	</node>
	<node id="-4859" lat="63.41469" lon="10.53103">
		<tag k="amenity" v="kindergarten" />
		<tag k="capacity" v="72" />
		<tag k="contact:email" v="vera@markaplassen-barnehage.no" />
		<tag k="contact:phone" v="+47 73 57 04 30" />
		<tag k="contact:website" v="http://www.markaplassen-barnehage.no" />
		<tag k="max_age" v="5" />
		<tag k="min_age" v="1" />
		<tag k="name" v="Markaplassen barnehage" />
		<tag k="no-barnehage:nsrid" v="1020150" />
		<tag k="operator" v="Markaplassen barnehage Sa" />
		<tag k="operator:type" v="private" />
		<tag k="start_date" v="1992-05-05" />
	</node>
	<node id="-4856" lat="63.4309" lon="10.4415">
		<tag k="amenity" v="kindergarten" />
		<tag k="capacity" v="75" />
		<tag k="contact:email" v="arne.kjos@trondheim.kommune.no" />
		<tag k="max_age" v="5" />
		<tag k="min_age" v="1" />
		<tag k="name" v="Majorstuen barnehage" />
		<tag k="no-barnehage:nsrid" v="1017741" />
		<tag k="operator" v="Trondheim kommune" />
		<tag k="operator:type" v="public" />
		<tag k="start_date" v="2007-05-01" />
	</node>
	<node id="-4855" lat="63.4311" lon="10.3814">
		<tag k="amenity" v="kindergarten" />
		<tag k="capacity" v="17" />
		<tag k="contact:email" v="rmj@asylselskapet.no" />
		<tag k="max_age" v="5" />
		<tag k="min_age" v="1" />
		<tag k="name" v="Løkkan barnehage" />
		<tag k="no-barnehage:nsrid" v="1014781" />
		<tag k="operator" v="Trondhjems Asylselskap" />
		<tag k="operator:type" v="private" />
		<tag k="start_date" v="1993-08-01" />
	</node>
	<node id="-4853" lat="63.4215" lon="10.355">
		<tag k="amenity" v="kindergarten" />
		<tag k="capacity" v="47" />
		<tag k="contact:email" v="kontor@laringsverkstedet.no" />
		<tag k="max_age" v="5" />
		<tag k="min_age" v="1" />
		<tag k="name" v="Læringsverkstedet barnehage Hammersborg" />
		<tag k="no-barnehage:nsrid" v="1015117" />
		<tag k="operator" v="Læringsverkstedet Hammersborg AS" />
		<tag k="operator:type" v="private" />
		<tag k="start_date" v="2012-08-01" />
	</node>
	<node id="-4852" lat="63.4276" lon="10.5411">
		<tag k="amenity" v="kindergarten" />
		<tag k="capacity" v="87" />
		<tag k="contact:email" v="humlehaugen@laringsverkstedet.no" />
		<tag k="max_age" v="5" />
		<tag k="min_age" v="1" />
		<tag k="name" v="Læringsverkstedet barnehage Avd Humlehaugen" />
		<tag k="no-barnehage:nsrid" v="1015120" />
		<tag k="operator" v="Læringsverkstedet AS" />
		<tag k="operator:type" v="private" />
		<tag k="start_date" v="2012-08-01" />
	</node>
	<node id="-4851" lat="63.392" lon="10.3544">
		<tag k="amenity" v="kindergarten" />
		<tag k="capacity" v="76" />
		<tag k="contact:email" v="buenget@laringsverkstedet.no" />
		<tag k="max_age" v="5" />
		<tag k="min_age" v="1" />
		<tag k="name" v="Læringsverkstedet barnehage Avd Buenget" />
		<tag k="no-barnehage:nsrid" v="1013557" />
		<tag k="operator" v="Læringsverkstedet AS" />
		<tag k="operator:type" v="private" />
		<tag k="start_date" v="2013-05-01" />
	</node>
	<node id="-4850" lat="63.3441" lon="10.3346">
		<tag k="amenity" v="kindergarten" />
		<tag k="capacity" v="43" />
		<tag k="contact:email" v="trine.kirknes@trondheim.kommune.no" />
		<tag k="max_age" v="5" />
		<tag k="min_age" v="1" />
		<tag k="name" v="Lyngmyra barnehage" />
		<tag k="no-barnehage:nsrid" v="1018216" />
		<tag k="operator" v="Trondheim kommune" />
		<tag k="operator:type" v="public" />
		<tag k="start_date" v="1989-01-01" />
	</node>
	<node id="-4849" lat="63.35413" lon="10.32707">
		<tag k="amenity" v="kindergarten" />
		<tag k="capacity" v="71" />
		<tag k="contact:email" v="lundasen.barnehage@gmail.no" />
		<tag k="contact:phone" v="+47 93 43 09 39" />
		<tag k="contact:website" v="http://lundasen-barnehage.no" />
		<tag k="max_age" v="5" />
		<tag k="min_age" v="1" />
		<tag k="name" v="Lundåsen barnehage AS" />
		<tag k="no-barnehage:nsrid" v="1021221" />
		<tag k="operator" v="Lundåsen barnehage AS" />
		<tag k="operator:type" v="private" />
		<tag k="start_date" v="2006-01-01" />
	</node>
	<node id="-4848" lat="63.36891" lon="10.40743">
		<tag k="amenity" v="kindergarten" />
		<tag k="capacity" v="41" />
		<tag k="contact:email" v="marianne.schevig@getmail.no" />
		<tag k="contact:phone" v="+47 72 88 05 02" />
		<tag k="max_age" v="5" />
		<tag k="min_age" v="1" />
		<tag k="name" v="Lunderhaugen barnehage AS" />
		<tag k="no-barnehage:nsrid" v="1021581" />
		<tag k="operator" v="Lunderhaugen barnehage AS" />
		<tag k="operator:type" v="private" />
		<tag k="start_date" v="2007-02-10" />
	</node>
	<node id="-4847" lat="63.4051" lon="10.457">
		<tag k="amenity" v="kindergarten" />
		<tag k="capacity" v="70" />
		<tag k="contact:email" v="trine.almenning@trondheim.kommune.no" />
		<tag k="max_age" v="5" />
		<tag k="min_age" v="1" />
		<tag k="name" v="Lohove barnehage" />
		<tag k="no-barnehage:nsrid" v="1017826" />
		<tag k="operator" v="Trondheim kommune" />
		<tag k="operator:type" v="public" />
		<tag k="start_date" v="2007-08-01" />
	</node>
	<node id="-4846" lat="63.4164" lon="10.4337">
		<tag k="amenity" v="kindergarten" />
		<tag k="capacity" v="76" />
		<tag k="contact:email" v="heidi.kiel@trondheim.kommune.no" />
		<tag k="max_age" v="5" />
		<tag k="min_age" v="1" />
		<tag k="name" v="Lidarende barnehage" />
		<tag k="no-barnehage:nsrid" v="1017806" />
		<tag k="operator" v="Trondheim kommune" />
		<tag k="operator:type" v="public" />
		<tag k="start_date" v="2006-01-01" />
	</node>
	<node id="-4845" lat="63.3991" lon="10.314">
		<tag k="amenity" v="kindergarten" />
		<tag k="capacity" v="25" />
		<tag k="contact:email" v="siri-mette.petersen@trondheim.kommune.no" />
		<tag k="max_age" v="5" />
		<tag k="min_age" v="1" />
		<tag k="name" v="Lian Naturbarnehage" />
		<tag k="no-barnehage:nsrid" v="1025401" />
		<tag k="operator" v="Trondheim kommune" />
		<tag k="operator:type" v="public" />
		<tag k="start_date" v="1977-08-24" />
	</node>
	<node id="-4843" lat="63.4194" lon="10.4825">
		<tag k="amenity" v="kindergarten" />
		<tag k="capacity" v="80" />
		<tag k="contact:email" v="margrethe.midtsand@trondheim.kommune.no" />
		<tag k="max_age" v="5" />
		<tag k="min_age" v="1" />
		<tag k="name" v="Leistad barnehage" />
		<tag k="no-barnehage:nsrid" v="1017811" />
		<tag k="operator" v="Trondheim kommune" />
		<tag k="operator:type" v="public" />
		<tag k="start_date" v="2006-01-01" />
	</node>
	<node id="-4841" lat="63.42896" lon="10.46117">
		<tag k="amenity" v="kindergarten" />
		<tag k="capacity" v="62" />
		<tag k="contact:email" v="wenche@leangenkulturbarnehage.no" />
		<tag k="contact:phone" v="+47 73 90 17 30" />
		<tag k="contact:website" v="http://www.leangenkulturbarnehage.no" />
		<tag k="max_age" v="5" />
		<tag k="min_age" v="1" />
		<tag k="name" v="Leangen Kulturbarnehage Sa" />
		<tag k="no-barnehage:nsrid" v="1019913" />
		<tag k="operator" v="Leangen Kulturbarnehage Sa" />
		<tag k="operator:type" v="private" />
		<tag k="start_date" v="1990-01-01" />
	</node>
	<node id="-4840" lat="63.4421" lon="10.4659">
		<tag k="amenity" v="kindergarten" />
		<tag k="capacity" v="74" />
		<tag k="contact:email" v="siri-anita.sandstad@trondheim.kommune.no" />
		<tag k="max_age" v="5" />
		<tag k="min_age" v="1" />
		<tag k="name" v="Ladesletta barnehage" />
		<tag k="no-barnehage:nsrid" v="1017212" />
		<tag k="operator" v="Trondheim kommune" />
		<tag k="operator:type" v="public" />
		<tag k="start_date" v="2006-07-01" />
	</node>
	<node id="-4839" lat="63.4369" lon="10.4212">
		<tag k="amenity" v="kindergarten" />
		<tag k="capacity" v="55" />
		<tag k="contact:email" v="glf@asylselskapet.no" />
		<tag k="contact:phone" v="+47 73 52 22 44" />
		<tag k="max_age" v="5" />
		<tag k="min_age" v="1" />
		<tag k="name" v="Lademoen barnehage" />
		<tag k="no-barnehage:nsrid" v="1016778" />
		<tag k="operator" v="Trondhjems Asylselskap" />
		<tag k="operator:type" v="private" />
		<tag k="start_date" v="1976-12-24" />
	</node>
	<node id="-4837" lat="63.4076" lon="10.3438">
		<tag k="amenity" v="kindergarten" />
		<tag k="capacity" v="54" />
		<tag k="contact:email" v="siri-mette.petersen@trondheim.kommune.no" />
		<tag k="max_age" v="5" />
		<tag k="min_age" v="1" />
		<tag k="name" v="Kyvatnet Naturbarnehage" />
		<tag k="no-barnehage:nsrid" v="1013419" />
		<tag k="operator" v="Trondheim kommune" />
		<tag k="operator:type" v="public" />
		<tag k="start_date" v="2006-01-01" />
	</node>
	<node id="-4836" lat="63.3964" lon="10.3297">
		<tag k="amenity" v="kindergarten" />
		<tag k="capacity" v="56" />
		<tag k="contact:email" v="Brynhild1.Henriksen@trondheim.kommune.no" />
		<tag k="max_age" v="5" />
		<tag k="min_age" v="1" />
		<tag k="name" v="Kystadåsen barnehage" />
		<tag k="no-barnehage:nsrid" v="1018215" />
		<tag k="operator" v="Trondheim kommune" />
		<tag k="operator:type" v="public" />
		<tag k="start_date" v="1989-01-01" />
	</node>
	<node id="-4834" lat="63.3895" lon="10.34184">
		<tag k="amenity" v="kindergarten" />
		<tag k="capacity" v="126" />
		<tag k="contact:email" v="liv@kystadbhg.no" />
		<tag k="contact:phone" v="+47 72 56 37 37" />
		<tag k="contact:website" v="http://www.kystadbhg.no/" />
		<tag k="max_age" v="5" />
		<tag k="min_age" v="1" />
		<tag k="name" v="Kystad Gård barnehage AS" />
		<tag k="no-barnehage:nsrid" v="1022066" />
		<tag k="operator" v="Kystad Gård barnehage AS" />
		<tag k="operator:type" v="private" />
		<tag k="start_date" v="2010-04-28" />
	</node>
	<node id="-4832" lat="63.4151" lon="10.3935">
		<tag k="amenity" v="kindergarten" />
		<tag k="capacity" v="79" />
		<tag k="contact:email" v="kristin.eimhjellen@trondheim.kommune.no" />
		<tag k="max_age" v="5" />
		<tag k="min_age" v="1" />
		<tag k="name" v="Kristiansten Barnehager" />
		<tag k="no-barnehage:nsrid" v="1013915" />
		<tag k="operator" v="Trondheim kommune" />
		<tag k="operator:type" v="public" />
		<tag k="start_date" v="1990-01-01" />
	</node>
	<node id="-4831" lat="63.4181" lon="10.3907">
		<tag k="amenity" v="kindergarten" />
		<tag k="capacity" v="56" />
		<tag k="contact:email" v="liv-randi.nervik@trondheim.kommune.no" />
		<tag k="max_age" v="5" />
		<tag k="min_age" v="1" />
		<tag k="name" v="Krinkelkroken barnehage" />
		<tag k="no-barnehage:nsrid" v="1016736" />
		<tag k="operator" v="Trondheim kommune" />
		<tag k="operator:type" v="public" />
		<tag k="start_date" v="1989-01-02" />
	</node>
	<node id="-4830" lat="63.4492" lon="10.4333">
		<tag k="amenity" v="kindergarten" />
		<tag k="capacity" v="27" />
		<tag k="contact:email" v="elisabeth.holmvik@trondheim.kommune.no" />
		<tag k="max_age" v="2" />
		<tag k="min_age" v="1" />
		<tag k="name" v="Korsvika barnehage" />
		<tag k="no-barnehage:nsrid" v="1014782" />
		<tag k="operator" v="Trondheim kommune" />
		<tag k="operator:type" v="public" />
		<tag k="start_date" v="1993-08-01" />
	</node>
	<node id="-4829" lat="63.3571" lon="10.3429">
		<tag k="amenity" v="kindergarten" />
		<tag k="capacity" v="60" />
		<tag k="contact:email" v="Jannicke.hegge@prima-as.no" />
		<tag k="max_age" v="5" />
		<tag k="min_age" v="1" />
		<tag k="name" v="Kongsvegen barnehage" />
		<tag k="no-barnehage:nsrid" v="1014008" />
		<tag k="operator" v="Prima AS" />
		<tag k="operator:type" v="private" />
		<tag k="start_date" v="2009-01-01" />
	</node>
	<node id="-4827" lat="63.3762" lon="10.3245">
		<tag k="amenity" v="kindergarten" />
		<tag k="capacity" v="36" />
		<tag k="contact:email" v="anna-ingeborg.aalberg@trondheim.kommune.no" />
		<tag k="max_age" v="5" />
		<tag k="min_age" v="1" />
		<tag k="name" v="Kolsås barnehage" />
		<tag k="no-barnehage:nsrid" v="1017816" />
		<tag k="operator" v="Trondheim kommune" />
		<tag k="operator:type" v="public" />
		<tag k="start_date" v="2006-01-01" />
	</node>
	<node id="-4826" lat="63.3683" lon="10.3501">
		<tag k="amenity" v="kindergarten" />
		<tag k="capacity" v="79" />
		<tag k="contact:email" v="elin.odegard@trondheim.kommune.no" />
		<tag k="max_age" v="5" />
		<tag k="min_age" v="1" />
		<tag k="name" v="Kolstad barnehage" />
		<tag k="no-barnehage:nsrid" v="1018214" />
		<tag k="operator" v="Trondheim kommune" />
		<tag k="operator:type" v="public" />
		<tag k="start_date" v="1989-01-01" />
	</node>
	<node id="-4825" lat="63.4134" lon="10.4012">
		<tag k="amenity" v="kindergarten" />
		<tag k="capacity" v="70" />
		<tag k="contact:email" v="esd@trondheim.kommune.no" />
		<tag k="max_age" v="5" />
		<tag k="min_age" v="1" />
		<tag k="name" v="Klæbuveien barnehage" />
		<tag k="no-barnehage:nsrid" v="1017818" />
		<tag k="operator" v="Trondheim kommune" />
		<tag k="operator:type" v="public" />
		<tag k="start_date" v="2006-01-01" />
	</node>
	<node id="-4824" lat="63.34784" lon="10.3521">
		<tag k="amenity" v="kindergarten" />
		<tag k="capacity" v="28" />
		<tag k="contact:email" v="post@kattemskogen.no" />
		<tag k="contact:phone" v="+47 41212203" />
		<tag k="max_age" v="5" />
		<tag k="min_age" v="1" />
		<tag k="name" v="Kattemskogen barnehage AS" />
		<tag k="no-barnehage:nsrid" v="1021550" />
		<tag k="operator" v="Kattemskogen barnehage AS" />
		<tag k="operator:type" v="private" />
		<tag k="start_date" v="2006-12-15" />
	</node>
	<node id="-4823" lat="63.3455" lon="10.3355">
		<tag k="amenity" v="kindergarten" />
		<tag k="capacity" v="86" />
		<tag k="contact:email" v="trine.kirknes@trondheim.kommune.no" />
		<tag k="max_age" v="5" />
		<tag k="min_age" v="1" />
		<tag k="name" v="Kattem barnehage" />
		<tag k="no-barnehage:nsrid" v="1015149" />
		<tag k="operator" v="Trondheim kommune" />
		<tag k="operator:type" v="public" />
		<tag k="start_date" v="2012-08-01" />
	</node>
	<node id="-4822" lat="63.3899" lon="10.435">
		<tag k="amenity" v="kindergarten" />
		<tag k="capacity" v="102" />
		<tag k="contact:email" v="ru2@trondheim.kommune.no" />
		<tag k="max_age" v="5" />
		<tag k="min_age" v="1" />
		<tag k="name" v="Kastbrekka barnehage" />
		<tag k="no-barnehage:nsrid" v="1017216" />
		<tag k="operator" v="Trondheim kommune" />
		<tag k="operator:type" v="public" />
		<tag k="start_date" v="2006-12-01" />
	</node>
	<node id="-4821" lat="63.4146" lon="10.36691">
		<tag k="amenity" v="kindergarten" />
		<tag k="capacity" v="24" />
		<tag k="contact:email" v="ojulius@frisurf.no" />
		<tag k="contact:phone" v="+47 72557767" />
		<tag k="max_age" v="5" />
		<tag k="min_age" v="1" />
		<tag k="name" v="Julius barnehage AS" />
		<tag k="no-barnehage:nsrid" v="1020517" />
		<tag k="operator" v="Julius barnehage AS" />
		<tag k="operator:type" v="private" />
		<tag k="start_date" v="1992-08-01" />
	</node>
	<node id="-4820" lat="63.4073" lon="10.4259">
		<tag k="amenity" v="kindergarten" />
		<tag k="capacity" v="36" />
		<tag k="contact:email" v="nardo-bhg.postmottak@trondheim.kommune.no" />
		<tag k="max_age" v="5" />
		<tag k="min_age" v="1" />
		<tag k="name" v="Jotunheimen barnehage" />
		<tag k="no-barnehage:nsrid" v="1017327" />
		<tag k="operator" v="Trondheim kommune" />
		<tag k="operator:type" v="public" />
		<tag k="start_date" v="1973-01-01" />
	</node>
	<node id="-4818" lat="63.417" lon="10.49603">
		<tag k="amenity" v="kindergarten" />
		<tag k="capacity" v="61" />
		<tag k="contact:email" v="jakobsgrenda@barnehage.no" />
		<tag k="max_age" v="5" />
		<tag k="min_age" v="1" />
		<tag k="name" v="Jakobsgrenda barnehage Sa" />
		<tag k="no-barnehage:nsrid" v="1021065" />
		<tag k="operator" v="Jakobsgrenda barnehage Sa" />
		<tag k="operator:type" v="private" />
		<tag k="start_date" v="2004-06-08" />
	</node>
	<node id="-4817" lat="63.4319" lon="10.3552">
		<tag k="amenity" v="kindergarten" />
		<tag k="capacity" v="31" />
		<tag k="contact:email" v="hege.hansen@trondheim.kommune.no" />
		<tag k="max_age" v="5" />
		<tag k="min_age" v="1" />
		<tag k="name" v="Ilsvika barnehage" />
		<tag k="no-barnehage:nsrid" v="1017830" />
		<tag k="operator" v="Trondheim kommune" />
		<tag k="operator:type" v="public" />
		<tag k="start_date" v="2006-01-01" />
	</node>
	<node id="-4816" lat="63.4311" lon="10.3659">
		<tag k="amenity" v="kindergarten" />
		<tag k="capacity" v="62" />
		<tag k="contact:email" v="monica.torsetnes@trondheim.kommune.no" />
		<tag k="max_age" v="5" />
		<tag k="min_age" v="1" />
		<tag k="name" v="Iladalen barnehage" />
		<tag k="no-barnehage:nsrid" v="1017810" />
		<tag k="operator" v="Trondheim kommune" />
		<tag k="operator:type" v="public" />
		<tag k="start_date" v="2006-01-01" />
	</node>
	<node id="-4815" lat="63.4298" lon="10.3663">
		<tag k="amenity" v="kindergarten" />
		<tag k="capacity" v="66" />
		<tag k="contact:email" v="monica.torsetnes@trondheim.kommune.no" />
		<tag k="max_age" v="5" />
		<tag k="min_age" v="1" />
		<tag k="name" v="Ila barnehage" />
		<tag k="no-barnehage:nsrid" v="1016912" />
		<tag k="operator" v="Trondheim kommune" />
		<tag k="operator:type" v="public" />
		<tag k="start_date" v="1976-12-24" />
	</node>
	<node id="-4814" lat="63.3513" lon="10.3842">
		<tag k="amenity" v="kindergarten" />
		<tag k="capacity" v="74" />
		<tag k="contact:email" v="trine.thorsoe@trondheim.kommune.no" />
		<tag k="max_age" v="5" />
		<tag k="min_age" v="1" />
		<tag k="name" v="Hårstad barnehage" />
		<tag k="no-barnehage:nsrid" v="1017822" />
		<tag k="operator" v="Trondheim kommune" />
		<tag k="operator:type" v="public" />
		<tag k="start_date" v="2006-01-01" />
	</node>
	<node id="-4812" lat="63.3688" lon="10.3418">
		<tag k="amenity" v="kindergarten" />
		<tag k="capacity" v="83" />
		<tag k="contact:email" v="torill.husvik@trondheim.kommune.no" />
		<tag k="max_age" v="5" />
		<tag k="min_age" v="1" />
		<tag k="name" v="Huseby barnehage" />
		<tag k="no-barnehage:nsrid" v="1018213" />
		<tag k="operator" v="Trondheim kommune" />
		<tag k="operator:type" v="public" />
		<tag k="start_date" v="1989-01-01" />
	</node>
	<node id="-4811" lat="63.42544" lon="10.42935">
		<tag k="amenity" v="kindergarten" />
		<tag k="capacity" v="25" />
		<tag k="contact:email" v="hms-bh@frisurf.no" />
		<tag k="contact:phone" v="+47 73532990" />
		<tag k="max_age" v="5" />
		<tag k="min_age" v="1" />
		<tag k="name" v="Hundremeterskogen Bhg Sa" />
		<tag k="no-barnehage:nsrid" v="1020094" />
		<tag k="operator" v="Hundremeterskogen Bhg Sa" />
		<tag k="operator:type" v="private" />
		<tag k="start_date" v="1992-08-01" />
	</node>
	<node id="-4810" lat="63.39141" lon="10.40344">
		<tag k="amenity" v="kindergarten" />
		<tag k="capacity" v="83" />
		<tag k="contact:email" v="dl.horneberg@bhg.no" />
		<tag k="max_age" v="5" />
		<tag k="min_age" v="1" />
		<tag k="name" v="Horneberg Fus barnehage AS" />
		<tag k="no-barnehage:nsrid" v="1021584" />
		<tag k="operator" v="Horneberg Fus barnehage AS" />
		<tag k="operator:type" v="private" />
		<tag k="start_date" v="2006-12-18" />
	</node>
	<node id="-4809" lat="63.3977" lon="10.4292">
		<tag k="amenity" v="kindergarten" />
		<tag k="contact:email" v="elijos@gmail.com" />
		<tag k="name" v="Hoeggen Åpen barnehage" />
		<tag k="no-barnehage:nsrid" v="1015778" />
		<tag k="operator" v="Hoeggen Sokn" />
		<tag k="operator:type" v="private" />
		<tag k="start_date" v="1999-01-01" />
	</node>
	<node id="-4808" lat="63.42223" lon="10.35697">
		<tag k="amenity" v="kindergarten" />
		<tag k="capacity" v="18" />
		<tag k="contact:email" v="hhoems@online.no" />
		<tag k="contact:phone" v="+47 95164580" />
		<tag k="contact:website" v="http://www.sverresborgallebarnehage.no" />
		<tag k="max_age" v="5" />
		<tag k="min_age" v="1" />
		<tag k="name" v="Hila Drift AS" />
		<tag k="no-barnehage:nsrid" v="1021701" />
		<tag k="operator" v="Hila Drift AS" />
		<tag k="operator:type" v="private" />
		<tag k="start_date" v="2002-11-15" />
	</node>
	<node id="-4806" lat="63.4098" lon="10.357">
		<tag k="amenity" v="kindergarten" />
		<tag k="capacity" v="57" />
		<tag k="contact:email" v="Trond..rokke@trondheim.kommune.no" />
		<tag k="max_age" v="5" />
		<tag k="min_age" v="1" />
		<tag k="name" v="Havsteinaunet barnehage" />
		<tag k="no-barnehage:nsrid" v="1018212" />
		<tag k="operator" v="Trondheim kommune" />
		<tag k="operator:type" v="public" />
		<tag k="start_date" v="1989-01-01" />
	</node>
	<node id="-4805" lat="63.3945" lon="10.3249">
		<tag k="amenity" v="kindergarten" />
		<tag k="capacity" v="53" />
		<tag k="contact:email" v="ptv@trondheim.kommune.no" />
		<tag k="contact:phone" v="+47 72 54 16 20" />
		<tag k="max_age" v="5" />
		<tag k="min_age" v="1" />
		<tag k="name" v="Haukåsen Friluftsbarnehage" />
		<tag k="no-barnehage:nsrid" v="1016733" />
		<tag k="operator" v="Trondheim kommune" />
		<tag k="operator:type" v="public" />
		<tag k="start_date" v="1989-01-02" />
	</node>
	<node id="-4802" lat="63.38958" lon="10.36327">
		<tag k="amenity" v="kindergarten" />
		<tag k="capacity" v="67" />
		<tag k="contact:email" v="dl.hallsetreina@bhg.no" />
		<tag k="max_age" v="5" />
		<tag k="min_age" v="1" />
		<tag k="name" v="Hallsetreina Fus barnehage AS" />
		<tag k="no-barnehage:nsrid" v="1021361" />
		<tag k="operator" v="Hallsetreina Fus barnehage AS" />
		<tag k="operator:type" v="private" />
		<tag k="start_date" v="2005-11-23" />
	</node>
	<node id="-4801" lat="63.42551" lon="10.43846">
		<tag k="amenity" v="kindergarten" />
		<tag k="capacity" v="17" />
		<tag k="contact:email" v="hagebyenbarnehage@gmail.com" />
		<tag k="contact:phone" v="+47 73915560" />
		<tag k="max_age" v="5" />
		<tag k="min_age" v="1" />
		<tag k="name" v="Hagebyen Private barnehage Sa" />
		<tag k="no-barnehage:nsrid" v="1020147" />
		<tag k="operator" v="Hagebyen Private barnehage Sa" />
		<tag k="operator:type" v="private" />
		<tag k="start_date" v="1993-08-01" />
	</node>
	<node id="-4796" lat="63.43043" lon="10.50711">
		<tag k="amenity" v="kindergarten" />
		<tag k="capacity" v="90" />
		<tag k="contact:email" v="dl.grilstad@bhg.no" />
		<tag k="max_age" v="5" />
		<tag k="min_age" v="1" />
		<tag k="name" v="Grilstad Fus barnehage AS" />
		<tag k="no-barnehage:nsrid" v="1021587" />
		<tag k="operator" v="Grilstad Fus barnehage AS" />
		<tag k="operator:type" v="private" />
		<tag k="start_date" v="2007-01-19" />
	</node>
	<node id="-4795" lat="63.4328" lon="10.5085">
		<tag k="amenity" v="kindergarten" />
		<tag k="capacity" v="83" />
		<tag k="contact:email" v="bente-p.hansen@trondheim.kommune.no" />
		<tag k="max_age" v="5" />
		<tag k="min_age" v="1" />
		<tag k="name" v="Grillstadfjæra barnehage" />
		<tag k="no-barnehage:nsrid" v="1015185" />
		<tag k="operator" v="Trondheim kommune" />
		<tag k="operator:type" v="public" />
		<tag k="start_date" v="2013-08-01" />
	</node>
	<node id="-4794" lat="63.41291" lon="10.46911">
		<tag k="amenity" v="kindergarten" />
		<tag k="capacity" v="88" />
		<tag k="contact:email" v="granaslia@barnehage.no" />
		<tag k="contact:phone" v="+47 73 90 36 50" />
		<tag k="contact:website" v="http://www.granasliabarnehage.no" />
		<tag k="max_age" v="5" />
		<tag k="min_age" v="1" />
		<tag k="name" v="Granåslia barnehage AS" />
		<tag k="no-barnehage:nsrid" v="1021255" />
		<tag k="operator" v="Granåslia barnehage AS" />
		<tag k="operator:type" v="private" />
		<tag k="start_date" v="2005-06-10" />
	</node>
	<node id="-4793" lat="63.3783" lon="10.3115">
		<tag k="amenity" v="kindergarten" />
		<tag k="capacity" v="57" />
		<tag k="contact:email" v="anna-ingeborg.aalberg@trondheim.kommune.no" />
		<tag k="max_age" v="5" />
		<tag k="min_age" v="1" />
		<tag k="name" v="Granåsen barnehage" />
		<tag k="no-barnehage:nsrid" v="1017817" />
		<tag k="operator" v="Trondheim kommune" />
		<tag k="operator:type" v="public" />
		<tag k="start_date" v="2006-01-01" />
	</node>
	<node id="-4792" lat="62.57524" lon="11.38536">
		<tag k="amenity" v="kindergarten" />
		<tag k="capacity" v="116" />
		<tag k="contact:email" v="leder.troa@gnistbarnehager.no" />
		<tag k="contact:phone" v="+47 40 00 65 96" />
		<tag k="contact:website" v="http://www.gnistbarnehager.no" />
		<tag k="max_age" v="5" />
		<tag k="min_age" v="1" />
		<tag k="name" v="Gnist Barnehager Trøa AS" />
		<tag k="no-barnehage:nsrid" v="1022014" />
		<tag k="operator" v="Gnist Barnehager Trøa AS" />
		<tag k="operator:type" v="private" />
		<tag k="start_date" v="2010-01-07" />
	</node>
	<node id="-4791" lat="63.4049" lon="10.3571">
		<tag k="amenity" v="kindergarten" />
		<tag k="capacity" v="72" />
		<tag k="contact:email" v="britt.holm@trondheim.kommune.no" />
		<tag k="contact:phone" v="+47 72 54 65 40" />
		<tag k="contact:website" v="http://intranett.trondheim.kommune.no/content/1130952175/Gjortlervegen-barnehage" />
		<tag k="max_age" v="5" />
		<tag k="min_age" v="1" />
		<tag k="name" v="Gjørtlervegen barnehage" />
		<tag k="no-barnehage:nsrid" v="1016986" />
		<tag k="operator" v="Trondheim kommune" />
		<tag k="operator:type" v="public" />
		<tag k="start_date" v="2006-01-01" />
	</node>
	<node id="-4790" lat="63.4176" lon="10.3927">
		<tag k="amenity" v="kindergarten" />
		<tag k="capacity" v="69" />
		<tag k="contact:email" v="liv-randi.nervik@trondheim.kommune.no" />
		<tag k="max_age" v="5" />
		<tag k="min_age" v="1" />
		<tag k="name" v="Gartneriet barnehage" />
		<tag k="no-barnehage:nsrid" v="1017627" />
		<tag k="operator" v="Trondheim kommune" />
		<tag k="operator:type" v="public" />
		<tag k="start_date" v="2007-01-01" />
	</node>
	<node id="-4787" lat="63.42012" lon="10.55874">
		<tag k="amenity" v="kindergarten" />
		<tag k="capacity" v="28" />
		<tag k="contact:email" v="fykenborg@barnehage.no" />
		<tag k="contact:phone" v="+47 73 57 25 76" />
		<tag k="contact:website" v="http://fykenborgbarnehage.no" />
		<tag k="max_age" v="5" />
		<tag k="min_age" v="1" />
		<tag k="name" v="Fykenborg barnehage Sa" />
		<tag k="no-barnehage:nsrid" v="1019915" />
		<tag k="operator" v="Fykenborg barnehage Sa" />
		<tag k="operator:type" v="private" />
		<tag k="start_date" v="1990-01-01" />
	</node>
	<node id="-4786" lat="63.3751" lon="10.3371">
		<tag k="amenity" v="kindergarten" />
		<tag k="capacity" v="119" />
		<tag k="contact:email" v="ellen.kjonstad@trondheim.kommune.no" />
		<tag k="max_age" v="5" />
		<tag k="min_age" v="1" />
		<tag k="name" v="Furutoppen barnehage" />
		<tag k="no-barnehage:nsrid" v="1018211" />
		<tag k="operator" v="Trondheim kommune" />
		<tag k="operator:type" v="public" />
		<tag k="start_date" v="1989-01-01" />
	</node>
	<node id="-4785" lat="63.37554" lon="10.4035">
		<tag k="amenity" v="kindergarten" />
		<tag k="capacity" v="27" />
		<tag k="contact:email" v="fosseskansen@gmail.com" />
		<tag k="contact:phone" v="+47 72 89 05 08" />
		<tag k="contact:website" v="http://www.fosseskansen.no" />
		<tag k="max_age" v="5" />
		<tag k="min_age" v="1" />
		<tag k="name" v="Fosseskansen barnehage AS" />
		<tag k="no-barnehage:nsrid" v="1021882" />
		<tag k="operator" v="Fosseskansen barnehage AS" />
		<tag k="operator:type" v="private" />
		<tag k="start_date" v="1992-08-01" />
	</node>
	<node id="-4784" lat="63.39231" lon="10.40155">
		<tag k="amenity" v="kindergarten" />
		<tag k="capacity" v="52" />
		<tag k="contact:email" v="eier@fossegrendabarnehage.no" />
		<tag k="max_age" v="5" />
		<tag k="min_age" v="1" />
		<tag k="name" v="Fossegrenda barnehage Roger Lørendal" />
		<tag k="no-barnehage:nsrid" v="1020667" />
		<tag k="operator" v="Fossegrenda barnehage Roger Lørendal" />
		<tag k="operator:type" v="private" />
		<tag k="start_date" v="1994-01-01" />
	</node>
	<node id="-4782" lat="63.43" lon="10.4188">
		<tag k="amenity" v="kindergarten" />
		<tag k="capacity" v="63" />
		<tag k="contact:email" v="vigdis.sather-halsli@trondheim.kommune.no" />
		<tag k="max_age" v="5" />
		<tag k="min_age" v="1" />
		<tag k="name" v="Festningen barnehage" />
		<tag k="no-barnehage:nsrid" v="1017799" />
		<tag k="operator" v="Trondheim kommune" />
		<tag k="operator:type" v="public" />
		<tag k="start_date" v="2006-01-01" />
	</node>
	<node id="-4781" lat="63.4165" lon="10.3389">
		<tag k="amenity" v="kindergarten" />
		<tag k="capacity" v="74" />
		<tag k="contact:email" v="noc@trondheim.kommune.no" />
		<tag k="contact:phone" v="+47 46908567" />
		<tag k="max_age" v="5" />
		<tag k="min_age" v="1" />
		<tag k="name" v="Ferista Friluftsbarnehage" />
		<tag k="no-barnehage:nsrid" v="1017801" />
		<tag k="operator" v="Trondheim kommune" />
		<tag k="operator:type" v="public" />
		<tag k="start_date" v="2006-04-01" />
	</node>
	<node id="-4780" lat="63.42713" lon="10.35005">
		<tag k="amenity" v="kindergarten" />
		<tag k="capacity" v="27" />
		<tag k="contact:email" v="lkj@stavnebarnehage.no" />
		<tag k="contact:phone" v="+47 73 93 18 70" />
		<tag k="max_age" v="5" />
		<tag k="min_age" v="1" />
		<tag k="name" v="Fagerlia Miljøbarnehage AS" />
		<tag k="no-barnehage:nsrid" v="1022020" />
		<tag k="operator" v="Fagerlia Miljøbarnehage AS" />
		<tag k="operator:type" v="private" />
		<tag k="start_date" v="2010-01-11" />
	</node>
	<node id="-4776" lat="63.35356" lon="10.34101">
		<tag k="amenity" v="kindergarten" />
		<tag k="capacity" v="25" />
		<tag k="contact:email" v="meretena@online.no" />
		<tag k="contact:phone" v="+47 72 84 90 65" />
		<tag k="max_age" v="5" />
		<tag k="min_age" v="1" />
		<tag k="name" v="Duttestien barnehage AS" />
		<tag k="no-barnehage:nsrid" v="1022089" />
		<tag k="operator" v="Duttestien barnehage AS" />
		<tag k="operator:type" v="private" />
		<tag k="start_date" v="2010-08-01" />
	</node>
	<node id="-4775" lat="63.4389" lon="10.4477">
		<tag k="amenity" v="kindergarten" />
		<tag k="capacity" v="60" />
		<tag k="contact:email" v="gh@asylselskapet.no" />
		<tag k="contact:phone" v="+47 73 99 29 30" />
		<tag k="max_age" v="5" />
		<tag k="min_age" v="1" />
		<tag k="name" v="Dronning Mauds Minne barnehage" />
		<tag k="no-barnehage:nsrid" v="1025402" />
		<tag k="operator" v="Trondhjems Asylselskap" />
		<tag k="operator:type" v="private" />
		<tag k="start_date" v="1989-01-02" />
	</node>
	<node id="-4774" lat="63.4223" lon="10.3921">
		<tag k="amenity" v="kindergarten" />
		<tag k="capacity" v="29" />
		<tag k="contact:email" v="ib@asylselskapet.no" />
		<tag k="contact:phone" v="+47 73 52 99 94" />
		<tag k="max_age" v="5" />
		<tag k="min_age" v="1" />
		<tag k="name" v="Domkirken barnehage" />
		<tag k="no-barnehage:nsrid" v="1016861" />
		<tag k="operator" v="Trondhjems Asylselskap" />
		<tag k="operator:type" v="private" />
		<tag k="start_date" v="1989-01-02" />
	</node>
	<node id="-4773" lat="63.39463" lon="10.34383">
		<tag k="amenity" v="kindergarten" />
		<tag k="capacity" v="92" />
		<tag k="contact:email" v="lisbeth@dalgaardtunet.no" />
		<tag k="contact:phone" v="+47 72 56 60 90" />
		<tag k="contact:website" v="http://www.dalgaardtunet.no" />
		<tag k="max_age" v="5" />
		<tag k="min_age" v="1" />
		<tag k="name" v="Dalgårdtunet barnehage AS" />
		<tag k="no-barnehage:nsrid" v="1021154" />
		<tag k="operator" v="Dalgårdtunet barnehage AS" />
		<tag k="operator:type" v="private" />
		<tag k="start_date" v="2004-12-08" />
	</node>
	<node id="-4772" lat="63.4222" lon="10.4907">
		<tag k="amenity" v="kindergarten" />
		<tag k="capacity" v="68" />
		<tag k="contact:email" v="margrethe.skevik@trondheim.kommune.no" />
		<tag k="max_age" v="5" />
		<tag k="min_age" v="1" />
		<tag k="name" v="Charlottenlund barnehage" />
		<tag k="no-barnehage:nsrid" v="1016860" />
		<tag k="operator" v="Trondheim kommune" />
		<tag k="operator:type" v="public" />
		<tag k="start_date" v="1989-01-02" />
	</node>
	<node id="-4771" lat="63.4181" lon="10.3633">
		<tag k="amenity" v="kindergarten" />
		<tag k="capacity" v="57" />
		<tag k="contact:email" v="thorstein.venas@trondheim.kommune.no" />
		<tag k="max_age" v="5" />
		<tag k="min_age" v="3" />
		<tag k="name" v="Cecilienborg barnehage" />
		<tag k="no-barnehage:nsrid" v="1016859" />
		<tag k="operator" v="Trondheim kommune" />
		<tag k="operator:type" v="public" />
		<tag k="start_date" v="1989-01-02" />
	</node>
	<node id="-4770" lat="63.3896" lon="10.3633">
		<tag k="amenity" v="kindergarten" />
		<tag k="capacity" v="62" />
		<tag k="contact:email" v="vh@asylselskapet.no" />
		<tag k="contact:phone" v="+47 72 56 75 50" />
		<tag k="max_age" v="5" />
		<tag k="min_age" v="1" />
		<tag k="name" v="Byåsen Kirkes barnehage" />
		<tag k="no-barnehage:nsrid" v="1016862" />
		<tag k="operator" v="Trondhjems Asylselskap" />
		<tag k="operator:type" v="private" />
		<tag k="start_date" v="1989-01-02" />
	</node>
	<node id="-4769" lat="63.4188" lon="10.4544">
		<tag k="amenity" v="kindergarten" />
		<tag k="capacity" v="128" />
		<tag k="contact:email" v="lise.garvik@trondheim.kommune.no" />
		<tag k="max_age" v="5" />
		<tag k="min_age" v="1" />
		<tag k="name" v="Brøset barnehage" />
		<tag k="no-barnehage:nsrid" v="1017211" />
		<tag k="operator" v="Trondheim kommune" />
		<tag k="operator:type" v="public" />
		<tag k="start_date" v="2006-07-01" />
	</node>
	<node id="-4768" lat="63.416" lon="10.4795">
		<tag k="amenity" v="kindergarten" />
		<tag k="capacity" v="38" />
		<tag k="contact:email" v="margrethe.midtsand@trondheim.kommune.no" />
		<tag k="max_age" v="5" />
		<tag k="min_age" v="3" />
		<tag k="name" v="Brundalsgrenda barnehage" />
		<tag k="no-barnehage:nsrid" v="1013757" />
		<tag k="operator" v="Trondheim kommune" />
		<tag k="operator:type" v="public" />
		<tag k="start_date" v="1989-01-02" />
	</node>
	<node id="-4766" lat="63.4254" lon="10.444">
		<tag k="amenity" v="kindergarten" />
		<tag k="capacity" v="57" />
		<tag k="contact:email" v="Britt.Monstad@Trondheim.kommune.no" />
		<tag k="max_age" v="5" />
		<tag k="min_age" v="1" />
		<tag k="name" v="Bromstad barnehage" />
		<tag k="no-barnehage:nsrid" v="1016671" />
		<tag k="operator" v="Trondheim kommune" />
		<tag k="operator:type" v="public" />
		<tag k="start_date" v="1989-01-01" />
	</node>
	<node id="-4765" lat="63.3655" lon="10.3896">
		<tag k="amenity" v="kindergarten" />
		<tag k="capacity" v="52" />
		<tag k="contact:email" v="ruth-kjellaug.sandvik@trondheim.kommune.no" />
		<tag k="max_age" v="5" />
		<tag k="min_age" v="1" />
		<tag k="name" v="Brinken barnehage" />
		<tag k="no-barnehage:nsrid" v="1016872" />
		<tag k="operator" v="Trondheim kommune" />
		<tag k="operator:type" v="public" />
		<tag k="start_date" v="1990-01-01" />
	</node>
	<node id="-4764" lat="63.34618" lon="10.36589">
		<tag k="amenity" v="kindergarten" />
		<tag k="contact:email" v="molderoien@hotmail.com" />
		<tag k="contact:phone" v="+47 98609696" />
		<tag k="name" v="Breidablikk Åpen barnehage" />
		<tag k="no-barnehage:nsrid" v="1020145" />
		<tag k="operator" v="Breidablikk Helselag Åpen barnehage" />
		<tag k="operator:type" v="private" />
		<tag k="start_date" v="1993-08-01" />
	</node>
	<node id="-4763" lat="63.3502" lon="10.3662">
		<tag k="amenity" v="kindergarten" />
		<tag k="capacity" v="124" />
		<tag k="contact:email" v="bente-marie.vang@trondheim.kommune.no" />
		<tag k="max_age" v="5" />
		<tag k="min_age" v="1" />
		<tag k="name" v="Breidablikk barnehage" />
		<tag k="no-barnehage:nsrid" v="1013756" />
		<tag k="operator" v="Trondheim kommune" />
		<tag k="operator:type" v="public" />
		<tag k="start_date" v="1989-01-02" />
	</node>
	<node id="-4762" lat="63.34937" lon="10.48196">
		<tag k="amenity" v="kindergarten" />
		<tag k="capacity" v="66" />
		<tag k="contact:email" v="dl.bratsberg@bhg.no" />
		<tag k="max_age" v="5" />
		<tag k="min_age" v="1" />
		<tag k="name" v="Bratsberg Fus Kulturbarnehage AS" />
		<tag k="no-barnehage:nsrid" v="1021961" />
		<tag k="operator" v="Bratsberg Fus Kulturbarnehage AS" />
		<tag k="operator:type" v="private" />
		<tag k="start_date" v="2010-01-01" />
	</node>
	<node id="-4761" lat="63.3849" lon="10.3189">
		<tag k="amenity" v="kindergarten" />
		<tag k="capacity" v="67" />
		<tag k="contact:email" v="nqa@trondheim.kommune.no" />
		<tag k="max_age" v="5" />
		<tag k="min_age" v="1" />
		<tag k="name" v="Brannhaugen barnehage" />
		<tag k="no-barnehage:nsrid" v="1018521" />
		<tag k="operator" v="Trondheim kommune" />
		<tag k="operator:type" v="public" />
		<tag k="start_date" v="2009-01-01" />
	</node>
	<node id="-4759" lat="63.4102" lon="10.4211">
		<tag k="amenity" v="kindergarten" />
		<tag k="capacity" v="76" />
		<tag k="contact:email" v="monica-torvik.svalby@trondheim.kommune.no" />
		<tag k="max_age" v="5" />
		<tag k="min_age" v="1" />
		<tag k="name" v="Blomsterbyen barnehage" />
		<tag k="no-barnehage:nsrid" v="1015922" />
		<tag k="operator" v="Trondheim kommune" />
		<tag k="operator:type" v="public" />
		<tag k="start_date" v="1989-01-02" />
	</node>
	<node id="-4757" lat="63.42709" lon="10.39011">
		<tag k="amenity" v="kindergarten" />
		<tag k="capacity" v="49" />
		<tag k="contact:email" v="l.mcdonnell@birralee.no" />
		<tag k="contact:phone" v="+47 73 87 02 60" />
		<tag k="max_age" v="5" />
		<tag k="min_age" v="3" />
		<tag k="name" v="Birralee International Kindergarten Trondheim AS" />
		<tag k="no-barnehage:nsrid" v="1022314" />
		<tag k="operator" v="Birralee International Kindergarten Trondheim AS" />
		<tag k="operator:type" v="private" />
		<tag k="start_date" v="1975-01-01" />
	</node>
	<node id="-4756" lat="63.40948" lon="10.45603">
		<tag k="amenity" v="kindergarten" />
		<tag k="capacity" v="78" />
		<tag k="contact:email" v="torstein.johannessen@bergheim-barnehage.no" />
		<tag k="contact:phone" v="+47 73 98 48 50" />
		<tag k="contact:website" v="http://www.bergheim-barnehage.no" />
		<tag k="max_age" v="5" />
		<tag k="min_age" v="1" />
		<tag k="name" v="Bergheim barnehage Sa" />
		<tag k="no-barnehage:nsrid" v="1020954" />
		<tag k="operator" v="Bergheim barnehage Sa" />
		<tag k="operator:type" v="private" />
		<tag k="start_date" v="1995-02-23" />
	</node>
	<node id="-4754" lat="63.418" lon="10.428">
		<tag k="amenity" v="kindergarten" />
		<tag k="capacity" v="29" />
		<tag k="contact:email" v="ljh@asylselskapet.no" />
		<tag k="contact:phone" v="+47 73 93 67 19" />
		<tag k="contact:website" v="http://www.asylselskapet.no/berg" />
		<tag k="max_age" v="5" />
		<tag k="min_age" v="1" />
		<tag k="name" v="Berg barnehage Avdeling Frydenberg" />
		<tag k="no-barnehage:nsrid" v="1016858" />
		<tag k="operator" v="Berg barnehage" />
		<tag k="operator:type" v="private" />
		<tag k="start_date" v="1989-01-02" />
	</node>
	<node id="-4753" lat="63.41796" lon="10.42798">
		<tag k="amenity" v="kindergarten" />
		<tag k="capacity" v="36" />
		<tag k="contact:email" v="ljh@asylselskapet.no" />
		<tag k="max_age" v="5" />
		<tag k="min_age" v="1" />
		<tag k="name" v="Berg barnehage avd Øvre Bergsvingen" />
		<tag k="no-barnehage:nsrid" v="1025646" />
		<tag k="operator" v="Berg barnehage" />
		<tag k="operator:type" v="private" />
		<tag k="start_date" v="2015-01-01" />
	</node>
	<node id="-4751" lat="63.42262" lon="10.38464">
		<tag k="amenity" v="kindergarten" />
		<tag k="capacity" v="34" />
		<tag k="contact:email" v="ib@asylselskapet.no" />
		<tag k="contact:phone" v="+47 73 52 14 20" />
		<tag k="max_age" v="5" />
		<tag k="min_age" v="1" />
		<tag k="name" v="Barnas Hus barnehage" />
		<tag k="no-barnehage:nsrid" v="1016817" />
		<tag k="operator" v="Trondhjems Asylselskap" />
		<tag k="operator:type" v="private" />
		<tag k="start_date" v="1989-01-02" />
	</node>
	<node id="-4747" lat="63.4325" lon="10.4521">
		<tag k="amenity" v="kindergarten" />
		<tag k="capacity" v="57" />
		<tag k="contact:email" v="kristin.s.stien@aurorastiftelsen.no" />
		<tag k="contact:phone" v="+47 73912031" />
		<tag k="max_age" v="5" />
		<tag k="min_age" v="1" />
		<tag k="name" v="Baldershage barnehage" />
		<tag k="no-barnehage:nsrid" v="1014823" />
		<tag k="operator" v="Stiftelsen Aurora" />
		<tag k="operator:type" v="private" />
		<tag k="start_date" v="1994-08-01" />
	</node>
	<node id="-4746" lat="63.4225" lon="10.4094">
		<tag k="amenity" v="kindergarten" />
		<tag k="capacity" v="74" />
		<tag k="contact:email" v="ms@asylselskapet.no" />
		<tag k="contact:phone" v="+47 73 87 62 20" />
		<tag k="max_age" v="5" />
		<tag k="min_age" v="1" />
		<tag k="name" v="Bakklandet barnehage" />
		<tag k="no-barnehage:nsrid" v="1016816" />
		<tag k="operator" v="Trondhjems Asylselskap" />
		<tag k="operator:type" v="private" />
		<tag k="start_date" v="1989-01-02" />
	</node>
	<node id="-4745" lat="63.4164" lon="10.462">
		<tag k="amenity" v="kindergarten" />
		<tag k="capacity" v="33" />
		<tag k="contact:email" v="trine.almenning@trondheim.kommune.no" />
		<tag k="max_age" v="5" />
		<tag k="min_age" v="1" />
		<tag k="name" v="Angelltrøa barnehage" />
		<tag k="no-barnehage:nsrid" v="1017823" />
		<tag k="operator" v="Trondheim kommune" />
		<tag k="operator:type" v="public" />
		<tag k="start_date" v="2006-01-01" />
	</node>
	<node id="-4744" lat="63.42585" lon="10.38049">
		<tag k="amenity" v="kindergarten" />
		<tag k="capacity" v="31" />
		<tag k="contact:email" v="post@andungenbarnehage.no" />
		<tag k="contact:phone" v="+47 73503633" />
		<tag k="max_age" v="5" />
		<tag k="min_age" v="1" />
		<tag k="name" v="Andungen barnehage Trondheim Sa" />
		<tag k="no-barnehage:nsrid" v="1020093" />
		<tag k="operator" v="Andungen barnehage Trondheim Sa" />
		<tag k="operator:type" v="private" />
		<tag k="start_date" v="1992-08-01" />
	</node>
	<node id="-4743" lat="63.43911" lon="10.41556">
		<tag k="amenity" v="kindergarten" />
		<tag k="contact:email" v="tkbk@online.no" />
		<tag k="contact:phone" v="+47 92227013" />
		<tag k="name" v="Aktiv Åpen barnehage AS" />
		<tag k="no-barnehage:nsrid" v="1020910" />
		<tag k="operator" v="Aktiv Åpen Barnhage AS" />
		<tag k="operator:type" v="private" />
		<tag k="start_date" v="2003-03-25" />
	</node>
</osm>
