<?xml version="1.0" encoding="UTF-8"?>
<osm generator="osmapis" version="0.6">
	<node id="-240" lat="59.43939" lon="11.16077">
		<tag k="amenity" v="kindergarten" />
		<tag k="name" v="Staxvold Holding" />
		<tag k="no-barnehage:nsrid" v="2000496" />
		<tag k="operator" v="Staxvold Holding AS" />
		<tag k="operator:type" v="private" />
	</node>
	<node id="-239" lat="59.4694" lon="11.167">
		<tag k="amenity" v="kindergarten" />
		<tag k="capacity" v="44" />
		<tag k="max_age" v="5" />
		<tag k="min_age" v="1" />
		<tag k="name" v="Solhaug barnehage" />
		<tag k="no-barnehage:nsrid" v="1016590" />
		<tag k="operator" v="Skiptvet kommune" />
		<tag k="operator:type" v="public" />
	</node>
	<node id="-238" lat="59.47" lon="11.1575">
		<tag k="amenity" v="kindergarten" />
		<tag k="capacity" v="41" />
		<tag k="max_age" v="5" />
		<tag k="min_age" v="1" />
		<tag k="name" v="Lindormen barnehage" />
		<tag k="no-barnehage:nsrid" v="1025485" />
		<tag k="operator" v="Skiptvet kommune" />
		<tag k="operator:type" v="public" />
	</node>
	<node id="-237" lat="59.52987" lon="11.16619">
		<tag k="amenity" v="kindergarten" />
		<tag k="capacity" v="42" />
		<tag k="max_age" v="5" />
		<tag k="min_age" v="1" />
		<tag k="name" v="Hestehoven gårdsbarnehage" />
		<tag k="no-barnehage:nsrid" v="1022236" />
		<tag k="operator" v="Hestehoven Gårdsbarnehage AS" />
		<tag k="operator:type" v="private" />
	</node>
	<node id="-236" lat="59.4692" lon="11.1622">
		<tag k="amenity" v="kindergarten" />
		<tag k="capacity" v="65" />
		<tag k="max_age" v="5" />
		<tag k="min_age" v="1" />
		<tag k="name" v="Finlandsskogen barnehage" />
		<tag k="no-barnehage:nsrid" v="1013861" />
		<tag k="operator" v="Skiptvet kommune" />
		<tag k="operator:type" v="public" />
	</node>
</osm>
