<?xml version="1.0" encoding="UTF-8"?>
<osm version="0.6" generator="osmapis">
	<node lat="59.92585" lon="11.44604" id="-2501">
		<tag k="ADDRESS" v="Rugdeveien 8, 1930 AURSKOG" />
		<tag k="amenity" v="kindergarten" />
		<tag k="capacity" v="66" />
		<tag k="max_age" v="5" />
		<tag k="min_age" v="1" />
		<tag k="name" v="Aurskog-høland kommune - Aursmoen barnehage" />
		<tag k="no-barnehage:nsrid" v="974583747" />
		<tag k="operator" v="Aurskog-Høland kommune" />
		<tag k="operator:type" v="public" />
	</node>
	<node lat="59.72053" lon="11.45975" id="-2502">
		<tag k="ADDRESS" v="Bråtebakken 2, 1970 HEMNES" />
		<tag k="amenity" v="kindergarten" />
		<tag k="capacity" v="52" />
		<tag k="contact:website" v="http://www.aurskog-holand.kommune.no/innhold/Barn-skole-og-familie/barnehager/barnehagetilbudet/kommunale-b" />
		<tag k="max_age" v="5" />
		<tag k="min_age" v="1" />
		<tag k="name" v="Aurskog-høland kommune - Bråtebakken barnehage" />
		<tag k="no-barnehage:nsrid" v="974583763" />
		<tag k="operator" v="Aurskog-Høland kommune" />
		<tag k="operator:type" v="public" />
	</node>
	<node lat="59.88258" lon="11.54871" id="-2503">
		<tag k="ADDRESS" v="Dalhaugveien 29B, 1940 BJØRKELANGEN" />
		<tag k="amenity" v="kindergarten" />
		<tag k="capacity" v="53" />
		<tag k="max_age" v="5" />
		<tag k="min_age" v="1" />
		<tag k="name" v="Aurskog-høland kommune - Burholtoppen barnehage" />
		<tag k="no-barnehage:nsrid" v="974583771" />
		<tag k="operator" v="Aurskog-Høland kommune" />
		<tag k="operator:type" v="public" />
	</node>
	<node lat="59.87849" lon="11.58701" id="-2504">
		<tag k="ADDRESS" v="Ileflaen 2, 1940 BJØRKELANGEN" />
		<tag k="amenity" v="kindergarten" />
		<tag k="capacity" v="112" />
		<tag k="max_age" v="5" />
		<tag k="min_age" v="1" />
		<tag k="name" v="Aurskog-høland kommune - Festningsåsen barnehage" />
		<tag k="no-barnehage:nsrid" v="991592040" />
		<tag k="operator" v="Aurskog-Høland kommune" />
		<tag k="operator:type" v="public" />
	</node>
	<node lat="59.92236" lon="11.48587" id="-2505">
		<tag k="ADDRESS" v="Maren Stagrims vei 2A, 1930 AURSKOG" />
		<tag k="amenity" v="kindergarten" />
		<tag k="capacity" v="69" />
		<tag k="max_age" v="5" />
		<tag k="min_age" v="1" />
		<tag k="name" v="Aurskog-høland kommune - Flatebyjordet barnehage" />
		<tag k="no-barnehage:nsrid" v="991998705" />
		<tag k="operator" v="Aurskog-Høland kommune" />
		<tag k="operator:type" v="public" />
	</node>
	<node lat="59.79701" lon="11.47175" id="-2506">
		<tag k="ADDRESS" v="Gruslinna 1, 1960 LØKEN" />
		<tag k="amenity" v="kindergarten" />
		<tag k="capacity" v="97" />
		<tag k="max_age" v="5" />
		<tag k="min_age" v="1" />
		<tag k="name" v="Aurskog-høland kommune - Løken barnehage" />
		<tag k="no-barnehage:nsrid" v="973603825" />
		<tag k="operator" v="Aurskog-Høland kommune" />
		<tag k="operator:type" v="public" />
	</node>
	<node lat="59.75014" lon="11.81045" id="-2507">
		<tag k="ADDRESS" v="Engehaget 3, 1950 RØMSKOG" />
		<tag k="amenity" v="kindergarten" />
		<tag k="capacity" v="20" />
		<tag k="max_age" v="5" />
		<tag k="min_age" v="1" />
		<tag k="name" v="Aurskog-høland kommune - Rømskog barnehage" />
		<tag k="no-barnehage:nsrid" v="975301451" />
		<tag k="operator" v="Aurskog-Høland kommune" />
		<tag k="operator:type" v="public" />
	</node>
	<node lat="59.83092" lon="11.72072" id="-2508">
		<tag k="ADDRESS" v="Måsabyveien 4, 1954 SETSKOG" />
		<tag k="amenity" v="kindergarten" />
		<tag k="capacity" v="21" />
		<tag k="max_age" v="5" />
		<tag k="min_age" v="1" />
		<tag k="name" v="Aurskog-høland kommune - Setskog oppvekstsenter - barnehage" />
		<tag k="no-barnehage:nsrid" v="973603795" />
		<tag k="operator" v="Aurskog-Høland kommune" />
		<tag k="operator:type" v="public" />
	</node>
	<node lat="59.9323" lon="11.39267" id="-2509">
		<tag k="ADDRESS" v="Korsmostubben 2, 1930 AURSKOG" />
		<tag k="amenity" v="kindergarten" />
		<tag k="capacity" v="58" />
		<tag k="max_age" v="5" />
		<tag k="min_age" v="1" />
		<tag k="name" v="Ekeberg barnehage" />
		<tag k="no-barnehage:nsrid" v="975840174" />
		<tag k="operator" v="Ekeberg barnehage AS" />
		<tag k="operator:type" v="private" />
	</node>
	<node lat="59.93024" lon="11.44048" id="-2510">
		<tag k="ADDRESS" v="Aurveien 37, 1930 AURSKOG" />
		<tag k="amenity" v="kindergarten" />
		<tag k="capacity" v="53" />
		<tag k="contact:website" v="http://epletunet.no/" />
		<tag k="max_age" v="5" />
		<tag k="min_age" v="1" />
		<tag k="name" v="Epletunet barnehage" />
		<tag k="no-barnehage:nsrid" v="975826368" />
		<tag k="operator" v="Epletunet barnehage AS" />
		<tag k="operator:type" v="private" />
	</node>
	<node lat="0.0" lon="0.0" id="-2511">
		<tag k="ADDRESS" v="Mosserudveien 8 a, 1960 LØKEN" />
		<tag k="amenity" v="kindergarten" />
		<tag k="capacity" v="37" />
		<tag k="max_age" v="5" />
		<tag k="min_age" v="1" />
		<tag k="name" v="Hofmoen barnehage" />
		<tag k="no-barnehage:nsrid" v="973456636" />
		<tag k="operator" v="Løken Sokn" />
		<tag k="operator:type" v="private" />
	</node>
	<node lat="59.88791" lon="11.57869" id="-2512">
		<tag k="ADDRESS" v="Haneborgveien 32, 1940 BJØRKELANGEN" />
		<tag k="amenity" v="kindergarten" />
		<tag k="capacity" v="19" />
		<tag k="max_age" v="5" />
		<tag k="min_age" v="1" />
		<tag k="name" v="Kjelle gårdsbarnehage" />
		<tag k="no-barnehage:nsrid" v="994275925" />
		<tag k="operator" v="Akershus fylkeskommune" />
	</node>
	<node lat="59.80484" lon="11.4124" id="-2513">
		<tag k="ADDRESS" v="Opplunderveien 30, 1960 LØKEN" />
		<tag k="amenity" v="kindergarten" />
		<tag k="capacity" v="46" />
		<tag k="max_age" v="5" />
		<tag k="min_age" v="1" />
		<tag k="name" v="Lundebygrenda barnehage" />
		<tag k="no-barnehage:nsrid" v="988930423" />
		<tag k="operator" v="Lundebygrenda barnehage AS" />
		<tag k="operator:type" v="private" />
	</node>
	<node lat="59.9282" lon="11.4717" id="-2514">
		<tag k="ADDRESS" v="Kråkhaugveien 6, 1930 AURSKOG" />
		<tag k="amenity" v="kindergarten" />
		<tag k="capacity" v="57" />
		<tag k="contact:website" v="http://www.olebrumm.barnehageside.no" />
		<tag k="max_age" v="5" />
		<tag k="min_age" v="1" />
		<tag k="name" v="Ole Brumm barnehage Aurskog" />
		<tag k="no-barnehage:nsrid" v="973469258" />
		<tag k="operator" v="Ole Brumm barnehage Aurskog AS" />
		<tag k="operator:type" v="private" />
	</node>
	<node lat="59.72324" lon="11.50586" id="-2515">
		<tag k="ADDRESS" v="Nyveien 1894, 1970 HEMNES" />
		<tag k="amenity" v="kindergarten" />
		<tag k="capacity" v="34" />
		<tag k="max_age" v="5" />
		<tag k="min_age" v="1" />
		<tag k="name" v="Plommehagen barnehage" />
		<tag k="no-barnehage:nsrid" v="889696982" />
		<tag k="operator" v="Plommehagen barnehage AS" />
		<tag k="operator:type" v="private" />
	</node>
	<node lat="59.92614" lon="11.46453" id="-2516">
		<tag k="ADDRESS" v="Trampen 8, 1930 AURSKOG" />
		<tag k="amenity" v="kindergarten" />
		<tag k="capacity" v="33" />
		<tag k="contact:website" v="http://trampenbarnehage.no/" />
		<tag k="max_age" v="5" />
		<tag k="min_age" v="1" />
		<tag k="name" v="Trampen barnehage" />
		<tag k="no-barnehage:nsrid" v="921840225" />
		<tag k="operator" v="Trampen barnehage AS" />
		<tag k="operator:type" v="private" />
	</node>
</osm>
