<?xml version="1.0" encoding="UTF-8"?>
<osm generator="osmapis" version="0.6">
	<node id="-5254" lat="64.2481" lon="12.3622">
		<tag k="amenity" v="kindergarten" />
		<tag k="capacity" v="7" />
		<tag k="contact:email" v="susanna.valkeapaa@snasa.kommune.no" />
		<tag k="max_age" v="5" />
		<tag k="min_age" v="1" />
		<tag k="name" v="Suaja Maanagierte" />
		<tag k="no-barnehage:nsrid" v="1013208" />
		<tag k="operator" v="Snåsa kommune" />
		<tag k="operator:type" v="public" />
		<tag k="start_date" v="2005-01-01" />
	</node>
	<node id="-5253" lat="64.27541" lon="12.51863">
		<tag k="amenity" v="kindergarten" />
		<tag k="capacity" v="27" />
		<tag k="contact:email" v="barnehage@snasamontessori.no" />
		<tag k="contact:phone" v="+47 74 15 16 63" />
		<tag k="max_age" v="5" />
		<tag k="min_age" v="1" />
		<tag k="name" v="Snåsa Montessoribarnehage Sa" />
		<tag k="no-barnehage:nsrid" v="1021106" />
		<tag k="operator" v="Snåsa Montessoribarnehage Sa" />
		<tag k="operator:type" v="private" />
		<tag k="start_date" v="2004-07-06" />
	</node>
	<node id="-5252" lat="64.2457" lon="12.3778">
		<tag k="amenity" v="kindergarten" />
		<tag k="capacity" v="43" />
		<tag k="contact:email" v="liv.ella.omli@snasa.kommune.no" />
		<tag k="contact:phone" v="+47 74 12 70 59" />
		<tag k="max_age" v="5" />
		<tag k="min_age" v="1" />
		<tag k="name" v="Snåsa barnehage Avd Vinjebakken" />
		<tag k="no-barnehage:nsrid" v="1014938" />
		<tag k="operator" v="Snåsa kommune" />
		<tag k="operator:type" v="public" />
		<tag k="start_date" v="1996-01-01" />
	</node>
	<node id="-5251" lat="64.2032" lon="12.257">
		<tag k="amenity" v="kindergarten" />
		<tag k="capacity" v="30" />
		<tag k="contact:email" v="anita.kjensteberg@snasa.kommune.no" />
		<tag k="contact:phone" v="+47 74 12 70 27" />
		<tag k="max_age" v="5" />
		<tag k="min_age" v="1" />
		<tag k="name" v="Snåsa barnehage Avd Breide" />
		<tag k="no-barnehage:nsrid" v="1025338" />
		<tag k="operator" v="Snåsa kommune" />
		<tag k="operator:type" v="public" />
		<tag k="start_date" v="1989-01-01" />
	</node>
</osm>
