<?xml version="1.0" encoding="UTF-8"?>
<osm generator="osmapis" version="0.6">
	<node id="-4453" lat="0.0" lon="0.0">
		<tag k="ADDRESS" v=", 5709 VOSS" />
		<tag k="amenity" v="kindergarten" />
		<tag k="capacity" v="51" />
		<tag k="max_age" v="5" />
		<tag k="min_age" v="1" />
		<tag k="name" v="Bjørgamarka barnehage" />
		<tag k="no-barnehage:nsrid" v="974593947" />
		<tag k="operator" v="Voss Herad" />
		<tag k="operator:type" v="public" />
	</node>
	<node id="-4454" lat="60.64459" lon="5.96862">
		<tag k="ADDRESS" v="Øvstedalsvegen 3, 5723 BOLSTADØYRI" />
		<tag k="amenity" v="kindergarten" />
		<tag k="capacity" v="21" />
		<tag k="max_age" v="5" />
		<tag k="min_age" v="1" />
		<tag k="name" v="Bolstad barnehage" />
		<tag k="no-barnehage:nsrid" v="925437123" />
		<tag k="operator" v="Voss Herad" />
		<tag k="operator:type" v="public" />
	</node>
	<node id="-4455" lat="60.5877" lon="6.46535">
		<tag k="ADDRESS" v="Bjørnshovden 19, 5708 VOSS" />
		<tag k="amenity" v="kindergarten" />
		<tag k="capacity" v="19" />
		<tag k="max_age" v="5" />
		<tag k="min_age" v="1" />
		<tag k="name" v="Bordalen barnehage" />
		<tag k="no-barnehage:nsrid" v="973456873" />
		<tag k="operator" v="Bordalen barnehage SA" />
		<tag k="operator:type" v="private" />
	</node>
	<node id="-4456" lat="0.0" lon="0.0">
		<tag k="ADDRESS" v=", 5708 VOSS" />
		<tag k="amenity" v="kindergarten" />
		<tag k="capacity" v="28" />
		<tag k="max_age" v="5" />
		<tag k="min_age" v="1" />
		<tag k="name" v="Bulken barnehage" />
		<tag k="no-barnehage:nsrid" v="974180944" />
		<tag k="operator" v="Voss Herad" />
		<tag k="operator:type" v="public" />
	</node>
	<node id="-4457" lat="0.0" lon="0.0">
		<tag k="ADDRESS" v=", 5707 EVANGER" />
		<tag k="amenity" v="kindergarten" />
		<tag k="capacity" v="13" />
		<tag k="max_age" v="5" />
		<tag k="min_age" v="1" />
		<tag k="name" v="Evanger barnehage" />
		<tag k="no-barnehage:nsrid" v="975309010" />
		<tag k="operator" v="Voss Herad" />
		<tag k="operator:type" v="public" />
	</node>
	<node id="-4458" lat="0.0" lon="0.0">
		<tag k="ADDRESS" v=", 5700 VOSS" />
		<tag k="amenity" v="kindergarten" />
		<tag k="capacity" v="32" />
		<tag k="max_age" v="5" />
		<tag k="min_age" v="1" />
		<tag k="name" v="Gjernes barnehage" />
		<tag k="no-barnehage:nsrid" v="974593912" />
		<tag k="operator" v="Voss Herad" />
		<tag k="operator:type" v="public" />
	</node>
	<node id="-4459" lat="0.0" lon="0.0">
		<tag k="ADDRESS" v=", 5713 VOSSESTRAND" />
		<tag k="amenity" v="kindergarten" />
		<tag k="capacity" v="11" />
		<tag k="max_age" v="5" />
		<tag k="min_age" v="1" />
		<tag k="name" v="Hauge barnehage" />
		<tag k="no-barnehage:nsrid" v="975300366" />
		<tag k="operator" v="Voss Herad" />
		<tag k="operator:type" v="public" />
	</node>
	<node id="-4460" lat="0.0" lon="0.0">
		<tag k="ADDRESS" v=", 5704 VOSS" />
		<tag k="amenity" v="kindergarten" />
		<tag k="capacity" v="128" />
		<tag k="max_age" v="5" />
		<tag k="min_age" v="1" />
		<tag k="name" v="Klausabakken barnehage" />
		<tag k="no-barnehage:nsrid" v="974593890" />
		<tag k="operator" v="Voss Herad" />
		<tag k="operator:type" v="public" />
	</node>
	<node id="-4461" lat="0.0" lon="0.0">
		<tag k="ADDRESS" v=", 5706 VOSS" />
		<tag k="amenity" v="kindergarten" />
		<tag k="capacity" v="31" />
		<tag k="max_age" v="5" />
		<tag k="min_age" v="1" />
		<tag k="name" v="Kløve barnehage" />
		<tag k="no-barnehage:nsrid" v="974593874" />
		<tag k="operator" v="Voss Herad" />
		<tag k="operator:type" v="public" />
	</node>
	<node id="-4462" lat="60.63225" lon="6.43741">
		<tag k="ADDRESS" v="Regimentsvegen 235, 5705 VOSS" />
		<tag k="amenity" v="kindergarten" />
		<tag k="capacity" v="98" />
		<tag k="contact:website" v="http://laringsverkstedet.no/barnehage/tvildemoen" />
		<tag k="max_age" v="5" />
		<tag k="min_age" v="1" />
		<tag k="name" v="Læringsverkstedet barnehage avd. Tvildemoen" />
		<tag k="no-barnehage:nsrid" v="982263859" />
		<tag k="operator" v="Læringsverkstedet AS" />
		<tag k="operator:type" v="private" />
	</node>
	<node id="-4463" lat="60.62051" lon="6.53567">
		<tag k="ADDRESS" v="Tymbrålen 44, 5709 VOSS" />
		<tag k="amenity" v="kindergarten" />
		<tag k="capacity" v="18" />
		<tag k="max_age" v="5" />
		<tag k="min_age" v="1" />
		<tag k="name" v="Mønshaugen barnehage" />
		<tag k="no-barnehage:nsrid" v="973508032" />
		<tag k="operator" v="Mønshaugen barnehage SA" />
		<tag k="operator:type" v="private" />
	</node>
	<node id="-4464" lat="60.63355" lon="6.45483">
		<tag k="ADDRESS" v="Brynaskogen 38, 5705 VOSS" />
		<tag k="amenity" v="kindergarten" />
		<tag k="capacity" v="62" />
		<tag k="max_age" v="5" />
		<tag k="min_age" v="1" />
		<tag k="name" v="Regnbogen natur og kulturbarnehage" />
		<tag k="no-barnehage:nsrid" v="893806482" />
		<tag k="operator" v="Regnbogen Natur og kulturbarnehage AS" />
		<tag k="operator:type" v="private" />
	</node>
	<node id="-4465" lat="60.62985" lon="6.42257">
		<tag k="ADDRESS" v="Strengjarhaugen 11, 5704 VOSS" />
		<tag k="amenity" v="kindergarten" />
		<tag k="capacity" v="16" />
		<tag k="max_age" v="5" />
		<tag k="min_age" v="1" />
		<tag k="name" v="Rogne barnehage" />
		<tag k="no-barnehage:nsrid" v="973513303" />
		<tag k="operator" v="Rogne barnehage" />
		<tag k="operator:type" v="private" />
	</node>
	<node id="-4466" lat="60.65899" lon="6.43345">
		<tag k="ADDRESS" v="Fitjavegen 18, 5710 SKULESTADMO" />
		<tag k="amenity" v="kindergarten" />
		<tag k="capacity" v="78" />
		<tag k="contact:website" v="http://www.skulestadbarnehage.no" />
		<tag k="max_age" v="5" />
		<tag k="min_age" v="1" />
		<tag k="name" v="Skulestad barnehage" />
		<tag k="no-barnehage:nsrid" v="987046074" />
		<tag k="operator" v="Skulestad barnehage SA" />
		<tag k="operator:type" v="private" />
	</node>
	<node id="-4467" lat="0.0" lon="0.0">
		<tag k="ADDRESS" v="Sundve, 5713 VOSSESTRAND" />
		<tag k="amenity" v="kindergarten" />
		<tag k="capacity" v="54" />
		<tag k="max_age" v="5" />
		<tag k="min_age" v="1" />
		<tag k="name" v="Sundve FUS barnehage" />
		<tag k="no-barnehage:nsrid" v="893595112" />
		<tag k="operator" v="Sundve Fus barnehage AS" />
		<tag k="operator:type" v="private" />
	</node>
	<node id="-4468" lat="0.0" lon="0.0">
		<tag k="ADDRESS" v=", 5736 GRANVIN" />
		<tag k="amenity" v="kindergarten" />
		<tag k="capacity" v="56" />
		<tag k="max_age" v="5" />
		<tag k="min_age" v="1" />
		<tag k="name" v="Tueteigen barnehage" />
		<tag k="no-barnehage:nsrid" v="975309002" />
		<tag k="operator" v="Voss Herad" />
		<tag k="operator:type" v="public" />
	</node>
	<node id="-4469" lat="60.62733" lon="6.42094">
		<tag k="ADDRESS" v="Hestabakkvegen 1, 5700 VOSS" />
		<tag k="amenity" v="kindergarten" />
		<tag k="contact:website" v="http://facebook.com/vonheimopenbarnehage" />
		<tag k="name" v="Vonheim Open barnehage" />
		<tag k="no-barnehage:nsrid" v="973763881" />
		<tag k="operator" v="Voss Kfuk - Kfum" />
		<tag k="operator:type" v="private" />
	</node>
	<node id="-4470" lat="0.0" lon="0.0">
		<tag k="ADDRESS" v="Regimentsvegen 126, 5705 VOSS" />
		<tag k="amenity" v="kindergarten" />
		<tag k="capacity" v="104" />
		<tag k="max_age" v="5" />
		<tag k="min_age" v="1" />
		<tag k="name" v="Voss barnehage" />
		<tag k="no-barnehage:nsrid" v="994374451" />
		<tag k="operator" v="Voss Herad" />
		<tag k="operator:type" v="public" />
	</node>
</osm>
