<?xml version="1.0" encoding="UTF-8"?>
<osm generator="osmapis" version="0.6">
	<node id="-4173" lat="60.0469" lon="5.91267">
		<tag k="amenity" v="kindergarten" />
		<tag k="capacity" v="15" />
		<tag k="contact:email" v="vivian.tuften@kvinnherad.kommune.no" />
		<tag k="contact:phone" v="53 46 11 90" />
		<tag k="contact:website" v="http://www.hatlestrand.oppvekstsenter.no/" />
		<tag k="max_age" v="5" />
		<tag k="min_age" v="1" />
		<tag k="name" v="Hatlestrand barnehage" />
		<tag k="no-barnehage:nsrid" v="1012935" />
		<tag k="operator" v="Kvinnherad kommune" />
		<tag k="operator:type" v="public" />
		<tag k="start_date" v="1979-01-26" />
	</node>
	<node id="-4172" lat="59.83111" lon="5.78278">
		<tag k="amenity" v="kindergarten" />
		<tag k="capacity" v="54" />
		<tag k="contact:phone" v="53 47 74 64" />
		<tag k="contact:website" v="http://www.friluftsbornehagen.no/no/" />
		<tag k="max_age" v="5" />
		<tag k="min_age" v="1" />
		<tag k="name" v="Handeland Friluftsbarnehage AS" />
		<tag k="no-barnehage:nsrid" v="1021233" />
		<tag k="operator" v="Handeland Friluftsbarnehage AS" />
		<tag k="operator:type" v="private" />
		<tag k="start_date" v="2005-04-25" />
	</node>
	<node id="-4171" lat="59.7397" lon="5.70418">
		<tag k="amenity" v="kindergarten" />
		<tag k="capacity" v="4" />
		<tag k="contact:email" v="karianne.bjornstad@kvinnherad.kommune.no" />
		<tag k="contact:phone" v="53461437" />
		<tag k="max_age" v="5" />
		<tag k="min_age" v="3" />
		<tag k="name" v="Fjelberg barnehage" />
		<tag k="no-barnehage:nsrid" v="1012931" />
		<tag k="operator" v="Kvinnherad kommune" />
		<tag k="operator:type" v="public" />
		<tag k="start_date" v="1989-01-01" />
	</node>
	<node id="-4170" lat="59.80399" lon="5.648541">
		<tag k="amenity" v="kindergarten" />
		<tag k="capacity" v="79" />
		<tag k="contact:email" v="post@espira.no" />
		<tag k="contact:phone" v="53470080" />
		<tag k="contact:website" v="http://www.espira.no" />
		<tag k="max_age" v="5" />
		<tag k="min_age" v="1" />
		<tag k="name" v="Espira Halsnøy Kloster barnehage" />
		<tag k="no-barnehage:nsrid" v="1021576" />
		<tag k="operator" v="Espira Halsnøy Kloster AS" />
		<tag k="operator:type" v="private" />
		<tag k="start_date" v="2007-01-29" />
	</node>
	<node id="-4169" lat="59.933" lon="5.863395">
		<tag k="amenity" v="kindergarten" />
		<tag k="capacity" v="20" />
		<tag k="contact:email" v="heleneh.bjornebole@knett.no" />
		<tag k="contact:phone" v="97156309" />
		<tag k="contact:website" v="http://www.donhauggardsbarnehage.no/" />
		<tag k="max_age" v="5" />
		<tag k="min_age" v="1" />
		<tag k="name" v="Dønhaug Gardsbarnehage" />
		<tag k="no-barnehage:nsrid" v="1021413" />
		<tag k="operator" v="Dønhaug Gardsbarnehage Helene H. Bjørnebøle" />
		<tag k="operator:type" v="private" />
		<tag k="start_date" v="2006-03-21" />
	</node>
	<node id="-4168" lat="59.9229" lon="5.79437">
		<tag k="amenity" v="kindergarten" />
		<tag k="capacity" v="31" />
		<tag k="contact:email" v="solveig.vik@kvinnherad.kommune.no" />
		<tag k="contact:phone" v="53 46 18 65" />
		<tag k="max_age" v="5" />
		<tag k="min_age" v="1" />
		<tag k="name" v="Bringedalsbygda barnehage" />
		<tag k="no-barnehage:nsrid" v="1012936" />
		<tag k="operator" v="Kvinnherad kommune" />
		<tag k="operator:type" v="public" />
		<tag k="start_date" v="1992-10-01" />
	</node>
	<node id="-4167" lat="59.82978" lon="5.785876">
		<tag k="amenity" v="kindergarten" />
		<tag k="capacity" v="64" />
		<tag k="contact:email" v="kari@valenbarnehage.no" />
		<tag k="contact:phone" v="53488060" />
		<tag k="contact:website" v="http://www.valenbarnehage.no" />
		<tag k="max_age" v="5" />
		<tag k="min_age" v="1" />
		<tag k="name" v="Akasia Valen barnehage AS" />
		<tag k="no-barnehage:nsrid" v="1022183" />
		<tag k="operator" v="Akasia Valen barnehage AS" />
		<tag k="operator:type" v="private" />
		<tag k="start_date" v="2011-05-01" />
	</node>
</osm>
