<?xml version="1.0" encoding="UTF-8"?>
<osm generator="osmapis" version="0.6">
	<node id="-4088" lat="60.0967" lon="5.97412">
		<tag k="amenity" v="kindergarten" />
		<tag k="capacity" v="3" />
		<tag k="contact:email" v="vivian.tuften@kvinnherad.kommune.no" />
		<tag k="contact:phone" v="53 46 13 38" />
		<tag k="max_age" v="5" />
		<tag k="min_age" v="1" />
		<tag k="name" v="VaraldsÃ¸y barnehage" />
		<tag k="no-barnehage:nsrid" v="1016946" />
		<tag k="operator" v="Kvinnherad kommune" />
		<tag k="operator:type" v="public" />
		<tag k="start_date" v="2005-01-01" />
	</node>
	<node id="-4077" lat="59.7397" lon="5.70418">
		<tag k="amenity" v="kindergarten" />
		<tag k="capacity" v="2" />
		<tag k="contact:email" v="karianne.bjornstad@kvinnherad.kommune.no" />
		<tag k="contact:phone" v="53461437" />
		<tag k="max_age" v="5" />
		<tag k="min_age" v="1" />
		<tag k="name" v="Fjelberg barnehage" />
		<tag k="no-barnehage:nsrid" v="1012931" />
		<tag k="operator" v="Kvinnherad kommune" />
		<tag k="operator:type" v="public" />
		<tag k="start_date" v="1989-01-01" />
	</node>
</osm>
