<?xml version="1.0" encoding="UTF-8"?>
<osm generator="osmapis" version="0.6">
	<node id="-5103" lat="61.34904" lon="5.0726">
		<tag k="amenity" v="kindergarten" />
		<tag k="capacity" v="62" />
		<tag k="max_age" v="5" />
		<tag k="min_age" v="1" />
		<tag k="name" v="RÃ¸verompa barnehage" />
		<tag k="no-barnehage:nsrid" v="1016901" />
		<tag k="operator" v="Askvoll kommune" />
		<tag k="operator:type" v="public" />
	</node>
	<node id="-5102" lat="61.32598" lon="5.02437">
		<tag k="amenity" v="kindergarten" />
		<tag k="capacity" v="24" />
		<tag k="max_age" v="5" />
		<tag k="min_age" v="1" />
		<tag k="name" v="Nipa barnehage" />
		<tag k="no-barnehage:nsrid" v="1025478" />
		<tag k="operator" v="Askvoll kommune" />
		<tag k="operator:type" v="public" />
	</node>
	<node id="-5101" lat="0.0" lon="0.0">
		<tag k="amenity" v="kindergarten" />
		<tag k="capacity" v="21" />
		<tag k="max_age" v="5" />
		<tag k="min_age" v="1" />
		<tag k="name" v="Holmedal barnehage" />
		<tag k="no-barnehage:nsrid" v="1018155" />
		<tag k="operator" v="Askvoll kommune" />
		<tag k="operator:type" v="public" />
	</node>
	<node id="-5100" lat="0.0" lon="0.0">
		<tag k="amenity" v="kindergarten" />
		<tag k="capacity" v="22" />
		<tag k="max_age" v="5" />
		<tag k="min_age" v="1" />
		<tag k="name" v="Gjelsvik barnehage" />
		<tag k="no-barnehage:nsrid" v="1017407" />
		<tag k="operator" v="Askvoll kommune" />
		<tag k="operator:type" v="public" />
	</node>
	<node id="-5099" lat="61.28478" lon="4.61892">
		<tag k="amenity" v="kindergarten" />
		<tag k="capacity" v="11" />
		<tag k="max_age" v="5" />
		<tag k="min_age" v="1" />
		<tag k="name" v="Bulandet barnehage" />
		<tag k="no-barnehage:nsrid" v="1017489" />
		<tag k="operator" v="Askvoll kommune" />
		<tag k="operator:type" v="public" />
	</node>
</osm>
