<?xml version="1.0" encoding="UTF-8"?>
<osm generator="osmapis" version="0.6">
	<node id="-4350" lat="61.4234" lon="5.16673">
		<tag k="amenity" v="kindergarten" />
		<tag k="capacity" v="10" />
		<tag k="contact:email" v="henriette.gjervik@aksvoll.kommune.no" />
		<tag k="contact:phone" v="57731658" />
		<tag k="max_age" v="5" />
		<tag k="min_age" v="1" />
		<tag k="name" v="Stongfjorden barnehage" />
		<tag k="no-barnehage:nsrid" v="1017388" />
		<tag k="operator" v="Askvoll kommune" />
		<tag k="operator:type" v="public" />
		<tag k="start_date" v="1978-09-21" />
	</node>
	<node id="-4349" lat="61.3467" lon="5.0623">
		<tag k="amenity" v="kindergarten" />
		<tag k="capacity" v="52" />
		<tag k="contact:email" v="siv.tangedal@askvoll.kommune.no" />
		<tag k="contact:phone" v="57730515" />
		<tag k="max_age" v="5" />
		<tag k="min_age" v="1" />
		<tag k="name" v="RÃ¸verompa barnehage" />
		<tag k="no-barnehage:nsrid" v="1016901" />
		<tag k="operator" v="Askvoll kommune" />
		<tag k="operator:type" v="public" />
		<tag k="start_date" v="1976-12-24" />
	</node>
	<node id="-4348" lat="61.35" lon="4.95">
		<tag k="amenity" v="kindergarten" />
		<tag k="capacity" v="23" />
		<tag k="contact:email" v="lilliann.heggoy@askvoll.kommune.no" />
		<tag k="contact:phone" v="57733052" />
		<tag k="max_age" v="5" />
		<tag k="min_age" v="1" />
		<tag k="name" v="Nipa barnehage" />
		<tag k="no-barnehage:nsrid" v="1025478" />
		<tag k="operator" v="Askvoll kommune" />
		<tag k="operator:type" v="public" />
		<tag k="start_date" v="1989-01-02" />
	</node>
	<node id="-4347" lat="61.3558" lon="5.18053">
		<tag k="amenity" v="kindergarten" />
		<tag k="capacity" v="19" />
		<tag k="contact:email" v="sidsel.anita.itland@askvoll.kommune.no" />
		<tag k="contact:phone" v="57734122" />
		<tag k="max_age" v="5" />
		<tag k="min_age" v="1" />
		<tag k="name" v="Holmedal barnehage" />
		<tag k="no-barnehage:nsrid" v="1018155" />
		<tag k="operator" v="Askvoll kommune" />
		<tag k="operator:type" v="public" />
		<tag k="start_date" v="1989-01-01" />
	</node>
	<node id="-4346" lat="61.4596" lon="5.42001">
		<tag k="amenity" v="kindergarten" />
		<tag k="capacity" v="23" />
		<tag k="contact:email" v="laila.kristiansen@askvoll.kommune.no" />
		<tag k="contact:phone" v="57733255" />
		<tag k="max_age" v="5" />
		<tag k="min_age" v="1" />
		<tag k="name" v="Gjelsvik barnehage" />
		<tag k="no-barnehage:nsrid" v="1017407" />
		<tag k="operator" v="Askvoll kommune" />
		<tag k="operator:type" v="public" />
		<tag k="start_date" v="1978-12-14" />
	</node>
	<node id="-4345" lat="61.2746" lon="4.53297">
		<tag k="amenity" v="kindergarten" />
		<tag k="capacity" v="13" />
		<tag k="contact:email" v="lise.landoy-midtboen@askvoll.kommune.no" />
		<tag k="contact:phone" v="57732177" />
		<tag k="max_age" v="5" />
		<tag k="min_age" v="1" />
		<tag k="name" v="Bulandet barnehage" />
		<tag k="no-barnehage:nsrid" v="1017489" />
		<tag k="operator" v="Askvoll kommune" />
		<tag k="operator:type" v="public" />
		<tag k="start_date" v="1989-01-02" />
	</node>
</osm>
