<?xml version="1.0" encoding="UTF-8"?>
<osm generator="osmapis" version="0.6">
	<node id="-2031" lat="60.29161" lon="10.61311">
		<tag k="amenity" v="kindergarten" />
		<tag k="capacity" v="17" />
		<tag k="max_age" v="5" />
		<tag k="min_age" v="1" />
		<tag k="name" v="Åstroll familiebarnehage" />
		<tag k="no-barnehage:nsrid" v="1021273" />
		<tag k="operator" v="Åstroll Naturbarnehage V/rita Fægri" />
		<tag k="operator:type" v="private" />
	</node>
	<node id="-2028" lat="60.30151" lon="10.5741">
		<tag k="amenity" v="kindergarten" />
		<tag k="capacity" v="25" />
		<tag k="max_age" v="5" />
		<tag k="min_age" v="1" />
		<tag k="name" v="Småtjern naturbarnehage" />
		<tag k="no-barnehage:nsrid" v="1021356" />
		<tag k="operator" v="Småtjern Naturbarnehage AS" />
		<tag k="operator:type" v="private" />
	</node>
	<node id="-2027" lat="60.2909" lon="10.6159">
		<tag k="amenity" v="kindergarten" />
		<tag k="capacity" v="39" />
		<tag k="max_age" v="5" />
		<tag k="min_age" v="1" />
		<tag k="name" v="Roa barnehage" />
		<tag k="no-barnehage:nsrid" v="1017969" />
		<tag k="operator" v="Lunner kommune" />
		<tag k="operator:type" v="public" />
	</node>
	<node id="-2026" lat="60.2887" lon="10.5647">
		<tag k="amenity" v="kindergarten" />
		<tag k="capacity" v="90" />
		<tag k="max_age" v="5" />
		<tag k="min_age" v="1" />
		<tag k="name" v="Kalvsjø barnehage" />
		<tag k="no-barnehage:nsrid" v="1017967" />
		<tag k="operator" v="Lunner kommune" />
		<tag k="operator:type" v="public" />
	</node>
	<node id="-2025" lat="60.2022" lon="10.718">
		<tag k="amenity" v="kindergarten" />
		<tag k="capacity" v="29" />
		<tag k="max_age" v="5" />
		<tag k="min_age" v="1" />
		<tag k="name" v="Harestua barnehage" />
		<tag k="no-barnehage:nsrid" v="1025470" />
		<tag k="operator" v="Lunner kommune" />
		<tag k="operator:type" v="public" />
	</node>
	<node id="-2024" lat="60.20763" lon="10.71499">
		<tag k="amenity" v="kindergarten" />
		<tag k="capacity" v="52" />
		<tag k="max_age" v="5" />
		<tag k="min_age" v="1" />
		<tag k="name" v="Harestua Arena barnehage" />
		<tag k="no-barnehage:nsrid" v="2000016" />
		<tag k="operator" v="Lunner kommune" />
		<tag k="operator:type" v="public" />
	</node>
	<node id="-2023" lat="60.25959" lon="10.66339">
		<tag k="amenity" v="kindergarten" />
		<tag k="capacity" v="53" />
		<tag k="contact:website" v="http://www.gruabarnehage.no" />
		<tag k="max_age" v="5" />
		<tag k="min_age" v="1" />
		<tag k="name" v="Grua barnehage" />
		<tag k="no-barnehage:nsrid" v="1022408" />
		<tag k="operator" v="Grua barnehage Lene Nordberg" />
		<tag k="operator:type" v="private" />
	</node>
	<node id="-2022" lat="60.30822" lon="10.49523">
		<tag k="amenity" v="kindergarten" />
		<tag k="capacity" v="23" />
		<tag k="max_age" v="5" />
		<tag k="min_age" v="1" />
		<tag k="name" v="Grindvoll barnehage" />
		<tag k="no-barnehage:nsrid" v="1021486" />
		<tag k="operator" v="Grindvoll barnehage AS" />
		<tag k="operator:type" v="private" />
	</node>
	<node id="-2021" lat="60.2596" lon="10.6634">
		<tag k="amenity" v="kindergarten" />
		<tag k="capacity" v="35" />
		<tag k="max_age" v="5" />
		<tag k="min_age" v="1" />
		<tag k="name" v="Gamleskolen barnehage" />
		<tag k="no-barnehage:nsrid" v="1014770" />
		<tag k="operator" v="Lunner kommune" />
		<tag k="operator:type" v="public" />
	</node>
	<node id="-2019" lat="60.2125" lon="10.7105">
		<tag k="amenity" v="kindergarten" />
		<tag k="capacity" v="80" />
		<tag k="max_age" v="5" />
		<tag k="min_age" v="1" />
		<tag k="name" v="Eventyrskogen barnehage" />
		<tag k="no-barnehage:nsrid" v="1013970" />
		<tag k="operator" v="Lunner kommune" />
		<tag k="operator:type" v="public" />
	</node>
</osm>
