<?xml version="1.0" encoding="UTF-8"?>
<osm generator="osmapis" version="0.6">
	<node id="-2176" lat="60.2022" lon="10.718">
		<tag k="amenity" v="kindergarten" />
		<tag k="capacity" v="37" />
		<tag k="contact:email" v="ingrid.pettersvold@lunner.kommune.no" />
		<tag k="max_age" v="5" />
		<tag k="min_age" v="1" />
		<tag k="name" v="Harestua barnehage" />
		<tag k="no-barnehage:nsrid" v="1025470" />
		<tag k="operator" v="Lunner kommune" />
		<tag k="operator:type" v="public" />
		<tag k="start_date" v="1978-09-18" />
	</node>
	<node id="-2175" lat="60.25959" lon="10.66339">
		<tag k="amenity" v="kindergarten" />
		<tag k="capacity" v="17" />
		<tag k="contact:email" v="post@gruabarnehage.no" />
		<tag k="contact:phone" v="930 95 793" />
		<tag k="contact:website" v="http://www.gruabarnehage.no" />
		<tag k="max_age" v="5" />
		<tag k="min_age" v="1" />
		<tag k="name" v="Grua barnehage" />
		<tag k="no-barnehage:nsrid" v="1022408" />
		<tag k="operator" v="Grua barnehage Lene Nordberg" />
		<tag k="operator:type" v="private" />
		<tag k="start_date" v="2013-10-01" />
	</node>
	<node id="-2174" lat="60.30822" lon="10.49523">
		<tag k="amenity" v="kindergarten" />
		<tag k="capacity" v="32" />
		<tag k="max_age" v="5" />
		<tag k="min_age" v="1" />
		<tag k="name" v="Grindvoll barnehage AS" />
		<tag k="no-barnehage:nsrid" v="1021486" />
		<tag k="operator" v="Grindvoll barnehage AS" />
		<tag k="operator:type" v="private" />
		<tag k="start_date" v="2001-01-02" />
	</node>
	<node id="-2173" lat="60.2596" lon="10.6634">
		<tag k="amenity" v="kindergarten" />
		<tag k="capacity" v="37" />
		<tag k="contact:phone" v="61 32 53 24" />
		<tag k="max_age" v="5" />
		<tag k="min_age" v="1" />
		<tag k="name" v="Gamleskolen barnehage" />
		<tag k="no-barnehage:nsrid" v="1014770" />
		<tag k="operator" v="Lunner kommune" />
		<tag k="operator:type" v="public" />
		<tag k="start_date" v="1993-08-01" />
	</node>
	<node id="-2171" lat="60.2125" lon="10.7105">
		<tag k="amenity" v="kindergarten" />
		<tag k="capacity" v="109" />
		<tag k="contact:phone" v="61 32 39 80" />
		<tag k="max_age" v="5" />
		<tag k="min_age" v="1" />
		<tag k="name" v="Eventyrskogen barnehage" />
		<tag k="no-barnehage:nsrid" v="1013970" />
		<tag k="operator" v="Lunner kommune" />
		<tag k="operator:type" v="public" />
		<tag k="start_date" v="1991-01-01" />
	</node>
	<node id="-2183" lat="60.30151" lon="10.5741">
		<tag k="amenity" v="kindergarten" />
		<tag k="capacity" v="21" />
		<tag k="contact:phone" v="61 32 33 37" />
		<tag k="max_age" v="5" />
		<tag k="min_age" v="3" />
		<tag k="name" v="Småtjern Naturbarnehage AS" />
		<tag k="no-barnehage:nsrid" v="1021356" />
		<tag k="operator" v="Småtjern Naturbarnehage AS" />
		<tag k="operator:type" v="private" />
		<tag k="start_date" v="2001-08-01" />
	</node>
	<node id="-2182" lat="60.2909" lon="10.6159">
		<tag k="amenity" v="kindergarten" />
		<tag k="capacity" v="48" />
		<tag k="max_age" v="5" />
		<tag k="min_age" v="1" />
		<tag k="name" v="Roa barnehage" />
		<tag k="no-barnehage:nsrid" v="1017969" />
		<tag k="operator" v="Lunner kommune" />
		<tag k="operator:type" v="public" />
		<tag k="start_date" v="1988-04-01" />
	</node>
	<node id="-2180" lat="60.25959" lon="10.66339">
		<tag k="amenity" v="kindergarten" />
		<tag k="capacity" v="17" />
		<tag k="contact:email" v="bingfage@online.no" />
		<tag k="contact:phone" v="61 32 52 22" />
		<tag k="max_age" v="5" />
		<tag k="min_age" v="1" />
		<tag k="name" v="Myllatoppen barnehage" />
		<tag k="no-barnehage:nsrid" v="1021812" />
		<tag k="operator" v="Myllatoppen barnehage" />
		<tag k="operator:type" v="private" />
		<tag k="start_date" v="2003-03-01" />
	</node>
	<node id="-2179" lat="60.2596" lon="10.6634">
		<tag k="amenity" v="kindergarten" />
		<tag k="capacity" v="29" />
		<tag k="max_age" v="5" />
		<tag k="min_age" v="1" />
		<tag k="name" v="Malmgruben barnehage" />
		<tag k="no-barnehage:nsrid" v="1017968" />
		<tag k="operator" v="Lunner kommune" />
		<tag k="operator:type" v="public" />
		<tag k="start_date" v="1988-04-01" />
	</node>
	<node id="-2178" lat="60.2887" lon="10.5647">
		<tag k="amenity" v="kindergarten" />
		<tag k="capacity" v="95" />
		<tag k="contact:phone" v="61 32 40 00" />
		<tag k="max_age" v="5" />
		<tag k="min_age" v="1" />
		<tag k="name" v="Kalvsjø barnehage" />
		<tag k="no-barnehage:nsrid" v="1017967" />
		<tag k="operator" v="Lunner kommune" />
		<tag k="operator:type" v="public" />
		<tag k="start_date" v="1988-04-01" />
	</node>
	<node id="-2177" lat="60.20972" lon="10.71269">
		<tag k="amenity" v="kindergarten" />
		<tag k="capacity" v="6" />
		<tag k="contact:email" v="may@hebb.no" />
		<tag k="contact:phone" v="934 01 997" />
		<tag k="max_age" v="2" />
		<tag k="min_age" v="1" />
		<tag k="name" v="Harestumoen barnehage May Helen Opdahl" />
		<tag k="no-barnehage:nsrid" v="1022225" />
		<tag k="operator" v="Harestumoen barnehage May Helen Opdahl" />
		<tag k="operator:type" v="private" />
		<tag k="start_date" v="2011-11-01" />
	</node>
</osm>
