<?xml version="1.0" encoding="UTF-8"?>
<osm generator="osmapis" version="0.6">
	<node id="-5944" lat="70.6422" lon="29.7383">
		<tag k="amenity" v="kindergarten" />
		<tag k="capacity" v="48" />
		<tag k="contact:email" v="britt.hansen@batsfjord.kommune.no" />
		<tag k="max_age" v="5" />
		<tag k="min_age" v="1" />
		<tag k="name" v="Nordskogen barnehage" />
		<tag k="no-barnehage:nsrid" v="1013740" />
		<tag k="operator" v="Båtsfjord kommune" />
		<tag k="operator:type" v="public" />
		<tag k="start_date" v="1989-01-01" />
	</node>
	<node id="-5943" lat="70.629" lon="29.6945">
		<tag k="amenity" v="kindergarten" />
		<tag k="capacity" v="54" />
		<tag k="contact:email" v="susanne.antonsen@batsfjord.kommune.no" />
		<tag k="max_age" v="5" />
		<tag k="min_age" v="1" />
		<tag k="name" v="Klausjorda barnehage" />
		<tag k="no-barnehage:nsrid" v="1013739" />
		<tag k="operator" v="Båtsfjord kommune" />
		<tag k="operator:type" v="public" />
		<tag k="start_date" v="1989-01-01" />
	</node>
</osm>
