<?xml version="1.0" encoding="UTF-8"?>
<osm version="0.6" generator="osmapis">
	<node lat="61.41578" lon="12.12875" id="-3039">
		<tag k="ADDRESS" v="Åkerlykkja 12, 2430 JORDET" />
		<tag k="amenity" v="kindergarten" />
		<tag k="capacity" v="22" />
		<tag k="max_age" v="5" />
		<tag k="min_age" v="1" />
		<tag k="name" v="Jordet barnehage" />
		<tag k="no-barnehage:nsrid" v="975295214" />
		<tag k="operator" v="Trysil kommune" />
		<tag k="operator:type" v="public" />
	</node>
	<node lat="61.30508" lon="12.2496" id="-3040">
		<tag k="ADDRESS" v="Vestbyvegen 49, 2420 TRYSIL" />
		<tag k="amenity" v="kindergarten" />
		<tag k="capacity" v="63" />
		<tag k="contact:website" v="http://www.laringsverkstedet.no/vestadbakken" />
		<tag k="max_age" v="5" />
		<tag k="min_age" v="1" />
		<tag k="name" v="Læringsverkstedet Vestadbakken barnehage" />
		<tag k="no-barnehage:nsrid" v="994143891" />
		<tag k="operator" v="Læringsverkstedet Vestadbakken barnehage AS" />
		<tag k="operator:type" v="private" />
	</node>
	<node lat="61.42134" lon="12.13963" id="-3041">
		<tag k="ADDRESS" v="Tybassvegen 3, 2430 JORDET" />
		<tag k="amenity" v="kindergarten" />
		<tag k="capacity" v="14" />
		<tag k="max_age" v="5" />
		<tag k="min_age" v="1" />
		<tag k="name" v="Muggoppen barnehage" />
		<tag k="no-barnehage:nsrid" v="976466411" />
		<tag k="operator" v="Muggoppen barnehage AS" />
		<tag k="operator:type" v="private" />
	</node>
	<node lat="61.26243" lon="12.32423" id="-3042">
		<tag k="ADDRESS" v="Knettvegen 7, 2422 NYBERGSUND" />
		<tag k="amenity" v="kindergarten" />
		<tag k="capacity" v="22" />
		<tag k="max_age" v="5" />
		<tag k="min_age" v="1" />
		<tag k="name" v="Nybergsund barnehage" />
		<tag k="no-barnehage:nsrid" v="975302652" />
		<tag k="operator" v="Trysil kommune" />
		<tag k="operator:type" v="public" />
	</node>
	<node lat="61.32339" lon="12.26277" id="-3043">
		<tag k="ADDRESS" v="Buskvegen 9, 2420 TRYSIL" />
		<tag k="amenity" v="kindergarten" />
		<tag k="capacity" v="47" />
		<tag k="max_age" v="5" />
		<tag k="min_age" v="1" />
		<tag k="name" v="Nysted barnehage" />
		<tag k="no-barnehage:nsrid" v="975302660" />
		<tag k="operator" v="Trysil kommune" />
		<tag k="operator:type" v="public" />
	</node>
	<node lat="61.13513" lon="12.49708" id="-3044">
		<tag k="ADDRESS" v="Elvdalsvegen 1786, 2427 PLASSEN" />
		<tag k="amenity" v="kindergarten" />
		<tag k="capacity" v="10" />
		<tag k="contact:website" v="http://trysilfb.no" />
		<tag k="max_age" v="5" />
		<tag k="min_age" v="1" />
		<tag k="name" v="Trysil friluftbarnehage" />
		<tag k="no-barnehage:nsrid" v="917709114" />
		<tag k="operator" v="Trysil friluftbarnehage SA" />
		<tag k="operator:type" v="private" />
	</node>
	<node lat="0.0" lon="0.0" id="-3045">
		<tag k="ADDRESS" v="Liavegen 20, 2420 TRYSIL" />
		<tag k="amenity" v="kindergarten" />
		<tag k="capacity" v="12" />
		<tag k="max_age" v="2" />
		<tag k="min_age" v="1" />
		<tag k="name" v="Trysil menighetsbarnehage" />
		<tag k="no-barnehage:nsrid" v="987254432" />
		<tag k="operator" v="Trysil menighetsbarnehage AS" />
		<tag k="operator:type" v="private" />
	</node>
	<node lat="61.10525" lon="11.98929" id="-3046">
		<tag k="ADDRESS" v="Skolevegen 24, 2428 SØRE OSEN" />
		<tag k="amenity" v="kindergarten" />
		<tag k="capacity" v="6" />
		<tag k="max_age" v="5" />
		<tag k="min_age" v="1" />
		<tag k="name" v="Vestre Trysil barnehage" />
		<tag k="no-barnehage:nsrid" v="975302687" />
		<tag k="operator" v="Trysil kommune" />
		<tag k="operator:type" v="public" />
	</node>
	<node lat="61.25509" lon="12.51965" id="-3047">
		<tag k="ADDRESS" v="Skogheimsvingen 4, 2423 ØSTBY" />
		<tag k="amenity" v="kindergarten" />
		<tag k="capacity" v="17" />
		<tag k="max_age" v="5" />
		<tag k="min_age" v="1" />
		<tag k="name" v="Østby barnehage" />
		<tag k="no-barnehage:nsrid" v="975302717" />
		<tag k="operator" v="Trysil kommune" />
		<tag k="operator:type" v="public" />
	</node>
	<node lat="61.30717" lon="12.27422" id="-3048">
		<tag k="ADDRESS" v="Gamlevegen 22, 2420 TRYSIL" />
		<tag k="amenity" v="kindergarten" />
		<tag k="capacity" v="43" />
		<tag k="max_age" v="5" />
		<tag k="min_age" v="1" />
		<tag k="name" v="Østmojordet barnehage" />
		<tag k="no-barnehage:nsrid" v="975320308" />
		<tag k="operator" v="Trysil kommune" />
		<tag k="operator:type" v="public" />
	</node>
</osm>
