<?xml version="1.0" encoding="UTF-8"?>
<osm generator="osmapis" version="0.6">
	<node id="-2376" lat="60.2693" lon="8.93984">
		<tag k="amenity" v="kindergarten" />
		<tag k="capacity" v="30" />
		<tag k="max_age" v="5" />
		<tag k="min_age" v="1" />
		<tag k="name" v="RÃ¸dberg barnehage" />
		<tag k="no-barnehage:nsrid" v="1018023" />
		<tag k="operator" v="Nore og Uvdal kommune" />
		<tag k="operator:type" v="public" />
	</node>
	<node id="-2375" lat="60.1688" lon="9.01125">
		<tag k="amenity" v="kindergarten" />
		<tag k="capacity" v="23" />
		<tag k="max_age" v="5" />
		<tag k="min_age" v="1" />
		<tag k="name" v="Nore barnehage" />
		<tag k="no-barnehage:nsrid" v="1018022" />
		<tag k="operator" v="Nore og Uvdal kommune" />
		<tag k="operator:type" v="public" />
	</node>
	<node id="-2378" lat="60.2556" lon="7.88095">
		<tag k="amenity" v="kindergarten" />
		<tag k="capacity" v="23" />
		<tag k="max_age" v="5" />
		<tag k="min_age" v="1" />
		<tag k="name" v="Uvdal barnehage" />
		<tag k="no-barnehage:nsrid" v="1017392" />
		<tag k="operator" v="Nore og Uvdal kommune" />
		<tag k="operator:type" v="public" />
	</node>
	<node id="-2377" lat="60.4611" lon="8.76335">
		<tag k="amenity" v="kindergarten" />
		<tag k="capacity" v="12" />
		<tag k="max_age" v="5" />
		<tag k="min_age" v="1" />
		<tag k="name" v="Tunhovd barnehage" />
		<tag k="no-barnehage:nsrid" v="1016029" />
		<tag k="operator" v="Nore og Uvdal kommune" />
		<tag k="operator:type" v="public" />
	</node>
</osm>
