<?xml version="1.0" encoding="UTF-8"?>
<osm generator="osmapis" version="0.6">
	<node id="-2528" lat="60.2556" lon="7.88095">
		<tag k="amenity" v="kindergarten" />
		<tag k="capacity" v="26" />
		<tag k="contact:email" v="kari.kleiv.redalen@nore-og-uvdal.kommune.no" />
		<tag k="contact:phone" v="+47 32 74 30 96" />
		<tag k="max_age" v="5" />
		<tag k="min_age" v="1" />
		<tag k="name" v="Uvdal barnehage" />
		<tag k="no-barnehage:nsrid" v="1017392" />
		<tag k="operator" v="Nore og Uvdal kommune" />
		<tag k="operator:type" v="public" />
		<tag k="start_date" v="1978-10-16" />
	</node>
	<node id="-2527" lat="60.4611" lon="8.76335">
		<tag k="amenity" v="kindergarten" />
		<tag k="capacity" v="9" />
		<tag k="contact:email" v="mos@noreuvdal.no" />
		<tag k="contact:phone" v="+47 31024000" />
		<tag k="max_age" v="5" />
		<tag k="min_age" v="1" />
		<tag k="name" v="Tunhovd barnehage" />
		<tag k="no-barnehage:nsrid" v="1016029" />
		<tag k="operator" v="Nore og Uvdal kommune" />
		<tag k="operator:type" v="public" />
		<tag k="start_date" v="1998-06-10" />
	</node>
	<node id="-2526" lat="60.2693" lon="8.93984">
		<tag k="amenity" v="kindergarten" />
		<tag k="capacity" v="44" />
		<tag k="contact:email" v="tordis.skogen.jahren@nore-og-uvdal.kommune.no" />
		<tag k="contact:phone" v="+47 31024000" />
		<tag k="max_age" v="5" />
		<tag k="min_age" v="1" />
		<tag k="name" v="RÃ¸dberg barnehage" />
		<tag k="no-barnehage:nsrid" v="1018023" />
		<tag k="operator" v="Nore og Uvdal kommune" />
		<tag k="operator:type" v="public" />
		<tag k="start_date" v="1989-01-01" />
	</node>
	<node id="-2525" lat="60.1688" lon="9.01125">
		<tag k="amenity" v="kindergarten" />
		<tag k="capacity" v="19" />
		<tag k="contact:email" v="bente-gunn.haug@nore-og-uvdal.kommune.no" />
		<tag k="contact:phone" v="+47 31024162" />
		<tag k="max_age" v="5" />
		<tag k="min_age" v="1" />
		<tag k="name" v="Nore barnehage" />
		<tag k="no-barnehage:nsrid" v="1018022" />
		<tag k="operator" v="Nore og Uvdal kommune" />
		<tag k="operator:type" v="public" />
		<tag k="start_date" v="1989-01-01" />
	</node>
</osm>
