<?xml version="1.0" encoding="UTF-8"?>
<osm generator="osmapis" version="0.6">
	<node id="-5135" lat="63.3075" lon="10.4264">
		<tag k="amenity" v="kindergarten" />
		<tag k="capacity" v="62" />
		<tag k="contact:email" v="tone.hartun@klabu.kommune.no" />
		<tag k="contact:phone" v="+47 72 83 37 15" />
		<tag k="max_age" v="5" />
		<tag k="min_age" v="1" />
		<tag k="name" v="Tanem barnehage" />
		<tag k="no-barnehage:nsrid" v="1018255" />
		<tag k="operator" v="Klæbu kommune" />
		<tag k="operator:type" v="public" />
		<tag k="start_date" v="1989-01-01" />
	</node>
	<node id="-5134" lat="63.3021" lon="10.4837">
		<tag k="amenity" v="kindergarten" />
		<tag k="capacity" v="26" />
		<tag k="contact:email" v="anita.vangstad@klabu.kommune.no" />
		<tag k="contact:phone" v="+47 72 83 23 90" />
		<tag k="max_age" v="5" />
		<tag k="min_age" v="1" />
		<tag k="name" v="Sletten barnehage Avdeling Rydland" />
		<tag k="no-barnehage:nsrid" v="1012526" />
		<tag k="operator" v="Klæbu kommune" />
		<tag k="operator:type" v="public" />
		<tag k="start_date" v="1989-01-01" />
	</node>
	<node id="-5133" lat="63.3003" lon="10.489">
		<tag k="amenity" v="kindergarten" />
		<tag k="capacity" v="58" />
		<tag k="contact:email" v="anita.vangstad@klabu.kommune.no" />
		<tag k="contact:phone" v="+47 72 83 26 01" />
		<tag k="max_age" v="5" />
		<tag k="min_age" v="1" />
		<tag k="name" v="Sletten barnehage Avd Rød og Blå" />
		<tag k="no-barnehage:nsrid" v="1017667" />
		<tag k="operator" v="Klæbu kommune" />
		<tag k="operator:type" v="public" />
		<tag k="start_date" v="2006-08-01" />
	</node>
	<node id="-5132" lat="63.29762" lon="10.4826">
		<tag k="amenity" v="kindergarten" />
		<tag k="capacity" v="75" />
		<tag k="contact:email" v="dl.knaerten@bhg.no" />
		<tag k="max_age" v="5" />
		<tag k="min_age" v="1" />
		<tag k="name" v="Knærten Fus Friluftsbarnehage AS" />
		<tag k="no-barnehage:nsrid" v="1021993" />
		<tag k="operator" v="Knærten Fus Friluftsbarnehage AS" />
		<tag k="operator:type" v="private" />
		<tag k="start_date" v="2010-12-31" />
	</node>
	<node id="-5130" lat="63.2997" lon="10.4781">
		<tag k="amenity" v="kindergarten" />
		<tag k="capacity" v="53" />
		<tag k="contact:email" v="veronika.olden@klabu.kommune.no" />
		<tag k="contact:phone" v="+47 959 75 700" />
		<tag k="max_age" v="5" />
		<tag k="min_age" v="1" />
		<tag k="name" v="Hesteskoen barnehage" />
		<tag k="no-barnehage:nsrid" v="1018520" />
		<tag k="operator" v="Klæbu kommune" />
		<tag k="operator:type" v="public" />
		<tag k="start_date" v="2008-01-01" />
	</node>
	<node id="-5129" lat="63.2987" lon="10.4859">
		<tag k="amenity" v="kindergarten" />
		<tag k="capacity" v="59" />
		<tag k="contact:email" v="mona.kokaas@klabu.kommune.no" />
		<tag k="contact:phone" v="+47 72 83 02 40" />
		<tag k="max_age" v="5" />
		<tag k="min_age" v="1" />
		<tag k="name" v="Brannåsen barnehage" />
		<tag k="no-barnehage:nsrid" v="1018254" />
		<tag k="operator" v="Klæbu kommune" />
		<tag k="operator:type" v="public" />
		<tag k="start_date" v="1989-01-01" />
	</node>
	<node id="-5128" lat="63.3036" lon="10.4866">
		<tag k="amenity" v="kindergarten" />
		<tag k="capacity" v="45" />
		<tag k="contact:email" v="barnehage@betelklabu.no" />
		<tag k="max_age" v="5" />
		<tag k="min_age" v="1" />
		<tag k="name" v="Betel barnehage" />
		<tag k="no-barnehage:nsrid" v="1015001" />
		<tag k="operator" v="Betel Menighetssenter" />
		<tag k="operator:type" v="private" />
		<tag k="start_date" v="1997-08-01" />
	</node>
</osm>
