<?xml version="1.0" encoding="UTF-8"?>
<osm generator="osmapis" version="0.6">
	<node id="-4659" lat="62.32507" lon="5.634413">
		<tag k="amenity" v="kindergarten" />
		<tag k="capacity" v="85" />
		<tag k="max_age" v="5" />
		<tag k="min_age" v="1" />
		<tag k="name" v="Troll-Myra barnehage AS" />
		<tag k="no-barnehage:nsrid" v="1021280" />
		<tag k="operator" v="Troll-Myra barnehage AS" />
		<tag k="operator:type" v="private" />
		<tag k="start_date" v="2005-07-27" />
	</node>
	<node id="-4658" lat="62.34967" lon="5.734756">
		<tag k="amenity" v="kindergarten" />
		<tag k="capacity" v="84" />
		<tag k="contact:phone" v="70087361" />
		<tag k="max_age" v="5" />
		<tag k="min_age" v="1" />
		<tag k="name" v="Troll Lia barnehage AS" />
		<tag k="no-barnehage:nsrid" v="1020306" />
		<tag k="operator" v="Troll Lia barnehage AS" />
		<tag k="operator:type" v="private" />
		<tag k="start_date" v="1995-02-23" />
	</node>
	<node id="-4657" lat="62.33333" lon="5.653371">
		<tag k="amenity" v="kindergarten" />
		<tag k="capacity" v="54" />
		<tag k="contact:email" v="sirlihaugen@adsl.no" />
		<tag k="contact:phone" v="70 08 84 16" />
		<tag k="max_age" v="5" />
		<tag k="min_age" v="1" />
		<tag k="name" v="Sirlihaugen barnehage Sa" />
		<tag k="no-barnehage:nsrid" v="1020087" />
		<tag k="operator" v="Sirlihaugen barnehage Sa" />
		<tag k="operator:type" v="private" />
		<tag k="start_date" v="1991-06-17" />
	</node>
	<node id="-4656" lat="62.25244" lon="5.634868">
		<tag k="amenity" v="kindergarten" />
		<tag k="capacity" v="53" />
		<tag k="contact:email" v="myrsnipa.bh@heroy.kommune.no" />
		<tag k="contact:phone" v="70 08 36 43" />
		<tag k="max_age" v="5" />
		<tag k="min_age" v="1" />
		<tag k="name" v="Myrsnipa barnehage" />
		<tag k="no-barnehage:nsrid" v="1025334" />
		<tag k="operator" v="Herøy kommune" />
		<tag k="operator:type" v="public" />
		<tag k="start_date" v="1993-08-01" />
	</node>
	<node id="-4655" lat="62.2924" lon="5.62339">
		<tag k="amenity" v="kindergarten" />
		<tag k="capacity" v="18" />
		<tag k="contact:email" v="moltu.bh@heroy.kommune.no" />
		<tag k="contact:phone" v="70 08 51 89" />
		<tag k="max_age" v="5" />
		<tag k="min_age" v="1" />
		<tag k="name" v="Moltu barnehage" />
		<tag k="no-barnehage:nsrid" v="1016903" />
		<tag k="operator" v="Herøy kommune" />
		<tag k="operator:type" v="public" />
		<tag k="start_date" v="1976-12-24" />
	</node>
	<node id="-4654" lat="62.2524" lon="5.63487">
		<tag k="amenity" v="kindergarten" />
		<tag k="capacity" v="24" />
		<tag k="contact:email" v="leikanger.bh@heroy.kommune.no" />
		<tag k="contact:phone" v="70 08 33 77" />
		<tag k="max_age" v="5" />
		<tag k="min_age" v="1" />
		<tag k="name" v="Leikanger barnehage" />
		<tag k="no-barnehage:nsrid" v="1012519" />
		<tag k="operator" v="Herøy kommune" />
		<tag k="operator:type" v="public" />
		<tag k="start_date" v="1989-01-01" />
	</node>
	<node id="-4653" lat="62.34138" lon="5.631069">
		<tag k="amenity" v="kindergarten" />
		<tag k="capacity" v="41" />
		<tag k="contact:phone" v="70 08 96 09" />
		<tag k="max_age" v="5" />
		<tag k="min_age" v="1" />
		<tag k="name" v="Huldal barnehage Sa" />
		<tag k="no-barnehage:nsrid" v="1020747" />
		<tag k="operator" v="Huldal barnehage Sa" />
		<tag k="operator:type" v="private" />
		<tag k="start_date" v="2001-08-01" />
	</node>
	<node id="-4652" lat="62.33327" lon="5.635866">
		<tag k="amenity" v="kindergarten" />
		<tag k="capacity" v="106" />
		<tag k="contact:email" v="firmapost@gnistbarnehager.no" />
		<tag k="contact:phone" v="40 00 65 96" />
		<tag k="contact:website" v="http://www.gnistbarnehager.no" />
		<tag k="max_age" v="5" />
		<tag k="min_age" v="1" />
		<tag k="name" v="Gnist Barnehager Myklebust AS" />
		<tag k="no-barnehage:nsrid" v="1021547" />
		<tag k="operator" v="Gnist Barnehager Myklebust AS" />
		<tag k="operator:type" v="private" />
		<tag k="start_date" v="2006-10-26" />
	</node>
	<node id="-4651" lat="62.3336" lon="5.65232">
		<tag k="amenity" v="kindergarten" />
		<tag k="capacity" v="27" />
		<tag k="contact:email" v="bergslia.bh@heroy.kommune.no" />
		<tag k="contact:phone" v="70 08 46 35" />
		<tag k="max_age" v="5" />
		<tag k="min_age" v="1" />
		<tag k="name" v="Bergslia barnehage" />
		<tag k="no-barnehage:nsrid" v="1013943" />
		<tag k="operator" v="Herøy kommune" />
		<tag k="operator:type" v="public" />
		<tag k="start_date" v="1990-01-01" />
	</node>
</osm>
