<?xml version="1.0" encoding="UTF-8"?>
<osm generator="osmapis" version="0.6">
	<node id="-4761" lat="59.70269" lon="5.4858">
		<tag k="amenity" v="kindergarten" />
		<tag k="capacity" v="19" />
		<tag k="max_age" v="5" />
		<tag k="min_age" v="1" />
		<tag k="name" v="Valestrand oppvekstsenter avd. barnehage" />
		<tag k="no-barnehage:nsrid" v="1017902" />
		<tag k="operator" v="Sveio kommune" />
		<tag k="operator:type" v="public" />
	</node>
	<node id="-4760" lat="59.54602" lon="5.35668">
		<tag k="amenity" v="kindergarten" />
		<tag k="capacity" v="40" />
		<tag k="max_age" v="5" />
		<tag k="min_age" v="1" />
		<tag k="name" v="Sveio barnehage" />
		<tag k="no-barnehage:nsrid" v="1017382" />
		<tag k="operator" v="Sveio kommune" />
		<tag k="operator:type" v="public" />
	</node>
	<node id="-4759" lat="59.48602" lon="5.30853">
		<tag k="amenity" v="kindergarten" />
		<tag k="capacity" v="43" />
		<tag k="max_age" v="5" />
		<tag k="min_age" v="1" />
		<tag k="name" v="Læringsverkstedet barnehage avd. Ekrene natur og gårdsbarnehage" />
		<tag k="no-barnehage:nsrid" v="1021167" />
		<tag k="operator" v="Læringsverkstedet AS" />
		<tag k="operator:type" v="private" />
	</node>
	<node id="-4758" lat="0.0" lon="0.0">
		<tag k="amenity" v="kindergarten" />
		<tag k="name" v="Hansabakken FUS barnehage" />
		<tag k="no-barnehage:nsrid" v="1022157" />
		<tag k="operator" v="Hansabakken Fus barnehage AS" />
		<tag k="operator:type" v="private" />
	</node>
	<node id="-4757" lat="59.54228" lon="5.33985">
		<tag k="amenity" v="kindergarten" />
		<tag k="capacity" v="69" />
		<tag k="max_age" v="5" />
		<tag k="min_age" v="1" />
		<tag k="name" v="Gjermundshaugen FUS barnehage" />
		<tag k="no-barnehage:nsrid" v="1021637" />
		<tag k="operator" v="Gjermundshaugen Fus barnehage AS" />
		<tag k="operator:type" v="private" />
	</node>
	<node id="-4756" lat="0.0" lon="0.0">
		<tag k="amenity" v="kindergarten" />
		<tag k="capacity" v="47" />
		<tag k="max_age" v="5" />
		<tag k="min_age" v="1" />
		<tag k="name" v="Førde barnehage" />
		<tag k="no-barnehage:nsrid" v="1018105" />
		<tag k="operator" v="Sveio kommune" />
		<tag k="operator:type" v="public" />
	</node>
	<node id="-4755" lat="59.48676" lon="5.31644">
		<tag k="amenity" v="kindergarten" />
		<tag k="capacity" v="76" />
		<tag k="contact:website" v="http://www.espira.no" />
		<tag k="max_age" v="5" />
		<tag k="min_age" v="1" />
		<tag k="name" v="Espira Solkroken barnehage" />
		<tag k="no-barnehage:nsrid" v="1022222" />
		<tag k="operator" v="Espira Barnehager AS" />
		<tag k="operator:type" v="private" />
	</node>
	<node id="-4754" lat="59.59464" lon="5.33665">
		<tag k="amenity" v="kindergarten" />
		<tag k="capacity" v="23" />
		<tag k="max_age" v="5" />
		<tag k="min_age" v="1" />
		<tag k="name" v="Bua kultur- og friluftsbarnehage" />
		<tag k="no-barnehage:nsrid" v="1019693" />
		<tag k="operator" v="Bua Kultur- og Friluftsbarnehage AS" />
		<tag k="operator:type" v="private" />
	</node>
	<node id="-4753" lat="59.545" lon="5.41404">
		<tag k="amenity" v="kindergarten" />
		<tag k="capacity" v="29" />
		<tag k="contact:website" v="http://bratveit-barnehage.no" />
		<tag k="max_age" v="5" />
		<tag k="min_age" v="1" />
		<tag k="name" v="Bråtveit natur og kulturbarnehage" />
		<tag k="no-barnehage:nsrid" v="1019692" />
		<tag k="operator" v="Bråtveit Natur og Kulturbarnehage" />
		<tag k="operator:type" v="private" />
	</node>
</osm>
