<?xml version="1.0" encoding="UTF-8"?>
<osm generator="osmapis" version="0.6">
	<node id="-4017" lat="59.6994" lon="5.47255">
		<tag k="amenity" v="kindergarten" />
		<tag k="capacity" v="19" />
		<tag k="contact:email" v="solveig.skattkjaer@sveio.kommune.no" />
		<tag k="max_age" v="5" />
		<tag k="min_age" v="1" />
		<tag k="name" v="Valestrand Oppvekstsenter Avd barnehage" />
		<tag k="no-barnehage:nsrid" v="1017902" />
		<tag k="operator" v="Sveio kommune" />
		<tag k="operator:type" v="public" />
		<tag k="start_date" v="2007-08-01" />
	</node>
	<node id="-4016" lat="59.5459" lon="5.35668">
		<tag k="amenity" v="kindergarten" />
		<tag k="capacity" v="44" />
		<tag k="contact:email" v="bente.apeland@sveio.kommune.no" />
		<tag k="contact:phone" v="53740555" />
		<tag k="max_age" v="5" />
		<tag k="min_age" v="1" />
		<tag k="name" v="Sveio barnehage" />
		<tag k="no-barnehage:nsrid" v="1017382" />
		<tag k="operator" v="Sveio kommune" />
		<tag k="operator:type" v="public" />
		<tag k="start_date" v="1978-08-02" />
	</node>
	<node id="-4015" lat="59.5419" lon="5.351801">
		<tag k="amenity" v="kindergarten" />
		<tag k="capacity" v="66" />
		<tag k="contact:email" v="ekrene@laringsverkstedet.no" />
		<tag k="max_age" v="5" />
		<tag k="min_age" v="1" />
		<tag k="name" v="Læringsverkstedet barnehage Avd Ekrene Natur og Gårdsbarnehage" />
		<tag k="no-barnehage:nsrid" v="1021167" />
		<tag k="operator" v="Læringsverkstedet AS" />
		<tag k="operator:type" v="private" />
		<tag k="start_date" v="1997-08-01" />
	</node>
	<node id="-4014" lat="59.54228" lon="5.33985">
		<tag k="amenity" v="kindergarten" />
		<tag k="capacity" v="65" />
		<tag k="contact:email" v="dl.gjermundshaugen@bhg.no" />
		<tag k="max_age" v="5" />
		<tag k="min_age" v="1" />
		<tag k="name" v="Gjermundshaugen Fus barnehage AS" />
		<tag k="no-barnehage:nsrid" v="1021637" />
		<tag k="operator" v="Gjermundshaugen Fus barnehage AS" />
		<tag k="operator:type" v="private" />
		<tag k="start_date" v="2007-04-11" />
	</node>
	<node id="-4013" lat="59.6119" lon="5.47514">
		<tag k="amenity" v="kindergarten" />
		<tag k="capacity" v="48" />
		<tag k="contact:email" v="lise.ingebrigtsen@sveio.kommune.no" />
		<tag k="contact:phone" v="53743455" />
		<tag k="max_age" v="5" />
		<tag k="min_age" v="1" />
		<tag k="name" v="Førde barnehage" />
		<tag k="no-barnehage:nsrid" v="1018105" />
		<tag k="operator" v="Sveio kommune" />
		<tag k="operator:type" v="public" />
		<tag k="start_date" v="1989-01-01" />
	</node>
	<node id="-4012" lat="59.48602" lon="5.318466">
		<tag k="amenity" v="kindergarten" />
		<tag k="capacity" v="102" />
		<tag k="contact:email" v="styrer@solkroken.espira.no" />
		<tag k="contact:phone" v="52 84 50 20" />
		<tag k="contact:website" v="http://www.espira.no" />
		<tag k="max_age" v="5" />
		<tag k="min_age" v="1" />
		<tag k="name" v="Espira Solkroken barnehage" />
		<tag k="no-barnehage:nsrid" v="1022222" />
		<tag k="operator" v="Espira Barnehager AS" />
		<tag k="operator:type" v="private" />
		<tag k="start_date" v="2011-10-04" />
	</node>
	<node id="-4011" lat="59.5419" lon="5.351801">
		<tag k="amenity" v="kindergarten" />
		<tag k="capacity" v="32" />
		<tag k="contact:email" v="buabarnehage@epost.no" />
		<tag k="contact:phone" v="53 74 16 10" />
		<tag k="contact:website" v="http://www.buabarnehage.no" />
		<tag k="max_age" v="5" />
		<tag k="min_age" v="1" />
		<tag k="name" v="Bua barnehage og Sfo" />
		<tag k="no-barnehage:nsrid" v="1019693" />
		<tag k="operator" v="Bua Korttidsbarnehage" />
		<tag k="operator:type" v="private" />
		<tag k="start_date" v="1989-01-02" />
	</node>
	<node id="-4010" lat="59.5419" lon="5.351801">
		<tag k="amenity" v="kindergarten" />
		<tag k="capacity" v="32" />
		<tag k="contact:email" v="astrid_whagen@hotmail.com" />
		<tag k="contact:phone" v="53 74 13 11" />
		<tag k="contact:website" v="http://bratveit-barnehage.no" />
		<tag k="max_age" v="5" />
		<tag k="min_age" v="1" />
		<tag k="name" v="Bråtveit Natur og Kulturbarnehage" />
		<tag k="no-barnehage:nsrid" v="1019692" />
		<tag k="operator" v="Bråtveit Korttids barnehage" />
		<tag k="operator:type" v="private" />
		<tag k="start_date" v="1989-01-02" />
	</node>
</osm>
