<?xml version="1.0" encoding="UTF-8"?>
<osm generator="osmapis" version="0.6">
	<node id="-4864" lat="63.5638" lon="9.19316">
		<tag k="amenity" v="kindergarten" />
		<tag k="capacity" v="48" />
		<tag k="contact:email" v="bjorg.jakobsen@hitra.kommune.no" />
		<tag k="contact:phone" v="+47 72 44 19 80" />
		<tag k="max_age" v="5" />
		<tag k="min_age" v="1" />
		<tag k="name" v="Strand Oppvekstsenter Avd Barnehage" />
		<tag k="no-barnehage:nsrid" v="1012695" />
		<tag k="operator" v="Hitra kommune" />
		<tag k="operator:type" v="public" />
		<tag k="start_date" v="1989-01-01" />
	</node>
	<node id="-4863" lat="63.5336" lon="8.3995">
		<tag k="amenity" v="kindergarten" />
		<tag k="capacity" v="10" />
		<tag k="contact:email" v="bjorg.jakobsen@hitra.kommune.no" />
		<tag k="contact:phone" v="+47 97435912" />
		<tag k="max_age" v="5" />
		<tag k="min_age" v="1" />
		<tag k="name" v="KvenvÃ¦r Oppvekstsenter Avd Barnehage" />
		<tag k="no-barnehage:nsrid" v="1012696" />
		<tag k="operator" v="Hitra kommune" />
		<tag k="operator:type" v="public" />
		<tag k="start_date" v="1989-01-01" />
	</node>
	<node id="-4862" lat="63.6912" lon="9.16046">
		<tag k="amenity" v="kindergarten" />
		<tag k="capacity" v="33" />
		<tag k="contact:email" v="laila.bye@hitra.kommune.no" />
		<tag k="contact:phone" v="+47 72 44 18 44" />
		<tag k="max_age" v="5" />
		<tag k="min_age" v="1" />
		<tag k="name" v="Knarrlagsund Oppvekstsenter Avd Barnehage" />
		<tag k="no-barnehage:nsrid" v="1012697" />
		<tag k="operator" v="Hitra kommune" />
		<tag k="operator:type" v="public" />
		<tag k="start_date" v="1989-01-01" />
	</node>
	<node id="-4861" lat="63.5984" lon="8.93279">
		<tag k="amenity" v="kindergarten" />
		<tag k="capacity" v="52" />
		<tag k="contact:email" v="toril.fjeldvar@hitra.kommune.no" />
		<tag k="contact:phone" v="+47 72 44 18 25" />
		<tag k="max_age" v="5" />
		<tag k="min_age" v="1" />
		<tag k="name" v="Fillan barnehage" />
		<tag k="no-barnehage:nsrid" v="1012694" />
		<tag k="operator" v="Hitra kommune" />
		<tag k="operator:type" v="public" />
		<tag k="start_date" v="1989-01-01" />
	</node>
	<node id="-4860" lat="63.629" lon="8.73004">
		<tag k="amenity" v="kindergarten" />
		<tag k="capacity" v="51" />
		<tag k="contact:email" v="eva.braseth@hitra.kommune.no" />
		<tag k="contact:phone" v="+47 72 44 17 00" />
		<tag k="max_age" v="5" />
		<tag k="min_age" v="1" />
		<tag k="name" v="Barman Oppvekstsenter Avd Barnehage" />
		<tag k="no-barnehage:nsrid" v="1014033" />
		<tag k="operator" v="Hitra kommune" />
		<tag k="operator:type" v="public" />
		<tag k="start_date" v="2009-08-01" />
	</node>
</osm>
