<?xml version="1.0" encoding="UTF-8"?>
<osm generator="osmapis" version="0.6">
	<node id="-3840" lat="69.68793" lon="18.79448">
		<tag k="ADDRESS" v="Øvre Storvollen 66, 9104 KVALØYA" />
		<tag k="amenity" v="kindergarten" />
		<tag k="capacity" v="57" />
		<tag k="max_age" v="5" />
		<tag k="min_age" v="1" />
		<tag k="name" v="Storvollen barnehage" />
		<tag k="no-barnehage:nsrid" v="1017057" />
		<tag k="operator" v="Tromsø kommune" />
		<tag k="operator:type" v="public" />
	</node>
	<node id="-3839" lat="69.66369" lon="18.95288">
		<tag k="ADDRESS" v="Luleåvegen 13, 9011 TROMSØ" />
		<tag k="amenity" v="kindergarten" />
		<tag k="capacity" v="47" />
		<tag k="max_age" v="5" />
		<tag k="min_age" v="1" />
		<tag k="name" v="Storskogåsen studentbarnehage" />
		<tag k="no-barnehage:nsrid" v="1016822" />
		<tag k="operator" v="Norges Arktiske Studentsamskipnad" />
		<tag k="operator:type" v="private" />
	</node>
	<node id="-3838" lat="69.64005" lon="17.98475">
		<tag k="ADDRESS" v="Nordselveien 6-8, 9020 TROMSDALEN" />
		<tag k="amenity" v="kindergarten" />
		<tag k="capacity" v="29" />
		<tag k="max_age" v="5" />
		<tag k="min_age" v="1" />
		<tag k="name" v="Stiftelsen Kanutten barnehage, Tromsø" />
		<tag k="no-barnehage:nsrid" v="1020460" />
		<tag k="operator" v="Stiftelsen Kanutten Barnehage, Tromsø" />
		<tag k="operator:type" v="private" />
	</node>
	<node id="-3837" lat="69.64244" lon="18.93071">
		<tag k="ADDRESS" v="Kveldrovegen 17, 9007 TROMSØ" />
		<tag k="amenity" v="kindergarten" />
		<tag k="capacity" v="22" />
		<tag k="contact:website" v="http://steinerbarnehagentromso.no" />
		<tag k="max_age" v="5" />
		<tag k="min_age" v="1" />
		<tag k="name" v="Steinerbarnehagen Tromsø" />
		<tag k="no-barnehage:nsrid" v="1019765" />
		<tag k="operator" v="Stiftelsen R Steiner barnehage i Tromsø" />
		<tag k="operator:type" v="private" />
	</node>
	<node id="-3836" lat="69.67842" lon="19.05801">
		<tag k="ADDRESS" v="Rubinvegen 1, 9022 KROKELVDALEN" />
		<tag k="amenity" v="kindergarten" />
		<tag k="capacity" v="65" />
		<tag k="contact:website" v="http://www.steinbergetbarnehage.no" />
		<tag k="max_age" v="5" />
		<tag k="min_age" v="1" />
		<tag k="name" v="Steinberget barnehage" />
		<tag k="no-barnehage:nsrid" v="1020175" />
		<tag k="operator" v="Steinberget barnehage Sa" />
		<tag k="operator:type" v="private" />
	</node>
	<node id="-3835" lat="69.69198" lon="18.99434">
		<tag k="ADDRESS" v="Nordøyvegen 101, 9018 TROMSØ" />
		<tag k="amenity" v="kindergarten" />
		<tag k="capacity" v="53" />
		<tag k="max_age" v="5" />
		<tag k="min_age" v="1" />
		<tag k="name" v="Stakkevollan barnehage" />
		<tag k="no-barnehage:nsrid" v="1012719" />
		<tag k="operator" v="Tromsø kommune" />
		<tag k="operator:type" v="public" />
	</node>
	<node id="-3834" lat="69.63908" lon="18.9055">
		<tag k="ADDRESS" v="Vesterlivegen 5, 9013 TROMSØ" />
		<tag k="amenity" v="kindergarten" />
		<tag k="capacity" v="90" />
		<tag k="max_age" v="5" />
		<tag k="min_age" v="1" />
		<tag k="name" v="Sorgenfri barnehage" />
		<tag k="no-barnehage:nsrid" v="1017019" />
		<tag k="operator" v="Tromsø kommune" />
		<tag k="operator:type" v="public" />
	</node>
	<node id="-3833" lat="69.63783" lon="18.91538">
		<tag k="ADDRESS" v="Lars Thørings Veg 29, 9006 TROMSØ" />
		<tag k="amenity" v="kindergarten" />
		<tag k="capacity" v="65" />
		<tag k="max_age" v="5" />
		<tag k="min_age" v="1" />
		<tag k="name" v="Sommereng barnehage" />
		<tag k="no-barnehage:nsrid" v="1017061" />
		<tag k="operator" v="Tromsø kommune" />
		<tag k="operator:type" v="public" />
	</node>
	<node id="-3831" lat="69.696" lon="18.95301">
		<tag k="ADDRESS" v="Ringvegen 522, 9017 TROMSØ" />
		<tag k="amenity" v="kindergarten" />
		<tag k="capacity" v="68" />
		<tag k="max_age" v="5" />
		<tag k="min_age" v="1" />
		<tag k="name" v="Solneset barnehage" />
		<tag k="no-barnehage:nsrid" v="1018441" />
		<tag k="operator" v="Tromsø kommune" />
		<tag k="operator:type" v="public" />
	</node>
	<node id="-3830" lat="69.69774" lon="19.0064">
		<tag k="ADDRESS" v="Skattøra 151, 9018 TROMSØ" />
		<tag k="amenity" v="kindergarten" />
		<tag k="capacity" v="54" />
		<tag k="contact:website" v="http://www.soldagen.barnehage.no" />
		<tag k="max_age" v="5" />
		<tag k="min_age" v="1" />
		<tag k="name" v="Soldagen barnehage" />
		<tag k="no-barnehage:nsrid" v="1020026" />
		<tag k="operator" v="Soldagen barnehage AS" />
		<tag k="operator:type" v="private" />
	</node>
	<node id="-3829" lat="69.69995" lon="18.89003">
		<tag k="ADDRESS" v="Ryllikvegen 55, 9102 KVALØYSLETTA" />
		<tag k="amenity" v="kindergarten" />
		<tag k="capacity" v="50" />
		<tag k="max_age" v="5" />
		<tag k="min_age" v="1" />
		<tag k="name" v="Slettaelva barnehage" />
		<tag k="no-barnehage:nsrid" v="1012725" />
		<tag k="operator" v="Tromsø kommune" />
		<tag k="operator:type" v="public" />
	</node>
	<node id="-3828" lat="69.63565" lon="18.92414">
		<tag k="ADDRESS" v="Lærerskolevegen 8, 9006 TROMSØ" />
		<tag k="amenity" v="kindergarten" />
		<tag k="capacity" v="17" />
		<tag k="max_age" v="5" />
		<tag k="min_age" v="1" />
		<tag k="name" v="Skogstua barnehage" />
		<tag k="no-barnehage:nsrid" v="1019988" />
		<tag k="operator" v="Skogstua barnehage Sa" />
		<tag k="operator:type" v="private" />
	</node>
	<node id="-3827" lat="69.69096" lon="19.07858">
		<tag k="ADDRESS" v="Gabbrovegen 77, 9022 KROKELVDALEN" />
		<tag k="amenity" v="kindergarten" />
		<tag k="capacity" v="54" />
		<tag k="max_age" v="5" />
		<tag k="min_age" v="1" />
		<tag k="name" v="Skjelnan barnehage" />
		<tag k="no-barnehage:nsrid" v="1012724" />
		<tag k="operator" v="Tromsø kommune" />
		<tag k="operator:type" v="public" />
	</node>
	<node id="-3826" lat="69.77503" lon="19.33312">
		<tag k="ADDRESS" v="Ullstindvegen 529, 9023 KROKELVDALEN" />
		<tag k="amenity" v="kindergarten" />
		<tag k="capacity" v="27" />
		<tag k="contact:website" v="http://www.skittenelv.tromsoskolen.no" />
		<tag k="max_age" v="5" />
		<tag k="min_age" v="1" />
		<tag k="name" v="Skittenelv barnehage" />
		<tag k="no-barnehage:nsrid" v="1016972" />
		<tag k="operator" v="Tromsø kommune" />
		<tag k="operator:type" v="public" />
	</node>
	<node id="-3825" lat="69.6824" lon="18.94081">
		<tag k="ADDRESS" v="Mortensnesvegen 6, 9014 TROMSØ" />
		<tag k="amenity" v="kindergarten" />
		<tag k="capacity" v="49" />
		<tag k="max_age" v="5" />
		<tag k="min_age" v="1" />
		<tag k="name" v="Sjømannsbyen barnehage" />
		<tag k="no-barnehage:nsrid" v="1013421" />
		<tag k="operator" v="Tromsø kommune" />
		<tag k="operator:type" v="public" />
	</node>
	<node id="-3823" lat="69.69401" lon="18.99271">
		<tag k="ADDRESS" v="Nordøyvegen 119, 9018 TROMSØ" />
		<tag k="amenity" v="kindergarten" />
		<tag k="capacity" v="15" />
		<tag k="contact:website" v="http://rundvannet.barnehage.no" />
		<tag k="max_age" v="5" />
		<tag k="min_age" v="1" />
		<tag k="name" v="Rundvannet barnehage" />
		<tag k="no-barnehage:nsrid" v="1019757" />
		<tag k="operator" v="Rundvannet barnehage Sa" />
		<tag k="operator:type" v="private" />
	</node>
	<node id="-3822" lat="69.63455" lon="18.96185">
		<tag k="ADDRESS" v="Solstrandvegen 97, 9020 TROMSDALEN" />
		<tag k="amenity" v="kindergarten" />
		<tag k="capacity" v="87" />
		<tag k="contact:website" v="http://www.tromso.kommune.no/index.db2?id=9064" />
		<tag k="max_age" v="5" />
		<tag k="min_age" v="1" />
		<tag k="name" v="Reinen barnehage" />
		<tag k="no-barnehage:nsrid" v="1013227" />
		<tag k="operator" v="Tromsø kommune" />
		<tag k="operator:type" v="public" />
	</node>
	<node id="-3821" lat="69.65662" lon="18.92745">
		<tag k="ADDRESS" v="Olastien 11, 9012 TROMSØ" />
		<tag k="amenity" v="kindergarten" />
		<tag k="capacity" v="70" />
		<tag k="max_age" v="5" />
		<tag k="min_age" v="1" />
		<tag k="name" v="Prestvannet studentbarnehage" />
		<tag k="no-barnehage:nsrid" v="1016786" />
		<tag k="operator" v="Norges Arktiske Studentsamskipnad" />
		<tag k="operator:type" v="private" />
	</node>
	<node id="-3820" lat="69.67899" lon="18.93511">
		<tag k="ADDRESS" v="Ørnevegen 7, 9015 TROMSØ" />
		<tag k="amenity" v="kindergarten" />
		<tag k="capacity" v="33" />
		<tag k="contact:website" v="http://www.polarhagen.barnehage.no" />
		<tag k="max_age" v="5" />
		<tag k="min_age" v="1" />
		<tag k="name" v="Polarhagen barnehage" />
		<tag k="no-barnehage:nsrid" v="1019665" />
		<tag k="operator" v="Polarhagen AS" />
		<tag k="operator:type" v="private" />
	</node>
	<node id="-3819" lat="69.67256" lon="18.93681">
		<tag k="ADDRESS" v="Nordavinden 2, 9015 TROMSØ" />
		<tag k="amenity" v="kindergarten" />
		<tag k="capacity" v="49" />
		<tag k="max_age" v="5" />
		<tag k="min_age" v="1" />
		<tag k="name" v="Olsgård barnehage" />
		<tag k="no-barnehage:nsrid" v="1012726" />
		<tag k="operator" v="Tromsø kommune" />
		<tag k="operator:type" v="public" />
	</node>
	<node id="-3818" lat="69.66318" lon="18.91825">
		<tag k="ADDRESS" v="Simen Workinns Veg 7, 9016 TROMSØ" />
		<tag k="amenity" v="kindergarten" />
		<tag k="capacity" v="57" />
		<tag k="contact:website" v="http://norrona.barnehage.no/" />
		<tag k="max_age" v="5" />
		<tag k="min_age" v="1" />
		<tag k="name" v="Norrøna barnehage" />
		<tag k="no-barnehage:nsrid" v="1019658" />
		<tag k="operator" v="As Norrøna barnehage" />
		<tag k="operator:type" v="private" />
	</node>
	<node id="-3817" lat="69.68578" lon="18.94213">
		<tag k="ADDRESS" v="Maskinistvegen 20, 9014 TROMSØ" />
		<tag k="amenity" v="kindergarten" />
		<tag k="capacity" v="76" />
		<tag k="max_age" v="5" />
		<tag k="min_age" v="1" />
		<tag k="name" v="Norlandia Polarreven Friluftsbanehage" />
		<tag k="no-barnehage:nsrid" v="1015661" />
		<tag k="operator" v="Norlandia Barnehagene AS" />
		<tag k="operator:type" v="private" />
	</node>
	<node id="-3816" lat="69.6854" lon="18.81054">
		<tag k="ADDRESS" v="Borgensvingen 118, 9104 KVALØYA" />
		<tag k="amenity" v="kindergarten" />
		<tag k="capacity" v="132" />
		<tag k="max_age" v="5" />
		<tag k="min_age" v="1" />
		<tag k="name" v="Norlandia Polarmåsen barnehage" />
		<tag k="no-barnehage:nsrid" v="1015660" />
		<tag k="operator" v="Norlandia Barnehagene AS" />
		<tag k="operator:type" v="private" />
	</node>
	<node id="-3815" lat="69.70203" lon="18.97693">
		<tag k="ADDRESS" v="Valbeinet 1, 9017 TROMSØ" />
		<tag k="amenity" v="kindergarten" />
		<tag k="capacity" v="77" />
		<tag k="contact:website" v="http://kvitungen.norlandiabarnehagene.no" />
		<tag k="max_age" v="5" />
		<tag k="min_age" v="1" />
		<tag k="name" v="Norlandia Kvitungen barnehage" />
		<tag k="no-barnehage:nsrid" v="1015977" />
		<tag k="operator" v="Norlandia Barnehagene AS" />
		<tag k="operator:type" v="private" />
	</node>
	<node id="-3814" lat="69.66631" lon="19.03077">
		<tag k="ADDRESS" v="Uranusvegen 18, 9024 TOMASJORD" />
		<tag k="amenity" v="kindergarten" />
		<tag k="capacity" v="110" />
		<tag k="max_age" v="5" />
		<tag k="min_age" v="1" />
		<tag k="name" v="Norlandia Isbjørnen barnehage" />
		<tag k="no-barnehage:nsrid" v="1020526" />
		<tag k="operator" v="Norlandia Barnehagene AS" />
		<tag k="operator:type" v="private" />
	</node>
	<node id="-3813" lat="69.6796" lon="18.93512">
		<tag k="ADDRESS" v="Ørnevegen 3, 9015 TROMSØ" />
		<tag k="amenity" v="kindergarten" />
		<tag k="capacity" v="76" />
		<tag k="contact:website" v="http://www.hvalrossen.norlandiabarnehagene.no" />
		<tag k="max_age" v="5" />
		<tag k="min_age" v="1" />
		<tag k="name" v="Norlandia Hvalrossen barnehage" />
		<tag k="no-barnehage:nsrid" v="1015659" />
		<tag k="operator" v="Norlandia Barnehagene AS" />
		<tag k="operator:type" v="private" />
	</node>
	<node id="-3809" lat="69.6539" lon="19.0152">
		<tag k="ADDRESS" v="Marsvegen 9, 9024 TOMASJORD" />
		<tag k="amenity" v="kindergarten" />
		<tag k="capacity" v="110" />
		<tag k="max_age" v="5" />
		<tag k="min_age" v="1" />
		<tag k="name" v="Marsveien barnehage" />
		<tag k="no-barnehage:nsrid" v="1025452" />
		<tag k="operator" v="Norlandia Barnehagene AS" />
		<tag k="operator:type" v="private" />
	</node>
	<node id="-3808" lat="69.64594" lon="18.94307">
		<tag k="ADDRESS" v="Jonas Lies Gate 36, 9009 TROMSØ" />
		<tag k="amenity" v="kindergarten" />
		<tag k="capacity" v="78" />
		<tag k="contact:website" v="http://laringsverkstedet.no/barnehage/haugenstykket" />
		<tag k="max_age" v="5" />
		<tag k="min_age" v="1" />
		<tag k="name" v="Læringsverkstedet barnehage avd. Haugenstykket" />
		<tag k="no-barnehage:nsrid" v="1025451" />
		<tag k="operator" v="Læringsverkstedet AS" />
		<tag k="operator:type" v="private" />
	</node>
	<node id="-3807" lat="69.68076" lon="18.9412">
		<tag k="ADDRESS" v="Ørnevegen 2, 9015 TROMSØ" />
		<tag k="amenity" v="kindergarten" />
		<tag k="capacity" v="25" />
		<tag k="max_age" v="5" />
		<tag k="min_age" v="1" />
		<tag k="name" v="Læringsverkstedet barnehage avd. Heimly" />
		<tag k="no-barnehage:nsrid" v="1015512" />
		<tag k="operator" v="Læringsverkstedet AS" />
		<tag k="operator:type" v="private" />
	</node>
	<node id="-3806" lat="69.56442" lon="19.18355">
		<tag k="ADDRESS" v="Morenevegen 10, 9027 RAMFJORDBOTN" />
		<tag k="amenity" v="kindergarten" />
		<tag k="capacity" v="59" />
		<tag k="contact:website" v="http://www.fagertunbarnehage.no" />
		<tag k="max_age" v="5" />
		<tag k="min_age" v="1" />
		<tag k="name" v="Læringsverkstedet barnehage avd. Fagertun" />
		<tag k="no-barnehage:nsrid" v="1020487" />
		<tag k="operator" v="Læringsverkstedet AS" />
		<tag k="operator:type" v="private" />
	</node>
	<node id="-3805" lat="69.67068" lon="19.04095">
		<tag k="ADDRESS" v="Siriusvegen 52, 9024 TOMASJORD" />
		<tag k="amenity" v="kindergarten" />
		<tag k="capacity" v="54" />
		<tag k="max_age" v="5" />
		<tag k="min_age" v="1" />
		<tag k="name" v="Lunheim barnehage" />
		<tag k="no-barnehage:nsrid" v="1012718" />
		<tag k="operator" v="Tromsø kommune" />
		<tag k="operator:type" v="public" />
	</node>
	<node id="-3803" lat="69.66467" lon="18.9199">
		<tag k="ADDRESS" v="Kløvervegen 7 A, 9016 TROMSØ" />
		<tag k="amenity" v="kindergarten" />
		<tag k="name" v="Langnes åpen barnehage" />
		<tag k="no-barnehage:nsrid" v="1015093" />
		<tag k="operator" v="Tromsø kommune" />
		<tag k="operator:type" v="public" />
	</node>
	<node id="-3802" lat="69.4334" lon="19.64567">
		<tag k="ADDRESS" v="Lakselvbuktvegen 600, 9042 LAKSVATN" />
		<tag k="amenity" v="kindergarten" />
		<tag k="capacity" v="11" />
		<tag k="contact:website" v="http://ullsfjordskolen.tromsoskolen.no" />
		<tag k="max_age" v="5" />
		<tag k="min_age" v="1" />
		<tag k="name" v="Lakselvbukt barnehage" />
		<tag k="no-barnehage:nsrid" v="1012720" />
		<tag k="operator" v="Tromsø kommune" />
		<tag k="operator:type" v="public" />
	</node>
	<node id="-3801" lat="69.63795" lon="18.92075">
		<tag k="ADDRESS" v="Kveldrovegen 74, 9007 TROMSØ" />
		<tag k="amenity" v="kindergarten" />
		<tag k="capacity" v="52" />
		<tag k="contact:website" v="http://kveldrovegen.barnehage.no" />
		<tag k="max_age" v="5" />
		<tag k="min_age" v="1" />
		<tag k="name" v="Kveldrovegen barnehage" />
		<tag k="no-barnehage:nsrid" v="1020453" />
		<tag k="operator" v="Kveldrovegen barnehage Sa" />
		<tag k="operator:type" v="private" />
	</node>
	<node id="-3800" lat="69.65789" lon="18.95763">
		<tag k="ADDRESS" v="Anton Iversens Veg 1, 9009 TROMSØ" />
		<tag k="amenity" v="kindergarten" />
		<tag k="capacity" v="92" />
		<tag k="max_age" v="5" />
		<tag k="min_age" v="1" />
		<tag k="name" v="Kvamstykket barnehage" />
		<tag k="no-barnehage:nsrid" v="1012716" />
		<tag k="operator" v="Tromsø kommune" />
		<tag k="operator:type" v="public" />
	</node>
	<node id="-3799" lat="69.68932" lon="18.85084">
		<tag k="ADDRESS" v="Nisevegen 49, 9100 KVALØYSLETTA" />
		<tag k="amenity" v="kindergarten" />
		<tag k="capacity" v="54" />
		<tag k="max_age" v="5" />
		<tag k="min_age" v="1" />
		<tag k="name" v="Kvaløysletta barnehage" />
		<tag k="no-barnehage:nsrid" v="1016811" />
		<tag k="operator" v="Tromsø kommune" />
		<tag k="operator:type" v="public" />
	</node>
	<node id="-3798" lat="69.64171" lon="18.91349">
		<tag k="ADDRESS" v="Overlege Meyers Veg 4, 9013 TROMSØ" />
		<tag k="amenity" v="kindergarten" />
		<tag k="capacity" v="61" />
		<tag k="contact:website" v="http://www.kulturbarnehagen.tromso.no" />
		<tag k="max_age" v="5" />
		<tag k="min_age" v="1" />
		<tag k="name" v="Kulturbarnehagen" />
		<tag k="no-barnehage:nsrid" v="1020470" />
		<tag k="operator" v="Kulturbarnehagen" />
		<tag k="operator:type" v="private" />
	</node>
	<node id="-3797" lat="69.66219" lon="18.96118">
		<tag k="ADDRESS" v="Dramsvegen 87, 9010 TROMSØ" />
		<tag k="amenity" v="kindergarten" />
		<tag k="capacity" v="60" />
		<tag k="max_age" v="5" />
		<tag k="min_age" v="1" />
		<tag k="name" v="Kråkeslottet Al" />
		<tag k="no-barnehage:nsrid" v="1019634" />
		<tag k="operator" v="Kråkeslottet barnehage Sa" />
		<tag k="operator:type" v="private" />
	</node>
	<node id="-3796" lat="69.68217" lon="19.0759">
		<tag k="ADDRESS" v="Kvartsvegen 223, 9022 KROKELVDALEN" />
		<tag k="amenity" v="kindergarten" />
		<tag k="capacity" v="54" />
		<tag k="max_age" v="5" />
		<tag k="min_age" v="1" />
		<tag k="name" v="Kroken barnehage" />
		<tag k="no-barnehage:nsrid" v="1025341" />
		<tag k="operator" v="Tromsø kommune" />
		<tag k="operator:type" v="public" />
	</node>
	<node id="-3795" lat="69.68513" lon="18.73951">
		<tag k="ADDRESS" v="Ropnesvegen 30, 9107 KVALØYA" />
		<tag k="amenity" v="kindergarten" />
		<tag k="capacity" v="61" />
		<tag k="max_age" v="5" />
		<tag k="min_age" v="1" />
		<tag k="name" v="Kjosen barnehage" />
		<tag k="no-barnehage:nsrid" v="1013439" />
		<tag k="operator" v="Tromsø kommune" />
		<tag k="operator:type" v="public" />
	</node>
	<node id="-3794" lat="0.0" lon="0.0">
		<tag k="ADDRESS" v="Sjøtun, 9100 KVALØYSLETTA" />
		<tag k="amenity" v="kindergarten" />
		<tag k="capacity" v="12" />
		<tag k="max_age" v="5" />
		<tag k="min_age" v="1" />
		<tag k="name" v="Kattfjord barnehage" />
		<tag k="no-barnehage:nsrid" v="1012722" />
		<tag k="operator" v="Tromsø kommune" />
		<tag k="operator:type" v="public" />
	</node>
	<node id="-3793" lat="0.0" lon="0.0">
		<tag k="ADDRESS" v="Karveslettveien 57, 9102 KVALØYSLETTA" />
		<tag k="amenity" v="kindergarten" />
		<tag k="capacity" v="80" />
		<tag k="contact:website" v="http://karveslettlia.vigilo.no" />
		<tag k="max_age" v="5" />
		<tag k="min_age" v="1" />
		<tag k="name" v="Karveslettlia barnehage" />
		<tag k="no-barnehage:nsrid" v="1020285" />
		<tag k="operator" v="Karveslettlia barnehage Sa" />
		<tag k="operator:type" v="private" />
	</node>
	<node id="-3792" lat="69.63236" lon="18.02146">
		<tag k="ADDRESS" v="Sommarøyvegen 32, 9110 SOMMARØY" />
		<tag k="amenity" v="kindergarten" />
		<tag k="capacity" v="11" />
		<tag k="max_age" v="5" />
		<tag k="min_age" v="1" />
		<tag k="name" v="Hillesøyskolen avd. Sommarøy barnehage" />
		<tag k="no-barnehage:nsrid" v="1015989" />
		<tag k="operator" v="Tromsø kommune" />
		<tag k="operator:type" v="public" />
	</node>
	<node id="-3791" lat="69.70704" lon="18.98727">
		<tag k="ADDRESS" v="Otervegen 35, 9017 TROMSØ" />
		<tag k="amenity" v="kindergarten" />
		<tag k="capacity" v="41" />
		<tag k="max_age" v="5" />
		<tag k="min_age" v="1" />
		<tag k="name" v="Hamna friluftsbarnehage" />
		<tag k="no-barnehage:nsrid" v="1019823" />
		<tag k="operator" v="Hamna Friluftsbarnehage Sa" />
		<tag k="operator:type" v="private" />
	</node>
	<node id="-3790" lat="69.66863" lon="18.96328">
		<tag k="ADDRESS" v="Dramsvegen 141, 9010 TROMSØ" />
		<tag k="amenity" v="kindergarten" />
		<tag k="capacity" v="67" />
		<tag k="max_age" v="5" />
		<tag k="min_age" v="1" />
		<tag k="name" v="Gyllenvang barnehage" />
		<tag k="no-barnehage:nsrid" v="1018466" />
		<tag k="operator" v="Tromsø kommune" />
		<tag k="operator:type" v="public" />
	</node>
	<node id="-3789" lat="69.66125" lon="18.93732">
		<tag k="ADDRESS" v="Prestvannvegen 44, 9011 TROMSØ" />
		<tag k="amenity" v="kindergarten" />
		<tag k="capacity" v="35" />
		<tag k="max_age" v="5" />
		<tag k="min_age" v="1" />
		<tag k="name" v="Guovssahas Mánáidgárdi (samisk barnehage)" />
		<tag k="no-barnehage:nsrid" v="1012723" />
		<tag k="operator" v="Tromsø kommune" />
		<tag k="operator:type" v="public" />
	</node>
	<node id="-3788" lat="69.68636" lon="18.98599">
		<tag k="ADDRESS" v="Gimlevegen 37, 9019 TROMSØ" />
		<tag k="amenity" v="kindergarten" />
		<tag k="capacity" v="60" />
		<tag k="max_age" v="5" />
		<tag k="min_age" v="1" />
		<tag k="name" v="Gimle studentbarnehage" />
		<tag k="no-barnehage:nsrid" v="1016836" />
		<tag k="operator" v="Norges Arktiske Studentsamskipnad" />
		<tag k="operator:type" v="private" />
	</node>
	<node id="-3787" lat="69.6423" lon="18.99021">
		<tag k="ADDRESS" v="Myrvegen 44, 9020 TROMSDALEN" />
		<tag k="amenity" v="kindergarten" />
		<tag k="capacity" v="68" />
		<tag k="max_age" v="5" />
		<tag k="min_age" v="1" />
		<tag k="name" v="Fjellvegen barnehage" />
		<tag k="no-barnehage:nsrid" v="1017056" />
		<tag k="operator" v="Tromsø kommune" />
		<tag k="operator:type" v="public" />
	</node>
	<node id="-3785" lat="69.65003" lon="19.01082">
		<tag k="ADDRESS" v="Evjenvegen 11a, 9024 TOMASJORD" />
		<tag k="amenity" v="kindergarten" />
		<tag k="capacity" v="57" />
		<tag k="max_age" v="5" />
		<tag k="min_age" v="1" />
		<tag k="name" v="Elvestrand barnehage" />
		<tag k="no-barnehage:nsrid" v="1017671" />
		<tag k="operator" v="Tromsø kommune" />
		<tag k="operator:type" v="public" />
	</node>
	<node id="-3784" lat="69.68544" lon="18.95536">
		<tag k="ADDRESS" v="Dramsvegen 528, 9014 TROMSØ" />
		<tag k="amenity" v="kindergarten" />
		<tag k="capacity" v="44" />
		<tag k="max_age" v="5" />
		<tag k="min_age" v="1" />
		<tag k="name" v="Ekrehagen friluftsbarnehage" />
		<tag k="no-barnehage:nsrid" v="1019664" />
		<tag k="operator" v="Ekrehagen Friluftsbarnehage Sa" />
		<tag k="operator:type" v="private" />
	</node>
	<node id="-3783" lat="69.67787" lon="18.93314">
		<tag k="ADDRESS" v="Alkevegen 14, 9015 TROMSØ" />
		<tag k="amenity" v="kindergarten" />
		<tag k="capacity" v="32" />
		<tag k="contact:website" v="http://www.einerabben.barnehage.no" />
		<tag k="max_age" v="5" />
		<tag k="min_age" v="1" />
		<tag k="name" v="Einerabben barnehage" />
		<tag k="no-barnehage:nsrid" v="1020418" />
		<tag k="operator" v="Einerabben barnehage Sa" />
		<tag k="operator:type" v="private" />
	</node>
	<node id="-3782" lat="69.67578" lon="18.7631">
		<tag k="ADDRESS" v="Åslandvegen 30, 9105 KVALØYA" />
		<tag k="amenity" v="kindergarten" />
		<tag k="capacity" v="74" />
		<tag k="max_age" v="5" />
		<tag k="min_age" v="1" />
		<tag k="name" v="Eidhaugen barnehage" />
		<tag k="no-barnehage:nsrid" v="1017058" />
		<tag k="operator" v="Tromsø kommune" />
		<tag k="operator:type" v="public" />
	</node>
	<node id="-3780" lat="69.65115" lon="18.92698">
		<tag k="ADDRESS" v="Sommerlystvegen 26, 9012 TROMSØ" />
		<tag k="amenity" v="kindergarten" />
		<tag k="capacity" v="33" />
		<tag k="max_age" v="5" />
		<tag k="min_age" v="1" />
		<tag k="name" v="Domkirkens barnehage" />
		<tag k="no-barnehage:nsrid" v="1016763" />
		<tag k="operator" v="Domkirken Sokn" />
		<tag k="operator:type" v="private" />
	</node>
	<node id="-3778" lat="69.66512" lon="18.95307">
		<tag k="ADDRESS" v="Conrad Holmboes Veg 106, 9011 TROMSØ" />
		<tag k="amenity" v="kindergarten" />
		<tag k="capacity" v="25" />
		<tag k="max_age" v="5" />
		<tag k="min_age" v="1" />
		<tag k="name" v="Charlottenlund barnehage" />
		<tag k="no-barnehage:nsrid" v="1016821" />
		<tag k="operator" v="Rehabiliteringssenteret Nord-Norges Kurbad AS" />
		<tag k="operator:type" v="private" />
	</node>
	<node id="-3777" lat="69.65517" lon="18.93361">
		<tag k="ADDRESS" v="Langnesvegen 7, 9012 TROMSØ" />
		<tag k="amenity" v="kindergarten" />
		<tag k="capacity" v="94" />
		<tag k="max_age" v="5" />
		<tag k="min_age" v="1" />
		<tag k="name" v="Bymyra barnehage" />
		<tag k="no-barnehage:nsrid" v="1017059" />
		<tag k="operator" v="Tromsø kommune" />
		<tag k="operator:type" v="public" />
	</node>
	<node id="-3776" lat="69.71117" lon="19.00143">
		<tag k="ADDRESS" v="Jervvegen 128, 9017 TROMSØ" />
		<tag k="amenity" v="kindergarten" />
		<tag k="capacity" v="56" />
		<tag k="contact:website" v="http://www.bukkesprangetnaturbarnehage.no" />
		<tag k="max_age" v="5" />
		<tag k="min_age" v="1" />
		<tag k="name" v="Bukkespranget naturbarnehage" />
		<tag k="no-barnehage:nsrid" v="1021247" />
		<tag k="operator" v="Bukkespranget Naturbarnehage AS" />
		<tag k="operator:type" v="private" />
	</node>
	<node id="-3775" lat="69.68058" lon="18.96632">
		<tag k="ADDRESS" v="Minnelundvegen 11, 9019 TROMSØ" />
		<tag k="amenity" v="kindergarten" />
		<tag k="capacity" v="71" />
		<tag k="contact:website" v="http://samskipnaden.no/tromso/barnehage/vare-barnehager/breivika-studentbarnehage" />
		<tag k="max_age" v="5" />
		<tag k="min_age" v="1" />
		<tag k="name" v="Breivika studentbarnehage" />
		<tag k="no-barnehage:nsrid" v="1016812" />
		<tag k="operator" v="Norges Arktiske Studentsamskipnad" />
		<tag k="operator:type" v="private" />
	</node>
	<node id="-3774" lat="69.63518" lon="18.92741">
		<tag k="ADDRESS" v="Strandvegen 117a, 9006 TROMSØ" />
		<tag k="amenity" v="kindergarten" />
		<tag k="capacity" v="24" />
		<tag k="contact:website" v="http://www.bjerkakerbarnehage.no" />
		<tag k="max_age" v="5" />
		<tag k="min_age" v="1" />
		<tag k="name" v="Bjerkaker barnehage" />
		<tag k="no-barnehage:nsrid" v="1019502" />
		<tag k="operator" v="Bjerkaker barnehage Sa" />
		<tag k="operator:type" v="private" />
	</node>
	<node id="-3773" lat="69.55972" lon="18.9567">
		<tag k="ADDRESS" v="Innlandsvegen 252, 9021 TROMSDALEN" />
		<tag k="amenity" v="kindergarten" />
		<tag k="capacity" v="44" />
		<tag k="contact:website" v="http://www.brg.barnehage.no" />
		<tag k="max_age" v="5" />
		<tag k="min_age" v="1" />
		<tag k="name" v="Berg barnehage" />
		<tag k="no-barnehage:nsrid" v="1019819" />
		<tag k="operator" v="Berg barnehage Sa" />
		<tag k="operator:type" v="private" />
	</node>
	<node id="-3772" lat="69.65392" lon="18.91259">
		<tag k="ADDRESS" v="Holtvegen 70, 9016 TROMSØ" />
		<tag k="amenity" v="kindergarten" />
		<tag k="capacity" v="43" />
		<tag k="contact:website" v="http://www.barnehagenhundre.no" />
		<tag k="max_age" v="5" />
		<tag k="min_age" v="1" />
		<tag k="name" v="Barnehagen Hundre" />
		<tag k="no-barnehage:nsrid" v="1022324" />
		<tag k="operator" v="Barnehagen Hundre Sa" />
		<tag k="operator:type" v="private" />
	</node>
	<node id="-3771" lat="69.6318" lon="18.91739">
		<tag k="ADDRESS" v="Thorshaugvegen 8, 9006 TROMSØ" />
		<tag k="amenity" v="kindergarten" />
		<tag k="capacity" v="19" />
		<tag k="max_age" v="5" />
		<tag k="min_age" v="1" />
		<tag k="name" v="Bamsestua barnehage" />
		<tag k="no-barnehage:nsrid" v="1020358" />
		<tag k="operator" v="Bamsestua barnehage Sa" />
		<tag k="operator:type" v="private" />
	</node>
	<node id="-3770" lat="69.63095" lon="18.91528">
		<tag k="ADDRESS" v="Marielund 39, 9006 TROMSØ" />
		<tag k="amenity" v="kindergarten" />
		<tag k="capacity" v="31" />
		<tag k="contact:website" v="http://ameliahaugen.barnehage.no" />
		<tag k="max_age" v="5" />
		<tag k="min_age" v="1" />
		<tag k="name" v="Ameliahaugen barnehage" />
		<tag k="no-barnehage:nsrid" v="1020106" />
		<tag k="operator" v="Sørtromsøya Barnehage/ameliahaugen barnehage" />
		<tag k="operator:type" v="private" />
	</node>
	<node id="-3860" lat="69.67851" lon="18.77033">
		<tag k="ADDRESS" v="Åslandvegen 77, 9105 KVALØYA" />
		<tag k="amenity" v="kindergarten" />
		<tag k="capacity" v="31" />
		<tag k="contact:website" v="http://www.asland.barnehage.no" />
		<tag k="max_age" v="5" />
		<tag k="min_age" v="1" />
		<tag k="name" v="Åsland barnehage" />
		<tag k="no-barnehage:nsrid" v="1019756" />
		<tag k="operator" v="Åsland barnehage Sa" />
		<tag k="operator:type" v="private" />
	</node>
	<node id="-3859" lat="0.0" lon="0.0">
		<tag k="ADDRESS" v="Stakkevollan, 9018 TROMSØ" />
		<tag k="amenity" v="kindergarten" />
		<tag k="name" v="Åpen barnehage Stakkevollan" />
		<tag k="no-barnehage:nsrid" v="1014135" />
		<tag k="operator" v="Tromsø kommune" />
		<tag k="operator:type" v="public" />
	</node>
	<node id="-3858" lat="69.6673" lon="18.92989">
		<tag k="ADDRESS" v="Huldervegen 79, 9016 TROMSØ" />
		<tag k="amenity" v="kindergarten" />
		<tag k="capacity" v="59" />
		<tag k="max_age" v="5" />
		<tag k="min_age" v="1" />
		<tag k="name" v="Workinnmarka barnehage" />
		<tag k="no-barnehage:nsrid" v="1017020" />
		<tag k="operator" v="Tromsø kommune" />
		<tag k="operator:type" v="public" />
	</node>
	<node id="-3856" lat="69.54245" lon="18.78072">
		<tag k="ADDRESS" v="Brokskarvegen 222, 9057 VIKRAN" />
		<tag k="amenity" v="kindergarten" />
		<tag k="capacity" v="14" />
		<tag k="max_age" v="5" />
		<tag k="min_age" v="1" />
		<tag k="name" v="Vikran barnehage" />
		<tag k="no-barnehage:nsrid" v="1015953" />
		<tag k="operator" v="Tromsø kommune" />
		<tag k="operator:type" v="public" />
	</node>
	<node id="-3855" lat="69.69401" lon="18.99271">
		<tag k="ADDRESS" v="Nordøyvegen 119, 9018 TROMSØ" />
		<tag k="amenity" v="kindergarten" />
		<tag k="capacity" v="9" />
		<tag k="max_age" v="5" />
		<tag k="min_age" v="1" />
		<tag k="name" v="Varden barnehage" />
		<tag k="no-barnehage:nsrid" v="1015581" />
		<tag k="operator" v="Tromsø kommune" />
		<tag k="operator:type" v="public" />
	</node>
	<node id="-3854" lat="69.68468" lon="18.96895">
		<tag k="ADDRESS" v="Framstredet 26, 9019 TROMSØ" />
		<tag k="amenity" v="kindergarten" />
		<tag k="capacity" v="75" />
		<tag k="max_age" v="5" />
		<tag k="min_age" v="1" />
		<tag k="name" v="Universet studentbarnehage" />
		<tag k="no-barnehage:nsrid" v="1017192" />
		<tag k="operator" v="Norges Arktiske Studentsamskipnad" />
		<tag k="operator:type" v="private" />
	</node>
	<node id="-3853" lat="69.69236" lon="18.86729">
		<tag k="ADDRESS" v="Slettavegen 60, 9101 KVALØYSLETTA" />
		<tag k="amenity" v="kindergarten" />
		<tag k="capacity" v="81" />
		<tag k="contact:website" v="http://tusseladden.com" />
		<tag k="max_age" v="5" />
		<tag k="min_age" v="1" />
		<tag k="name" v="Tusseladden friluftsbarnehage" />
		<tag k="no-barnehage:nsrid" v="1015553" />
		<tag k="operator" v="Tusseladden Friluftsbarnehage Sa" />
		<tag k="operator:type" v="private" />
	</node>
	<node id="-3852" lat="69.68678" lon="18.98296">
		<tag k="ADDRESS" v="Gimlevegen 62a, 9019 TROMSØ" />
		<tag k="amenity" v="kindergarten" />
		<tag k="capacity" v="31" />
		<tag k="max_age" v="5" />
		<tag k="min_age" v="1" />
		<tag k="name" v="Trudvang barnehage" />
		<tag k="no-barnehage:nsrid" v="2000134" />
		<tag k="operator" v="Tromsø kommune" />
		<tag k="operator:type" v="public" />
	</node>
	<node id="-3851" lat="0.0" lon="0.0">
		<tag k="ADDRESS" v="Trondjord, 9103 KVALØYA" />
		<tag k="amenity" v="kindergarten" />
		<tag k="capacity" v="6" />
		<tag k="max_age" v="5" />
		<tag k="min_age" v="1" />
		<tag k="name" v="Trondjord barnehage" />
		<tag k="no-barnehage:nsrid" v="1012721" />
		<tag k="operator" v="Tromsø kommune" />
		<tag k="operator:type" v="public" />
	</node>
	<node id="-3850" lat="0.0" lon="0.0">
		<tag k="ADDRESS" v=", 9107 KVALØYA" />
		<tag k="amenity" v="kindergarten" />
		<tag k="capacity" v="4" />
		<tag k="max_age" v="5" />
		<tag k="min_age" v="1" />
		<tag k="name" v="Tromvik barnehage" />
		<tag k="no-barnehage:nsrid" v="1013533" />
		<tag k="operator" v="Tromsø kommune" />
		<tag k="operator:type" v="public" />
	</node>
	<node id="-3849" lat="69.65089" lon="19.01555">
		<tag k="ADDRESS" v="Tellusvegen 2, 9024 TOMASJORD" />
		<tag k="amenity" v="kindergarten" />
		<tag k="capacity" v="49" />
		<tag k="max_age" v="5" />
		<tag k="min_age" v="1" />
		<tag k="name" v="Tromstun barnehage" />
		<tag k="no-barnehage:nsrid" v="1013864" />
		<tag k="operator" v="Tromsø kommune" />
		<tag k="operator:type" v="public" />
	</node>
	<node id="-3848" lat="69.64697" lon="18.99873">
		<tag k="ADDRESS" v="Tønsnesvegen 11 C, 9020 TROMSDALEN" />
		<tag k="amenity" v="kindergarten" />
		<tag k="capacity" v="52" />
		<tag k="max_age" v="5" />
		<tag k="min_age" v="1" />
		<tag k="name" v="Tromsdalen barnehage" />
		<tag k="no-barnehage:nsrid" v="1012717" />
		<tag k="operator" v="Tromsø kommune" />
		<tag k="operator:type" v="public" />
	</node>
	<node id="-3847" lat="69.65144" lon="18.94255">
		<tag k="ADDRESS" v="Trollbakken 11, 9009 TROMSØ" />
		<tag k="amenity" v="kindergarten" />
		<tag k="capacity" v="26" />
		<tag k="max_age" v="5" />
		<tag k="min_age" v="1" />
		<tag k="name" v="Trollbakken barnehage" />
		<tag k="no-barnehage:nsrid" v="1025357" />
		<tag k="operator" v="Tromsø kommune" />
		<tag k="operator:type" v="public" />
	</node>
	<node id="-3846" lat="69.66704" lon="19.02197">
		<tag k="ADDRESS" v="Tomasjordnes 62, 9024 TOMASJORD" />
		<tag k="amenity" v="kindergarten" />
		<tag k="capacity" v="60" />
		<tag k="max_age" v="5" />
		<tag k="min_age" v="1" />
		<tag k="name" v="Tomasjordneset barnehage" />
		<tag k="no-barnehage:nsrid" v="1018512" />
		<tag k="operator" v="Tromsø kommune" />
		<tag k="operator:type" v="public" />
	</node>
	<node id="-3845" lat="69.69772" lon="18.97537">
		<tag k="ADDRESS" v="Toftvegen 10, 9017 TROMSØ" />
		<tag k="amenity" v="kindergarten" />
		<tag k="capacity" v="46" />
		<tag k="max_age" v="5" />
		<tag k="min_age" v="1" />
		<tag k="name" v="Toftveien barnehage" />
		<tag k="no-barnehage:nsrid" v="1020105" />
		<tag k="operator" v="Toftveien barnehage Sa" />
		<tag k="operator:type" v="private" />
	</node>
	<node id="-3844" lat="69.65257" lon="19.00722">
		<tag k="ADDRESS" v="Tyttebærvegen 11, 9024 TOMASJORD" />
		<tag k="amenity" v="kindergarten" />
		<tag k="capacity" v="79" />
		<tag k="contact:website" v="http://www.fus.no/tindfoten" />
		<tag k="max_age" v="5" />
		<tag k="min_age" v="1" />
		<tag k="name" v="Tindfoten FUS barnehage" />
		<tag k="no-barnehage:nsrid" v="1026359" />
		<tag k="operator" v="Tindfoten Fus barnehage AS" />
		<tag k="operator:type" v="private" />
	</node>
	<node id="-3843" lat="69.67863" lon="18.96027">
		<tag k="ADDRESS" v="Dramsvegen 208, 9010 TROMSØ" />
		<tag k="amenity" v="kindergarten" />
		<tag k="capacity" v="62" />
		<tag k="max_age" v="5" />
		<tag k="min_age" v="1" />
		<tag k="name" v="Templarheimen barnehage" />
		<tag k="no-barnehage:nsrid" v="1017060" />
		<tag k="operator" v="Tromsø kommune" />
		<tag k="operator:type" v="public" />
	</node>
	<node id="-3842" lat="69.57629" lon="18.62883">
		<tag k="ADDRESS" v="Straumsvegen 2095, 9106 STRAUMSBUKTA" />
		<tag k="amenity" v="kindergarten" />
		<tag k="capacity" v="21" />
		<tag k="max_age" v="5" />
		<tag k="min_age" v="1" />
		<tag k="name" v="Straumsbukta barnehage" />
		<tag k="no-barnehage:nsrid" v="1016518" />
		<tag k="operator" v="Tromsø kommune" />
		<tag k="operator:type" v="public" />
	</node>
	<node id="-3841" lat="69.63962" lon="18.93895">
		<tag k="ADDRESS" v="Hjalmar Johansens Gate 319, 9007 TROMSØ" />
		<tag k="amenity" v="kindergarten" />
		<tag k="capacity" v="59" />
		<tag k="contact:website" v="http://www.fus.no/strandkanten" />
		<tag k="max_age" v="5" />
		<tag k="min_age" v="1" />
		<tag k="name" v="Strandkanten FUS barnehage" />
		<tag k="no-barnehage:nsrid" v="1022184" />
		<tag k="operator" v="Strandkanten Fus barnehage AS" />
		<tag k="operator:type" v="private" />
	</node>
</osm>
