<?xml version="1.0" encoding="UTF-8"?>
<osm generator="osmapis" version="0.6">
	<node id="-3856" lat="59.00307" lon="5.724843">
		<tag k="amenity" v="kindergarten" />
		<tag k="capacity" v="5" />
		<tag k="contact:email" v="bodil.ekrheim@lyse.net" />
		<tag k="max_age" v="5" />
		<tag k="min_age" v="1" />
		<tag k="name" v="Marihøna Private Familiebarnehage" />
		<tag k="no-barnehage:nsrid" v="1021122" />
		<tag k="operator" v="Marihøna Private Familiebarnehage Bodil Ekrheim" />
		<tag k="operator:type" v="private" />
	</node>
	<node id="-3894" lat="59.00392" lon="5.733353">
		<tag k="amenity" v="kindergarten" />
		<tag k="capacity" v="5" />
		<tag k="contact:email" v="ingrid.runestad@lyse.net" />
		<tag k="max_age" v="5" />
		<tag k="min_age" v="1" />
		<tag k="name" v="Tordenskjold Private Familiebarneha" />
		<tag k="no-barnehage:nsrid" v="1021092" />
		<tag k="operator" v="Tordenskjold Familiebarnehage Ingrid Runestad" />
		<tag k="operator:type" v="private" />
	</node>
	<node id="-3852" lat="58.96406" lon="5.760506">
		<tag k="amenity" v="kindergarten" />
		<tag k="capacity" v="9" />
		<tag k="contact:email" v="mariannepettersen@getmail.no" />
		<tag k="contact:phone" v="+47 93349691" />
		<tag k="contact:website" v="http://www.lilleputt.barnehage.no" />
		<tag k="max_age" v="5" />
		<tag k="min_age" v="1" />
		<tag k="name" v="Lilleputt Private Familiebarnehage Marianne Pettersen" />
		<tag k="no-barnehage:nsrid" v="1021035" />
		<tag k="operator" v="Lilleputt Private Familiebarnehage Marianne Pettersen" />
		<tag k="operator:type" v="private" />
	</node>
</osm>
