<?xml version="1.0" encoding="UTF-8"?>
<osm generator="osmapis" version="0.6">
	<node id="-3116" lat="58.95984" lon="5.69078">
		<tag k="ADDRESS" v="Adjunkt Hauglands Gate 50, 4022 STAVANGER" />
		<tag k="amenity" v="kindergarten" />
		<tag k="name" v="Stokka åpen barnehage" />
		<tag k="no-barnehage:nsrid" v="1020686" />
		<tag k="operator" v="Brunstad Kristelige Menighet Stavanger" />
		<tag k="operator:type" v="private" />
	</node>
	<node id="-3115" lat="58.94231" lon="5.68078">
		<tag k="ADDRESS" v="Åsta Kongsmors Gate 22, 4044 HAFRSFJORD" />
		<tag k="amenity" v="kindergarten" />
		<tag k="capacity" v="58" />
		<tag k="contact:website" v="http://www.rognebarhagen.barnehage.no" />
		<tag k="max_age" v="5" />
		<tag k="min_age" v="1" />
		<tag k="name" v="Rognebærhagen barnehage" />
		<tag k="no-barnehage:nsrid" v="1019857" />
		<tag k="operator" v="Stiftelsen Sr Bank barnehage" />
		<tag k="operator:type" v="private" />
	</node>
	<node id="-3114" lat="0.0" lon="0.0">
		<tag k="ADDRESS" v="Styrmannsveien 21, 4085 HUNDVÅG" />
		<tag k="amenity" v="kindergarten" />
		<tag k="capacity" v="30" />
		<tag k="max_age" v="5" />
		<tag k="min_age" v="1" />
		<tag k="name" v="Roaldsøy barnehage avd. Buøy" />
		<tag k="no-barnehage:nsrid" v="1012913" />
		<tag k="operator" v="Stavanger kommune" />
		<tag k="operator:type" v="public" />
	</node>
	<node id="-3113" lat="58.99174" lon="5.76133">
		<tag k="ADDRESS" v="Roaldsøyveien 35, 4085 HUNDVÅG" />
		<tag k="amenity" v="kindergarten" />
		<tag k="capacity" v="33" />
		<tag k="max_age" v="5" />
		<tag k="min_age" v="1" />
		<tag k="name" v="Roaldsøy barnehage" />
		<tag k="no-barnehage:nsrid" v="1012908" />
		<tag k="operator" v="Stavanger kommune" />
		<tag k="operator:type" v="public" />
	</node>
	<node id="-3112" lat="0.0" lon="0.0">
		<tag k="ADDRESS" v="Grannesvei 102, 4020 STAVANGER" />
		<tag k="amenity" v="kindergarten" />
		<tag k="max_age" v="5" />
		<tag k="min_age" v="1" />
		<tag k="name" v="Knøttene familiebarnehage" />
		<tag k="no-barnehage:nsrid" v="1020423" />
		<tag k="operator" v="Knøttene Familiebarnehage Ans" />
		<tag k="operator:type" v="private" />
	</node>
	<node id="-3111" lat="58.96731" lon="5.75493">
		<tag k="ADDRESS" v="Haugesundsgata 27, 4014 STAVANGER" />
		<tag k="amenity" v="kindergarten" />
		<tag k="capacity" v="20" />
		<tag k="max_age" v="5" />
		<tag k="min_age" v="1" />
		<tag k="name" v="Innføringsbarnehagen Johannes Læringssenter" />
		<tag k="no-barnehage:nsrid" v="1012611" />
		<tag k="operator" v="Stavanger kommune" />
		<tag k="operator:type" v="public" />
	</node>
	<node id="-3110" lat="58.95488" lon="5.69944">
		<tag k="ADDRESS" v="Gunnar Warebergs Gate 15, 4021 STAVANGER" />
		<tag k="amenity" v="kindergarten" />
		<tag k="name" v="Imi åpen barnehage" />
		<tag k="no-barnehage:nsrid" v="1013064" />
		<tag k="operator" v="Imi-Kirken" />
		<tag k="operator:type" v="private" />
	</node>
	<node id="-3109" lat="58.90066" lon="5.70353">
		<tag k="ADDRESS" v="Lagerveien 21, 4033 STAVANGER" />
		<tag k="amenity" v="kindergarten" />
		<tag k="name" v="Forus Åpne barnehage" />
		<tag k="no-barnehage:nsrid" v="1016495" />
		<tag k="operator" v="Stiftelsen Kristen Tjeneste" />
		<tag k="operator:type" v="private" />
	</node>
	<node id="-3108" lat="58.99295" lon="5.67717">
		<tag k="ADDRESS" v="Gjerdeveien 144, 4028 STAVANGER" />
		<tag k="amenity" v="kindergarten" />
		<tag k="capacity" v="58" />
		<tag k="contact:website" v="http://dusavik.barnehage.no/" />
		<tag k="max_age" v="5" />
		<tag k="min_age" v="1" />
		<tag k="name" v="Dusavik barnehage" />
		<tag k="no-barnehage:nsrid" v="1020585" />
		<tag k="operator" v="Dusavik barnehage Sa" />
		<tag k="operator:type" v="private" />
	</node>
	<node id="-3107" lat="58.9426" lon="5.68135">
		<tag k="ADDRESS" v="Madlamarkveien 135, 4041 HAFRSFJORD" />
		<tag k="amenity" v="kindergarten" />
		<tag k="capacity" v="27" />
		<tag k="contact:website" v="http://www.barnehagenhimmelblaa.no" />
		<tag k="max_age" v="5" />
		<tag k="min_age" v="1" />
		<tag k="name" v="Barnehagen Himmelblå" />
		<tag k="no-barnehage:nsrid" v="1020414" />
		<tag k="operator" v="Madlamark Sokn" />
		<tag k="operator:type" v="private" />
	</node>
</osm>
