<?xml version="1.0" encoding="UTF-8"?>
<osm generator="osmapis" version="0.6">
	<node id="-3531" lat="58.95699" lon="5.669035">
		<tag k="amenity" v="kindergarten" />
		<tag k="capacity" v="74" />
		<tag k="contact:email" v="styrer@ogbh.no" />
		<tag k="max_age" v="5" />
		<tag k="min_age" v="1" />
		<tag k="name" v="Ørnestein Gårdsbarnehage AS" />
		<tag k="no-barnehage:nsrid" v="1020016" />
		<tag k="operator" v="Ørnestein Gårdsbarnehage AS" />
		<tag k="operator:type" v="private" />
		<tag k="start_date" v="1991-07-01" />
	</node>
	<node id="-3530" lat="58.9903" lon="5.67661">
		<tag k="amenity" v="kindergarten" />
		<tag k="capacity" v="27" />
		<tag k="contact:email" v="tone.ditlevsen@stavanger.kommune.no" />
		<tag k="contact:phone" v="+47 51 54 18 80" />
		<tag k="max_age" v="5" />
		<tag k="min_age" v="1" />
		<tag k="name" v="Ytre Tasta barnehage Avdeling Vardeneset" />
		<tag k="no-barnehage:nsrid" v="1012917" />
		<tag k="operator" v="Stavanger kommune" />
		<tag k="operator:type" v="public" />
		<tag k="start_date" v="1976-01-01" />
	</node>
	<node id="-3529" lat="58.9903" lon="5.67661">
		<tag k="amenity" v="kindergarten" />
		<tag k="capacity" v="65" />
		<tag k="contact:email" v="tone.ditlevsen@stavanger.kommune.no" />
		<tag k="contact:phone" v="+47 51 54 17 00" />
		<tag k="max_age" v="5" />
		<tag k="min_age" v="1" />
		<tag k="name" v="Ytre Tasta barnehage Avdeling Eskeland" />
		<tag k="no-barnehage:nsrid" v="1012910" />
		<tag k="operator" v="Stavanger kommune" />
		<tag k="operator:type" v="public" />
		<tag k="start_date" v="1989-01-01" />
	</node>
	<node id="-3528" lat="58.9576" lon="5.72958">
		<tag k="amenity" v="kindergarten" />
		<tag k="capacity" v="55" />
		<tag k="contact:email" v="kari.sutterud@stavanger.kommune.no" />
		<tag k="contact:phone" v="+47 51 91 75 70" />
		<tag k="max_age" v="5" />
		<tag k="min_age" v="1" />
		<tag k="name" v="Vålandshaugen barnehage" />
		<tag k="no-barnehage:nsrid" v="1015515" />
		<tag k="operator" v="Stavanger kommune" />
		<tag k="operator:type" v="public" />
		<tag k="start_date" v="1965-12-31" />
	</node>
	<node id="-3527" lat="58.9926" lon="5.73714">
		<tag k="amenity" v="kindergarten" />
		<tag k="capacity" v="53" />
		<tag k="contact:email" v="saabo@stavanger.kommune.no" />
		<tag k="contact:phone" v="+47 51 86 01 75" />
		<tag k="max_age" v="5" />
		<tag k="min_age" v="1" />
		<tag k="name" v="Vågen barnehage" />
		<tag k="no-barnehage:nsrid" v="1012909" />
		<tag k="operator" v="Stavanger kommune" />
		<tag k="operator:type" v="public" />
		<tag k="start_date" v="1989-01-02" />
	</node>
	<node id="-3526" lat="58.9187" lon="5.7224">
		<tag k="amenity" v="kindergarten" />
		<tag k="capacity" v="107" />
		<tag k="contact:email" v="beate.fahret@stavanger.kommune.no" />
		<tag k="contact:phone" v="+47 51 58 01 44" />
		<tag k="max_age" v="5" />
		<tag k="min_age" v="1" />
		<tag k="name" v="Vågedalen barnehage" />
		<tag k="no-barnehage:nsrid" v="1012924" />
		<tag k="operator" v="Stavanger kommune" />
		<tag k="operator:type" v="public" />
		<tag k="start_date" v="1992-08-01" />
	</node>
	<node id="-3525" lat="58.92151" lon="5.72348">
		<tag k="amenity" v="kindergarten" />
		<tag k="capacity" v="20" />
		<tag k="contact:email" v="villrosen@lyse.net" />
		<tag k="contact:phone" v="+47 51 88 22 48" />
		<tag k="max_age" v="5" />
		<tag k="min_age" v="1" />
		<tag k="name" v="Villrosen barnehage" />
		<tag k="no-barnehage:nsrid" v="1019940" />
		<tag k="operator" v="Villrosen barnehage Judith Sørvik" />
		<tag k="operator:type" v="private" />
		<tag k="start_date" v="1989-01-01" />
	</node>
	<node id="-3524" lat="58.9971" lon="5.78485">
		<tag k="amenity" v="kindergarten" />
		<tag k="capacity" v="51" />
		<tag k="contact:email" v="astrid.haugland.larsen@stavanger.kommune.no" />
		<tag k="contact:phone" v="+47 51 86 26 53" />
		<tag k="max_age" v="5" />
		<tag k="min_age" v="1" />
		<tag k="name" v="Vassøy barnehage" />
		<tag k="no-barnehage:nsrid" v="1012905" />
		<tag k="operator" v="Stavanger kommune" />
		<tag k="operator:type" v="public" />
		<tag k="start_date" v="1989-01-01" />
	</node>
	<node id="-3523" lat="58.9592" lon="5.75186">
		<tag k="amenity" v="kindergarten" />
		<tag k="capacity" v="56" />
		<tag k="contact:email" v="gretelill.heden@stavanger.kommune.no" />
		<tag k="contact:phone" v="+47 51530460" />
		<tag k="max_age" v="5" />
		<tag k="min_age" v="1" />
		<tag k="name" v="Varden barnehage" />
		<tag k="no-barnehage:nsrid" v="1015513" />
		<tag k="operator" v="Stavanger kommune" />
		<tag k="operator:type" v="public" />
		<tag k="start_date" v="1977-06-01" />
	</node>
	<node id="-3522" lat="58.994" lon="5.721808">
		<tag k="amenity" v="kindergarten" />
		<tag k="capacity" v="83" />
		<tag k="contact:email" v="signe@ulsnesbarnehage.no" />
		<tag k="contact:phone" v="+47 61 86 10 75" />
		<tag k="max_age" v="5" />
		<tag k="min_age" v="1" />
		<tag k="name" v="Ulsnes barnehage Sa" />
		<tag k="no-barnehage:nsrid" v="1020240" />
		<tag k="operator" v="Ulsnes barnehage Sa" />
		<tag k="operator:type" v="private" />
		<tag k="start_date" v="1994-03-03" />
	</node>
	<node id="-3521" lat="58.8963" lon="5.7294">
		<tag k="amenity" v="kindergarten" />
		<tag k="capacity" v="54" />
		<tag k="contact:email" v="trude.helen.stokke@stavanger.kommune.no" />
		<tag k="contact:phone" v="+47 51912360" />
		<tag k="max_age" v="5" />
		<tag k="min_age" v="1" />
		<tag k="name" v="Ulsberget barnehage" />
		<tag k="no-barnehage:nsrid" v="1012907" />
		<tag k="operator" v="Stavanger kommune" />
		<tag k="operator:type" v="public" />
		<tag k="start_date" v="1989-01-01" />
	</node>
	<node id="-3520" lat="58.9331" lon="5.73695">
		<tag k="amenity" v="kindergarten" />
		<tag k="capacity" v="52" />
		<tag k="contact:email" v="toril.bergslien@stavanger.kommune.no" />
		<tag k="max_age" v="5" />
		<tag k="min_age" v="1" />
		<tag k="name" v="Tyrihans barnehage" />
		<tag k="no-barnehage:nsrid" v="1015010" />
		<tag k="operator" v="Stavanger kommune" />
		<tag k="operator:type" v="public" />
		<tag k="start_date" v="1997-01-13" />
	</node>
	<node id="-3519" lat="58.8931" lon="5.743223">
		<tag k="amenity" v="kindergarten" />
		<tag k="capacity" v="23" />
		<tag k="contact:email" v="BARNEHAGE.TUSENFRYD@LYSE.NET" />
		<tag k="max_age" v="5" />
		<tag k="min_age" v="1" />
		<tag k="name" v="Tusenfryd barnehage AS" />
		<tag k="no-barnehage:nsrid" v="1021781" />
		<tag k="operator" v="Tusenfryd barnehage AS" />
		<tag k="operator:type" v="private" />
		<tag k="start_date" v="1989-01-01" />
	</node>
	<node id="-3518" lat="58.99015" lon="5.683346">
		<tag k="amenity" v="kindergarten" />
		<tag k="capacity" v="73" />
		<tag k="contact:email" v="bhg.trollberget@laringsverkstedet.no" />
		<tag k="contact:phone" v="+47 63 94 62 50" />
		<tag k="max_age" v="5" />
		<tag k="min_age" v="1" />
		<tag k="name" v="Trollberget barnehage" />
		<tag k="no-barnehage:nsrid" v="1021735" />
		<tag k="operator" v="Trollberget AS" />
		<tag k="operator:type" v="private" />
		<tag k="start_date" v="1999-01-01" />
	</node>
	<node id="-3517" lat="58.9795" lon="5.70323">
		<tag k="amenity" v="kindergarten" />
		<tag k="capacity" v="32" />
		<tag k="contact:email" v="eli.mundheim@stavanger.kommune.no" />
		<tag k="contact:phone" v="+47 51 91 32 25" />
		<tag k="max_age" v="5" />
		<tag k="min_age" v="1" />
		<tag k="name" v="Triade barnehage Avdeling Veden" />
		<tag k="no-barnehage:nsrid" v="1012920" />
		<tag k="operator" v="Stavanger kommune" />
		<tag k="operator:type" v="public" />
		<tag k="start_date" v="1965-12-31" />
	</node>
	<node id="-3516" lat="58.9823" lon="5.68549">
		<tag k="amenity" v="kindergarten" />
		<tag k="capacity" v="70" />
		<tag k="contact:email" v="eli.mundheim@stavanger.kommune.no" />
		<tag k="contact:phone" v="+47 51 83 92 20" />
		<tag k="max_age" v="5" />
		<tag k="min_age" v="1" />
		<tag k="name" v="Triade barnehage Avdeling Smietunet" />
		<tag k="no-barnehage:nsrid" v="1016073" />
		<tag k="operator" v="Stavanger kommune" />
		<tag k="operator:type" v="public" />
		<tag k="start_date" v="1994-08-19" />
	</node>
	<node id="-3514" lat="58.94998" lon="5.706081">
		<tag k="amenity" v="kindergarten" />
		<tag k="capacity" v="68" />
		<tag k="contact:email" v="post@tommeliten-barnehage.no" />
		<tag k="contact:website" v="http://www.tommeliten.com" />
		<tag k="max_age" v="5" />
		<tag k="min_age" v="1" />
		<tag k="name" v="Tommeliten barnehage" />
		<tag k="no-barnehage:nsrid" v="1020273" />
		<tag k="operator" v="Tommeliten barnehage Sa" />
		<tag k="operator:type" v="private" />
		<tag k="start_date" v="1994-08-12" />
	</node>
	<node id="-3513" lat="58.9815" lon="5.6944">
		<tag k="amenity" v="kindergarten" />
		<tag k="capacity" v="38" />
		<tag k="contact:email" v="inger.haraldsen@stavanger.kommune.no" />
		<tag k="contact:phone" v="+47 51 54 22 62" />
		<tag k="max_age" v="5" />
		<tag k="min_age" v="1" />
		<tag k="name" v="Tastavarden barnehage Avdeling Smiene" />
		<tag k="no-barnehage:nsrid" v="1012914" />
		<tag k="operator" v="Stavanger kommune" />
		<tag k="operator:type" v="public" />
		<tag k="start_date" v="1976-01-01" />
	</node>
	<node id="-3512" lat="58.9884" lon="5.68038">
		<tag k="amenity" v="kindergarten" />
		<tag k="capacity" v="68" />
		<tag k="contact:email" v="inger.haraldsen@stavanger.kommune.no" />
		<tag k="contact:phone" v="+47 51 54 40 05" />
		<tag k="max_age" v="5" />
		<tag k="min_age" v="1" />
		<tag k="name" v="Tastavarden barnehage Avdeling Gullfaks" />
		<tag k="no-barnehage:nsrid" v="1016074" />
		<tag k="operator" v="Stavanger kommune" />
		<tag k="operator:type" v="public" />
		<tag k="start_date" v="1993-08-01" />
	</node>
	<node id="-3510" lat="58.9405" lon="5.72226">
		<tag k="amenity" v="kindergarten" />
		<tag k="capacity" v="83" />
		<tag k="contact:email" v="tron.kjetel.kjormo@stavanger.kommune.no" />
		<tag k="max_age" v="5" />
		<tag k="min_age" v="1" />
		<tag k="name" v="Sørmarka Arena barnehage" />
		<tag k="no-barnehage:nsrid" v="1014268" />
		<tag k="operator" v="Stavanger kommune" />
		<tag k="operator:type" v="public" />
		<tag k="start_date" v="2011-03-01" />
	</node>
	<node id="-3509" lat="58.9645" lon="5.61321">
		<tag k="amenity" v="kindergarten" />
		<tag k="capacity" v="108" />
		<tag k="contact:email" v="eli.karin.selle@stavanger.kommune.no" />
		<tag k="max_age" v="5" />
		<tag k="min_age" v="1" />
		<tag k="name" v="Sundelia barnehage" />
		<tag k="no-barnehage:nsrid" v="1017773" />
		<tag k="operator" v="Stavanger kommune" />
		<tag k="operator:type" v="public" />
		<tag k="start_date" v="2007-08-01" />
	</node>
	<node id="-3508" lat="58.9606" lon="5.62559">
		<tag k="amenity" v="kindergarten" />
		<tag k="capacity" v="54" />
		<tag k="contact:email" v="anne.oxaas@stavanger.kommune.no" />
		<tag k="contact:phone" v="+47 51 85 47 80" />
		<tag k="max_age" v="5" />
		<tag k="min_age" v="1" />
		<tag k="name" v="Sunde barnehage" />
		<tag k="no-barnehage:nsrid" v="1016234" />
		<tag k="operator" v="Stavanger kommune" />
		<tag k="operator:type" v="public" />
		<tag k="start_date" v="1994-03-03" />
	</node>
	<node id="-3507" lat="58.9694" lon="5.74558">
		<tag k="amenity" v="kindergarten" />
		<tag k="contact:email" v="storhaugopenbarnehage@lyse.net" />
		<tag k="name" v="Storhaug Åpen barnehage" />
		<tag k="no-barnehage:nsrid" v="1016558" />
		<tag k="operator" v="St. Johannes Sokn" />
		<tag k="operator:type" v="private" />
		<tag k="start_date" v="2003-08-01" />
	</node>
	<node id="-3506" lat="58.9718" lon="5.71989">
		<tag k="amenity" v="kindergarten" />
		<tag k="capacity" v="34" />
		<tag k="contact:email" v="christin.bigseth@stavanger.kommune.no" />
		<tag k="contact:phone" v="+47 51 53 30 79" />
		<tag k="max_age" v="5" />
		<tag k="min_age" v="1" />
		<tag k="name" v="Stokkatunet barnehage" />
		<tag k="no-barnehage:nsrid" v="1012912" />
		<tag k="operator" v="Stavanger kommune" />
		<tag k="operator:type" v="public" />
		<tag k="start_date" v="1989-01-01" />
	</node>
	<node id="-3505" lat="58.96005" lon="5.690632">
		<tag k="amenity" v="kindergarten" />
		<tag k="contact:email" v="wenche.opstad@bkmsvg.org" />
		<tag k="contact:phone" v="+47 51 56 06 50" />
		<tag k="name" v="Stokka Åpen barnehage" />
		<tag k="no-barnehage:nsrid" v="1020686" />
		<tag k="operator" v="Brunstad Kristelige Menighet Stavanger" />
		<tag k="operator:type" v="private" />
		<tag k="start_date" v="2000-12-13" />
	</node>
	<node id="-3504" lat="58.9626" lon="5.69096">
		<tag k="amenity" v="kindergarten" />
		<tag k="capacity" v="270" />
		<tag k="contact:email" v="sonja.iversen@stavanger.kommune.no" />
		<tag k="contact:phone" v="+47 51 56 03 10" />
		<tag k="max_age" v="5" />
		<tag k="min_age" v="1" />
		<tag k="name" v="Stokka barnehage" />
		<tag k="no-barnehage:nsrid" v="1012916" />
		<tag k="operator" v="Stavanger kommune" />
		<tag k="operator:type" v="public" />
		<tag k="start_date" v="1976-01-01" />
	</node>
	<node id="-3503" lat="58.9664" lon="5.75511">
		<tag k="amenity" v="kindergarten" />
		<tag k="capacity" v="54" />
		<tag k="contact:email" v="katrine.lutsi.skjeveland@stavanger.kommune.no" />
		<tag k="contact:phone" v="+47 51 56 22 78" />
		<tag k="max_age" v="5" />
		<tag k="min_age" v="1" />
		<tag k="name" v="Steinhagen barnehage" />
		<tag k="no-barnehage:nsrid" v="1012899" />
		<tag k="operator" v="Stavanger kommune" />
		<tag k="operator:type" v="public" />
		<tag k="start_date" v="1989-01-01" />
	</node>
	<node id="-3502" lat="58.93885" lon="5.734207">
		<tag k="amenity" v="kindergarten" />
		<tag k="capacity" v="54" />
		<tag k="contact:email" v="bukkenebruse@steinerbarnehage.no" />
		<tag k="contact:phone" v="+47 51 58 48 44" />
		<tag k="contact:website" v="http://www.bukkenbruse.steinerbarnehagene.no" />
		<tag k="max_age" v="5" />
		<tag k="min_age" v="1" />
		<tag k="name" v="Steinerbarnehagen Bukkene Bruse" />
		<tag k="no-barnehage:nsrid" v="1021659" />
		<tag k="operator" v="Stiftelsen Steinerbarnehagen Bukkene Bruse" />
		<tag k="operator:type" v="private" />
		<tag k="start_date" v="1995-02-20" />
	</node>
	<node id="-3501" lat="58.8972" lon="5.73356">
		<tag k="amenity" v="kindergarten" />
		<tag k="capacity" v="106" />
		<tag k="contact:email" v="pre-school@biss.no" />
		<tag k="max_age" v="5" />
		<tag k="min_age" v="1" />
		<tag k="name" v="Stavanger British Pre-School" />
		<tag k="no-barnehage:nsrid" v="1014120" />
		<tag k="operator" v="The British International School Of Stavanger" />
		<tag k="operator:type" v="private" />
		<tag k="start_date" v="2010-01-01" />
	</node>
	<node id="-3500" lat="58.898" lon="5.71232">
		<tag k="amenity" v="kindergarten" />
		<tag k="capacity" v="51" />
		<tag k="contact:email" v="kari.langholm@stavanger.kommune.no" />
		<tag k="contact:phone" v="+47 51 91 31 40" />
		<tag k="max_age" v="5" />
		<tag k="min_age" v="1" />
		<tag k="name" v="Soria Moria barnehage" />
		<tag k="no-barnehage:nsrid" v="1015454" />
		<tag k="operator" v="Stavanger kommune" />
		<tag k="operator:type" v="public" />
		<tag k="start_date" v="1990-01-01" />
	</node>
	<node id="-3499" lat="58.9687" lon="5.72404">
		<tag k="amenity" v="kindergarten" />
		<tag k="capacity" v="80" />
		<tag k="contact:email" v="june.gordon@stavanger.kommune.no" />
		<tag k="max_age" v="5" />
		<tag k="min_age" v="1" />
		<tag k="name" v="Solvang barnehage" />
		<tag k="no-barnehage:nsrid" v="1018538" />
		<tag k="operator" v="Stavanger kommune" />
		<tag k="operator:type" v="public" />
		<tag k="start_date" v="2009-01-01" />
	</node>
	<node id="-3498" lat="58.9524" lon="5.7035">
		<tag k="amenity" v="kindergarten" />
		<tag k="capacity" v="21" />
		<tag k="contact:email" v="solborg.barnehage@solborg.fhs.no" />
		<tag k="contact:phone" v="+47 51 51 01 00" />
		<tag k="max_age" v="5" />
		<tag k="min_age" v="1" />
		<tag k="name" v="Solborg barnehage" />
		<tag k="no-barnehage:nsrid" v="1016176" />
		<tag k="operator" v="Foreningen Solborg Folkehøgskole" />
		<tag k="operator:type" v="private" />
		<tag k="start_date" v="1977-07-22" />
	</node>
	<node id="-3497" lat="58.9533" lon="5.65834">
		<tag k="amenity" v="kindergarten" />
		<tag k="capacity" v="53" />
		<tag k="contact:email" v="tone.hognestad@stavanger.kommune.no" />
		<tag k="contact:phone" v="+47 51 55 50 99" />
		<tag k="max_age" v="5" />
		<tag k="min_age" v="1" />
		<tag k="name" v="Slåtthaug barnehage" />
		<tag k="no-barnehage:nsrid" v="1025373" />
		<tag k="operator" v="Stavanger kommune" />
		<tag k="operator:type" v="public" />
		<tag k="start_date" v="1989-01-01" />
	</node>
	<node id="-3496" lat="59.003" lon="5.72333">
		<tag k="amenity" v="kindergarten" />
		<tag k="capacity" v="27" />
		<tag k="contact:email" v="elisabeth.faksnes@stavanger.kommune.no" />
		<tag k="contact:phone" v="+47 51 89 51 39" />
		<tag k="max_age" v="5" />
		<tag k="min_age" v="1" />
		<tag k="name" v="Skeie barnehage Avdeling Torsahagen" />
		<tag k="no-barnehage:nsrid" v="1016080" />
		<tag k="operator" v="Stavanger kommune" />
		<tag k="operator:type" v="public" />
		<tag k="start_date" v="1989-01-01" />
	</node>
	<node id="-3495" lat="59.0061" lon="5.72399">
		<tag k="amenity" v="kindergarten" />
		<tag k="capacity" v="51" />
		<tag k="contact:email" v="elisabeth.faksnes@stavanger.kommune.no" />
		<tag k="contact:phone" v="+47 51 54 76 66" />
		<tag k="max_age" v="5" />
		<tag k="min_age" v="1" />
		<tag k="name" v="Skeie barnehage Avdeling Skeiehagen" />
		<tag k="no-barnehage:nsrid" v="1016076" />
		<tag k="operator" v="Stavanger kommune" />
		<tag k="operator:type" v="public" />
		<tag k="start_date" v="1976-01-01" />
	</node>
	<node id="-3494" lat="58.99006" lon="5.670694">
		<tag k="amenity" v="kindergarten" />
		<tag k="capacity" v="83" />
		<tag k="contact:email" v="silje@scalabarnehagene.no" />
		<tag k="contact:phone" v="+47 21 08 80 88" />
		<tag k="contact:website" v="http://www.espira.no" />
		<tag k="max_age" v="5" />
		<tag k="min_age" v="1" />
		<tag k="name" v="Scalabarnehagene Avdeling Tasta" />
		<tag k="no-barnehage:nsrid" v="1021235" />
		<tag k="operator" v="Espira Scala Tasta AS" />
		<tag k="operator:type" v="private" />
		<tag k="start_date" v="2005-05-13" />
	</node>
	<node id="-3493" lat="58.99943" lon="5.743391">
		<tag k="amenity" v="kindergarten" />
		<tag k="capacity" v="78" />
		<tag k="contact:email" v="ljt@scalabarnehagene.no" />
		<tag k="contact:phone" v="+47 21 08 80 88" />
		<tag k="contact:website" v="http://www.espira.no" />
		<tag k="max_age" v="5" />
		<tag k="min_age" v="1" />
		<tag k="name" v="Scalabarnehagene Avdeling Hundvåg AS" />
		<tag k="no-barnehage:nsrid" v="1021234" />
		<tag k="operator" v="Espira Scala Hundvåg AS" />
		<tag k="operator:type" v="private" />
		<tag k="start_date" v="2005-05-13" />
	</node>
	<node id="-3492" lat="58.9467" lon="5.70087">
		<tag k="amenity" v="kindergarten" />
		<tag k="capacity" v="51" />
		<tag k="contact:email" v="elin.tysseland@stavanger.kommune.no" />
		<tag k="contact:phone" v="+47 51 87 17 43" />
		<tag k="max_age" v="5" />
		<tag k="min_age" v="1" />
		<tag k="name" v="Satelitten barnehage" />
		<tag k="no-barnehage:nsrid" v="1012911" />
		<tag k="operator" v="Stavanger kommune" />
		<tag k="operator:type" v="public" />
		<tag k="start_date" v="1989-01-01" />
	</node>
	<node id="-3491" lat="58.9439" lon="5.75047">
		<tag k="amenity" v="kindergarten" />
		<tag k="capacity" v="95" />
		<tag k="contact:email" v="monica.kapstad@stavanger.kommune.no" />
		<tag k="max_age" v="5" />
		<tag k="min_age" v="1" />
		<tag k="name" v="Sandvikveien barnehage" />
		<tag k="no-barnehage:nsrid" v="1018537" />
		<tag k="operator" v="Stavanger kommune" />
		<tag k="operator:type" v="public" />
		<tag k="start_date" v="2009-01-01" />
	</node>
	<node id="-3490" lat="58.9423" lon="5.66379">
		<tag k="amenity" v="kindergarten" />
		<tag k="contact:email" v="tron.kjetel.kjormo@stavanger.kommune.no" />
		<tag k="name" v="Sandal barnehage Avd. Hafrsfjord Åpen Barnehage" />
		<tag k="no-barnehage:nsrid" v="1017042" />
		<tag k="operator" v="Stavanger kommune" />
		<tag k="operator:type" v="public" />
		<tag k="start_date" v="2005-01-01" />
	</node>
	<node id="-3489" lat="58.9548" lon="5.68199">
		<tag k="amenity" v="kindergarten" />
		<tag k="capacity" v="65" />
		<tag k="contact:email" v="tron.kjetel.kjormo@stavanger.kommune.no" />
		<tag k="contact:phone" v="+47 51 59 73 90" />
		<tag k="max_age" v="5" />
		<tag k="min_age" v="1" />
		<tag k="name" v="Sandal barnehage" />
		<tag k="no-barnehage:nsrid" v="1012903" />
		<tag k="operator" v="Stavanger kommune" />
		<tag k="operator:type" v="public" />
		<tag k="start_date" v="1989-01-01" />
	</node>
	<node id="-3488" lat="58.97802" lon="5.693197">
		<tag k="amenity" v="kindergarten" />
		<tag k="capacity" v="62" />
		<tag k="contact:email" v="anne@rodknappen.no" />
		<tag k="contact:phone" v="+47 51 52 70 10" />
		<tag k="contact:website" v="http://www.rodknappen.no" />
		<tag k="max_age" v="5" />
		<tag k="min_age" v="1" />
		<tag k="name" v="Rødknappen AS" />
		<tag k="no-barnehage:nsrid" v="1022002" />
		<tag k="operator" v="Rødknappen AS" />
		<tag k="operator:type" v="private" />
		<tag k="start_date" v="1993-07-01" />
	</node>
	<node id="-3487" lat="58.94247" lon="5.680737">
		<tag k="amenity" v="kindergarten" />
		<tag k="capacity" v="59" />
		<tag k="contact:email" v="anne.grete.rortveit@lyse.net" />
		<tag k="contact:phone" v="+47 51 55 85 74" />
		<tag k="contact:website" v="http://www.rognebarnehagen.barnehage.no" />
		<tag k="max_age" v="5" />
		<tag k="min_age" v="1" />
		<tag k="name" v="Rognebærhagen barnehage" />
		<tag k="no-barnehage:nsrid" v="1019857" />
		<tag k="operator" v="Stiftelsen Sr Bank barnehage" />
		<tag k="operator:type" v="private" />
		<tag k="start_date" v="1989-10-01" />
	</node>
	<node id="-3486" lat="58.9893" lon="5.73506">
		<tag k="amenity" v="kindergarten" />
		<tag k="capacity" v="28" />
		<tag k="contact:email" v="vibeke.stange@stavanger.kommune.no" />
		<tag k="contact:phone" v="+47 51 54 75 00" />
		<tag k="max_age" v="5" />
		<tag k="min_age" v="1" />
		<tag k="name" v="Roaldsøy barnehage Avdeling Buøy" />
		<tag k="no-barnehage:nsrid" v="1012913" />
		<tag k="operator" v="Stavanger kommune" />
		<tag k="operator:type" v="public" />
		<tag k="start_date" v="1965-12-31" />
	</node>
	<node id="-3485" lat="58.9918" lon="5.76624">
		<tag k="amenity" v="kindergarten" />
		<tag k="capacity" v="32" />
		<tag k="contact:email" v="vibeke.stange@stavanger.kommune.no" />
		<tag k="contact:phone" v="+47 51 86 06 41" />
		<tag k="max_age" v="5" />
		<tag k="min_age" v="1" />
		<tag k="name" v="Roaldsøy barnehage" />
		<tag k="no-barnehage:nsrid" v="1012908" />
		<tag k="operator" v="Stavanger kommune" />
		<tag k="operator:type" v="public" />
		<tag k="start_date" v="1989-01-01" />
	</node>
	<node id="-3484" lat="58.8928" lon="5.71912">
		<tag k="amenity" v="kindergarten" />
		<tag k="capacity" v="54" />
		<tag k="contact:email" v="regnbuen@kanvas.no" />
		<tag k="contact:phone" v="+47 90598168" />
		<tag k="contact:website" v="http://regnbuen.kanvas.no/" />
		<tag k="max_age" v="5" />
		<tag k="min_age" v="1" />
		<tag k="name" v="Regnbuen Kanvas-Barnehage" />
		<tag k="no-barnehage:nsrid" v="1016211" />
		<tag k="operator" v="Stiftelsen Kanvas" />
		<tag k="operator:type" v="private" />
		<tag k="start_date" v="1989-01-01" />
	</node>
	<node id="-3483" lat="58.9591" lon="5.75974">
		<tag k="amenity" v="kindergarten" />
		<tag k="capacity" v="58" />
		<tag k="contact:email" v="lbogren@stavanger.kommune.no" />
		<tag k="contact:phone" v="+47 51 56 20 66" />
		<tag k="max_age" v="5" />
		<tag k="min_age" v="1" />
		<tag k="name" v="Ramsvigskogen barnehage" />
		<tag k="no-barnehage:nsrid" v="1012902" />
		<tag k="operator" v="Stavanger kommune" />
		<tag k="operator:type" v="public" />
		<tag k="start_date" v="1989-01-01" />
	</node>
	<node id="-3482" lat="58.99515" lon="5.739776">
		<tag k="amenity" v="kindergarten" />
		<tag k="capacity" v="91" />
		<tag k="contact:email" v="dl.qmarka@bhg.no" />
		<tag k="contact:phone" v="+47 51 59 66 69" />
		<tag k="max_age" v="5" />
		<tag k="min_age" v="1" />
		<tag k="name" v="Qmarkå Fus barnehage AS" />
		<tag k="no-barnehage:nsrid" v="1021302" />
		<tag k="operator" v="Qmarkå Fus barnehage AS" />
		<tag k="operator:type" v="private" />
		<tag k="start_date" v="2005-08-25" />
	</node>
	<node id="-3481" lat="58.9675" lon="5.74858">
		<tag k="amenity" v="kindergarten" />
		<tag k="capacity" v="51" />
		<tag k="contact:email" v="nymansveien.barnehage@stavanger.kommune.no" />
		<tag k="max_age" v="5" />
		<tag k="min_age" v="1" />
		<tag k="name" v="Nymannsveien barnehage" />
		<tag k="no-barnehage:nsrid" v="1016072" />
		<tag k="operator" v="Stavanger kommune" />
		<tag k="operator:type" v="public" />
		<tag k="start_date" v="1982-01-01" />
	</node>
	<node id="-3480" lat="58.967" lon="5.61179">
		<tag k="amenity" v="kindergarten" />
		<tag k="capacity" v="40" />
		<tag k="contact:email" v="solheim.bhg@barnehage.no" />
		<tag k="contact:phone" v="+47 51 59 96 50" />
		<tag k="max_age" v="5" />
		<tag k="min_age" v="1" />
		<tag k="name" v="Nlm Barnehagene AS Avd Solheim Barnehage" />
		<tag k="no-barnehage:nsrid" v="1016189" />
		<tag k="operator" v="Nlm-Barnehagene AS" />
		<tag k="operator:type" v="private" />
		<tag k="start_date" v="1982-01-01" />
	</node>
	<node id="-3479" lat="58.9203" lon="5.72552">
		<tag k="amenity" v="kindergarten" />
		<tag k="capacity" v="56" />
		<tag k="contact:email" v="beth.erfjord@lyse.net" />
		<tag k="contact:phone" v="+47 51 88 15 82" />
		<tag k="max_age" v="5" />
		<tag k="min_age" v="1" />
		<tag k="name" v="Nlm Barnehagene AS Avd Fredheim Barnehage" />
		<tag k="no-barnehage:nsrid" v="1016175" />
		<tag k="operator" v="Nlm-Barnehagene AS" />
		<tag k="operator:type" v="private" />
		<tag k="start_date" v="1972-12-26" />
	</node>
	<node id="-3478" lat="58.95882" lon="5.698399">
		<tag k="amenity" v="kindergarten" />
		<tag k="capacity" v="61" />
		<tag k="contact:email" v="muldvarpen@barnehage.no" />
		<tag k="contact:phone" v="+47 51 85 81 50" />
		<tag k="contact:website" v="http://www.muldvarpen.barnehage.no" />
		<tag k="max_age" v="5" />
		<tag k="min_age" v="1" />
		<tag k="name" v="Muldvarpen barnehage Sa" />
		<tag k="no-barnehage:nsrid" v="1021262" />
		<tag k="operator" v="Muldvarpen barnehage Sa" />
		<tag k="operator:type" v="private" />
		<tag k="start_date" v="1993-04-01" />
	</node>
	<node id="-3477" lat="58.9519" lon="5.68346">
		<tag k="amenity" v="kindergarten" />
		<tag k="capacity" v="71" />
		<tag k="contact:email" v="margareth.olsen@stavanger.kommune.no" />
		<tag k="contact:phone" v="+47 51 55 80 07" />
		<tag k="max_age" v="5" />
		<tag k="min_age" v="1" />
		<tag k="name" v="Molkeholen barnehage" />
		<tag k="no-barnehage:nsrid" v="1012906" />
		<tag k="operator" v="Stavanger kommune" />
		<tag k="operator:type" v="public" />
		<tag k="start_date" v="1989-01-01" />
	</node>
	<node id="-3476" lat="58.96283" lon="5.60524">
		<tag k="amenity" v="kindergarten" />
		<tag k="capacity" v="63" />
		<tag k="contact:email" v="post@mjughaugskogen.no" />
		<tag k="contact:phone" v="+47 51 85 43 00" />
		<tag k="contact:website" v="http://mjughaugskogen.no" />
		<tag k="max_age" v="5" />
		<tag k="min_age" v="1" />
		<tag k="name" v="Mjughaugskogen barnehage" />
		<tag k="no-barnehage:nsrid" v="1020312" />
		<tag k="operator" v="Mjughaugskogen barnehage Sa" />
		<tag k="operator:type" v="private" />
		<tag k="start_date" v="1993-08-01" />
	</node>
	<node id="-3475" lat="58.9547" lon="5.7381">
		<tag k="amenity" v="kindergarten" />
		<tag k="capacity" v="63" />
		<tag k="contact:email" v="mauruta.barnehage@stavanger.kommune.no" />
		<tag k="contact:phone" v="+47 51 50 84 82" />
		<tag k="max_age" v="5" />
		<tag k="min_age" v="1" />
		<tag k="name" v="Maurtua barnehage" />
		<tag k="no-barnehage:nsrid" v="1013770" />
		<tag k="operator" v="Stavanger kommune" />
		<tag k="operator:type" v="public" />
		<tag k="start_date" v="1989-01-02" />
	</node>
	<node id="-3473" lat="58.9013" lon="5.71232">
		<tag k="amenity" v="kindergarten" />
		<tag k="capacity" v="54" />
		<tag k="contact:email" v="mona.mjolsnes.knutsen@stavanger.kommune.no" />
		<tag k="contact:phone" v="+47 51 80 17 65" />
		<tag k="max_age" v="5" />
		<tag k="min_age" v="1" />
		<tag k="name" v="Mariamarka barnehage" />
		<tag k="no-barnehage:nsrid" v="1016075" />
		<tag k="operator" v="Stavanger kommune" />
		<tag k="operator:type" v="public" />
		<tag k="start_date" v="1992-01-01" />
	</node>
	<node id="-3472" lat="58.9458" lon="5.69167">
		<tag k="amenity" v="kindergarten" />
		<tag k="capacity" v="66" />
		<tag k="contact:email" v="kirsten.roth@stavanger.kommune.no" />
		<tag k="max_age" v="5" />
		<tag k="min_age" v="1" />
		<tag k="name" v="Madlavoll barnehage" />
		<tag k="no-barnehage:nsrid" v="1015504" />
		<tag k="operator" v="Stavanger kommune" />
		<tag k="operator:type" v="public" />
		<tag k="start_date" v="1989-01-01" />
	</node>
	<node id="-3470" lat="58.96622" lon="5.76293">
		<tag k="amenity" v="kindergarten" />
		<tag k="capacity" v="100" />
		<tag k="contact:email" v="bhg.lervigbrygge@laringsverkstedet.no" />
		<tag k="contact:phone" v="+47 63 94 62 50" />
		<tag k="max_age" v="5" />
		<tag k="min_age" v="1" />
		<tag k="name" v="Lervig Brygge barnehage AS" />
		<tag k="no-barnehage:nsrid" v="1022279" />
		<tag k="operator" v="Lervig Brygge barnehage AS" />
		<tag k="operator:type" v="private" />
		<tag k="start_date" v="2012-06-08" />
	</node>
	<node id="-3469" lat="58.9577" lon="5.69611">
		<tag k="amenity" v="kindergarten" />
		<tag k="capacity" v="89" />
		<tag k="contact:email" v="kjersti.lothe@stavanger.kommune.no" />
		<tag k="max_age" v="5" />
		<tag k="min_age" v="1" />
		<tag k="name" v="Lassamyra barnehage" />
		<tag k="no-barnehage:nsrid" v="1013987" />
		<tag k="operator" v="Stavanger kommune" />
		<tag k="operator:type" v="public" />
		<tag k="start_date" v="2009-06-01" />
	</node>
	<node id="-3468" lat="58.96005" lon="5.690632">
		<tag k="amenity" v="kindergarten" />
		<tag k="capacity" v="84" />
		<tag k="contact:email" v="ric-ma@online.no" />
		<tag k="contact:phone" v="+47 51 53 40 10" />
		<tag k="max_age" v="5" />
		<tag k="min_age" v="1" />
		<tag k="name" v="Lassa barnehage" />
		<tag k="no-barnehage:nsrid" v="1021390" />
		<tag k="operator" v="Lassa barnehage Marka AS" />
		<tag k="operator:type" v="private" />
		<tag k="start_date" v="2006-01-22" />
	</node>
	<node id="-3467" lat="58.9988" lon="5.72118">
		<tag k="amenity" v="kindergarten" />
		<tag k="capacity" v="54" />
		<tag k="contact:email" v="tordis.nordboe@stavanger.kommune.no" />
		<tag k="contact:phone" v="+47 51 89 97 80" />
		<tag k="max_age" v="5" />
		<tag k="min_age" v="1" />
		<tag k="name" v="Kvitodden barnehage" />
		<tag k="no-barnehage:nsrid" v="1016195" />
		<tag k="operator" v="Stavanger kommune" />
		<tag k="operator:type" v="public" />
		<tag k="start_date" v="1985-01-01" />
	</node>
	<node id="-3466" lat="58.9707" lon="5.60528">
		<tag k="amenity" v="kindergarten" />
		<tag k="capacity" v="39" />
		<tag k="contact:email" v="reidun.herheim@stavanger.kommune.no" />
		<tag k="contact:phone" v="+47 51 59 01 94" />
		<tag k="max_age" v="5" />
		<tag k="min_age" v="1" />
		<tag k="name" v="Kvernevik barnehage" />
		<tag k="no-barnehage:nsrid" v="1012922" />
		<tag k="operator" v="Stavanger kommune" />
		<tag k="operator:type" v="public" />
		<tag k="start_date" v="1965-12-31" />
	</node>
	<node id="-3465" lat="58.9374" lon="5.72518">
		<tag k="amenity" v="kindergarten" />
		<tag k="capacity" v="27" />
		<tag k="contact:email" v="inger.lise.sorbo@stavanger.kommune.no" />
		<tag k="contact:phone" v="+47 51 58 67 67" />
		<tag k="max_age" v="5" />
		<tag k="min_age" v="1" />
		<tag k="name" v="Kvaleberg barnehage Avdeling Vannassen" />
		<tag k="no-barnehage:nsrid" v="1016077" />
		<tag k="operator" v="Stavanger kommune" />
		<tag k="operator:type" v="public" />
		<tag k="start_date" v="1976-01-01" />
	</node>
	<node id="-3464" lat="58.9453" lon="5.74949">
		<tag k="amenity" v="kindergarten" />
		<tag k="capacity" v="120" />
		<tag k="contact:email" v="inger.lise.sorbo@stavanger.kommune.no" />
		<tag k="contact:phone" v="+47 51 58 73 25" />
		<tag k="max_age" v="5" />
		<tag k="min_age" v="1" />
		<tag k="name" v="Kvaleberg barnehage" />
		<tag k="no-barnehage:nsrid" v="1012921" />
		<tag k="operator" v="Stavanger kommune" />
		<tag k="operator:type" v="public" />
		<tag k="start_date" v="1965-12-31" />
	</node>
	<node id="-3463" lat="58.9572" lon="5.73687">
		<tag k="amenity" v="kindergarten" />
		<tag k="capacity" v="27" />
		<tag k="contact:email" v="bbjotve@stavanger.kommune.no" />
		<tag k="max_age" v="5" />
		<tag k="min_age" v="1" />
		<tag k="name" v="Krabat barnehage Avdeling Våland" />
		<tag k="no-barnehage:nsrid" v="1017041" />
		<tag k="operator" v="Stavanger kommune" />
		<tag k="operator:type" v="public" />
		<tag k="start_date" v="2005-01-01" />
	</node>
	<node id="-3462" lat="58.9459" lon="5.6981">
		<tag k="amenity" v="kindergarten" />
		<tag k="capacity" v="28" />
		<tag k="contact:email" v="bbjotve@stavanger.kommune.no" />
		<tag k="contact:phone" v="+47 51 87 16 72" />
		<tag k="max_age" v="5" />
		<tag k="min_age" v="1" />
		<tag k="name" v="Krabat barnehage Avdeling Haugtussa" />
		<tag k="no-barnehage:nsrid" v="1012915" />
		<tag k="operator" v="Stavanger kommune" />
		<tag k="operator:type" v="public" />
		<tag k="start_date" v="1976-01-01" />
	</node>
	<node id="-3461" lat="58.939" lon="5.69765">
		<tag k="amenity" v="kindergarten" />
		<tag k="capacity" v="53" />
		<tag k="contact:email" v="bbjotve@stavanger.kommune.no" />
		<tag k="contact:phone" v="+47 51 55 71 75" />
		<tag k="max_age" v="5" />
		<tag k="min_age" v="1" />
		<tag k="name" v="Krabat barnehage" />
		<tag k="no-barnehage:nsrid" v="1016210" />
		<tag k="operator" v="Stavanger kommune" />
		<tag k="operator:type" v="public" />
		<tag k="start_date" v="1989-01-01" />
	</node>
	<node id="-3459" lat="58.9633" lon="5.6198">
		<tag k="amenity" v="kindergarten" />
		<tag k="capacity" v="66" />
		<tag k="contact:email" v="tove.elin.ruud@stavanger.kommune.no" />
		<tag k="max_age" v="5" />
		<tag k="min_age" v="1" />
		<tag k="name" v="Kløvereng barnehage Avdeling Sunde" />
		<tag k="no-barnehage:nsrid" v="1013464" />
		<tag k="operator" v="Stavanger kommune" />
		<tag k="operator:type" v="public" />
		<tag k="start_date" v="2009-01-01" />
	</node>
	<node id="-3458" lat="58.9644" lon="5.74112">
		<tag k="amenity" v="kindergarten" />
		<tag k="capacity" v="42" />
		<tag k="contact:email" v="svanhild.rake@stavanger.kommune.no" />
		<tag k="max_age" v="5" />
		<tag k="min_age" v="1" />
		<tag k="name" v="Kløvereng barnehage Avdeling Storhaug" />
		<tag k="no-barnehage:nsrid" v="1018541" />
		<tag k="operator" v="Stavanger kommune" />
		<tag k="operator:type" v="public" />
		<tag k="start_date" v="2009-01-01" />
	</node>
	<node id="-3457" lat="58.9925" lon="5.69045">
		<tag k="amenity" v="kindergarten" />
		<tag k="capacity" v="13" />
		<tag k="contact:email" v="gunn.gausel@ras.rl.no" />
		<tag k="contact:phone" v="+47 51 72 90 53" />
		<tag k="max_age" v="5" />
		<tag k="min_age" v="1" />
		<tag k="name" v="Kanutten barnehage" />
		<tag k="no-barnehage:nsrid" v="1012949" />
		<tag k="operator" v="Rogaland A- Senter AS" />
		<tag k="operator:type" v="private" />
		<tag k="start_date" v="1992-01-01" />
	</node>
	<node id="-3456" lat="58.9695" lon="5.71227">
		<tag k="amenity" v="kindergarten" />
		<tag k="capacity" v="42" />
		<tag k="contact:email" v="grete.lill.johnsen.sannum@stavanger.kommune.no" />
		<tag k="contact:phone" v="+47 51 52 92 58" />
		<tag k="max_age" v="5" />
		<tag k="min_age" v="1" />
		<tag k="name" v="Kampen barnehage" />
		<tag k="no-barnehage:nsrid" v="1016676" />
		<tag k="operator" v="Stavanger kommune" />
		<tag k="operator:type" v="public" />
		<tag k="start_date" v="1979-03-02" />
	</node>
	<node id="-3455" lat="58.9106" lon="5.7215">
		<tag k="amenity" v="kindergarten" />
		<tag k="capacity" v="231" />
		<tag k="contact:email" v="tove.erna.belland@stavanger.kommune.no" />
		<tag k="max_age" v="5" />
		<tag k="min_age" v="1" />
		<tag k="name" v="Jåttå barnehage" />
		<tag k="no-barnehage:nsrid" v="1014267" />
		<tag k="operator" v="Stavanger kommune" />
		<tag k="operator:type" v="public" />
		<tag k="start_date" v="2011-03-01" />
	</node>
	<node id="-3454" lat="58.95" lon="5.65397">
		<tag k="amenity" v="kindergarten" />
		<tag k="capacity" v="81" />
		<tag k="contact:email" v="cwallace@isstavanger.no" />
		<tag k="max_age" v="5" />
		<tag k="min_age" v="3" />
		<tag k="name" v="International School Of Stavanger Avd Barnehage" />
		<tag k="no-barnehage:nsrid" v="1016815" />
		<tag k="operator" v="International School Of Stavanger" />
		<tag k="operator:type" v="private" />
		<tag k="start_date" v="1989-01-01" />
	</node>
	<node id="-3453" lat="58.9673" lon="5.75492">
		<tag k="amenity" v="kindergarten" />
		<tag k="capacity" v="17" />
		<tag k="contact:email" v="elisabeth.helgesen@stavanger.kommune.no" />
		<tag k="contact:phone" v="+47 51 93 96 72" />
		<tag k="max_age" v="5" />
		<tag k="min_age" v="1" />
		<tag k="name" v="Innføringsbarnehagen Johannes Læringssenter" />
		<tag k="no-barnehage:nsrid" v="1012611" />
		<tag k="operator" v="Stavanger kommune" />
		<tag k="operator:type" v="public" />
		<tag k="start_date" v="1999-03-01" />
	</node>
	<node id="-3452" lat="58.955" lon="5.69936">
		<tag k="amenity" v="kindergarten" />
		<tag k="contact:email" v="barnehagen@imikirken.no" />
		<tag k="name" v="Imi Åpen barnehage" />
		<tag k="no-barnehage:nsrid" v="1013064" />
		<tag k="operator" v="Imi-Kirken" />
		<tag k="operator:type" v="private" />
		<tag k="start_date" v="2004-03-01" />
	</node>
	<node id="-3451" lat="58.95784" lon="5.699663">
		<tag k="amenity" v="kindergarten" />
		<tag k="capacity" v="53" />
		<tag k="contact:email" v="huskestua@barnehage.no" />
		<tag k="contact:phone" v="+47 51 53 83 60" />
		<tag k="max_age" v="5" />
		<tag k="min_age" v="1" />
		<tag k="name" v="Huskestua barnehage" />
		<tag k="no-barnehage:nsrid" v="1019919" />
		<tag k="operator" v="Huskestua barnehage" />
		<tag k="operator:type" v="private" />
		<tag k="start_date" v="1990-08-15" />
	</node>
	<node id="-3450" lat="58.9954" lon="5.72496">
		<tag k="amenity" v="kindergarten" />
		<tag k="capacity" v="55" />
		<tag k="contact:email" v="cathrine.eik.hjeltnes@stavanger.kommune.no" />
		<tag k="contact:phone" v="+47 51 54 75 19" />
		<tag k="max_age" v="5" />
		<tag k="min_age" v="1" />
		<tag k="name" v="Husebøstykket barnehage" />
		<tag k="no-barnehage:nsrid" v="1012923" />
		<tag k="operator" v="Stavanger kommune" />
		<tag k="operator:type" v="public" />
		<tag k="start_date" v="1989-01-01" />
	</node>
	<node id="-3449" lat="58.9509" lon="5.73816">
		<tag k="amenity" v="kindergarten" />
		<tag k="capacity" v="118" />
		<tag k="contact:email" v="bhavani.sivanesan@stavanger.kommune.no" />
		<tag k="contact:phone" v="+47 51 91 31 00" />
		<tag k="max_age" v="5" />
		<tag k="min_age" v="1" />
		<tag k="name" v="Hillevåg barnehage" />
		<tag k="no-barnehage:nsrid" v="1013769" />
		<tag k="operator" v="Stavanger kommune" />
		<tag k="operator:type" v="public" />
		<tag k="start_date" v="1989-01-02" />
	</node>
	<node id="-3448" lat="58.90101" lon="5.72118">
		<tag k="amenity" v="kindergarten" />
		<tag k="capacity" v="84" />
		<tag k="contact:email" v="dl.heddeveien@bhg.no" />
		<tag k="max_age" v="5" />
		<tag k="min_age" v="1" />
		<tag k="name" v="Heddeveien Fus barnehage AS" />
		<tag k="no-barnehage:nsrid" v="1021384" />
		<tag k="operator" v="Heddeveien Fus barnehage AS" />
		<tag k="operator:type" v="private" />
		<tag k="start_date" v="2006-01-04" />
	</node>
	<node id="-3447" lat="58.9357" lon="5.70393">
		<tag k="amenity" v="kindergarten" />
		<tag k="capacity" v="53" />
		<tag k="contact:email" v="elisabeth.aarthun-van.der.hagen@stavanger.kommune.no" />
		<tag k="max_age" v="5" />
		<tag k="min_age" v="1" />
		<tag k="name" v="Havhesten barnehage" />
		<tag k="no-barnehage:nsrid" v="1014792" />
		<tag k="operator" v="Stavanger kommune" />
		<tag k="operator:type" v="public" />
		<tag k="start_date" v="1993-08-01" />
	</node>
	<node id="-3446" lat="58.9726" lon="5.60771">
		<tag k="amenity" v="kindergarten" />
		<tag k="capacity" v="36" />
		<tag k="contact:email" v="reidun.herheim@stavanger.kommune.no" />
		<tag k="contact:phone" v="+47 51 59 52 84" />
		<tag k="max_age" v="5" />
		<tag k="min_age" v="1" />
		<tag k="name" v="Havglimt barnehage" />
		<tag k="no-barnehage:nsrid" v="1016071" />
		<tag k="operator" v="Stavanger kommune" />
		<tag k="operator:type" v="public" />
		<tag k="start_date" v="1977-12-08" />
	</node>
	<node id="-3445" lat="58.95195" lon="5.700806">
		<tag k="amenity" v="kindergarten" />
		<tag k="capacity" v="110" />
		<tag k="contact:email" v="hanne.aak@hanneslekestue.no" />
		<tag k="contact:phone" v="+47 51 55 28 98" />
		<tag k="max_age" v="5" />
		<tag k="min_age" v="1" />
		<tag k="name" v="Hannes Lekestue AS" />
		<tag k="no-barnehage:nsrid" v="1020515" />
		<tag k="operator" v="Hannes Lekestue AS" />
		<tag k="operator:type" v="private" />
		<tag k="start_date" v="1989-02-01" />
	</node>
	<node id="-3444" lat="58.9494" lon="5.70366">
		<tag k="amenity" v="kindergarten" />
		<tag k="capacity" v="17" />
		<tag k="contact:email" v="hakkebakkeskogen@barnehage.no" />
		<tag k="max_age" v="5" />
		<tag k="min_age" v="1" />
		<tag k="name" v="Hakkebakkeskogen Private barnehage AS Avd Tjensvoll" />
		<tag k="no-barnehage:nsrid" v="1016758" />
		<tag k="operator" v="Hakkebakkeskogen Private barnehage AS" />
		<tag k="operator:type" v="private" />
		<tag k="start_date" v="1977-12-02" />
	</node>
	<node id="-3443" lat="58.9641" lon="5.6905">
		<tag k="amenity" v="kindergarten" />
		<tag k="capacity" v="11" />
		<tag k="contact:email" v="hakkebakkeskogen@barnehage.no" />
		<tag k="contact:phone" v="+47 51 56 76 00" />
		<tag k="max_age" v="5" />
		<tag k="min_age" v="1" />
		<tag k="name" v="Hakkebakkeskogen Private barnehage AS Avd Stokka" />
		<tag k="no-barnehage:nsrid" v="1017096" />
		<tag k="operator" v="Hakkebakkeskogen Private barnehage AS" />
		<tag k="operator:type" v="private" />
		<tag k="start_date" v="2005-11-11" />
	</node>
	<node id="-3442" lat="58.9414" lon="5.69027">
		<tag k="amenity" v="kindergarten" />
		<tag k="capacity" v="62" />
		<tag k="contact:email" v="siri.minde@stavanger.kommune.no" />
		<tag k="contact:phone" v="+47 51 59 70 50" />
		<tag k="max_age" v="5" />
		<tag k="min_age" v="1" />
		<tag k="name" v="Gosen barnehage" />
		<tag k="no-barnehage:nsrid" v="1012918" />
		<tag k="operator" v="Stavanger kommune" />
		<tag k="operator:type" v="public" />
		<tag k="start_date" v="1976-01-01" />
	</node>
	<node id="-3441" lat="58.88973" lon="5.739434">
		<tag k="amenity" v="kindergarten" />
		<tag k="capacity" v="52" />
		<tag k="contact:email" v="geitastova@lyse.net" />
		<tag k="contact:phone" v="+47 51 57 02 99" />
		<tag k="contact:website" v="http://www.geitastova.no" />
		<tag k="max_age" v="5" />
		<tag k="min_age" v="1" />
		<tag k="name" v="Geitastova barnehage" />
		<tag k="no-barnehage:nsrid" v="1020219" />
		<tag k="operator" v="Geitastova barnehage Sa" />
		<tag k="operator:type" v="private" />
		<tag k="start_date" v="1995-12-31" />
	</node>
	<node id="-3440" lat="58.9023" lon="5.72035">
		<tag k="amenity" v="kindergarten" />
		<tag k="capacity" v="90" />
		<tag k="contact:email" v="helga.m.hansen@stavanger.kommune.no" />
		<tag k="max_age" v="5" />
		<tag k="min_age" v="1" />
		<tag k="name" v="Gautesete barnehage" />
		<tag k="no-barnehage:nsrid" v="1018599" />
		<tag k="operator" v="Stavanger kommune" />
		<tag k="operator:type" v="public" />
		<tag k="start_date" v="2009-04-01" />
	</node>
	<node id="-3439" lat="58.90448" lon="5.729622">
		<tag k="amenity" v="kindergarten" />
		<tag k="capacity" v="81" />
		<tag k="contact:email" v="styrer@gauselbakken.no" />
		<tag k="contact:phone" v="+47 51 95 68 90" />
		<tag k="contact:website" v="http://gauselbakken.no" />
		<tag k="max_age" v="5" />
		<tag k="min_age" v="1" />
		<tag k="name" v="Gauselbakken barnehage Sa" />
		<tag k="no-barnehage:nsrid" v="1021006" />
		<tag k="operator" v="Gauselbakken barnehage Sa" />
		<tag k="operator:type" v="private" />
		<tag k="start_date" v="2003-12-01" />
	</node>
	<node id="-3438" lat="58.89914" lon="5.743444">
		<tag k="amenity" v="kindergarten" />
		<tag k="capacity" v="82" />
		<tag k="contact:email" v="kontor@froystad-barnehage.no" />
		<tag k="contact:phone" v="+47 92 45 38 33" />
		<tag k="max_age" v="5" />
		<tag k="min_age" v="1" />
		<tag k="name" v="Frøystad barnehage Sa" />
		<tag k="no-barnehage:nsrid" v="1020280" />
		<tag k="operator" v="Frøystad barnehage Sa" />
		<tag k="operator:type" v="private" />
		<tag k="start_date" v="1996-08-31" />
	</node>
	<node id="-3437" lat="58.9397" lon="5.72634">
		<tag k="amenity" v="kindergarten" />
		<tag k="capacity" v="68" />
		<tag k="contact:email" v="arne.maland@frelsesarmeen.no" />
		<tag k="max_age" v="5" />
		<tag k="min_age" v="1" />
		<tag k="name" v="Frelsesarmeens Barnehager Avd Auglendsdalen" />
		<tag k="no-barnehage:nsrid" v="1018385" />
		<tag k="operator" v="Frelsesarmeen" />
		<tag k="operator:type" v="private" />
		<tag k="start_date" v="2008-08-01" />
	</node>
	<node id="-3436" lat="58.9007" lon="5.70328">
		<tag k="amenity" v="kindergarten" />
		<tag k="contact:email" v="anneilin@kristentjeneste.no" />
		<tag k="name" v="Forus Åpne barnehage" />
		<tag k="no-barnehage:nsrid" v="1016495" />
		<tag k="operator" v="Stiftelsen Kristen Tjeneste" />
		<tag k="operator:type" v="private" />
		<tag k="start_date" v="1998-01-01" />
	</node>
	<node id="-3435" lat="58.90163" lon="5.700697">
		<tag k="amenity" v="kindergarten" />
		<tag k="capacity" v="122" />
		<tag k="contact:email" v="mail@forusprivatebarnehage.no" />
		<tag k="contact:phone" v="+47 51 63 64 65" />
		<tag k="contact:website" v="http://forusprivate.barnehage.no" />
		<tag k="max_age" v="5" />
		<tag k="min_age" v="1" />
		<tag k="name" v="Forus Private barnehage AS" />
		<tag k="no-barnehage:nsrid" v="1020190" />
		<tag k="operator" v="Forus Private barnehage AS" />
		<tag k="operator:type" v="private" />
		<tag k="start_date" v="1995-05-26" />
	</node>
	<node id="-3434" lat="58.962" lon="5.76099">
		<tag k="amenity" v="kindergarten" />
		<tag k="capacity" v="159" />
		<tag k="contact:email" v="atle.pedersen@stavanger.kommune.no" />
		<tag k="contact:phone" v="+47 51 56 33 72" />
		<tag k="max_age" v="5" />
		<tag k="min_age" v="1" />
		<tag k="name" v="Emmaus barnehage" />
		<tag k="no-barnehage:nsrid" v="1015555" />
		<tag k="operator" v="Stavanger kommune" />
		<tag k="operator:type" v="public" />
		<tag k="start_date" v="1982-01-01" />
	</node>
	<node id="-3433" lat="58.96392" lon="5.710714">
		<tag k="amenity" v="kindergarten" />
		<tag k="capacity" v="81" />
		<tag k="contact:email" v="styrer@egenesidrettsbarnehage.no" />
		<tag k="max_age" v="5" />
		<tag k="min_age" v="1" />
		<tag k="name" v="Egenes Idrettsbarnehage AS" />
		<tag k="no-barnehage:nsrid" v="1021598" />
		<tag k="operator" v="Egenes Idrettsbarnehage AS" />
		<tag k="operator:type" v="private" />
		<tag k="start_date" v="2007-02-23" />
	</node>
	<node id="-3432" lat="58.99284" lon="5.676922">
		<tag k="amenity" v="kindergarten" />
		<tag k="capacity" v="57" />
		<tag k="contact:email" v="post@dusavik-barnehage.no" />
		<tag k="contact:phone" v="+47 51 54 39 00" />
		<tag k="contact:website" v="http://dusavik.barnehage.no/" />
		<tag k="max_age" v="5" />
		<tag k="min_age" v="1" />
		<tag k="name" v="Dusavik barnehage Sa" />
		<tag k="no-barnehage:nsrid" v="1020585" />
		<tag k="operator" v="Dusavik barnehage Sa" />
		<tag k="operator:type" v="private" />
		<tag k="start_date" v="1990-01-01" />
	</node>
	<node id="-3431" lat="58.89967" lon="5.732702">
		<tag k="amenity" v="kindergarten" />
		<tag k="capacity" v="92" />
		<tag k="contact:email" v="linda@dronningaasen-barnehage.no" />
		<tag k="contact:phone" v="+47 51 95 04 40" />
		<tag k="max_age" v="5" />
		<tag k="min_age" v="1" />
		<tag k="name" v="Dronningåsen barnehage" />
		<tag k="no-barnehage:nsrid" v="1020557" />
		<tag k="operator" v="Dronningåsen barnehage Sa" />
		<tag k="operator:type" v="private" />
		<tag k="start_date" v="1999-08-31" />
	</node>
	<node id="-3430" lat="58.99234" lon="5.747698">
		<tag k="amenity" v="kindergarten" />
		<tag k="capacity" v="83" />
		<tag k="contact:email" v="post@dragaberget-barnehage.no" />
		<tag k="contact:phone" v="+47 51 86 36 18" />
		<tag k="contact:website" v="http://dragaberget-barnehage-sa8.webnode.com" />
		<tag k="max_age" v="5" />
		<tag k="min_age" v="1" />
		<tag k="name" v="Dragaberget barnehage Sa" />
		<tag k="no-barnehage:nsrid" v="1020559" />
		<tag k="operator" v="Dragaberget barnehage Sa" />
		<tag k="operator:type" v="private" />
		<tag k="start_date" v="1999-08-31" />
	</node>
	<node id="-3429" lat="58.8962" lon="5.72101">
		<tag k="amenity" v="kindergarten" />
		<tag k="capacity" v="53" />
		<tag k="contact:email" v="cathrine.monsen.bjornstad@stavanger.kommune.no" />
		<tag k="contact:phone" v="+47 51 57 66 64" />
		<tag k="max_age" v="5" />
		<tag k="min_age" v="1" />
		<tag k="name" v="Djupamyrå barnehage" />
		<tag k="no-barnehage:nsrid" v="1012901" />
		<tag k="operator" v="Stavanger kommune" />
		<tag k="operator:type" v="public" />
		<tag k="start_date" v="1989-01-01" />
	</node>
	<node id="-3428" lat="58.91485" lon="5.724896">
		<tag k="amenity" v="kindergarten" />
		<tag k="capacity" v="21" />
		<tag k="contact:email" v="nta@nthp.net" />
		<tag k="contact:phone" v="+47 51 88 12 80" />
		<tag k="max_age" v="5" />
		<tag k="min_age" v="1" />
		<tag k="name" v="Delfinen barnehage AS" />
		<tag k="no-barnehage:nsrid" v="1021295" />
		<tag k="operator" v="Delfinen barnehage AS" />
		<tag k="operator:type" v="private" />
		<tag k="start_date" v="2005-09-01" />
	</node>
	<node id="-3427" lat="58.9438" lon="5.743324">
		<tag k="amenity" v="kindergarten" />
		<tag k="contact:email" v="post@dansehagen.com" />
		<tag k="name" v="Dansehagen Åpen barnehage AS" />
		<tag k="no-barnehage:nsrid" v="1020977" />
		<tag k="operator" v="Dansehagen Åpen barnehage AS" />
		<tag k="operator:type" v="private" />
		<tag k="start_date" v="2009-01-01" />
	</node>
	<node id="-3426" lat="58.99592" lon="5.748446">
		<tag k="amenity" v="kindergarten" />
		<tag k="capacity" v="86" />
		<tag k="contact:email" v="styrer@boeresvingen.no" />
		<tag k="contact:phone" v="+47 51 86 33 90" />
		<tag k="max_age" v="5" />
		<tag k="min_age" v="1" />
		<tag k="name" v="Børesvingen barnehage" />
		<tag k="no-barnehage:nsrid" v="1020865" />
		<tag k="operator" v="Børesvingen barnehage Sa" />
		<tag k="operator:type" v="private" />
		<tag k="start_date" v="2002-11-26" />
	</node>
	<node id="-3425" lat="58.97427" lon="5.697577">
		<tag k="amenity" v="kindergarten" />
		<tag k="capacity" v="78" />
		<tag k="contact:email" v="post@byhaugen-barnehage.no" />
		<tag k="contact:phone" v="+47 51 56 66 11" />
		<tag k="contact:website" v="http://www.byhaugen-barnehage.no" />
		<tag k="max_age" v="5" />
		<tag k="min_age" v="1" />
		<tag k="name" v="Byhaugen barnehage Sa" />
		<tag k="no-barnehage:nsrid" v="1019942" />
		<tag k="operator" v="Byhaugen barnehage Sa" />
		<tag k="operator:type" v="private" />
		<tag k="start_date" v="1990-01-01" />
	</node>
	<node id="-3424" lat="58.9543" lon="5.63798">
		<tag k="amenity" v="kindergarten" />
		<tag k="capacity" v="105" />
		<tag k="contact:email" v="nina.lande.espevik@stavanger.kommune.no" />
		<tag k="max_age" v="5" />
		<tag k="min_age" v="1" />
		<tag k="name" v="Bråde barnehage" />
		<tag k="no-barnehage:nsrid" v="1018536" />
		<tag k="operator" v="Stavanger kommune" />
		<tag k="operator:type" v="public" />
		<tag k="start_date" v="2009-01-01" />
	</node>
	<node id="-3423" lat="58.9593" lon="5.72096">
		<tag k="amenity" v="kindergarten" />
		<tag k="capacity" v="71" />
		<tag k="contact:email" v="grete.lill.johnsen.sannum@stavanger.kommune.no" />
		<tag k="contact:phone" v="+47 51 52 44 87" />
		<tag k="max_age" v="5" />
		<tag k="min_age" v="1" />
		<tag k="name" v="Bokkaskogen barnehage" />
		<tag k="no-barnehage:nsrid" v="1016173" />
		<tag k="operator" v="Stavanger kommune" />
		<tag k="operator:type" v="public" />
		<tag k="start_date" v="1965-12-31" />
	</node>
	<node id="-3422" lat="58.91097" lon="5.72895">
		<tag k="amenity" v="kindergarten" />
		<tag k="capacity" v="71" />
		<tag k="contact:email" v="anne.lise@boganesbarnehage.no" />
		<tag k="contact:phone" v="+47 51 44 48 40" />
		<tag k="contact:website" v="http://www.boganesbarnehage.no" />
		<tag k="max_age" v="5" />
		<tag k="min_age" v="1" />
		<tag k="name" v="Boganes barnehage" />
		<tag k="no-barnehage:nsrid" v="1020165" />
		<tag k="operator" v="Boganes barnehage Sa" />
		<tag k="operator:type" v="private" />
		<tag k="start_date" v="1993-08-01" />
	</node>
	<node id="-3421" lat="58.975" lon="5.71852">
		<tag k="amenity" v="kindergarten" />
		<tag k="capacity" v="131" />
		<tag k="contact:email" v="bjergsted.barnehage@stavanger.kommune.no" />
		<tag k="max_age" v="5" />
		<tag k="min_age" v="1" />
		<tag k="name" v="Bjergsted barnehage" />
		<tag k="no-barnehage:nsrid" v="1016756" />
		<tag k="operator" v="Stavanger kommune" />
		<tag k="operator:type" v="public" />
		<tag k="start_date" v="1965-12-31" />
	</node>
	<node id="-3420" lat="58.96306" lon="5.750679">
		<tag k="amenity" v="kindergarten" />
		<tag k="capacity" v="36" />
		<tag k="contact:email" v="post@ireneueland.no" />
		<tag k="contact:phone" v="+47 51 56 23 21" />
		<tag k="max_age" v="5" />
		<tag k="min_age" v="1" />
		<tag k="name" v="Biå Steinerbarnehage AS" />
		<tag k="no-barnehage:nsrid" v="1020921" />
		<tag k="operator" v="Biå Steinerbarnehage AS" />
		<tag k="operator:type" v="private" />
		<tag k="start_date" v="2003-06-10" />
	</node>
	<node id="-3419" lat="58.9507" lon="5.72926">
		<tag k="amenity" v="kindergarten" />
		<tag k="capacity" v="262" />
		<tag k="contact:email" v="torhild.enoksen@stavanger.kommune.no" />
		<tag k="contact:phone" v="+47 51 91 37 06" />
		<tag k="max_age" v="5" />
		<tag k="min_age" v="1" />
		<tag k="name" v="Bekketunet barnehage" />
		<tag k="no-barnehage:nsrid" v="1014723" />
		<tag k="operator" v="Stavanger kommune" />
		<tag k="operator:type" v="public" />
		<tag k="start_date" v="1992-01-01" />
	</node>
	<node id="-3418" lat="58.9486" lon="5.69493">
		<tag k="amenity" v="kindergarten" />
		<tag k="capacity" v="60" />
		<tag k="contact:email" v="bente.torjusen@stavanger.kommune.no" />
		<tag k="contact:phone" v="+47 51 55 68 17" />
		<tag k="max_age" v="5" />
		<tag k="min_age" v="1" />
		<tag k="name" v="Barnehagen Tjensvoll Avdeling Tjensås" />
		<tag k="no-barnehage:nsrid" v="1025375" />
		<tag k="operator" v="Stavanger kommune" />
		<tag k="operator:type" v="public" />
		<tag k="start_date" v="1976-01-01" />
	</node>
	<node id="-3417" lat="58.9515" lon="5.69093">
		<tag k="amenity" v="kindergarten" />
		<tag k="capacity" v="27" />
		<tag k="contact:email" v="bente.torjusen@stavanger.kommune.no" />
		<tag k="contact:phone" v="+47 51 55 71 24" />
		<tag k="max_age" v="5" />
		<tag k="min_age" v="1" />
		<tag k="name" v="Barnehagen Tjensvoll Avdeling Tjensvoll" />
		<tag k="no-barnehage:nsrid" v="1016078" />
		<tag k="operator" v="Stavanger kommune" />
		<tag k="operator:type" v="public" />
		<tag k="start_date" v="1976-01-01" />
	</node>
	<node id="-3416" lat="58.9772" lon="5.69618">
		<tag k="amenity" v="kindergarten" />
		<tag k="capacity" v="66" />
		<tag k="contact:email" v="gro.ytre-arne@stavanger.kommune.no" />
		<tag k="contact:phone" v="+47 51 53 82 50" />
		<tag k="max_age" v="5" />
		<tag k="min_age" v="1" />
		<tag k="name" v="Barnehagen Tasta" />
		<tag k="no-barnehage:nsrid" v="1015529" />
		<tag k="operator" v="Stavanger kommune" />
		<tag k="operator:type" v="public" />
		<tag k="start_date" v="1977-10-10" />
	</node>
	<node id="-3415" lat="58.94279" lon="5.681243">
		<tag k="amenity" v="kindergarten" />
		<tag k="capacity" v="24" />
		<tag k="contact:email" v="Inger.kristin.bakken@stavanger.kommune.no" />
		<tag k="contact:phone" v="+47 51 59 93 57" />
		<tag k="max_age" v="5" />
		<tag k="min_age" v="1" />
		<tag k="name" v="Barnehagen Himmelblå" />
		<tag k="no-barnehage:nsrid" v="1020414" />
		<tag k="operator" v="Madlamark Sokn" />
		<tag k="operator:type" v="private" />
		<tag k="start_date" v="1997-01-27" />
	</node>
	<node id="-3414" lat="58.9506" lon="5.72245">
		<tag k="amenity" v="kindergarten" />
		<tag k="capacity" v="63" />
		<tag k="contact:email" v="kirsten.klungtveit@stavanger.kommune.no" />
		<tag k="max_age" v="5" />
		<tag k="min_age" v="1" />
		<tag k="name" v="Barnas Hus barnehage" />
		<tag k="no-barnehage:nsrid" v="1016757" />
		<tag k="operator" v="Stavanger kommune" />
		<tag k="operator:type" v="public" />
		<tag k="start_date" v="1977-09-15" />
	</node>
	<node id="-3413" lat="58.8984" lon="5.72607">
		<tag k="amenity" v="kindergarten" />
		<tag k="capacity" v="55" />
		<tag k="contact:email" v="rita.maribu@stavanger.kommune.no" />
		<tag k="contact:phone" v="+47 906 19 645" />
		<tag k="max_age" v="5" />
		<tag k="min_age" v="1" />
		<tag k="name" v="Bamsefaret barnehage" />
		<tag k="no-barnehage:nsrid" v="1012919" />
		<tag k="operator" v="Stavanger kommune" />
		<tag k="operator:type" v="public" />
		<tag k="start_date" v="1989-01-01" />
	</node>
	<node id="-3412" lat="58.99075" lon="5.674184">
		<tag k="amenity" v="kindergarten" />
		<tag k="capacity" v="61" />
		<tag k="contact:email" v="post@bamsebu.no" />
		<tag k="contact:phone" v="+47 51 54 33 50" />
		<tag k="contact:website" v="http://www.bamsebu.no" />
		<tag k="max_age" v="5" />
		<tag k="min_age" v="1" />
		<tag k="name" v="Bamsebu barnehage Sa" />
		<tag k="no-barnehage:nsrid" v="1020126" />
		<tag k="operator" v="Bamsebu barnehage Sa" />
		<tag k="operator:type" v="private" />
		<tag k="start_date" v="1993-12-20" />
	</node>
	<node id="-3411" lat="59.0392" lon="5.75504">
		<tag k="amenity" v="kindergarten" />
		<tag k="capacity" v="16" />
		<tag k="contact:email" v="gro.ytre-arne@stavanger.kommune.no" />
		<tag k="contact:phone" v="+47 51 91 32 30" />
		<tag k="max_age" v="5" />
		<tag k="min_age" v="1" />
		<tag k="name" v="Austre Åmøy barnehage" />
		<tag k="no-barnehage:nsrid" v="1016079" />
		<tag k="operator" v="Stavanger kommune" />
		<tag k="operator:type" v="public" />
		<tag k="start_date" v="1989-01-01" />
	</node>
	<node id="-3410" lat="58.9463" lon="5.7289">
		<tag k="amenity" v="kindergarten" />
		<tag k="capacity" v="125" />
		<tag k="contact:email" v="bsjothun@stavanger.kommune.no" />
		<tag k="contact:phone" v="+47 51 90 56 17" />
		<tag k="max_age" v="5" />
		<tag k="min_age" v="1" />
		<tag k="name" v="Auglend barnehage Barnehage for Hørselshemmede" />
		<tag k="no-barnehage:nsrid" v="1025332" />
		<tag k="operator" v="Stavanger kommune" />
		<tag k="operator:type" v="public" />
		<tag k="start_date" v="1990-01-01" />
	</node>
	<node id="-3409" lat="58.9608" lon="5.61559">
		<tag k="amenity" v="kindergarten" />
		<tag k="capacity" v="55" />
		<tag k="contact:email" v="gerd.tofteland@stavanger.kommune.no" />
		<tag k="contact:phone" v="+47 51 59 17 84" />
		<tag k="max_age" v="5" />
		<tag k="min_age" v="1" />
		<tag k="name" v="Aubeberget barnehage Avdeling Skredbakka" />
		<tag k="no-barnehage:nsrid" v="1012900" />
		<tag k="operator" v="Stavanger kommune" />
		<tag k="operator:type" v="public" />
		<tag k="start_date" v="1989-01-01" />
	</node>
	<node id="-3408" lat="58.9602" lon="5.62435">
		<tag k="amenity" v="kindergarten" />
		<tag k="capacity" v="39" />
		<tag k="contact:email" v="gerd.tofteland@stavanger.kommune.no" />
		<tag k="contact:phone" v="+47 51 59 16 18" />
		<tag k="max_age" v="5" />
		<tag k="min_age" v="1" />
		<tag k="name" v="Aubeberget barnehage Avdeling Malthaug" />
		<tag k="no-barnehage:nsrid" v="1012904" />
		<tag k="operator" v="Stavanger kommune" />
		<tag k="operator:type" v="public" />
		<tag k="start_date" v="1989-01-01" />
	</node>
</osm>
