<?xml version="1.0" encoding="UTF-8"?>
<osm generator="osmapis" version="0.6">
	<node id="-3455" lat="58.92132" lon="5.710562">
		<tag k="amenity" v="kindergarten" />
		<tag k="capacity" v="10" />
		<tag k="contact:email" v="heidi@it-forlaget.no" />
		<tag k="max_age" v="5" />
		<tag k="min_age" v="1" />
		<tag k="name" v="Knøttene Familiebarnehage" />
		<tag k="no-barnehage:nsrid" v="1020423" />
		<tag k="operator" v="Knøttene Familiebarnehage Ans" />
		<tag k="operator:type" v="private" />
		<tag k="start_date" v="2009-01-01" />
	</node>
	<node id="-3469" lat="59.00307" lon="5.724843">
		<tag k="amenity" v="kindergarten" />
		<tag k="capacity" v="5" />
		<tag k="contact:email" v="bodil.ekrheim@lyse.net" />
		<tag k="max_age" v="5" />
		<tag k="min_age" v="1" />
		<tag k="name" v="Marihøna Private Familiebarnehage" />
		<tag k="no-barnehage:nsrid" v="1021122" />
		<tag k="operator" v="Marihøna Private Familiebarnehage Bodil Ekrheim" />
		<tag k="operator:type" v="private" />
		<tag k="start_date" v="2009-01-01" />
	</node>
	<node id="-3507" lat="58.92547" lon="5.719192">
		<tag k="amenity" v="kindergarten" />
		<tag k="capacity" v="9" />
		<tag k="contact:email" v="heidi@it-forlaget.no" />
		<tag k="contact:phone" v="+47 51 88 49 55" />
		<tag k="max_age" v="5" />
		<tag k="min_age" v="1" />
		<tag k="name" v="Sørmarka Private Familibarnehage" />
		<tag k="no-barnehage:nsrid" v="1021334" />
		<tag k="operator" v="Sørmarka Familiebarnhage Heidi Kvelland" />
		<tag k="operator:type" v="private" />
		<tag k="start_date" v="2005-11-04" />
	</node>
	<node id="-3466" lat="58.96406" lon="5.760506">
		<tag k="amenity" v="kindergarten" />
		<tag k="capacity" v="9" />
		<tag k="contact:email" v="ronny.pettersen@getmail.no" />
		<tag k="contact:phone" v="+47 51 52 42 94" />
		<tag k="max_age" v="5" />
		<tag k="min_age" v="1" />
		<tag k="name" v="Lilleputt Private Familiebarnehage Marianne Pettersen" />
		<tag k="no-barnehage:nsrid" v="1021035" />
		<tag k="operator" v="Lilleputt Private Familiebarnehage Marianne Pettersen" />
		<tag k="operator:type" v="private" />
		<tag k="start_date" v="2004-08-01" />
	</node>
	<node id="-3511" lat="59.00392" lon="5.733353">
		<tag k="amenity" v="kindergarten" />
		<tag k="capacity" v="5" />
		<tag k="contact:email" v="ingrid.runestad@lyse.net" />
		<tag k="max_age" v="5" />
		<tag k="min_age" v="1" />
		<tag k="name" v="Tordenskjold Private Familiebarneha" />
		<tag k="no-barnehage:nsrid" v="1021092" />
		<tag k="operator" v="Tordenskjold Familiebarnehage Ingrid Runestad" />
		<tag k="operator:type" v="private" />
		<tag k="start_date" v="2009-01-01" />
	</node>
</osm>
