<?xml version="1.0" encoding="UTF-8"?>
<osm generator="osmapis" version="0.6">
	<node id="-5640" lat="65.08688" lon="12.36738">
		<tag k="ADDRESS" v="Rørgata 6, 7980 TERRÅK" />
		<tag k="amenity" v="kindergarten" />
		<tag k="capacity" v="30" />
		<tag k="max_age" v="5" />
		<tag k="min_age" v="1" />
		<tag k="name" v="Terråk barnehage" />
		<tag k="no-barnehage:nsrid" v="1025407" />
		<tag k="operator" v="Bindal kommune" />
		<tag k="operator:type" v="public" />
	</node>
	<node id="-5639" lat="65.10463" lon="11.99829">
		<tag k="ADDRESS" v="Horsfjordveien 516, 7982 BINDALSEIDET" />
		<tag k="amenity" v="kindergarten" />
		<tag k="capacity" v="5" />
		<tag k="max_age" v="5" />
		<tag k="min_age" v="1" />
		<tag k="name" v="Kjella barnehage" />
		<tag k="no-barnehage:nsrid" v="1013651" />
		<tag k="operator" v="Bindal kommune" />
		<tag k="operator:type" v="public" />
	</node>
	<node id="-5638" lat="65.12759" lon="12.23126">
		<tag k="ADDRESS" v="Parkveien 4, 7982 BINDALSEIDET" />
		<tag k="amenity" v="kindergarten" />
		<tag k="capacity" v="22" />
		<tag k="max_age" v="5" />
		<tag k="min_age" v="1" />
		<tag k="name" v="Bindalseidet barnehage" />
		<tag k="no-barnehage:nsrid" v="1016126" />
		<tag k="operator" v="Bindal kommune" />
		<tag k="operator:type" v="public" />
	</node>
</osm>
