<?xml version="1.0" encoding="UTF-8"?>
<osm generator="osmapis" version="0.6">
	<node id="-5376" lat="65.0869" lon="12.3676">
		<tag k="amenity" v="kindergarten" />
		<tag k="capacity" v="35" />
		<tag k="contact:email" v="else.marie.busch@bindal.kommune.no" />
		<tag k="contact:phone" v="+47 75032541" />
		<tag k="max_age" v="5" />
		<tag k="min_age" v="1" />
		<tag k="name" v="TerrÃ¥k barnehage" />
		<tag k="no-barnehage:nsrid" v="1025407" />
		<tag k="operator" v="Bindal kommune" />
		<tag k="operator:type" v="public" />
		<tag k="start_date" v="1976-12-24" />
	</node>
	<node id="-5375" lat="65.1019" lon="11.9892">
		<tag k="amenity" v="kindergarten" />
		<tag k="capacity" v="8" />
		<tag k="contact:email" v="else.marie.busch@bindal.kommune.no" />
		<tag k="contact:phone" v="+47 75031729" />
		<tag k="max_age" v="5" />
		<tag k="min_age" v="1" />
		<tag k="name" v="Kjella barnehage" />
		<tag k="no-barnehage:nsrid" v="1013651" />
		<tag k="operator" v="Bindal kommune" />
		<tag k="operator:type" v="public" />
		<tag k="start_date" v="1989-01-01" />
	</node>
	<node id="-5374" lat="65.1276" lon="12.2313">
		<tag k="amenity" v="kindergarten" />
		<tag k="capacity" v="18" />
		<tag k="contact:email" v="else.marie.busch@bindal.kommune.no" />
		<tag k="contact:phone" v="+47 75031319" />
		<tag k="max_age" v="5" />
		<tag k="min_age" v="1" />
		<tag k="name" v="Bindalseidet barnehage" />
		<tag k="no-barnehage:nsrid" v="1016126" />
		<tag k="operator" v="Bindal kommune" />
		<tag k="operator:type" v="public" />
		<tag k="start_date" v="1989-01-01" />
	</node>
</osm>
