<?xml version="1.0" encoding="UTF-8"?>
<osm version="0.6" generator="osmapis">
	<node lat="0.0" lon="0.0" id="-3193">
		<tag k="ADDRESS" v="Skreddarstuguvegen, 2642 KVAM" />
		<tag k="amenity" v="kindergarten" />
		<tag k="capacity" v="42" />
		<tag k="max_age" v="5" />
		<tag k="min_age" v="1" />
		<tag k="name" v="Kvam barnehage Åa" />
		<tag k="no-barnehage:nsrid" v="975323390" />
		<tag k="operator" v="Nord-Fron kommune" />
		<tag k="operator:type" v="public" />
	</node>
	<node lat="0.0" lon="0.0" id="-3194">
		<tag k="ADDRESS" v="Ruste, 2640 VINSTRA" />
		<tag k="amenity" v="kindergarten" />
		<tag k="capacity" v="78" />
		<tag k="max_age" v="5" />
		<tag k="min_age" v="1" />
		<tag k="name" v="Ruste barnehage" />
		<tag k="no-barnehage:nsrid" v="975321193" />
		<tag k="operator" v="Nord-Fron kommune" />
		<tag k="operator:type" v="public" />
	</node>
	<node lat="61.59828" lon="9.74281" id="-3195">
		<tag k="ADDRESS" v="Nedregata 72, 2640 VINSTRA" />
		<tag k="amenity" v="kindergarten" />
		<tag k="capacity" v="21" />
		<tag k="max_age" v="2" />
		<tag k="min_age" v="1" />
		<tag k="name" v="Sentrum barnehage" />
		<tag k="no-barnehage:nsrid" v="913874188" />
		<tag k="operator" v="Sentrum barnehage AS" />
		<tag k="operator:type" v="private" />
	</node>
	<node lat="0.0" lon="0.0" id="-3196">
		<tag k="ADDRESS" v=", 2643 SKÅBU" />
		<tag k="amenity" v="kindergarten" />
		<tag k="capacity" v="18" />
		<tag k="max_age" v="5" />
		<tag k="min_age" v="1" />
		<tag k="name" v="Skåbu oppvekstsenter avd. barnehage" />
		<tag k="no-barnehage:nsrid" v="975314529" />
		<tag k="operator" v="Nord-Fron kommune" />
		<tag k="operator:type" v="public" />
	</node>
	<node lat="61.59069" lon="9.7672" id="-3198">
		<tag k="ADDRESS" v="Kapellvegen 3, 2640 VINSTRA" />
		<tag k="amenity" v="kindergarten" />
		<tag k="capacity" v="40" />
		<tag k="max_age" v="5" />
		<tag k="min_age" v="1" />
		<tag k="name" v="Toksebakken barnehage" />
		<tag k="no-barnehage:nsrid" v="975303411" />
		<tag k="operator" v="Nord-Fron kommune" />
		<tag k="operator:type" v="public" />
	</node>
	<node lat="61.60234" lon="9.71914" id="-3199">
		<tag k="ADDRESS" v="Rådyrvegen 17, 2640 VINSTRA" />
		<tag k="amenity" v="kindergarten" />
		<tag k="capacity" v="32" />
		<tag k="max_age" v="5" />
		<tag k="min_age" v="1" />
		<tag k="name" v="Vestsida kulturbarnehage" />
		<tag k="no-barnehage:nsrid" v="992258462" />
		<tag k="operator" v="Vestsida kulturbarnehage Brubak" />
		<tag k="operator:type" v="private" />
	</node>
</osm>
