<?xml version="1.0" encoding="UTF-8"?>
<osm generator="osmapis" version="0.6">
	<node id="-608" lat="59.72968" lon="11.05627">
		<tag k="amenity" v="kindergarten" />
		<tag k="capacity" v="57" />
		<tag k="max_age" v="5" />
		<tag k="min_age" v="1" />
		<tag k="name" v="Østmarkskollen FUS barnehage" />
		<tag k="no-barnehage:nsrid" v="1021197" />
		<tag k="operator" v="Østmarkskollen Fus barnehage AS" />
		<tag k="operator:type" v="private" />
	</node>
	<node id="-607" lat="59.7308" lon="11.0387">
		<tag k="amenity" v="kindergarten" />
		<tag k="capacity" v="82" />
		<tag k="max_age" v="5" />
		<tag k="min_age" v="1" />
		<tag k="name" v="Ytre Enebakk barnehage" />
		<tag k="no-barnehage:nsrid" v="1017533" />
		<tag k="operator" v="Enebakk kommune" />
		<tag k="operator:type" v="public" />
	</node>
	<node id="-606" lat="59.73778" lon="11.02547">
		<tag k="amenity" v="kindergarten" />
		<tag k="capacity" v="77" />
		<tag k="max_age" v="5" />
		<tag k="min_age" v="1" />
		<tag k="name" v="Nylende barnehage" />
		<tag k="no-barnehage:nsrid" v="1020168" />
		<tag k="operator" v="Nylende barnehage Sa" />
		<tag k="operator:type" v="private" />
	</node>
	<node id="-605" lat="59.7655" lon="11.1491">
		<tag k="amenity" v="kindergarten" />
		<tag k="capacity" v="27" />
		<tag k="max_age" v="5" />
		<tag k="min_age" v="1" />
		<tag k="name" v="NLM barnehagene avd. Emaus barnehage" />
		<tag k="no-barnehage:nsrid" v="1016180" />
		<tag k="operator" v="Nlm-Barnehagene AS" />
		<tag k="operator:type" v="private" />
	</node>
	<node id="-604" lat="59.72367" lon="11.06031">
		<tag k="amenity" v="kindergarten" />
		<tag k="capacity" v="53" />
		<tag k="max_age" v="5" />
		<tag k="min_age" v="1" />
		<tag k="name" v="Mjær FUS barnehage" />
		<tag k="no-barnehage:nsrid" v="1021739" />
		<tag k="operator" v="Mjær Fus barnehage AS" />
		<tag k="operator:type" v="private" />
	</node>
	<node id="-603" lat="59.72102" lon="11.05265">
		<tag k="amenity" v="kindergarten" />
		<tag k="capacity" v="15" />
		<tag k="max_age" v="5" />
		<tag k="min_age" v="1" />
		<tag k="name" v="Mari andelsbarnehage" />
		<tag k="no-barnehage:nsrid" v="1020919" />
		<tag k="operator" v="Mari Andelsbarnehage Sa" />
		<tag k="operator:type" v="private" />
	</node>
	<node id="-602" lat="59.7645" lon="11.1535">
		<tag k="amenity" v="kindergarten" />
		<tag k="capacity" v="52" />
		<tag k="max_age" v="5" />
		<tag k="min_age" v="1" />
		<tag k="name" v="Kirkebygden barnehage" />
		<tag k="no-barnehage:nsrid" v="1013799" />
		<tag k="operator" v="Enebakk kommune" />
		<tag k="operator:type" v="public" />
	</node>
	<node id="-601" lat="59.83343" lon="11.13724">
		<tag k="amenity" v="kindergarten" />
		<tag k="capacity" v="60" />
		<tag k="contact:website" v="http://www.hauglia.barnehage.no" />
		<tag k="max_age" v="5" />
		<tag k="min_age" v="1" />
		<tag k="name" v="Hauglia barnehage" />
		<tag k="no-barnehage:nsrid" v="1020434" />
		<tag k="operator" v="Hauglia barnehage Sa" />
		<tag k="operator:type" v="private" />
	</node>
	<node id="-600" lat="59.8361" lon="11.1439">
		<tag k="amenity" v="kindergarten" />
		<tag k="capacity" v="77" />
		<tag k="max_age" v="5" />
		<tag k="min_age" v="1" />
		<tag k="name" v="Flateby barnehage" />
		<tag k="no-barnehage:nsrid" v="1017359" />
		<tag k="operator" v="Enebakk kommune" />
		<tag k="operator:type" v="public" />
	</node>
	<node id="-599" lat="59.73099" lon="11.03787">
		<tag k="amenity" v="kindergarten" />
		<tag k="capacity" v="15" />
		<tag k="max_age" v="5" />
		<tag k="min_age" v="1" />
		<tag k="name" v="Fjellknatten barnehage" />
		<tag k="no-barnehage:nsrid" v="1019862" />
		<tag k="operator" v="Ytre Enebakk Kvinne- og Familieforbund" />
		<tag k="operator:type" v="private" />
	</node>
	<node id="-598" lat="59.83582" lon="11.12933">
		<tag k="amenity" v="kindergarten" />
		<tag k="capacity" v="53" />
		<tag k="max_age" v="5" />
		<tag k="min_age" v="1" />
		<tag k="name" v="Bergskaug FUS barnehage" />
		<tag k="no-barnehage:nsrid" v="1021198" />
		<tag k="operator" v="Bergskaug Fus barnehage AS" />
		<tag k="operator:type" v="private" />
	</node>
</osm>
