<?xml version="1.0" encoding="UTF-8"?>
<osm generator="osmapis" version="0.6">
	<node id="-785" lat="59.72968" lon="11.05627">
		<tag k="amenity" v="kindergarten" />
		<tag k="capacity" v="51" />
		<tag k="contact:email" v="dl.ostmarkskollen@bhg.no" />
		<tag k="max_age" v="5" />
		<tag k="min_age" v="1" />
		<tag k="name" v="Østmarkskollen Fus barnehage AS" />
		<tag k="no-barnehage:nsrid" v="1021197" />
		<tag k="operator" v="Østmarkskollen Fus barnehage AS" />
		<tag k="operator:type" v="private" />
		<tag k="start_date" v="2005-02-23" />
	</node>
	<node id="-784" lat="59.7308" lon="11.0387">
		<tag k="amenity" v="kindergarten" />
		<tag k="capacity" v="82" />
		<tag k="contact:email" v="ytre.enebakk.barnehage@enebakk.kommune.no" />
		<tag k="contact:phone" v="64924066" />
		<tag k="max_age" v="5" />
		<tag k="min_age" v="1" />
		<tag k="name" v="Ytre Enebakk barnehage" />
		<tag k="no-barnehage:nsrid" v="1017533" />
		<tag k="operator" v="Enebakk kommune" />
		<tag k="operator:type" v="public" />
		<tag k="start_date" v="1988-04-01" />
	</node>
	<node id="-783" lat="59.73778" lon="11.02547">
		<tag k="amenity" v="kindergarten" />
		<tag k="capacity" v="77" />
		<tag k="contact:phone" v="69 92 74 61" />
		<tag k="max_age" v="5" />
		<tag k="min_age" v="1" />
		<tag k="name" v="Nylende barnehage Sa" />
		<tag k="no-barnehage:nsrid" v="1020168" />
		<tag k="operator" v="Nylende barnehage Sa" />
		<tag k="operator:type" v="private" />
		<tag k="start_date" v="1992-10-01" />
	</node>
	<node id="-782" lat="59.7655" lon="11.1491">
		<tag k="amenity" v="kindergarten" />
		<tag k="capacity" v="36" />
		<tag k="contact:email" v="emaus@nlmbhg.no" />
		<tag k="contact:phone" v="64 92 64 45" />
		<tag k="max_age" v="5" />
		<tag k="min_age" v="1" />
		<tag k="name" v="Nlm Barnehagene AS Avd Emaus Barnehage" />
		<tag k="no-barnehage:nsrid" v="1016180" />
		<tag k="operator" v="Nlm-Barnehagene AS" />
		<tag k="operator:type" v="private" />
		<tag k="start_date" v="1978-08-25" />
	</node>
	<node id="-781" lat="59.72367" lon="11.06031">
		<tag k="amenity" v="kindergarten" />
		<tag k="capacity" v="59" />
		<tag k="contact:email" v="dl.mjar@bhg.no" />
		<tag k="max_age" v="5" />
		<tag k="min_age" v="1" />
		<tag k="name" v="Mjær Fus barnehage AS" />
		<tag k="no-barnehage:nsrid" v="1021739" />
		<tag k="operator" v="Mjær Fus barnehage AS" />
		<tag k="operator:type" v="private" />
		<tag k="start_date" v="2007-11-19" />
	</node>
	<node id="-780" lat="59.82696" lon="11.15066">
		<tag k="amenity" v="kindergarten" />
		<tag k="capacity" v="52" />
		<tag k="contact:email" v="melgard.bhg@c2i.net" />
		<tag k="contact:phone" v="95403952" />
		<tag k="contact:website" v="http://www.melgaard.barnehage.no" />
		<tag k="max_age" v="5" />
		<tag k="min_age" v="1" />
		<tag k="name" v="Melgård Andelsbarnehage" />
		<tag k="no-barnehage:nsrid" v="1020750" />
		<tag k="operator" v="Melgård barnehage Sa" />
		<tag k="operator:type" v="private" />
		<tag k="start_date" v="2002-03-31" />
	</node>
	<node id="-779" lat="59.72102" lon="11.05265">
		<tag k="amenity" v="kindergarten" />
		<tag k="capacity" v="14" />
		<tag k="contact:email" v="mari_andelsbarnehage@hotmail.com" />
		<tag k="contact:phone" v="64 92 42 72" />
		<tag k="max_age" v="5" />
		<tag k="min_age" v="1" />
		<tag k="name" v="Mari Andelsbarnehage Sa" />
		<tag k="no-barnehage:nsrid" v="1020919" />
		<tag k="operator" v="Mari Andelsbarnehage Sa" />
		<tag k="operator:type" v="private" />
		<tag k="start_date" v="2003-04-23" />
	</node>
	<node id="-778" lat="59.7645" lon="11.1535">
		<tag k="amenity" v="kindergarten" />
		<tag k="capacity" v="70" />
		<tag k="contact:email" v="kirkebygden.barnehage@enebakk.kommune.no" />
		<tag k="contact:phone" v="64927202" />
		<tag k="max_age" v="5" />
		<tag k="min_age" v="1" />
		<tag k="name" v="Kirkebygden barnehage" />
		<tag k="no-barnehage:nsrid" v="1013799" />
		<tag k="operator" v="Enebakk kommune" />
		<tag k="operator:type" v="public" />
		<tag k="start_date" v="1989-01-02" />
	</node>
	<node id="-777" lat="59.83343" lon="11.13724">
		<tag k="amenity" v="kindergarten" />
		<tag k="capacity" v="60" />
		<tag k="contact:phone" v="64 92 37 70" />
		<tag k="contact:website" v="http://www.hauglia.barnehage.no" />
		<tag k="max_age" v="5" />
		<tag k="min_age" v="1" />
		<tag k="name" v="Hauglia barnehage Sa" />
		<tag k="no-barnehage:nsrid" v="1020434" />
		<tag k="operator" v="Hauglia barnehage Sa" />
		<tag k="operator:type" v="private" />
		<tag k="start_date" v="1997-09-01" />
	</node>
	<node id="-776" lat="59.8361" lon="11.1439">
		<tag k="amenity" v="kindergarten" />
		<tag k="capacity" v="79" />
		<tag k="contact:email" v="flateby.barnehage@enebakk.kommune.no" />
		<tag k="contact:phone" v="64928588" />
		<tag k="max_age" v="5" />
		<tag k="min_age" v="1" />
		<tag k="name" v="Flateby barnehage" />
		<tag k="no-barnehage:nsrid" v="1017359" />
		<tag k="operator" v="Enebakk kommune" />
		<tag k="operator:type" v="public" />
		<tag k="start_date" v="1976-01-01" />
	</node>
	<node id="-775" lat="59.73099" lon="11.03787">
		<tag k="amenity" v="kindergarten" />
		<tag k="capacity" v="15" />
		<tag k="contact:email" v="barnehage@fjelknatten.no" />
		<tag k="contact:phone" v="64 92 52 27" />
		<tag k="max_age" v="5" />
		<tag k="min_age" v="1" />
		<tag k="name" v="Fjellknatten barnehage" />
		<tag k="no-barnehage:nsrid" v="1019862" />
		<tag k="operator" v="Ytre Enebakk Kvinne- og Familieforbund" />
		<tag k="operator:type" v="private" />
		<tag k="start_date" v="1989-01-02" />
	</node>
	<node id="-774" lat="59.83582" lon="11.12933">
		<tag k="amenity" v="kindergarten" />
		<tag k="capacity" v="52" />
		<tag k="contact:email" v="bergskaug@minpost.as" />
		<tag k="contact:phone" v="64 92 38 10" />
		<tag k="max_age" v="5" />
		<tag k="min_age" v="1" />
		<tag k="name" v="Bergskaug Fus barnehage AS" />
		<tag k="no-barnehage:nsrid" v="1021198" />
		<tag k="operator" v="Bergskaug Fus barnehage AS" />
		<tag k="operator:type" v="private" />
		<tag k="start_date" v="2005-02-23" />
	</node>
</osm>
