<?xml version="1.0" encoding="UTF-8"?>
<osm version="0.6" generator="osmapis">
	<node lat="59.2791" lon="11.08497" id="-1743">
		<tag k="ADDRESS" v="Albert Moeskaus vei 23, 1711 SARPSBORG" />
		<tag k="amenity" v="kindergarten" />
		<tag k="capacity" v="80" />
		<tag k="max_age" v="5" />
		<tag k="min_age" v="1" />
		<tag k="name" v="Askeladden barnehage Borg Albert Moeskausvei" />
		<tag k="no-barnehage:nsrid" v="973868756" />
		<tag k="operator" v="Askeladden barnehage Borg Albert Moeskausvei AS" />
		<tag k="operator:type" v="private" />
	</node>
	<node lat="59.28714" lon="11.11164" id="-1747">
		<tag k="ADDRESS" v="Færders gate 33, 1707 SARPSBORG" />
		<tag k="amenity" v="kindergarten" />
		<tag k="capacity" v="39" />
		<tag k="max_age" v="5" />
		<tag k="min_age" v="1" />
		<tag k="name" v="Askeladden barnehage Borg turnusbarnehage Færdersgt" />
		<tag k="no-barnehage:nsrid" v="814328562" />
		<tag k="operator" v="Askeladden barnehage Borg turnusbarnehage Færdersgt AS" />
		<tag k="operator:type" v="private" />
	</node>
	<node lat="59.26803" lon="11.14497" id="-1748">
		<tag k="ADDRESS" v="Baneveien 20E, 1738 BORGENHAUGEN" />
		<tag k="amenity" v="kindergarten" />
		<tag k="capacity" v="80" />
		<tag k="max_age" v="5" />
		<tag k="min_age" v="1" />
		<tag k="name" v="Baneveien barnehage avd. Baneveien" />
		<tag k="no-barnehage:nsrid" v="992273526" />
		<tag k="operator" v="Baneveien barnehage AS" />
		<tag k="operator:type" v="private" />
	</node>
	<node lat="59.31033" lon="11.12251" id="-1749">
		<tag k="ADDRESS" v="Bergsvingen 71, 1727 SARPSBORG" />
		<tag k="amenity" v="kindergarten" />
		<tag k="capacity" v="50" />
		<tag k="contact:website" v="http://bergsvingen.no" />
		<tag k="max_age" v="5" />
		<tag k="min_age" v="1" />
		<tag k="name" v="Bergsvingen barnehage" />
		<tag k="no-barnehage:nsrid" v="973489372" />
		<tag k="operator" v="Bergsvingen barnehage SA" />
		<tag k="operator:type" v="private" />
	</node>
	<node lat="59.27299" lon="11.0897" id="-1750">
		<tag k="ADDRESS" v="Utsiktsveien 15C, 1725 SARPSBORG" />
		<tag k="amenity" v="kindergarten" />
		<tag k="capacity" v="26" />
		<tag k="contact:website" v="http://bikuben.barnehageside.no" />
		<tag k="max_age" v="5" />
		<tag k="min_age" v="1" />
		<tag k="name" v="Bikuben barnehage" />
		<tag k="no-barnehage:nsrid" v="987174382" />
		<tag k="operator" v="Bikuben barnehage AS" />
		<tag k="operator:type" v="private" />
	</node>
	<node lat="59.26514" lon="11.15997" id="-1751">
		<tag k="ADDRESS" v="Ilebrekkveien 2, 1739 BORGENHAUGEN" />
		<tag k="amenity" v="kindergarten" />
		<tag k="capacity" v="63" />
		<tag k="contact:website" v="http://barnehagenett.no/barnehagene/borgen/" />
		<tag k="max_age" v="5" />
		<tag k="min_age" v="1" />
		<tag k="name" v="Borgen barnehage Ngh" />
		<tag k="no-barnehage:nsrid" v="973382411" />
		<tag k="operator" v="Borgen barnehage Ngh AS" />
		<tag k="operator:type" v="private" />
	</node>
	<node lat="59.26665" lon="11.18456" id="-1752">
		<tag k="ADDRESS" v="Kanefarten 13, 1739 BORGENHAUGEN" />
		<tag k="amenity" v="kindergarten" />
		<tag k="capacity" v="52" />
		<tag k="max_age" v="5" />
		<tag k="min_age" v="1" />
		<tag k="name" v="Fjelldal barnehage" />
		<tag k="no-barnehage:nsrid" v="973934066" />
		<tag k="operator" v="Fjelldal barnehage AS" />
		<tag k="operator:type" v="private" />
	</node>
	<node lat="59.2559" lon="11.18079" id="-1753">
		<tag k="ADDRESS" v="Kalaveien 92, 1743 KLAVESTADHAUGEN" />
		<tag k="amenity" v="kindergarten" />
		<tag k="capacity" v="42" />
		<tag k="contact:website" v="http://www.sarpsborg.com/barn-og-skole/barnehage/fosbylokka-barnehage/" />
		<tag k="max_age" v="5" />
		<tag k="min_age" v="1" />
		<tag k="name" v="Fosbyløkka barnehage" />
		<tag k="no-barnehage:nsrid" v="975301273" />
		<tag k="operator" v="Sarpsborg kommune" />
		<tag k="operator:type" v="public" />
	</node>
	<node lat="59.28736" lon="11.11471" id="-1754">
		<tag k="ADDRESS" v="Hals' gate 8, 1707 SARPSBORG" />
		<tag k="amenity" v="kindergarten" />
		<tag k="capacity" v="74" />
		<tag k="contact:website" v="http://www.sarpsborg.com/barn-og-skole/barnehage/fritznerbakken-barnehage/#/" />
		<tag k="max_age" v="5" />
		<tag k="min_age" v="1" />
		<tag k="name" v="Fritznerbakken barnehage" />
		<tag k="no-barnehage:nsrid" v="975301141" />
		<tag k="operator" v="Sarpsborg kommune" />
		<tag k="operator:type" v="public" />
	</node>
	<node lat="59.27952" lon="11.10006" id="-1755">
		<tag k="ADDRESS" v="Storgata 29, 1723 SARPSBORG" />
		<tag k="amenity" v="kindergarten" />
		<tag k="capacity" v="63" />
		<tag k="max_age" v="5" />
		<tag k="min_age" v="1" />
		<tag k="name" v="Grotterødløkka" />
		<tag k="no-barnehage:nsrid" v="988315087" />
		<tag k="operator" v="Grotterødløkka AS" />
		<tag k="operator:type" v="private" />
	</node>
	<node lat="59.29673" lon="11.15266" id="-1756">
		<tag k="ADDRESS" v="Vestbyveien 3, 1734 HAFSLUNDSØY" />
		<tag k="amenity" v="kindergarten" />
		<tag k="capacity" v="99" />
		<tag k="contact:website" v="http://www.sarpsborg.com/hafslundsoybarnehage" />
		<tag k="max_age" v="5" />
		<tag k="min_age" v="1" />
		<tag k="name" v="Hafslundsøy barnehage" />
		<tag k="no-barnehage:nsrid" v="975300838" />
		<tag k="operator" v="Sarpsborg kommune" />
		<tag k="operator:type" v="public" />
	</node>
	<node lat="59.27072" lon="11.0593" id="-1757">
		<tag k="ADDRESS" v="Gnoldenveien 2, 1715 YVEN" />
		<tag k="amenity" v="kindergarten" />
		<tag k="capacity" v="105" />
		<tag k="contact:website" v="http://www.barnehagenett.no/barnehagene/sarpsborg/hannestad/" />
		<tag k="max_age" v="5" />
		<tag k="min_age" v="1" />
		<tag k="name" v="Hannestad barnehage" />
		<tag k="no-barnehage:nsrid" v="992980427" />
		<tag k="operator" v="Hannestad barnehage AS" />
		<tag k="operator:type" v="private" />
	</node>
	<node lat="59.31806" lon="11.16222" id="-1758">
		<tag k="ADDRESS" v="Hasleveien 36, 1734 HAFSLUNDSØY" />
		<tag k="amenity" v="kindergarten" />
		<tag k="capacity" v="40" />
		<tag k="max_age" v="5" />
		<tag k="min_age" v="1" />
		<tag k="name" v="Hasle barnehage" />
		<tag k="no-barnehage:nsrid" v="973382403" />
		<tag k="operator" v="Hasle barnehage AS" />
		<tag k="operator:type" v="private" />
	</node>
	<node lat="59.27929" lon="11.11663" id="-1759">
		<tag k="ADDRESS" v="Oscar Pedersens vei 16, 1721 SARPSBORG" />
		<tag k="amenity" v="kindergarten" />
		<tag k="capacity" v="68" />
		<tag k="max_age" v="5" />
		<tag k="min_age" v="1" />
		<tag k="name" v="Kulås barnehage" />
		<tag k="no-barnehage:nsrid" v="988968692" />
		<tag k="operator" v="Kulås barnehage AS" />
		<tag k="operator:type" v="private" />
	</node>
	<node lat="59.2935" lon="11.0967" id="-1760">
		<tag k="ADDRESS" v="Prost Bangs vei 14, 1710 SARPSBORG" />
		<tag k="amenity" v="kindergarten" />
		<tag k="capacity" v="66" />
		<tag k="contact:website" v="http://landegaard.no" />
		<tag k="max_age" v="5" />
		<tag k="min_age" v="1" />
		<tag k="name" v="Lande gård barnehage" />
		<tag k="no-barnehage:nsrid" v="894966262" />
		<tag k="operator" v="Lande Gård barnehage AS" />
		<tag k="operator:type" v="private" />
	</node>
	<node lat="59.27745" lon="11.11887" id="-1761">
		<tag k="ADDRESS" v="Grimkells gate 11, 1721 SARPSBORG" />
		<tag k="amenity" v="kindergarten" />
		<tag k="capacity" v="25" />
		<tag k="contact:website" v="http://laringsverkstedet.no/barnehage/bamsebo" />
		<tag k="max_age" v="5" />
		<tag k="min_age" v="1" />
		<tag k="name" v="Læringsverkstedet Bamsebo barnehage" />
		<tag k="no-barnehage:nsrid" v="973465333" />
		<tag k="operator" v="Læringsverkstedet Bamsebo barnehage AS" />
		<tag k="operator:type" v="private" />
	</node>
	<node lat="59.27585" lon="11.04202" id="-1762">
		<tag k="ADDRESS" v="Grålumveien 61, 1718 GREÅKER" />
		<tag k="amenity" v="kindergarten" />
		<tag k="capacity" v="64" />
		<tag k="contact:website" v="http://laringsverkstedet.no/" />
		<tag k="max_age" v="5" />
		<tag k="min_age" v="1" />
		<tag k="name" v="Læringsverkstedet Hinkenhopp idrettsbarnehage" />
		<tag k="no-barnehage:nsrid" v="986859632" />
		<tag k="operator" v="Læringsverkstedet Hinkenhopp idrettsbarnehage AS" />
		<tag k="operator:type" v="private" />
	</node>
	<node lat="59.27908" lon="11.19266" id="-1763">
		<tag k="ADDRESS" v="Kløvningsten 2, 1739 BORGENHAUGEN" />
		<tag k="amenity" v="kindergarten" />
		<tag k="capacity" v="84" />
		<tag k="max_age" v="5" />
		<tag k="min_age" v="1" />
		<tag k="name" v="Læringsverkstedet Kløvningsten barnehage" />
		<tag k="no-barnehage:nsrid" v="986564721" />
		<tag k="operator" v="Læringsverkstedet Kløvningsten barnehage AS" />
		<tag k="operator:type" v="private" />
	</node>
	<node lat="59.2921" lon="11.09572" id="-1764">
		<tag k="ADDRESS" v="Tuneveien 20, 1710 SARPSBORG" />
		<tag k="amenity" v="kindergarten" />
		<tag k="capacity" v="64" />
		<tag k="contact:website" v="http://laringsverkstedet.no/sarpsborg" />
		<tag k="max_age" v="5" />
		<tag k="min_age" v="1" />
		<tag k="name" v="Læringsverkstedet Sarpsborg Doremi barnehage" />
		<tag k="no-barnehage:nsrid" v="879733022" />
		<tag k="operator" v="Læringsverkstedet Sarpsborg Doremi barnehage AS" />
		<tag k="operator:type" v="private" />
	</node>
	<node lat="59.29364" lon="11.07757" id="-1765">
		<tag k="ADDRESS" v="Tuneveien 63, 1712 GRÅLUM" />
		<tag k="amenity" v="kindergarten" />
		<tag k="capacity" v="164" />
		<tag k="max_age" v="5" />
		<tag k="min_age" v="1" />
		<tag k="name" v="Læringsverkstedet Store Tune gård barnehage" />
		<tag k="no-barnehage:nsrid" v="989515454" />
		<tag k="operator" v="Læringsverkstedet Store Tune Gård barnehage AS" />
		<tag k="operator:type" v="private" />
	</node>
	<node lat="59.16497" lon="11.14306" id="-1766">
		<tag k="ADDRESS" v="Lysåsveien 23, 1747 SKJEBERG" />
		<tag k="amenity" v="kindergarten" />
		<tag k="capacity" v="30" />
		<tag k="max_age" v="5" />
		<tag k="min_age" v="1" />
		<tag k="name" v="Læringsverkstedet Ullerøy barnehage" />
		<tag k="no-barnehage:nsrid" v="974849100" />
		<tag k="operator" v="Læringsverkstedet Ullerøy barnehage AS" />
		<tag k="operator:type" v="private" />
	</node>
	<node lat="59.20198" lon="11.20336" id="-1767">
		<tag k="ADDRESS" v="Rønneldveien 440, 1746 SKJEBERG" />
		<tag k="amenity" v="kindergarten" />
		<tag k="capacity" v="37" />
		<tag k="contact:website" v="http://lokkebhg.no" />
		<tag k="max_age" v="5" />
		<tag k="min_age" v="1" />
		<tag k="name" v="Løkke barnehage" />
		<tag k="no-barnehage:nsrid" v="873445882" />
		<tag k="operator" v="Løkke barnehage SA" />
		<tag k="operator:type" v="private" />
	</node>
	<node lat="59.26839" lon="11.15172" id="-1768">
		<tag k="ADDRESS" v="Parkveien 30, 1738 BORGENHAUGEN" />
		<tag k="amenity" v="kindergarten" />
		<tag k="capacity" v="31" />
		<tag k="max_age" v="5" />
		<tag k="min_age" v="1" />
		<tag k="name" v="Mobakken barnehage" />
		<tag k="no-barnehage:nsrid" v="915370047" />
		<tag k="operator" v="Mobakken barnehage AS" />
		<tag k="operator:type" v="private" />
	</node>
	<node lat="59.2726" lon="11.17257" id="-1769">
		<tag k="ADDRESS" v="Brusemyrtoppen 14, 1739 BORGENHAUGEN" />
		<tag k="amenity" v="kindergarten" />
		<tag k="capacity" v="57" />
		<tag k="contact:website" v="http://nygardshaugen.no" />
		<tag k="max_age" v="5" />
		<tag k="min_age" v="1" />
		<tag k="name" v="Nygårdshaugen barnehage" />
		<tag k="no-barnehage:nsrid" v="973485202" />
		<tag k="operator" v="Nygårdshaugen barnehage SA" />
		<tag k="operator:type" v="private" />
	</node>
	<node lat="59.24673" lon="11.18262" id="-1773">
		<tag k="ADDRESS" v="Sandbakkenfaret 20, 1743 KLAVESTADHAUGEN" />
		<tag k="amenity" v="kindergarten" />
		<tag k="capacity" v="94" />
		<tag k="contact:website" v="http://www.sarpsborg.com/barn-og-skole/barnehage/sandbakken-barnehage/" />
		<tag k="max_age" v="5" />
		<tag k="min_age" v="1" />
		<tag k="name" v="Sandbakken barnehage" />
		<tag k="no-barnehage:nsrid" v="994243780" />
		<tag k="operator" v="Sarpsborg kommune" />
		<tag k="operator:type" v="public" />
	</node>
	<node lat="59.29913" lon="11.11159" id="-1774">
		<tag k="ADDRESS" v="Per Gyntveien 20, 1709 SARPSBORG" />
		<tag k="amenity" v="kindergarten" />
		<tag k="capacity" v="90" />
		<tag k="contact:website" v="http://www.sarpsborg.com/barn-og-skole/barnehage/sarpsborgmarkabarnehage/" />
		<tag k="max_age" v="5" />
		<tag k="min_age" v="1" />
		<tag k="name" v="Sarpsborgmarka barnehage" />
		<tag k="no-barnehage:nsrid" v="975295974" />
		<tag k="operator" v="Sarpsborg kommune" />
		<tag k="operator:type" v="public" />
	</node>
	<node lat="59.27929" lon="11.11663" id="-1775">
		<tag k="ADDRESS" v="Oscar Pedersens vei 16, 1721 SARPSBORG" />
		<tag k="amenity" v="kindergarten" />
		<tag k="capacity" v="108" />
		<tag k="contact:website" v="http://www.skogro.no" />
		<tag k="max_age" v="5" />
		<tag k="min_age" v="1" />
		<tag k="name" v="Skogro barnehage" />
		<tag k="no-barnehage:nsrid" v="912383407" />
		<tag k="operator" v="Skogro barnehage AS" />
		<tag k="operator:type" v="private" />
	</node>
	<node lat="59.27989" lon="11.08786" id="-1776">
		<tag k="ADDRESS" v="Snarveien 2, 1711 SARPSBORG" />
		<tag k="amenity" v="kindergarten" />
		<tag k="capacity" v="82" />
		<tag k="contact:website" v="http://www.fus.no/snarveien" />
		<tag k="max_age" v="5" />
		<tag k="min_age" v="1" />
		<tag k="name" v="Snarveien FUS barnehage" />
		<tag k="no-barnehage:nsrid" v="987381051" />
		<tag k="operator" v="Snarveien Fus barnehage AS" />
		<tag k="operator:type" v="private" />
	</node>
	<node lat="59.29802" lon="11.21548" id="-1777">
		<tag k="ADDRESS" v="Isefossveien 20, 1730 ISE" />
		<tag k="amenity" v="kindergarten" />
		<tag k="capacity" v="64" />
		<tag k="max_age" v="5" />
		<tag k="min_age" v="1" />
		<tag k="name" v="Soltun gårdsbarnehage" />
		<tag k="no-barnehage:nsrid" v="977513553" />
		<tag k="operator" v="Soltun gårdsbarnehage AS" />
		<tag k="operator:type" v="private" />
	</node>
	<node lat="59.2777" lon="11.1137" id="-1778">
		<tag k="ADDRESS" v="Hjalmar Wessels vei 26, 1721 SARPSBORG" />
		<tag k="amenity" v="kindergarten" />
		<tag k="capacity" v="105" />
		<tag k="contact:website" v="http://www.sarpsborg.com/barn-og-skole/barnehage/st.olavsbarnehage/#/" />
		<tag k="max_age" v="5" />
		<tag k="min_age" v="1" />
		<tag k="name" v="St Olavs barnehage" />
		<tag k="no-barnehage:nsrid" v="975301176" />
		<tag k="operator" v="Sarpsborg kommune" />
		<tag k="operator:type" v="public" />
	</node>
	<node lat="59.21691" lon="11.19317" id="-1779">
		<tag k="ADDRESS" v="Grimstadtunet 45, 1746 SKJEBERG" />
		<tag k="amenity" v="kindergarten" />
		<tag k="capacity" v="72" />
		<tag k="contact:website" v="http://www.sarpsborg.com/stasjonsbyenbarnehage" />
		<tag k="max_age" v="5" />
		<tag k="min_age" v="1" />
		<tag k="name" v="Stasjonsbyen barnehage" />
		<tag k="no-barnehage:nsrid" v="975320618" />
		<tag k="operator" v="Sarpsborg kommune" />
		<tag k="operator:type" v="public" />
	</node>
	<node lat="59.29506" lon="11.11269" id="-1780">
		<tag k="ADDRESS" v="Nøkkenveien 7, 1727 SARPSBORG" />
		<tag k="amenity" v="kindergarten" />
		<tag k="capacity" v="123" />
		<tag k="contact:website" v="http://barnehagenett.no/barnehagene/sarpsborg/storeper/" />
		<tag k="max_age" v="5" />
		<tag k="min_age" v="1" />
		<tag k="name" v="Storeper barnehage" />
		<tag k="no-barnehage:nsrid" v="995895935" />
		<tag k="operator" v="Storeper barnehage AS" />
		<tag k="operator:type" v="private" />
	</node>
	<node lat="59.2732" lon="11.04403" id="-1781">
		<tag k="ADDRESS" v="Eventyrveien 6, 1718 GREÅKER" />
		<tag k="amenity" v="kindergarten" />
		<tag k="capacity" v="90" />
		<tag k="contact:website" v="http://www.sarpsborg.com/barn-og-skole/barnehage/tindlund-barnehage/" />
		<tag k="max_age" v="5" />
		<tag k="min_age" v="1" />
		<tag k="name" v="Tindlund barnehage" />
		<tag k="no-barnehage:nsrid" v="975295605" />
		<tag k="operator" v="Sarpsborg kommune" />
		<tag k="operator:type" v="public" />
	</node>
	<node lat="59.28429" lon="11.05104" id="-1783">
		<tag k="ADDRESS" v="Grålumveien 125, 1712 GRÅLUM" />
		<tag k="amenity" v="kindergarten" />
		<tag k="capacity" v="90" />
		<tag k="max_age" v="5" />
		<tag k="min_age" v="1" />
		<tag k="name" v="Tubus barnehage" />
		<tag k="no-barnehage:nsrid" v="971633026" />
		<tag k="operator" v="Tubus barnehage AS" />
		<tag k="operator:type" v="private" />
	</node>
	<node lat="59.27598" lon="11.05243" id="-1784">
		<tag k="ADDRESS" v="Damveien 93, 1715 YVEN" />
		<tag k="amenity" v="kindergarten" />
		<tag k="capacity" v="54" />
		<tag k="contact:website" v="http://tuneskipet.no" />
		<tag k="max_age" v="5" />
		<tag k="min_age" v="1" />
		<tag k="name" v="Tuneskipet barnehage" />
		<tag k="no-barnehage:nsrid" v="971634790" />
		<tag k="operator" v="Tuneskipet barnehage SA" />
		<tag k="operator:type" v="private" />
	</node>
	<node lat="59.24635" lon="11.21174" id="-1785">
		<tag k="ADDRESS" v="Tveterveien 20, 1746 SKJEBERG" />
		<tag k="amenity" v="kindergarten" />
		<tag k="capacity" v="27" />
		<tag k="contact:website" v="http://barnehagenett.no" />
		<tag k="max_age" v="5" />
		<tag k="min_age" v="1" />
		<tag k="name" v="Tveterhytta barnehage" />
		<tag k="no-barnehage:nsrid" v="988968676" />
		<tag k="operator" v="Tveterhytta barnehage AS" />
		<tag k="operator:type" v="private" />
	</node>
	<node lat="59.27721" lon="11.036" id="-1786">
		<tag k="ADDRESS" v="Arveliveien 5, 1719 GREÅKER" />
		<tag k="amenity" v="kindergarten" />
		<tag k="capacity" v="62" />
		<tag k="contact:website" v="http://tyrihans.barnehage.no" />
		<tag k="max_age" v="5" />
		<tag k="min_age" v="1" />
		<tag k="name" v="Tyrihans barnehage" />
		<tag k="no-barnehage:nsrid" v="973933957" />
		<tag k="operator" v="Tyrihans barnehage SA" />
		<tag k="operator:type" v="private" />
	</node>
	<node lat="59.28815" lon="11.09163" id="-1787">
		<tag k="ADDRESS" v="Ørneveien 11, 1710 SARPSBORG" />
		<tag k="amenity" v="kindergarten" />
		<tag k="capacity" v="68" />
		<tag k="contact:website" v="http://www.sarpsborg.com/barn-og-skole/barnehage/valaskjold-barnehage/#/" />
		<tag k="max_age" v="5" />
		<tag k="min_age" v="1" />
		<tag k="name" v="Valaskjold barnehage" />
		<tag k="no-barnehage:nsrid" v="975295613" />
		<tag k="operator" v="Sarpsborg kommune" />
		<tag k="operator:type" v="public" />
	</node>
	<node lat="59.35123" lon="11.18359" id="-1788">
		<tag k="ADDRESS" v="Ingaveien 33, 1735 VARTEIG" />
		<tag k="amenity" v="kindergarten" />
		<tag k="capacity" v="20" />
		<tag k="contact:website" v="http://www.sarpsborg.com/varteigbarnehage" />
		<tag k="max_age" v="5" />
		<tag k="min_age" v="1" />
		<tag k="name" v="Varteig barnehage" />
		<tag k="no-barnehage:nsrid" v="991568786" />
		<tag k="operator" v="Sarpsborg kommune" />
		<tag k="operator:type" v="public" />
	</node>
</osm>
