<?xml version="1.0" encoding="UTF-8"?>
<osm generator="osmapis" version="0.6">
	<node id="-65" lat="59.4333" lon="10.6649">
		<tag k="amenity" v="kindergarten" />
		<tag k="name" v="Åpen barnehage Skarmyra" />
		<tag k="no-barnehage:nsrid" v="1014100" />
		<tag k="operator" v="Moss kommune" />
		<tag k="operator:type" v="public" />
	</node>
	<node id="-64" lat="59.4238" lon="10.6838">
		<tag k="amenity" v="kindergarten" />
		<tag k="capacity" v="109" />
		<tag k="max_age" v="5" />
		<tag k="min_age" v="1" />
		<tag k="name" v="Ørejordet barnehage" />
		<tag k="no-barnehage:nsrid" v="1015966" />
		<tag k="operator" v="Moss kommune" />
		<tag k="operator:type" v="public" />
	</node>
	<node id="-63" lat="59.44477" lon="10.67737">
		<tag k="amenity" v="kindergarten" />
		<tag k="capacity" v="72" />
		<tag k="max_age" v="5" />
		<tag k="min_age" v="1" />
		<tag k="name" v="Verket barnehage" />
		<tag k="no-barnehage:nsrid" v="1020495" />
		<tag k="operator" v="Verket barnehage Sa" />
		<tag k="operator:type" v="private" />
	</node>
	<node id="-62" lat="59.43772" lon="10.60471">
		<tag k="amenity" v="kindergarten" />
		<tag k="capacity" v="89" />
		<tag k="contact:website" v="http://www.tronvikgaard.no" />
		<tag k="max_age" v="5" />
		<tag k="min_age" v="1" />
		<tag k="name" v="Tronvik gårdsbarnehage" />
		<tag k="no-barnehage:nsrid" v="1021693" />
		<tag k="operator" v="Tronvik Gårdsbarnehage AS" />
		<tag k="operator:type" v="private" />
	</node>
	<node id="-61" lat="59.44586" lon="10.63999">
		<tag k="amenity" v="kindergarten" />
		<tag k="capacity" v="68" />
		<tag k="contact:website" v="http://www.trollskogen-naturbarnehage.no" />
		<tag k="max_age" v="5" />
		<tag k="min_age" v="1" />
		<tag k="name" v="Trollskogen naturbarnehage" />
		<tag k="no-barnehage:nsrid" v="1020867" />
		<tag k="operator" v="Trollskogen Naturbarnehage Sa" />
		<tag k="operator:type" v="private" />
	</node>
	<node id="-60" lat="59.4286" lon="10.6361">
		<tag k="amenity" v="kindergarten" />
		<tag k="capacity" v="33" />
		<tag k="max_age" v="5" />
		<tag k="min_age" v="1" />
		<tag k="name" v="Søly barnehage" />
		<tag k="no-barnehage:nsrid" v="1013048" />
		<tag k="operator" v="Espira Jeløy AS" />
		<tag k="operator:type" v="private" />
	</node>
	<node id="-59" lat="59.4344" lon="10.6966">
		<tag k="amenity" v="kindergarten" />
		<tag k="capacity" v="33" />
		<tag k="max_age" v="5" />
		<tag k="min_age" v="1" />
		<tag k="name" v="Sydskogen barnehage" />
		<tag k="no-barnehage:nsrid" v="1013043" />
		<tag k="operator" v="Borg Barnehager AS" />
		<tag k="operator:type" v="private" />
	</node>
	<node id="-58" lat="59.46442" lon="10.69755">
		<tag k="amenity" v="kindergarten" />
		<tag k="capacity" v="34" />
		<tag k="contact:website" v="http://steinerbarnehagen-moss.no" />
		<tag k="max_age" v="5" />
		<tag k="min_age" v="1" />
		<tag k="name" v="Stiftelsen steinerbarnehagen i Moss" />
		<tag k="no-barnehage:nsrid" v="1022218" />
		<tag k="operator" v="Stiftelsen Steinerbarnehagen i Moss" />
		<tag k="operator:type" v="private" />
	</node>
	<node id="-57" lat="59.4572" lon="10.6937">
		<tag k="amenity" v="kindergarten" />
		<tag k="capacity" v="76" />
		<tag k="max_age" v="5" />
		<tag k="min_age" v="1" />
		<tag k="name" v="Skredderåsen barnehage" />
		<tag k="no-barnehage:nsrid" v="1017511" />
		<tag k="operator" v="Moss kommune" />
		<tag k="operator:type" v="public" />
	</node>
	<node id="-56" lat="59.4324" lon="10.6673">
		<tag k="amenity" v="kindergarten" />
		<tag k="capacity" v="69" />
		<tag k="max_age" v="5" />
		<tag k="min_age" v="1" />
		<tag k="name" v="Skarmyra barnehage" />
		<tag k="no-barnehage:nsrid" v="1016918" />
		<tag k="operator" v="Moss kommune" />
		<tag k="operator:type" v="public" />
	</node>
	<node id="-55" lat="59.48041" lon="10.69273">
		<tag k="amenity" v="kindergarten" />
		<tag k="capacity" v="77" />
		<tag k="max_age" v="5" />
		<tag k="min_age" v="1" />
		<tag k="name" v="Sjøhagen FUS barnehage" />
		<tag k="no-barnehage:nsrid" v="1021588" />
		<tag k="operator" v="Sjøhagen Fus barnehage AS" />
		<tag k="operator:type" v="private" />
	</node>
	<node id="-54" lat="59.44524" lon="10.67009">
		<tag k="amenity" v="kindergarten" />
		<tag k="capacity" v="41" />
		<tag k="contact:website" v="http://www.sandbuktabarnehage.no" />
		<tag k="max_age" v="5" />
		<tag k="min_age" v="1" />
		<tag k="name" v="Sandbukta barnehage" />
		<tag k="no-barnehage:nsrid" v="1021072" />
		<tag k="operator" v="Sandbukta barnehage AS" />
		<tag k="operator:type" v="private" />
	</node>
	<node id="-53" lat="59.4456" lon="10.6739">
		<tag k="amenity" v="kindergarten" />
		<tag k="capacity" v="62" />
		<tag k="max_age" v="5" />
		<tag k="min_age" v="1" />
		<tag k="name" v="Røysåsen barnehage" />
		<tag k="no-barnehage:nsrid" v="1013276" />
		<tag k="operator" v="Moss kommune" />
		<tag k="operator:type" v="public" />
	</node>
	<node id="-52" lat="59.4294" lon="10.6302">
		<tag k="amenity" v="kindergarten" />
		<tag k="capacity" v="61" />
		<tag k="max_age" v="5" />
		<tag k="min_age" v="1" />
		<tag k="name" v="Reier barnehage" />
		<tag k="no-barnehage:nsrid" v="1017786" />
		<tag k="operator" v="Moss kommune" />
		<tag k="operator:type" v="public" />
	</node>
	<node id="-51" lat="59.44108" lon="10.61776">
		<tag k="amenity" v="kindergarten" />
		<tag k="capacity" v="58" />
		<tag k="max_age" v="5" />
		<tag k="min_age" v="1" />
		<tag k="name" v="Refsnes barnehage" />
		<tag k="no-barnehage:nsrid" v="1020784" />
		<tag k="operator" v="Refsnes barnehage Sa" />
		<tag k="operator:type" v="private" />
	</node>
	<node id="-50" lat="59.4426" lon="10.6288">
		<tag k="amenity" v="kindergarten" />
		<tag k="capacity" v="62" />
		<tag k="max_age" v="5" />
		<tag k="min_age" v="1" />
		<tag k="name" v="Ramberg barnehage" />
		<tag k="no-barnehage:nsrid" v="1017510" />
		<tag k="operator" v="Moss kommune" />
		<tag k="operator:type" v="public" />
	</node>
	<node id="-49" lat="59.4588" lon="10.6967">
		<tag k="amenity" v="kindergarten" />
		<tag k="name" v="Moss kommune åpen barnehage" />
		<tag k="no-barnehage:nsrid" v="1015860" />
		<tag k="operator" v="Moss kommune" />
		<tag k="operator:type" v="public" />
	</node>
	<node id="-48" lat="59.42503" lon="10.66935">
		<tag k="amenity" v="kindergarten" />
		<tag k="capacity" v="85" />
		<tag k="contact:website" v="http://www.mellosparkenbarnehage.no" />
		<tag k="max_age" v="5" />
		<tag k="min_age" v="1" />
		<tag k="name" v="Melløsparken barnehage" />
		<tag k="no-barnehage:nsrid" v="1020771" />
		<tag k="operator" v="Melløsparken barnehage Sa" />
		<tag k="operator:type" v="private" />
	</node>
	<node id="-47" lat="59.467" lon="10.6934">
		<tag k="amenity" v="kindergarten" />
		<tag k="capacity" v="53" />
		<tag k="max_age" v="5" />
		<tag k="min_age" v="1" />
		<tag k="name" v="Luenbakken barnehage" />
		<tag k="no-barnehage:nsrid" v="1016829" />
		<tag k="operator" v="Moss kommune" />
		<tag k="operator:type" v="public" />
	</node>
	<node id="-46" lat="59.43503" lon="10.65677">
		<tag k="amenity" v="kindergarten" />
		<tag k="capacity" v="66" />
		<tag k="contact:website" v="http://kraka.bhg.no" />
		<tag k="max_age" v="5" />
		<tag k="min_age" v="1" />
		<tag k="name" v="Kråka FUS kulturbarnehage" />
		<tag k="no-barnehage:nsrid" v="1021987" />
		<tag k="operator" v="Kråka Fus Kulturbarnehage AS" />
		<tag k="operator:type" v="private" />
	</node>
	<node id="-45" lat="59.4523" lon="10.6936">
		<tag k="amenity" v="kindergarten" />
		<tag k="capacity" v="110" />
		<tag k="max_age" v="5" />
		<tag k="min_age" v="1" />
		<tag k="name" v="Grindvold barnehage" />
		<tag k="no-barnehage:nsrid" v="1017383" />
		<tag k="operator" v="Moss kommune" />
		<tag k="operator:type" v="public" />
	</node>
	<node id="-44" lat="59.4327" lon="10.6499">
		<tag k="amenity" v="kindergarten" />
		<tag k="capacity" v="64" />
		<tag k="max_age" v="5" />
		<tag k="min_age" v="1" />
		<tag k="name" v="Glassverket barnehage" />
		<tag k="no-barnehage:nsrid" v="1017791" />
		<tag k="operator" v="Moss kommune" />
		<tag k="operator:type" v="public" />
	</node>
	<node id="-43" lat="59.43483" lon="10.63914">
		<tag k="amenity" v="kindergarten" />
		<tag k="capacity" v="14" />
		<tag k="max_age" v="5" />
		<tag k="min_age" v="1" />
		<tag k="name" v="Foreningen Torderød barnehage" />
		<tag k="no-barnehage:nsrid" v="1022245" />
		<tag k="operator" v="Foreningen Torderød barnehage" />
		<tag k="operator:type" v="private" />
	</node>
	<node id="-42" lat="59.42838" lon="10.63037">
		<tag k="amenity" v="kindergarten" />
		<tag k="capacity" v="17" />
		<tag k="max_age" v="5" />
		<tag k="min_age" v="1" />
		<tag k="name" v="Bråtenstua barnehage" />
		<tag k="no-barnehage:nsrid" v="1020180" />
		<tag k="operator" v="Bråtenstua barnehage Sa" />
		<tag k="operator:type" v="private" />
	</node>
	<node id="-41" lat="59.4381" lon="10.6412">
		<tag k="amenity" v="kindergarten" />
		<tag k="capacity" v="81" />
		<tag k="max_age" v="5" />
		<tag k="min_age" v="1" />
		<tag k="name" v="Bellevue barnehage" />
		<tag k="no-barnehage:nsrid" v="1017883" />
		<tag k="operator" v="Espira Jeløy AS" />
		<tag k="operator:type" v="private" />
	</node>
	<node id="-40" lat="59.4315" lon="10.6002">
		<tag k="amenity" v="kindergarten" />
		<tag k="capacity" v="53" />
		<tag k="max_age" v="5" />
		<tag k="min_age" v="1" />
		<tag k="name" v="Andersrød barnehage" />
		<tag k="no-barnehage:nsrid" v="1013314" />
		<tag k="operator" v="Barnehageporten AS" />
		<tag k="operator:type" v="private" />
	</node>
</osm>
