<?xml version="1.0" encoding="UTF-8"?>
<osm generator="osmapis" version="0.6">
	<node id="-2712" lat="59.24694" lon="10.39676">
		<tag k="amenity" v="kindergarten" />
		<tag k="capacity" v="8" />
		<tag k="contact:email" v="notteroy@steinerbarnehage.no" />
		<tag k="max_age" v="2" />
		<tag k="min_age" v="1" />
		<tag k="name" v="Stiftelsen Steinerbarnehagen på Nøtterøy Avd Stjerneskudd" />
		<tag k="no-barnehage:nsrid" v="1025595" />
		<tag k="operator" v="Stiftelsen Steinerbarnehagen på Nøtterøy" />
		<tag k="operator:type" v="private" />
		<tag k="start_date" v="2007-08-01" />
	</node>
	<node id="-2709" lat="59.2748" lon="10.47875">
		<tag k="amenity" v="kindergarten" />
		<tag k="capacity" v="18" />
		<tag k="contact:email" v="agnetjo@online.no" />
		<tag k="contact:phone" v="33 34 54 79" />
		<tag k="max_age" v="5" />
		<tag k="min_age" v="1" />
		<tag k="name" v="Stabburet Familiebarnehage AS" />
		<tag k="no-barnehage:nsrid" v="1020745" />
		<tag k="operator" v="Stabburet Familiebarnehage AS" />
		<tag k="operator:type" v="private" />
		<tag k="start_date" v="2001-08-01" />
	</node>
	<node id="-2705" lat="59.23124" lon="10.40597">
		<tag k="amenity" v="kindergarten" />
		<tag k="capacity" v="10" />
		<tag k="contact:email" v="rhauan@online.no" />
		<tag k="contact:phone" v="33 38 77 50" />
		<tag k="max_age" v="5" />
		<tag k="min_age" v="1" />
		<tag k="name" v="Kronli Familiebarnehage AS" />
		<tag k="no-barnehage:nsrid" v="1020588" />
		<tag k="operator" v="Kronli Familiebarnehage AS" />
		<tag k="operator:type" v="private" />
		<tag k="start_date" v="1997-08-01" />
	</node>
</osm>
