<?xml version="1.0" encoding="UTF-8"?>
<osm generator="osmapis" version="0.6">
	<node id="-2783" lat="59.23482" lon="10.44685">
		<tag k="amenity" v="kindergarten" />
		<tag k="capacity" v="54" />
		<tag k="contact:email" v="kine@dataknerten.no" />
		<tag k="contact:phone" v="928 81 076" />
		<tag k="max_age" v="5" />
		<tag k="min_age" v="1" />
		<tag k="name" v="Knerten barnehage" />
		<tag k="no-barnehage:nsrid" v="1021683" />
		<tag k="operator" v="Knerten Føynland AS" />
		<tag k="operator:type" v="private" />
		<tag k="start_date" v="2007-07-06" />
	</node>
	<node id="-2782" lat="59.2047" lon="10.4415">
		<tag k="amenity" v="kindergarten" />
		<tag k="capacity" v="81" />
		<tag k="contact:phone" v="33 40 29 90" />
		<tag k="max_age" v="5" />
		<tag k="min_age" v="1" />
		<tag k="name" v="Hårkollen barnehage" />
		<tag k="no-barnehage:nsrid" v="1017116" />
		<tag k="operator" v="Nøtterøy kommune" />
		<tag k="operator:type" v="public" />
		<tag k="start_date" v="2006-04-18" />
	</node>
	<node id="-2781" lat="59.24287" lon="10.3952">
		<tag k="amenity" v="kindergarten" />
		<tag k="capacity" v="20" />
		<tag k="contact:email" v="hundre.meterskogen@yahoo.no" />
		<tag k="contact:phone" v="95009695" />
		<tag k="max_age" v="5" />
		<tag k="min_age" v="1" />
		<tag k="name" v="Hundremeterskogen Barnehage, Nøtterøy Da" />
		<tag k="no-barnehage:nsrid" v="1020814" />
		<tag k="operator" v="Hundremeterskogen Barnehage, Nøtterøy Da" />
		<tag k="operator:type" v="private" />
		<tag k="start_date" v="2002-08-01" />
	</node>
	<node id="-2780" lat="59.2338" lon="10.4096">
		<tag k="amenity" v="kindergarten" />
		<tag k="capacity" v="38" />
		<tag k="contact:phone" v="971 70 525" />
		<tag k="max_age" v="5" />
		<tag k="min_age" v="1" />
		<tag k="name" v="Herstadløkka barnehage" />
		<tag k="no-barnehage:nsrid" v="1013804" />
		<tag k="operator" v="Nøtterøy kommune" />
		<tag k="operator:type" v="public" />
		<tag k="start_date" v="1989-01-02" />
	</node>
	<node id="-2779" lat="59.2223" lon="10.4171">
		<tag k="amenity" v="kindergarten" />
		<tag k="capacity" v="28" />
		<tag k="contact:phone" v="33 40 23 24" />
		<tag k="max_age" v="5" />
		<tag k="min_age" v="1" />
		<tag k="name" v="Gipø barnehage" />
		<tag k="no-barnehage:nsrid" v="1018031" />
		<tag k="operator" v="Nøtterøy kommune" />
		<tag k="operator:type" v="public" />
		<tag k="start_date" v="1989-01-01" />
	</node>
	<node id="-2778" lat="59.2366" lon="10.4485">
		<tag k="amenity" v="kindergarten" />
		<tag k="capacity" v="54" />
		<tag k="contact:phone" v="415 98 701" />
		<tag k="max_age" v="5" />
		<tag k="min_age" v="1" />
		<tag k="name" v="Føynland barnehage" />
		<tag k="no-barnehage:nsrid" v="1018030" />
		<tag k="operator" v="Nøtterøy kommune" />
		<tag k="operator:type" v="public" />
		<tag k="start_date" v="1989-01-01" />
	</node>
	<node id="-2777" lat="59.19615" lon="10.39096">
		<tag k="amenity" v="kindergarten" />
		<tag k="capacity" v="147" />
		<tag k="contact:phone" v="33 40 10 10" />
		<tag k="max_age" v="5" />
		<tag k="min_age" v="1" />
		<tag k="name" v="Brattås barnehage AS" />
		<tag k="no-barnehage:nsrid" v="1022004" />
		<tag k="operator" v="Brattås barnehage AS" />
		<tag k="operator:type" v="private" />
		<tag k="start_date" v="2009-11-05" />
	</node>
	<node id="-2786" lat="59.1987" lon="10.4394">
		<tag k="amenity" v="kindergarten" />
		<tag k="capacity" v="59" />
		<tag k="contact:phone" v="33 40 28 20" />
		<tag k="max_age" v="5" />
		<tag k="min_age" v="1" />
		<tag k="name" v="Oserød barnehage" />
		<tag k="no-barnehage:nsrid" v="1013250" />
		<tag k="operator" v="Nøtterøy kommune" />
		<tag k="operator:type" v="public" />
		<tag k="start_date" v="2005-08-01" />
	</node>
	<node id="-2785" lat="59.2388" lon="10.3951">
		<tag k="amenity" v="kindergarten" />
		<tag k="capacity" v="45" />
		<tag k="contact:phone" v="33 40 31 40" />
		<tag k="max_age" v="5" />
		<tag k="min_age" v="1" />
		<tag k="name" v="Labakken barnehage" />
		<tag k="no-barnehage:nsrid" v="1014693" />
		<tag k="operator" v="Nøtterøy kommune" />
		<tag k="operator:type" v="public" />
		<tag k="start_date" v="1991-08-15" />
	</node>
</osm>
