<?xml version="1.0" encoding="UTF-8"?>
<osm generator="osmapis" version="0.6">
	<node id="-3448" lat="63.05992" lon="7.63099">
		<tag k="ADDRESS" v="Naustvollhøgda 41, 6530 AVERØY" />
		<tag k="amenity" v="kindergarten" />
		<tag k="capacity" v="49" />
		<tag k="max_age" v="5" />
		<tag k="min_age" v="1" />
		<tag k="name" v="Mobarn Panorama barnehage" />
		<tag k="no-barnehage:nsrid" v="1025979" />
		<tag k="operator" v="Mobarn Sa" />
		<tag k="operator:type" v="private" />
	</node>
	<node id="-3447" lat="63.06204" lon="7.48891">
		<tag k="ADDRESS" v="Reksundveien 49, 6533 AVERØY" />
		<tag k="amenity" v="kindergarten" />
		<tag k="capacity" v="35" />
		<tag k="contact:website" v="http://laringsverkstedet.no" />
		<tag k="max_age" v="5" />
		<tag k="min_age" v="1" />
		<tag k="name" v="Læringsverkstedet barnehage avd. Øyane barnehage" />
		<tag k="no-barnehage:nsrid" v="1022251" />
		<tag k="operator" v="Læringsverkstedet AS" />
		<tag k="operator:type" v="private" />
	</node>
	<node id="-3449" lat="63.0648" lon="7.64707">
		<tag k="ADDRESS" v="Furuveien 15, 6530 AVERØY" />
		<tag k="amenity" v="kindergarten" />
		<tag k="capacity" v="50" />
		<tag k="contact:website" v="http://www.rosandaasen.mobarn.no" />
		<tag k="max_age" v="5" />
		<tag k="min_age" v="1" />
		<tag k="name" v="Mobarn Røsandåsen barnehage" />
		<tag k="no-barnehage:nsrid" v="1014051" />
		<tag k="operator" v="Mobarn Sa" />
		<tag k="operator:type" v="private" />
	</node>
</osm>
