<?xml version="1.0" encoding="UTF-8"?>
<osm generator="osmapis" version="0.6">
	<node id="-4704" lat="63.06413" lon="7.497428">
		<tag k="amenity" v="kindergarten" />
		<tag k="capacity" v="44" />
		<tag k="contact:email" v="wenche.vebenstad@barnehage.no" />
		<tag k="max_age" v="5" />
		<tag k="min_age" v="1" />
		<tag k="name" v="Øyane barnehage AS" />
		<tag k="no-barnehage:nsrid" v="1022251" />
		<tag k="operator" v="Øyane barnehage AS" />
		<tag k="operator:type" v="private" />
		<tag k="start_date" v="2012-02-15" />
	</node>
	<node id="-4703" lat="63.07963" lon="7.649017">
		<tag k="amenity" v="kindergarten" />
		<tag k="capacity" v="15" />
		<tag k="contact:email" v="sivbrandstad@hotmail.com" />
		<tag k="contact:phone" v="+47 71 51 62 02" />
		<tag k="max_age" v="5" />
		<tag k="min_age" v="1" />
		<tag k="name" v="Solsiden barnehage" />
		<tag k="no-barnehage:nsrid" v="1021549" />
		<tag k="operator" v="Brandstad barnehage" />
		<tag k="operator:type" v="private" />
		<tag k="start_date" v="2006-06-30" />
	</node>
	<node id="-4702" lat="63.0648" lon="7.64672">
		<tag k="amenity" v="kindergarten" />
		<tag k="capacity" v="65" />
		<tag k="contact:email" v="randi.brokstad@mobo.no" />
		<tag k="max_age" v="5" />
		<tag k="min_age" v="1" />
		<tag k="name" v="Røsandåsen barnehage" />
		<tag k="no-barnehage:nsrid" v="1014051" />
		<tag k="operator" v="Mobarn Sa" />
		<tag k="operator:type" v="private" />
		<tag k="start_date" v="2008-09-04" />
	</node>
	<node id="-4701" lat="62.90666" lon="6.91323">
		<tag k="amenity" v="kindergarten" />
		<tag k="capacity" v="42" />
		<tag k="contact:email" v="panorama@mobarn.no" />
		<tag k="max_age" v="5" />
		<tag k="min_age" v="1" />
		<tag k="name" v="Mobarn Panorama barnehage" />
		<tag k="no-barnehage:nsrid" v="1025979" />
		<tag k="operator" v="Mobarn Sa" />
		<tag k="operator:type" v="private" />
		<tag k="start_date" v="2015-05-01" />
	</node>
	<node id="-4700" lat="63.0796" lon="7.64902">
		<tag k="amenity" v="kindergarten" />
		<tag k="capacity" v="20" />
		<tag k="contact:email" v="meek.barnehage@averoy.kommune.no" />
		<tag k="contact:phone" v="+47 71 51 30 60" />
		<tag k="max_age" v="5" />
		<tag k="min_age" v="1" />
		<tag k="name" v="Meek Oppvekstsenter Avdeling Barnehage" />
		<tag k="no-barnehage:nsrid" v="1014897" />
		<tag k="operator" v="Averøy kommune" />
		<tag k="operator:type" v="public" />
		<tag k="start_date" v="1994-08-01" />
	</node>
	<node id="-4699" lat="63.018" lon="7.46757">
		<tag k="amenity" v="kindergarten" />
		<tag k="capacity" v="32" />
		<tag k="contact:email" v="Ingelill.fladseth@averoy.kommune.no" />
		<tag k="contact:phone" v="+47 71512506" />
		<tag k="max_age" v="5" />
		<tag k="min_age" v="1" />
		<tag k="name" v="Kårvåg barnehage" />
		<tag k="no-barnehage:nsrid" v="1012544" />
		<tag k="operator" v="Averøy kommune" />
		<tag k="operator:type" v="public" />
		<tag k="start_date" v="1989-01-02" />
	</node>
	<node id="-4697" lat="63.01797" lon="7.467568">
		<tag k="amenity" v="kindergarten" />
		<tag k="capacity" v="38" />
		<tag k="contact:email" v="basemor@online.no" />
		<tag k="contact:phone" v="+47 71 51 24 74" />
		<tag k="max_age" v="5" />
		<tag k="min_age" v="1" />
		<tag k="name" v="Båsemor Ans" />
		<tag k="no-barnehage:nsrid" v="1020953" />
		<tag k="operator" v="Båsemor Ans" />
		<tag k="operator:type" v="private" />
		<tag k="start_date" v="2003-08-19" />
	</node>
	<node id="-4696" lat="63.0843" lon="7.65817">
		<tag k="amenity" v="kindergarten" />
		<tag k="capacity" v="51" />
		<tag k="contact:email" v="bremsnes.barnehage@averoy.kommune.no" />
		<tag k="contact:phone" v="+47 71 51 35 70" />
		<tag k="max_age" v="5" />
		<tag k="min_age" v="1" />
		<tag k="name" v="Bremsnes barnehage" />
		<tag k="no-barnehage:nsrid" v="1013793" />
		<tag k="operator" v="Averøy kommune" />
		<tag k="operator:type" v="public" />
		<tag k="start_date" v="1989-01-02" />
	</node>
</osm>
