<?xml version="1.0" encoding="UTF-8"?>
<osm generator="osmapis" version="0.6">
	<node id="-896" lat="60.0484" lon="10.8714">
		<tag k="amenity" v="kindergarten" />
		<tag k="capacity" v="62" />
		<tag k="contact:email" v="mona.sigvartsen.haugen@nittedal.kommune.no" />
		<tag k="contact:phone" v="+47 67 07 98 20" />
		<tag k="max_age" v="5" />
		<tag k="min_age" v="1" />
		<tag k="name" v="Nygård barnehage" />
		<tag k="no-barnehage:nsrid" v="1017543" />
		<tag k="operator" v="Nittedal kommune" />
		<tag k="operator:type" v="public" />
		<tag k="start_date" v="1988-04-01" />
	</node>
	<node id="-895" lat="59.9833" lon="10.9369">
		<tag k="amenity" v="kindergarten" />
		<tag k="capacity" v="52" />
		<tag k="contact:email" v="marit.nostberg@nittedal.kommune.no" />
		<tag k="contact:phone" v="+47 63 79 14 70" />
		<tag k="max_age" v="5" />
		<tag k="min_age" v="1" />
		<tag k="name" v="Mortetjern barnehage" />
		<tag k="no-barnehage:nsrid" v="1017542" />
		<tag k="operator" v="Nittedal kommune" />
		<tag k="operator:type" v="public" />
		<tag k="start_date" v="1988-04-01" />
	</node>
	<node id="-894" lat="60.10498" lon="10.89286">
		<tag k="amenity" v="kindergarten" />
		<tag k="capacity" v="20" />
		<tag k="contact:email" v="m-halvda@online.no" />
		<tag k="contact:phone" v="+47 67 07 53 63" />
		<tag k="contact:website" v="http://www.maristuabarnehage.no" />
		<tag k="max_age" v="5" />
		<tag k="min_age" v="1" />
		<tag k="name" v="Maristua barnehage Sa" />
		<tag k="no-barnehage:nsrid" v="1019624" />
		<tag k="operator" v="Maristua barnehage Sa" />
		<tag k="operator:type" v="private" />
		<tag k="start_date" v="1982-01-01" />
	</node>
	<node id="-893" lat="60.0093" lon="10.9142">
		<tag k="amenity" v="kindergarten" />
		<tag k="capacity" v="78" />
		<tag k="contact:email" v="kontor@laringsverkstedet.no" />
		<tag k="max_age" v="5" />
		<tag k="min_age" v="1" />
		<tag k="name" v="Læringsverkstedet barnehage Avd Slattum" />
		<tag k="no-barnehage:nsrid" v="1018430" />
		<tag k="operator" v="Læringsverkstedet AS" />
		<tag k="operator:type" v="private" />
		<tag k="start_date" v="2008-08-01" />
	</node>
	<node id="-892" lat="59.9939" lon="10.904">
		<tag k="amenity" v="kindergarten" />
		<tag k="capacity" v="69" />
		<tag k="contact:email" v="skytta@laringsverkstedet.no" />
		<tag k="max_age" v="5" />
		<tag k="min_age" v="1" />
		<tag k="name" v="Læringsverkstedet barnehage Avd Skytta" />
		<tag k="no-barnehage:nsrid" v="1014289" />
		<tag k="operator" v="Læringsverkstedet AS" />
		<tag k="operator:type" v="private" />
		<tag k="start_date" v="2011-07-01" />
	</node>
	<node id="-891" lat="60.0135" lon="10.9116">
		<tag k="amenity" v="kindergarten" />
		<tag k="capacity" v="77" />
		<tag k="contact:email" v="kontor@laringsverkstedet.no" />
		<tag k="max_age" v="5" />
		<tag k="min_age" v="1" />
		<tag k="name" v="Læringsverkstedet barnehage Avd Haugeråsen" />
		<tag k="no-barnehage:nsrid" v="1014173" />
		<tag k="operator" v="Læringsverkstedet AS" />
		<tag k="operator:type" v="private" />
		<tag k="start_date" v="2010-08-16" />
	</node>
	<node id="-890" lat="60.05832" lon="10.86486">
		<tag k="amenity" v="kindergarten" />
		<tag k="capacity" v="85" />
		<tag k="contact:email" v="dl.kruttverket@bhg.no" />
		<tag k="max_age" v="5" />
		<tag k="min_age" v="1" />
		<tag k="name" v="Kruttverket Fus barnehage AS" />
		<tag k="no-barnehage:nsrid" v="1022065" />
		<tag k="operator" v="Kruttverket Fus barnehage AS" />
		<tag k="operator:type" v="private" />
		<tag k="start_date" v="2010-12-31" />
	</node>
	<node id="-889" lat="59.99072" lon="10.91452">
		<tag k="amenity" v="kindergarten" />
		<tag k="capacity" v="66" />
		<tag k="contact:email" v="dl.industriveien@bhg.no" />
		<tag k="max_age" v="5" />
		<tag k="min_age" v="1" />
		<tag k="name" v="Industriveien Fus barnehage AS" />
		<tag k="no-barnehage:nsrid" v="1021614" />
		<tag k="operator" v="Industriveien Fus barnehage AS" />
		<tag k="operator:type" v="private" />
		<tag k="start_date" v="2007-08-14" />
	</node>
	<node id="-888" lat="59.99595" lon="10.92163">
		<tag k="amenity" v="kindergarten" />
		<tag k="capacity" v="80" />
		<tag k="contact:email" v="dagligleder@hundremeter.no" />
		<tag k="contact:phone" v="+47 67 06 07 60" />
		<tag k="contact:website" v="http://www.hundremeter.no" />
		<tag k="max_age" v="5" />
		<tag k="min_age" v="1" />
		<tag k="name" v="Hundremeterskogen barnehage Sa" />
		<tag k="no-barnehage:nsrid" v="1020878" />
		<tag k="operator" v="Hundremeterskogen barnehage Sa" />
		<tag k="operator:type" v="private" />
		<tag k="start_date" v="2003-01-24" />
	</node>
	<node id="-887" lat="60.00528" lon="10.92028">
		<tag k="amenity" v="kindergarten" />
		<tag k="capacity" v="62" />
		<tag k="contact:email" v="gnisten@online.no" />
		<tag k="contact:phone" v="+47 67 06 97 80" />
		<tag k="contact:website" v="http://wwww.gnisten.barnehage.no" />
		<tag k="max_age" v="5" />
		<tag k="min_age" v="1" />
		<tag k="name" v="Gnisten barnehage Sa" />
		<tag k="no-barnehage:nsrid" v="1021036" />
		<tag k="operator" v="Gnisten barnehage Sa" />
		<tag k="operator:type" v="private" />
		<tag k="start_date" v="2004-04-05" />
	</node>
	<node id="-886" lat="60.1124" lon="10.8793">
		<tag k="amenity" v="kindergarten" />
		<tag k="capacity" v="18" />
		<tag k="contact:email" v="tove.nilssen@ula.no" />
		<tag k="max_age" v="5" />
		<tag k="min_age" v="1" />
		<tag k="name" v="Glittre barnehage" />
		<tag k="no-barnehage:nsrid" v="1016820" />
		<tag k="operator" v="Ulna AS" />
		<tag k="operator:type" v="private" />
		<tag k="start_date" v="1989-01-01" />
	</node>
	<node id="-885" lat="59.99807" lon="10.91772">
		<tag k="amenity" v="kindergarten" />
		<tag k="capacity" v="16" />
		<tag k="contact:email" v="gro@skytta.no" />
		<tag k="contact:phone" v="+47 92898323" />
		<tag k="contact:website" v="http://www.fortetnaturbarnehage.no" />
		<tag k="max_age" v="5" />
		<tag k="min_age" v="1" />
		<tag k="name" v="Fortet Naturbarnehage Fredriksen" />
		<tag k="no-barnehage:nsrid" v="1020206" />
		<tag k="operator" v="Fortet Naturbarnehage Fredriksen" />
		<tag k="operator:type" v="private" />
		<tag k="start_date" v="1995-04-06" />
	</node>
	<node id="-884" lat="59.99831" lon="10.93227">
		<tag k="amenity" v="kindergarten" />
		<tag k="capacity" v="73" />
		<tag k="contact:email" v="styrer@snurrefjellet.espira.no" />
		<tag k="contact:phone" v="+47 52 84 50 20" />
		<tag k="contact:website" v="http://www.espira.no" />
		<tag k="max_age" v="5" />
		<tag k="min_age" v="1" />
		<tag k="name" v="Espira Snurrefjellet barnehage" />
		<tag k="no-barnehage:nsrid" v="1021062" />
		<tag k="operator" v="Espira Snurrefjellet AS" />
		<tag k="operator:type" v="private" />
		<tag k="start_date" v="2004-06-03" />
	</node>
	<node id="-883" lat="60.0533" lon="10.8778">
		<tag k="amenity" v="kindergarten" />
		<tag k="capacity" v="47" />
		<tag k="contact:email" v="stine.folleras.sigvartsen@nittedal.kommune.no" />
		<tag k="contact:phone" v="+47 67 07 15 72" />
		<tag k="max_age" v="5" />
		<tag k="min_age" v="1" />
		<tag k="name" v="Bjertnes barnehage" />
		<tag k="no-barnehage:nsrid" v="1013891" />
		<tag k="operator" v="Nittedal kommune" />
		<tag k="operator:type" v="public" />
		<tag k="start_date" v="1989-01-01" />
	</node>
	<node id="-912" lat="60.0903" lon="10.8686">
		<tag k="amenity" v="kindergarten" />
		<tag k="capacity" v="27" />
		<tag k="contact:email" v="carina.bonnevie-sv@nittedal.kommune.no" />
		<tag k="contact:phone" v="+47 67 07 01 58" />
		<tag k="max_age" v="5" />
		<tag k="min_age" v="1" />
		<tag k="name" v="Åneby barnehage" />
		<tag k="no-barnehage:nsrid" v="1017360" />
		<tag k="operator" v="Nittedal kommune" />
		<tag k="operator:type" v="public" />
		<tag k="start_date" v="1976-01-01" />
	</node>
	<node id="-911" lat="60.10617" lon="10.84938">
		<tag k="amenity" v="kindergarten" />
		<tag k="capacity" v="104" />
		<tag k="contact:email" v="jorunn@varingskollenbhg.no" />
		<tag k="contact:phone" v="+47 67 05 11 30" />
		<tag k="contact:website" v="http://www.varingskollen.no" />
		<tag k="max_age" v="5" />
		<tag k="min_age" v="1" />
		<tag k="name" v="Varingskollen barnehage Sa" />
		<tag k="no-barnehage:nsrid" v="1020795" />
		<tag k="operator" v="Varingskollen barnehage Sa" />
		<tag k="operator:type" v="private" />
		<tag k="start_date" v="2002-08-31" />
	</node>
	<node id="-909" lat="60.11414" lon="10.8641">
		<tag k="amenity" v="kindergarten" />
		<tag k="capacity" v="51" />
		<tag k="contact:email" v="liv@toyenasen.no" />
		<tag k="contact:phone" v="+47 67 07 61 69" />
		<tag k="contact:website" v="http://www.toyenasen.no" />
		<tag k="max_age" v="5" />
		<tag k="min_age" v="1" />
		<tag k="name" v="Tøyenåsen Barnehagen" />
		<tag k="no-barnehage:nsrid" v="1019964" />
		<tag k="operator" v="Tøyenåsen barnehage Sa" />
		<tag k="operator:type" v="private" />
		<tag k="start_date" v="1991-01-01" />
	</node>
	<node id="-908" lat="60.1136" lon="10.8613">
		<tag k="amenity" v="kindergarten" />
		<tag k="capacity" v="41" />
		<tag k="contact:email" v="brit-tove.hjelmerud@nittedal.kommune.no" />
		<tag k="contact:phone" v="+47 67 07 47 35" />
		<tag k="max_age" v="5" />
		<tag k="min_age" v="1" />
		<tag k="name" v="Tøyen barnehage" />
		<tag k="no-barnehage:nsrid" v="1017544" />
		<tag k="operator" v="Nittedal kommune" />
		<tag k="operator:type" v="public" />
		<tag k="start_date" v="1988-04-01" />
	</node>
	<node id="-907" lat="60.05749" lon="10.86423">
		<tag k="amenity" v="kindergarten" />
		<tag k="capacity" v="26" />
		<tag k="contact:email" v="soerliba@online.no" />
		<tag k="contact:phone" v="+47 67 07 18 10" />
		<tag k="contact:website" v="http://sorliveien.barnehage.no" />
		<tag k="max_age" v="5" />
		<tag k="min_age" v="1" />
		<tag k="name" v="Sørliveien barnehage Sa" />
		<tag k="no-barnehage:nsrid" v="1020052" />
		<tag k="operator" v="Sørliveien barnehage Sa" />
		<tag k="operator:type" v="private" />
		<tag k="start_date" v="1992-08-01" />
	</node>
	<node id="-906" lat="60.0523" lon="10.8667">
		<tag k="amenity" v="kindergarten" />
		<tag k="capacity" v="40" />
		<tag k="contact:email" v="hege@stubben.no" />
		<tag k="max_age" v="5" />
		<tag k="min_age" v="1" />
		<tag k="name" v="Stubben barnehage Sa Avd Velveien" />
		<tag k="no-barnehage:nsrid" v="1013234" />
		<tag k="operator" v="Stubben barnehage Sa" />
		<tag k="operator:type" v="private" />
		<tag k="start_date" v="2005-01-01" />
	</node>
	<node id="-905" lat="60.0563" lon="10.8673">
		<tag k="amenity" v="kindergarten" />
		<tag k="capacity" v="34" />
		<tag k="contact:email" v="hege@stubben.no" />
		<tag k="contact:phone" v="+47 67 05 00 95" />
		<tag k="max_age" v="5" />
		<tag k="min_age" v="1" />
		<tag k="name" v="Stubben barnehage Sa Avd Nyveien" />
		<tag k="no-barnehage:nsrid" v="1016245" />
		<tag k="operator" v="Stubben barnehage Sa" />
		<tag k="operator:type" v="private" />
		<tag k="start_date" v="1995-02-27" />
	</node>
	<node id="-904" lat="60.06036" lon="10.85543">
		<tag k="amenity" v="kindergarten" />
		<tag k="capacity" v="53" />
		<tag k="contact:email" v="dagligleder@steinroysa.no" />
		<tag k="contact:phone" v="+47 67 05 10 10" />
		<tag k="max_age" v="5" />
		<tag k="min_age" v="1" />
		<tag k="name" v="Steinrøysa Andelsbarnehage Sa" />
		<tag k="no-barnehage:nsrid" v="1020562" />
		<tag k="operator" v="Steinrøysa Andelsbarnehage Sa" />
		<tag k="operator:type" v="private" />
		<tag k="start_date" v="1999-01-01" />
	</node>
	<node id="-903" lat="59.97977" lon="10.93722">
		<tag k="amenity" v="kindergarten" />
		<tag k="capacity" v="22" />
		<tag k="contact:email" v="solstuabhg@vikenfiber.no" />
		<tag k="contact:phone" v="+47 67 06 15 35" />
		<tag k="max_age" v="5" />
		<tag k="min_age" v="1" />
		<tag k="name" v="Solstua barnehage AS" />
		<tag k="no-barnehage:nsrid" v="1019787" />
		<tag k="operator" v="Solstua barnehage AS" />
		<tag k="operator:type" v="private" />
		<tag k="start_date" v="1989-01-02" />
	</node>
	<node id="-902" lat="59.99844" lon="10.92658">
		<tag k="amenity" v="kindergarten" />
		<tag k="capacity" v="47" />
		<tag k="contact:email" v="dl.skyset@bhg.no" />
		<tag k="contact:phone" v="+47 67 06 46 50" />
		<tag k="max_age" v="5" />
		<tag k="min_age" v="1" />
		<tag k="name" v="Skyset Fus barnehage AS" />
		<tag k="no-barnehage:nsrid" v="1020053" />
		<tag k="operator" v="Skyset Fus barnehage AS" />
		<tag k="operator:type" v="private" />
		<tag k="start_date" v="1990-01-08" />
	</node>
	<node id="-901" lat="60.00842" lon="10.91677">
		<tag k="amenity" v="kindergarten" />
		<tag k="capacity" v="59" />
		<tag k="contact:email" v="em@oslo.online.no" />
		<tag k="max_age" v="5" />
		<tag k="min_age" v="1" />
		<tag k="name" v="Sinoberbarnehagene AS" />
		<tag k="no-barnehage:nsrid" v="1020682" />
		<tag k="operator" v="Sinoberbarnehagene AS" />
		<tag k="operator:type" v="private" />
		<tag k="start_date" v="2000-08-15" />
	</node>
	<node id="-900" lat="60.05401" lon="10.87776">
		<tag k="amenity" v="kindergarten" />
		<tag k="capacity" v="84" />
		<tag k="contact:email" v="dl.rotnes@bhg.no" />
		<tag k="max_age" v="5" />
		<tag k="min_age" v="1" />
		<tag k="name" v="Rotnes Fus Kulturbarnehage AS" />
		<tag k="no-barnehage:nsrid" v="1021558" />
		<tag k="operator" v="Rotnes Fus Kulturbarnehage AS" />
		<tag k="operator:type" v="private" />
		<tag k="start_date" v="2006-12-01" />
	</node>
	<node id="-899" lat="59.99835" lon="10.92971">
		<tag k="amenity" v="kindergarten" />
		<tag k="capacity" v="14" />
		<tag k="contact:email" v="melby67@gmail.no" />
		<tag k="contact:phone" v="+47 932 962 68" />
		<tag k="max_age" v="5" />
		<tag k="min_age" v="1" />
		<tag k="name" v="Parken barnehage Ans" />
		<tag k="no-barnehage:nsrid" v="1020788" />
		<tag k="operator" v="Parken barnehage Ans" />
		<tag k="operator:type" v="private" />
		<tag k="start_date" v="2002-01-01" />
	</node>
	<node id="-897" lat="60.10611" lon="10.84363">
		<tag k="amenity" v="kindergarten" />
		<tag k="capacity" v="17" />
		<tag k="contact:email" v="elengese@online.no" />
		<tag k="max_age" v="5" />
		<tag k="min_age" v="1" />
		<tag k="name" v="Oterstien barnehage AS" />
		<tag k="no-barnehage:nsrid" v="1022328" />
		<tag k="operator" v="Oterstien barnehage AS" />
		<tag k="operator:type" v="private" />
		<tag k="start_date" v="2004-06-01" />
	</node>
</osm>
