<?xml version="1.0" encoding="UTF-8"?>
<osm generator="osmapis" version="0.6">
	<node id="-1767" lat="61.03445" lon="10.74792">
		<tag k="amenity" v="kindergarten" />
		<tag k="capacity" v="7" />
		<tag k="doNotImportAddress" v="Fjellvegen 49 2365 ÅSMARKA" />
		<tag k="max_age" v="5" />
		<tag k="min_age" v="1" />
		<tag k="name" v="Kjeldbakken familiebarnehage" />
		<tag k="no-barnehage:nsrid" v="1020041" />
		<tag k="operator" v="Britt Eriksen" />
		<tag k="operator:type" v="private" />
	</node>
	<node id="-1782" lat="60.91696" lon="10.70854">
		<tag k="amenity" v="kindergarten" />
		<tag k="capacity" v="4" />
		<tag k="doNotImportAddress" v="Storgata 171 2390 MOELV" />
		<tag k="max_age" v="5" />
		<tag k="min_age" v="1" />
		<tag k="name" v="Stensbak familiebarnehage" />
		<tag k="no-barnehage:nsrid" v="1021813" />
		<tag k="operator" v="Hanna S Skaaren-Fystro" />
		<tag k="operator:type" v="private" />
	</node>
	<node id="-1771" lat="60.79527" lon="11.07563">
		<tag k="amenity" v="kindergarten" />
		<tag k="capacity" v="14" />
		<tag k="doNotImportAddress" v="Liavegen 51 2387 BRUMUNDDAL" />
		<tag k="max_age" v="5" />
		<tag k="min_age" v="1" />
		<tag k="name" v="Liaveien familiebarnehage Stein Arneberg" />
		<tag k="no-barnehage:nsrid" v="1020580" />
		<tag k="operator" v="Liaveien Familiebarnehage Stein Arneberg" />
		<tag k="operator:type" v="private" />
	</node>
	<node id="-1762" lat="60.8681" lon="10.87051">
		<tag k="amenity" v="kindergarten" />
		<tag k="capacity" v="11" />
		<tag k="doNotImportAddress" v="Rørsvegen 319 2384 BRUMUNDDAL" />
		<tag k="max_age" v="5" />
		<tag k="min_age" v="1" />
		<tag k="name" v="Fredbo familiebarnehage" />
		<tag k="no-barnehage:nsrid" v="1020613" />
		<tag k="operator" v="Helle Skjellerud Kløvimo" />
		<tag k="operator:type" v="private" />
	</node>
	<node id="-1779" lat="60.84605" lon="11.04553">
		<tag k="amenity" v="kindergarten" />
		<tag k="capacity" v="5" />
		<tag k="doNotImportAddress" v="Lyksetvegen 15 2320 FURNES" />
		<tag k="max_age" v="5" />
		<tag k="min_age" v="1" />
		<tag k="name" v="Nydal familiebarnehage" />
		<tag k="no-barnehage:nsrid" v="1020659" />
		<tag k="operator" v="Hege Lund-Asphaug" />
		<tag k="operator:type" v="private" />
	</node>
</osm>
