<?xml version="1.0" encoding="UTF-8"?>
<osm generator="osmapis" version="0.6">
	<node id="-1451" lat="61.0268" lon="10.7539">
		<tag k="amenity" v="kindergarten" />
		<tag k="capacity" v="13" />
		<tag k="max_age" v="5" />
		<tag k="min_age" v="1" />
		<tag k="name" v="Åsen barnehage" />
		<tag k="no-barnehage:nsrid" v="1018486" />
		<tag k="operator" v="Ringsaker kommune" />
		<tag k="operator:type" v="public" />
	</node>
	<node id="-1450" lat="60.78178" lon="10.93887">
		<tag k="amenity" v="kindergarten" />
		<tag k="capacity" v="35" />
		<tag k="max_age" v="5" />
		<tag k="min_age" v="1" />
		<tag k="name" v="Årengen barnehage" />
		<tag k="no-barnehage:nsrid" v="1022101" />
		<tag k="operator" v="Årengen barnehage AS" />
		<tag k="operator:type" v="private" />
	</node>
	<node id="-1449" lat="60.798" lon="11.0686">
		<tag k="amenity" v="kindergarten" />
		<tag k="capacity" v="147" />
		<tag k="max_age" v="5" />
		<tag k="min_age" v="1" />
		<tag k="name" v="Øverkvern FUS barnehage" />
		<tag k="no-barnehage:nsrid" v="1013475" />
		<tag k="operator" v="Øverkvern Fus barnehage AS" />
		<tag k="operator:type" v="private" />
	</node>
	<node id="-1448" lat="60.92007" lon="10.90336">
		<tag k="amenity" v="kindergarten" />
		<tag k="capacity" v="71" />
		<tag k="contact:website" v="http://www.veldre.barnehage.no" />
		<tag k="max_age" v="5" />
		<tag k="min_age" v="1" />
		<tag k="name" v="Veldre barnehage" />
		<tag k="no-barnehage:nsrid" v="1020005" />
		<tag k="operator" v="Veldre barnehage Sa" />
		<tag k="operator:type" v="private" />
	</node>
	<node id="-1447" lat="60.8967" lon="10.943">
		<tag k="amenity" v="kindergarten" />
		<tag k="capacity" v="53" />
		<tag k="max_age" v="5" />
		<tag k="min_age" v="1" />
		<tag k="name" v="Tømmerli barnehage" />
		<tag k="no-barnehage:nsrid" v="1013114" />
		<tag k="operator" v="Ringsaker kommune" />
		<tag k="operator:type" v="public" />
	</node>
	<node id="-1446" lat="60.93956" lon="10.70838">
		<tag k="amenity" v="kindergarten" />
		<tag k="capacity" v="61" />
		<tag k="max_age" v="5" />
		<tag k="min_age" v="1" />
		<tag k="name" v="Stiftelsen Borgen barnehage" />
		<tag k="no-barnehage:nsrid" v="1020593" />
		<tag k="operator" v="Stiftelsen Borgen barnehage" />
		<tag k="operator:type" v="private" />
	</node>
	<node id="-1444" lat="60.82496" lon="11.05792">
		<tag k="amenity" v="kindergarten" />
		<tag k="capacity" v="48" />
		<tag k="max_age" v="5" />
		<tag k="min_age" v="1" />
		<tag k="name" v="Stavsberg barnehage" />
		<tag k="no-barnehage:nsrid" v="1020210" />
		<tag k="operator" v="Stavsberg barnehage Sa" />
		<tag k="operator:type" v="private" />
	</node>
	<node id="-1443" lat="60.8015" lon="10.8501">
		<tag k="amenity" v="kindergarten" />
		<tag k="capacity" v="139" />
		<tag k="max_age" v="5" />
		<tag k="min_age" v="1" />
		<tag k="name" v="Nes barnehage" />
		<tag k="no-barnehage:nsrid" v="1014217" />
		<tag k="operator" v="Ringsaker kommune" />
		<tag k="operator:type" v="public" />
	</node>
	<node id="-1442" lat="61.03247" lon="10.54484">
		<tag k="amenity" v="kindergarten" />
		<tag k="capacity" v="28" />
		<tag k="max_age" v="5" />
		<tag k="min_age" v="1" />
		<tag k="name" v="Mæhlumslykkja barnehage" />
		<tag k="no-barnehage:nsrid" v="1019996" />
		<tag k="operator" v="Mælumslykkja barnehage Sa" />
		<tag k="operator:type" v="private" />
	</node>
	<node id="-1441" lat="60.9316" lon="10.7019">
		<tag k="amenity" v="kindergarten" />
		<tag k="capacity" v="56" />
		<tag k="max_age" v="5" />
		<tag k="min_age" v="1" />
		<tag k="name" v="Moelv barnehage" />
		<tag k="no-barnehage:nsrid" v="1017332" />
		<tag k="operator" v="Ringsaker kommune" />
		<tag k="operator:type" v="public" />
	</node>
	<node id="-1440" lat="61.10577" lon="10.69436">
		<tag k="amenity" v="kindergarten" />
		<tag k="capacity" v="35" />
		<tag k="max_age" v="5" />
		<tag k="min_age" v="1" />
		<tag k="name" v="Mesnali barnehage Al" />
		<tag k="no-barnehage:nsrid" v="1019975" />
		<tag k="operator" v="Mesnali barnehage Sa" />
		<tag k="operator:type" v="private" />
	</node>
	<node id="-1439" lat="60.84939" lon="11.05809">
		<tag k="amenity" v="kindergarten" />
		<tag k="capacity" v="93" />
		<tag k="max_age" v="5" />
		<tag k="min_age" v="1" />
		<tag k="name" v="Marihøna gårds- og friluftsbarnehage" />
		<tag k="no-barnehage:nsrid" v="2000106" />
		<tag k="operator" v="Marihøna Gårds- og Friluftsbarnehage AS" />
		<tag k="operator:type" v="private" />
	</node>
	<node id="-1438" lat="61.0719" lon="10.6284">
		<tag k="amenity" v="kindergarten" />
		<tag k="capacity" v="29" />
		<tag k="max_age" v="5" />
		<tag k="min_age" v="1" />
		<tag k="name" v="Lismarka barnehage" />
		<tag k="no-barnehage:nsrid" v="1017561" />
		<tag k="operator" v="Ringsaker kommune" />
		<tag k="operator:type" v="public" />
	</node>
	<node id="-1436" lat="60.8364" lon="11.0264">
		<tag k="amenity" v="kindergarten" />
		<tag k="capacity" v="14" />
		<tag k="max_age" v="5" />
		<tag k="min_age" v="1" />
		<tag k="name" v="Kylstad barnehage" />
		<tag k="no-barnehage:nsrid" v="1013931" />
		<tag k="operator" v="Ringsaker kommune" />
		<tag k="operator:type" v="public" />
	</node>
	<node id="-1435" lat="60.8979" lon="10.92809">
		<tag k="amenity" v="kindergarten" />
		<tag k="capacity" v="15" />
		<tag k="max_age" v="5" />
		<tag k="min_age" v="1" />
		<tag k="name" v="Kjerringhaugen Steinerbarnehage" />
		<tag k="no-barnehage:nsrid" v="1020811" />
		<tag k="operator" v="Kjerringhaugen Steinerbarnehage" />
		<tag k="operator:type" v="private" />
	</node>
	<node id="-1434" lat="60.8993" lon="10.9583">
		<tag k="amenity" v="kindergarten" />
		<tag k="capacity" v="47" />
		<tag k="max_age" v="5" />
		<tag k="min_age" v="1" />
		<tag k="name" v="Hempa barnehage" />
		<tag k="no-barnehage:nsrid" v="1017560" />
		<tag k="operator" v="Ringsaker kommune" />
		<tag k="operator:type" v="public" />
	</node>
	<node id="-1433" lat="60.86913" lon="10.77405">
		<tag k="amenity" v="kindergarten" />
		<tag k="capacity" v="33" />
		<tag k="max_age" v="5" />
		<tag k="min_age" v="1" />
		<tag k="name" v="Gaupen barnehage" />
		<tag k="no-barnehage:nsrid" v="1020997" />
		<tag k="operator" v="Gaupen barnehage AS" />
		<tag k="operator:type" v="private" />
	</node>
	<node id="-1432" lat="60.8364" lon="11.0264">
		<tag k="amenity" v="kindergarten" />
		<tag k="capacity" v="27" />
		<tag k="max_age" v="5" />
		<tag k="min_age" v="1" />
		<tag k="name" v="Furnes barnehage" />
		<tag k="no-barnehage:nsrid" v="1017559" />
		<tag k="operator" v="Ringsaker kommune" />
		<tag k="operator:type" v="public" />
	</node>
	<node id="-1431" lat="60.8747" lon="10.9562">
		<tag k="amenity" v="kindergarten" />
		<tag k="capacity" v="44" />
		<tag k="max_age" v="5" />
		<tag k="min_age" v="1" />
		<tag k="name" v="Fredheimvegen barnehage" />
		<tag k="no-barnehage:nsrid" v="1017558" />
		<tag k="operator" v="Ringsaker kommune" />
		<tag k="operator:type" v="public" />
	</node>
	<node id="-1429" lat="60.9396" lon="10.7157">
		<tag k="amenity" v="kindergarten" />
		<tag k="capacity" v="51" />
		<tag k="max_age" v="5" />
		<tag k="min_age" v="1" />
		<tag k="name" v="Fossen barnehage" />
		<tag k="no-barnehage:nsrid" v="1017557" />
		<tag k="operator" v="Ringsaker kommune" />
		<tag k="operator:type" v="public" />
	</node>
	<node id="-1428" lat="60.9728" lon="10.7763">
		<tag k="amenity" v="kindergarten" />
		<tag k="capacity" v="25" />
		<tag k="max_age" v="5" />
		<tag k="min_age" v="1" />
		<tag k="name" v="Fagernes barnehage" />
		<tag k="no-barnehage:nsrid" v="1016895" />
		<tag k="operator" v="Ringsaker kommune" />
		<tag k="operator:type" v="public" />
	</node>
	<node id="-1427" lat="60.8822" lon="10.9542">
		<tag k="amenity" v="kindergarten" />
		<tag k="capacity" v="65" />
		<tag k="max_age" v="5" />
		<tag k="min_age" v="1" />
		<tag k="name" v="Buttekvern barnehage" />
		<tag k="no-barnehage:nsrid" v="1017556" />
		<tag k="operator" v="Ringsaker kommune" />
		<tag k="operator:type" v="public" />
	</node>
	<node id="-1426" lat="61.0286" lon="10.5531">
		<tag k="amenity" v="kindergarten" />
		<tag k="capacity" v="37" />
		<tag k="max_age" v="5" />
		<tag k="min_age" v="1" />
		<tag k="name" v="Brøttum barnehage" />
		<tag k="no-barnehage:nsrid" v="1016898" />
		<tag k="operator" v="Ringsaker kommune" />
		<tag k="operator:type" v="public" />
	</node>
	<node id="-1425" lat="60.8876" lon="10.949">
		<tag k="amenity" v="kindergarten" />
		<tag k="name" v="Brumunddal, Moelv og Nes åpen barnehage" />
		<tag k="no-barnehage:nsrid" v="1013040" />
		<tag k="operator" v="Ringsaker kommune" />
		<tag k="operator:type" v="public" />
	</node>
	<node id="-1424" lat="60.94282" lon="10.97882">
		<tag k="amenity" v="kindergarten" />
		<tag k="capacity" v="12" />
		<tag k="contact:website" v="http://brumund.barnehage.no" />
		<tag k="max_age" v="5" />
		<tag k="min_age" v="1" />
		<tag k="name" v="Brumund barnehage" />
		<tag k="no-barnehage:nsrid" v="1021026" />
		<tag k="operator" v="Brumund Oppvekstsenter Sa" />
		<tag k="operator:type" v="private" />
	</node>
	<node id="-1423" lat="60.89141" lon="10.92881">
		<tag k="amenity" v="kindergarten" />
		<tag k="capacity" v="76" />
		<tag k="max_age" v="5" />
		<tag k="min_age" v="1" />
		<tag k="name" v="Bjørkebo barnehage Al" />
		<tag k="no-barnehage:nsrid" v="1020042" />
		<tag k="operator" v="Bjørkebo barnehage Sa" />
		<tag k="operator:type" v="private" />
	</node>
	<node id="-1422" lat="60.8912" lon="10.9306">
		<tag k="amenity" v="kindergarten" />
		<tag k="capacity" v="85" />
		<tag k="max_age" v="5" />
		<tag k="min_age" v="1" />
		<tag k="name" v="Bakkehaugen barnehage" />
		<tag k="no-barnehage:nsrid" v="1018461" />
		<tag k="operator" v="Ringsaker kommune" />
		<tag k="operator:type" v="public" />
	</node>
</osm>
