<?xml version="1.0" encoding="UTF-8"?>
<osm generator="osmapis" version="0.6">
	<node id="-1859" lat="61.0268" lon="10.7539">
		<tag k="amenity" v="kindergarten" />
		<tag k="capacity" v="14" />
		<tag k="contact:email" v="aob@ringsaker.kommune.no" />
		<tag k="max_age" v="5" />
		<tag k="min_age" v="1" />
		<tag k="name" v="Åsen barnehage" />
		<tag k="no-barnehage:nsrid" v="1018486" />
		<tag k="operator" v="Ringsaker kommune" />
		<tag k="operator:type" v="public" />
		<tag k="start_date" v="2008-10-15" />
	</node>
	<node id="-1858" lat="60.78178" lon="10.93887">
		<tag k="amenity" v="kindergarten" />
		<tag k="capacity" v="36" />
		<tag k="contact:email" v="styrer@arengenbarnehage.no" />
		<tag k="max_age" v="5" />
		<tag k="min_age" v="1" />
		<tag k="name" v="Årengen barnehage AS" />
		<tag k="no-barnehage:nsrid" v="1022101" />
		<tag k="operator" v="Årengen barnehage AS" />
		<tag k="operator:type" v="private" />
		<tag k="start_date" v="2010-07-01" />
	</node>
	<node id="-1857" lat="60.798" lon="11.0686">
		<tag k="amenity" v="kindergarten" />
		<tag k="capacity" v="136" />
		<tag k="contact:email" v="dl.overkvern@bhg.no" />
		<tag k="max_age" v="5" />
		<tag k="min_age" v="1" />
		<tag k="name" v="Øverkvern Fus barnehage" />
		<tag k="no-barnehage:nsrid" v="1013475" />
		<tag k="operator" v="Øverkvern Fus barnehage AS" />
		<tag k="operator:type" v="private" />
		<tag k="start_date" v="2010-01-01" />
	</node>
	<node id="-1856" lat="60.8884" lon="10.9363">
		<tag k="amenity" v="kindergarten" />
		<tag k="capacity" v="29" />
		<tag k="contact:email" v="ggk@ringsaker.kommune.no" />
		<tag k="max_age" v="5" />
		<tag k="min_age" v="1" />
		<tag k="name" v="Vesleparken barnehage" />
		<tag k="no-barnehage:nsrid" v="1017562" />
		<tag k="operator" v="Ringsaker kommune" />
		<tag k="operator:type" v="public" />
		<tag k="start_date" v="1988-04-01" />
	</node>
	<node id="-1855" lat="60.92007" lon="10.90336">
		<tag k="amenity" v="kindergarten" />
		<tag k="capacity" v="74" />
		<tag k="contact:email" v="mail@veldrebarnehage.no" />
		<tag k="contact:phone" v="62 33 41 80" />
		<tag k="contact:website" v="http://www.veldre.barnehage.no" />
		<tag k="max_age" v="5" />
		<tag k="min_age" v="1" />
		<tag k="name" v="Veldre barnehage Sa" />
		<tag k="no-barnehage:nsrid" v="1020005" />
		<tag k="operator" v="Veldre barnehage Sa" />
		<tag k="operator:type" v="private" />
		<tag k="start_date" v="1991-07-01" />
	</node>
	<node id="-1854" lat="60.8967" lon="10.943">
		<tag k="amenity" v="kindergarten" />
		<tag k="capacity" v="55" />
		<tag k="contact:email" v="bmh@ringsaker.kommune.no" />
		<tag k="contact:phone" v="62 36 80 32" />
		<tag k="max_age" v="5" />
		<tag k="min_age" v="1" />
		<tag k="name" v="Tømmerli barnehage" />
		<tag k="no-barnehage:nsrid" v="1013114" />
		<tag k="operator" v="Ringsaker kommune" />
		<tag k="operator:type" v="public" />
		<tag k="start_date" v="2004-08-01" />
	</node>
	<node id="-1852" lat="60.88741" lon="10.93865">
		<tag k="amenity" v="kindergarten" />
		<tag k="capacity" v="17" />
		<tag k="contact:email" v="post@tunetbarnehage.no" />
		<tag k="contact:phone" v="62 35 65 22" />
		<tag k="max_age" v="5" />
		<tag k="min_age" v="1" />
		<tag k="name" v="Tunet barnehage AS" />
		<tag k="no-barnehage:nsrid" v="1020837" />
		<tag k="operator" v="Tunet barnehage AS" />
		<tag k="operator:type" v="private" />
		<tag k="start_date" v="2002-08-01" />
	</node>
	<node id="-1851" lat="60.93956" lon="10.70838">
		<tag k="amenity" v="kindergarten" />
		<tag k="capacity" v="53" />
		<tag k="contact:email" v="post@borgenbarnehage.no" />
		<tag k="contact:phone" v="62 36 88 14" />
		<tag k="max_age" v="5" />
		<tag k="min_age" v="1" />
		<tag k="name" v="Stiftelsen Borgen barnehage" />
		<tag k="no-barnehage:nsrid" v="1020593" />
		<tag k="operator" v="Stiftelsen Borgen barnehage" />
		<tag k="operator:type" v="private" />
		<tag k="start_date" v="1989-01-02" />
	</node>
	<node id="-1849" lat="60.82496" lon="11.05792">
		<tag k="amenity" v="kindergarten" />
		<tag k="capacity" v="52" />
		<tag k="contact:email" v="barnehage@stavsberg.no" />
		<tag k="contact:phone" v="62 35 00 94" />
		<tag k="max_age" v="5" />
		<tag k="min_age" v="1" />
		<tag k="name" v="Stavsberg barnehage Sa" />
		<tag k="no-barnehage:nsrid" v="1020210" />
		<tag k="operator" v="Stavsberg barnehage Sa" />
		<tag k="operator:type" v="private" />
		<tag k="start_date" v="1995-12-31" />
	</node>
	<node id="-1848" lat="60.8206" lon="11.0564">
		<tag k="amenity" v="kindergarten" />
		<tag k="capacity" v="62" />
		<tag k="contact:email" v="kla@ringsaker.kommune.no" />
		<tag k="max_age" v="5" />
		<tag k="min_age" v="1" />
		<tag k="name" v="Simenstua barnehage" />
		<tag k="no-barnehage:nsrid" v="1015096" />
		<tag k="operator" v="Ringsaker kommune" />
		<tag k="operator:type" v="public" />
		<tag k="start_date" v="2012-08-01" />
	</node>
	<node id="-1846" lat="60.99276" lon="10.67537">
		<tag k="amenity" v="kindergarten" />
		<tag k="capacity" v="22" />
		<tag k="contact:email" v="nordheim@bbnett.no" />
		<tag k="contact:phone" v="62 36 48 26" />
		<tag k="contact:website" v="http://www.nordheimfriluft.barnehage.no" />
		<tag k="max_age" v="5" />
		<tag k="min_age" v="1" />
		<tag k="name" v="Nordheim Friluftsbarnehage Sa" />
		<tag k="no-barnehage:nsrid" v="1020653" />
		<tag k="operator" v="Nordheim Friluftsbarnehage Sa" />
		<tag k="operator:type" v="private" />
		<tag k="start_date" v="2000-08-11" />
	</node>
	<node id="-1845" lat="60.8015" lon="10.8501">
		<tag k="amenity" v="kindergarten" />
		<tag k="capacity" v="148" />
		<tag k="contact:email" v="tkr@ringsaker.kommune.no" />
		<tag k="contact:phone" v="90 63 45 55" />
		<tag k="max_age" v="5" />
		<tag k="min_age" v="1" />
		<tag k="name" v="Nes barnehage" />
		<tag k="no-barnehage:nsrid" v="1014217" />
		<tag k="operator" v="Ringsaker kommune" />
		<tag k="operator:type" v="public" />
		<tag k="start_date" v="2010-10-18" />
	</node>
	<node id="-1844" lat="61.03247" lon="10.54484">
		<tag k="amenity" v="kindergarten" />
		<tag k="capacity" v="28" />
		<tag k="contact:email" v="post@maelumslykkja.no" />
		<tag k="contact:phone" v="62 36 07 63" />
		<tag k="max_age" v="5" />
		<tag k="min_age" v="1" />
		<tag k="name" v="Mæhlumslykkja barnehage Ba" />
		<tag k="no-barnehage:nsrid" v="1019996" />
		<tag k="operator" v="Mælumslykkja barnehage Sa" />
		<tag k="operator:type" v="private" />
		<tag k="start_date" v="1991-10-01" />
	</node>
	<node id="-1843" lat="60.9316" lon="10.7019">
		<tag k="amenity" v="kindergarten" />
		<tag k="capacity" v="60" />
		<tag k="contact:email" v="msl@ringsaker.kommune.no" />
		<tag k="max_age" v="5" />
		<tag k="min_age" v="1" />
		<tag k="name" v="Moelv barnehage" />
		<tag k="no-barnehage:nsrid" v="1017332" />
		<tag k="operator" v="Ringsaker kommune" />
		<tag k="operator:type" v="public" />
		<tag k="start_date" v="1976-12-24" />
	</node>
	<node id="-1842" lat="61.10577" lon="10.69436">
		<tag k="amenity" v="kindergarten" />
		<tag k="capacity" v="37" />
		<tag k="contact:email" v="m.bhg@frisurf.no" />
		<tag k="contact:phone" v="62 36 30 51" />
		<tag k="max_age" v="5" />
		<tag k="min_age" v="1" />
		<tag k="name" v="Mesnali barnehage Al" />
		<tag k="no-barnehage:nsrid" v="1019975" />
		<tag k="operator" v="Mesnali barnehage Sa" />
		<tag k="operator:type" v="private" />
		<tag k="start_date" v="1991-11-01" />
	</node>
	<node id="-1841" lat="60.84939" lon="11.05809">
		<tag k="amenity" v="kindergarten" />
		<tag k="capacity" v="80" />
		<tag k="contact:email" v="marihona.styrerskogen@gmail.com" />
		<tag k="contact:phone" v="99640973" />
		<tag k="max_age" v="5" />
		<tag k="min_age" v="1" />
		<tag k="name" v="Marihøne Montessori barnehage" />
		<tag k="no-barnehage:nsrid" v="1021038" />
		<tag k="operator" v="Mari Østby-Deglum" />
		<tag k="operator:type" v="private" />
		<tag k="start_date" v="2004-03-01" />
	</node>
	<node id="-1840" lat="61.0719" lon="10.6284">
		<tag k="amenity" v="kindergarten" />
		<tag k="capacity" v="46" />
		<tag k="contact:email" v="aob@ringsaker.kommune.no" />
		<tag k="max_age" v="5" />
		<tag k="min_age" v="1" />
		<tag k="name" v="Lismarka barnehage" />
		<tag k="no-barnehage:nsrid" v="1017561" />
		<tag k="operator" v="Ringsaker kommune" />
		<tag k="operator:type" v="public" />
		<tag k="start_date" v="1988-04-01" />
	</node>
	<node id="-1838" lat="60.9382" lon="10.6998">
		<tag k="amenity" v="kindergarten" />
		<tag k="capacity" v="13" />
		<tag k="contact:email" v="liabarnehage@afrmail.no" />
		<tag k="max_age" v="5" />
		<tag k="min_age" v="1" />
		<tag k="name" v="Lia barnehage" />
		<tag k="no-barnehage:nsrid" v="1016221" />
		<tag k="operator" v="Arbeiderbevegelsens Folkehøgskole Ringsaker AS" />
		<tag k="operator:type" v="private" />
		<tag k="start_date" v="1992-01-01" />
	</node>
	<node id="-1837" lat="60.8364" lon="11.0264">
		<tag k="amenity" v="kindergarten" />
		<tag k="capacity" v="15" />
		<tag k="contact:email" v="kla@ringsaker.kommune.no" />
		<tag k="max_age" v="5" />
		<tag k="min_age" v="1" />
		<tag k="name" v="Kylstad barnehage" />
		<tag k="no-barnehage:nsrid" v="1013931" />
		<tag k="operator" v="Ringsaker kommune" />
		<tag k="operator:type" v="public" />
		<tag k="start_date" v="1990-08-01" />
	</node>
	<node id="-1836" lat="60.93133" lon="10.69731">
		<tag k="amenity" v="kindergarten" />
		<tag k="capacity" v="51" />
		<tag k="contact:email" v="kremmeb@online.no" />
		<tag k="contact:phone" v="62 36 87 99" />
		<tag k="max_age" v="5" />
		<tag k="min_age" v="1" />
		<tag k="name" v="Kremmerhuset barnehage Sa" />
		<tag k="no-barnehage:nsrid" v="1020113" />
		<tag k="operator" v="Kremmerhuset barnehage Sa" />
		<tag k="operator:type" v="private" />
		<tag k="start_date" v="1992-12-17" />
	</node>
	<node id="-1835" lat="60.8979" lon="10.92809">
		<tag k="amenity" v="kindergarten" />
		<tag k="capacity" v="15" />
		<tag k="contact:email" v="kjerrist@online.no" />
		<tag k="contact:phone" v="62 34 17 98" />
		<tag k="max_age" v="5" />
		<tag k="min_age" v="1" />
		<tag k="name" v="Kjerringhaugen Steinerbarnehage" />
		<tag k="no-barnehage:nsrid" v="1020811" />
		<tag k="operator" v="Kjerringhaugen Steinerbarnehage" />
		<tag k="operator:type" v="private" />
		<tag k="start_date" v="2002-08-05" />
	</node>
	<node id="-1833" lat="60.8993" lon="10.9583">
		<tag k="amenity" v="kindergarten" />
		<tag k="capacity" v="49" />
		<tag k="contact:email" v="ggk@ringsaker.kommune.no" />
		<tag k="max_age" v="5" />
		<tag k="min_age" v="1" />
		<tag k="name" v="Hempa barnehage" />
		<tag k="no-barnehage:nsrid" v="1017560" />
		<tag k="operator" v="Ringsaker kommune" />
		<tag k="operator:type" v="public" />
		<tag k="start_date" v="1988-04-01" />
	</node>
	<node id="-1832" lat="60.86913" lon="10.77405">
		<tag k="amenity" v="kindergarten" />
		<tag k="capacity" v="37" />
		<tag k="contact:email" v="barneas@online.no" />
		<tag k="contact:phone" v="62 35 45 55" />
		<tag k="max_age" v="5" />
		<tag k="min_age" v="1" />
		<tag k="name" v="Gaupen barnehage AS" />
		<tag k="no-barnehage:nsrid" v="1020997" />
		<tag k="operator" v="Gaupen barnehage AS" />
		<tag k="operator:type" v="private" />
		<tag k="start_date" v="1989-01-01" />
	</node>
	<node id="-1831" lat="60.8364" lon="11.0264">
		<tag k="amenity" v="kindergarten" />
		<tag k="capacity" v="27" />
		<tag k="contact:email" v="kla@ringsaker.kommune.no" />
		<tag k="contact:phone" v="62 35 86 04" />
		<tag k="max_age" v="5" />
		<tag k="min_age" v="1" />
		<tag k="name" v="Furnes barnehage" />
		<tag k="no-barnehage:nsrid" v="1017559" />
		<tag k="operator" v="Ringsaker kommune" />
		<tag k="operator:type" v="public" />
		<tag k="start_date" v="1988-04-01" />
	</node>
	<node id="-1830" lat="60.8747" lon="10.9562">
		<tag k="amenity" v="kindergarten" />
		<tag k="capacity" v="43" />
		<tag k="contact:email" v="ivy.ludvigsen@ringsaker.kommune.no" />
		<tag k="max_age" v="5" />
		<tag k="min_age" v="1" />
		<tag k="name" v="Fredheimvegen barnehage" />
		<tag k="no-barnehage:nsrid" v="1017558" />
		<tag k="operator" v="Ringsaker kommune" />
		<tag k="operator:type" v="public" />
		<tag k="start_date" v="1988-04-01" />
	</node>
	<node id="-1828" lat="60.9396" lon="10.7157">
		<tag k="amenity" v="kindergarten" />
		<tag k="capacity" v="53" />
		<tag k="contact:email" v="gunn.bjerke@ringsaker.kommune.no" />
		<tag k="max_age" v="5" />
		<tag k="min_age" v="1" />
		<tag k="name" v="Fossen barnehage" />
		<tag k="no-barnehage:nsrid" v="1017557" />
		<tag k="operator" v="Ringsaker kommune" />
		<tag k="operator:type" v="public" />
		<tag k="start_date" v="1988-04-01" />
	</node>
	<node id="-1827" lat="60.9728" lon="10.7763">
		<tag k="amenity" v="kindergarten" />
		<tag k="capacity" v="31" />
		<tag k="contact:email" v="gunn.bjerke@ringsaker.kommune.no" />
		<tag k="max_age" v="5" />
		<tag k="min_age" v="1" />
		<tag k="name" v="Fagernes barnehage" />
		<tag k="no-barnehage:nsrid" v="1016895" />
		<tag k="operator" v="Ringsaker kommune" />
		<tag k="operator:type" v="public" />
		<tag k="start_date" v="1989-01-02" />
	</node>
	<node id="-1826" lat="60.8822" lon="10.9542">
		<tag k="amenity" v="kindergarten" />
		<tag k="capacity" v="65" />
		<tag k="contact:email" v="ivy.ludvigsen@ringsaker.kommune.no" />
		<tag k="max_age" v="5" />
		<tag k="min_age" v="1" />
		<tag k="name" v="Buttekvern barnehage" />
		<tag k="no-barnehage:nsrid" v="1017556" />
		<tag k="operator" v="Ringsaker kommune" />
		<tag k="operator:type" v="public" />
		<tag k="start_date" v="1988-04-01" />
	</node>
	<node id="-1825" lat="61.0286" lon="10.5531">
		<tag k="amenity" v="kindergarten" />
		<tag k="capacity" v="42" />
		<tag k="contact:email" v="aob@ringsaker.kommune.no" />
		<tag k="max_age" v="5" />
		<tag k="min_age" v="1" />
		<tag k="name" v="Brøttum barnehage" />
		<tag k="no-barnehage:nsrid" v="1016898" />
		<tag k="operator" v="Ringsaker kommune" />
		<tag k="operator:type" v="public" />
		<tag k="start_date" v="1977-02-22" />
	</node>
	<node id="-1824" lat="60.8876" lon="10.949">
		<tag k="amenity" v="kindergarten" />
		<tag k="contact:email" v="kib@ringsaker.kommune.no" />
		<tag k="contact:phone" v="62 33 59 32" />
		<tag k="name" v="Brumunddal, Moelv og Nes Åpen barnehage" />
		<tag k="no-barnehage:nsrid" v="1013040" />
		<tag k="operator" v="Ringsaker kommune" />
		<tag k="operator:type" v="public" />
		<tag k="start_date" v="2003-04-28" />
	</node>
	<node id="-1823" lat="60.94282" lon="10.97882">
		<tag k="amenity" v="kindergarten" />
		<tag k="capacity" v="18" />
		<tag k="contact:email" v="barnehagen@brumund.no" />
		<tag k="contact:phone" v="62 34 65 40" />
		<tag k="contact:website" v="http://brumund.barnehage.no" />
		<tag k="max_age" v="5" />
		<tag k="min_age" v="1" />
		<tag k="name" v="Brumund barnehage" />
		<tag k="no-barnehage:nsrid" v="1021026" />
		<tag k="operator" v="Brumund Oppvekstsenter Sa" />
		<tag k="operator:type" v="private" />
		<tag k="start_date" v="2004-02-21" />
	</node>
	<node id="-1822" lat="60.89141" lon="10.92881">
		<tag k="amenity" v="kindergarten" />
		<tag k="capacity" v="81" />
		<tag k="contact:email" v="Randi.s.n@me.com" />
		<tag k="contact:phone" v="62 34 52 77" />
		<tag k="max_age" v="5" />
		<tag k="min_age" v="1" />
		<tag k="name" v="Bjørkebo barnehage Al" />
		<tag k="no-barnehage:nsrid" v="1020042" />
		<tag k="operator" v="Bjørkebo barnehage Sa" />
		<tag k="operator:type" v="private" />
		<tag k="start_date" v="1991-07-01" />
	</node>
	<node id="-1821" lat="60.8912" lon="10.9306">
		<tag k="amenity" v="kindergarten" />
		<tag k="capacity" v="93" />
		<tag k="contact:email" v="line.nordvik@ringsaker.kommune.no" />
		<tag k="max_age" v="5" />
		<tag k="min_age" v="1" />
		<tag k="name" v="Bakkehaugen barnehage" />
		<tag k="no-barnehage:nsrid" v="1018461" />
		<tag k="operator" v="Ringsaker kommune" />
		<tag k="operator:type" v="public" />
		<tag k="start_date" v="2008-08-01" />
	</node>
</osm>
