<?xml version="1.0" encoding="UTF-8"?>
<osm generator="osmapis" version="0.6">
	<node id="-6000" lat="69.4411" lon="20.1514">
		<tag k="amenity" v="kindergarten" />
		<tag k="capacity" v="10" />
		<tag k="contact:email" v="lyngsdalen.oppvekstsenter.barnehagehagen@lyngen.kommune.no" />
		<tag k="contact:phone" v="40 02 86 07" />
		<tag k="max_age" v="5" />
		<tag k="min_age" v="1" />
		<tag k="name" v="Lyngsdalen Oppvekstsenter Avdeling Barnehage" />
		<tag k="no-barnehage:nsrid" v="1013708" />
		<tag k="operator" v="Lyngen kommune" />
		<tag k="operator:type" v="public" />
		<tag k="start_date" v="1989-01-01" />
	</node>
	<node id="-5999" lat="69.6544" lon="19.8254">
		<tag k="amenity" v="kindergarten" />
		<tag k="capacity" v="20" />
		<tag k="contact:email" v="sor-lenangen.barnehage@lyngen.kommune.no" />
		<tag k="contact:phone" v="40 02 86 10" />
		<tag k="max_age" v="5" />
		<tag k="min_age" v="1" />
		<tag k="name" v="Lenangen barnehage" />
		<tag k="no-barnehage:nsrid" v="1013786" />
		<tag k="operator" v="Lyngen kommune" />
		<tag k="operator:type" v="public" />
		<tag k="start_date" v="1989-01-02" />
	</node>
	<node id="-5998" lat="69.5722" lon="20.2125">
		<tag k="amenity" v="kindergarten" />
		<tag k="capacity" v="42" />
		<tag k="contact:email" v="knottelia.barnehage@lyngen.kommune.no" />
		<tag k="contact:phone" v="40 02 86 11" />
		<tag k="max_age" v="5" />
		<tag k="min_age" v="1" />
		<tag k="name" v="KnÃ¸ttelia barnehage" />
		<tag k="no-barnehage:nsrid" v="1016922" />
		<tag k="operator" v="Lyngen kommune" />
		<tag k="operator:type" v="public" />
		<tag k="start_date" v="1965-12-31" />
	</node>
	<node id="-6001" lat="69.5763" lon="20.1991">
		<tag k="amenity" v="kindergarten" />
		<tag k="capacity" v="28" />
		<tag k="contact:email" v="Solhov.barnehage@lyngen.kommune.no" />
		<tag k="contact:phone" v="40 02 86 12" />
		<tag k="max_age" v="5" />
		<tag k="min_age" v="1" />
		<tag k="name" v="Solhov barnehage" />
		<tag k="no-barnehage:nsrid" v="1025343" />
		<tag k="operator" v="Lyngen kommune" />
		<tag k="operator:type" v="public" />
		<tag k="start_date" v="1991-01-01" />
	</node>
</osm>
