<?xml version="1.0" encoding="UTF-8"?>
<osm generator="osmapis" version="0.6">
	<node id="-5072" lat="63.1996" lon="9.76994">
		<tag k="amenity" v="kindergarten" />
		<tag k="capacity" v="27" />
		<tag k="contact:email" v="rannveig.karlsen@orkdal.kommune.no" />
		<tag k="max_age" v="5" />
		<tag k="min_age" v="1" />
		<tag k="name" v="Vormstad barnehage" />
		<tag k="no-barnehage:nsrid" v="1013792" />
		<tag k="operator" v="Orkdal kommune" />
		<tag k="operator:type" v="public" />
		<tag k="start_date" v="1989-01-02" />
	</node>
	<node id="-5071" lat="63.1709" lon="9.74306">
		<tag k="amenity" v="kindergarten" />
		<tag k="capacity" v="46" />
		<tag k="contact:email" v="rannveig.karlsen@orkdal.kommune.no" />
		<tag k="contact:phone" v="+47 74 48 41 91" />
		<tag k="max_age" v="5" />
		<tag k="min_age" v="1" />
		<tag k="name" v="Svorkmo barnehage" />
		<tag k="no-barnehage:nsrid" v="1025312" />
		<tag k="operator" v="Orkdal kommune" />
		<tag k="operator:type" v="public" />
		<tag k="start_date" v="1978-11-17" />
	</node>
	<node id="-5070" lat="63.3111" lon="9.85453">
		<tag k="amenity" v="kindergarten" />
		<tag k="capacity" v="114" />
		<tag k="contact:email" v="elisabeth.bakken@orkdal.kommune.no" />
		<tag k="contact:phone" v="+47 72 48 25 90" />
		<tag k="max_age" v="5" />
		<tag k="min_age" v="1" />
		<tag k="name" v="Rianmyra barnehage" />
		<tag k="no-barnehage:nsrid" v="1015957" />
		<tag k="operator" v="Orkdal kommune" />
		<tag k="operator:type" v="public" />
		<tag k="start_date" v="1990-01-01" />
	</node>
	<node id="-5069" lat="63.3105" lon="9.85767">
		<tag k="amenity" v="kindergarten" />
		<tag k="capacity" v="78" />
		<tag k="contact:email" v="morten.stub@orkdal.kommune.no" />
		<tag k="max_age" v="5" />
		<tag k="min_age" v="1" />
		<tag k="name" v="Orkanger barnehage" />
		<tag k="no-barnehage:nsrid" v="1018242" />
		<tag k="operator" v="Orkdal kommune" />
		<tag k="operator:type" v="public" />
		<tag k="start_date" v="1989-01-01" />
	</node>
	<node id="-5068" lat="63.2664" lon="9.81889">
		<tag k="amenity" v="kindergarten" />
		<tag k="capacity" v="37" />
		<tag k="contact:email" v="styrerliavoll@nlmbhg.no" />
		<tag k="max_age" v="5" />
		<tag k="min_age" v="1" />
		<tag k="name" v="Nlm Barnehagene AS Avd Liavoll Barnehage" />
		<tag k="no-barnehage:nsrid" v="1016739" />
		<tag k="operator" v="Nlm-Barnehagene AS" />
		<tag k="operator:type" v="private" />
		<tag k="start_date" v="1978-11-13" />
	</node>
	<node id="-5067" lat="63.3122" lon="9.85352">
		<tag k="amenity" v="kindergarten" />
		<tag k="capacity" v="26" />
		<tag k="contact:email" v="kristin.broholm@orkdal.kommune.no" />
		<tag k="max_age" v="5" />
		<tag k="min_age" v="1" />
		<tag k="name" v="Kløvervollen barnehage" />
		<tag k="no-barnehage:nsrid" v="1016864" />
		<tag k="operator" v="Orkdal kommune" />
		<tag k="operator:type" v="public" />
		<tag k="start_date" v="1989-01-02" />
	</node>
	<node id="-5066" lat="63.2665" lon="9.81578">
		<tag k="amenity" v="kindergarten" />
		<tag k="capacity" v="155" />
		<tag k="contact:email" v="marit.bjorkli@orkdal.kommune.no" />
		<tag k="max_age" v="5" />
		<tag k="min_age" v="1" />
		<tag k="name" v="Grøtte barnehage" />
		<tag k="no-barnehage:nsrid" v="1015016" />
		<tag k="operator" v="Orkdal kommune" />
		<tag k="operator:type" v="public" />
		<tag k="start_date" v="1997-09-01" />
	</node>
	<node id="-5065" lat="63.3224" lon="9.7792">
		<tag k="amenity" v="kindergarten" />
		<tag k="capacity" v="68" />
		<tag k="contact:email" v="merethe.huseby@orkdal.kommune.no" />
		<tag k="max_age" v="5" />
		<tag k="min_age" v="1" />
		<tag k="name" v="Gjølme barnehage" />
		<tag k="no-barnehage:nsrid" v="1018241" />
		<tag k="operator" v="Orkdal kommune" />
		<tag k="operator:type" v="public" />
		<tag k="start_date" v="1989-01-01" />
	</node>
	<node id="-5064" lat="63.2864" lon="9.84099">
		<tag k="amenity" v="kindergarten" />
		<tag k="capacity" v="117" />
		<tag k="contact:email" v="kristin.broholm@orkdal.kommune.no" />
		<tag k="contact:phone" v="+47 72 48 20 30" />
		<tag k="max_age" v="5" />
		<tag k="min_age" v="1" />
		<tag k="name" v="Evjen barnehage" />
		<tag k="no-barnehage:nsrid" v="1012560" />
		<tag k="operator" v="Orkdal kommune" />
		<tag k="operator:type" v="public" />
		<tag k="start_date" v="1990-01-01" />
	</node>
</osm>
