<?xml version="1.0" encoding="UTF-8"?>
<osm version="0.6" generator="osmapis">
	<node lat="62.61745" lon="6.85685" id="-1312">
		<tag k="ADDRESS" v="Fiksdalsvegen 25, 6394 FIKSDAL" />
		<tag k="amenity" v="kindergarten" />
		<tag k="capacity" v="24" />
		<tag k="max_age" v="5" />
		<tag k="min_age" v="1" />
		<tag k="name" v="Fiksdal barnehage" />
		<tag k="no-barnehage:nsrid" v="979312415" />
		<tag k="operator" v="Vestnes kommune" />
		<tag k="operator:type" v="public" />
	</node>
	<node lat="62.61337" lon="6.94235" id="-1313">
		<tag k="ADDRESS" v="Nedre Vikvegen 19, 6393 TOMREFJORD" />
		<tag k="amenity" v="kindergarten" />
		<tag k="capacity" v="31" />
		<tag k="max_age" v="5" />
		<tag k="min_age" v="1" />
		<tag k="name" v="Gardstunet barnehage" />
		<tag k="no-barnehage:nsrid" v="973764322" />
		<tag k="operator" v="Vestnes kommune" />
		<tag k="operator:type" v="public" />
	</node>
	<node lat="62.61841" lon="7.08652" id="-1314">
		<tag k="ADDRESS" v="Myra 1, 6390 VESTNES" />
		<tag k="amenity" v="kindergarten" />
		<tag k="capacity" v="107" />
		<tag k="max_age" v="5" />
		<tag k="min_age" v="1" />
		<tag k="name" v="Helland barnehage" />
		<tag k="no-barnehage:nsrid" v="975310612" />
		<tag k="operator" v="Vestnes kommune" />
		<tag k="operator:type" v="public" />
	</node>
	<node lat="62.63067" lon="7.08462" id="-1315">
		<tag k="ADDRESS" v="Hagnesvegen 122, 6390 VESTNES" />
		<tag k="amenity" v="kindergarten" />
		<tag k="capacity" v="36" />
		<tag k="max_age" v="5" />
		<tag k="min_age" v="1" />
		<tag k="name" v="NLM barnehagene avd. Tryggheim barnehage Vestnes" />
		<tag k="no-barnehage:nsrid" v="974149125" />
		<tag k="operator" v="Nlm-Barnehagene AS" />
		<tag k="operator:type" v="private" />
	</node>
	<node lat="62.59761" lon="6.93211" id="-1316">
		<tag k="ADDRESS" v="Liaråket 3, 6393 TOMREFJORD" />
		<tag k="amenity" v="kindergarten" />
		<tag k="capacity" v="31" />
		<tag k="max_age" v="5" />
		<tag k="min_age" v="1" />
		<tag k="name" v="Tomrefjord barnehage" />
		<tag k="no-barnehage:nsrid" v="975310604" />
		<tag k="operator" v="Vestnes kommune" />
		<tag k="operator:type" v="public" />
	</node>
	<node lat="62.52133" lon="7.12664" id="-1317">
		<tag k="ADDRESS" v="Skulebakken 1, 6391 TRESFJORD" />
		<tag k="amenity" v="kindergarten" />
		<tag k="capacity" v="30" />
		<tag k="contact:website" v="http://vestnes.kommune.no" />
		<tag k="max_age" v="5" />
		<tag k="min_age" v="1" />
		<tag k="name" v="Tresfjord barnehage" />
		<tag k="no-barnehage:nsrid" v="976974638" />
		<tag k="operator" v="Vestnes kommune" />
		<tag k="operator:type" v="public" />
	</node>
	<node lat="0.0" lon="0.0" id="-1318">
		<tag k="ADDRESS" v=", 6392 VIKEBUKT" />
		<tag k="amenity" v="kindergarten" />
		<tag k="capacity" v="33" />
		<tag k="max_age" v="5" />
		<tag k="min_age" v="1" />
		<tag k="name" v="Vike motessoribarnehage" />
		<tag k="no-barnehage:nsrid" v="983604560" />
		<tag k="operator" v="Vike montessoribarnehage SA" />
		<tag k="operator:type" v="private" />
	</node>
	<node lat="0.0" lon="0.0" id="-1319">
		<tag k="ADDRESS" v="Straume, 6387 VÅGSTRANDA" />
		<tag k="amenity" v="kindergarten" />
		<tag k="capacity" v="12" />
		<tag k="max_age" v="5" />
		<tag k="min_age" v="1" />
		<tag k="name" v="Vågstranda barnehage" />
		<tag k="no-barnehage:nsrid" v="976832027" />
		<tag k="operator" v="Vestnes kommune" />
		<tag k="operator:type" v="public" />
	</node>
</osm>
