<?xml version="1.0" encoding="UTF-8"?>
<osm generator="osmapis" version="0.6">
	<node id="-4441" lat="66.4027" lon="14.5309">
		<tag k="amenity" v="kindergarten" />
		<tag k="capacity" v="34" />
		<tag k="max_age" v="5" />
		<tag k="min_age" v="1" />
		<tag k="name" v="Storforshei barnehage" />
		<tag k="no-barnehage:nsrid" v="1014752" />
		<tag k="operator" v="Rana kommune" />
		<tag k="operator:type" v="public" />
	</node>
	<node id="-4440" lat="66.34573" lon="14.12627">
		<tag k="amenity" v="kindergarten" />
		<tag k="capacity" v="59" />
		<tag k="max_age" v="5" />
		<tag k="min_age" v="1" />
		<tag k="name" v="Stiftelsen kirkebakken barnehage" />
		<tag k="no-barnehage:nsrid" v="1020200" />
		<tag k="operator" v="Stiftelsen Kirkebakken barnehage" />
		<tag k="operator:type" v="private" />
	</node>
	<node id="-4439" lat="66.3568" lon="14.34428">
		<tag k="amenity" v="kindergarten" />
		<tag k="capacity" v="62" />
		<tag k="max_age" v="5" />
		<tag k="min_age" v="1" />
		<tag k="name" v="Skonseng naturbarnehage" />
		<tag k="no-barnehage:nsrid" v="1020104" />
		<tag k="operator" v="Skonseng Naturbarnehage" />
		<tag k="operator:type" v="private" />
	</node>
	<node id="-4438" lat="66.3267" lon="14.1746">
		<tag k="amenity" v="kindergarten" />
		<tag k="capacity" v="70" />
		<tag k="max_age" v="5" />
		<tag k="min_age" v="1" />
		<tag k="name" v="Selfors barnehage" />
		<tag k="no-barnehage:nsrid" v="1013666" />
		<tag k="operator" v="Rana kommune" />
		<tag k="operator:type" v="public" />
	</node>
	<node id="-4437" lat="66.31783" lon="14.18353">
		<tag k="amenity" v="kindergarten" />
		<tag k="capacity" v="38" />
		<tag k="max_age" v="5" />
		<tag k="min_age" v="1" />
		<tag k="name" v="Røverreiret barnehage" />
		<tag k="no-barnehage:nsrid" v="1020601" />
		<tag k="operator" v="Røverreiret barnehage Sa" />
		<tag k="operator:type" v="private" />
	</node>
	<node id="-4436" lat="66.3201" lon="14.1946">
		<tag k="amenity" v="kindergarten" />
		<tag k="capacity" v="67" />
		<tag k="max_age" v="5" />
		<tag k="min_age" v="1" />
		<tag k="name" v="Revelheia barnehage" />
		<tag k="no-barnehage:nsrid" v="1013941" />
		<tag k="operator" v="Rana kommune" />
		<tag k="operator:type" v="public" />
	</node>
	<node id="-4435" lat="66.34515" lon="14.70906">
		<tag k="amenity" v="kindergarten" />
		<tag k="capacity" v="15" />
		<tag k="max_age" v="5" />
		<tag k="min_age" v="1" />
		<tag k="name" v="Moltekarten gårds- og naturbarnehage" />
		<tag k="no-barnehage:nsrid" v="1022405" />
		<tag k="operator" v="Moltekarten Gårds- og Naturbarnehage AS" />
		<tag k="operator:type" v="private" />
	</node>
	<node id="-4434" lat="66.3287" lon="14.1549">
		<tag k="amenity" v="kindergarten" />
		<tag k="capacity" v="48" />
		<tag k="max_age" v="5" />
		<tag k="min_age" v="1" />
		<tag k="name" v="Mjølan barnehage" />
		<tag k="no-barnehage:nsrid" v="1014753" />
		<tag k="operator" v="Rana kommune" />
		<tag k="operator:type" v="public" />
	</node>
	<node id="-4433" lat="66.3016" lon="14.1183">
		<tag k="amenity" v="kindergarten" />
		<tag k="capacity" v="76" />
		<tag k="max_age" v="5" />
		<tag k="min_age" v="1" />
		<tag k="name" v="Langnes barnehage" />
		<tag k="no-barnehage:nsrid" v="1016132" />
		<tag k="operator" v="Rana kommune" />
		<tag k="operator:type" v="public" />
	</node>
	<node id="-4432" lat="66.30907" lon="14.14164">
		<tag k="amenity" v="kindergarten" />
		<tag k="capacity" v="52" />
		<tag k="max_age" v="5" />
		<tag k="min_age" v="1" />
		<tag k="name" v="Kirketunet barnehage" />
		<tag k="no-barnehage:nsrid" v="1021310" />
		<tag k="operator" v="Kirketunet barnehage" />
		<tag k="operator:type" v="private" />
	</node>
	<node id="-4431" lat="66.32898" lon="14.17098">
		<tag k="amenity" v="kindergarten" />
		<tag k="capacity" v="23" />
		<tag k="max_age" v="5" />
		<tag k="min_age" v="1" />
		<tag k="name" v="Frikultbarnehagen Ytteren" />
		<tag k="no-barnehage:nsrid" v="2000344" />
		<tag k="operator" v="Frikultbarnehagen AS" />
		<tag k="operator:type" v="private" />
	</node>
	<node id="-4430" lat="66.3378" lon="14.0921">
		<tag k="amenity" v="kindergarten" />
		<tag k="capacity" v="45" />
		<tag k="max_age" v="5" />
		<tag k="min_age" v="1" />
		<tag k="name" v="Frikultbarnehagen avd. Båsmo" />
		<tag k="no-barnehage:nsrid" v="1018553" />
		<tag k="operator" v="Frikultbarnehagen AS" />
		<tag k="operator:type" v="private" />
	</node>
	<node id="-4429" lat="66.32548" lon="14.18355">
		<tag k="amenity" v="kindergarten" />
		<tag k="capacity" v="51" />
		<tag k="max_age" v="5" />
		<tag k="min_age" v="1" />
		<tag k="name" v="Engveien barnehage" />
		<tag k="no-barnehage:nsrid" v="1019830" />
		<tag k="operator" v="Engveien barnehage" />
		<tag k="operator:type" v="private" />
	</node>
	<node id="-4428" lat="66.3162" lon="14.2179">
		<tag k="amenity" v="kindergarten" />
		<tag k="capacity" v="72" />
		<tag k="max_age" v="5" />
		<tag k="min_age" v="1" />
		<tag k="name" v="Englia barnehage" />
		<tag k="no-barnehage:nsrid" v="1018568" />
		<tag k="operator" v="Rana kommune" />
		<tag k="operator:type" v="public" />
	</node>
	<node id="-4427" lat="66.33149" lon="14.10429">
		<tag k="amenity" v="kindergarten" />
		<tag k="capacity" v="68" />
		<tag k="contact:website" v="http://www.basmobakken.no" />
		<tag k="max_age" v="5" />
		<tag k="min_age" v="1" />
		<tag k="name" v="Båsmobakken barnehage" />
		<tag k="no-barnehage:nsrid" v="1019893" />
		<tag k="operator" v="Båsmobakken barnehage Sa" />
		<tag k="operator:type" v="private" />
	</node>
	<node id="-4426" lat="66.3325" lon="14.1089">
		<tag k="amenity" v="kindergarten" />
		<tag k="capacity" v="76" />
		<tag k="max_age" v="5" />
		<tag k="min_age" v="1" />
		<tag k="name" v="Båsmo barnehage" />
		<tag k="no-barnehage:nsrid" v="1013665" />
		<tag k="operator" v="Rana kommune" />
		<tag k="operator:type" v="public" />
	</node>
	<node id="-4425" lat="66.31915" lon="14.16174">
		<tag k="amenity" v="kindergarten" />
		<tag k="capacity" v="76" />
		<tag k="max_age" v="5" />
		<tag k="min_age" v="1" />
		<tag k="name" v="Barnehagen Småtroll" />
		<tag k="no-barnehage:nsrid" v="1019976" />
		<tag k="operator" v="Barnehagen Småtroll AS" />
		<tag k="operator:type" v="private" />
	</node>
	<node id="-4424" lat="66.3141" lon="14.1468">
		<tag k="amenity" v="kindergarten" />
		<tag k="capacity" v="65" />
		<tag k="max_age" v="5" />
		<tag k="min_age" v="1" />
		<tag k="name" v="Barnas Hus" />
		<tag k="no-barnehage:nsrid" v="1013664" />
		<tag k="operator" v="Rana kommune" />
		<tag k="operator:type" v="public" />
	</node>
</osm>
