<?xml version="1.0" encoding="UTF-8"?>
<osm generator="osmapis" version="0.6">
	<node id="-1974" lat="62.4172" lon="10.8619">
		<tag k="amenity" v="kindergarten" />
		<tag k="capacity" v="26" />
		<tag k="contact:email" v="astrid.moen@tolga.kommune.no" />
		<tag k="contact:phone" v="+47 62494382" />
		<tag k="max_age" v="5" />
		<tag k="min_age" v="1" />
		<tag k="name" v="Vingelen barnehage" />
		<tag k="no-barnehage:nsrid" v="1017597" />
		<tag k="operator" v="Tolga kommune" />
		<tag k="operator:type" v="public" />
		<tag k="start_date" v="1988-04-01" />
	</node>
	<node id="-1973" lat="62.409" lon="10.9988">
		<tag k="amenity" v="kindergarten" />
		<tag k="capacity" v="25" />
		<tag k="contact:email" v="astrid.moen@tolga.kommune.no" />
		<tag k="contact:phone" v="+47 62496415" />
		<tag k="max_age" v="5" />
		<tag k="min_age" v="1" />
		<tag k="name" v="Lyngbo barnehage" />
		<tag k="no-barnehage:nsrid" v="1025477" />
		<tag k="operator" v="Tolga kommune" />
		<tag k="operator:type" v="public" />
		<tag k="start_date" v="1978-11-06" />
	</node>
	<node id="-1972" lat="62.409" lon="10.9988">
		<tag k="amenity" v="kindergarten" />
		<tag k="capacity" v="22" />
		<tag k="contact:email" v="astrid.moen@tolga.kommune.no" />
		<tag k="contact:phone" v="+47 62494151" />
		<tag k="max_age" v="5" />
		<tag k="min_age" v="1" />
		<tag k="name" v="KnutshauÃ¥en barnehage" />
		<tag k="no-barnehage:nsrid" v="1017596" />
		<tag k="operator" v="Tolga kommune" />
		<tag k="operator:type" v="public" />
		<tag k="start_date" v="1988-04-01" />
	</node>
</osm>
