<?xml version="1.0" encoding="UTF-8"?>
<osm generator="osmapis" version="0.6">
	<node id="-4063" lat="59.06097" lon="5.928945">
		<tag k="amenity" v="kindergarten" />
		<tag k="capacity" v="76" />
		<tag k="max_age" v="5" />
		<tag k="min_age" v="1" />
		<tag k="name" v="Rødlandsmyrå barnehage" />
		<tag k="no-barnehage:nsrid" v="1021081" />
		<tag k="operator" v="Rødlandsmyrå barnehage Sa" />
		<tag k="operator:type" v="private" />
	</node>
	<node id="-4062" lat="59.0542" lon="5.91961">
		<tag k="amenity" v="kindergarten" />
		<tag k="capacity" v="79" />
		<tag k="max_age" v="5" />
		<tag k="min_age" v="1" />
		<tag k="name" v="NLM barnehagene avd. Fjordsyn barnehage" />
		<tag k="no-barnehage:nsrid" v="1016191" />
		<tag k="operator" v="Nlm-Barnehagene AS" />
		<tag k="operator:type" v="private" />
	</node>
	<node id="-4061" lat="59.0336" lon="6.0377">
		<tag k="amenity" v="kindergarten" />
		<tag k="capacity" v="66" />
		<tag k="contact:website" v="http://laringsverkstedet.no/fjeldebakkane" />
		<tag k="max_age" v="5" />
		<tag k="min_age" v="1" />
		<tag k="name" v="Læringsverkstedet barnehage avd. Fjeldebakkane" />
		<tag k="no-barnehage:nsrid" v="1013119" />
		<tag k="operator" v="Læringsverkstedet AS" />
		<tag k="operator:type" v="private" />
	</node>
	<node id="-4060" lat="59.0244" lon="6.04051">
		<tag k="amenity" v="kindergarten" />
		<tag k="capacity" v="56" />
		<tag k="max_age" v="5" />
		<tag k="min_age" v="1" />
		<tag k="name" v="Jørpeland barnehage" />
		<tag k="no-barnehage:nsrid" v="1017369" />
		<tag k="operator" v="Strand kommune" />
		<tag k="operator:type" v="public" />
	</node>
	<node id="-4059" lat="59.0277" lon="6.05797">
		<tag k="amenity" v="kindergarten" />
		<tag k="capacity" v="79" />
		<tag k="max_age" v="5" />
		<tag k="min_age" v="1" />
		<tag k="name" v="Førland barnehage" />
		<tag k="no-barnehage:nsrid" v="1013790" />
		<tag k="operator" v="Strand kommune" />
		<tag k="operator:type" v="public" />
	</node>
	<node id="-4058" lat="59.06457" lon="5.90455">
		<tag k="amenity" v="kindergarten" />
		<tag k="capacity" v="82" />
		<tag k="contact:website" v="http://www.espira.no" />
		<tag k="max_age" v="5" />
		<tag k="min_age" v="1" />
		<tag k="name" v="Espira Tau barnehage" />
		<tag k="no-barnehage:nsrid" v="1021830" />
		<tag k="operator" v="Espira Barnehager AS" />
		<tag k="operator:type" v="private" />
	</node>
	<node id="-4057" lat="59.1128" lon="6.00045">
		<tag k="amenity" v="kindergarten" />
		<tag k="capacity" v="35" />
		<tag k="max_age" v="5" />
		<tag k="min_age" v="1" />
		<tag k="name" v="Eikehaugen barnehage" />
		<tag k="no-barnehage:nsrid" v="1013966" />
		<tag k="operator" v="Strand kommune" />
		<tag k="operator:type" v="public" />
	</node>
	<node id="-4056" lat="59.02895" lon="6.027711">
		<tag k="amenity" v="kindergarten" />
		<tag k="capacity" v="51" />
		<tag k="max_age" v="5" />
		<tag k="min_age" v="1" />
		<tag k="name" v="Bikubå barnehage" />
		<tag k="no-barnehage:nsrid" v="1020774" />
		<tag k="operator" v="Bikubå barnehage Sa" />
		<tag k="operator:type" v="private" />
	</node>
	<node id="-4055" lat="59.02969" lon="6.046302">
		<tag k="amenity" v="kindergarten" />
		<tag k="capacity" v="76" />
		<tag k="max_age" v="5" />
		<tag k="min_age" v="1" />
		<tag k="name" v="Bekkevegen barnehage" />
		<tag k="no-barnehage:nsrid" v="1025949" />
		<tag k="operator" v="Strand kommune" />
		<tag k="operator:type" v="public" />
	</node>
	<node id="-4054" lat="59.02721" lon="6.027696">
		<tag k="amenity" v="kindergarten" />
		<tag k="capacity" v="145" />
		<tag k="max_age" v="5" />
		<tag k="min_age" v="1" />
		<tag k="name" v="Barnas kulturhage" />
		<tag k="no-barnehage:nsrid" v="1021236" />
		<tag k="operator" v="Barnas Kulturhage AS" />
		<tag k="operator:type" v="private" />
	</node>
</osm>
