<?xml version="1.0" encoding="UTF-8"?>
<osm generator="osmapis" version="0.6">
	<node id="-3712" lat="59.02969" lon="6.046302">
		<tag k="amenity" v="kindergarten" />
		<tag k="capacity" v="75" />
		<tag k="contact:email" v="laura.vatne@strand.kommune.no" />
		<tag k="max_age" v="5" />
		<tag k="min_age" v="1" />
		<tag k="name" v="Bekkevegen barnehage" />
		<tag k="no-barnehage:nsrid" v="1025949" />
		<tag k="operator" v="Strand kommune" />
		<tag k="operator:type" v="public" />
		<tag k="start_date" v="2015-07-01" />
	</node>
	<node id="-3711" lat="59.02721" lon="6.027696">
		<tag k="amenity" v="kindergarten" />
		<tag k="capacity" v="146" />
		<tag k="contact:email" v="post@barnas-kulturhage.no" />
		<tag k="contact:phone" v="+47 51 74 11 60" />
		<tag k="max_age" v="5" />
		<tag k="min_age" v="1" />
		<tag k="name" v="Barnas Kulturhage AS" />
		<tag k="no-barnehage:nsrid" v="1021236" />
		<tag k="operator" v="Barnas Kulturhage AS" />
		<tag k="operator:type" v="private" />
		<tag k="start_date" v="2005-08-01" />
	</node>
	<node id="-3721" lat="59.06097" lon="5.928945">
		<tag k="amenity" v="kindergarten" />
		<tag k="capacity" v="80" />
		<tag k="contact:email" v="rodlandsmyra@barnehage.no" />
		<tag k="contact:phone" v="+47 51 74 98 80" />
		<tag k="max_age" v="5" />
		<tag k="min_age" v="1" />
		<tag k="name" v="Rødlandsmyrå barnehage Sa" />
		<tag k="no-barnehage:nsrid" v="1021081" />
		<tag k="operator" v="Rødlandsmyrå barnehage Sa" />
		<tag k="operator:type" v="private" />
		<tag k="start_date" v="2003-08-06" />
	</node>
	<node id="-3720" lat="59.0542" lon="5.91961">
		<tag k="amenity" v="kindergarten" />
		<tag k="capacity" v="83" />
		<tag k="contact:email" v="fjordsyn@barnehage.no" />
		<tag k="contact:phone" v="+47 51 74 00 30" />
		<tag k="max_age" v="5" />
		<tag k="min_age" v="1" />
		<tag k="name" v="Nlm Barnehagene AS Avd Fjordsyn Barnehage" />
		<tag k="no-barnehage:nsrid" v="1016191" />
		<tag k="operator" v="Nlm-Barnehagene AS" />
		<tag k="operator:type" v="private" />
		<tag k="start_date" v="1982-01-01" />
	</node>
	<node id="-3719" lat="59.0221" lon="6.002951">
		<tag k="amenity" v="kindergarten" />
		<tag k="contact:email" v="miniklubben.styrer@gmail.com" />
		<tag k="max_age" v="5" />
		<tag k="min_age" v="1" />
		<tag k="name" v="Miniklubben Naturbarnehage AS" />
		<tag k="no-barnehage:nsrid" v="1021849" />
		<tag k="operator" v="Miniklubben Naturbarnehage AS" />
		<tag k="operator:type" v="private" />
		<tag k="start_date" v="1997-08-01" />
	</node>
	<node id="-3718" lat="59.0336" lon="6.0377">
		<tag k="amenity" v="kindergarten" />
		<tag k="capacity" v="82" />
		<tag k="contact:email" v="fjeldebakkane@laringsverkstedet.no" />
		<tag k="contact:phone" v="+47 52 84 50 20" />
		<tag k="contact:website" v="http://laringsverkstedet.no/fjeldebakkane" />
		<tag k="max_age" v="5" />
		<tag k="min_age" v="1" />
		<tag k="name" v="Læringsverkstedet barnehage Avd Fjeldebakkane" />
		<tag k="no-barnehage:nsrid" v="1013119" />
		<tag k="operator" v="Læringsverkstedet AS" />
		<tag k="operator:type" v="private" />
		<tag k="start_date" v="2005-02-21" />
	</node>
	<node id="-3717" lat="59.0244" lon="6.04051">
		<tag k="amenity" v="kindergarten" />
		<tag k="capacity" v="48" />
		<tag k="contact:email" v="ida.fjelde.maaland@strand.kommune.no" />
		<tag k="contact:phone" v="+47 51 74 28 80" />
		<tag k="max_age" v="5" />
		<tag k="min_age" v="1" />
		<tag k="name" v="Jørpeland barnehage" />
		<tag k="no-barnehage:nsrid" v="1017369" />
		<tag k="operator" v="Strand kommune" />
		<tag k="operator:type" v="public" />
		<tag k="start_date" v="1976-01-01" />
	</node>
	<node id="-3716" lat="59.0277" lon="6.05797">
		<tag k="amenity" v="kindergarten" />
		<tag k="capacity" v="82" />
		<tag k="contact:email" v="berit.idsoe.bringaker@strand.kommune.no" />
		<tag k="contact:phone" v="+47 51 74 02 80" />
		<tag k="max_age" v="5" />
		<tag k="min_age" v="1" />
		<tag k="name" v="Førland barnehage" />
		<tag k="no-barnehage:nsrid" v="1013790" />
		<tag k="operator" v="Strand kommune" />
		<tag k="operator:type" v="public" />
		<tag k="start_date" v="1989-01-02" />
	</node>
	<node id="-3715" lat="59.06457" lon="5.90455">
		<tag k="amenity" v="kindergarten" />
		<tag k="capacity" v="98" />
		<tag k="contact:email" v="styrer@tau.espira.no" />
		<tag k="contact:phone" v="+47 52 84 50 20" />
		<tag k="contact:website" v="http://www.espira.no" />
		<tag k="max_age" v="5" />
		<tag k="min_age" v="1" />
		<tag k="name" v="Espira Tau barnehage" />
		<tag k="no-barnehage:nsrid" v="1021830" />
		<tag k="operator" v="Espira Barnehager AS" />
		<tag k="operator:type" v="private" />
		<tag k="start_date" v="2008-06-04" />
	</node>
	<node id="-3714" lat="59.1128" lon="6.00045">
		<tag k="amenity" v="kindergarten" />
		<tag k="capacity" v="35" />
		<tag k="contact:email" v="trine.sorskar@strand.kommune.no" />
		<tag k="contact:phone" v="+47 51 74 28 20" />
		<tag k="max_age" v="5" />
		<tag k="min_age" v="1" />
		<tag k="name" v="Eikehaugen barnehage" />
		<tag k="no-barnehage:nsrid" v="1013966" />
		<tag k="operator" v="Strand kommune" />
		<tag k="operator:type" v="public" />
		<tag k="start_date" v="1991-08-01" />
	</node>
	<node id="-3713" lat="59.02895" lon="6.027711">
		<tag k="amenity" v="kindergarten" />
		<tag k="capacity" v="55" />
		<tag k="contact:email" v="bikuba@lyse.net" />
		<tag k="contact:phone" v="+47 51 74 73 08" />
		<tag k="max_age" v="5" />
		<tag k="min_age" v="1" />
		<tag k="name" v="Bikubå barnehage Sa" />
		<tag k="no-barnehage:nsrid" v="1020774" />
		<tag k="operator" v="Bikubå barnehage Sa" />
		<tag k="operator:type" v="private" />
		<tag k="start_date" v="2002-02-01" />
	</node>
</osm>
