<?xml version="1.0" encoding="UTF-8"?>
<osm generator="osmapis" version="0.6">
	<node id="-128" lat="59.2654" lon="10.7711">
		<tag k="amenity" v="kindergarten" />
		<tag k="capacity" v="70" />
		<tag k="doNotImportAddress" v="Engelsvikenveien 113 1626 MANSTAD" />
		<tag k="max_age" v="5" />
		<tag k="min_age" v="1" />
		<tag k="name" v="Gaustadgrenda barnehage" />
		<tag k="no-barnehage:nsrid" v="1012713" />
		<tag k="operator" v="Fredrikstad kommune" />
		<tag k="operator:type" v="public" />
	</node>
	<node id="-127" lat="59.19715" lon="10.95252">
		<tag k="amenity" v="kindergarten" />
		<tag k="capacity" v="23" />
		<tag k="doNotImportAddress" v="Øraveien 2f 1630 GAMLE FREDRIKSTAD" />
		<tag k="max_age" v="5" />
		<tag k="min_age" v="1" />
		<tag k="name" v="Fredrikstad Røde Kors Barneh" />
		<tag k="no-barnehage:nsrid" v="1019672" />
		<tag k="operator" v="Fredrikstad Røde Kors Barneh" />
		<tag k="operator:type" v="private" />
	</node>
	<node id="-126" lat="59.21021" lon="10.94016">
		<tag k="amenity" v="kindergarten" />
		<tag k="doNotImportAddress" v="Nygaardsgata 16 1606 FREDRIKSTAD" />
		<tag k="name" v="Fredrikstad kommune Ressursenhet barnehage" />
		<tag k="no-barnehage:nsrid" v="2000236" />
		<tag k="operator" v="Fredrikstad kommune" />
		<tag k="operator:type" v="public" />
	</node>
	<node id="-125" lat="59.18927" lon="10.91373">
		<tag k="amenity" v="kindergarten" />
		<tag k="capacity" v="48" />
		<tag k="doNotImportAddress" v="Enhuusveien 29 1679 KRÅKERØY" />
		<tag k="max_age" v="5" />
		<tag k="min_age" v="1" />
		<tag k="name" v="Fotspor barnehage" />
		<tag k="no-barnehage:nsrid" v="1021333" />
		<tag k="operator" v="Fotspor barnehage AS" />
		<tag k="operator:type" v="private" />
	</node>
	<node id="-124" lat="59.25375" lon="10.74985">
		<tag k="amenity" v="kindergarten" />
		<tag k="capacity" v="43" />
		<tag k="doNotImportAddress" v="Skolebakken 6 1628 ENGELSVIKEN" />
		<tag k="max_age" v="5" />
		<tag k="min_age" v="1" />
		<tag k="name" v="Engelsviken barnehage" />
		<tag k="no-barnehage:nsrid" v="1021005" />
		<tag k="operator" v="Engelsviken barnehage AS" />
		<tag k="operator:type" v="private" />
	</node>
	<node id="-123" lat="59.1799" lon="10.9388">
		<tag k="amenity" v="kindergarten" />
		<tag k="capacity" v="35" />
		<tag k="doNotImportAddress" v="Buskogen 64 1675 KRÅKERØY" />
		<tag k="max_age" v="5" />
		<tag k="min_age" v="1" />
		<tag k="name" v="Buskogen barnehage" />
		<tag k="no-barnehage:nsrid" v="1017672" />
		<tag k="operator" v="Fredrikstad kommune" />
		<tag k="operator:type" v="public" />
	</node>
	<node id="-122" lat="59.21432" lon="11.0602">
		<tag k="amenity" v="kindergarten" />
		<tag k="capacity" v="39" />
		<tag k="doNotImportAddress" v="Hunnbakken 47 1655 SELLEBAKK" />
		<tag k="max_age" v="5" />
		<tag k="min_age" v="1" />
		<tag k="name" v="Brunstad Kristelige menighet Østfold" />
		<tag k="no-barnehage:nsrid" v="1020560" />
		<tag k="operator" v="Brunstad Kristelige Menighet Østfold" />
		<tag k="operator:type" v="private" />
	</node>
	<node id="-121" lat="59.21806" lon="10.9408">
		<tag k="amenity" v="kindergarten" />
		<tag k="doNotImportAddress" v="Freskoveien 1 1605 FREDRIKSTAD" />
		<tag k="name" v="Blå Kors Fredrikstad Barnas Stasjon" />
		<tag k="no-barnehage:nsrid" v="1018598" />
		<tag k="operator" v="Stiftelsen Blå Kors Fredrikstad" />
		<tag k="operator:type" v="private" />
	</node>
	<node id="-120" lat="59.16142" lon="10.93446">
		<tag k="amenity" v="kindergarten" />
		<tag k="capacity" v="53" />
		<tag k="doNotImportAddress" v="Kasaveien 4 1676 KRÅKERØY" />
		<tag k="max_age" v="5" />
		<tag k="min_age" v="1" />
		<tag k="name" v="Blomsterøya barnehage" />
		<tag k="no-barnehage:nsrid" v="1019980" />
		<tag k="operator" v="Blomsterøya barnehage Sa" />
		<tag k="operator:type" v="private" />
	</node>
	<node id="-119" lat="59.2119" lon="11.0148">
		<tag k="amenity" v="kindergarten" />
		<tag k="capacity" v="63" />
		<tag k="doNotImportAddress" v="Smaragdveien 18 1639 GAMLE FREDRIKSTAD" />
		<tag k="max_age" v="5" />
		<tag k="min_age" v="1" />
		<tag k="name" v="Bjørneklova barnehage" />
		<tag k="no-barnehage:nsrid" v="1025355" />
		<tag k="operator" v="Fredrikstad kommune" />
		<tag k="operator:type" v="public" />
	</node>
	<node id="-118" lat="59.22346" lon="10.90181">
		<tag k="amenity" v="kindergarten" />
		<tag k="capacity" v="84" />
		<tag k="doNotImportAddress" v="Hurrødstien 6 1621 GRESSVIK" />
		<tag k="max_age" v="5" />
		<tag k="min_age" v="1" />
		<tag k="name" v="Benedicte Gundersen" />
		<tag k="no-barnehage:nsrid" v="1021089" />
		<tag k="operator" v="Benedicte Gundersen AS" />
		<tag k="operator:type" v="private" />
	</node>
	<node id="-117" lat="59.2172" lon="11.0074">
		<tag k="amenity" v="kindergarten" />
		<tag k="capacity" v="79" />
		<tag k="doNotImportAddress" v="Olav Kyrres Vei 4 1639 GAMLE FREDRIKSTAD" />
		<tag k="max_age" v="5" />
		<tag k="min_age" v="1" />
		<tag k="name" v="Begbyenga barnehage" />
		<tag k="no-barnehage:nsrid" v="1017193" />
		<tag k="operator" v="Samvirkebarnehagene Sa" />
		<tag k="operator:type" v="private" />
	</node>
	<node id="-116" lat="59.2469" lon="10.9218">
		<tag k="amenity" v="kindergarten" />
		<tag k="capacity" v="114" />
		<tag k="doNotImportAddress" v="Rytterveien 19 1615 FREDRIKSTAD" />
		<tag k="max_age" v="5" />
		<tag k="min_age" v="1" />
		<tag k="name" v="Ambjørnrød barnehage" />
		<tag k="no-barnehage:nsrid" v="1012559" />
		<tag k="operator" v="Fredrikstad kommune" />
		<tag k="operator:type" v="public" />
	</node>
	<node id="-193" lat="59.2258" lon="10.9565">
		<tag k="amenity" v="kindergarten" />
		<tag k="capacity" v="106" />
		<tag k="doNotImportAddress" v="Gamle Kirkevei 7 1617 FREDRIKSTAD" />
		<tag k="max_age" v="5" />
		<tag k="min_age" v="1" />
		<tag k="name" v="Wilbergjordet barnehage" />
		<tag k="no-barnehage:nsrid" v="1013416" />
		<tag k="operator" v="Borg Barnehager AS" />
		<tag k="operator:type" v="private" />
	</node>
	<node id="-191" lat="59.21734" lon="11.0689">
		<tag k="amenity" v="kindergarten" />
		<tag k="capacity" v="14" />
		<tag k="doNotImportAddress" v="Haldenveien 130 1655 SELLEBAKK" />
		<tag k="max_age" v="5" />
		<tag k="min_age" v="1" />
		<tag k="name" v="Vispen private barnehage" />
		<tag k="no-barnehage:nsrid" v="1021120" />
		<tag k="operator" v="Vispen Private barnehage Da" />
		<tag k="operator:type" v="private" />
	</node>
	<node id="-189" lat="59.24989" lon="10.93504">
		<tag k="amenity" v="kindergarten" />
		<tag k="capacity" v="25" />
		<tag k="doNotImportAddress" v="Veum Allé 3 1615 FREDRIKSTAD" />
		<tag k="max_age" v="5" />
		<tag k="min_age" v="1" />
		<tag k="name" v="Villa Øst barnehage" />
		<tag k="no-barnehage:nsrid" v="1019671" />
		<tag k="operator" v="Villa Øst barnehage Sa" />
		<tag k="operator:type" v="private" />
	</node>
	<node id="-187" lat="59.26641" lon="10.99637">
		<tag k="amenity" v="kindergarten" />
		<tag k="capacity" v="30" />
		<tag k="doNotImportAddress" v="Fredriks Vei 2 1665 ROLVSØY" />
		<tag k="max_age" v="5" />
		<tag k="min_age" v="1" />
		<tag k="name" v="Veslefrikk Steinerbarnehage" />
		<tag k="no-barnehage:nsrid" v="1021649" />
		<tag k="operator" v="Eierstiftelsen Steinerbarnehagen Veslefrikk" />
		<tag k="operator:type" v="private" />
	</node>
	<node id="-186" lat="59.18552" lon="11.05066">
		<tag k="amenity" v="kindergarten" />
		<tag k="capacity" v="66" />
		<tag k="doNotImportAddress" v="Veelstoppen 4 1634 GAMLE FREDRIKSTAD" />
		<tag k="max_age" v="5" />
		<tag k="min_age" v="1" />
		<tag k="name" v="Veelstoppen private barnehage" />
		<tag k="no-barnehage:nsrid" v="1021452" />
		<tag k="operator" v="Veelstoppen Private barnehage AS" />
		<tag k="operator:type" v="private" />
	</node>
	<node id="-185" lat="59.1991" lon="10.91117">
		<tag k="amenity" v="kindergarten" />
		<tag k="capacity" v="60" />
		<tag k="doNotImportAddress" v="Tørkopp 2 1679 KRÅKERØY" />
		<tag k="max_age" v="5" />
		<tag k="min_age" v="1" />
		<tag k="name" v="Tørkopp FUS barnehage" />
		<tag k="no-barnehage:nsrid" v="1021515" />
		<tag k="operator" v="Tørkopp Fus barnehage AS" />
		<tag k="operator:type" v="private" />
	</node>
	<node id="-183" lat="59.226" lon="10.9244">
		<tag k="amenity" v="kindergarten" />
		<tag k="capacity" v="99" />
		<tag k="doNotImportAddress" v="Unnebergveien 17 1613 FREDRIKSTAD" />
		<tag k="max_age" v="5" />
		<tag k="min_age" v="1" />
		<tag k="name" v="Trosvik barnehage" />
		<tag k="no-barnehage:nsrid" v="1012709" />
		<tag k="operator" v="Fredrikstad kommune" />
		<tag k="operator:type" v="public" />
	</node>
	<node id="-182" lat="59.2156" lon="10.883">
		<tag k="amenity" v="kindergarten" />
		<tag k="capacity" v="73" />
		<tag k="doNotImportAddress" v="Trondalsveien 30b 1621 GRESSVIK" />
		<tag k="max_age" v="5" />
		<tag k="min_age" v="1" />
		<tag k="name" v="Trondalen barnehage" />
		<tag k="no-barnehage:nsrid" v="1016220" />
		<tag k="operator" v="Samvirkebarnehagene Sa" />
		<tag k="operator:type" v="private" />
	</node>
	<node id="-181" lat="59.2495" lon="10.9408">
		<tag k="amenity" v="kindergarten" />
		<tag k="capacity" v="58" />
		<tag k="doNotImportAddress" v="Veum Allé 8 1615 FREDRIKSTAD" />
		<tag k="max_age" v="5" />
		<tag k="min_age" v="1" />
		<tag k="name" v="Trollstua barnehage" />
		<tag k="no-barnehage:nsrid" v="1012710" />
		<tag k="operator" v="Fredrikstad kommune" />
		<tag k="operator:type" v="public" />
	</node>
	<node id="-179" lat="59.243" lon="11.022">
		<tag k="amenity" v="kindergarten" />
		<tag k="capacity" v="15" />
		<tag k="doNotImportAddress" v="Roald Amundsens Vei 165 1658 TORP" />
		<tag k="max_age" v="5" />
		<tag k="min_age" v="1" />
		<tag k="name" v="Trollklubben barnehage avd. Torp" />
		<tag k="no-barnehage:nsrid" v="1017697" />
		<tag k="operator" v="Trollklubben barnehage AS" />
		<tag k="operator:type" v="private" />
	</node>
	<node id="-178" lat="59.2674" lon="11.0058">
		<tag k="amenity" v="kindergarten" />
		<tag k="capacity" v="127" />
		<tag k="doNotImportAddress" v="Råkollveien 107 1664 ROLVSØY" />
		<tag k="max_age" v="5" />
		<tag k="min_age" v="1" />
		<tag k="name" v="Trollklubben barnehage avd. Rolvsøy" />
		<tag k="no-barnehage:nsrid" v="1017699" />
		<tag k="operator" v="Trollklubben barnehage AS" />
		<tag k="operator:type" v="private" />
	</node>
	<node id="-177" lat="59.2604" lon="11.1075">
		<tag k="amenity" v="kindergarten" />
		<tag k="capacity" v="23" />
		<tag k="doNotImportAddress" v="Sarpsborgveien 1126 1659 TORP" />
		<tag k="max_age" v="5" />
		<tag k="min_age" v="3" />
		<tag k="name" v="Trollklubben barnehage avd. Bilett" />
		<tag k="no-barnehage:nsrid" v="1017698" />
		<tag k="operator" v="Trollklubben barnehage AS" />
		<tag k="operator:type" v="private" />
	</node>
	<node id="-176" lat="59.1861" lon="11.0496">
		<tag k="amenity" v="kindergarten" />
		<tag k="capacity" v="29" />
		<tag k="doNotImportAddress" v="Toresvei 2 1634 GAMLE FREDRIKSTAD" />
		<tag k="max_age" v="5" />
		<tag k="min_age" v="1" />
		<tag k="name" v="Torsnes barnehage" />
		<tag k="no-barnehage:nsrid" v="1016369" />
		<tag k="operator" v="Fredrikstad kommune" />
		<tag k="operator:type" v="public" />
	</node>
	<node id="-173" lat="59.21611" lon="10.93586">
		<tag k="amenity" v="kindergarten" />
		<tag k="capacity" v="62" />
		<tag k="doNotImportAddress" v="Sjømannsgata 16 1608 FREDRIKSTAD" />
		<tag k="max_age" v="5" />
		<tag k="min_age" v="1" />
		<tag k="name" v="St Hans Fjellet barnehage" />
		<tag k="no-barnehage:nsrid" v="1026341" />
		<tag k="operator" v="Fredrikstad kommune" />
		<tag k="operator:type" v="public" />
	</node>
	<node id="-172" lat="59.21332" lon="10.94783">
		<tag k="amenity" v="kindergarten" />
		<tag k="capacity" v="36" />
		<tag k="doNotImportAddress" v="Speiderveien 7 1605 FREDRIKSTAD" />
		<tag k="max_age" v="5" />
		<tag k="min_age" v="1" />
		<tag k="name" v="Speiderfjellet barnehage" />
		<tag k="no-barnehage:nsrid" v="2000014" />
		<tag k="operator" v="Fredrikstad kommune" />
		<tag k="operator:type" v="public" />
	</node>
	<node id="-170" lat="59.2023" lon="10.9375">
		<tag k="amenity" v="kindergarten" />
		<tag k="capacity" v="52" />
		<tag k="doNotImportAddress" v="Ulvedalen 2a 1672 KRÅKERØY" />
		<tag k="max_age" v="5" />
		<tag k="min_age" v="1" />
		<tag k="name" v="Smertulia barnehage" />
		<tag k="no-barnehage:nsrid" v="1012712" />
		<tag k="operator" v="Fredrikstad kommune" />
		<tag k="operator:type" v="public" />
	</node>
	<node id="-169" lat="59.1991" lon="10.8305">
		<tag k="amenity" v="kindergarten" />
		<tag k="capacity" v="33" />
		<tag k="doNotImportAddress" v="Halvorsrødveien 34 1621 GRESSVIK" />
		<tag k="max_age" v="5" />
		<tag k="min_age" v="1" />
		<tag k="name" v="Slevik barnehage" />
		<tag k="no-barnehage:nsrid" v="1021343" />
		<tag k="operator" v="Thelen AS" />
		<tag k="operator:type" v="private" />
	</node>
	<node id="-168" lat="59.2343" lon="10.9306">
		<tag k="amenity" v="kindergarten" />
		<tag k="capacity" v="48" />
		<tag k="doNotImportAddress" v="Veumveien 88 1613 FREDRIKSTAD" />
		<tag k="max_age" v="5" />
		<tag k="min_age" v="1" />
		<tag k="name" v="Slangsvold barnehage" />
		<tag k="no-barnehage:nsrid" v="1015549" />
		<tag k="operator" v="Ådalen Barnehager AS" />
		<tag k="operator:type" v="private" />
	</node>
	<node id="-167" lat="59.21521" lon="10.88805">
		<tag k="amenity" v="kindergarten" />
		<tag k="capacity" v="43" />
		<tag k="doNotImportAddress" v="Vollebergveien 4 1621 GRESSVIK" />
		<tag k="max_age" v="5" />
		<tag k="min_age" v="1" />
		<tag k="name" v="Skala barnehage" />
		<tag k="no-barnehage:nsrid" v="1021196" />
		<tag k="operator" v="Skala barnehage AS" />
		<tag k="operator:type" v="private" />
	</node>
	<node id="-165" lat="59.21978" lon="10.90657">
		<tag k="amenity" v="kindergarten" />
		<tag k="capacity" v="82" />
		<tag k="contact:website" v="http://orebekk.barnehage.no" />
		<tag k="doNotImportAddress" v="Ørebekkbråten 16 1624 GRESSVIK" />
		<tag k="max_age" v="5" />
		<tag k="min_age" v="1" />
		<tag k="name" v="Rs Team" />
		<tag k="no-barnehage:nsrid" v="1021591" />
		<tag k="operator" v="Rs Team AS" />
		<tag k="operator:type" v="private" />
	</node>
	<node id="-164" lat="59.23499" lon="10.97394">
		<tag k="amenity" v="kindergarten" />
		<tag k="capacity" v="74" />
		<tag k="doNotImportAddress" v="Rosebuen 2 1617 FREDRIKSTAD" />
		<tag k="max_age" v="5" />
		<tag k="min_age" v="1" />
		<tag k="name" v="Roselia barnehage" />
		<tag k="no-barnehage:nsrid" v="1020516" />
		<tag k="operator" v="Roselia barnehage Sa" />
		<tag k="operator:type" v="private" />
	</node>
	<node id="-163" lat="59.2619" lon="10.9967">
		<tag k="amenity" v="kindergarten" />
		<tag k="capacity" v="63" />
		<tag k="doNotImportAddress" v="Råkollveien 60 1664 ROLVSØY" />
		<tag k="max_age" v="5" />
		<tag k="min_age" v="1" />
		<tag k="name" v="Rolvsøy barnehage" />
		<tag k="no-barnehage:nsrid" v="1012715" />
		<tag k="operator" v="Fredrikstad kommune" />
		<tag k="operator:type" v="public" />
	</node>
	<node id="-162" lat="59.30054" lon="10.94682">
		<tag k="amenity" v="kindergarten" />
		<tag k="capacity" v="57" />
		<tag k="doNotImportAddress" v="Seppoveien 70 1615 FREDRIKSTAD" />
		<tag k="max_age" v="5" />
		<tag k="min_age" v="1" />
		<tag k="name" v="Ramsjø gårdsbarnehage" />
		<tag k="no-barnehage:nsrid" v="1021608" />
		<tag k="operator" v="Ramsjø Gårdsbarnehage AS" />
		<tag k="operator:type" v="private" />
	</node>
	<node id="-160" lat="59.25369" lon="11.01083">
		<tag k="amenity" v="kindergarten" />
		<tag k="capacity" v="19" />
		<tag k="doNotImportAddress" v="Ombergveien 64 1661 ROLVSØY" />
		<tag k="max_age" v="5" />
		<tag k="min_age" v="1" />
		<tag k="name" v="Omberg gårdsbarnehage" />
		<tag k="no-barnehage:nsrid" v="1021825" />
		<tag k="operator" v="Omberg Gårdsbarnehage AS" />
		<tag k="operator:type" v="private" />
	</node>
	<node id="-159" lat="59.1954" lon="10.8744">
		<tag k="amenity" v="kindergarten" />
		<tag k="capacity" v="55" />
		<tag k="doNotImportAddress" v="Krydderveien 15 1621 GRESSVIK" />
		<tag k="max_age" v="5" />
		<tag k="min_age" v="1" />
		<tag k="name" v="Oksviken barnehage" />
		<tag k="no-barnehage:nsrid" v="1016081" />
		<tag k="operator" v="Fredrikstad kommune" />
		<tag k="operator:type" v="public" />
	</node>
	<node id="-158" lat="59.22865" lon="10.95536">
		<tag k="amenity" v="kindergarten" />
		<tag k="capacity" v="51" />
		<tag k="doNotImportAddress" v="Ilaveien 108 1605 FREDRIKSTAD" />
		<tag k="max_age" v="5" />
		<tag k="min_age" v="1" />
		<tag k="name" v="Noas Park barnehage" />
		<tag k="no-barnehage:nsrid" v="1021913" />
		<tag k="operator" v="Noas Park barnehage AS" />
		<tag k="operator:type" v="private" />
	</node>
	<node id="-157" lat="59.27477" lon="10.77524">
		<tag k="amenity" v="kindergarten" />
		<tag k="capacity" v="29" />
		<tag k="doNotImportAddress" v="Saltnesveien 54 1626 MANSTAD" />
		<tag k="max_age" v="5" />
		<tag k="min_age" v="1" />
		<tag k="name" v="NLM barnehagene avd. Fredtun Kjørre barnehage" />
		<tag k="no-barnehage:nsrid" v="1020364" />
		<tag k="operator" v="Nlm-Barnehagene AS" />
		<tag k="operator:type" v="private" />
	</node>
	<node id="-156" lat="59.2048" lon="10.8819">
		<tag k="amenity" v="kindergarten" />
		<tag k="capacity" v="27" />
		<tag k="doNotImportAddress" v="Rødsdalen 2 1621 GRESSVIK" />
		<tag k="max_age" v="5" />
		<tag k="min_age" v="1" />
		<tag k="name" v="NLM barnehagene avd. Fredtun barnehage" />
		<tag k="no-barnehage:nsrid" v="1015570" />
		<tag k="operator" v="Nlm-Barnehagene AS" />
		<tag k="operator:type" v="private" />
	</node>
	<node id="-155" lat="59.2258" lon="10.8216">
		<tag k="amenity" v="kindergarten" />
		<tag k="capacity" v="59" />
		<tag k="doNotImportAddress" v="Lillengveien 6 1621 GRESSVIK" />
		<tag k="max_age" v="5" />
		<tag k="min_age" v="1" />
		<tag k="name" v="Naturbarna avd. Lilleng" />
		<tag k="no-barnehage:nsrid" v="1016381" />
		<tag k="operator" v="Naturbarna AS" />
		<tag k="operator:type" v="private" />
	</node>
	<node id="-154" lat="59.209" lon="10.8941">
		<tag k="amenity" v="kindergarten" />
		<tag k="capacity" v="40" />
		<tag k="doNotImportAddress" v="Østkilen 1a 1621 GRESSVIK" />
		<tag k="max_age" v="5" />
		<tag k="min_age" v="1" />
		<tag k="name" v="Naturbarna avd. Kilen" />
		<tag k="no-barnehage:nsrid" v="1016064" />
		<tag k="operator" v="Naturbarna AS" />
		<tag k="operator:type" v="private" />
	</node>
	<node id="-153" lat="59.2145" lon="10.9735">
		<tag k="amenity" v="kindergarten" />
		<tag k="capacity" v="68" />
		<tag k="doNotImportAddress" v="Enggata 76 1636 GAMLE FREDRIKSTAD" />
		<tag k="max_age" v="5" />
		<tag k="min_age" v="1" />
		<tag k="name" v="Nabbetorp barnehage" />
		<tag k="no-barnehage:nsrid" v="1012707" />
		<tag k="operator" v="Fredrikstad kommune" />
		<tag k="operator:type" v="public" />
	</node>
	<node id="-152" lat="59.2282" lon="10.9996">
		<tag k="amenity" v="kindergarten" />
		<tag k="capacity" v="71" />
		<tag k="doNotImportAddress" v="Dragerveien 6 1654 SELLEBAKK" />
		<tag k="max_age" v="5" />
		<tag k="min_age" v="1" />
		<tag k="name" v="Løen barnehage" />
		<tag k="no-barnehage:nsrid" v="1016082" />
		<tag k="operator" v="Fredrikstad kommune" />
		<tag k="operator:type" v="public" />
	</node>
	<node id="-151" lat="59.226" lon="10.9222">
		<tag k="amenity" v="kindergarten" />
		<tag k="capacity" v="85" />
		<tag k="contact:website" v="http://laringsverkstedet.no/trosvik" />
		<tag k="doNotImportAddress" v="Onsøyveien 49a 1613 FREDRIKSTAD" />
		<tag k="max_age" v="5" />
		<tag k="min_age" v="1" />
		<tag k="name" v="Læringsverkstedet barnehage avd. Doremi Trosvik" />
		<tag k="no-barnehage:nsrid" v="1016595" />
		<tag k="operator" v="Læringsverkstedet AS" />
		<tag k="operator:type" v="private" />
	</node>
	<node id="-150" lat="59.2113" lon="10.9957">
		<tag k="amenity" v="kindergarten" />
		<tag k="capacity" v="63" />
		<tag k="doNotImportAddress" v="Helneveien 1 1639 GAMLE FREDRIKSTAD" />
		<tag k="max_age" v="5" />
		<tag k="min_age" v="1" />
		<tag k="name" v="Læringsverkstedet barnehage avd. Doremi Begby" />
		<tag k="no-barnehage:nsrid" v="1013448" />
		<tag k="operator" v="Læringsverkstedet AS" />
		<tag k="operator:type" v="private" />
	</node>
	<node id="-149" lat="59.2375" lon="10.9232">
		<tag k="amenity" v="kindergarten" />
		<tag k="capacity" v="56" />
		<tag k="doNotImportAddress" v="Labråten 76 1614 FREDRIKSTAD" />
		<tag k="max_age" v="5" />
		<tag k="min_age" v="1" />
		<tag k="name" v="Lyngmo barnehage" />
		<tag k="no-barnehage:nsrid" v="1015514" />
		<tag k="operator" v="Ådalen Barnehager AS" />
		<tag k="operator:type" v="private" />
	</node>
	<node id="-148" lat="59.228" lon="10.9274">
		<tag k="amenity" v="kindergarten" />
		<tag k="capacity" v="34" />
		<tag k="doNotImportAddress" v="Skrellenveien 1 1613 FREDRIKSTAD" />
		<tag k="max_age" v="5" />
		<tag k="min_age" v="1" />
		<tag k="name" v="Lurvelegg barnehage avd. 1" />
		<tag k="no-barnehage:nsrid" v="1016508" />
		<tag k="operator" v="Fbhd Drift AS" />
		<tag k="operator:type" v="private" />
	</node>
	<node id="-147" lat="59.16006" lon="10.93184">
		<tag k="amenity" v="kindergarten" />
		<tag k="capacity" v="34" />
		<tag k="contact:website" v="http://www.lundebarnehage.no" />
		<tag k="doNotImportAddress" v="Lundebuen 4 1676 KRÅKERØY" />
		<tag k="max_age" v="5" />
		<tag k="min_age" v="1" />
		<tag k="name" v="Lunde barnehage" />
		<tag k="no-barnehage:nsrid" v="1021487" />
		<tag k="operator" v="Lunde barnehage AS" />
		<tag k="operator:type" v="private" />
	</node>
	<node id="-145" lat="59.2597" lon="10.9372">
		<tag k="amenity" v="kindergarten" />
		<tag k="capacity" v="37" />
		<tag k="doNotImportAddress" v="Veumlia 1 1615 FREDRIKSTAD" />
		<tag k="max_age" v="5" />
		<tag k="min_age" v="1" />
		<tag k="name" v="Lillelia gårdsbarnehage" />
		<tag k="no-barnehage:nsrid" v="1014041" />
		<tag k="operator" v="Lillelia Gårdsbarnehage AS" />
		<tag k="operator:type" v="private" />
	</node>
	<node id="-144" lat="59.2298" lon="10.9633">
		<tag k="amenity" v="kindergarten" />
		<tag k="capacity" v="88" />
		<tag k="doNotImportAddress" v="Gamle Kirkevei 50 1617 FREDRIKSTAD" />
		<tag k="max_age" v="5" />
		<tag k="min_age" v="1" />
		<tag k="name" v="Leie barnehage" />
		<tag k="no-barnehage:nsrid" v="1012708" />
		<tag k="operator" v="Fredrikstad kommune" />
		<tag k="operator:type" v="public" />
	</node>
	<node id="-143" lat="59.1895" lon="10.8999">
		<tag k="amenity" v="kindergarten" />
		<tag k="capacity" v="80" />
		<tag k="doNotImportAddress" v="Langøyåsen 9 1679 KRÅKERØY" />
		<tag k="max_age" v="5" />
		<tag k="min_age" v="1" />
		<tag k="name" v="Langøyåsen barnehage" />
		<tag k="no-barnehage:nsrid" v="1012711" />
		<tag k="operator" v="Fredrikstad kommune" />
		<tag k="operator:type" v="public" />
	</node>
	<node id="-142" lat="59.2112" lon="10.9287">
		<tag k="amenity" v="kindergarten" />
		<tag k="capacity" v="94" />
		<tag k="doNotImportAddress" v="Åsgårdveien 32 1671 KRÅKERØY" />
		<tag k="max_age" v="5" />
		<tag k="min_age" v="1" />
		<tag k="name" v="Kråkeby barnehage" />
		<tag k="no-barnehage:nsrid" v="1016214" />
		<tag k="operator" v="Samvirkebarnehagene Sa" />
		<tag k="operator:type" v="private" />
	</node>
	<node id="-141" lat="59.1968" lon="10.9546">
		<tag k="amenity" v="kindergarten" />
		<tag k="capacity" v="60" />
		<tag k="doNotImportAddress" v="Øraveien 5 1630 GAMLE FREDRIKSTAD" />
		<tag k="max_age" v="5" />
		<tag k="min_age" v="1" />
		<tag k="name" v="Kongsten barnehage" />
		<tag k="no-barnehage:nsrid" v="1012706" />
		<tag k="operator" v="Fredrikstad kommune" />
		<tag k="operator:type" v="public" />
	</node>
	<node id="-140" lat="59.2367" lon="11.0088">
		<tag k="amenity" v="kindergarten" />
		<tag k="capacity" v="62" />
		<tag k="doNotImportAddress" v="Alf Prøysens Vei 2 1658 TORP" />
		<tag k="max_age" v="5" />
		<tag k="min_age" v="1" />
		<tag k="name" v="Kjølstad barnehage" />
		<tag k="no-barnehage:nsrid" v="1012705" />
		<tag k="operator" v="Fredrikstad kommune" />
		<tag k="operator:type" v="public" />
	</node>
	<node id="-139" lat="59.228" lon="11.0208">
		<tag k="amenity" v="kindergarten" />
		<tag k="capacity" v="71" />
		<tag k="doNotImportAddress" v="Njårdsvei 17 1654 SELLEBAKK" />
		<tag k="max_age" v="5" />
		<tag k="min_age" v="1" />
		<tag k="name" v="Kjølbergskogen barnehage Reggio Emilia Inspirert barnehage" />
		<tag k="no-barnehage:nsrid" v="1015984" />
		<tag k="operator" v="Samvirkebarnehagene Sa" />
		<tag k="operator:type" v="private" />
	</node>
	<node id="-138" lat="59.2149" lon="10.9599">
		<tag k="amenity" v="kindergarten" />
		<tag k="capacity" v="77" />
		<tag k="doNotImportAddress" v="Lislebyveien 68 1604 FREDRIKSTAD" />
		<tag k="max_age" v="5" />
		<tag k="min_age" v="1" />
		<tag k="name" v="Kiæråsen barnehage" />
		<tag k="no-barnehage:nsrid" v="1025356" />
		<tag k="operator" v="Fredrikstad kommune" />
		<tag k="operator:type" v="public" />
	</node>
	<node id="-137" lat="59.2374" lon="10.9832">
		<tag k="amenity" v="kindergarten" />
		<tag k="capacity" v="106" />
		<tag k="doNotImportAddress" v="Produksjonsveien 23 1618 FREDRIKSTAD" />
		<tag k="max_age" v="5" />
		<tag k="min_age" v="1" />
		<tag k="name" v="Hjørgunn gård barnehage" />
		<tag k="no-barnehage:nsrid" v="1017094" />
		<tag k="operator" v="Borg Barnehager AS" />
		<tag k="operator:type" v="private" />
	</node>
	<node id="-135" lat="59.2474" lon="10.999">
		<tag k="amenity" v="kindergarten" />
		<tag k="capacity" v="70" />
		<tag k="doNotImportAddress" v="Haugeløkka 1 1661 ROLVSØY" />
		<tag k="max_age" v="5" />
		<tag k="min_age" v="1" />
		<tag k="name" v="Haugeløkka barnehage" />
		<tag k="no-barnehage:nsrid" v="1016217" />
		<tag k="operator" v="Samvirkebarnehagene Sa" />
		<tag k="operator:type" v="private" />
	</node>
	<node id="-134" lat="59.2076" lon="10.9659">
		<tag k="amenity" v="kindergarten" />
		<tag k="capacity" v="73" />
		<tag k="doNotImportAddress" v="Gudevoldveien 8 1632 GAMLE FREDRIKSTAD" />
		<tag k="max_age" v="5" />
		<tag k="min_age" v="1" />
		<tag k="name" v="Gudevold barnehage" />
		<tag k="no-barnehage:nsrid" v="1016653" />
		<tag k="operator" v="Samvirkebarnehagene Sa" />
		<tag k="operator:type" v="private" />
	</node>
	<node id="-133" lat="59.2437" lon="11.0135">
		<tag k="amenity" v="kindergarten" />
		<tag k="capacity" v="95" />
		<tag k="contact:website" v="http://www.graatassbarnehage.no" />
		<tag k="doNotImportAddress" v="Konvallveien 3 1658 TORP" />
		<tag k="max_age" v="5" />
		<tag k="min_age" v="1" />
		<tag k="name" v="Gråtass barnehage avd. Torp" />
		<tag k="no-barnehage:nsrid" v="1013159" />
		<tag k="operator" v="Gråtass barnehage AS" />
		<tag k="operator:type" v="private" />
	</node>
	<node id="-132" lat="59.215" lon="11.0751">
		<tag k="amenity" v="kindergarten" />
		<tag k="capacity" v="53" />
		<tag k="doNotImportAddress" v="Haldenveien 165 1655 SELLEBAKK" />
		<tag k="max_age" v="5" />
		<tag k="min_age" v="1" />
		<tag k="name" v="Gråtass barnehage avd. Skjærviken" />
		<tag k="no-barnehage:nsrid" v="1014082" />
		<tag k="operator" v="Gråtass barnehage AS" />
		<tag k="operator:type" v="private" />
	</node>
	<node id="-131" lat="59.2443" lon="11.0237">
		<tag k="amenity" v="kindergarten" />
		<tag k="capacity" v="38" />
		<tag k="doNotImportAddress" v="Roald Aundsens Vei 166 1658 TORP" />
		<tag k="max_age" v="5" />
		<tag k="min_age" v="1" />
		<tag k="name" v="Gråtass barnehage avd. Fagen" />
		<tag k="no-barnehage:nsrid" v="1014197" />
		<tag k="operator" v="Gråtass barnehage AS" />
		<tag k="operator:type" v="private" />
	</node>
	<node id="-130" lat="59.2177" lon="10.9073">
		<tag k="amenity" v="kindergarten" />
		<tag k="capacity" v="60" />
		<tag k="doNotImportAddress" v="N.Jul Andersens Vei 6b 1621 GRESSVIK" />
		<tag k="max_age" v="5" />
		<tag k="min_age" v="1" />
		<tag k="name" v="Gressvik barnehage" />
		<tag k="no-barnehage:nsrid" v="1012714" />
		<tag k="operator" v="Fredrikstad kommune" />
		<tag k="operator:type" v="public" />
	</node>
	<node id="-129" lat="59.1947" lon="10.91217">
		<tag k="amenity" v="kindergarten" />
		<tag k="capacity" v="45" />
		<tag k="doNotImportAddress" v="Enhuusveien 19 1679 KRÅKERØY" />
		<tag k="max_age" v="5" />
		<tag k="min_age" v="1" />
		<tag k="name" v="Glombo barnehage" />
		<tag k="no-barnehage:nsrid" v="1021886" />
		<tag k="operator" v="Glombo barnehage AS" />
		<tag k="operator:type" v="private" />
	</node>
</osm>
