<?xml version="1.0" encoding="UTF-8"?>
<osm generator="osmapis" version="0.6">
	<node id="-142" lat="59.22825" lon="10.99223">
		<tag k="amenity" v="kindergarten" />
		<tag k="capacity" v="5" />
		<tag k="max_age" v="5" />
		<tag k="min_age" v="1" />
		<tag k="name" v="Sesam familiebarnehage" />
		<tag k="no-barnehage:nsrid" v="1020546" />
		<tag k="operator" v="Sesam Familiebarnehage Anita Jeanett Saastad" />
		<tag k="operator:type" v="private" />
	</node>
	<node id="-147" lat="59.22878" lon="10.97471">
		<tag k="amenity" v="kindergarten" />
		<tag k="capacity" v="4" />
		<tag k="max_age" v="5" />
		<tag k="min_age" v="1" />
		<tag k="name" v="Solstua familiebarnehage" />
		<tag k="no-barnehage:nsrid" v="1020389" />
		<tag k="operator" v="Solstua Familiebarnehage Solbjørg Lund Bernabé" />
		<tag k="operator:type" v="private" />
	</node>
	<node id="-123" lat="59.22181" lon="10.98239">
		<tag k="amenity" v="kindergarten" />
		<tag k="capacity" v="5" />
		<tag k="max_age" v="5" />
		<tag k="min_age" v="1" />
		<tag k="name" v="Lilleputt familiebarnehage Linda Norheim" />
		<tag k="no-barnehage:nsrid" v="1020618" />
		<tag k="operator" v="Lilleputt Familiebarnehage Linda Norheim" />
		<tag k="operator:type" v="private" />
	</node>
	<node id="-138" lat="59.21994" lon="10.90609">
		<tag k="amenity" v="kindergarten" />
		<tag k="capacity" v="3" />
		<tag k="max_age" v="5" />
		<tag k="min_age" v="3" />
		<tag k="name" v="Parkveien familiebarnehage" />
		<tag k="no-barnehage:nsrid" v="1021284" />
		<tag k="operator" v="Parkveien Familiebarnehage Nazira Anjaria" />
		<tag k="operator:type" v="private" />
	</node>
	<node id="-113" lat="59.2318" lon="10.97565">
		<tag k="amenity" v="kindergarten" />
		<tag k="capacity" v="4" />
		<tag k="max_age" v="5" />
		<tag k="min_age" v="1" />
		<tag k="name" v="Hjertestua familiebarnehage" />
		<tag k="no-barnehage:nsrid" v="1021860" />
		<tag k="operator" v="Wenche Pettersen" />
		<tag k="operator:type" v="private" />
	</node>
</osm>
