<?xml version="1.0" encoding="UTF-8"?>
<osm generator="osmapis" version="0.6">
	<node id="-189" lat="59.22701" lon="10.9217">
		<tag k="amenity" v="kindergarten" />
		<tag k="capacity" v="4" />
		<tag k="contact:email" v="anne_marit74@hotmail.com" />
		<tag k="max_age" v="5" />
		<tag k="min_age" v="1" />
		<tag k="name" v="Trosvikhaven Familiebarnehage" />
		<tag k="no-barnehage:nsrid" v="1021211" />
		<tag k="operator" v="Trosvikhaven Familiebarnehage Anne Marit Møller" />
		<tag k="operator:type" v="private" />
		<tag k="start_date" v="2009-01-01" />
	</node>
	<node id="-185" lat="59.2581" lon="11.1054">
		<tag k="amenity" v="kindergarten" />
		<tag k="capacity" v="9" />
		<tag k="contact:email" v="soos@online.no" />
		<tag k="contact:phone" v="69 35 21 11" />
		<tag k="max_age" v="2" />
		<tag k="min_age" v="1" />
		<tag k="name" v="Trollklubben barnehage AS Avd Årum" />
		<tag k="no-barnehage:nsrid" v="1016092" />
		<tag k="operator" v="Trollklubben barnehage AS" />
		<tag k="operator:type" v="private" />
		<tag k="start_date" v="1995-02-22" />
	</node>
	<node id="-152" lat="59.22181" lon="10.98239">
		<tag k="amenity" v="kindergarten" />
		<tag k="capacity" v="2" />
		<tag k="contact:email" v="linda.lilleputt@hotmail.com" />
		<tag k="contact:phone" v="69 32 51 83" />
		<tag k="max_age" v="2" />
		<tag k="min_age" v="1" />
		<tag k="name" v="Lilleputt Familiebarnehage Linda Norheim" />
		<tag k="no-barnehage:nsrid" v="1020618" />
		<tag k="operator" v="Lilleputt Familiebarnehage Linda Norheim" />
		<tag k="operator:type" v="private" />
		<tag k="start_date" v="1999-11-01" />
	</node>
	<node id="-197" lat="59.22335" lon="10.95567">
		<tag k="amenity" v="kindergarten" />
		<tag k="capacity" v="4" />
		<tag k="contact:email" v="pauloxley2@gmail.com" />
		<tag k="max_age" v="5" />
		<tag k="min_age" v="1" />
		<tag k="name" v="Wilberg Familiebarnehage" />
		<tag k="no-barnehage:nsrid" v="1021652" />
		<tag k="operator" v="Wilberg Familiebarnehage Qun Shen" />
		<tag k="operator:type" v="private" />
		<tag k="start_date" v="2009-01-01" />
	</node>
	<node id="-150" lat="59.23645" lon="10.96826">
		<tag k="amenity" v="kindergarten" />
		<tag k="capacity" v="4" />
		<tag k="contact:email" v="haugemette@outlook.com" />
		<tag k="max_age" v="2" />
		<tag k="min_age" v="1" />
		<tag k="name" v="Lekestua Familie barnehage" />
		<tag k="no-barnehage:nsrid" v="1020933" />
		<tag k="operator" v="Lekestua Familiebarnehage Tove-Mette Lian Hauge" />
		<tag k="operator:type" v="private" />
		<tag k="start_date" v="2003-08-01" />
	</node>
	<node id="-180" lat="59.22424" lon="11.0415">
		<tag k="amenity" v="kindergarten" />
		<tag k="capacity" v="5" />
		<tag k="contact:email" v="mo-vi@online.no" />
		<tag k="contact:phone" v="69 33 19 95" />
		<tag k="max_age" v="5" />
		<tag k="min_age" v="1" />
		<tag k="name" v="Tornerose Familiebarnehage" />
		<tag k="no-barnehage:nsrid" v="1021377" />
		<tag k="operator" v="Anett Vikanes Tornerose" />
		<tag k="operator:type" v="private" />
		<tag k="start_date" v="2006-01-01" />
	</node>
	<node id="-179" lat="59.21812" lon="11.06574">
		<tag k="amenity" v="kindergarten" />
		<tag k="capacity" v="3" />
		<tag k="contact:email" v="wigande@online.no" />
		<tag k="contact:phone" v="69 34 61 12" />
		<tag k="max_age" v="5" />
		<tag k="min_age" v="1" />
		<tag k="name" v="Tommeliten Familiebarnehage" />
		<tag k="no-barnehage:nsrid" v="1021482" />
		<tag k="operator" v="Tommeliten Familiebarnehage Edel Andersen" />
		<tag k="operator:type" v="private" />
		<tag k="start_date" v="2006-08-01" />
	</node>
	<node id="-178" lat="59.2219" lon="10.98251">
		<tag k="amenity" v="kindergarten" />
		<tag k="capacity" v="3" />
		<tag k="contact:email" v="lvc@live.no" />
		<tag k="contact:phone" v="95042642" />
		<tag k="max_age" v="5" />
		<tag k="min_age" v="3" />
		<tag k="name" v="Storeputt Familiebarnehage Bente Christensen" />
		<tag k="no-barnehage:nsrid" v="1020900" />
		<tag k="operator" v="Storeputt Familiebarnehage Bente Christensen" />
		<tag k="operator:type" v="private" />
		<tag k="start_date" v="2003-01-01" />
	</node>
	<node id="-177" lat="59.22878" lon="10.97471">
		<tag k="amenity" v="kindergarten" />
		<tag k="capacity" v="4" />
		<tag k="contact:email" v="bernabe@online.no" />
		<tag k="contact:phone" v="69 39 87 95" />
		<tag k="max_age" v="5" />
		<tag k="min_age" v="1" />
		<tag k="name" v="Solstua Familiebarnehage" />
		<tag k="no-barnehage:nsrid" v="1020389" />
		<tag k="operator" v="Solstua Familiebarnehage Solbjørg Lund Bernabé" />
		<tag k="operator:type" v="private" />
		<tag k="start_date" v="2006-01-01" />
	</node>
	<node id="-140" lat="59.2318" lon="10.97565">
		<tag k="amenity" v="kindergarten" />
		<tag k="capacity" v="5" />
		<tag k="contact:email" v="Wenche.helgesen.pettersen@gmail.com" />
		<tag k="contact:phone" v="69 39 85 53" />
		<tag k="max_age" v="5" />
		<tag k="min_age" v="1" />
		<tag k="name" v="Hjertestua Familiebarnehage" />
		<tag k="no-barnehage:nsrid" v="1021860" />
		<tag k="operator" v="Wenche Pettersen" />
		<tag k="operator:type" v="private" />
		<tag k="start_date" v="2008-06-01" />
	</node>
	<node id="-172" lat="59.22825" lon="10.99223">
		<tag k="amenity" v="kindergarten" />
		<tag k="capacity" v="4" />
		<tag k="contact:email" v="anita72olsen@hotmail.com" />
		<tag k="max_age" v="2" />
		<tag k="min_age" v="1" />
		<tag k="name" v="Sesam Familiebarnehage" />
		<tag k="no-barnehage:nsrid" v="1020546" />
		<tag k="operator" v="Sesam Familiebarnehage Anita Jeanett Saastad" />
		<tag k="operator:type" v="private" />
		<tag k="start_date" v="2009-01-01" />
	</node>
	<node id="-167" lat="59.21994" lon="10.90609">
		<tag k="amenity" v="kindergarten" />
		<tag k="capacity" v="4" />
		<tag k="contact:email" v="nabanja@online.no" />
		<tag k="contact:phone" v="69 32 88 57" />
		<tag k="max_age" v="5" />
		<tag k="min_age" v="1" />
		<tag k="name" v="Parkveien Familiebarnehage Nazira Anjaria" />
		<tag k="no-barnehage:nsrid" v="1021284" />
		<tag k="operator" v="Parkveien Familiebarnehage Nazira Anjaria" />
		<tag k="operator:type" v="private" />
		<tag k="start_date" v="2005-07-10" />
	</node>
	<node id="-165" lat="59.19687" lon="10.87394">
		<tag k="amenity" v="kindergarten" />
		<tag k="capacity" v="6" />
		<tag k="contact:email" v="malone.svinndal@gmail.com" />
		<tag k="contact:phone" v="414 48 140" />
		<tag k="max_age" v="2" />
		<tag k="min_age" v="1" />
		<tag k="name" v="Oksviken Familiebarnehage Atle Svinndal" />
		<tag k="no-barnehage:nsrid" v="1021800" />
		<tag k="operator" v="Oksviken Familiebarnehage Atle Svinndal" />
		<tag k="operator:type" v="private" />
		<tag k="start_date" v="2008-04-28" />
	</node>
	<node id="-195" lat="59.22764" lon="11.01511">
		<tag k="amenity" v="kindergarten" />
		<tag k="capacity" v="10" />
		<tag k="contact:email" v="anit-smo@online.no" />
		<tag k="contact:phone" v="69 33 29 57" />
		<tag k="max_age" v="5" />
		<tag k="min_age" v="1" />
		<tag k="name" v="Ville Villekulla Familiebarnehage AS" />
		<tag k="no-barnehage:nsrid" v="1022397" />
		<tag k="operator" v="Ville Villekulla Familiebarnehage AS" />
		<tag k="operator:type" v="private" />
		<tag k="start_date" v="1999-08-01" />
	</node>
	<node id="-193" lat="59.24664" lon="10.93029">
		<tag k="amenity" v="kindergarten" />
		<tag k="capacity" v="4" />
		<tag k="contact:email" v="pang-hansen@hotmail.com" />
		<tag k="contact:phone" v="69 31 91 64" />
		<tag k="max_age" v="2" />
		<tag k="min_age" v="1" />
		<tag k="name" v="Veum Familiebarnehage" />
		<tag k="no-barnehage:nsrid" v="1021711" />
		<tag k="operator" v="Veum Familiebarnehage Annette Opstad Hansen" />
		<tag k="operator:type" v="private" />
		<tag k="start_date" v="2007-09-01" />
	</node>
</osm>
