<?xml version="1.0" encoding="UTF-8"?>
<osm generator="osmapis" version="0.6">
	<node id="-128" lat="59.19715" lon="10.95252">
		<tag k="amenity" v="kindergarten" />
		<tag k="capacity" v="23" />
		<tag k="contact:email" v="fredrikstad.rkb@gmail.com" />
		<tag k="contact:phone" v="+47 69 32 02 50" />
		<tag k="max_age" v="5" />
		<tag k="min_age" v="1" />
		<tag k="name" v="Fredrikstad Røde Kors Barneh" />
		<tag k="no-barnehage:nsrid" v="1019672" />
		<tag k="operator" v="Fredrikstad Røde Kors Barneh" />
		<tag k="operator:type" v="private" />
		<tag k="start_date" v="1989-01-02" />
	</node>
	<node id="-127" lat="59.18927" lon="10.91373">
		<tag k="amenity" v="kindergarten" />
		<tag k="capacity" v="54" />
		<tag k="contact:email" v="post@fotsporbarnehage.no" />
		<tag k="contact:phone" v="+47 69 33 06 01" />
		<tag k="max_age" v="5" />
		<tag k="min_age" v="1" />
		<tag k="name" v="Fotspor barnehage AS" />
		<tag k="no-barnehage:nsrid" v="1021333" />
		<tag k="operator" v="Fotspor barnehage AS" />
		<tag k="operator:type" v="private" />
		<tag k="start_date" v="2005-11-09" />
	</node>
	<node id="-126" lat="59.25375" lon="10.74985">
		<tag k="amenity" v="kindergarten" />
		<tag k="capacity" v="43" />
		<tag k="contact:email" v="lindis@engelsvikenbarnehage.no" />
		<tag k="contact:phone" v="+47 69 34 04 30" />
		<tag k="max_age" v="5" />
		<tag k="min_age" v="1" />
		<tag k="name" v="Engelsviken barnehage AS" />
		<tag k="no-barnehage:nsrid" v="1021005" />
		<tag k="operator" v="Engelsviken barnehage AS" />
		<tag k="operator:type" v="private" />
		<tag k="start_date" v="2003-04-11" />
	</node>
	<node id="-125" lat="59.1799" lon="10.9388">
		<tag k="amenity" v="kindergarten" />
		<tag k="capacity" v="37" />
		<tag k="contact:email" v="tsyv@fredrikstad.kommune.no" />
		<tag k="max_age" v="5" />
		<tag k="min_age" v="1" />
		<tag k="name" v="Buskogen barnehage" />
		<tag k="no-barnehage:nsrid" v="1017672" />
		<tag k="operator" v="Fredrikstad kommune" />
		<tag k="operator:type" v="public" />
		<tag k="start_date" v="2007-01-01" />
	</node>
	<node id="-124" lat="59.21432" lon="11.0602">
		<tag k="amenity" v="kindergarten" />
		<tag k="capacity" v="38" />
		<tag k="contact:email" v="post@furuheimbarnehage.no" />
		<tag k="max_age" v="5" />
		<tag k="min_age" v="1" />
		<tag k="name" v="Brunstad Kristelige Menighet Østfold" />
		<tag k="no-barnehage:nsrid" v="1020560" />
		<tag k="operator" v="Brunstad Kristelige Menighet Østfold" />
		<tag k="operator:type" v="private" />
		<tag k="start_date" v="2008-07-07" />
	</node>
	<node id="-123" lat="59.21806" lon="10.9408">
		<tag k="amenity" v="kindergarten" />
		<tag k="contact:email" v="annkristin.ryen@blaakors.no" />
		<tag k="contact:phone" v="+47 69 31 48 66" />
		<tag k="name" v="Blå Kors Fredrikstad Barnas Stasjon" />
		<tag k="no-barnehage:nsrid" v="1018598" />
		<tag k="operator" v="Stiftelsen Blå Kors Fredrikstad" />
		<tag k="operator:type" v="private" />
		<tag k="start_date" v="2007-01-01" />
	</node>
	<node id="-122" lat="59.16142" lon="10.93446">
		<tag k="amenity" v="kindergarten" />
		<tag k="capacity" v="50" />
		<tag k="contact:email" v="dagligleder@blomsteroyabarnehage.no" />
		<tag k="contact:phone" v="+47 69 34 44 94" />
		<tag k="max_age" v="5" />
		<tag k="min_age" v="1" />
		<tag k="name" v="Blomsterøya barnehage Sa" />
		<tag k="no-barnehage:nsrid" v="1019980" />
		<tag k="operator" v="Blomsterøya barnehage Sa" />
		<tag k="operator:type" v="private" />
		<tag k="start_date" v="1991-01-01" />
	</node>
	<node id="-121" lat="59.2119" lon="11.0148">
		<tag k="amenity" v="kindergarten" />
		<tag k="capacity" v="64" />
		<tag k="contact:email" v="juja@fredrikstad.kommune.no" />
		<tag k="contact:phone" v="+47 069325242" />
		<tag k="max_age" v="5" />
		<tag k="min_age" v="1" />
		<tag k="name" v="Bjørneklova barnehage" />
		<tag k="no-barnehage:nsrid" v="1025355" />
		<tag k="operator" v="Fredrikstad kommune" />
		<tag k="operator:type" v="public" />
		<tag k="start_date" v="1988-04-01" />
	</node>
	<node id="-120" lat="59.22346" lon="10.90181">
		<tag k="amenity" v="kindergarten" />
		<tag k="capacity" v="100" />
		<tag k="contact:email" v="benedicte@bamseby.no" />
		<tag k="contact:phone" v="+47 69 33 93 30" />
		<tag k="max_age" v="5" />
		<tag k="min_age" v="1" />
		<tag k="name" v="Benedicte Gundersen AS" />
		<tag k="no-barnehage:nsrid" v="1021089" />
		<tag k="operator" v="Benedicte Gundersen AS" />
		<tag k="operator:type" v="private" />
		<tag k="start_date" v="2005-01-01" />
	</node>
	<node id="-119" lat="59.2172" lon="11.0074">
		<tag k="amenity" v="kindergarten" />
		<tag k="capacity" v="78" />
		<tag k="contact:email" v="begbyenga@samvirkebarnehagene.no" />
		<tag k="max_age" v="5" />
		<tag k="min_age" v="1" />
		<tag k="name" v="Begbyenga barnehage" />
		<tag k="no-barnehage:nsrid" v="1017193" />
		<tag k="operator" v="Samvirkebarnehagene Sa" />
		<tag k="operator:type" v="private" />
		<tag k="start_date" v="2006-06-01" />
	</node>
	<node id="-118" lat="59.2469" lon="10.9218">
		<tag k="amenity" v="kindergarten" />
		<tag k="capacity" v="111" />
		<tag k="contact:email" v="agoy@fredrikstad.kommune.no" />
		<tag k="max_age" v="5" />
		<tag k="min_age" v="1" />
		<tag k="name" v="Ambjørnrød barnehage" />
		<tag k="no-barnehage:nsrid" v="1012559" />
		<tag k="operator" v="Fredrikstad kommune" />
		<tag k="operator:type" v="public" />
		<tag k="start_date" v="1990-01-01" />
	</node>
	<node id="-196" lat="59.2258" lon="10.9565">
		<tag k="amenity" v="kindergarten" />
		<tag k="capacity" v="104" />
		<tag k="contact:email" v="nina@barnehagenett.no" />
		<tag k="contact:phone" v="+47 95952100" />
		<tag k="max_age" v="5" />
		<tag k="min_age" v="1" />
		<tag k="name" v="Wilbergjordet barnehage" />
		<tag k="no-barnehage:nsrid" v="1013416" />
		<tag k="operator" v="Borg Barnehager AS" />
		<tag k="operator:type" v="private" />
		<tag k="start_date" v="2007-05-01" />
	</node>
	<node id="-194" lat="59.21734" lon="11.0689">
		<tag k="amenity" v="kindergarten" />
		<tag k="capacity" v="14" />
		<tag k="contact:email" v="vipbhg@online.no" />
		<tag k="contact:phone" v="+47 69 34 75 20" />
		<tag k="max_age" v="5" />
		<tag k="min_age" v="1" />
		<tag k="name" v="Vispen Private barnehage Da" />
		<tag k="no-barnehage:nsrid" v="1021120" />
		<tag k="operator" v="Vispen Private barnehage Da" />
		<tag k="operator:type" v="private" />
		<tag k="start_date" v="2004-08-12" />
	</node>
	<node id="-192" lat="59.24989" lon="10.93504">
		<tag k="amenity" v="kindergarten" />
		<tag k="capacity" v="21" />
		<tag k="contact:email" v="s-ama@online.no" />
		<tag k="contact:phone" v="+47 69 30 85 60" />
		<tag k="max_age" v="5" />
		<tag k="min_age" v="1" />
		<tag k="name" v="Villa Øst barnehage Sa" />
		<tag k="no-barnehage:nsrid" v="1019671" />
		<tag k="operator" v="Villa Øst barnehage Sa" />
		<tag k="operator:type" v="private" />
		<tag k="start_date" v="1989-01-02" />
	</node>
	<node id="-190" lat="59.26641" lon="10.99637">
		<tag k="amenity" v="kindergarten" />
		<tag k="capacity" v="34" />
		<tag k="contact:email" v="veslefrikk@steinerbarnehage.no" />
		<tag k="contact:phone" v="+47 69 33 54 45" />
		<tag k="max_age" v="5" />
		<tag k="min_age" v="1" />
		<tag k="name" v="Veslefrikk Steinerbarnehage" />
		<tag k="no-barnehage:nsrid" v="1021649" />
		<tag k="operator" v="Eierstiftelsen Steinerbarnehagen Veslefrikk" />
		<tag k="operator:type" v="private" />
		<tag k="start_date" v="1982-01-01" />
	</node>
	<node id="-189" lat="59.18552" lon="11.05066">
		<tag k="amenity" v="kindergarten" />
		<tag k="capacity" v="60" />
		<tag k="contact:email" v="linda@veelstoppen.no" />
		<tag k="contact:phone" v="+47 69 34 98 34" />
		<tag k="max_age" v="5" />
		<tag k="min_age" v="1" />
		<tag k="name" v="Veelstoppen Private barnehage AS" />
		<tag k="no-barnehage:nsrid" v="1021452" />
		<tag k="operator" v="Veelstoppen Private barnehage AS" />
		<tag k="operator:type" v="private" />
		<tag k="start_date" v="2006-05-02" />
	</node>
	<node id="-188" lat="59.1991" lon="10.91117">
		<tag k="amenity" v="kindergarten" />
		<tag k="capacity" v="62" />
		<tag k="contact:email" v="dl.torkopp@bhg.no" />
		<tag k="contact:phone" v="+47 69 32 71 00" />
		<tag k="max_age" v="5" />
		<tag k="min_age" v="1" />
		<tag k="name" v="Tørkopp Fus barnehage AS" />
		<tag k="no-barnehage:nsrid" v="1021515" />
		<tag k="operator" v="Tørkopp Fus barnehage AS" />
		<tag k="operator:type" v="private" />
		<tag k="start_date" v="2006-08-04" />
	</node>
	<node id="-186" lat="59.226" lon="10.9244">
		<tag k="amenity" v="kindergarten" />
		<tag k="capacity" v="100" />
		<tag k="contact:email" v="bebl@fredrikstad.kommune.no" />
		<tag k="contact:phone" v="+47 069315486" />
		<tag k="max_age" v="5" />
		<tag k="min_age" v="1" />
		<tag k="name" v="Trosvik barnehage" />
		<tag k="no-barnehage:nsrid" v="1012709" />
		<tag k="operator" v="Fredrikstad kommune" />
		<tag k="operator:type" v="public" />
		<tag k="start_date" v="1971-12-29" />
	</node>
	<node id="-185" lat="59.2156" lon="10.883">
		<tag k="amenity" v="kindergarten" />
		<tag k="capacity" v="74" />
		<tag k="contact:email" v="trondalen@samvirkebarnehagene.no" />
		<tag k="max_age" v="5" />
		<tag k="min_age" v="1" />
		<tag k="name" v="Trondalen barnehage" />
		<tag k="no-barnehage:nsrid" v="1016220" />
		<tag k="operator" v="Samvirkebarnehagene Sa" />
		<tag k="operator:type" v="private" />
		<tag k="start_date" v="1990-01-01" />
	</node>
	<node id="-184" lat="59.2495" lon="10.9408">
		<tag k="amenity" v="kindergarten" />
		<tag k="capacity" v="52" />
		<tag k="contact:email" v="krte@fredrikstad.kommune.no" />
		<tag k="contact:phone" v="+47 069391735" />
		<tag k="max_age" v="5" />
		<tag k="min_age" v="1" />
		<tag k="name" v="Trollstua barnehage" />
		<tag k="no-barnehage:nsrid" v="1012710" />
		<tag k="operator" v="Fredrikstad kommune" />
		<tag k="operator:type" v="public" />
		<tag k="start_date" v="1988-04-01" />
	</node>
	<node id="-182" lat="59.243" lon="11.022">
		<tag k="amenity" v="kindergarten" />
		<tag k="capacity" v="17" />
		<tag k="contact:email" v="soos@online.no" />
		<tag k="max_age" v="5" />
		<tag k="min_age" v="1" />
		<tag k="name" v="Trollklubben barnehage AS Avd Torp" />
		<tag k="no-barnehage:nsrid" v="1017697" />
		<tag k="operator" v="Trollklubben barnehage AS" />
		<tag k="operator:type" v="private" />
		<tag k="start_date" v="2005-01-01" />
	</node>
	<node id="-181" lat="59.2674" lon="11.0058">
		<tag k="amenity" v="kindergarten" />
		<tag k="capacity" v="127" />
		<tag k="contact:email" v="soos@online.no" />
		<tag k="max_age" v="5" />
		<tag k="min_age" v="1" />
		<tag k="name" v="Trollklubben barnehage AS Avd Rolvsøy" />
		<tag k="no-barnehage:nsrid" v="1017699" />
		<tag k="operator" v="Trollklubben barnehage AS" />
		<tag k="operator:type" v="private" />
		<tag k="start_date" v="2005-01-01" />
	</node>
	<node id="-180" lat="59.2604" lon="11.1075">
		<tag k="amenity" v="kindergarten" />
		<tag k="capacity" v="23" />
		<tag k="contact:email" v="soos@online.no" />
		<tag k="max_age" v="5" />
		<tag k="min_age" v="1" />
		<tag k="name" v="Trollklubben barnehage AS Avd Bilett" />
		<tag k="no-barnehage:nsrid" v="1017698" />
		<tag k="operator" v="Trollklubben barnehage AS" />
		<tag k="operator:type" v="private" />
		<tag k="start_date" v="2006-04-01" />
	</node>
	<node id="-179" lat="59.1861" lon="11.0496">
		<tag k="amenity" v="kindergarten" />
		<tag k="capacity" v="39" />
		<tag k="contact:email" v="lenb@fredrikstad.kommune.no" />
		<tag k="max_age" v="5" />
		<tag k="min_age" v="1" />
		<tag k="name" v="Torsnes barnehage" />
		<tag k="no-barnehage:nsrid" v="1016369" />
		<tag k="operator" v="Fredrikstad kommune" />
		<tag k="operator:type" v="public" />
		<tag k="start_date" v="2002-01-01" />
	</node>
	<node id="-176" lat="59.21611" lon="10.93586">
		<tag k="amenity" v="kindergarten" />
		<tag k="capacity" v="61" />
		<tag k="max_age" v="5" />
		<tag k="min_age" v="1" />
		<tag k="name" v="St Hans Fjellet barnehage" />
		<tag k="no-barnehage:nsrid" v="1026341" />
		<tag k="operator" v="Fredrikstad kommune" />
		<tag k="operator:type" v="public" />
		<tag k="start_date" v="2016-01-01" />
	</node>
	<node id="-175" lat="59.21332" lon="10.94783">
		<tag k="amenity" v="kindergarten" />
		<tag k="capacity" v="38" />
		<tag k="max_age" v="5" />
		<tag k="min_age" v="1" />
		<tag k="name" v="Speiderfjellet barnehage" />
		<tag k="no-barnehage:nsrid" v="2000014" />
		<tag k="operator" v="Fredrikstad kommune" />
		<tag k="operator:type" v="public" />
		<tag k="start_date" v="2016-08-01" />
	</node>
	<node id="-173" lat="59.2023" lon="10.9375">
		<tag k="amenity" v="kindergarten" />
		<tag k="capacity" v="52" />
		<tag k="contact:email" v="jean@fredrikstad.kommune.no" />
		<tag k="contact:phone" v="+47 069341066" />
		<tag k="max_age" v="5" />
		<tag k="min_age" v="1" />
		<tag k="name" v="Smertulia barnehage" />
		<tag k="no-barnehage:nsrid" v="1012712" />
		<tag k="operator" v="Fredrikstad kommune" />
		<tag k="operator:type" v="public" />
		<tag k="start_date" v="1976-01-01" />
	</node>
	<node id="-172" lat="59.1991" lon="10.8305">
		<tag k="amenity" v="kindergarten" />
		<tag k="capacity" v="30" />
		<tag k="contact:email" v="resebil@hotmail.com" />
		<tag k="contact:phone" v="+47 91352450" />
		<tag k="max_age" v="5" />
		<tag k="min_age" v="1" />
		<tag k="name" v="Slevik barnehage" />
		<tag k="no-barnehage:nsrid" v="1021343" />
		<tag k="operator" v="Thelen AS" />
		<tag k="operator:type" v="private" />
		<tag k="start_date" v="2005-10-13" />
	</node>
	<node id="-171" lat="59.2343" lon="10.9306">
		<tag k="amenity" v="kindergarten" />
		<tag k="capacity" v="48" />
		<tag k="contact:email" v="reneca@aadalenbarnehager.no" />
		<tag k="contact:phone" v="+47 69 31 38 85" />
		<tag k="max_age" v="5" />
		<tag k="min_age" v="1" />
		<tag k="name" v="Slangsvold barnehage" />
		<tag k="no-barnehage:nsrid" v="1015549" />
		<tag k="operator" v="Ådalen Barnehager AS" />
		<tag k="operator:type" v="private" />
		<tag k="start_date" v="1982-01-01" />
	</node>
	<node id="-170" lat="59.21521" lon="10.88805">
		<tag k="amenity" v="kindergarten" />
		<tag k="capacity" v="38" />
		<tag k="contact:email" v="monika@skalabarnehage.com" />
		<tag k="max_age" v="5" />
		<tag k="min_age" v="1" />
		<tag k="name" v="Skala barnehage AS" />
		<tag k="no-barnehage:nsrid" v="1021196" />
		<tag k="operator" v="Skala barnehage AS" />
		<tag k="operator:type" v="private" />
		<tag k="start_date" v="2005-02-28" />
	</node>
	<node id="-168" lat="59.21978" lon="10.90657">
		<tag k="amenity" v="kindergarten" />
		<tag k="capacity" v="83" />
		<tag k="contact:email" v="orebekk@barnehage.no" />
		<tag k="contact:phone" v="+47 69 35 35 57" />
		<tag k="contact:website" v="http://orebekk.barnehage.no" />
		<tag k="max_age" v="5" />
		<tag k="min_age" v="1" />
		<tag k="name" v="Rs Team AS" />
		<tag k="no-barnehage:nsrid" v="1021591" />
		<tag k="operator" v="Rs Team AS" />
		<tag k="operator:type" v="private" />
		<tag k="start_date" v="2007-02-12" />
	</node>
	<node id="-167" lat="59.23499" lon="10.97394">
		<tag k="amenity" v="kindergarten" />
		<tag k="capacity" v="75" />
		<tag k="contact:email" v="roseliabarnehage@gmail.com" />
		<tag k="contact:phone" v="+47 69 33 08 90" />
		<tag k="max_age" v="5" />
		<tag k="min_age" v="1" />
		<tag k="name" v="Roselia barnehage Sa" />
		<tag k="no-barnehage:nsrid" v="1020516" />
		<tag k="operator" v="Roselia barnehage Sa" />
		<tag k="operator:type" v="private" />
		<tag k="start_date" v="1998-07-10" />
	</node>
	<node id="-166" lat="59.2619" lon="10.9967">
		<tag k="amenity" v="kindergarten" />
		<tag k="capacity" v="68" />
		<tag k="contact:email" v="guik@fredrikstad.kommune.no" />
		<tag k="contact:phone" v="+47 069335499" />
		<tag k="max_age" v="5" />
		<tag k="min_age" v="1" />
		<tag k="name" v="Rolvsøy barnehage" />
		<tag k="no-barnehage:nsrid" v="1012715" />
		<tag k="operator" v="Fredrikstad kommune" />
		<tag k="operator:type" v="public" />
		<tag k="start_date" v="1988-04-01" />
	</node>
	<node id="-165" lat="59.30054" lon="10.94682">
		<tag k="amenity" v="kindergarten" />
		<tag k="capacity" v="59" />
		<tag k="contact:email" v="rambarn@online.no" />
		<tag k="contact:phone" v="+47 69 39 21 20" />
		<tag k="max_age" v="5" />
		<tag k="min_age" v="1" />
		<tag k="name" v="Ramsjø Gårdsbarnehage AS" />
		<tag k="no-barnehage:nsrid" v="1021608" />
		<tag k="operator" v="Ramsjø Gårdsbarnehage AS" />
		<tag k="operator:type" v="private" />
		<tag k="start_date" v="2004-08-02" />
	</node>
	<node id="-163" lat="59.25369" lon="11.01083">
		<tag k="amenity" v="kindergarten" />
		<tag k="capacity" v="19" />
		<tag k="contact:email" v="emoj@online.no" />
		<tag k="contact:phone" v="+47 69 33 55 91" />
		<tag k="max_age" v="5" />
		<tag k="min_age" v="1" />
		<tag k="name" v="Omberg Gårdsbarnehage AS" />
		<tag k="no-barnehage:nsrid" v="1021825" />
		<tag k="operator" v="Omberg Gårdsbarnehage AS" />
		<tag k="operator:type" v="private" />
		<tag k="start_date" v="2005-12-01" />
	</node>
	<node id="-161" lat="59.1954" lon="10.8744">
		<tag k="amenity" v="kindergarten" />
		<tag k="capacity" v="54" />
		<tag k="contact:email" v="laxh@fredrikstad.kommune.no" />
		<tag k="contact:phone" v="+47 069326398" />
		<tag k="max_age" v="5" />
		<tag k="min_age" v="1" />
		<tag k="name" v="Oksviken barnehage" />
		<tag k="no-barnehage:nsrid" v="1016081" />
		<tag k="operator" v="Fredrikstad kommune" />
		<tag k="operator:type" v="public" />
		<tag k="start_date" v="1988-04-01" />
	</node>
	<node id="-160" lat="59.22865" lon="10.95536">
		<tag k="amenity" v="kindergarten" />
		<tag k="capacity" v="50" />
		<tag k="contact:email" v="kontakt@noasparkbarnehage.no" />
		<tag k="max_age" v="5" />
		<tag k="min_age" v="1" />
		<tag k="name" v="Noas Park barnehage Ltd" />
		<tag k="no-barnehage:nsrid" v="1021913" />
		<tag k="operator" v="Noas Park barnehage Ltd" />
		<tag k="operator:type" v="private" />
		<tag k="start_date" v="2009-02-03" />
	</node>
	<node id="-159" lat="59.2048" lon="10.8819">
		<tag k="amenity" v="kindergarten" />
		<tag k="capacity" v="29" />
		<tag k="contact:email" v="fredtun@nlmbhg.no" />
		<tag k="contact:phone" v="+47 69 32 89 74" />
		<tag k="max_age" v="5" />
		<tag k="min_age" v="1" />
		<tag k="name" v="Nlm Barnehagene AS Avd Fredtun Barnehage" />
		<tag k="no-barnehage:nsrid" v="1015570" />
		<tag k="operator" v="Nlm-Barnehagene AS" />
		<tag k="operator:type" v="private" />
		<tag k="start_date" v="1989-01-02" />
	</node>
	<node id="-158" lat="59.2258" lon="10.8216">
		<tag k="amenity" v="kindergarten" />
		<tag k="capacity" v="59" />
		<tag k="contact:email" v="dagligleder-lilleng@naturbarna.no" />
		<tag k="max_age" v="5" />
		<tag k="min_age" v="1" />
		<tag k="name" v="Naturbarna AS Avd Lilleng" />
		<tag k="no-barnehage:nsrid" v="1016381" />
		<tag k="operator" v="Naturbarna AS" />
		<tag k="operator:type" v="private" />
		<tag k="start_date" v="2002-06-01" />
	</node>
	<node id="-157" lat="59.209" lon="10.8941">
		<tag k="amenity" v="kindergarten" />
		<tag k="capacity" v="38" />
		<tag k="contact:email" v="dagligleder-kilen@naturbarna.no" />
		<tag k="contact:phone" v="+47 069329880" />
		<tag k="max_age" v="5" />
		<tag k="min_age" v="1" />
		<tag k="name" v="Naturbarna AS Avd Kilen" />
		<tag k="no-barnehage:nsrid" v="1016064" />
		<tag k="operator" v="Naturbarna AS" />
		<tag k="operator:type" v="private" />
		<tag k="start_date" v="1995-02-20" />
	</node>
	<node id="-156" lat="59.2145" lon="10.9735">
		<tag k="amenity" v="kindergarten" />
		<tag k="capacity" v="70" />
		<tag k="contact:email" v="labj@fredrikstad.kommune.no" />
		<tag k="contact:phone" v="+47 069320098" />
		<tag k="max_age" v="5" />
		<tag k="min_age" v="1" />
		<tag k="name" v="Nabbetorp barnehage" />
		<tag k="no-barnehage:nsrid" v="1012707" />
		<tag k="operator" v="Fredrikstad kommune" />
		<tag k="operator:type" v="public" />
		<tag k="start_date" v="1978-06-14" />
	</node>
	<node id="-155" lat="59.2282" lon="10.9996">
		<tag k="amenity" v="kindergarten" />
		<tag k="capacity" v="72" />
		<tag k="contact:email" v="elto@fredrikstad.kommune.no" />
		<tag k="contact:phone" v="+47 069345410" />
		<tag k="max_age" v="5" />
		<tag k="min_age" v="1" />
		<tag k="name" v="Løen barnehage" />
		<tag k="no-barnehage:nsrid" v="1016082" />
		<tag k="operator" v="Fredrikstad kommune" />
		<tag k="operator:type" v="public" />
		<tag k="start_date" v="1988-04-01" />
	</node>
	<node id="-154" lat="59.226" lon="10.9222">
		<tag k="amenity" v="kindergarten" />
		<tag k="capacity" v="84" />
		<tag k="contact:email" v="kontor@laringsverkstedet.no" />
		<tag k="contact:website" v="http://laringsverkstedet.no/trosvik" />
		<tag k="max_age" v="5" />
		<tag k="min_age" v="1" />
		<tag k="name" v="Læringsverkstedet barnehage Avd Doremi Trosvik" />
		<tag k="no-barnehage:nsrid" v="1016595" />
		<tag k="operator" v="Læringsverkstedet AS" />
		<tag k="operator:type" v="private" />
		<tag k="start_date" v="2003-08-28" />
	</node>
	<node id="-153" lat="59.2113" lon="10.9957">
		<tag k="amenity" v="kindergarten" />
		<tag k="capacity" v="65" />
		<tag k="contact:email" v="begby@laringsverkstedet.no" />
		<tag k="max_age" v="5" />
		<tag k="min_age" v="1" />
		<tag k="name" v="Læringsverkstedet barnehage Avd Doremi Begby" />
		<tag k="no-barnehage:nsrid" v="1013448" />
		<tag k="operator" v="Læringsverkstedet AS" />
		<tag k="operator:type" v="private" />
		<tag k="start_date" v="2008-03-26" />
	</node>
	<node id="-152" lat="59.2375" lon="10.9232">
		<tag k="amenity" v="kindergarten" />
		<tag k="capacity" v="56" />
		<tag k="contact:email" v="astrid@aadalenbarnehager.no" />
		<tag k="contact:phone" v="+47 069390238" />
		<tag k="max_age" v="5" />
		<tag k="min_age" v="1" />
		<tag k="name" v="Lyngmo barnehage" />
		<tag k="no-barnehage:nsrid" v="1015514" />
		<tag k="operator" v="Ådalen Barnehager AS" />
		<tag k="operator:type" v="private" />
		<tag k="start_date" v="1976-12-24" />
	</node>
	<node id="-151" lat="59.228" lon="10.9274">
		<tag k="amenity" v="kindergarten" />
		<tag k="capacity" v="34" />
		<tag k="contact:email" v="mohage4@gmail.com" />
		<tag k="contact:phone" v="+47 69 31 34 92" />
		<tag k="max_age" v="5" />
		<tag k="min_age" v="1" />
		<tag k="name" v="Lurvelegg barnehage Avd 1" />
		<tag k="no-barnehage:nsrid" v="1016508" />
		<tag k="operator" v="Fbhd Drift AS" />
		<tag k="operator:type" v="private" />
		<tag k="start_date" v="2003-03-31" />
	</node>
	<node id="-150" lat="59.16006" lon="10.93184">
		<tag k="amenity" v="kindergarten" />
		<tag k="capacity" v="31" />
		<tag k="contact:email" v="helene@lundebarnehage.no" />
		<tag k="contact:phone" v="+47 69 34 27 50" />
		<tag k="contact:website" v="http://www.lundebarnehage.no" />
		<tag k="max_age" v="5" />
		<tag k="min_age" v="1" />
		<tag k="name" v="Lunde barnehage AS" />
		<tag k="no-barnehage:nsrid" v="1021487" />
		<tag k="operator" v="Lunde barnehage AS" />
		<tag k="operator:type" v="private" />
		<tag k="start_date" v="2005-11-04" />
	</node>
	<node id="-148" lat="59.2597" lon="10.9372">
		<tag k="amenity" v="kindergarten" />
		<tag k="capacity" v="38" />
		<tag k="contact:email" v="lene@lillelia.no" />
		<tag k="max_age" v="5" />
		<tag k="min_age" v="1" />
		<tag k="name" v="Lillelia Gårdsbarnehage" />
		<tag k="no-barnehage:nsrid" v="1014041" />
		<tag k="operator" v="Lillelia Gårdsbarnehage AS" />
		<tag k="operator:type" v="private" />
		<tag k="start_date" v="2009-08-03" />
	</node>
	<node id="-146" lat="59.2298" lon="10.9633">
		<tag k="amenity" v="kindergarten" />
		<tag k="capacity" v="90" />
		<tag k="contact:email" v="anle@fredrikstad.kommune.no" />
		<tag k="contact:phone" v="+47 069397611" />
		<tag k="max_age" v="5" />
		<tag k="min_age" v="1" />
		<tag k="name" v="Leie barnehage" />
		<tag k="no-barnehage:nsrid" v="1012708" />
		<tag k="operator" v="Fredrikstad kommune" />
		<tag k="operator:type" v="public" />
		<tag k="start_date" v="1988-04-01" />
	</node>
	<node id="-145" lat="59.1895" lon="10.8999">
		<tag k="amenity" v="kindergarten" />
		<tag k="capacity" v="77" />
		<tag k="contact:email" v="elmh@fredrikstad.kommune.no" />
		<tag k="max_age" v="5" />
		<tag k="min_age" v="1" />
		<tag k="name" v="Langøyåsen barnehage" />
		<tag k="no-barnehage:nsrid" v="1012711" />
		<tag k="operator" v="Fredrikstad kommune" />
		<tag k="operator:type" v="public" />
		<tag k="start_date" v="1988-04-01" />
	</node>
	<node id="-144" lat="59.2112" lon="10.9287">
		<tag k="amenity" v="kindergarten" />
		<tag k="capacity" v="94" />
		<tag k="contact:email" v="krakeby@samvirkebarnehagene.no" />
		<tag k="max_age" v="5" />
		<tag k="min_age" v="1" />
		<tag k="name" v="Kråkeby barnehage" />
		<tag k="no-barnehage:nsrid" v="1016214" />
		<tag k="operator" v="Samvirkebarnehagene Sa" />
		<tag k="operator:type" v="private" />
		<tag k="start_date" v="1990-01-01" />
	</node>
	<node id="-143" lat="59.1968" lon="10.9546">
		<tag k="amenity" v="kindergarten" />
		<tag k="capacity" v="62" />
		<tag k="contact:email" v="anha@fredrikstad.kommune.no" />
		<tag k="contact:phone" v="+47 069322103" />
		<tag k="max_age" v="5" />
		<tag k="min_age" v="1" />
		<tag k="name" v="Kongsten barnehage" />
		<tag k="no-barnehage:nsrid" v="1012706" />
		<tag k="operator" v="Fredrikstad kommune" />
		<tag k="operator:type" v="public" />
		<tag k="start_date" v="1978-06-14" />
	</node>
	<node id="-142" lat="59.2367" lon="11.0088">
		<tag k="amenity" v="kindergarten" />
		<tag k="capacity" v="65" />
		<tag k="contact:email" v="mjon@fredrikstad.kommune.no" />
		<tag k="contact:phone" v="+47 069347227" />
		<tag k="max_age" v="5" />
		<tag k="min_age" v="1" />
		<tag k="name" v="Kjølstad barnehage" />
		<tag k="no-barnehage:nsrid" v="1012705" />
		<tag k="operator" v="Fredrikstad kommune" />
		<tag k="operator:type" v="public" />
		<tag k="start_date" v="1978-05-22" />
	</node>
	<node id="-141" lat="59.228" lon="11.0208">
		<tag k="amenity" v="kindergarten" />
		<tag k="capacity" v="67" />
		<tag k="contact:email" v="kjolbergskogen@samvirkebarnehagene.no" />
		<tag k="contact:phone" v="+47 69 35 47 30" />
		<tag k="max_age" v="5" />
		<tag k="min_age" v="1" />
		<tag k="name" v="Kjølbergskogen barnehage Reggio Emilia Inspirert barnehage" />
		<tag k="no-barnehage:nsrid" v="1015984" />
		<tag k="operator" v="Samvirkebarnehagene Sa" />
		<tag k="operator:type" v="private" />
		<tag k="start_date" v="1995-02-22" />
	</node>
	<node id="-140" lat="59.27477" lon="10.77524">
		<tag k="amenity" v="kindergarten" />
		<tag k="capacity" v="25" />
		<tag k="contact:email" v="post@parkbarn.no" />
		<tag k="contact:phone" v="+47 69330331" />
		<tag k="max_age" v="5" />
		<tag k="min_age" v="1" />
		<tag k="name" v="Kjærre Misjonshus barnehage" />
		<tag k="no-barnehage:nsrid" v="1020364" />
		<tag k="operator" v="Kjærre Misjonshus barnehage" />
		<tag k="operator:type" v="private" />
		<tag k="start_date" v="1995-02-22" />
	</node>
	<node id="-139" lat="59.2149" lon="10.9599">
		<tag k="amenity" v="kindergarten" />
		<tag k="capacity" v="77" />
		<tag k="contact:email" v="elgu@fredrikstad.kommune.no" />
		<tag k="contact:phone" v="+47 069315066" />
		<tag k="max_age" v="5" />
		<tag k="min_age" v="1" />
		<tag k="name" v="Kiæråsen barnehage" />
		<tag k="no-barnehage:nsrid" v="1025356" />
		<tag k="operator" v="Fredrikstad kommune" />
		<tag k="operator:type" v="public" />
		<tag k="start_date" v="1978-05-22" />
	</node>
	<node id="-138" lat="59.2374" lon="10.9832">
		<tag k="amenity" v="kindergarten" />
		<tag k="capacity" v="106" />
		<tag k="contact:email" v="larsbjorge@barnehagenett.no" />
		<tag k="max_age" v="5" />
		<tag k="min_age" v="1" />
		<tag k="name" v="Hjørgunn Gård barnehage" />
		<tag k="no-barnehage:nsrid" v="1017094" />
		<tag k="operator" v="Borg Barnehager AS" />
		<tag k="operator:type" v="private" />
		<tag k="start_date" v="2006-01-01" />
	</node>
	<node id="-136" lat="59.2474" lon="10.999">
		<tag k="amenity" v="kindergarten" />
		<tag k="capacity" v="70" />
		<tag k="contact:email" v="haugelokka@samvirkebarnehagene.no" />
		<tag k="contact:phone" v="+47 69337680" />
		<tag k="max_age" v="5" />
		<tag k="min_age" v="1" />
		<tag k="name" v="Haugeløkka barnehage" />
		<tag k="no-barnehage:nsrid" v="1016217" />
		<tag k="operator" v="Samvirkebarnehagene Sa" />
		<tag k="operator:type" v="private" />
		<tag k="start_date" v="1990-01-01" />
	</node>
	<node id="-135" lat="59.2076" lon="10.9659">
		<tag k="amenity" v="kindergarten" />
		<tag k="capacity" v="73" />
		<tag k="contact:email" v="gudevold@samvirkebarnehagene.no" />
		<tag k="contact:phone" v="+47 69 32 04 04" />
		<tag k="max_age" v="5" />
		<tag k="min_age" v="1" />
		<tag k="name" v="Gudevold barnehage" />
		<tag k="no-barnehage:nsrid" v="1016653" />
		<tag k="operator" v="Samvirkebarnehagene Sa" />
		<tag k="operator:type" v="private" />
		<tag k="start_date" v="1978-05-22" />
	</node>
	<node id="-134" lat="59.2437" lon="11.0135">
		<tag k="amenity" v="kindergarten" />
		<tag k="capacity" v="94" />
		<tag k="contact:email" v="christina@graatassbarnehage.no" />
		<tag k="contact:phone" v="+47 69 36 07 30" />
		<tag k="contact:website" v="http://www.graatassbarnehage.no" />
		<tag k="max_age" v="5" />
		<tag k="min_age" v="1" />
		<tag k="name" v="Gråtass barnehage AS Avd Torp" />
		<tag k="no-barnehage:nsrid" v="1013159" />
		<tag k="operator" v="Gråtass barnehage AS" />
		<tag k="operator:type" v="private" />
		<tag k="start_date" v="2005-01-14" />
	</node>
	<node id="-133" lat="59.215" lon="11.0751">
		<tag k="amenity" v="kindergarten" />
		<tag k="capacity" v="51" />
		<tag k="contact:email" v="christina@graatassbarnehage.no" />
		<tag k="max_age" v="5" />
		<tag k="min_age" v="1" />
		<tag k="name" v="Gråtass barnehage AS Avd Skjærviken" />
		<tag k="no-barnehage:nsrid" v="1014082" />
		<tag k="operator" v="Gråtass barnehage AS" />
		<tag k="operator:type" v="private" />
		<tag k="start_date" v="2009-01-01" />
	</node>
	<node id="-132" lat="59.2443" lon="11.0237">
		<tag k="amenity" v="kindergarten" />
		<tag k="capacity" v="39" />
		<tag k="contact:email" v="christina@graatassbarnehage.no" />
		<tag k="contact:phone" v="+47 69 36 07 30" />
		<tag k="max_age" v="5" />
		<tag k="min_age" v="1" />
		<tag k="name" v="Gråtass barnehage AS Avd Fagen" />
		<tag k="no-barnehage:nsrid" v="1014197" />
		<tag k="operator" v="Gråtass barnehage AS" />
		<tag k="operator:type" v="private" />
		<tag k="start_date" v="2010-08-02" />
	</node>
	<node id="-131" lat="59.2177" lon="10.9073">
		<tag k="amenity" v="kindergarten" />
		<tag k="capacity" v="70" />
		<tag k="contact:email" v="gressvbh@fredrikstad.kommune.no" />
		<tag k="contact:phone" v="+47 69306691" />
		<tag k="max_age" v="5" />
		<tag k="min_age" v="1" />
		<tag k="name" v="Gressvik barnehage" />
		<tag k="no-barnehage:nsrid" v="1012714" />
		<tag k="operator" v="Fredrikstad kommune" />
		<tag k="operator:type" v="public" />
		<tag k="start_date" v="1978-06-07" />
	</node>
	<node id="-130" lat="59.1947" lon="10.91217">
		<tag k="amenity" v="kindergarten" />
		<tag k="capacity" v="45" />
		<tag k="contact:email" v="sylvi@fotsporbarnehage.no" />
		<tag k="contact:phone" v="+47 45666143" />
		<tag k="max_age" v="5" />
		<tag k="min_age" v="1" />
		<tag k="name" v="Glombo barnehage AS" />
		<tag k="no-barnehage:nsrid" v="1021886" />
		<tag k="operator" v="Glombo barnehage AS" />
		<tag k="operator:type" v="private" />
		<tag k="start_date" v="2008-11-11" />
	</node>
	<node id="-129" lat="59.2654" lon="10.7711">
		<tag k="amenity" v="kindergarten" />
		<tag k="capacity" v="71" />
		<tag k="contact:email" v="beva@fredrikstad.kommune.no" />
		<tag k="contact:phone" v="+47 069330378" />
		<tag k="max_age" v="5" />
		<tag k="min_age" v="1" />
		<tag k="name" v="Gaustadgrenda barnehage" />
		<tag k="no-barnehage:nsrid" v="1012713" />
		<tag k="operator" v="Fredrikstad kommune" />
		<tag k="operator:type" v="public" />
		<tag k="start_date" v="1992-08-01" />
	</node>
</osm>
