<?xml version="1.0" encoding="UTF-8"?>
<osm generator="osmapis" version="0.6">
	<node id="-4629" lat="61.5995" lon="5.07809">
		<tag k="amenity" v="kindergarten" />
		<tag k="capacity" v="64" />
		<tag k="max_age" v="5" />
		<tag k="min_age" v="1" />
		<tag k="name" v="Torvmyrane barnehage" />
		<tag k="no-barnehage:nsrid" v="1015875" />
		<tag k="operator" v="Flora kommune" />
		<tag k="operator:type" v="public" />
	</node>
	<node id="-4628" lat="61.58697" lon="5.030916">
		<tag k="amenity" v="kindergarten" />
		<tag k="capacity" v="74" />
		<tag k="max_age" v="5" />
		<tag k="min_age" v="1" />
		<tag k="name" v="Sørstrand Maritime FUS barnehage" />
		<tag k="no-barnehage:nsrid" v="1021670" />
		<tag k="operator" v="Sørstrand Maritime Fus barnehage AS" />
		<tag k="operator:type" v="private" />
	</node>
	<node id="-4627" lat="61.5941" lon="5.04024">
		<tag k="amenity" v="kindergarten" />
		<tag k="capacity" v="67" />
		<tag k="max_age" v="5" />
		<tag k="min_age" v="1" />
		<tag k="name" v="Storevatn barnehage" />
		<tag k="no-barnehage:nsrid" v="1018136" />
		<tag k="operator" v="Flora kommune" />
		<tag k="operator:type" v="public" />
	</node>
	<node id="-4626" lat="61.5365" lon="5.20746">
		<tag k="amenity" v="kindergarten" />
		<tag k="capacity" v="7" />
		<tag k="max_age" v="5" />
		<tag k="min_age" v="1" />
		<tag k="name" v="Stavang barnehage" />
		<tag k="no-barnehage:nsrid" v="1014893" />
		<tag k="operator" v="Flora kommune" />
		<tag k="operator:type" v="public" />
	</node>
	<node id="-4625" lat="61.5995" lon="5.03144">
		<tag k="amenity" v="kindergarten" />
		<tag k="capacity" v="6" />
		<tag k="max_age" v="5" />
		<tag k="min_age" v="3" />
		<tag k="name" v="Solheim barnehage" />
		<tag k="no-barnehage:nsrid" v="1018134" />
		<tag k="operator" v="Flora kommune" />
		<tag k="operator:type" v="public" />
	</node>
	<node id="-4624" lat="61.5936" lon="5.00943">
		<tag k="amenity" v="kindergarten" />
		<tag k="capacity" v="22" />
		<tag k="max_age" v="5" />
		<tag k="min_age" v="1" />
		<tag k="name" v="Nyheimvegen barnehage" />
		<tag k="no-barnehage:nsrid" v="1014787" />
		<tag k="operator" v="Flora kommune" />
		<tag k="operator:type" v="public" />
	</node>
	<node id="-4623" lat="61.5997" lon="5.04128">
		<tag k="amenity" v="kindergarten" />
		<tag k="capacity" v="28" />
		<tag k="max_age" v="5" />
		<tag k="min_age" v="1" />
		<tag k="name" v="Nepjarhaugen barnehage" />
		<tag k="no-barnehage:nsrid" v="1018133" />
		<tag k="operator" v="Flora kommune" />
		<tag k="operator:type" v="public" />
	</node>
	<node id="-4622" lat="61.5955" lon="5.08359">
		<tag k="amenity" v="kindergarten" />
		<tag k="capacity" v="90" />
		<tag k="max_age" v="5" />
		<tag k="min_age" v="1" />
		<tag k="name" v="Krokane barnehage" />
		<tag k="no-barnehage:nsrid" v="1018132" />
		<tag k="operator" v="Flora kommune" />
		<tag k="operator:type" v="public" />
	</node>
	<node id="-4621" lat="61.5988" lon="5.00787">
		<tag k="amenity" v="kindergarten" />
		<tag k="capacity" v="58" />
		<tag k="max_age" v="5" />
		<tag k="min_age" v="1" />
		<tag k="name" v="Havreneset barnehage" />
		<tag k="no-barnehage:nsrid" v="1018131" />
		<tag k="operator" v="Flora kommune" />
		<tag k="operator:type" v="public" />
	</node>
	<node id="-4620" lat="61.6031" lon="5.13634">
		<tag k="amenity" v="kindergarten" />
		<tag k="capacity" v="17" />
		<tag k="max_age" v="5" />
		<tag k="min_age" v="3" />
		<tag k="name" v="Brandsøy barnehage" />
		<tag k="no-barnehage:nsrid" v="1014892" />
		<tag k="operator" v="Flora kommune" />
		<tag k="operator:type" v="public" />
	</node>
</osm>
