<?xml version="1.0" encoding="UTF-8"?>
<osm generator="osmapis" version="0.6">
	<node id="-3637" lat="68.81865" lon="16.55606">
		<tag k="ADDRESS" v="Trondenesveien 110, 9404 HARSTAD" />
		<tag k="amenity" v="kindergarten" />
		<tag k="capacity" v="15" />
		<tag k="max_age" v="5" />
		<tag k="min_age" v="1" />
		<tag k="name" v="Trondarnes musikkbarnehage" />
		<tag k="no-barnehage:nsrid" v="1016866" />
		<tag k="operator" v="Stiftelsen Harstad folkehøgskole" />
		<tag k="operator:type" v="private" />
	</node>
	<node id="-3636" lat="68.75848" lon="16.54473">
		<tag k="ADDRESS" v="Høgholtet 37, 9414 HARSTAD" />
		<tag k="amenity" v="kindergarten" />
		<tag k="capacity" v="54" />
		<tag k="max_age" v="5" />
		<tag k="min_age" v="1" />
		<tag k="name" v="Sørhusan barnehager avd. Høgholtet" />
		<tag k="no-barnehage:nsrid" v="1017075" />
		<tag k="operator" v="Harstad kommune / Hársttáid Suohkan" />
		<tag k="operator:type" v="public" />
	</node>
	<node id="-3635" lat="68.6144" lon="16.51463">
		<tag k="ADDRESS" v="Gausvik, 9430 SANDTORG" />
		<tag k="amenity" v="kindergarten" />
		<tag k="capacity" v="12" />
		<tag k="max_age" v="5" />
		<tag k="min_age" v="1" />
		<tag k="name" v="Sørhusan barnehager avd. Gausvik" />
		<tag k="no-barnehage:nsrid" v="1016626" />
		<tag k="operator" v="Harstad kommune / Hársttáid Suohkan" />
		<tag k="operator:type" v="public" />
	</node>
	<node id="-3634" lat="0.0" lon="0.0">
		<tag k="ADDRESS" v="Ervik, 9402 HARSTAD" />
		<tag k="amenity" v="kindergarten" />
		<tag k="capacity" v="29" />
		<tag k="max_age" v="5" />
		<tag k="min_age" v="1" />
		<tag k="name" v="Nordhusan barnehager avd. Ervik" />
		<tag k="no-barnehage:nsrid" v="1026066" />
		<tag k="operator" v="Harstad kommune / Hársttáid Suohkan" />
		<tag k="operator:type" v="public" />
	</node>
	<node id="-3633" lat="68.81438" lon="16.50792">
		<tag k="ADDRESS" v="Skarpsnobakken 11, 9403 HARSTAD" />
		<tag k="amenity" v="kindergarten" />
		<tag k="capacity" v="27" />
		<tag k="max_age" v="5" />
		<tag k="min_age" v="1" />
		<tag k="name" v="Nordhusan barnehager avd. Bergseng" />
		<tag k="no-barnehage:nsrid" v="1016624" />
		<tag k="operator" v="Harstad kommune / Hársttáid Suohkan" />
		<tag k="operator:type" v="public" />
	</node>
	<node id="-3632" lat="68.77818" lon="16.57078">
		<tag k="ADDRESS" v="Fredlyveien 17, 9411 HARSTAD" />
		<tag k="amenity" v="kindergarten" />
		<tag k="capacity" v="47" />
		<tag k="contact:website" v="http://www.laringsverkstedet.no" />
		<tag k="max_age" v="5" />
		<tag k="min_age" v="1" />
		<tag k="name" v="Læringsverkstedet barnehage avd. Kanebo" />
		<tag k="no-barnehage:nsrid" v="1020428" />
		<tag k="operator" v="Læringsverkstedet AS" />
		<tag k="operator:type" v="private" />
	</node>
	<node id="-3631" lat="68.71414" lon="16.49789">
		<tag k="ADDRESS" v="Kilkamveien 103, 9415 HARSTAD" />
		<tag k="amenity" v="kindergarten" />
		<tag k="capacity" v="43" />
		<tag k="max_age" v="5" />
		<tag k="min_age" v="1" />
		<tag k="name" v="Læringsverkstedet barnehage avd. Løvåsen" />
		<tag k="no-barnehage:nsrid" v="1020449" />
		<tag k="operator" v="Læringsverkstedet AS" />
		<tag k="operator:type" v="private" />
	</node>
	<node id="-3629" lat="68.75175" lon="16.55665">
		<tag k="ADDRESS" v="Sildreveien 35, 9414 HARSTAD" />
		<tag k="amenity" v="kindergarten" />
		<tag k="capacity" v="70" />
		<tag k="max_age" v="5" />
		<tag k="min_age" v="1" />
		<tag k="name" v="Holtet barnehage" />
		<tag k="no-barnehage:nsrid" v="1020179" />
		<tag k="operator" v="Holtet barnehage Sa" />
		<tag k="operator:type" v="private" />
	</node>
	<node id="-3628" lat="68.77854" lon="16.54592">
		<tag k="ADDRESS" v="Grønnebakkan 20, 9408 HARSTAD" />
		<tag k="amenity" v="kindergarten" />
		<tag k="capacity" v="58" />
		<tag k="contact:website" v="http://www.gronnebakkan.barnehage.no" />
		<tag k="max_age" v="5" />
		<tag k="min_age" v="1" />
		<tag k="name" v="Grønnebakkan andelsbarnehage" />
		<tag k="no-barnehage:nsrid" v="1020203" />
		<tag k="operator" v="Grønnebakkan Andelsbarnehage Sa" />
		<tag k="operator:type" v="private" />
	</node>
	<node id="-3627" lat="68.7875" lon="16.58499">
		<tag k="ADDRESS" v="Gunnarn 23, 9409 HARSTAD" />
		<tag k="amenity" v="kindergarten" />
		<tag k="max_age" v="5" />
		<tag k="min_age" v="1" />
		<tag k="name" v="Gangsåstoppen barnehager avd. Stangneslia" />
		<tag k="no-barnehage:nsrid" v="1016623" />
		<tag k="operator" v="Harstad kommune / Hársttáid Suohkan" />
		<tag k="operator:type" v="public" />
	</node>
	<node id="-3626" lat="0.0" lon="0.0">
		<tag k="ADDRESS" v=", 9420 LUNDENES" />
		<tag k="amenity" v="kindergarten" />
		<tag k="capacity" v="15" />
		<tag k="max_age" v="5" />
		<tag k="min_age" v="1" />
		<tag k="name" v="Finnvika barnehage" />
		<tag k="no-barnehage:nsrid" v="1016152" />
		<tag k="operator" v="Harstad kommune / Hársttáid Suohkan" />
		<tag k="operator:type" v="public" />
	</node>
	<node id="-3625" lat="68.79887" lon="16.54045">
		<tag k="ADDRESS" v="Hans Egedes Gate 12, 9405 HARSTAD" />
		<tag k="amenity" v="kindergarten" />
		<tag k="name" v="Familiens Hus" />
		<tag k="no-barnehage:nsrid" v="2000190" />
		<tag k="operator" v="Harstad kommune / Hársttáid Suohkan" />
		<tag k="operator:type" v="public" />
	</node>
	<node id="-3624" lat="68.78216" lon="16.5174">
		<tag k="ADDRESS" v="Dalsletta 2, 9407 HARSTAD" />
		<tag k="amenity" v="kindergarten" />
		<tag k="capacity" v="50" />
		<tag k="contact:website" v="http://dalsletta.barnehage.no" />
		<tag k="max_age" v="5" />
		<tag k="min_age" v="1" />
		<tag k="name" v="Dalsletta barnehage" />
		<tag k="no-barnehage:nsrid" v="1019990" />
		<tag k="operator" v="Dalsletta barnehage Sa" />
		<tag k="operator:type" v="private" />
	</node>
	<node id="-3623" lat="68.79575" lon="16.50978">
		<tag k="ADDRESS" v="Bjørnebåsen 4, 9406 HARSTAD" />
		<tag k="amenity" v="kindergarten" />
		<tag k="capacity" v="50" />
		<tag k="max_age" v="5" />
		<tag k="min_age" v="1" />
		<tag k="name" v="Bjørnebåsen barnehage" />
		<tag k="no-barnehage:nsrid" v="1020235" />
		<tag k="operator" v="Bjørnebåsen barnehage Sa" />
		<tag k="operator:type" v="private" />
	</node>
</osm>
