<?xml version="1.0" encoding="UTF-8"?>
<osm generator="osmapis" version="0.6">
	<node id="-6015" lat="68.78819" lon="16.52058">
		<tag k="amenity" v="kindergarten" />
		<tag k="capacity" v="8" />
		<tag k="max_age" v="2" />
		<tag k="min_age" v="1" />
		<tag k="name" v="Fagerlia familiebarnehage" />
		<tag k="no-barnehage:nsrid" v="1022211" />
		<tag k="operator" v="Fagerlia Familiebarnehage AS" />
		<tag k="operator:type" v="private" />
	</node>
	<node id="-6033" lat="68.76165" lon="16.55747">
		<tag k="amenity" v="kindergarten" />
		<tag k="capacity" v="9" />
		<tag k="max_age" v="5" />
		<tag k="min_age" v="1" />
		<tag k="name" v="Mølnholtet familiebarnehage" />
		<tag k="no-barnehage:nsrid" v="1022216" />
		<tag k="operator" v="Mølnholtet Familiebarnehage" />
		<tag k="operator:type" v="private" />
	</node>
	<node id="-6011" lat="68.81051" lon="16.50795">
		<tag k="amenity" v="kindergarten" />
		<tag k="capacity" v="8" />
		<tag k="max_age" v="2" />
		<tag k="min_age" v="1" />
		<tag k="name" v="Bergsengveien familiebarnehage" />
		<tag k="no-barnehage:nsrid" v="1022437" />
		<tag k="operator" v="Bergsengveien Familiebarnehage AS" />
		<tag k="operator:type" v="private" />
	</node>
	<node id="-6039" lat="68.81256" lon="16.54326">
		<tag k="amenity" v="kindergarten" />
		<tag k="capacity" v="8" />
		<tag k="max_age" v="2" />
		<tag k="min_age" v="1" />
		<tag k="name" v="Småtroll Harstad" />
		<tag k="no-barnehage:nsrid" v="1026038" />
		<tag k="operator" v="Småtroll Harstad AS" />
		<tag k="operator:type" v="private" />
	</node>
	<node id="-6027" lat="68.8028" lon="16.53113">
		<tag k="amenity" v="kindergarten" />
		<tag k="capacity" v="8" />
		<tag k="max_age" v="2" />
		<tag k="min_age" v="1" />
		<tag k="name" v="Jørnsgate familiebarnehage" />
		<tag k="no-barnehage:nsrid" v="1020325" />
		<tag k="operator" v="Jørnsgate Familiebarnehage Rikardsen" />
		<tag k="operator:type" v="private" />
	</node>
</osm>
