<?xml version="1.0" encoding="UTF-8"?>
<osm generator="osmapis" version="0.6">
	<node id="-5882" lat="68.8183" lon="16.5546">
		<tag k="amenity" v="kindergarten" />
		<tag k="capacity" v="16" />
		<tag k="contact:email" v="marianneforli@hotmail.com" />
		<tag k="max_age" v="5" />
		<tag k="min_age" v="1" />
		<tag k="name" v="Trondarnes Musikkbarnehage" />
		<tag k="no-barnehage:nsrid" v="1016866" />
		<tag k="operator" v="Stiftelsen Harstad Folkehøgskole" />
		<tag k="operator:type" v="private" />
		<tag k="start_date" v="1989-01-02" />
	</node>
	<node id="-5881" lat="68.685" lon="16.5345">
		<tag k="amenity" v="kindergarten" />
		<tag k="capacity" v="15" />
		<tag k="contact:email" v="eli.vara@harstad.kommune.no" />
		<tag k="max_age" v="5" />
		<tag k="min_age" v="1" />
		<tag k="name" v="Sørvik Oppvekstsenter Avd Sørvik barnehage" />
		<tag k="no-barnehage:nsrid" v="1016627" />
		<tag k="operator" v="Harstad kommune" />
		<tag k="operator:type" v="public" />
		<tag k="start_date" v="1990-01-01" />
	</node>
	<node id="-5880" lat="68.6195" lon="16.5083">
		<tag k="amenity" v="kindergarten" />
		<tag k="capacity" v="14" />
		<tag k="contact:email" v="eli.vara@harstad.kommune.no" />
		<tag k="max_age" v="5" />
		<tag k="min_age" v="1" />
		<tag k="name" v="Sørvik Oppvekstsenter Avd Gausvik Barnehage" />
		<tag k="no-barnehage:nsrid" v="1016626" />
		<tag k="operator" v="Harstad kommune" />
		<tag k="operator:type" v="public" />
		<tag k="start_date" v="1989-01-02" />
	</node>
	<node id="-5879" lat="68.6581" lon="16.5556">
		<tag k="amenity" v="kindergarten" />
		<tag k="capacity" v="26" />
		<tag k="contact:email" v="eli.vara@harstad.kommune.no" />
		<tag k="max_age" v="5" />
		<tag k="min_age" v="1" />
		<tag k="name" v="Sørvik Oppvekstsenter Avd Fauskevåg barnehage" />
		<tag k="no-barnehage:nsrid" v="1018500" />
		<tag k="operator" v="Harstad kommune" />
		<tag k="operator:type" v="public" />
		<tag k="start_date" v="2008-08-18" />
	</node>
	<node id="-5877" lat="68.79864" lon="16.54145">
		<tag k="amenity" v="kindergarten" />
		<tag k="capacity" v="42" />
		<tag k="contact:email" v="tone@lovaasen.no" />
		<tag k="contact:phone" v="+47 63 94 62 50" />
		<tag k="max_age" v="5" />
		<tag k="min_age" v="1" />
		<tag k="name" v="Læringsverkstedet barnehage Avd Løvåsen" />
		<tag k="no-barnehage:nsrid" v="1020449" />
		<tag k="operator" v="Læringsverkstedet AS" />
		<tag k="operator:type" v="private" />
		<tag k="start_date" v="2010-01-01" />
	</node>
	<node id="-5876" lat="68.83695" lon="16.34463">
		<tag k="amenity" v="kindergarten" />
		<tag k="capacity" v="26" />
		<tag k="contact:email" v="styrer@kasfjordmontessori.no" />
		<tag k="contact:phone" v="+47 77 06 74 41" />
		<tag k="max_age" v="5" />
		<tag k="min_age" v="1" />
		<tag k="name" v="Kasfjord Montessoribarnehage" />
		<tag k="no-barnehage:nsrid" v="1021266" />
		<tag k="operator" v="Elgen Factory AS" />
		<tag k="operator:type" v="private" />
		<tag k="start_date" v="2003-04-30" />
	</node>
	<node id="-5875" lat="68.77818" lon="16.57078">
		<tag k="amenity" v="kindergarten" />
		<tag k="capacity" v="45" />
		<tag k="contact:email" v="post@kanebo-barnehage.no" />
		<tag k="contact:phone" v="+47 77 00 19 60" />
		<tag k="contact:website" v="http://www.kanebo-barnehage.no" />
		<tag k="max_age" v="5" />
		<tag k="min_age" v="1" />
		<tag k="name" v="Kanebo barnehage Sa" />
		<tag k="no-barnehage:nsrid" v="1020428" />
		<tag k="operator" v="Kanebo barnehage Sa" />
		<tag k="operator:type" v="private" />
		<tag k="start_date" v="1995-02-23" />
	</node>
	<node id="-5873" lat="68.75175" lon="16.55665">
		<tag k="amenity" v="kindergarten" />
		<tag k="capacity" v="69" />
		<tag k="contact:email" v="post@holtet-barnehage.no" />
		<tag k="contact:phone" v="+47 77 07 04 28" />
		<tag k="max_age" v="5" />
		<tag k="min_age" v="1" />
		<tag k="name" v="Holtet barnehage Sa" />
		<tag k="no-barnehage:nsrid" v="1020179" />
		<tag k="operator" v="Holtet barnehage Sa" />
		<tag k="operator:type" v="private" />
		<tag k="start_date" v="1994-12-01" />
	</node>
	<node id="-5872" lat="68.7604" lon="16.5512">
		<tag k="amenity" v="kindergarten" />
		<tag k="capacity" v="40" />
		<tag k="contact:email" v="ellen.vik@harstad.kommune.no" />
		<tag k="max_age" v="5" />
		<tag k="min_age" v="1" />
		<tag k="name" v="Hinnstein Barnehager Avd Medkila" />
		<tag k="no-barnehage:nsrid" v="1016628" />
		<tag k="operator" v="Harstad kommune" />
		<tag k="operator:type" v="public" />
		<tag k="start_date" v="1989-01-01" />
	</node>
	<node id="-5871" lat="68.7592" lon="16.5429">
		<tag k="amenity" v="kindergarten" />
		<tag k="capacity" v="66" />
		<tag k="contact:email" v="ellen.vik@harstad.kommune.no" />
		<tag k="max_age" v="5" />
		<tag k="min_age" v="1" />
		<tag k="name" v="Hinnstein Barnehager Avd Høgholtet" />
		<tag k="no-barnehage:nsrid" v="1017075" />
		<tag k="operator" v="Harstad kommune" />
		<tag k="operator:type" v="public" />
		<tag k="start_date" v="2005-12-05" />
	</node>
	<node id="-5870" lat="68.7462" lon="16.5546">
		<tag k="amenity" v="kindergarten" />
		<tag k="capacity" v="31" />
		<tag k="contact:email" v="ellen.vik@harstad.kommune.no" />
		<tag k="max_age" v="5" />
		<tag k="min_age" v="1" />
		<tag k="name" v="Hinnstein Barnehager Avd Breivika" />
		<tag k="no-barnehage:nsrid" v="1025383" />
		<tag k="operator" v="Harstad kommune" />
		<tag k="operator:type" v="public" />
		<tag k="start_date" v="1976-01-01" />
	</node>
	<node id="-5869" lat="68.7892" lon="16.5263">
		<tag k="amenity" v="kindergarten" />
		<tag k="capacity" v="27" />
		<tag k="contact:email" v="hilde.olsen@harstad.kommune.no" />
		<tag k="max_age" v="5" />
		<tag k="min_age" v="1" />
		<tag k="name" v="Heggen Barnehager Avd Sletta" />
		<tag k="no-barnehage:nsrid" v="1016625" />
		<tag k="operator" v="Harstad kommune" />
		<tag k="operator:type" v="public" />
		<tag k="start_date" v="1989-01-01" />
	</node>
	<node id="-5868" lat="68.79485" lon="16.52731">
		<tag k="amenity" v="kindergarten" />
		<tag k="capacity" v="67" />
		<tag k="contact:email" v="hilde.olsen@harstad.kommune.no" />
		<tag k="max_age" v="5" />
		<tag k="min_age" v="1" />
		<tag k="name" v="Heggen Barnehager Avd Gullhaugen" />
		<tag k="no-barnehage:nsrid" v="1025489" />
		<tag k="operator" v="Harstad kommune" />
		<tag k="operator:type" v="public" />
		<tag k="start_date" v="2014-10-20" />
	</node>
	<node id="-5867" lat="68.7812" lon="16.5167">
		<tag k="amenity" v="kindergarten" />
		<tag k="capacity" v="67" />
		<tag k="contact:email" v="hilde.olsen@harstad.kommune.no" />
		<tag k="max_age" v="5" />
		<tag k="min_age" v="1" />
		<tag k="name" v="Heggen Barnehager Avd Blåbærdalen" />
		<tag k="no-barnehage:nsrid" v="1017074" />
		<tag k="operator" v="Harstad kommune" />
		<tag k="operator:type" v="public" />
		<tag k="start_date" v="2005-12-27" />
	</node>
	<node id="-5866" lat="68.7971" lon="16.5259">
		<tag k="amenity" v="kindergarten" />
		<tag k="capacity" v="27" />
		<tag k="contact:email" v="elsa.jensen@harstad.kommune.no" />
		<tag k="max_age" v="5" />
		<tag k="min_age" v="1" />
		<tag k="name" v="Harstadåsen Barnehager Avd Brattbakken" />
		<tag k="no-barnehage:nsrid" v="1013879" />
		<tag k="operator" v="Harstad kommune" />
		<tag k="operator:type" v="public" />
		<tag k="start_date" v="1989-01-02" />
	</node>
	<node id="-5865" lat="68.7884" lon="16.51692">
		<tag k="amenity" v="kindergarten" />
		<tag k="capacity" v="69" />
		<tag k="contact:email" v="elsa.jensen@harstad.kommune.no" />
		<tag k="max_age" v="5" />
		<tag k="min_age" v="1" />
		<tag k="name" v="Harstadåsen barnehage Avd Utsikten" />
		<tag k="no-barnehage:nsrid" v="1026101" />
		<tag k="operator" v="Harstad kommune" />
		<tag k="operator:type" v="public" />
		<tag k="start_date" v="2015-08-14" />
	</node>
	<node id="-5864" lat="68.77854" lon="16.54592">
		<tag k="amenity" v="kindergarten" />
		<tag k="capacity" v="58" />
		<tag k="contact:email" v="gronnebakkan@barnehage.no" />
		<tag k="contact:phone" v="+47 77 07 10 25" />
		<tag k="contact:website" v="http://www.gronnebakkan.barnehage.no" />
		<tag k="max_age" v="5" />
		<tag k="min_age" v="1" />
		<tag k="name" v="Grønnebakkan Andelsbarnehage Sa" />
		<tag k="no-barnehage:nsrid" v="1020203" />
		<tag k="operator" v="Grønnebakkan Andelsbarnehage Sa" />
		<tag k="operator:type" v="private" />
		<tag k="start_date" v="1995-07-13" />
	</node>
	<node id="-5863" lat="68.7875" lon="16.5863">
		<tag k="amenity" v="kindergarten" />
		<tag k="capacity" v="18" />
		<tag k="contact:email" v="gro.dahle@harstad.kommune.no" />
		<tag k="max_age" v="2" />
		<tag k="min_age" v="1" />
		<tag k="name" v="Gangsåstoppen Barnehager Avd Åkervika" />
		<tag k="no-barnehage:nsrid" v="1018497" />
		<tag k="operator" v="Harstad kommune" />
		<tag k="operator:type" v="public" />
		<tag k="start_date" v="2008-08-18" />
	</node>
	<node id="-5862" lat="68.789" lon="16.5895">
		<tag k="amenity" v="kindergarten" />
		<tag k="capacity" v="15" />
		<tag k="contact:email" v="gro.dahle@harstad.kommune.no" />
		<tag k="max_age" v="5" />
		<tag k="min_age" v="1" />
		<tag k="name" v="Gangsåstoppen Barnehager Avd Vika Friluftlivbarnehage" />
		<tag k="no-barnehage:nsrid" v="1015193" />
		<tag k="operator" v="Harstad kommune" />
		<tag k="operator:type" v="public" />
		<tag k="start_date" v="2013-01-01" />
	</node>
	<node id="-5861" lat="68.7875" lon="16.585">
		<tag k="amenity" v="kindergarten" />
		<tag k="capacity" v="30" />
		<tag k="contact:email" v="gro.dahle@harstad.kommune.no" />
		<tag k="max_age" v="5" />
		<tag k="min_age" v="3" />
		<tag k="name" v="Gangsåstoppen Barnehager Avd Stangneslia" />
		<tag k="no-barnehage:nsrid" v="1016623" />
		<tag k="operator" v="Harstad kommune" />
		<tag k="operator:type" v="public" />
		<tag k="start_date" v="1989-01-01" />
	</node>
	<node id="-5860" lat="68.792" lon="16.5626">
		<tag k="amenity" v="kindergarten" />
		<tag k="capacity" v="15" />
		<tag k="contact:email" v="gro.dahle@harstad.kommune.no" />
		<tag k="max_age" v="2" />
		<tag k="min_age" v="1" />
		<tag k="name" v="Gangsåstoppen Barnehager Avd Knerten" />
		<tag k="no-barnehage:nsrid" v="1016151" />
		<tag k="operator" v="Harstad kommune" />
		<tag k="operator:type" v="public" />
		<tag k="start_date" v="1989-01-02" />
	</node>
	<node id="-5859" lat="68.8791" lon="16.5674">
		<tag k="amenity" v="kindergarten" />
		<tag k="capacity" v="12" />
		<tag k="contact:email" v="anne.eneberg@harstad.kommune.no" />
		<tag k="max_age" v="5" />
		<tag k="min_age" v="1" />
		<tag k="name" v="Finnvika barnehage" />
		<tag k="no-barnehage:nsrid" v="1016152" />
		<tag k="operator" v="Harstad kommune" />
		<tag k="operator:type" v="public" />
		<tag k="start_date" v="1989-01-02" />
	</node>
	<node id="-5858" lat="68.8126" lon="16.5453">
		<tag k="amenity" v="kindergarten" />
		<tag k="capacity" v="45" />
		<tag k="contact:email" v="anne.grete.sorensen@harstad.kommune.no" />
		<tag k="max_age" v="5" />
		<tag k="min_age" v="1" />
		<tag k="name" v="Fargeklatten Barnehager Avd Hagebyen" />
		<tag k="no-barnehage:nsrid" v="1016620" />
		<tag k="operator" v="Harstad kommune" />
		<tag k="operator:type" v="public" />
		<tag k="start_date" v="1976-01-01" />
	</node>
	<node id="-5857" lat="68.8031" lon="16.5371">
		<tag k="amenity" v="kindergarten" />
		<tag k="capacity" v="44" />
		<tag k="contact:email" v="anne.grete.Sorensen@harstad.kommune.no" />
		<tag k="max_age" v="5" />
		<tag k="min_age" v="1" />
		<tag k="name" v="Fargeklatten Barnehager Avd Barnely" />
		<tag k="no-barnehage:nsrid" v="1016621" />
		<tag k="operator" v="Harstad kommune" />
		<tag k="operator:type" v="public" />
		<tag k="start_date" v="1971-12-29" />
	</node>
	<node id="-5855" lat="68.78216" lon="16.5174">
		<tag k="amenity" v="kindergarten" />
		<tag k="capacity" v="49" />
		<tag k="contact:email" v="post@dalslettabarnehage.no" />
		<tag k="contact:phone" v="+47 77 00 20 80" />
		<tag k="max_age" v="5" />
		<tag k="min_age" v="1" />
		<tag k="name" v="Dalsletta barnehage Sa" />
		<tag k="no-barnehage:nsrid" v="1019990" />
		<tag k="operator" v="Dalsletta barnehage Sa" />
		<tag k="operator:type" v="private" />
		<tag k="start_date" v="1989-02-10" />
	</node>
	<node id="-5854" lat="68.79483" lon="16.53623">
		<tag k="amenity" v="kindergarten" />
		<tag k="name" v="Cefo Products AS" />
		<tag k="no-barnehage:nsrid" v="1026594" />
		<tag k="operator" v="Cefo Products AS" />
		<tag k="operator:type" v="private" />
		<tag k="start_date" v="2015-11-01" />
	</node>
	<node id="-5853" lat="68.787" lon="16.5606">
		<tag k="amenity" v="kindergarten" />
		<tag k="capacity" v="136" />
		<tag k="contact:email" v="anne.lise.abrahamsen@harstad.kommune.no" />
		<tag k="max_age" v="5" />
		<tag k="min_age" v="1" />
		<tag k="name" v="Byggeklossen barnehage" />
		<tag k="no-barnehage:nsrid" v="1017876" />
		<tag k="operator" v="Harstad kommune" />
		<tag k="operator:type" v="public" />
		<tag k="start_date" v="2007-01-01" />
	</node>
	<node id="-5852" lat="68.81888" lon="16.51606">
		<tag k="amenity" v="kindergarten" />
		<tag k="capacity" v="33" />
		<tag k="contact:email" v="gunn.tove.c@gmail.com" />
		<tag k="contact:phone" v="+47 77721717" />
		<tag k="max_age" v="5" />
		<tag k="min_age" v="1" />
		<tag k="name" v="Bygdestua barnehage Sa" />
		<tag k="no-barnehage:nsrid" v="1019961" />
		<tag k="operator" v="Bygdestua barnehage Sa" />
		<tag k="operator:type" v="private" />
		<tag k="start_date" v="1990-01-01" />
	</node>
	<node id="-5851" lat="68.79575" lon="16.50978">
		<tag k="amenity" v="kindergarten" />
		<tag k="capacity" v="48" />
		<tag k="contact:email" v="post@bjornebaasen.no" />
		<tag k="contact:phone" v="+47 77 00 15 25" />
		<tag k="max_age" v="5" />
		<tag k="min_age" v="1" />
		<tag k="name" v="Bjørnebåsen barnehage" />
		<tag k="no-barnehage:nsrid" v="1020235" />
		<tag k="operator" v="Bjørnebåsen barnehage Sa" />
		<tag k="operator:type" v="private" />
		<tag k="start_date" v="1994-08-01" />
	</node>
	<node id="-5850" lat="68.9957" lon="16.5383">
		<tag k="amenity" v="kindergarten" />
		<tag k="capacity" v="4" />
		<tag k="contact:email" v="john-erik.kristiansen@harstad.kommune.no" />
		<tag k="contact:phone" v="+47 77028827" />
		<tag k="max_age" v="5" />
		<tag k="min_age" v="1" />
		<tag k="name" v="Bjarkøy barnehage" />
		<tag k="no-barnehage:nsrid" v="1013694" />
		<tag k="operator" v="Harstad kommune" />
		<tag k="operator:type" v="public" />
		<tag k="start_date" v="1989-01-01" />
	</node>
	<node id="-5849" lat="68.8158" lon="16.5081">
		<tag k="amenity" v="kindergarten" />
		<tag k="capacity" v="67" />
		<tag k="contact:email" v="heidi.aschenberg.johnsen@harstad.kommune.no" />
		<tag k="max_age" v="5" />
		<tag k="min_age" v="1" />
		<tag k="name" v="Bergsåsen Barnehager Avd Froskedammen" />
		<tag k="no-barnehage:nsrid" v="1018293" />
		<tag k="operator" v="Harstad kommune" />
		<tag k="operator:type" v="public" />
		<tag k="start_date" v="2007-11-26" />
	</node>
	<node id="-5848" lat="68.81976" lon="16.50313">
		<tag k="amenity" v="kindergarten" />
		<tag k="capacity" v="31" />
		<tag k="contact:email" v="heidi.johnsen@harstad.kommune.no" />
		<tag k="max_age" v="5" />
		<tag k="min_age" v="1" />
		<tag k="name" v="Bergsåsen Barnehager Avd Ervik" />
		<tag k="no-barnehage:nsrid" v="1026066" />
		<tag k="operator" v="Harstad kommune" />
		<tag k="operator:type" v="public" />
		<tag k="start_date" v="2015-08-14" />
	</node>
	<node id="-5847" lat="68.8144" lon="16.5079">
		<tag k="amenity" v="kindergarten" />
		<tag k="capacity" v="32" />
		<tag k="contact:email" v="heidi.aschenberg.johnsen@harstad.kommune.no" />
		<tag k="max_age" v="5" />
		<tag k="min_age" v="1" />
		<tag k="name" v="Bergsåsen Barnehager Avd Bergseng" />
		<tag k="no-barnehage:nsrid" v="1016624" />
		<tag k="operator" v="Harstad kommune" />
		<tag k="operator:type" v="public" />
		<tag k="start_date" v="1989-01-01" />
	</node>
</osm>
