<?xml version="1.0" encoding="UTF-8"?>
<osm generator="osmapis" version="0.6">
	<node id="-5919" lat="68.94308" lon="16.67501">
		<tag k="amenity" v="kindergarten" />
		<tag k="capacity" v="2" />
		<tag k="contact:phone" v="97151637" />
		<tag k="max_age" v="5" />
		<tag k="min_age" v="1" />
		<tag k="name" v="Solgløtt barnehage" />
		<tag k="no-barnehage:nsrid" v="1021285" />
		<tag k="operator" v="Ola Gjermund Berg" />
		<tag k="operator:type" v="private" />
		<tag k="start_date" v="1997-01-10" />
	</node>
	<node id="-5885" lat="68.81051" lon="16.50795">
		<tag k="amenity" v="kindergarten" />
		<tag k="capacity" v="8" />
		<tag k="contact:email" v="asveig1@hotmail.com" />
		<tag k="contact:phone" v="920 17 916" />
		<tag k="max_age" v="2" />
		<tag k="min_age" v="1" />
		<tag k="name" v="Bergsengveien Familiebarnehage AS" />
		<tag k="no-barnehage:nsrid" v="1022437" />
		<tag k="operator" v="Bergsengveien Familiebarnehage AS" />
		<tag k="operator:type" v="private" />
		<tag k="start_date" v="2008-08-01" />
	</node>
	<node id="-5913" lat="68.80281" lon="16.5313">
		<tag k="amenity" v="kindergarten" />
		<tag k="capacity" v="8" />
		<tag k="contact:phone" v="48214550" />
		<tag k="max_age" v="2" />
		<tag k="min_age" v="1" />
		<tag k="name" v="Jørnsgate Familiebarnehage" />
		<tag k="no-barnehage:nsrid" v="1020325" />
		<tag k="operator" v="Jørnsgate Familiebarnehage Rikardsen" />
		<tag k="operator:type" v="private" />
		<tag k="start_date" v="2003-01-14" />
	</node>
	<node id="-5917" lat="68.76165" lon="16.55747">
		<tag k="amenity" v="kindergarten" />
		<tag k="capacity" v="8" />
		<tag k="max_age" v="2" />
		<tag k="min_age" v="1" />
		<tag k="name" v="Mølnholtet Familiebarnehage" />
		<tag k="no-barnehage:nsrid" v="1022216" />
		<tag k="operator" v="Mølnholtet Familiebarnehage" />
		<tag k="operator:type" v="private" />
		<tag k="start_date" v="2011-09-19" />
	</node>
	<node id="-5894" lat="68.78819" lon="16.52059">
		<tag k="amenity" v="kindergarten" />
		<tag k="capacity" v="8" />
		<tag k="contact:email" v="hannekimvikhaug@gmail.com" />
		<tag k="contact:phone" v="928 18 928" />
		<tag k="max_age" v="2" />
		<tag k="min_age" v="1" />
		<tag k="name" v="Fagerlia Familiebarnehage" />
		<tag k="no-barnehage:nsrid" v="1022211" />
		<tag k="operator" v="Fagerlia Familiebarnehage Hanne-Kim Vikhaug" />
		<tag k="operator:type" v="private" />
		<tag k="start_date" v="2011-06-25" />
	</node>
	<node id="-5924" lat="68.81256" lon="16.54326">
		<tag k="amenity" v="kindergarten" />
		<tag k="capacity" v="8" />
		<tag k="contact:phone" v="77 06 73 77" />
		<tag k="max_age" v="2" />
		<tag k="min_age" v="1" />
		<tag k="name" v="Trondenesveien Familiebarnehage" />
		<tag k="no-barnehage:nsrid" v="1021087" />
		<tag k="operator" v="Trondenesveien Familiebarnehage Kari Kulseng-Hansen" />
		<tag k="operator:type" v="private" />
		<tag k="start_date" v="2004-07-26" />
	</node>
</osm>
