<?xml version="1.0" encoding="UTF-8"?>
<osm generator="osmapis" version="0.6">
	<node id="-165" lat="59.1032" lon="10.8745">
		<tag k="amenity" v="kindergarten" />
		<tag k="capacity" v="43" />
		<tag k="max_age" v="5" />
		<tag k="min_age" v="1" />
		<tag k="name" v="Hauge barnehage" />
		<tag k="no-barnehage:nsrid" v="1017502" />
		<tag k="operator" v="Hvaler kommune" />
		<tag k="operator:type" v="public" />
	</node>
	<node id="-164" lat="59.0419" lon="11.0317">
		<tag k="amenity" v="kindergarten" />
		<tag k="capacity" v="31" />
		<tag k="max_age" v="5" />
		<tag k="min_age" v="1" />
		<tag k="name" v="Brekke barnehage" />
		<tag k="no-barnehage:nsrid" v="1017393" />
		<tag k="operator" v="Hvaler kommune" />
		<tag k="operator:type" v="public" />
	</node>
	<node id="-163" lat="59.0729" lon="10.943">
		<tag k="amenity" v="kindergarten" />
		<tag k="capacity" v="45" />
		<tag k="max_age" v="5" />
		<tag k="min_age" v="1" />
		<tag k="name" v="AsmalÃ¸y barnehage" />
		<tag k="no-barnehage:nsrid" v="1014703" />
		<tag k="operator" v="Hvaler kommune" />
		<tag k="operator:type" v="public" />
	</node>
</osm>
