<?xml version="1.0" encoding="UTF-8"?>
<osm generator="osmapis" version="0.6">
	<node id="-2938" lat="59.409" lon="9.06467">
		<tag k="amenity" v="kindergarten" />
		<tag k="capacity" v="38" />
		<tag k="contact:phone" v="35 95 22 41" />
		<tag k="max_age" v="5" />
		<tag k="min_age" v="1" />
		<tag k="name" v="Veslekroa Studentbarnehage" />
		<tag k="no-barnehage:nsrid" v="1025317" />
		<tag k="operator" v="Studentsamskipnaden i Telemark" />
		<tag k="operator:type" v="private" />
		<tag k="start_date" v="1992-01-01" />
	</node>
	<node id="-2937" lat="59.42073" lon="9.076808">
		<tag k="amenity" v="kindergarten" />
		<tag k="capacity" v="74" />
		<tag k="contact:email" v="sandvoll@barnehage.no" />
		<tag k="contact:phone" v="35 95 48 08" />
		<tag k="max_age" v="5" />
		<tag k="min_age" v="1" />
		<tag k="name" v="Sandvoll barnehage AS" />
		<tag k="no-barnehage:nsrid" v="1020978" />
		<tag k="operator" v="Sandvoll barnehage AS" />
		<tag k="operator:type" v="private" />
		<tag k="start_date" v="2003-10-02" />
	</node>
	<node id="-2936" lat="59.40424" lon="9.075388">
		<tag k="amenity" v="kindergarten" />
		<tag k="capacity" v="70" />
		<tag k="contact:email" v="maurtuva@online.no" />
		<tag k="contact:phone" v="003950393" />
		<tag k="contact:website" v="http://maurtuva.barnehage.no" />
		<tag k="max_age" v="5" />
		<tag k="min_age" v="1" />
		<tag k="name" v="Maurtuva barnehage Sa" />
		<tag k="no-barnehage:nsrid" v="1020371" />
		<tag k="operator" v="Maurtuva barnehage Sa" />
		<tag k="operator:type" v="private" />
		<tag k="start_date" v="1993-08-01" />
	</node>
	<node id="-2935" lat="59.4108" lon="9.0593">
		<tag k="amenity" v="kindergarten" />
		<tag k="capacity" v="63" />
		<tag k="contact:phone" v="35 05 91 40" />
		<tag k="max_age" v="5" />
		<tag k="min_age" v="1" />
		<tag k="name" v="Gullbring barnehage" />
		<tag k="no-barnehage:nsrid" v="1013803" />
		<tag k="operator" v="Bø kommune" />
		<tag k="operator:type" v="public" />
		<tag k="start_date" v="1989-01-02" />
	</node>
	<node id="-2934" lat="59.44456" lon="9.078896">
		<tag k="amenity" v="kindergarten" />
		<tag k="capacity" v="73" />
		<tag k="contact:email" v="elin.slattedalen@bo.kommune.no" />
		<tag k="contact:phone" v="35059430" />
		<tag k="max_age" v="5" />
		<tag k="min_age" v="1" />
		<tag k="name" v="Folkestad barnehage" />
		<tag k="no-barnehage:nsrid" v="1014186" />
		<tag k="operator" v="Bø kommune" />
		<tag k="operator:type" v="public" />
		<tag k="start_date" v="2010-08-01" />
	</node>
	<node id="-2933" lat="59.409" lon="9.06467">
		<tag k="amenity" v="kindergarten" />
		<tag k="capacity" v="28" />
		<tag k="contact:email" v="postmottak@bo.kommune.no" />
		<tag k="contact:phone" v="35 95 08 43" />
		<tag k="max_age" v="5" />
		<tag k="min_age" v="1" />
		<tag k="name" v="Bøhamna barnehage" />
		<tag k="no-barnehage:nsrid" v="1014708" />
		<tag k="operator" v="Bø kommune" />
		<tag k="operator:type" v="public" />
		<tag k="start_date" v="1992-01-01" />
	</node>
</osm>
