<?xml version="1.0" encoding="UTF-8"?>
<osm generator="osmapis" version="0.6">
	<node id="-1984" lat="61.87252" lon="9.103983">
		<tag k="amenity" v="kindergarten" />
		<tag k="capacity" v="31" />
		<tag k="contact:email" v="post@tytingen.no" />
		<tag k="contact:website" v="http://www.tytingen.no" />
		<tag k="doNotImportAddress" v="Klones Gard 2680 VÅGÅ" />
		<tag k="max_age" v="5" />
		<tag k="min_age" v="1" />
		<tag k="name" v="Tytingen Gards- og naturbarnehage" />
		<tag k="no-barnehage:nsrid" v="1021703" />
		<tag k="operator" v="Tytingen Gards- og Naturbarnehage AS" />
		<tag k="operator:type" v="private" />
	</node>
	<node id="-1983" lat="61.87252" lon="9.103983">
		<tag k="amenity" v="kindergarten" />
		<tag k="capacity" v="11" />
		<tag k="contact:email" v="Trudelutten.barnehage@gmail.com" />
		<tag k="contact:phone" v="+47 97646570" />
		<tag k="doNotImportAddress" v="Uppå Strond 2680 VÅGÅ" />
		<tag k="max_age" v="2" />
		<tag k="min_age" v="1" />
		<tag k="name" v="Trudelutten barnehage" />
		<tag k="no-barnehage:nsrid" v="1022257" />
		<tag k="operator" v="Trudelutten barnehage AS" />
		<tag k="operator:type" v="private" />
	</node>
	<node id="-1982" lat="61.5539" lon="8.85907">
		<tag k="amenity" v="kindergarten" />
		<tag k="capacity" v="8" />
		<tag k="contact:email" v="siv.kristin.paulsen@vaga.kommune.no" />
		<tag k="doNotImportAddress" v=" 2683 TESSANDEN" />
		<tag k="max_age" v="5" />
		<tag k="min_age" v="1" />
		<tag k="name" v="Tessand barnehage" />
		<tag k="no-barnehage:nsrid" v="1025505" />
		<tag k="operator" v="Vågå kommune" />
		<tag k="operator:type" v="public" />
	</node>
	<node id="-1981" lat="61.8725" lon="9.09911">
		<tag k="amenity" v="kindergarten" />
		<tag k="capacity" v="58" />
		<tag k="contact:email" v="jorunn.linderud@vaga.kommune.no" />
		<tag k="doNotImportAddress" v="Vågåvegen 57 2680 VÅGÅ" />
		<tag k="max_age" v="5" />
		<tag k="min_age" v="1" />
		<tag k="name" v="Søre Grindstugu barnehage" />
		<tag k="no-barnehage:nsrid" v="1017613" />
		<tag k="operator" v="Vågå kommune" />
		<tag k="operator:type" v="public" />
	</node>
	<node id="-1980" lat="61.8139" lon="9.27913">
		<tag k="amenity" v="kindergarten" />
		<tag k="capacity" v="27" />
		<tag k="contact:email" v="siv.kristin.paulsen@vaga.kommune.no" />
		<tag k="doNotImportAddress" v="Skulevegen 4 2682 LALM" />
		<tag k="max_age" v="5" />
		<tag k="min_age" v="1" />
		<tag k="name" v="Lalm barnehage" />
		<tag k="no-barnehage:nsrid" v="1017612" />
		<tag k="operator" v="Vågå kommune" />
		<tag k="operator:type" v="public" />
	</node>
</osm>
