<?xml version="1.0" encoding="UTF-8"?>
<osm generator="osmapis" version="0.6">
	<node id="-2085" lat="61.87252" lon="9.103983">
		<tag k="amenity" v="kindergarten" />
		<tag k="capacity" v="29" />
		<tag k="contact:email" v="post@tytingen.no" />
		<tag k="contact:website" v="http://www.tytingen.no" />
		<tag k="max_age" v="5" />
		<tag k="min_age" v="1" />
		<tag k="name" v="Tytingen Gards- og Naturbarnehage AS" />
		<tag k="no-barnehage:nsrid" v="1021703" />
		<tag k="operator" v="Tytingen Gards- og Naturbarnehage AS" />
		<tag k="operator:type" v="private" />
		<tag k="start_date" v="2007-08-15" />
	</node>
	<node id="-2084" lat="61.87252" lon="9.103983">
		<tag k="amenity" v="kindergarten" />
		<tag k="capacity" v="11" />
		<tag k="contact:email" v="lgrothe@online.no" />
		<tag k="contact:phone" v="97646570" />
		<tag k="max_age" v="2" />
		<tag k="min_age" v="1" />
		<tag k="name" v="Trudelutten barnehage AS" />
		<tag k="no-barnehage:nsrid" v="1022257" />
		<tag k="operator" v="Trudelutten barnehage AS" />
		<tag k="operator:type" v="private" />
		<tag k="start_date" v="2009-06-18" />
	</node>
	<node id="-2083" lat="61.5539" lon="8.85907">
		<tag k="amenity" v="kindergarten" />
		<tag k="capacity" v="17" />
		<tag k="max_age" v="5" />
		<tag k="min_age" v="1" />
		<tag k="name" v="Tessand barnehage" />
		<tag k="no-barnehage:nsrid" v="1025505" />
		<tag k="operator" v="Vågå kommune" />
		<tag k="operator:type" v="public" />
		<tag k="start_date" v="1988-04-01" />
	</node>
	<node id="-2082" lat="61.8725" lon="9.09911">
		<tag k="amenity" v="kindergarten" />
		<tag k="capacity" v="78" />
		<tag k="max_age" v="5" />
		<tag k="min_age" v="1" />
		<tag k="name" v="Søre Grindstugu barnehage" />
		<tag k="no-barnehage:nsrid" v="1017613" />
		<tag k="operator" v="Vågå kommune" />
		<tag k="operator:type" v="public" />
		<tag k="start_date" v="1988-04-01" />
	</node>
	<node id="-2081" lat="61.8139" lon="9.27913">
		<tag k="amenity" v="kindergarten" />
		<tag k="capacity" v="41" />
		<tag k="max_age" v="5" />
		<tag k="min_age" v="1" />
		<tag k="name" v="Lalm barnehage" />
		<tag k="no-barnehage:nsrid" v="1017612" />
		<tag k="operator" v="Vågå kommune" />
		<tag k="operator:type" v="public" />
		<tag k="start_date" v="1988-04-01" />
	</node>
</osm>
