<?xml version="1.0" encoding="UTF-8"?>
<osm generator="osmapis" version="0.6">
	<node id="-5132" lat="62.5943" lon="9.6912">
		<tag k="amenity" v="kindergarten" />
		<tag k="capacity" v="41" />
		<tag k="max_age" v="5" />
		<tag k="min_age" v="1" />
		<tag k="name" v="Tågvollan barnehage" />
		<tag k="no-barnehage:nsrid" v="1015509" />
		<tag k="operator" v="Oppdal Kristne Senter" />
		<tag k="operator:type" v="private" />
		<tag k="start_date" v="1993-08-01" />
	</node>
	<node id="-5131" lat="62.59431" lon="9.6912">
		<tag k="amenity" v="kindergarten" />
		<tag k="capacity" v="18" />
		<tag k="contact:phone" v="72 42 31 09" />
		<tag k="max_age" v="5" />
		<tag k="min_age" v="1" />
		<tag k="name" v="Torshaug Private barnehage Sa" />
		<tag k="no-barnehage:nsrid" v="1020097" />
		<tag k="operator" v="Torshaug Private barnehage Sa" />
		<tag k="operator:type" v="private" />
		<tag k="start_date" v="1992-08-01" />
	</node>
	<node id="-5130" lat="62.59431" lon="9.6912">
		<tag k="amenity" v="kindergarten" />
		<tag k="capacity" v="18" />
		<tag k="contact:email" v="stolen.barnehage@oppdal.com" />
		<tag k="contact:phone" v="72 42 09 72" />
		<tag k="contact:website" v="http://www.stolenprivate.barnehageside.no" />
		<tag k="max_age" v="5" />
		<tag k="min_age" v="1" />
		<tag k="name" v="Stølen Private barnehage Sa" />
		<tag k="no-barnehage:nsrid" v="1019657" />
		<tag k="operator" v="Stølen Private barnehage Sa" />
		<tag k="operator:type" v="private" />
		<tag k="start_date" v="1988-01-01" />
	</node>
	<node id="-5129" lat="62.5913" lon="9.66943">
		<tag k="amenity" v="kindergarten" />
		<tag k="capacity" v="56" />
		<tag k="max_age" v="5" />
		<tag k="min_age" v="1" />
		<tag k="name" v="Pikhaugen barnehage" />
		<tag k="no-barnehage:nsrid" v="1018235" />
		<tag k="operator" v="Oppdal kommune" />
		<tag k="operator:type" v="public" />
		<tag k="start_date" v="1989-01-01" />
	</node>
	<node id="-5128" lat="62.59431" lon="9.6912">
		<tag k="amenity" v="kindergarten" />
		<tag k="capacity" v="36" />
		<tag k="contact:email" v="ingrid@midtbygda-barnehage.no" />
		<tag k="max_age" v="5" />
		<tag k="min_age" v="1" />
		<tag k="name" v="Midtbygda barnehage Sa" />
		<tag k="no-barnehage:nsrid" v="1019628" />
		<tag k="operator" v="Midtbygda barnehage Sa" />
		<tag k="operator:type" v="private" />
		<tag k="start_date" v="1982-01-01" />
	</node>
	<node id="-5127" lat="62.58337" lon="9.3439">
		<tag k="amenity" v="kindergarten" />
		<tag k="capacity" v="11" />
		<tag k="contact:email" v="lonsetb@oppdal.com" />
		<tag k="contact:phone" v="72 42 43 80" />
		<tag k="max_age" v="5" />
		<tag k="min_age" v="1" />
		<tag k="name" v="Lønset barnehage" />
		<tag k="no-barnehage:nsrid" v="1019580" />
		<tag k="operator" v="Lønset barnehage" />
		<tag k="operator:type" v="private" />
		<tag k="start_date" v="1979-03-14" />
	</node>
	<node id="-5126" lat="62.5997" lon="9.69742">
		<tag k="amenity" v="kindergarten" />
		<tag k="capacity" v="51" />
		<tag k="max_age" v="5" />
		<tag k="min_age" v="1" />
		<tag k="name" v="Høgmo barnehage" />
		<tag k="no-barnehage:nsrid" v="1016117" />
		<tag k="operator" v="Oppdal kommune" />
		<tag k="operator:type" v="public" />
		<tag k="start_date" v="1989-01-01" />
	</node>
	<node id="-5125" lat="62.65599" lon="9.884341">
		<tag k="amenity" v="kindergarten" />
		<tag k="capacity" v="16" />
		<tag k="contact:email" v="fagerhaug.barnehage@oppdal.com" />
		<tag k="contact:phone" v="930 92 745" />
		<tag k="contact:website" v="http://www.fagerhaug.barnehageside.no" />
		<tag k="max_age" v="5" />
		<tag k="min_age" v="1" />
		<tag k="name" v="Fagerhaug barnehage Sa" />
		<tag k="no-barnehage:nsrid" v="1019736" />
		<tag k="operator" v="Fagerhaug barnehage Sa" />
		<tag k="operator:type" v="private" />
		<tag k="start_date" v="1989-01-02" />
	</node>
	<node id="-5124" lat="62.59431" lon="9.6912">
		<tag k="amenity" v="kindergarten" />
		<tag k="capacity" v="30" />
		<tag k="contact:email" v="drivdalenbhg@oppdal.com" />
		<tag k="contact:phone" v="72 42 41 41" />
		<tag k="max_age" v="5" />
		<tag k="min_age" v="1" />
		<tag k="name" v="Drivdalen barnehage" />
		<tag k="no-barnehage:nsrid" v="1019817" />
		<tag k="operator" v="Drivdalen Yngre Helselag" />
		<tag k="operator:type" v="private" />
		<tag k="start_date" v="1989-01-02" />
	</node>
	<node id="-5123" lat="62.59759" lon="9.691395">
		<tag k="amenity" v="kindergarten" />
		<tag k="capacity" v="16" />
		<tag k="contact:email" v="bjerkehagen@oppdal.com" />
		<tag k="contact:phone" v="97078987" />
		<tag k="max_age" v="5" />
		<tag k="min_age" v="1" />
		<tag k="name" v="Bjerkehagen Friluftsbarnehage Sa" />
		<tag k="no-barnehage:nsrid" v="1020259" />
		<tag k="operator" v="Bjerkehagen Friluftsbarnehage Sa" />
		<tag k="operator:type" v="private" />
		<tag k="start_date" v="1994-08-01" />
	</node>
</osm>
