<?xml version="1.0" encoding="UTF-8"?>
<osm generator="osmapis" version="0.6">
	<node id="-5600" lat="69.52493" lon="20.21654">
		<tag k="ADDRESS" v="Lyngenfjordveien 411, 9060 LYNGSEIDET" />
		<tag k="amenity" v="kindergarten" />
		<tag k="capacity" v="34" />
		<tag k="max_age" v="5" />
		<tag k="min_age" v="1" />
		<tag k="name" v="Kavringen barnehage" />
		<tag k="no-barnehage:nsrid" v="874062642" />
		<tag k="operator" v="Lyngen kommune" />
		<tag k="operator:type" v="public" />
	</node>
	<node id="-5601" lat="69.57217" lon="20.21253">
		<tag k="ADDRESS" v="Blåbærsvingen 4, 9060 LYNGSEIDET" />
		<tag k="amenity" v="kindergarten" />
		<tag k="capacity" v="34" />
		<tag k="max_age" v="5" />
		<tag k="min_age" v="1" />
		<tag k="name" v="Knøttelia barnehage" />
		<tag k="no-barnehage:nsrid" v="975290514" />
		<tag k="operator" v="Lyngen kommune" />
		<tag k="operator:type" v="public" />
	</node>
	<node id="-5602" lat="69.81305" lon="20.0231">
		<tag k="ADDRESS" v="Erikaksla 16, 9064 SVENSBY" />
		<tag k="amenity" v="kindergarten" />
		<tag k="capacity" v="12" />
		<tag k="max_age" v="5" />
		<tag k="min_age" v="1" />
		<tag k="name" v="Lenangen barnehage" />
		<tag k="no-barnehage:nsrid" v="975315444" />
		<tag k="operator" v="Lyngen kommune" />
		<tag k="operator:type" v="public" />
	</node>
	<node id="-5603" lat="69.44109" lon="20.15143">
		<tag k="ADDRESS" v="Skoleveien - Furuflaten 4, 9062 FURUFLATEN" />
		<tag k="amenity" v="kindergarten" />
		<tag k="capacity" v="14" />
		<tag k="contact:website" v="http://www.lyngen.kommune.no" />
		<tag k="max_age" v="5" />
		<tag k="min_age" v="1" />
		<tag k="name" v="Lyngsdalen oppvekstsenter avd. barnehage" />
		<tag k="no-barnehage:nsrid" v="975313751" />
		<tag k="operator" v="Lyngen kommune" />
		<tag k="operator:type" v="public" />
	</node>
</osm>
