<?xml version="1.0" encoding="UTF-8"?>
<osm generator="osmapis" version="0.6">
	<node id="-4000" lat="61.8338" lon="6.80933">
		<tag k="amenity" v="kindergarten" />
		<tag k="capacity" v="48" />
		<tag k="max_age" v="5" />
		<tag k="min_age" v="1" />
		<tag k="name" v="Olden barnehage" />
		<tag k="no-barnehage:nsrid" v="1015546" />
		<tag k="operator" v="Stryn kommune" />
		<tag k="operator:type" v="public" />
	</node>
	<node id="-3999" lat="61.8637" lon="6.52636">
		<tag k="amenity" v="kindergarten" />
		<tag k="capacity" v="19" />
		<tag k="max_age" v="5" />
		<tag k="min_age" v="1" />
		<tag k="name" v="Nordsida barnehage" />
		<tag k="no-barnehage:nsrid" v="1015557" />
		<tag k="operator" v="Stryn kommune" />
		<tag k="operator:type" v="public" />
	</node>
	<node id="-3998" lat="61.8706" lon="6.85718">
		<tag k="amenity" v="kindergarten" />
		<tag k="capacity" v="39" />
		<tag k="max_age" v="5" />
		<tag k="min_age" v="1" />
		<tag k="name" v="Loen barnehage" />
		<tag k="no-barnehage:nsrid" v="1014960" />
		<tag k="operator" v="Stryn kommune" />
		<tag k="operator:type" v="public" />
	</node>
	<node id="-4003" lat="61.90584" lon="6.713492">
		<tag k="amenity" v="kindergarten" />
		<tag k="capacity" v="43" />
		<tag k="max_age" v="5" />
		<tag k="min_age" v="1" />
		<tag k="name" v="Stryn bedriftsbarnehage" />
		<tag k="no-barnehage:nsrid" v="1020029" />
		<tag k="operator" v="Stryn Bedriftsbarnehage AS" />
		<tag k="operator:type" v="private" />
	</node>
	<node id="-4002" lat="61.8691" lon="6.29458">
		<tag k="amenity" v="kindergarten" />
		<tag k="capacity" v="10" />
		<tag k="max_age" v="5" />
		<tag k="min_age" v="1" />
		<tag k="name" v="Rand barnehage" />
		<tag k="no-barnehage:nsrid" v="1016270" />
		<tag k="operator" v="Stryn kommune" />
		<tag k="operator:type" v="public" />
	</node>
	<node id="-4001" lat="61.9333" lon="7.2">
		<tag k="amenity" v="kindergarten" />
		<tag k="capacity" v="18" />
		<tag k="max_age" v="5" />
		<tag k="min_age" v="1" />
		<tag k="name" v="Oppstryn barnehage" />
		<tag k="no-barnehage:nsrid" v="1016851" />
		<tag k="operator" v="Stryn kommune" />
		<tag k="operator:type" v="public" />
	</node>
</osm>
