<?xml version="1.0" encoding="UTF-8"?>
<osm generator="osmapis" version="0.6">
	<node id="-4505" lat="61.8057" lon="6.52103">
		<tag k="amenity" v="kindergarten" />
		<tag k="capacity" v="18" />
		<tag k="contact:email" v="per.seime@stryn.kommune.no" />
		<tag k="contact:phone" v="57876696" />
		<tag k="max_age" v="5" />
		<tag k="min_age" v="1" />
		<tag k="name" v="Vikane barnehage Avd Utvik" />
		<tag k="no-barnehage:nsrid" v="1013166" />
		<tag k="operator" v="Stryn kommune" />
		<tag k="operator:type" v="public" />
		<tag k="start_date" v="2004-01-01" />
	</node>
	<node id="-4504" lat="61.8517" lon="6.61695">
		<tag k="amenity" v="kindergarten" />
		<tag k="capacity" v="22" />
		<tag k="contact:email" v="per.seime@stryn.kommune.no" />
		<tag k="contact:phone" v="57874280" />
		<tag k="max_age" v="5" />
		<tag k="min_age" v="1" />
		<tag k="name" v="Vikane barnehage Avd Innvik" />
		<tag k="no-barnehage:nsrid" v="1017490" />
		<tag k="operator" v="Stryn kommune" />
		<tag k="operator:type" v="public" />
		<tag k="start_date" v="1989-01-02" />
	</node>
	<node id="-4503" lat="61.905" lon="6.6974">
		<tag k="amenity" v="kindergarten" />
		<tag k="capacity" v="80" />
		<tag k="contact:email" v="vikalida@stryn.kommune.no" />
		<tag k="contact:phone" v="57 87 22 88" />
		<tag k="max_age" v="5" />
		<tag k="min_age" v="1" />
		<tag k="name" v="Vikalida barnehage" />
		<tag k="no-barnehage:nsrid" v="1017824" />
		<tag k="operator" v="Stryn kommune" />
		<tag k="operator:type" v="public" />
		<tag k="start_date" v="2007-01-01" />
	</node>
	<node id="-4502" lat="61.9063" lon="6.72147">
		<tag k="amenity" v="kindergarten" />
		<tag k="capacity" v="104" />
		<tag k="contact:email" v="eva.sefland@stryn.kommune.no" />
		<tag k="contact:phone" v="57871353" />
		<tag k="max_age" v="5" />
		<tag k="min_age" v="1" />
		<tag k="name" v="Tonning barnehage" />
		<tag k="no-barnehage:nsrid" v="1018167" />
		<tag k="operator" v="Stryn kommune" />
		<tag k="operator:type" v="public" />
		<tag k="start_date" v="1989-01-01" />
	</node>
	<node id="-4501" lat="61.90584" lon="6.713492">
		<tag k="amenity" v="kindergarten" />
		<tag k="capacity" v="47" />
		<tag k="contact:phone" v="57 87 15 12" />
		<tag k="max_age" v="5" />
		<tag k="min_age" v="1" />
		<tag k="name" v="Stryn Bedriftsbarnehage AS" />
		<tag k="no-barnehage:nsrid" v="1020029" />
		<tag k="operator" v="Stryn Bedriftsbarnehage AS" />
		<tag k="operator:type" v="private" />
		<tag k="start_date" v="1991-08-30" />
	</node>
	<node id="-4500" lat="61.8691" lon="6.29458">
		<tag k="amenity" v="kindergarten" />
		<tag k="capacity" v="8" />
		<tag k="contact:email" v="kari.nyberg@stryn.kommune.no" />
		<tag k="contact:phone" v="57873751" />
		<tag k="max_age" v="5" />
		<tag k="min_age" v="1" />
		<tag k="name" v="Rand barnehage" />
		<tag k="no-barnehage:nsrid" v="1016270" />
		<tag k="operator" v="Stryn kommune" />
		<tag k="operator:type" v="public" />
		<tag k="start_date" v="2000-08-01" />
	</node>
	<node id="-4499" lat="61.9333" lon="7.2">
		<tag k="amenity" v="kindergarten" />
		<tag k="capacity" v="20" />
		<tag k="contact:email" v="arne.p.sunde@stryn.kommune.no" />
		<tag k="contact:phone" v="57874430" />
		<tag k="max_age" v="5" />
		<tag k="min_age" v="1" />
		<tag k="name" v="Oppstryn barnehage" />
		<tag k="no-barnehage:nsrid" v="1016851" />
		<tag k="operator" v="Stryn kommune" />
		<tag k="operator:type" v="public" />
		<tag k="start_date" v="1989-01-02" />
	</node>
	<node id="-4498" lat="61.8338" lon="6.80933">
		<tag k="amenity" v="kindergarten" />
		<tag k="capacity" v="49" />
		<tag k="contact:email" v="oldenbh@stryn.kommune.no" />
		<tag k="contact:phone" v="57873331" />
		<tag k="max_age" v="5" />
		<tag k="min_age" v="1" />
		<tag k="name" v="Olden barnehage" />
		<tag k="no-barnehage:nsrid" v="1015546" />
		<tag k="operator" v="Stryn kommune" />
		<tag k="operator:type" v="public" />
		<tag k="start_date" v="1979-10-26" />
	</node>
	<node id="-4497" lat="61.8637" lon="6.52636">
		<tag k="amenity" v="kindergarten" />
		<tag k="capacity" v="29" />
		<tag k="contact:email" v="ottar.ulvedal@stryn.kommune.no" />
		<tag k="contact:phone" v="57875505" />
		<tag k="max_age" v="5" />
		<tag k="min_age" v="1" />
		<tag k="name" v="Nordsida barnehage" />
		<tag k="no-barnehage:nsrid" v="1015557" />
		<tag k="operator" v="Stryn kommune" />
		<tag k="operator:type" v="public" />
		<tag k="start_date" v="1982-01-01" />
	</node>
	<node id="-4495" lat="61.8706" lon="6.85718">
		<tag k="amenity" v="kindergarten" />
		<tag k="capacity" v="37" />
		<tag k="contact:email" v="hilde.briksdal@stryn.kommune.no" />
		<tag k="contact:phone" v="57877735" />
		<tag k="max_age" v="5" />
		<tag k="min_age" v="1" />
		<tag k="name" v="Loen barnehage" />
		<tag k="no-barnehage:nsrid" v="1014960" />
		<tag k="operator" v="Stryn kommune" />
		<tag k="operator:type" v="public" />
		<tag k="start_date" v="1995-12-30" />
	</node>
</osm>
