<?xml version="1.0" encoding="UTF-8"?>
<osm version="0.6" generator="osmapis">
	<node lat="60.06023" lon="10.86455" id="-2691">
		<tag k="ADDRESS" v="Stjerneveien 19, 1482 NITTEDAL" />
		<tag k="amenity" v="kindergarten" />
		<tag k="capacity" v="81" />
		<tag k="max_age" v="5" />
		<tag k="min_age" v="1" />
		<tag k="name" v="Bjertnes barnehage" />
		<tag k="no-barnehage:nsrid" v="975317587" />
		<tag k="operator" v="Nittedal kommune" />
		<tag k="operator:type" v="public" />
	</node>
	<node lat="59.99831" lon="10.93227" id="-2692">
		<tag k="ADDRESS" v="Skysetveien 8, 1481 HAGAN" />
		<tag k="amenity" v="kindergarten" />
		<tag k="capacity" v="79" />
		<tag k="contact:website" v="http://www.espira.no" />
		<tag k="max_age" v="5" />
		<tag k="min_age" v="1" />
		<tag k="name" v="Espira Snurrefjellet barnehage" />
		<tag k="no-barnehage:nsrid" v="986948260" />
		<tag k="operator" v="Espira Snurrefjellet AS" />
		<tag k="operator:type" v="private" />
	</node>
	<node lat="0.0" lon="0.0" id="-2693">
		<tag k="ADDRESS" v="Bjønndalsveien Bjønndalen, 1481 HAGAN" />
		<tag k="amenity" v="kindergarten" />
		<tag k="capacity" v="18" />
		<tag k="contact:website" v="http://www.fortetnaturbarnehage.no" />
		<tag k="max_age" v="5" />
		<tag k="min_age" v="1" />
		<tag k="name" v="Fortet naturbarnehage Fredriksen" />
		<tag k="no-barnehage:nsrid" v="974892170" />
		<tag k="operator" v="Fortet naturbarnehage Fredriksen" />
		<tag k="operator:type" v="private" />
	</node>
	<node lat="60.11168" lon="10.88124" id="-2694">
		<tag k="ADDRESS" v="Glittreveien 33, 1487 HAKADAL" />
		<tag k="amenity" v="kindergarten" />
		<tag k="capacity" v="37" />
		<tag k="max_age" v="5" />
		<tag k="min_age" v="1" />
		<tag k="name" v="Glittre barnehage" />
		<tag k="no-barnehage:nsrid" v="975028925" />
		<tag k="operator" v="Glittre barnehage SA" />
		<tag k="operator:type" v="private" />
	</node>
	<node lat="60.00528" lon="10.92029" id="-2695">
		<tag k="ADDRESS" v="Birkelundveien 32, 1481 HAGAN" />
		<tag k="amenity" v="kindergarten" />
		<tag k="capacity" v="60" />
		<tag k="contact:website" v="http://wwww.gnisten.barnehage.no" />
		<tag k="max_age" v="5" />
		<tag k="min_age" v="1" />
		<tag k="name" v="Gnisten barnehage" />
		<tag k="no-barnehage:nsrid" v="986767576" />
		<tag k="operator" v="Gnisten barnehage SA" />
		<tag k="operator:type" v="private" />
	</node>
	<node lat="59.99595" lon="10.92163" id="-2696">
		<tag k="ADDRESS" v="Bekkinga 2, 1481 HAGAN" />
		<tag k="amenity" v="kindergarten" />
		<tag k="capacity" v="84" />
		<tag k="contact:website" v="http://www.hundremeter.no" />
		<tag k="max_age" v="5" />
		<tag k="min_age" v="1" />
		<tag k="name" v="Hundremeterskogen barnehage" />
		<tag k="no-barnehage:nsrid" v="985314462" />
		<tag k="operator" v="Hundremeterskogen barnehage SA" />
		<tag k="operator:type" v="private" />
	</node>
	<node lat="59.99072" lon="10.91452" id="-2697">
		<tag k="ADDRESS" v="Industriveien 10A, 1481 HAGAN" />
		<tag k="amenity" v="kindergarten" />
		<tag k="capacity" v="62" />
		<tag k="max_age" v="5" />
		<tag k="min_age" v="1" />
		<tag k="name" v="Industriveien FUS barnehage" />
		<tag k="no-barnehage:nsrid" v="991796177" />
		<tag k="operator" v="Industriveien Fus barnehage AS" />
		<tag k="operator:type" v="private" />
	</node>
	<node lat="60.05085" lon="10.85992" id="-2698">
		<tag k="ADDRESS" v="Svartkruttveien 183, 1482 NITTEDAL" />
		<tag k="amenity" v="kindergarten" />
		<tag k="capacity" v="86" />
		<tag k="max_age" v="5" />
		<tag k="min_age" v="1" />
		<tag k="name" v="Kruttverket FUS barnehage" />
		<tag k="no-barnehage:nsrid" v="995535637" />
		<tag k="operator" v="Kruttverket Fus barnehage AS" />
		<tag k="operator:type" v="private" />
	</node>
	<node lat="60.01395" lon="10.91299" id="-2699">
		<tag k="ADDRESS" v="Haugeråsen 16, 1480 SLATTUM" />
		<tag k="amenity" v="kindergarten" />
		<tag k="capacity" v="51" />
		<tag k="contact:website" v="http://www.laringsverkstedet.no/haugerasen" />
		<tag k="max_age" v="5" />
		<tag k="min_age" v="1" />
		<tag k="name" v="Læringsverkstedet barnehage avd. Haugeråsen" />
		<tag k="no-barnehage:nsrid" v="995619946" />
		<tag k="operator" v="Læringsverkstedet AS" />
		<tag k="operator:type" v="private" />
	</node>
	<node lat="59.9939" lon="10.90396" id="-2700">
		<tag k="ADDRESS" v="Skyttamyrveien 2, 1481 HAGAN" />
		<tag k="amenity" v="kindergarten" />
		<tag k="capacity" v="68" />
		<tag k="contact:website" v="http://laringsverkstedet.no/barnehage/skytta" />
		<tag k="max_age" v="5" />
		<tag k="min_age" v="1" />
		<tag k="name" v="Læringsverkstedet barnehage avd. Skytta" />
		<tag k="no-barnehage:nsrid" v="996968529" />
		<tag k="operator" v="Læringsverkstedet AS" />
		<tag k="operator:type" v="private" />
	</node>
	<node lat="60.00929" lon="10.91419" id="-2701">
		<tag k="ADDRESS" v="Skoleveien 14, 1480 SLATTUM" />
		<tag k="amenity" v="kindergarten" />
		<tag k="capacity" v="67" />
		<tag k="contact:website" v="http://laringsverkstedet.no/barnehage/slattum" />
		<tag k="max_age" v="5" />
		<tag k="min_age" v="1" />
		<tag k="name" v="Læringsverkstedet barnehage avd. Slattum" />
		<tag k="no-barnehage:nsrid" v="992810971" />
		<tag k="operator" v="Læringsverkstedet AS" />
		<tag k="operator:type" v="private" />
	</node>
	<node lat="60.08679" lon="10.87145" id="-2702">
		<tag k="ADDRESS" v="Ånebyhaugen 16, 1484 HAKADAL" />
		<tag k="amenity" v="kindergarten" />
		<tag k="capacity" v="18" />
		<tag k="contact:website" v="http://www.maristuabarnehage.no" />
		<tag k="max_age" v="5" />
		<tag k="min_age" v="1" />
		<tag k="name" v="Maristua barnehage" />
		<tag k="no-barnehage:nsrid" v="973382462" />
		<tag k="operator" v="Maristua barnehage SA" />
		<tag k="operator:type" v="private" />
	</node>
	<node lat="59.98333" lon="10.9369" id="-2703">
		<tag k="ADDRESS" v="Ørekyteveien 1, 1481 HAGAN" />
		<tag k="amenity" v="kindergarten" />
		<tag k="capacity" v="53" />
		<tag k="max_age" v="5" />
		<tag k="min_age" v="1" />
		<tag k="name" v="Mortetjern barnehage" />
		<tag k="no-barnehage:nsrid" v="975301990" />
		<tag k="operator" v="Nittedal kommune" />
		<tag k="operator:type" v="public" />
	</node>
	<node lat="60.04837" lon="10.87137" id="-2704">
		<tag k="ADDRESS" v="Øvre Nygård 10, 1482 NITTEDAL" />
		<tag k="amenity" v="kindergarten" />
		<tag k="capacity" v="72" />
		<tag k="max_age" v="5" />
		<tag k="min_age" v="1" />
		<tag k="name" v="Nygård barnehage" />
		<tag k="no-barnehage:nsrid" v="975302008" />
		<tag k="operator" v="Nittedal kommune" />
		<tag k="operator:type" v="public" />
	</node>
	<node lat="59.99835" lon="10.9297" id="-2705">
		<tag k="ADDRESS" v="Skysetveien 5F, 1481 HAGAN" />
		<tag k="amenity" v="kindergarten" />
		<tag k="capacity" v="12" />
		<tag k="max_age" v="5" />
		<tag k="min_age" v="1" />
		<tag k="name" v="Parken barnehage" />
		<tag k="no-barnehage:nsrid" v="984422490" />
		<tag k="operator" v="Parken barnehage Ans" />
		<tag k="operator:type" v="private" />
	</node>
	<node lat="60.05465" lon="10.8765" id="-2706">
		<tag k="ADDRESS" v="Stasjonsveien 7, 1482 NITTEDAL" />
		<tag k="amenity" v="kindergarten" />
		<tag k="capacity" v="80" />
		<tag k="max_age" v="5" />
		<tag k="min_age" v="1" />
		<tag k="name" v="Rotnes FUS barnehage" />
		<tag k="no-barnehage:nsrid" v="890721672" />
		<tag k="operator" v="Rotnes Fus kulturbarnehage AS" />
		<tag k="operator:type" v="private" />
	</node>
	<node lat="0.0" lon="0.0" id="-2707">
		<tag k="ADDRESS" v="Sinober, 1480 SLATTUM" />
		<tag k="amenity" v="kindergarten" />
		<tag k="capacity" v="59" />
		<tag k="max_age" v="5" />
		<tag k="min_age" v="1" />
		<tag k="name" v="Sinoberbarnehagene" />
		<tag k="no-barnehage:nsrid" v="982701112" />
		<tag k="operator" v="Sinoberbarnehagene AS" />
		<tag k="operator:type" v="private" />
	</node>
	<node lat="59.97976" lon="10.93721" id="-2708">
		<tag k="ADDRESS" v="Morteveien 30, 1481 HAGAN" />
		<tag k="amenity" v="kindergarten" />
		<tag k="capacity" v="20" />
		<tag k="max_age" v="5" />
		<tag k="min_age" v="1" />
		<tag k="name" v="Solstua barnehage" />
		<tag k="no-barnehage:nsrid" v="973469274" />
		<tag k="operator" v="Solstua barnehage AS" />
		<tag k="operator:type" v="private" />
	</node>
	<node lat="60.06036" lon="10.85543" id="-2709">
		<tag k="ADDRESS" v="Vestliveien 4, 1482 NITTEDAL" />
		<tag k="amenity" v="kindergarten" />
		<tag k="capacity" v="53" />
		<tag k="contact:website" v="http://www.steinroysa.no" />
		<tag k="max_age" v="5" />
		<tag k="min_age" v="1" />
		<tag k="name" v="Steinrøysa andelsbarnehage" />
		<tag k="no-barnehage:nsrid" v="980529398" />
		<tag k="operator" v="Steinrøysa andelsbarnehage SA" />
		<tag k="operator:type" v="private" />
	</node>
	<node lat="0.0" lon="0.0" id="-2710">
		<tag k="ADDRESS" v="Nyveien 1, 1482 NITTEDAL" />
		<tag k="amenity" v="kindergarten" />
		<tag k="capacity" v="33" />
		<tag k="contact:website" v="http://www.stubben.no" />
		<tag k="max_age" v="5" />
		<tag k="min_age" v="1" />
		<tag k="name" v="Stubben barnehage avd. Nyveien" />
		<tag k="no-barnehage:nsrid" v="974460335" />
		<tag k="operator" v="Stubben barnehage SA" />
		<tag k="operator:type" v="private" />
	</node>
	<node lat="60.05232" lon="10.86673" id="-2711">
		<tag k="ADDRESS" v="Velveien 14, 1482 NITTEDAL" />
		<tag k="amenity" v="kindergarten" />
		<tag k="capacity" v="43" />
		<tag k="contact:website" v="http://www.stubben.no" />
		<tag k="max_age" v="5" />
		<tag k="min_age" v="1" />
		<tag k="name" v="Stubben barnehage avd. Velveien" />
		<tag k="no-barnehage:nsrid" v="988215651" />
		<tag k="operator" v="Stubben barnehage SA" />
		<tag k="operator:type" v="private" />
	</node>
	<node lat="60.05749" lon="10.86423" id="-2712">
		<tag k="ADDRESS" v="Sørliveien 8, 1482 NITTEDAL" />
		<tag k="amenity" v="kindergarten" />
		<tag k="capacity" v="26" />
		<tag k="contact:website" v="http://sorliveien.barnehage.no" />
		<tag k="max_age" v="5" />
		<tag k="min_age" v="1" />
		<tag k="name" v="Sørliveien barnehage" />
		<tag k="no-barnehage:nsrid" v="973501054" />
		<tag k="operator" v="Sørliveien barnehage SA" />
		<tag k="operator:type" v="private" />
	</node>
	<node lat="60.11365" lon="10.86131" id="-2713">
		<tag k="ADDRESS" v="Steinveien 2, 1487 HAKADAL" />
		<tag k="amenity" v="kindergarten" />
		<tag k="capacity" v="31" />
		<tag k="max_age" v="5" />
		<tag k="min_age" v="1" />
		<tag k="name" v="Tøyen barnehage" />
		<tag k="no-barnehage:nsrid" v="975302024" />
		<tag k="operator" v="Nittedal kommune" />
		<tag k="operator:type" v="public" />
	</node>
	<node lat="60.11415" lon="10.86411" id="-2714">
		<tag k="ADDRESS" v="Feltspatveien 1, 1487 HAKADAL" />
		<tag k="amenity" v="kindergarten" />
		<tag k="capacity" v="38" />
		<tag k="contact:website" v="http://www.toyenasen.no" />
		<tag k="max_age" v="5" />
		<tag k="min_age" v="1" />
		<tag k="name" v="Tøyenåsen barnehagen" />
		<tag k="no-barnehage:nsrid" v="973489186" />
		<tag k="operator" v="Tøyenåsen barnehage SA" />
		<tag k="operator:type" v="private" />
	</node>
	<node lat="60.10618" lon="10.84939" id="-2715">
		<tag k="ADDRESS" v="Ulvefaret 68, 1488 HAKADAL" />
		<tag k="amenity" v="kindergarten" />
		<tag k="capacity" v="100" />
		<tag k="contact:website" v="http://www.varingskollen.no" />
		<tag k="max_age" v="5" />
		<tag k="min_age" v="1" />
		<tag k="name" v="Varingskollen barnehage" />
		<tag k="no-barnehage:nsrid" v="984468369" />
		<tag k="operator" v="Varingskollen barnehage SA" />
		<tag k="operator:type" v="private" />
	</node>
	<node lat="60.08815" lon="10.86854" id="-2716">
		<tag k="ADDRESS" v="Bliksrudveien 8, 1484 HAKADAL" />
		<tag k="amenity" v="kindergarten" />
		<tag k="capacity" v="51" />
		<tag k="max_age" v="5" />
		<tag k="min_age" v="1" />
		<tag k="name" v="Åneby barnehage" />
		<tag k="no-barnehage:nsrid" v="975295737" />
		<tag k="operator" v="Nittedal kommune" />
		<tag k="operator:type" v="public" />
	</node>
</osm>
