<?xml version="1.0" encoding="UTF-8"?>
<osm version="0.6" generator="osmapis">
	<node lat="61.38025" lon="5.67351" id="-4608">
		<tag k="ADDRESS" v="Bygstadvegen 762, 6977 BYGSTAD" />
		<tag k="amenity" v="kindergarten" />
		<tag k="capacity" v="50" />
		<tag k="max_age" v="5" />
		<tag k="min_age" v="1" />
		<tag k="name" v="Bygstad barnehage" />
		<tag k="no-barnehage:nsrid" v="973337238" />
		<tag k="operator" v="Sunnfjord kommune" />
		<tag k="operator:type" v="public" />
	</node>
	<node lat="61.45014" lon="5.83358" id="-4609">
		<tag k="ADDRESS" v="Liavegen 37, 6814 FØRDE" />
		<tag k="amenity" v="kindergarten" />
		<tag k="capacity" v="54" />
		<tag k="max_age" v="5" />
		<tag k="min_age" v="1" />
		<tag k="name" v="Halbrend barnehage" />
		<tag k="no-barnehage:nsrid" v="975309908" />
		<tag k="operator" v="Sunnfjord kommune" />
		<tag k="operator:type" v="public" />
	</node>
	<node lat="61.45816" lon="5.89151" id="-4610">
		<tag k="ADDRESS" v="Hatlehaugen 1B, 6812 FØRDE" />
		<tag k="amenity" v="kindergarten" />
		<tag k="capacity" v="40" />
		<tag k="max_age" v="5" />
		<tag k="min_age" v="1" />
		<tag k="name" v="Hatlehaugen barnehage" />
		<tag k="no-barnehage:nsrid" v="975321711" />
		<tag k="operator" v="Sunnfjord kommune" />
		<tag k="operator:type" v="public" />
	</node>
	<node lat="0.0" lon="0.0" id="-4611">
		<tag k="ADDRESS" v=", 6819 FØRDE" />
		<tag k="amenity" v="kindergarten" />
		<tag k="capacity" v="22" />
		<tag k="max_age" v="5" />
		<tag k="min_age" v="1" />
		<tag k="name" v="Holsen skule og barnehage avd. barnehage" />
		<tag k="no-barnehage:nsrid" v="993400394" />
		<tag k="operator" v="Sunnfjord kommune" />
		<tag k="operator:type" v="public" />
	</node>
	<node lat="0.0" lon="0.0" id="-4612">
		<tag k="ADDRESS" v="Solheimsdalen, 6800 FØRDE" />
		<tag k="amenity" v="kindergarten" />
		<tag k="capacity" v="6" />
		<tag k="max_age" v="5" />
		<tag k="min_age" v="1" />
		<tag k="name" v="Karstad barnehage" />
		<tag k="no-barnehage:nsrid" v="990129916" />
		<tag k="operator" v="Sunnfjord kommune" />
		<tag k="operator:type" v="public" />
	</node>
	<node lat="61.4824" lon="6.06359" id="-4613">
		<tag k="ADDRESS" v="Dalevegen 19, 6847 VASSENDEN" />
		<tag k="amenity" v="kindergarten" />
		<tag k="capacity" v="52" />
		<tag k="contact:website" v="http://sunnfjord.kommune.no/tenester/barnehage-og-skule/barnehage/finn-barnehage/langhaugane-barnehage/" />
		<tag k="max_age" v="5" />
		<tag k="min_age" v="1" />
		<tag k="name" v="Langhaugane barnehage" />
		<tag k="no-barnehage:nsrid" v="973168630" />
		<tag k="operator" v="Sunnfjord kommune" />
		<tag k="operator:type" v="public" />
	</node>
	<node lat="61.51567" lon="5.71736" id="-4614">
		<tag k="ADDRESS" v="Jobakkevegen 1, 6817 NAUSTDAL" />
		<tag k="amenity" v="kindergarten" />
		<tag k="capacity" v="61" />
		<tag k="max_age" v="5" />
		<tag k="min_age" v="1" />
		<tag k="name" v="Lunden barnehage" />
		<tag k="no-barnehage:nsrid" v="975309959" />
		<tag k="operator" v="Sunnfjord kommune" />
		<tag k="operator:type" v="public" />
	</node>
	<node lat="61.51458" lon="5.71594" id="-4615">
		<tag k="ADDRESS" v="Berrvellene 36, 6817 NAUSTDAL" />
		<tag k="amenity" v="kindergarten" />
		<tag k="capacity" v="81" />
		<tag k="max_age" v="5" />
		<tag k="min_age" v="1" />
		<tag k="name" v="Naustdal idrettsbarnehage" />
		<tag k="no-barnehage:nsrid" v="997010345" />
		<tag k="operator" v="Naustdal idrettsbarnehage AS" />
		<tag k="operator:type" v="private" />
	</node>
	<node lat="61.45211" lon="5.87207" id="-4616">
		<tag k="ADDRESS" v="Hafstadreina 22, 6813 FØRDE" />
		<tag k="amenity" v="kindergarten" />
		<tag k="capacity" v="84" />
		<tag k="max_age" v="5" />
		<tag k="min_age" v="1" />
		<tag k="name" v="Nærleiken barnehage" />
		<tag k="no-barnehage:nsrid" v="973458140" />
		<tag k="operator" v="Sunnfjord kommune" />
		<tag k="operator:type" v="public" />
	</node>
	<node lat="61.45436" lon="5.86938" id="-4617">
		<tag k="ADDRESS" v="Kyrkjevegen 30D, 6809 FØRDE" />
		<tag k="amenity" v="kindergarten" />
		<tag k="capacity" v="51" />
		<tag k="contact:website" v="http://www.prestebakken.no" />
		<tag k="max_age" v="5" />
		<tag k="min_age" v="1" />
		<tag k="name" v="Prestebakken barnehage" />
		<tag k="no-barnehage:nsrid" v="972239747" />
		<tag k="operator" v="Småbarnsforeldrenes barnehage Førde SA" />
		<tag k="operator:type" v="private" />
	</node>
	<node lat="61.31876" lon="5.79511" id="-4618">
		<tag k="ADDRESS" v="Steiavegen 120, 6973 SANDE I SUNNFJORD" />
		<tag k="amenity" v="kindergarten" />
		<tag k="capacity" v="105" />
		<tag k="contact:website" v="http://sande.barnehage.no/" />
		<tag k="max_age" v="5" />
		<tag k="min_age" v="1" />
		<tag k="name" v="Sande barnehage" />
		<tag k="no-barnehage:nsrid" v="973337890" />
		<tag k="operator" v="Sande barnehage" />
		<tag k="operator:type" v="private" />
	</node>
	<node lat="61.56868" lon="6.48404" id="-4619">
		<tag k="ADDRESS" v="Ospene 9, 6843 SKEI I JØLSTER" />
		<tag k="amenity" v="kindergarten" />
		<tag k="capacity" v="63" />
		<tag k="max_age" v="5" />
		<tag k="min_age" v="1" />
		<tag k="name" v="Skei barnehage" />
		<tag k="no-barnehage:nsrid" v="975309886" />
		<tag k="operator" v="Sunnfjord kommune" />
		<tag k="operator:type" v="public" />
	</node>
	<node lat="61.45162" lon="5.82581" id="-4620">
		<tag k="ADDRESS" v="Ekornlia 3, 6814 FØRDE" />
		<tag k="amenity" v="kindergarten" />
		<tag k="capacity" v="24" />
		<tag k="max_age" v="5" />
		<tag k="min_age" v="1" />
		<tag k="name" v="Slåttebakkane barnehage" />
		<tag k="no-barnehage:nsrid" v="975309924" />
		<tag k="operator" v="Sunnfjord kommune" />
		<tag k="operator:type" v="public" />
	</node>
	<node lat="61.45539" lon="5.86844" id="-4621">
		<tag k="ADDRESS" v="Kyrkjevegen 20, 6809 FØRDE" />
		<tag k="amenity" v="kindergarten" />
		<tag k="capacity" v="50" />
		<tag k="max_age" v="5" />
		<tag k="min_age" v="1" />
		<tag k="name" v="Solsida barnehage avd. Toene" />
		<tag k="no-barnehage:nsrid" v="975144119" />
		<tag k="operator" v="Sunnfjord kommune" />
		<tag k="operator:type" v="public" />
	</node>
	<node lat="61.46385" lon="5.84575" id="-4622">
		<tag k="ADDRESS" v="Stranda 12, 6809 FØRDE" />
		<tag k="amenity" v="kindergarten" />
		<tag k="capacity" v="36" />
		<tag k="max_age" v="5" />
		<tag k="min_age" v="1" />
		<tag k="name" v="Solsida barnehage avd. Haugum" />
		<tag k="no-barnehage:nsrid" v="975309916" />
		<tag k="operator" v="Sunnfjord kommune" />
		<tag k="operator:type" v="public" />
	</node>
	<node lat="61.46117" lon="5.88637" id="-4623">
		<tag k="ADDRESS" v="Solvang 17, 6810 FØRDE" />
		<tag k="amenity" v="kindergarten" />
		<tag k="capacity" v="52" />
		<tag k="max_age" v="5" />
		<tag k="min_age" v="1" />
		<tag k="name" v="Solvang barnehage" />
		<tag k="no-barnehage:nsrid" v="974857561" />
		<tag k="operator" v="Sunnfjord folkehøgskule" />
		<tag k="operator:type" v="private" />
	</node>
	<node lat="61.61019" lon="6.6171" id="-4624">
		<tag k="ADDRESS" v="Stardalen 527, 6843 SKEI I JØLSTER" />
		<tag k="amenity" v="kindergarten" />
		<tag k="capacity" v="9" />
		<tag k="max_age" v="5" />
		<tag k="min_age" v="1" />
		<tag k="name" v="Stardalen barnehage" />
		<tag k="no-barnehage:nsrid" v="973458116" />
		<tag k="operator" v="Stardalen barnehage SA" />
		<tag k="operator:type" v="private" />
	</node>
	<node lat="0.0" lon="0.0" id="-4625">
		<tag k="ADDRESS" v="Sunde, 6819 FØRDE" />
		<tag k="amenity" v="kindergarten" />
		<tag k="capacity" v="53" />
		<tag k="max_age" v="5" />
		<tag k="min_age" v="1" />
		<tag k="name" v="Sunde barnehage" />
		<tag k="no-barnehage:nsrid" v="987128321" />
		<tag k="operator" v="Sunnfjord kommune" />
		<tag k="operator:type" v="public" />
	</node>
	<node lat="61.46017" lon="5.89719" id="-4626">
		<tag k="ADDRESS" v="Runnen 5, 6812 FØRDE" />
		<tag k="amenity" v="kindergarten" />
		<tag k="capacity" v="44" />
		<tag k="max_age" v="5" />
		<tag k="min_age" v="1" />
		<tag k="name" v="Tusenfryd barnehage" />
		<tag k="no-barnehage:nsrid" v="873448792" />
		<tag k="operator" v="Sunnfjord kommune" />
		<tag k="operator:type" v="public" />
	</node>
	<node lat="0.0" lon="0.0" id="-4627">
		<tag k="ADDRESS" v="Hjellbrekkevegen 36, 6847 VASSENDEN" />
		<tag k="amenity" v="kindergarten" />
		<tag k="capacity" v="40" />
		<tag k="contact:website" v="http://vassenden.barnehage.no" />
		<tag k="max_age" v="5" />
		<tag k="min_age" v="1" />
		<tag k="name" v="Vassenden barnehage" />
		<tag k="no-barnehage:nsrid" v="973489348" />
		<tag k="operator" v="Vassenden barnehage SA" />
		<tag k="operator:type" v="private" />
	</node>
	<node lat="0.0" lon="0.0" id="-4628">
		<tag k="ADDRESS" v="Vevring, 6817 NAUSTDAL" />
		<tag k="amenity" v="kindergarten" />
		<tag k="capacity" v="4" />
		<tag k="max_age" v="5" />
		<tag k="min_age" v="3" />
		<tag k="name" v="Vevring barnehage" />
		<tag k="no-barnehage:nsrid" v="975036499" />
		<tag k="operator" v="Sunnfjord kommune" />
		<tag k="operator:type" v="public" />
	</node>
	<node lat="61.45839" lon="5.89058" id="-4629">
		<tag k="ADDRESS" v="Hatlehaugen 1A, 6812 FØRDE" />
		<tag k="amenity" v="kindergarten" />
		<tag k="capacity" v="80" />
		<tag k="max_age" v="5" />
		<tag k="min_age" v="1" />
		<tag k="name" v="Vie barnehage" />
		<tag k="no-barnehage:nsrid" v="975309932" />
		<tag k="operator" v="Sunnfjord kommune" />
		<tag k="operator:type" v="public" />
	</node>
	<node lat="61.45388" lon="5.89989" id="-4630">
		<tag k="ADDRESS" v="Gardsstølsvegen 29, 6812 FØRDE" />
		<tag k="amenity" v="kindergarten" />
		<tag k="capacity" v="57" />
		<tag k="contact:website" v="http://www.vieboen.barnehage.forde.no" />
		<tag k="max_age" v="5" />
		<tag k="min_age" v="1" />
		<tag k="name" v="Viebøen barnehage" />
		<tag k="no-barnehage:nsrid" v="987973420" />
		<tag k="operator" v="Viebøen barnehage SA" />
		<tag k="operator:type" v="private" />
	</node>
	<node lat="61.45516" lon="5.90257" id="-4631">
		<tag k="ADDRESS" v="Rennekleiva 2, 6812 FØRDE" />
		<tag k="amenity" v="kindergarten" />
		<tag k="capacity" v="54" />
		<tag k="max_age" v="5" />
		<tag k="min_age" v="1" />
		<tag k="name" v="Vieåsen barnehage" />
		<tag k="no-barnehage:nsrid" v="973449192" />
		<tag k="operator" v="Sunnfjord kommune" />
		<tag k="operator:type" v="public" />
	</node>
	<node lat="0.0" lon="0.0" id="-4632">
		<tag k="ADDRESS" v=", 6978 VIKSDALEN" />
		<tag k="amenity" v="kindergarten" />
		<tag k="capacity" v="10" />
		<tag k="max_age" v="5" />
		<tag k="min_age" v="1" />
		<tag k="name" v="Viksdalen barnehage" />
		<tag k="no-barnehage:nsrid" v="973351184" />
		<tag k="operator" v="Sunnfjord kommune" />
		<tag k="operator:type" v="public" />
	</node>
	<node lat="61.45038" lon="5.84073" id="-4633">
		<tag k="ADDRESS" v="Øvre Kleivane 1, 6814 FØRDE" />
		<tag k="amenity" v="kindergarten" />
		<tag k="capacity" v="55" />
		<tag k="max_age" v="5" />
		<tag k="min_age" v="1" />
		<tag k="name" v="Ytre Hafstad barnehage" />
		<tag k="no-barnehage:nsrid" v="995667541" />
		<tag k="operator" v="Sunnfjord kommune" />
		<tag k="operator:type" v="public" />
	</node>
	<node lat="61.53091" lon="6.23834" id="-4634">
		<tag k="ADDRESS" v="Ålhusvegen 543, 6847 VASSENDEN" />
		<tag k="amenity" v="kindergarten" />
		<tag k="capacity" v="14" />
		<tag k="max_age" v="5" />
		<tag k="min_age" v="1" />
		<tag k="name" v="Ålhus barnehage" />
		<tag k="no-barnehage:nsrid" v="973458124" />
		<tag k="operator" v="Ålhus barnehage SA" />
		<tag k="operator:type" v="private" />
	</node>
</osm>
