<?xml version="1.0" encoding="UTF-8"?>
<osm generator="osmapis" version="0.6">
	<node id="-2137" lat="60.24142" lon="10.38503">
		<tag k="amenity" v="kindergarten" />
		<tag k="capacity" v="33" />
		<tag k="contact:email" v="stortjba@online.no" />
		<tag k="max_age" v="5" />
		<tag k="min_age" v="1" />
		<tag k="name" v="Stortjernet barnehage AS" />
		<tag k="no-barnehage:nsrid" v="1021365" />
		<tag k="operator" v="Stortjernet barnehage AS" />
		<tag k="operator:type" v="private" />
		<tag k="start_date" v="2005-12-06" />
	</node>
	<node id="-2136" lat="60.2266" lon="10.3624">
		<tag k="amenity" v="kindergarten" />
		<tag k="capacity" v="38" />
		<tag k="contact:email" v="grd@jevnaker.kommune.no" />
		<tag k="contact:phone" v="+47 61312340" />
		<tag k="max_age" v="5" />
		<tag k="min_age" v="1" />
		<tag k="name" v="Samsmoen barnehage" />
		<tag k="no-barnehage:nsrid" v="1017966" />
		<tag k="operator" v="Jevnaker kommune" />
		<tag k="operator:type" v="public" />
		<tag k="start_date" v="1988-04-01" />
	</node>
	<node id="-2135" lat="60.24182" lon="10.36188">
		<tag k="amenity" v="kindergarten" />
		<tag k="capacity" v="22" />
		<tag k="contact:email" v="marthebakken@hotmail.com" />
		<tag k="max_age" v="5" />
		<tag k="min_age" v="1" />
		<tag k="name" v="Prestekragen Menighetsbarnehage" />
		<tag k="no-barnehage:nsrid" v="1021729" />
		<tag k="operator" v="Prestekragen Menighetsbarnehage" />
		<tag k="operator:type" v="private" />
		<tag k="start_date" v="2007-08-01" />
	</node>
	<node id="-2134" lat="60.2389" lon="10.382">
		<tag k="amenity" v="kindergarten" />
		<tag k="capacity" v="36" />
		<tag k="contact:email" v="haso@jevnaker.kommune.no" />
		<tag k="contact:phone" v="+47 61311478" />
		<tag k="max_age" v="5" />
		<tag k="min_age" v="1" />
		<tag k="name" v="Nesbakken barnehage" />
		<tag k="no-barnehage:nsrid" v="1017965" />
		<tag k="operator" v="Jevnaker kommune" />
		<tag k="operator:type" v="public" />
		<tag k="start_date" v="1988-04-01" />
	</node>
	<node id="-2133" lat="60.257" lon="10.38244">
		<tag k="amenity" v="kindergarten" />
		<tag k="capacity" v="35" />
		<tag k="contact:email" v="maribjertnaes@hotmail.com" />
		<tag k="max_age" v="5" />
		<tag k="min_age" v="1" />
		<tag k="name" v="Mari Bjertnæs Nordby Gardsbarnehage" />
		<tag k="no-barnehage:nsrid" v="1021291" />
		<tag k="operator" v="Mari Bjertnæs Nordby Gardsbarnehage" />
		<tag k="operator:type" v="private" />
		<tag k="start_date" v="1997-06-10" />
	</node>
	<node id="-2132" lat="60.2396" lon="10.4233">
		<tag k="amenity" v="kindergarten" />
		<tag k="capacity" v="64" />
		<tag k="contact:email" v="teo@jevnaker.kommune.no" />
		<tag k="contact:phone" v="+47 61310676" />
		<tag k="max_age" v="5" />
		<tag k="min_age" v="1" />
		<tag k="name" v="Hovsenga barnehage" />
		<tag k="no-barnehage:nsrid" v="1014718" />
		<tag k="operator" v="Jevnaker kommune" />
		<tag k="operator:type" v="public" />
		<tag k="start_date" v="1992-08-01" />
	</node>
	<node id="-2131" lat="60.2384" lon="10.3552">
		<tag k="amenity" v="kindergarten" />
		<tag k="capacity" v="95" />
		<tag k="contact:email" v="nro@jevnaker.kommune.no" />
		<tag k="contact:phone" v="+47 61314755" />
		<tag k="max_age" v="5" />
		<tag k="min_age" v="1" />
		<tag k="name" v="Bergerbakken barnehage" />
		<tag k="no-barnehage:nsrid" v="1016021" />
		<tag k="operator" v="Jevnaker kommune" />
		<tag k="operator:type" v="public" />
		<tag k="start_date" v="1997-03-01" />
	</node>
</osm>
