<?xml version="1.0" encoding="UTF-8"?>
<osm generator="osmapis" version="0.6">
	<node id="-5712" lat="69.4981" lon="17.4916">
		<tag k="amenity" v="kindergarten" />
		<tag k="capacity" v="24" />
		<tag k="contact:email" v="tove.birkelund@berg.kommune.no" />
		<tag k="doNotImportAddress" v="Skoleveien 46 9386 SENJAHOPEN" />
		<tag k="max_age" v="5" />
		<tag k="min_age" v="1" />
		<tag k="name" v="Senjahopen barnehage" />
		<tag k="no-barnehage:nsrid" v="1016163" />
		<tag k="operator" v="Berg kommune" />
		<tag k="operator:type" v="public" />
	</node>
	<node id="-5713" lat="69.4446" lon="17.2983">
		<tag k="amenity" v="kindergarten" />
		<tag k="capacity" v="17" />
		<tag k="contact:email" v="hilde.karlsen@berg.kommune.no" />
		<tag k="contact:phone" v="+47 77859052" />
		<tag k="doNotImportAddress" v="PrestegÃ¥rdsveien 39 9385 SKALAND" />
		<tag k="max_age" v="5" />
		<tag k="min_age" v="1" />
		<tag k="name" v="Skaland barnehage" />
		<tag k="no-barnehage:nsrid" v="1013705" />
		<tag k="operator" v="Berg kommune" />
		<tag k="operator:type" v="public" />
	</node>
</osm>
