<?xml version="1.0" encoding="UTF-8"?>
<osm generator="osmapis" version="0.6">
	<node id="-1524" lat="59.70229" lon="5.37481">
		<tag k="ADDRESS" v="Mostravegen 557, 5440 MOSTERHAMN" />
		<tag k="amenity" v="kindergarten" />
		<tag k="name" v="Sansa" />
		<tag k="no-barnehage:nsrid" v="1025657" />
		<tag k="operator" v="Sansa AS" />
		<tag k="operator:type" v="private" />
	</node>
	<node id="-1523" lat="59.78956" lon="5.19086">
		<tag k="ADDRESS" v="Idrettsvegen 110, 5430 BREMNES" />
		<tag k="amenity" v="kindergarten" />
		<tag k="capacity" v="174" />
		<tag k="max_age" v="5" />
		<tag k="min_age" v="1" />
		<tag k="name" v="Maurtua barnehage Bømlo" />
		<tag k="no-barnehage:nsrid" v="1019659" />
		<tag k="operator" v="Maurtua barnehage Bømlo Sa" />
		<tag k="operator:type" v="private" />
	</node>
	<node id="-1522" lat="59.60507" lon="5.21216">
		<tag k="ADDRESS" v="Nedre Hillestveit 1, 5443 BØMLO" />
		<tag k="amenity" v="kindergarten" />
		<tag k="capacity" v="38" />
		<tag k="contact:website" v="http://www.langevaag.barnehage.no" />
		<tag k="max_age" v="5" />
		<tag k="min_age" v="1" />
		<tag k="name" v="Langevåg barnehage" />
		<tag k="no-barnehage:nsrid" v="1020732" />
		<tag k="operator" v="Langevåg barnehage Sa" />
		<tag k="operator:type" v="private" />
	</node>
	<node id="-1521" lat="59.79176" lon="5.18469">
		<tag k="ADDRESS" v="Leirdalen 50, 5430 BREMNES" />
		<tag k="amenity" v="kindergarten" />
		<tag k="capacity" v="123" />
		<tag k="contact:website" v="http://www.espira.no" />
		<tag k="max_age" v="5" />
		<tag k="min_age" v="1" />
		<tag k="name" v="Espira Salamonskogen barnehage" />
		<tag k="no-barnehage:nsrid" v="1021400" />
		<tag k="operator" v="Espira Salamonskogen AS" />
		<tag k="operator:type" v="private" />
	</node>
	<node id="-1520" lat="59.81636" lon="5.26303">
		<tag k="ADDRESS" v="Sollia 30, 5420 RUBBESTADNESET" />
		<tag k="amenity" v="kindergarten" />
		<tag k="capacity" v="91" />
		<tag k="contact:website" v="http://www.espira.no" />
		<tag k="max_age" v="5" />
		<tag k="min_age" v="1" />
		<tag k="name" v="Espira Rubbestadneset barnehage" />
		<tag k="no-barnehage:nsrid" v="1021733" />
		<tag k="operator" v="Espira Rubbestadneset AS" />
		<tag k="operator:type" v="private" />
	</node>
	<node id="-1519" lat="59.71035" lon="5.34657">
		<tag k="ADDRESS" v="Færavågen 2, 5440 MOSTERHAMN" />
		<tag k="amenity" v="kindergarten" />
		<tag k="capacity" v="75" />
		<tag k="contact:website" v="http://www.espira.no" />
		<tag k="max_age" v="5" />
		<tag k="min_age" v="1" />
		<tag k="name" v="Espira Moster barnehage" />
		<tag k="no-barnehage:nsrid" v="1021047" />
		<tag k="operator" v="Espira Barnehager AS" />
		<tag k="operator:type" v="private" />
	</node>
	<node id="-1518" lat="59.80059" lon="5.1854">
		<tag k="ADDRESS" v="Hollundsvegen 43, 5427 URANGSVÅG" />
		<tag k="amenity" v="kindergarten" />
		<tag k="capacity" v="107" />
		<tag k="contact:website" v="http://hollund.espira.no/" />
		<tag k="max_age" v="5" />
		<tag k="min_age" v="1" />
		<tag k="name" v="Espira Hollund barnehage" />
		<tag k="no-barnehage:nsrid" v="1019864" />
		<tag k="operator" v="Espira Barnehager AS" />
		<tag k="operator:type" v="private" />
	</node>
	<node id="-1517" lat="59.72194" lon="5.22987">
		<tag k="ADDRESS" v="Motorsportvegen 7, 5437 FINNÅS" />
		<tag k="amenity" v="kindergarten" />
		<tag k="capacity" v="50" />
		<tag k="max_age" v="5" />
		<tag k="min_age" v="1" />
		<tag k="name" v="Espira Finnås barnehage" />
		<tag k="no-barnehage:nsrid" v="1022007" />
		<tag k="operator" v="Espira Barnehager AS" />
		<tag k="operator:type" v="private" />
	</node>
	<node id="-1516" lat="59.70032" lon="5.35841">
		<tag k="ADDRESS" v="Åsen 75, 5440 MOSTERHAMN" />
		<tag k="amenity" v="kindergarten" />
		<tag k="capacity" v="20" />
		<tag k="contact:website" v="http://www.breiflabben.net" />
		<tag k="max_age" v="5" />
		<tag k="min_age" v="1" />
		<tag k="name" v="Breiflabben barnehage" />
		<tag k="no-barnehage:nsrid" v="1021929" />
		<tag k="operator" v="Breiflabben barnehage AS" />
		<tag k="operator:type" v="private" />
	</node>
</osm>
