<?xml version="1.0" encoding="UTF-8"?>
<osm generator="osmapis" version="0.6">
	<node id="-1657" lat="60.7231" lon="10.609">
		<tag k="amenity" v="kindergarten" />
		<tag k="capacity" v="68" />
		<tag k="max_age" v="5" />
		<tag k="min_age" v="1" />
		<tag k="name" v="Veltmanåa barnehage" />
		<tag k="no-barnehage:nsrid" v="1017964" />
		<tag k="operator" v="Vestre Toten kommune" />
		<tag k="operator:type" v="public" />
	</node>
	<node id="-1656" lat="60.72017" lon="10.59358">
		<tag k="amenity" v="kindergarten" />
		<tag k="capacity" v="58" />
		<tag k="contact:website" v="http://www.trollskogenraufoss.barnehage.no" />
		<tag k="max_age" v="5" />
		<tag k="min_age" v="1" />
		<tag k="name" v="Trollskogen barnehage" />
		<tag k="no-barnehage:nsrid" v="1020917" />
		<tag k="operator" v="Trollskogen barnehage Sa" />
		<tag k="operator:type" v="private" />
	</node>
	<node id="-1655" lat="60.67469" lon="10.62598">
		<tag k="amenity" v="kindergarten" />
		<tag k="capacity" v="71" />
		<tag k="max_age" v="5" />
		<tag k="min_age" v="1" />
		<tag k="name" v="Reinsvoll barnehage" />
		<tag k="no-barnehage:nsrid" v="1020812" />
		<tag k="operator" v="Reinsvoll barnehage Sa" />
		<tag k="operator:type" v="private" />
	</node>
	<node id="-1654" lat="60.72274" lon="10.63225">
		<tag k="amenity" v="kindergarten" />
		<tag k="capacity" v="60" />
		<tag k="max_age" v="5" />
		<tag k="min_age" v="1" />
		<tag k="name" v="Polaris FUS barnehage" />
		<tag k="no-barnehage:nsrid" v="1021463" />
		<tag k="operator" v="Polaris Fus barnehage AS" />
		<tag k="operator:type" v="private" />
	</node>
	<node id="-1653" lat="60.72638" lon="10.61718">
		<tag k="amenity" v="kindergarten" />
		<tag k="capacity" v="21" />
		<tag k="max_age" v="5" />
		<tag k="min_age" v="1" />
		<tag k="name" v="Lunde gårdsbarnehage" />
		<tag k="no-barnehage:nsrid" v="1022455" />
		<tag k="operator" v="Lunde Gårdsbarnehage AS" />
		<tag k="operator:type" v="private" />
	</node>
	<node id="-1652" lat="60.70314" lon="10.7096">
		<tag k="amenity" v="kindergarten" />
		<tag k="capacity" v="25" />
		<tag k="max_age" v="5" />
		<tag k="min_age" v="1" />
		<tag k="name" v="Ihle barnehage" />
		<tag k="no-barnehage:nsrid" v="1020225" />
		<tag k="operator" v="Ihle barnehage Sa" />
		<tag k="operator:type" v="private" />
	</node>
	<node id="-1651" lat="60.71402" lon="10.62544">
		<tag k="amenity" v="kindergarten" />
		<tag k="capacity" v="52" />
		<tag k="contact:website" v="http://www.grimaaskogen.barnehage.no" />
		<tag k="max_age" v="5" />
		<tag k="min_age" v="1" />
		<tag k="name" v="Grimåsskogen barnehage" />
		<tag k="no-barnehage:nsrid" v="1019949" />
		<tag k="operator" v="Grimåsskogen barnehage Sa" />
		<tag k="operator:type" v="private" />
	</node>
	<node id="-1650" lat="60.7096" lon="10.61184">
		<tag k="amenity" v="kindergarten" />
		<tag k="capacity" v="80" />
		<tag k="contact:website" v="http://www.espira.no" />
		<tag k="max_age" v="5" />
		<tag k="min_age" v="1" />
		<tag k="name" v="Espira Dragerskogen barnehage" />
		<tag k="no-barnehage:nsrid" v="1021572" />
		<tag k="operator" v="Espira Dragerskogen AS" />
		<tag k="operator:type" v="private" />
	</node>
	<node id="-1649" lat="60.6274" lon="10.5928">
		<tag k="amenity" v="kindergarten" />
		<tag k="capacity" v="52" />
		<tag k="max_age" v="5" />
		<tag k="min_age" v="1" />
		<tag k="name" v="Eina barnehage" />
		<tag k="no-barnehage:nsrid" v="1017875" />
		<tag k="operator" v="Vestre Toten kommune" />
		<tag k="operator:type" v="public" />
	</node>
</osm>
