<?xml version="1.0" encoding="UTF-8"?>
<osm generator="osmapis" version="0.6">
	<node id="-2548" lat="59.93129" lon="11.04069">
		<tag k="ADDRESS" v="Ulvefaret 32, 2014 BLYSTADLIA" />
		<tag k="amenity" v="kindergarten" />
		<tag k="capacity" v="47" />
		<tag k="max_age" v="5" />
		<tag k="min_age" v="1" />
		<tag k="name" v="Blystadlia barnehage" />
		<tag k="no-barnehage:nsrid" v="913988833" />
		<tag k="operator" v="Rælingen kommune" />
		<tag k="operator:type" v="public" />
	</node>
	<node id="-2549" lat="59.93633" lon="11.05468">
		<tag k="ADDRESS" v="Granittvegen 33, 2008 FJERDINGBY" />
		<tag k="amenity" v="kindergarten" />
		<tag k="capacity" v="73" />
		<tag k="max_age" v="5" />
		<tag k="min_age" v="1" />
		<tag k="name" v="Blåbærgrenda barnehage" />
		<tag k="no-barnehage:nsrid" v="984035179" />
		<tag k="operator" v="Blåbærgrenda barnehage Sa" />
		<tag k="operator:type" v="private" />
	</node>
	<node id="-2550" lat="59.93042" lon="11.04232">
		<tag k="ADDRESS" v="Ulvefaret 30, 2014 BLYSTADLIA" />
		<tag k="amenity" v="kindergarten" />
		<tag k="capacity" v="62" />
		<tag k="max_age" v="5" />
		<tag k="min_age" v="1" />
		<tag k="name" v="Elgen barnehage" />
		<tag k="no-barnehage:nsrid" v="974586576" />
		<tag k="operator" v="Rælingen kommune" />
		<tag k="operator:type" v="public" />
	</node>
	<node id="-2551" lat="59.90249" lon="11.08425">
		<tag k="ADDRESS" v="Nautåsvegen 15, 2008 FJERDINGBY" />
		<tag k="amenity" v="kindergarten" />
		<tag k="capacity" v="115" />
		<tag k="max_age" v="5" />
		<tag k="min_age" v="1" />
		<tag k="name" v="Espira Tristilbakken barnehage" />
		<tag k="no-barnehage:nsrid" v="818722192" />
		<tag k="operator" v="Espira barnehager AS" />
		<tag k="operator:type" v="private" />
	</node>
	<node id="-2552" lat="59.94699" lon="11.03729">
		<tag k="ADDRESS" v="Sorenskrivervegen 7, 2005 RÆLINGEN" />
		<tag k="amenity" v="kindergarten" />
		<tag k="capacity" v="65" />
		<tag k="max_age" v="5" />
		<tag k="min_age" v="1" />
		<tag k="name" v="Heimen barnehage" />
		<tag k="no-barnehage:nsrid" v="992818727" />
		<tag k="operator" v="Rælingen kommune" />
		<tag k="operator:type" v="public" />
	</node>
	<node id="-2553" lat="59.90264" lon="11.0892">
		<tag k="ADDRESS" v="Tristilvegen 12, 2008 FJERDINGBY" />
		<tag k="amenity" v="kindergarten" />
		<tag k="capacity" v="112" />
		<tag k="contact:website" v="http://www.hektnerasen.bhg.no" />
		<tag k="max_age" v="5" />
		<tag k="min_age" v="1" />
		<tag k="name" v="Hektneråsen FUS barnehage" />
		<tag k="no-barnehage:nsrid" v="992336943" />
		<tag k="operator" v="Hektneråsen Fus barnehage AS" />
		<tag k="operator:type" v="private" />
	</node>
	<node id="-2554" lat="59.94896" lon="11.03548">
		<tag k="ADDRESS" v="Chr Tomters veg 1, 2005 RÆLINGEN" />
		<tag k="amenity" v="kindergarten" />
		<tag k="capacity" v="60" />
		<tag k="max_age" v="5" />
		<tag k="min_age" v="1" />
		<tag k="name" v="Lilleborg barnehage" />
		<tag k="no-barnehage:nsrid" v="974586584" />
		<tag k="operator" v="Rælingen kommune" />
		<tag k="operator:type" v="public" />
	</node>
	<node id="-2555" lat="59.93546" lon="11.02641">
		<tag k="ADDRESS" v="Løvstien 5, 2006 LØVENSTAD" />
		<tag k="amenity" v="kindergarten" />
		<tag k="capacity" v="66" />
		<tag k="max_age" v="5" />
		<tag k="min_age" v="1" />
		<tag k="name" v="Løvenstad barnehage" />
		<tag k="no-barnehage:nsrid" v="974586568" />
		<tag k="operator" v="Rælingen kommune" />
		<tag k="operator:type" v="public" />
	</node>
	<node id="-2556" lat="59.93595" lon="11.02664">
		<tag k="ADDRESS" v="Løvstien 3, 2006 LØVENSTAD" />
		<tag k="amenity" v="kindergarten" />
		<tag k="capacity" v="72" />
		<tag k="max_age" v="5" />
		<tag k="min_age" v="1" />
		<tag k="name" v="Løvlia barnehage" />
		<tag k="no-barnehage:nsrid" v="974586606" />
		<tag k="operator" v="Rælingen kommune" />
		<tag k="operator:type" v="public" />
	</node>
	<node id="-2557" lat="59.9468" lon="11.03559">
		<tag k="ADDRESS" v="Øvre Rælingsveg 36, 2005 RÆLINGEN" />
		<tag k="amenity" v="kindergarten" />
		<tag k="capacity" v="40" />
		<tag k="max_age" v="5" />
		<tag k="min_age" v="1" />
		<tag k="name" v="Petrine barnehage" />
		<tag k="no-barnehage:nsrid" v="972517038" />
		<tag k="operator" v="Rælingen Kirkelige Fellesråd" />
		<tag k="operator:type" v="private" />
	</node>
	<node id="-2558" lat="59.93049" lon="11.06305">
		<tag k="ADDRESS" v="Hans Rustads veg 8, 2008 FJERDINGBY" />
		<tag k="amenity" v="kindergarten" />
		<tag k="capacity" v="82" />
		<tag k="max_age" v="5" />
		<tag k="min_age" v="1" />
		<tag k="name" v="Sannum barnehage" />
		<tag k="no-barnehage:nsrid" v="874586552" />
		<tag k="operator" v="Rælingen kommune" />
		<tag k="operator:type" v="public" />
	</node>
	<node id="-2559" lat="59.90656" lon="11.09152">
		<tag k="ADDRESS" v="Nedre Rælingsveg 430, 2008 FJERDINGBY" />
		<tag k="amenity" v="kindergarten" />
		<tag k="capacity" v="83" />
		<tag k="contact:website" v="http://www.ralingen.kommune.no" />
		<tag k="max_age" v="5" />
		<tag k="min_age" v="1" />
		<tag k="name" v="Smestadtoppen barnehage" />
		<tag k="no-barnehage:nsrid" v="987067276" />
		<tag k="operator" v="Rælingen kommune" />
		<tag k="operator:type" v="public" />
	</node>
	<node id="-2560" lat="59.93296" lon="11.06922">
		<tag k="ADDRESS" v="Vipevegen 10, 2008 FJERDINGBY" />
		<tag k="amenity" v="kindergarten" />
		<tag k="capacity" v="34" />
		<tag k="contact:website" v="http://www.tangen.barnehage.no" />
		<tag k="max_age" v="5" />
		<tag k="min_age" v="1" />
		<tag k="name" v="Tangen barnehage" />
		<tag k="no-barnehage:nsrid" v="872215492" />
		<tag k="operator" v="Tangen barnehage Sa" />
		<tag k="operator:type" v="private" />
	</node>
	<node id="-2561" lat="59.86303" lon="11.09452">
		<tag k="ADDRESS" v="Tomtervegen 2, 2009 NORDBY" />
		<tag k="amenity" v="kindergarten" />
		<tag k="capacity" v="63" />
		<tag k="max_age" v="5" />
		<tag k="min_age" v="1" />
		<tag k="name" v="Tomter FUS barnehage" />
		<tag k="no-barnehage:nsrid" v="991298207" />
		<tag k="operator" v="Tomter Fus barnehage AS" />
		<tag k="operator:type" v="private" />
	</node>
	<node id="-2562" lat="59.94715" lon="11.0506">
		<tag k="ADDRESS" v="Strandvegen 67, 2005 RÆLINGEN" />
		<tag k="amenity" v="kindergarten" />
		<tag k="capacity" v="81" />
		<tag k="max_age" v="5" />
		<tag k="min_age" v="1" />
		<tag k="name" v="Torva barnehage" />
		<tag k="no-barnehage:nsrid" v="988860298" />
		<tag k="operator" v="Rælingen kommune" />
		<tag k="operator:type" v="public" />
	</node>
	<node id="-2563" lat="59.9474" lon="11.0294">
		<tag k="ADDRESS" v="Buholen 15, 2005 RÆLINGEN" />
		<tag k="amenity" v="kindergarten" />
		<tag k="capacity" v="79" />
		<tag k="max_age" v="5" />
		<tag k="min_age" v="1" />
		<tag k="name" v="Østre Strøm FUS barnehage" />
		<tag k="no-barnehage:nsrid" v="990259909" />
		<tag k="operator" v="Østre Strøm Fus barnehage AS" />
		<tag k="operator:type" v="private" />
	</node>
</osm>
