<?xml version="1.0" encoding="UTF-8"?>
<osm generator="osmapis" version="0.6">
	<node id="-5264" lat="64.4654" lon="12.3149">
		<tag k="amenity" v="kindergarten" />
		<tag k="capacity" v="42" />
		<tag k="contact:email" v="ingri.gartland@grong.kommune.no" />
		<tag k="contact:phone" v="+47 74330841" />
		<tag k="max_age" v="5" />
		<tag k="min_age" v="1" />
		<tag k="name" v="RÃ¸nningen barnehage" />
		<tag k="no-barnehage:nsrid" v="1014751" />
		<tag k="operator" v="Grong kommune" />
		<tag k="operator:type" v="public" />
		<tag k="start_date" v="1992-01-01" />
	</node>
	<node id="-5263" lat="64.5602" lon="12.4852">
		<tag k="amenity" v="kindergarten" />
		<tag k="capacity" v="20" />
		<tag k="contact:email" v="odd.magne.lund@grong.kommune.no" />
		<tag k="contact:phone" v="+47 74 33 08 35" />
		<tag k="max_age" v="5" />
		<tag k="min_age" v="1" />
		<tag k="name" v="Harran Oppvekstsenter Avdeling Barnehage" />
		<tag k="no-barnehage:nsrid" v="1013641" />
		<tag k="operator" v="Grong kommune" />
		<tag k="operator:type" v="public" />
		<tag k="start_date" v="1989-01-01" />
	</node>
	<node id="-5262" lat="64.4654" lon="12.3149">
		<tag k="amenity" v="kindergarten" />
		<tag k="capacity" v="34" />
		<tag k="contact:email" v="ingri.gartland@grong.kommune.no" />
		<tag k="contact:phone" v="+47 74 33 17 47" />
		<tag k="max_age" v="5" />
		<tag k="min_age" v="1" />
		<tag k="name" v="Ekker barnehage" />
		<tag k="no-barnehage:nsrid" v="1013640" />
		<tag k="operator" v="Grong kommune" />
		<tag k="operator:type" v="public" />
		<tag k="start_date" v="1989-01-01" />
	</node>
	<node id="-5261" lat="64.4654" lon="12.3149">
		<tag k="amenity" v="kindergarten" />
		<tag k="capacity" v="34" />
		<tag k="contact:email" v="monika.sether@grong.kommune.no" />
		<tag k="contact:phone" v="+47 74 33 08 23" />
		<tag k="max_age" v="5" />
		<tag k="min_age" v="1" />
		<tag k="name" v="Bergsmo Oppvekstsenter Avdeling Barnehage" />
		<tag k="no-barnehage:nsrid" v="1012530" />
		<tag k="operator" v="Grong kommune" />
		<tag k="operator:type" v="public" />
		<tag k="start_date" v="1989-01-01" />
	</node>
</osm>
