<?xml version="1.0" encoding="UTF-8"?>
<osm generator="osmapis" version="0.6">
	<node id="-6056" lat="69.13464" lon="18.16197">
		<tag k="ADDRESS" v="Sørsiveien 118, 9310 SØRREISA" />
		<tag k="amenity" v="kindergarten" />
		<tag k="max_age" v="5" />
		<tag k="min_age" v="1" />
		<tag k="name" v="Fredlund barnehage" />
		<tag k="no-barnehage:nsrid" v="1014952" />
		<tag k="operator" v="Sørreisa kommune" />
		<tag k="operator:type" v="public" />
	</node>
	<node id="-6055" lat="69.20386" lon="18.06217">
		<tag k="ADDRESS" v="Langhågen 40, 9309 FINNSNES" />
		<tag k="amenity" v="kindergarten" />
		<tag k="capacity" v="32" />
		<tag k="max_age" v="5" />
		<tag k="min_age" v="1" />
		<tag k="name" v="Ferdinand barnehage" />
		<tag k="no-barnehage:nsrid" v="1016838" />
		<tag k="operator" v="Sørreisa kommune" />
		<tag k="operator:type" v="public" />
	</node>
	<node id="-6054" lat="69.13833" lon="18.11775">
		<tag k="ADDRESS" v="Brekka 47/49, 9310 SØRREISA" />
		<tag k="amenity" v="kindergarten" />
		<tag k="capacity" v="46" />
		<tag k="max_age" v="5" />
		<tag k="min_age" v="1" />
		<tag k="name" v="Brekka barnehage" />
		<tag k="no-barnehage:nsrid" v="1013960" />
		<tag k="operator" v="Sørreisa kommune" />
		<tag k="operator:type" v="public" />
	</node>
	<node id="-6053" lat="69.12742" lon="18.05125">
		<tag k="ADDRESS" v="Lyshaugveien 34, 9310 SØRREISA" />
		<tag k="amenity" v="kindergarten" />
		<tag k="capacity" v="12" />
		<tag k="max_age" v="5" />
		<tag k="min_age" v="1" />
		<tag k="name" v="Bjørkli private barnehage" />
		<tag k="no-barnehage:nsrid" v="1020756" />
		<tag k="operator" v="Bjørkli Private barnehage Sa" />
		<tag k="operator:type" v="private" />
	</node>
	<node id="-6057" lat="69.14587" lon="18.17997">
		<tag k="ADDRESS" v="Kollenveien 90, 9310 SØRREISA" />
		<tag k="amenity" v="kindergarten" />
		<tag k="capacity" v="65" />
		<tag k="max_age" v="5" />
		<tag k="min_age" v="1" />
		<tag k="name" v="Gjerdsletta barnehage" />
		<tag k="no-barnehage:nsrid" v="1013494" />
		<tag k="operator" v="Sørreisa kommune" />
		<tag k="operator:type" v="public" />
	</node>
</osm>
