<?xml version="1.0" encoding="UTF-8"?>
<osm generator="osmapis" version="0.6">
	<node id="-5912" lat="69.2039" lon="18.0622">
		<tag k="amenity" v="kindergarten" />
		<tag k="capacity" v="31" />
		<tag k="contact:email" v="anja.lombnes@sorreisa.kommune.no" />
		<tag k="contact:phone" v="+47 77 87 51 95" />
		<tag k="max_age" v="5" />
		<tag k="min_age" v="1" />
		<tag k="name" v="Ferdinand barnehage" />
		<tag k="no-barnehage:nsrid" v="1016838" />
		<tag k="operator" v="Sørreisa kommune" />
		<tag k="operator:type" v="public" />
		<tag k="start_date" v="1993-08-01" />
	</node>
	<node id="-5911" lat="69.1383" lon="18.1175">
		<tag k="amenity" v="kindergarten" />
		<tag k="capacity" v="33" />
		<tag k="contact:email" v="Lena.Skogheim@sorreisa.kommune.no" />
		<tag k="contact:phone" v="+47 77 87 51 90" />
		<tag k="max_age" v="5" />
		<tag k="min_age" v="1" />
		<tag k="name" v="Brekka barnehage" />
		<tag k="no-barnehage:nsrid" v="1013960" />
		<tag k="operator" v="Sørreisa kommune" />
		<tag k="operator:type" v="public" />
		<tag k="start_date" v="1990-01-01" />
	</node>
	<node id="-5910" lat="69.13808" lon="18.05818">
		<tag k="amenity" v="kindergarten" />
		<tag k="capacity" v="15" />
		<tag k="contact:email" v="Barnehagen@online.no" />
		<tag k="contact:phone" v="+47 77 86 46 45" />
		<tag k="max_age" v="5" />
		<tag k="min_age" v="1" />
		<tag k="name" v="Bjørkli Private barnehage Sa" />
		<tag k="no-barnehage:nsrid" v="1020756" />
		<tag k="operator" v="Bjørkli Private barnehage Sa" />
		<tag k="operator:type" v="private" />
		<tag k="start_date" v="1989-01-01" />
	</node>
	<node id="-5914" lat="69.146" lon="18.1793">
		<tag k="amenity" v="kindergarten" />
		<tag k="capacity" v="67" />
		<tag k="contact:email" v="grethe-lill.midttun@sorreisa.kommune.no" />
		<tag k="max_age" v="5" />
		<tag k="min_age" v="1" />
		<tag k="name" v="Gjerdsletta barnehage" />
		<tag k="no-barnehage:nsrid" v="1013494" />
		<tag k="operator" v="Sørreisa kommune" />
		<tag k="operator:type" v="public" />
		<tag k="start_date" v="2010-04-01" />
	</node>
	<node id="-5913" lat="69.1344" lon="18.1616">
		<tag k="amenity" v="kindergarten" />
		<tag k="capacity" v="16" />
		<tag k="contact:email" v="Lena.Skogheim@sorreisa.kommune.no" />
		<tag k="contact:phone" v="+47 77 87 51 80" />
		<tag k="max_age" v="5" />
		<tag k="min_age" v="1" />
		<tag k="name" v="Fredlund barnehage" />
		<tag k="no-barnehage:nsrid" v="1014952" />
		<tag k="operator" v="Sørreisa kommune" />
		<tag k="operator:type" v="public" />
		<tag k="start_date" v="1996-01-01" />
	</node>
</osm>
