<?xml version="1.0" encoding="UTF-8"?>
<osm generator="osmapis" version="0.6">
	<node id="-4012" lat="0.0" lon="0.0">
		<tag k="ADDRESS" v="Moseidvegen 1, 4706 VENNESLA" />
		<tag k="amenity" v="kindergarten" />
		<tag k="capacity" v="60" />
		<tag k="max_age" v="5" />
		<tag k="min_age" v="1" />
		<tag k="name" v="Barnestua barnehage" />
		<tag k="no-barnehage:nsrid" v="974798530" />
		<tag k="operator" v="Vennesla kommune" />
		<tag k="operator:type" v="public" />
	</node>
	<node id="-4014" lat="0.0" lon="0.0">
		<tag k="ADDRESS" v="Skarpengland, 4715 ØVREBØ" />
		<tag k="amenity" v="kindergarten" />
		<tag k="capacity" v="99" />
		<tag k="max_age" v="5" />
		<tag k="min_age" v="1" />
		<tag k="name" v="Djupmyra FUS barnehage" />
		<tag k="no-barnehage:nsrid" v="985688265" />
		<tag k="operator" v="Djupmyra Fus barnehage AS" />
		<tag k="operator:type" v="private" />
	</node>
	<node id="-4015" lat="58.37801" lon="7.75414">
		<tag k="ADDRESS" v="Setesdalsvegen 870, 4720 HÆGELAND" />
		<tag k="amenity" v="kindergarten" />
		<tag k="capacity" v="42" />
		<tag k="max_age" v="5" />
		<tag k="min_age" v="1" />
		<tag k="name" v="Eikeland oppvekstsenter avd. barnehage" />
		<tag k="no-barnehage:nsrid" v="998061563" />
		<tag k="operator" v="Vennesla kommune" />
		<tag k="operator:type" v="public" />
	</node>
	<node id="-4016" lat="58.28312" lon="7.97624">
		<tag k="ADDRESS" v="Ludeflaten 36, 4707 VENNESLA" />
		<tag k="amenity" v="kindergarten" />
		<tag k="capacity" v="21" />
		<tag k="max_age" v="5" />
		<tag k="min_age" v="1" />
		<tag k="name" v="Harestua barnehage" />
		<tag k="no-barnehage:nsrid" v="974891360" />
		<tag k="operator" v="Harestua barnehage AS" />
		<tag k="operator:type" v="private" />
	</node>
	<node id="-4018" lat="58.27498" lon="7.96759">
		<tag k="ADDRESS" v="Venneslavegen 281, 4700 VENNESLA" />
		<tag k="amenity" v="kindergarten" />
		<tag k="capacity" v="93" />
		<tag k="contact:website" v="http://www.klokkerstuabarnehage.no/" />
		<tag k="max_age" v="5" />
		<tag k="min_age" v="1" />
		<tag k="name" v="Klokkerstua barnehage" />
		<tag k="no-barnehage:nsrid" v="975298957" />
		<tag k="operator" v="Vennesla kommune" />
		<tag k="operator:type" v="public" />
	</node>
	<node id="-4019" lat="58.25199" lon="7.96364">
		<tag k="ADDRESS" v="Vigeland Brugs veg 15, 4708 VENNESLA" />
		<tag k="amenity" v="kindergarten" />
		<tag k="capacity" v="75" />
		<tag k="contact:website" v="http://laringsverkstedet.no/barnehage/mariknotten" />
		<tag k="max_age" v="5" />
		<tag k="min_age" v="1" />
		<tag k="name" v="Læringsverkstedet avd. Mariknotten barnehage" />
		<tag k="no-barnehage:nsrid" v="988515027" />
		<tag k="operator" v="Læringsverkstedet AS" />
		<tag k="operator:type" v="private" />
	</node>
	<node id="-4020" lat="58.24126" lon="7.95123">
		<tag k="ADDRESS" v="Høylandsvegen 99, 4708 VENNESLA" />
		<tag k="amenity" v="kindergarten" />
		<tag k="capacity" v="17" />
		<tag k="max_age" v="5" />
		<tag k="min_age" v="1" />
		<tag k="name" v="Læringsverkstedet barnehage avd. Hompetitten" />
		<tag k="no-barnehage:nsrid" v="991287388" />
		<tag k="operator" v="Læringsverkstedet AS" />
		<tag k="operator:type" v="private" />
	</node>
	<node id="-4021" lat="58.25111" lon="7.98663">
		<tag k="ADDRESS" v="Ålefjærvegen 501, 4708 VENNESLA" />
		<tag k="amenity" v="kindergarten" />
		<tag k="capacity" v="43" />
		<tag k="max_age" v="5" />
		<tag k="min_age" v="1" />
		<tag k="name" v="Læringsverkstedet barnehage avd. Vennesla" />
		<tag k="no-barnehage:nsrid" v="895123412" />
		<tag k="operator" v="Læringsverkstedet AS" />
		<tag k="operator:type" v="private" />
	</node>
	<node id="-4022" lat="58.27863" lon="7.9704">
		<tag k="ADDRESS" v="Venneslavegen 294, 4700 VENNESLA" />
		<tag k="amenity" v="kindergarten" />
		<tag k="capacity" v="22" />
		<tag k="max_age" v="5" />
		<tag k="min_age" v="1" />
		<tag k="name" v="Læringsverkstedet barnehage avd. Søndagsbakken barnehage" />
		<tag k="no-barnehage:nsrid" v="973458841" />
		<tag k="operator" v="Læringsverkstedet AS" />
		<tag k="operator:type" v="private" />
	</node>
	<node id="-4023" lat="58.27056" lon="7.97684">
		<tag k="ADDRESS" v="Erkleivvegen 39, 4700 VENNESLA" />
		<tag k="amenity" v="kindergarten" />
		<tag k="capacity" v="24" />
		<tag k="max_age" v="5" />
		<tag k="min_age" v="1" />
		<tag k="name" v="Læringsverkstedet barnehage avd. Erkleiv barnehage" />
		<tag k="no-barnehage:nsrid" v="974990148" />
		<tag k="operator" v="Læringsverkstedet AS" />
		<tag k="operator:type" v="private" />
	</node>
	<node id="-4024" lat="58.2647" lon="7.94975">
		<tag k="ADDRESS" v="Smååsane 2, 4706 VENNESLA" />
		<tag k="amenity" v="kindergarten" />
		<tag k="capacity" v="90" />
		<tag k="max_age" v="5" />
		<tag k="min_age" v="1" />
		<tag k="name" v="Smååsane barnehage" />
		<tag k="no-barnehage:nsrid" v="991405801" />
		<tag k="operator" v="Vennesla kommune" />
		<tag k="operator:type" v="public" />
	</node>
	<node id="-4025" lat="58.2571" lon="7.98682">
		<tag k="ADDRESS" v="Snømyr 16A, 4708 VENNESLA" />
		<tag k="amenity" v="kindergarten" />
		<tag k="capacity" v="108" />
		<tag k="max_age" v="5" />
		<tag k="min_age" v="1" />
		<tag k="name" v="Snømyra barnehage" />
		<tag k="no-barnehage:nsrid" v="973513699" />
		<tag k="operator" v="Snømyra barnehage Sa" />
		<tag k="operator:type" v="private" />
	</node>
	<node id="-4026" lat="58.26778" lon="7.95885">
		<tag k="ADDRESS" v="Drivenesvegen 55A, 4706 VENNESLA" />
		<tag k="amenity" v="kindergarten" />
		<tag k="capacity" v="85" />
		<tag k="max_age" v="5" />
		<tag k="min_age" v="1" />
		<tag k="name" v="Solsletta barnehage" />
		<tag k="no-barnehage:nsrid" v="988322849" />
		<tag k="operator" v="Vennesla kommune" />
		<tag k="operator:type" v="public" />
	</node>
	<node id="-4027" lat="58.2877" lon="7.87645">
		<tag k="ADDRESS" v="Lolandsvegen 37, 4715 ØVREBØ" />
		<tag k="amenity" v="kindergarten" />
		<tag k="capacity" v="40" />
		<tag k="max_age" v="5" />
		<tag k="min_age" v="1" />
		<tag k="name" v="Øvrebø barnehage" />
		<tag k="no-barnehage:nsrid" v="982367409" />
		<tag k="operator" v="Øvrebø opplæringskontor AS" />
		<tag k="operator:type" v="private" />
	</node>
</osm>
