<?xml version="1.0" encoding="UTF-8"?>
<osm version="0.6" generator="osmapis">
	<node lat="60.28966" lon="6.59578" id="-4360">
		<tag k="ADDRESS" v="Rogdavegen 8, 5776 NÅ" />
		<tag k="amenity" v="kindergarten" />
		<tag k="capacity" v="18" />
		<tag k="max_age" v="5" />
		<tag k="min_age" v="1" />
		<tag k="name" v="Aga barnehage" />
		<tag k="no-barnehage:nsrid" v="975308936" />
		<tag k="operator" v="Ullensvang kommune" />
		<tag k="operator:type" v="public" />
	</node>
	<node lat="60.05254" lon="6.53923" id="-4361">
		<tag k="ADDRESS" v="Eidesåsen 154, 5750 ODDA" />
		<tag k="amenity" v="kindergarten" />
		<tag k="capacity" v="26" />
		<tag k="contact:website" v="http://eidesasen.barnehage.odda.no" />
		<tag k="max_age" v="5" />
		<tag k="min_age" v="1" />
		<tag k="name" v="Eidesåsen barnehage" />
		<tag k="no-barnehage:nsrid" v="975322173" />
		<tag k="operator" v="Ullensvang kommune" />
		<tag k="operator:type" v="public" />
	</node>
	<node lat="0.0" lon="0.0" id="-4362">
		<tag k="ADDRESS" v="Eitrheimsvegen, 5750 ODDA" />
		<tag k="amenity" v="kindergarten" />
		<tag k="capacity" v="46" />
		<tag k="contact:website" v="http://eitrheimsvagen.barnehage.odda.no" />
		<tag k="max_age" v="5" />
		<tag k="min_age" v="1" />
		<tag k="name" v="Eitrheimsvågen barnehage" />
		<tag k="no-barnehage:nsrid" v="973945718" />
		<tag k="operator" v="Ullensvang kommune" />
		<tag k="operator:type" v="public" />
	</node>
	<node lat="60.0685" lon="6.54139" id="-4363">
		<tag k="ADDRESS" v="Opheimsgata 4, 5750 ODDA" />
		<tag k="amenity" v="kindergarten" />
		<tag k="capacity" v="47" />
		<tag k="max_age" v="5" />
		<tag k="min_age" v="1" />
		<tag k="name" v="Hestavoll barnehage" />
		<tag k="no-barnehage:nsrid" v="875308882" />
		<tag k="operator" v="Ullensvang kommune" />
		<tag k="operator:type" v="public" />
	</node>
	<node lat="60.27855" lon="6.25139" id="-4364">
		<tag k="ADDRESS" v="Vik 1, 5627 JONDAL" />
		<tag k="amenity" v="kindergarten" />
		<tag k="capacity" v="48" />
		<tag k="max_age" v="5" />
		<tag k="min_age" v="1" />
		<tag k="name" v="Jondal barnehage" />
		<tag k="no-barnehage:nsrid" v="975308855" />
		<tag k="operator" v="Ullensvang kommune" />
		<tag k="operator:type" v="public" />
	</node>
	<node lat="60.3689" lon="6.7364" id="-4365">
		<tag k="ADDRESS" v="Husevegen 74, 5780 KINSARVIK" />
		<tag k="amenity" v="kindergarten" />
		<tag k="capacity" v="40" />
		<tag k="max_age" v="5" />
		<tag k="min_age" v="1" />
		<tag k="name" v="Kinsarvik barnehage" />
		<tag k="no-barnehage:nsrid" v="975268306" />
		<tag k="operator" v="Ullensvang kommune" />
		<tag k="operator:type" v="public" />
	</node>
	<node lat="60.05555" lon="6.54751" id="-4366">
		<tag k="ADDRESS" v="Rabben 1, 5750 ODDA" />
		<tag k="amenity" v="kindergarten" />
		<tag k="capacity" v="67" />
		<tag k="contact:website" v="http://rabben.barnehage.odda.no" />
		<tag k="max_age" v="5" />
		<tag k="min_age" v="1" />
		<tag k="name" v="Rabben barnehage" />
		<tag k="no-barnehage:nsrid" v="975308898" />
		<tag k="operator" v="Ullensvang kommune" />
		<tag k="operator:type" v="public" />
	</node>
	<node lat="59.83166" lon="6.81595" id="-4367">
		<tag k="ADDRESS" v="Runnane 4, 5760 RØLDAL" />
		<tag k="amenity" v="kindergarten" />
		<tag k="capacity" v="16" />
		<tag k="contact:website" v="http://ullensvang.kommune.no/?article=roldal-barnehage" />
		<tag k="max_age" v="5" />
		<tag k="min_age" v="1" />
		<tag k="name" v="Røldal barnehage" />
		<tag k="no-barnehage:nsrid" v="975308901" />
		<tag k="operator" v="Ullensvang kommune" />
		<tag k="operator:type" v="public" />
	</node>
	<node lat="60.25957" lon="6.62501" id="-4368">
		<tag k="ADDRESS" v="Seksevegen 12, 5773 HOVLAND" />
		<tag k="amenity" v="kindergarten" />
		<tag k="capacity" v="24" />
		<tag k="max_age" v="5" />
		<tag k="min_age" v="1" />
		<tag k="name" v="Sekse barnehage" />
		<tag k="no-barnehage:nsrid" v="975308979" />
		<tag k="operator" v="Ullensvang kommune" />
		<tag k="operator:type" v="public" />
	</node>
	<node lat="59.93423" lon="6.59588" id="-4369">
		<tag k="ADDRESS" v="Reinsnosvegen 24, 5763 SKARE" />
		<tag k="amenity" v="kindergarten" />
		<tag k="capacity" v="16" />
		<tag k="contact:website" v="http://skare.barnehage.odda.no" />
		<tag k="max_age" v="5" />
		<tag k="min_age" v="1" />
		<tag k="name" v="Skare barnehage" />
		<tag k="no-barnehage:nsrid" v="875308912" />
		<tag k="operator" v="Ullensvang kommune" />
		<tag k="operator:type" v="public" />
	</node>
	<node lat="60.1172" lon="6.5604" id="-4370">
		<tag k="ADDRESS" v="Langåkervegen 1, 5770 TYSSEDAL" />
		<tag k="amenity" v="kindergarten" />
		<tag k="capacity" v="26" />
		<tag k="max_age" v="5" />
		<tag k="min_age" v="1" />
		<tag k="name" v="Tyssedal barnehage" />
		<tag k="no-barnehage:nsrid" v="975308928" />
		<tag k="operator" v="Ullensvang kommune" />
		<tag k="operator:type" v="public" />
	</node>
	<node lat="60.42331" lon="6.62024" id="-4371">
		<tag k="ADDRESS" v="Fjordavegen 4171, 5778 UTNE" />
		<tag k="amenity" v="kindergarten" />
		<tag k="capacity" v="15" />
		<tag k="max_age" v="5" />
		<tag k="min_age" v="1" />
		<tag k="name" v="Utne barnehage" />
		<tag k="no-barnehage:nsrid" v="975296814" />
		<tag k="operator" v="Ullensvang kommune" />
		<tag k="operator:type" v="public" />
	</node>
	<node lat="0.0" lon="0.0" id="-4372">
		<tag k="ADDRESS" v="Veisane, 5781 LOFTHUS" />
		<tag k="amenity" v="kindergarten" />
		<tag k="capacity" v="32" />
		<tag k="contact:website" v="http://ullensvang.kommune.no/?article=veisane-barnehage" />
		<tag k="max_age" v="5" />
		<tag k="min_age" v="1" />
		<tag k="name" v="Veisane barnehage" />
		<tag k="no-barnehage:nsrid" v="976673123" />
		<tag k="operator" v="Ullensvang kommune" />
		<tag k="operator:type" v="public" />
	</node>
</osm>
