<?xml version="1.0" encoding="UTF-8"?>
<osm generator="osmapis" version="0.6">
	<node id="-2633" lat="59.94456" lon="10.9459">
		<tag k="ADDRESS" v="Høybråtenveien 144, 1470 LØRENSKOG" />
		<tag k="amenity" v="kindergarten" />
		<tag k="capacity" v="8" />
		<tag k="max_age" v="2" />
		<tag k="min_age" v="1" />
		<tag k="name" v="Bambi familiebarnehage" />
		<tag k="no-barnehage:nsrid" v="988255947" />
		<tag k="operator" v="Bambi privat Familiebarnehage Avd.1 Songyl Kisin" />
		<tag k="operator:type" v="private" />
	</node>
	<node id="-2644" lat="59.91991" lon="10.96181">
		<tag k="ADDRESS" v="Løkenkollen 13, 1473 LØRENSKOG" />
		<tag k="amenity" v="kindergarten" />
		<tag k="capacity" v="4" />
		<tag k="max_age" v="2" />
		<tag k="min_age" v="1" />
		<tag k="name" v="Gülserens familiebarnehage" />
		<tag k="no-barnehage:nsrid" v="990285098" />
		<tag k="operator" v="Gülserens Familiebarnehage Gülseren Køkyer" />
		<tag k="operator:type" v="private" />
	</node>
	<node id="-2645" lat="59.91529" lon="10.9288">
		<tag k="ADDRESS" v="Sønnaveien 59, 1476 RASTA" />
		<tag k="amenity" v="kindergarten" />
		<tag k="capacity" v="4" />
		<tag k="max_age" v="2" />
		<tag k="min_age" v="1" />
		<tag k="name" v="Hundremeterskogen familiebarnehage" />
		<tag k="no-barnehage:nsrid" v="995108186" />
		<tag k="operator" v="Hundremeterskogen Familiebarnehage avd Ole Brum Eva Fougli Holmsen" />
		<tag k="operator:type" v="private" />
	</node>
	<node id="-2648" lat="59.91363" lon="10.95999">
		<tag k="ADDRESS" v="Finstadsletta 31, 1475 FINSTADJORDET" />
		<tag k="amenity" v="kindergarten" />
		<tag k="capacity" v="4" />
		<tag k="max_age" v="2" />
		<tag k="min_age" v="1" />
		<tag k="name" v="Kløverhagen familiebarnehage 2 Inger Elisabeth Bjørnsrud Olaussen" />
		<tag k="no-barnehage:nsrid" v="890063292" />
		<tag k="operator" v="Kløverhagen Familiebarnehage 2 Inger Elisabeth Bjørnsrud Olaussen" />
		<tag k="operator:type" v="private" />
	</node>
	<node id="-2650" lat="59.93969" lon="10.95734">
		<tag k="ADDRESS" v="Fjellveien 2, 1470 LØRENSKOG" />
		<tag k="amenity" v="kindergarten" />
		<tag k="capacity" v="4" />
		<tag k="max_age" v="2" />
		<tag k="min_age" v="1" />
		<tag k="name" v="Langgrunna private familiebarnehage" />
		<tag k="no-barnehage:nsrid" v="987004436" />
		<tag k="operator" v="Langgrunna Familie barnehage Emine Bitmez" />
		<tag k="operator:type" v="private" />
	</node>
	<node id="-2651" lat="59.94734" lon="10.98954">
		<tag k="ADDRESS" v="Fridtjof Nansens Vei 73, 1464 FJELLHAMAR" />
		<tag k="amenity" v="kindergarten" />
		<tag k="capacity" v="4" />
		<tag k="max_age" v="2" />
		<tag k="min_age" v="1" />
		<tag k="name" v="Lillestjerne familiebarnehage" />
		<tag k="no-barnehage:nsrid" v="988957860" />
		<tag k="operator" v="Lille Stjerne Familiebarnehage Elizabeth Myhre Berntzen" />
		<tag k="operator:type" v="private" />
	</node>
	<node id="-2652" lat="59.94728" lon="10.9886">
		<tag k="ADDRESS" v="Fridtjof Nansens Vei 69, 1464 FJELLHAMAR" />
		<tag k="amenity" v="kindergarten" />
		<tag k="capacity" v="8" />
		<tag k="max_age" v="2" />
		<tag k="min_age" v="1" />
		<tag k="name" v="Luna familiebarnehage avd. Fjellhamar" />
		<tag k="no-barnehage:nsrid" v="988345482" />
		<tag k="operator" v="Luna Familiebarnehage V/helle Slott Hitchinson" />
		<tag k="operator:type" v="private" />
	</node>
	<node id="-2653" lat="59.92599" lon="10.95015">
		<tag k="ADDRESS" v="Torbjørns Vei 23, 1473 LØRENSKOG" />
		<tag k="amenity" v="kindergarten" />
		<tag k="capacity" v="8" />
		<tag k="max_age" v="2" />
		<tag k="min_age" v="1" />
		<tag k="name" v="Luna familiebarnehage avd. Skårer" />
		<tag k="no-barnehage:nsrid" v="918340556" />
		<tag k="operator" v="Luna Familiebarnehage V/helle Slott Hitchinson" />
		<tag k="operator:type" v="private" />
	</node>
	<node id="-2657" lat="59.93756" lon="10.96085">
		<tag k="ADDRESS" v="Myrveien 9, 1470 LØRENSKOG" />
		<tag k="amenity" v="kindergarten" />
		<tag k="capacity" v="4" />
		<tag k="max_age" v="2" />
		<tag k="min_age" v="1" />
		<tag k="name" v="Lørenskog familiebarnehage" />
		<tag k="no-barnehage:nsrid" v="995108208" />
		<tag k="operator" v="Lørenskog Familiebarnehage Anne Grethe Solheim Varga" />
		<tag k="operator:type" v="private" />
	</node>
	<node id="-2664" lat="59.91991" lon="10.96181">
		<tag k="ADDRESS" v="Løkenkollen 13, 1473 LØRENSKOG" />
		<tag k="amenity" v="kindergarten" />
		<tag k="capacity" v="4" />
		<tag k="max_age" v="2" />
		<tag k="min_age" v="1" />
		<tag k="name" v="Småknøttene familiebarnehage" />
		<tag k="no-barnehage:nsrid" v="986707093" />
		<tag k="operator" v="Småknøttene Familiebarnehage Cathrine Stokmann Solberg" />
		<tag k="operator:type" v="private" />
	</node>
	<node id="-2666" lat="59.92652" lon="10.95241">
		<tag k="ADDRESS" v="Ragnhilds Vei 2a, 1473 LØRENSKOG" />
		<tag k="amenity" v="kindergarten" />
		<tag k="capacity" v="4" />
		<tag k="max_age" v="5" />
		<tag k="min_age" v="1" />
		<tag k="name" v="Solheim familiebarnehage" />
		<tag k="no-barnehage:nsrid" v="995108216" />
		<tag k="operator" v="Solheim Familiebarnehage Nr 2 Monica Ellefsen" />
		<tag k="operator:type" v="private" />
	</node>
</osm>
