<?xml version="1.0" encoding="UTF-8"?>
<osm version="0.6" generator="osmapis">
	<node lat="59.93092" lon="10.99111" id="-2573">
		<tag k="ADDRESS" v="Nordbyhagaveien 35, 1474 LØRENSKOG" />
		<tag k="amenity" v="kindergarten" />
		<tag k="capacity" v="58" />
		<tag k="max_age" v="5" />
		<tag k="min_age" v="1" />
		<tag k="name" v="Ahus Nordbyhagen barnehage 2" />
		<tag k="no-barnehage:nsrid" v="986383670" />
		<tag k="operator" v="Akershus Universitetssykehus Hf" />
	</node>
	<node lat="59.932" lon="10.99035" id="-2574">
		<tag k="ADDRESS" v="Nordbyhagaveien 31, 1474 LØRENSKOG" />
		<tag k="amenity" v="kindergarten" />
		<tag k="capacity" v="76" />
		<tag k="max_age" v="5" />
		<tag k="min_age" v="1" />
		<tag k="name" v="Ahus Nordbyhagen barnehage 3" />
		<tag k="no-barnehage:nsrid" v="986383719" />
		<tag k="operator" v="Akershus Universitetssykehus Hf" />
	</node>
	<node lat="59.93221" lon="10.98919" id="-2575">
		<tag k="ADDRESS" v="Nordbyhagaveien 27, 1474 LØRENSKOG" />
		<tag k="amenity" v="kindergarten" />
		<tag k="capacity" v="73" />
		<tag k="max_age" v="5" />
		<tag k="min_age" v="1" />
		<tag k="name" v="Ahus Nordbyhagen barnehage 4" />
		<tag k="no-barnehage:nsrid" v="986383778" />
		<tag k="operator" v="Akershus Universitetssykehus Hf" />
	</node>
	<node lat="59.93147" lon="10.9892" id="-2576">
		<tag k="ADDRESS" v="Nordbyhagaveien 29, 1474 LØRENSKOG" />
		<tag k="amenity" v="kindergarten" />
		<tag k="capacity" v="68" />
		<tag k="max_age" v="5" />
		<tag k="min_age" v="1" />
		<tag k="name" v="Ahus Nordbyhagen barnehage 5" />
		<tag k="no-barnehage:nsrid" v="986383794" />
		<tag k="operator" v="Akershus Universitetssykehus Hf" />
	</node>
	<node lat="59.93133" lon="10.99089" id="-2577">
		<tag k="ADDRESS" v="Nordbyhagaveien 33, 1474 LØRENSKOG" />
		<tag k="amenity" v="kindergarten" />
		<tag k="capacity" v="60" />
		<tag k="contact:website" v="http://www.ahusbarnehagene.no" />
		<tag k="max_age" v="5" />
		<tag k="min_age" v="1" />
		<tag k="name" v="Ahus-barnehagene barnehage 1" />
		<tag k="no-barnehage:nsrid" v="974706512" />
		<tag k="operator" v="Akershus Universitetssykehus Hf" />
	</node>
	<node lat="59.91665" lon="10.95037" id="-2579">
		<tag k="ADDRESS" v="Tunveien 5B, 1475 FINSTADJORDET" />
		<tag k="amenity" v="kindergarten" />
		<tag k="capacity" v="70" />
		<tag k="max_age" v="5" />
		<tag k="min_age" v="1" />
		<tag k="name" v="Benterud barnehage" />
		<tag k="no-barnehage:nsrid" v="980891186" />
		<tag k="operator" v="Lørenskog kommune" />
		<tag k="operator:type" v="public" />
	</node>
	<node lat="59.91637" lon="10.95458" id="-2580">
		<tag k="ADDRESS" v="Kåre B. Werners gate 111, 1475 FINSTADJORDET" />
		<tag k="amenity" v="kindergarten" />
		<tag k="capacity" v="109" />
		<tag k="contact:website" v="http://www.lorenskog.kommune.no/berger-barnehage/om-barnehagen/om-oss/" />
		<tag k="max_age" v="5" />
		<tag k="min_age" v="1" />
		<tag k="name" v="Berger barnehage" />
		<tag k="no-barnehage:nsrid" v="925451193" />
		<tag k="operator" v="Lørenskog kommune" />
		<tag k="operator:type" v="public" />
	</node>
	<node lat="59.94016" lon="11.0108" id="-2581">
		<tag k="ADDRESS" v="Bårlibråten 8, 1467 STRØMMEN" />
		<tag k="amenity" v="kindergarten" />
		<tag k="capacity" v="86" />
		<tag k="contact:website" v="http://www.lorenskog.kommune.no/barliskogen-barnehage/kontakt-oss/" />
		<tag k="max_age" v="5" />
		<tag k="min_age" v="1" />
		<tag k="name" v="Bårliskogen barnehage" />
		<tag k="no-barnehage:nsrid" v="992506652" />
		<tag k="operator" v="Lørenskog kommune" />
		<tag k="operator:type" v="public" />
	</node>
	<node lat="59.92303" lon="10.93947" id="-2582">
		<tag k="ADDRESS" v="Gamleveien 46, 1461 LØRENSKOG" />
		<tag k="amenity" v="kindergarten" />
		<tag k="capacity" v="68" />
		<tag k="contact:website" v="http://www.lorenskog.kommune.no/eventyrstua-barnehage/" />
		<tag k="max_age" v="5" />
		<tag k="min_age" v="1" />
		<tag k="name" v="Eventyrstua barnehage" />
		<tag k="no-barnehage:nsrid" v="991479996" />
		<tag k="operator" v="Lørenskog kommune" />
		<tag k="operator:type" v="public" />
	</node>
	<node lat="59.91215" lon="10.96515" id="-2583">
		<tag k="ADDRESS" v="Finstadrabben 148, 1475 FINSTADJORDET" />
		<tag k="amenity" v="kindergarten" />
		<tag k="capacity" v="56" />
		<tag k="contact:website" v="http://www.lorenskog.kommune.no/finstad-barnehage/" />
		<tag k="max_age" v="5" />
		<tag k="min_age" v="1" />
		<tag k="name" v="Finstad barnehage" />
		<tag k="no-barnehage:nsrid" v="975301850" />
		<tag k="operator" v="Lørenskog kommune" />
		<tag k="operator:type" v="public" />
	</node>
	<node lat="59.94057" lon="10.97683" id="-2584">
		<tag k="ADDRESS" v="Haneborgveien 83, 1463 FJELLHAMAR" />
		<tag k="amenity" v="kindergarten" />
		<tag k="capacity" v="75" />
		<tag k="contact:website" v="http://www.lorenskog.kommune.no/fjellhamar-barnehage/" />
		<tag k="max_age" v="5" />
		<tag k="min_age" v="1" />
		<tag k="name" v="Fjellhamar barnehage" />
		<tag k="no-barnehage:nsrid" v="975301869" />
		<tag k="operator" v="Lørenskog kommune" />
		<tag k="operator:type" v="public" />
	</node>
	<node lat="59.94049" lon="10.98678" id="-2585">
		<tag k="ADDRESS" v="Fjellhamarveien 50, 1472 FJELLHAMAR" />
		<tag k="amenity" v="kindergarten" />
		<tag k="capacity" v="51" />
		<tag k="contact:website" v="http://www.lorenskog.kommune.no/fjellhamar-gard-barnehage" />
		<tag k="max_age" v="5" />
		<tag k="min_age" v="1" />
		<tag k="name" v="Fjellhamar gård barnehage" />
		<tag k="no-barnehage:nsrid" v="921093713" />
		<tag k="operator" v="Lørenskog kommune" />
		<tag k="operator:type" v="public" />
	</node>
	<node lat="59.93605" lon="10.97603" id="-2586">
		<tag k="ADDRESS" v="Per Sivles vei 41, 1462 FJELLHAMAR" />
		<tag k="amenity" v="kindergarten" />
		<tag k="capacity" v="111" />
		<tag k="contact:website" v="http://www.lorenskog.kommune.no/fjellsrud-barnehage/" />
		<tag k="max_age" v="5" />
		<tag k="min_age" v="1" />
		<tag k="name" v="Fjellsrud barnehage" />
		<tag k="no-barnehage:nsrid" v="975325938" />
		<tag k="operator" v="Lørenskog kommune" />
		<tag k="operator:type" v="public" />
	</node>
	<node lat="59.9431" lon="10.9547" id="-2587">
		<tag k="ADDRESS" v="Skogblomstveien 2, 1470 LØRENSKOG" />
		<tag k="amenity" v="kindergarten" />
		<tag k="capacity" v="105" />
		<tag k="contact:website" v="http://www.lorenskog.kommune.no/framtia-barnehage" />
		<tag k="max_age" v="5" />
		<tag k="min_age" v="1" />
		<tag k="name" v="Framtia barnehage" />
		<tag k="no-barnehage:nsrid" v="918282203" />
		<tag k="operator" v="Lørenskog kommune" />
		<tag k="operator:type" v="public" />
	</node>
	<node lat="59.94503" lon="10.98756" id="-2588">
		<tag k="ADDRESS" v="Fredlyveien 13, 1464 FJELLHAMAR" />
		<tag k="amenity" v="kindergarten" />
		<tag k="capacity" v="83" />
		<tag k="contact:website" v="http://www.lorensksog.kommune.no/gronlia-barnehage" />
		<tag k="max_age" v="5" />
		<tag k="min_age" v="1" />
		<tag k="name" v="Grønlia barnehage" />
		<tag k="no-barnehage:nsrid" v="975301877" />
		<tag k="operator" v="Lørenskog kommune" />
		<tag k="operator:type" v="public" />
	</node>
	<node lat="0.0" lon="0.0" id="-2591">
		<tag k="ADDRESS" v="Mailandveien 7, 1473 LØRENSKOG" />
		<tag k="amenity" v="kindergarten" />
		<tag k="capacity" v="89" />
		<tag k="contact:website" v="http://www.lorenskog.kommune/kjenn-barnehage/" />
		<tag k="max_age" v="5" />
		<tag k="min_age" v="1" />
		<tag k="name" v="Kjenn barnehage" />
		<tag k="no-barnehage:nsrid" v="975315487" />
		<tag k="operator" v="Lørenskog kommune" />
		<tag k="operator:type" v="public" />
	</node>
	<node lat="59.92446" lon="10.94993" id="-2592">
		<tag k="ADDRESS" v="Ole Reistads vei 2, 1473 LØRENSKOG" />
		<tag k="amenity" v="kindergarten" />
		<tag k="capacity" v="22" />
		<tag k="contact:website" v="http://www.lorenskog.kommune.no/klubben-barnehage" />
		<tag k="max_age" v="5" />
		<tag k="min_age" v="1" />
		<tag k="name" v="Klubben barnehage" />
		<tag k="no-barnehage:nsrid" v="975323080" />
		<tag k="operator" v="Lørenskog kommune" />
		<tag k="operator:type" v="public" />
	</node>
	<node lat="59.93299" lon="11.01848" id="-2595">
		<tag k="ADDRESS" v="Sandbekkveien 101, 1479 KURLAND" />
		<tag k="amenity" v="kindergarten" />
		<tag k="capacity" v="83" />
		<tag k="max_age" v="5" />
		<tag k="min_age" v="1" />
		<tag k="name" v="Kurland barnehage" />
		<tag k="no-barnehage:nsrid" v="975318222" />
		<tag k="operator" v="Lørenskog kommune" />
		<tag k="operator:type" v="public" />
	</node>
	<node lat="59.94267" lon="10.95719" id="-2600">
		<tag k="ADDRESS" v="Haneborgveien 28, 1463 FJELLHAMAR" />
		<tag k="amenity" v="kindergarten" />
		<tag k="capacity" v="46" />
		<tag k="max_age" v="5" />
		<tag k="min_age" v="1" />
		<tag k="name" v="Læringsverkstedet barnehage avd. Margaretalia" />
		<tag k="no-barnehage:nsrid" v="976344529" />
		<tag k="operator" v="Læringsverkstedet AS" />
		<tag k="operator:type" v="private" />
	</node>
	<node lat="59.91539" lon="10.96049" id="-2601">
		<tag k="ADDRESS" v="Snøklokkeveien 4, 1475 FINSTADJORDET" />
		<tag k="amenity" v="kindergarten" />
		<tag k="capacity" v="90" />
		<tag k="contact:website" v="http://www.lorenskog.kommune.no/loken-barnehage" />
		<tag k="max_age" v="5" />
		<tag k="min_age" v="1" />
		<tag k="name" v="Løken barnehage" />
		<tag k="no-barnehage:nsrid" v="975301885" />
		<tag k="operator" v="Lørenskog kommune" />
		<tag k="operator:type" v="public" />
	</node>
	<node lat="59.91919" lon="10.96052" id="-2602">
		<tag k="ADDRESS" v="Løkenåsveien 43, 1473 LØRENSKOG" />
		<tag k="amenity" v="kindergarten" />
		<tag k="capacity" v="159" />
		<tag k="contact:website" v="http://www.lorenskog.kommune.no/lokenasen-barnehage" />
		<tag k="max_age" v="5" />
		<tag k="min_age" v="1" />
		<tag k="name" v="Løkenåsen barnehage" />
		<tag k="no-barnehage:nsrid" v="975301893" />
		<tag k="operator" v="Lørenskog kommune" />
		<tag k="operator:type" v="public" />
	</node>
	<node lat="59.91246" lon="10.97504" id="-2604">
		<tag k="ADDRESS" v="Nesåsveien 20, 1475 FINSTADJORDET" />
		<tag k="amenity" v="kindergarten" />
		<tag k="capacity" v="53" />
		<tag k="contact:website" v="http://www.nesaasen.barnehage.no" />
		<tag k="max_age" v="5" />
		<tag k="min_age" v="1" />
		<tag k="name" v="Nesåsen barnehage" />
		<tag k="no-barnehage:nsrid" v="984230419" />
		<tag k="operator" v="Nesåsen barnehage SA" />
		<tag k="operator:type" v="private" />
	</node>
	<node lat="59.94206" lon="10.97705" id="-2605">
		<tag k="ADDRESS" v="Iduns vei 8, 1463 FJELLHAMAR" />
		<tag k="amenity" v="kindergarten" />
		<tag k="capacity" v="50" />
		<tag k="max_age" v="5" />
		<tag k="min_age" v="1" />
		<tag k="name" v="Norlandia Tre Troll barnehage" />
		<tag k="no-barnehage:nsrid" v="985828873" />
		<tag k="operator" v="Norlandia barnehagene AS" />
		<tag k="operator:type" v="private" />
	</node>
	<node lat="59.92312" lon="10.94055" id="-2606">
		<tag k="ADDRESS" v="Gamleveien 44, 1461 LØRENSKOG" />
		<tag k="amenity" v="kindergarten" />
		<tag k="capacity" v="114" />
		<tag k="max_age" v="5" />
		<tag k="min_age" v="1" />
		<tag k="name" v="Rasta barnehage" />
		<tag k="no-barnehage:nsrid" v="975301907" />
		<tag k="operator" v="Lørenskog kommune" />
		<tag k="operator:type" v="public" />
	</node>
	<node lat="0.0" lon="0.0" id="-2607">
		<tag k="ADDRESS" v="Industriveien 7 A, 1461 LØRENSKOG" />
		<tag k="amenity" v="kindergarten" />
		<tag k="capacity" v="41" />
		<tag k="contact:website" v="http://regnbuenbarnehage.net" />
		<tag k="max_age" v="5" />
		<tag k="min_age" v="1" />
		<tag k="name" v="Regnbuen barnehage Lørenskog" />
		<tag k="no-barnehage:nsrid" v="886009232" />
		<tag k="operator" v="Regnbuen barnehage Lørenskog" />
		<tag k="operator:type" v="private" />
	</node>
	<node lat="59.92796" lon="10.94593" id="-2608">
		<tag k="ADDRESS" v="Margarethas vei 13, 1473 LØRENSKOG" />
		<tag k="amenity" v="kindergarten" />
		<tag k="capacity" v="95" />
		<tag k="contact:website" v="http://www.lorenskog.kommune.no/rolvsrud-barnehage/" />
		<tag k="max_age" v="5" />
		<tag k="min_age" v="1" />
		<tag k="name" v="Rolvsrud barnehage" />
		<tag k="no-barnehage:nsrid" v="988317314" />
		<tag k="operator" v="Lørenskog kommune" />
		<tag k="operator:type" v="public" />
	</node>
	<node lat="0.0" lon="0.0" id="-2609">
		<tag k="ADDRESS" v="Bøndernes Hus Løkenåsveien 41, 1473 LØRENSKOG" />
		<tag k="amenity" v="kindergarten" />
		<tag k="capacity" v="27" />
		<tag k="max_age" v="5" />
		<tag k="min_age" v="1" />
		<tag k="name" v="Skårungen barnehave" />
		<tag k="no-barnehage:nsrid" v="973346679" />
		<tag k="operator" v="Skårungen Barnehave SA" />
		<tag k="operator:type" v="private" />
	</node>
	<node lat="59.9243" lon="10.95516" id="-2611">
		<tag k="ADDRESS" v="Løkenåsveien 6, 1473 LØRENSKOG" />
		<tag k="amenity" v="kindergarten" />
		<tag k="capacity" v="82" />
		<tag k="contact:website" v="http://www.lorenskog.kommune.no/solheim-barnehage" />
		<tag k="max_age" v="5" />
		<tag k="min_age" v="1" />
		<tag k="name" v="Solheim barnehage" />
		<tag k="no-barnehage:nsrid" v="975301915" />
		<tag k="operator" v="Lørenskog kommune" />
		<tag k="operator:type" v="public" />
	</node>
	<node lat="59.9136" lon="10.93817" id="-2613">
		<tag k="ADDRESS" v="Kantarellveien 20, 1476 RASTA" />
		<tag k="amenity" v="kindergarten" />
		<tag k="capacity" v="45" />
		<tag k="max_age" v="5" />
		<tag k="min_age" v="1" />
		<tag k="name" v="Stiftelsen Idavollen Steinerbarnehage" />
		<tag k="no-barnehage:nsrid" v="973464906" />
		<tag k="operator" v="Stiftelsen Idavollen steinerbarnehage" />
		<tag k="operator:type" v="private" />
	</node>
	<node lat="59.91837" lon="10.9716" id="-2614">
		<tag k="ADDRESS" v="Konvallveien 26, 1475 FINSTADJORDET" />
		<tag k="amenity" v="kindergarten" />
		<tag k="capacity" v="54" />
		<tag k="contact:website" v="http://www.sorlibarnehage.no" />
		<tag k="max_age" v="5" />
		<tag k="min_age" v="1" />
		<tag k="name" v="Sørli barnehage" />
		<tag k="no-barnehage:nsrid" v="972773816" />
		<tag k="operator" v="Sørli barnehage SA" />
		<tag k="operator:type" v="private" />
	</node>
	<node lat="59.91872" lon="10.94365" id="-2615">
		<tag k="ADDRESS" v="Gamleveien 69, 1476 RASTA" />
		<tag k="amenity" v="kindergarten" />
		<tag k="capacity" v="30" />
		<tag k="max_age" v="5" />
		<tag k="min_age" v="1" />
		<tag k="name" v="Takt og Tone Drømmehagen/ Vallerud musikkbarnehage" />
		<tag k="no-barnehage:nsrid" v="981525337" />
		<tag k="operator" v="Takt og Tone AS" />
		<tag k="operator:type" v="private" />
	</node>
	<node lat="59.92428" lon="10.93051" id="-2616">
		<tag k="ADDRESS" v="Vestaveien 29, 1476 RASTA" />
		<tag k="amenity" v="kindergarten" />
		<tag k="capacity" v="30" />
		<tag k="contact:website" v="http://www.taktogtone.com" />
		<tag k="max_age" v="5" />
		<tag k="min_age" v="1" />
		<tag k="name" v="Takt og Tone Eventyrskogen/røykås musikkbarnehage" />
		<tag k="no-barnehage:nsrid" v="892310262" />
		<tag k="operator" v="Takt og Tone AS" />
		<tag k="operator:type" v="private" />
	</node>
	<node lat="59.91375" lon="10.93646" id="-2617">
		<tag k="ADDRESS" v="Brunskrubbveien 2, 1476 RASTA" />
		<tag k="amenity" v="kindergarten" />
		<tag k="capacity" v="62" />
		<tag k="contact:website" v="http://www.lorenskog.kommune.no/vallerud-barnehage/" />
		<tag k="max_age" v="5" />
		<tag k="min_age" v="1" />
		<tag k="name" v="Vallerud barnehage" />
		<tag k="no-barnehage:nsrid" v="975301923" />
		<tag k="operator" v="Lørenskog kommune" />
		<tag k="operator:type" v="public" />
	</node>
	<node lat="59.93414" lon="10.96457" id="-2618">
		<tag k="ADDRESS" v="Sloraveien 14E, 1462 FJELLHAMAR" />
		<tag k="amenity" v="kindergarten" />
		<tag k="capacity" v="52" />
		<tag k="contact:website" v="http://vangen.barnehage.no" />
		<tag k="max_age" v="5" />
		<tag k="min_age" v="1" />
		<tag k="name" v="Vangen barnehage" />
		<tag k="no-barnehage:nsrid" v="973484265" />
		<tag k="operator" v="Vangen barnehage SA" />
		<tag k="operator:type" v="private" />
	</node>
	<node lat="59.91936" lon="10.94527" id="-2619">
		<tag k="ADDRESS" v="Åsheimveien 129, 1461 LØRENSKOG" />
		<tag k="amenity" v="kindergarten" />
		<tag k="capacity" v="78" />
		<tag k="max_age" v="5" />
		<tag k="min_age" v="1" />
		<tag k="name" v="Åsheimskog FUS barnehage" />
		<tag k="no-barnehage:nsrid" v="988267740" />
		<tag k="operator" v="Åsheimskog Fus barnehage AS" />
		<tag k="operator:type" v="private" />
	</node>
</osm>
