<?xml version="1.0" encoding="UTF-8"?>
<osm generator="osmapis" version="0.6">
	<node id="-4376" lat="59.64088" lon="6.30734">
		<tag k="ADDRESS" v="Hedlot 7, 4208 SAUDASJØEN" />
		<tag k="amenity" v="kindergarten" />
		<tag k="capacity" v="41" />
		<tag k="max_age" v="5" />
		<tag k="min_age" v="1" />
		<tag k="name" v="Leabøen barnehage" />
		<tag k="no-barnehage:nsrid" v="1018098" />
		<tag k="operator" v="Sauda kommune" />
		<tag k="operator:type" v="public" />
	</node>
	<node id="-4375" lat="59.6535" lon="6.37996">
		<tag k="ADDRESS" v="Andersengja 17, 4200 SAUDA" />
		<tag k="amenity" v="kindergarten" />
		<tag k="capacity" v="71" />
		<tag k="contact:website" v="http://brakamoen-barnehage.no" />
		<tag k="max_age" v="5" />
		<tag k="min_age" v="1" />
		<tag k="name" v="Brakamoen barnehage" />
		<tag k="no-barnehage:nsrid" v="1019991" />
		<tag k="operator" v="Brakamoen barnehage Sa" />
		<tag k="operator:type" v="private" />
	</node>
	<node id="-4379" lat="59.65125" lon="6.3665">
		<tag k="ADDRESS" v="Torsveien 91, 4200 SAUDA" />
		<tag k="amenity" v="kindergarten" />
		<tag k="capacity" v="69" />
		<tag k="max_age" v="5" />
		<tag k="min_age" v="1" />
		<tag k="name" v="Veslefrikk barnehage" />
		<tag k="no-barnehage:nsrid" v="1016932" />
		<tag k="operator" v="Sauda kommune" />
		<tag k="operator:type" v="public" />
	</node>
	<node id="-4378" lat="59.65276" lon="6.36374">
		<tag k="ADDRESS" v="Allegaten 52, 4200 SAUDA" />
		<tag k="amenity" v="kindergarten" />
		<tag k="max_age" v="5" />
		<tag k="min_age" v="1" />
		<tag k="name" v="Småtrollingan familiebarnehage" />
		<tag k="no-barnehage:nsrid" v="1021294" />
		<tag k="operator" v="Smårollingan Familiebarnehage, Avd. Soltun Heidi Merete Breida" />
		<tag k="operator:type" v="private" />
	</node>
	<node id="-4377" lat="0.0" lon="0.0">
		<tag k="ADDRESS" v="Rustå 27 A, 4200 SAUDA" />
		<tag k="amenity" v="kindergarten" />
		<tag k="capacity" v="42" />
		<tag k="max_age" v="5" />
		<tag k="min_age" v="1" />
		<tag k="name" v="Rustå barnehage" />
		<tag k="no-barnehage:nsrid" v="1018097" />
		<tag k="operator" v="Sauda kommune" />
		<tag k="operator:type" v="public" />
	</node>
</osm>
