<?xml version="1.0" encoding="UTF-8"?>
<osm generator="osmapis" version="0.6">
	<node id="-3732" lat="59.6544" lon="6.3695">
		<tag k="amenity" v="kindergarten" />
		<tag k="capacity" v="49" />
		<tag k="contact:email" v="Veslefrikk.barnehage@sauda.kommune.no" />
		<tag k="contact:phone" v="+47 52 78 38 89" />
		<tag k="max_age" v="5" />
		<tag k="min_age" v="1" />
		<tag k="name" v="Veslefrikk barnehage" />
		<tag k="no-barnehage:nsrid" v="1016932" />
		<tag k="operator" v="Sauda kommune" />
		<tag k="operator:type" v="public" />
		<tag k="start_date" v="1971-12-29" />
	</node>
	<node id="-3731" lat="59.6578" lon="6.37815">
		<tag k="amenity" v="kindergarten" />
		<tag k="capacity" v="50" />
		<tag k="contact:email" v="marit-helen.holland@sauda.kommune.no" />
		<tag k="contact:phone" v="+47 52 78 27 53" />
		<tag k="max_age" v="5" />
		<tag k="min_age" v="1" />
		<tag k="name" v="Rustå barnehage" />
		<tag k="no-barnehage:nsrid" v="1018097" />
		<tag k="operator" v="Sauda kommune" />
		<tag k="operator:type" v="public" />
		<tag k="start_date" v="1989-01-01" />
	</node>
	<node id="-3730" lat="59.6409" lon="6.30734">
		<tag k="amenity" v="kindergarten" />
		<tag k="capacity" v="50" />
		<tag k="contact:email" v="camilla.eikevik@sauda.kommune.no" />
		<tag k="contact:phone" v="+47 52 78 12 51" />
		<tag k="max_age" v="5" />
		<tag k="min_age" v="1" />
		<tag k="name" v="Leabøen barnehage" />
		<tag k="no-barnehage:nsrid" v="1018098" />
		<tag k="operator" v="Sauda kommune" />
		<tag k="operator:type" v="public" />
		<tag k="start_date" v="1989-01-01" />
	</node>
	<node id="-3729" lat="59.6535" lon="6.379963">
		<tag k="amenity" v="kindergarten" />
		<tag k="capacity" v="91" />
		<tag k="contact:email" v="laila.stodle@brakamoen-barnehage.no" />
		<tag k="contact:phone" v="+47 52 78 56 10" />
		<tag k="contact:website" v="http://brakamoen-barnehage.no" />
		<tag k="max_age" v="5" />
		<tag k="min_age" v="1" />
		<tag k="name" v="Brakamoen barnehage Sa" />
		<tag k="no-barnehage:nsrid" v="1019991" />
		<tag k="operator" v="Brakamoen barnehage Sa" />
		<tag k="operator:type" v="private" />
		<tag k="start_date" v="1991-10-01" />
	</node>
</osm>
