<?xml version="1.0" encoding="UTF-8"?>
<osm generator="osmapis" version="0.6">
	<node id="-1608" lat="61.5745" lon="9.73614">
		<tag k="amenity" v="kindergarten" />
		<tag k="capacity" v="76" />
		<tag k="max_age" v="5" />
		<tag k="min_age" v="1" />
		<tag k="name" v="Ruste barnehage" />
		<tag k="no-barnehage:nsrid" v="1013950" />
		<tag k="operator" v="Nord-Fron kommune" />
		<tag k="operator:type" v="public" />
	</node>
	<node id="-1607" lat="61.666" lon="9.69132">
		<tag k="amenity" v="kindergarten" />
		<tag k="capacity" v="42" />
		<tag k="max_age" v="5" />
		<tag k="min_age" v="1" />
		<tag k="name" v="Kvam barnehage Ã…a" />
		<tag k="no-barnehage:nsrid" v="1014717" />
		<tag k="operator" v="Nord-Fron kommune" />
		<tag k="operator:type" v="public" />
	</node>
	<node id="-1609" lat="61.59827" lon="9.742801">
		<tag k="amenity" v="kindergarten" />
		<tag k="capacity" v="18" />
		<tag k="max_age" v="2" />
		<tag k="min_age" v="1" />
		<tag k="name" v="Sentrum barnehage" />
		<tag k="no-barnehage:nsrid" v="1025466" />
		<tag k="operator" v="Sentrum barnehage AS" />
		<tag k="operator:type" v="private" />
	</node>
</osm>
