<?xml version="1.0" encoding="UTF-8"?>
<osm generator="osmapis" version="0.6">
	<node id="-2080" lat="61.59827" lon="9.742801">
		<tag k="amenity" v="kindergarten" />
		<tag k="capacity" v="18" />
		<tag k="contact:email" v="sentrumbhg@yahoo.no" />
		<tag k="max_age" v="2" />
		<tag k="min_age" v="1" />
		<tag k="name" v="Sentrum barnehage AS" />
		<tag k="no-barnehage:nsrid" v="1025466" />
		<tag k="operator" v="Sentrum barnehage AS" />
		<tag k="operator:type" v="private" />
		<tag k="start_date" v="2014-06-02" />
	</node>
	<node id="-2079" lat="61.5745" lon="9.73614">
		<tag k="amenity" v="kindergarten" />
		<tag k="capacity" v="68" />
		<tag k="contact:email" v="kari.bragelien@nord-fron.kommune.no" />
		<tag k="contact:phone" v="+47 61 29 53 00" />
		<tag k="max_age" v="5" />
		<tag k="min_age" v="1" />
		<tag k="name" v="Ruste barnehage" />
		<tag k="no-barnehage:nsrid" v="1013950" />
		<tag k="operator" v="Nord-Fron kommune" />
		<tag k="operator:type" v="public" />
		<tag k="start_date" v="1990-01-01" />
	</node>
	<node id="-2078" lat="61.666" lon="9.69132">
		<tag k="amenity" v="kindergarten" />
		<tag k="capacity" v="48" />
		<tag k="contact:email" v="gro.sandbu.randen@nord-fron.kommune.no" />
		<tag k="contact:phone" v="+47 61216147" />
		<tag k="max_age" v="5" />
		<tag k="min_age" v="1" />
		<tag k="name" v="Kvam barnehage Åa" />
		<tag k="no-barnehage:nsrid" v="1014717" />
		<tag k="operator" v="Nord-Fron kommune" />
		<tag k="operator:type" v="public" />
		<tag k="start_date" v="1992-08-01" />
	</node>
	<node id="-2084" lat="61.60234" lon="9.719044">
		<tag k="amenity" v="kindergarten" />
		<tag k="capacity" v="25" />
		<tag k="contact:email" v="anbrub@online.no" />
		<tag k="contact:phone" v="+47 930 94 217" />
		<tag k="max_age" v="5" />
		<tag k="min_age" v="1" />
		<tag k="name" v="Vestsida Kulturbarnehage" />
		<tag k="no-barnehage:nsrid" v="1021760" />
		<tag k="operator" v="Vestsida Kulturbarnehage Brubak" />
		<tag k="operator:type" v="private" />
		<tag k="start_date" v="2008-01-01" />
	</node>
	<node id="-2083" lat="61.5913" lon="9.75994">
		<tag k="amenity" v="kindergarten" />
		<tag k="capacity" v="55" />
		<tag k="contact:email" v="anne.stakston@nord-fron.kommune.no" />
		<tag k="contact:phone" v="+47 61216252" />
		<tag k="max_age" v="5" />
		<tag k="min_age" v="1" />
		<tag k="name" v="Toksebakken barnehage" />
		<tag k="no-barnehage:nsrid" v="1017614" />
		<tag k="operator" v="Nord-Fron kommune" />
		<tag k="operator:type" v="public" />
		<tag k="start_date" v="1988-04-01" />
	</node>
	<node id="-2081" lat="61.5294" lon="9.41624">
		<tag k="amenity" v="kindergarten" />
		<tag k="capacity" v="11" />
		<tag k="contact:email" v="ola.sletten@nord-fron.kommune.no" />
		<tag k="contact:phone" v="+47 61 29 58 47" />
		<tag k="max_age" v="5" />
		<tag k="min_age" v="1" />
		<tag k="name" v="Skåbu Oppvekstsenter Avd Barnehage" />
		<tag k="no-barnehage:nsrid" v="1013745" />
		<tag k="operator" v="Nord-Fron kommune" />
		<tag k="operator:type" v="public" />
		<tag k="start_date" v="1989-01-01" />
	</node>
</osm>
