<?xml version="1.0" encoding="UTF-8"?>
<osm version="0.6" generator="osmapis">
	<node lat="0.0" lon="0.0" id="-1591">
		<tag k="ADDRESS" v="Bonå, 8264 ENGAN" />
		<tag k="amenity" v="kindergarten" />
		<tag k="capacity" v="2" />
		<tag k="max_age" v="5" />
		<tag k="min_age" v="1" />
		<tag k="name" v="Nordsia oppvekstsenter barnehage" />
		<tag k="no-barnehage:nsrid" v="915854052" />
		<tag k="operator" v="Sørfold kommune" />
		<tag k="operator:type" v="public" />
	</node>
	<node lat="67.4771" lon="15.45981" id="-1592">
		<tag k="ADDRESS" v="Røsvikveien 1520, 8220 RØSVIK" />
		<tag k="amenity" v="kindergarten" />
		<tag k="capacity" v="8" />
		<tag k="max_age" v="5" />
		<tag k="min_age" v="1" />
		<tag k="name" v="Røsvik oppvekstsenter barnehage" />
		<tag k="no-barnehage:nsrid" v="974049562" />
		<tag k="operator" v="Sørfold kommune" />
		<tag k="operator:type" v="public" />
	</node>
	<node lat="67.34346" lon="15.59536" id="-1593">
		<tag k="ADDRESS" v="Idrettsveien 2, 8226 STRAUMEN" />
		<tag k="amenity" v="kindergarten" />
		<tag k="capacity" v="48" />
		<tag k="max_age" v="5" />
		<tag k="min_age" v="1" />
		<tag k="name" v="Straumen barnehage" />
		<tag k="no-barnehage:nsrid" v="975297098" />
		<tag k="operator" v="Sørfold kommune" />
		<tag k="operator:type" v="public" />
	</node>
</osm>
