<?xml version="1.0" encoding="UTF-8"?>
<osm generator="osmapis" version="0.6">
	<node id="-5635" lat="67.3435" lon="15.5954">
		<tag k="amenity" v="kindergarten" />
		<tag k="capacity" v="49" />
		<tag k="contact:email" v="brith.danielsen@sorfold.kommune.no" />
		<tag k="max_age" v="5" />
		<tag k="min_age" v="1" />
		<tag k="name" v="Straumen barnehage" />
		<tag k="no-barnehage:nsrid" v="1017405" />
		<tag k="operator" v="Sørfold kommune" />
		<tag k="operator:type" v="public" />
		<tag k="start_date" v="1978-12-18" />
	</node>
	<node id="-5634" lat="67.60393" lon="15.72704">
		<tag k="amenity" v="kindergarten" />
		<tag k="capacity" v="3" />
		<tag k="contact:email" v="ahn@sorfold.kommune.no" />
		<tag k="max_age" v="5" />
		<tag k="min_age" v="1" />
		<tag k="name" v="Nordsia Oppvekstsenter barnehage" />
		<tag k="no-barnehage:nsrid" v="1026114" />
		<tag k="operator" v="Sørfold kommune" />
		<tag k="operator:type" v="public" />
		<tag k="start_date" v="2015-08-01" />
	</node>
	<node id="-5633" lat="67.4771" lon="15.4598">
		<tag k="amenity" v="kindergarten" />
		<tag k="capacity" v="15" />
		<tag k="contact:email" v="lea@sorfold.kommune.no" />
		<tag k="max_age" v="5" />
		<tag k="min_age" v="1" />
		<tag k="name" v="Løkta barnehage" />
		<tag k="no-barnehage:nsrid" v="1016139" />
		<tag k="operator" v="Sørfold kommune" />
		<tag k="operator:type" v="public" />
		<tag k="start_date" v="1989-01-01" />
	</node>
</osm>
