<?xml version="1.0" encoding="UTF-8"?>
<osm generator="osmapis" version="0.6">
	<node id="-5312" lat="59.56259" lon="9.25625">
		<tag k="ADDRESS" v="Huvestads Gate 6, 3675 NOTODDEN" />
		<tag k="amenity" v="kindergarten" />
		<tag k="capacity" v="87" />
		<tag k="max_age" v="5" />
		<tag k="min_age" v="1" />
		<tag k="name" v="NLM barnehagene avd. Tinnesmoen barnehage" />
		<tag k="no-barnehage:nsrid" v="1016188" />
		<tag k="operator" v="Nlm-Barnehagene AS" />
		<tag k="operator:type" v="private" />
	</node>
	<node id="-5311" lat="59.57226" lon="9.25901">
		<tag k="ADDRESS" v="Langkåsveien 16, 3675 NOTODDEN" />
		<tag k="amenity" v="kindergarten" />
		<tag k="capacity" v="60" />
		<tag k="max_age" v="5" />
		<tag k="min_age" v="1" />
		<tag k="name" v="Meaksmoen barnehage" />
		<tag k="no-barnehage:nsrid" v="1015455" />
		<tag k="operator" v="Notodden kommune" />
		<tag k="operator:type" v="public" />
	</node>
	<node id="-5309" lat="59.50842" lon="9.33376">
		<tag k="ADDRESS" v="Breisetvegen 46, 3683 NOTODDEN" />
		<tag k="amenity" v="kindergarten" />
		<tag k="capacity" v="20" />
		<tag k="max_age" v="5" />
		<tag k="min_age" v="1" />
		<tag k="name" v="Læringsverkstedet barnehage Sauarhagene avd. Hjuksebø" />
		<tag k="no-barnehage:nsrid" v="1012565" />
		<tag k="operator" v="Læringsverkstedet AS" />
		<tag k="operator:type" v="private" />
	</node>
	<node id="-5308" lat="59.55973" lon="9.27029">
		<tag k="ADDRESS" v="Kattekleiv 6, 3683 NOTODDEN" />
		<tag k="amenity" v="kindergarten" />
		<tag k="capacity" v="34" />
		<tag k="contact:website" v="http://www.kattkleiv.no" />
		<tag k="max_age" v="5" />
		<tag k="min_age" v="1" />
		<tag k="name" v="Kattekleiv barnehage" />
		<tag k="no-barnehage:nsrid" v="1016022" />
		<tag k="operator" v="Kattekleiv barnehage AS" />
		<tag k="operator:type" v="private" />
	</node>
	<node id="-5307" lat="59.56312" lon="9.29989">
		<tag k="ADDRESS" v="Ola Storengs Veg 2 A, 3684 NOTODDEN" />
		<tag k="amenity" v="kindergarten" />
		<tag k="capacity" v="59" />
		<tag k="max_age" v="5" />
		<tag k="min_age" v="1" />
		<tag k="name" v="Idea Kompetanse avd. barnehage Notodden" />
		<tag k="no-barnehage:nsrid" v="1014820" />
		<tag k="operator" v="Idea Kompetanse AS" />
		<tag k="operator:type" v="private" />
	</node>
	<node id="-5306" lat="0.0" lon="0.0">
		<tag k="ADDRESS" v=", 3691 GRANSHERAD" />
		<tag k="amenity" v="kindergarten" />
		<tag k="capacity" v="26" />
		<tag k="max_age" v="5" />
		<tag k="min_age" v="1" />
		<tag k="name" v="Gransherad barnehage" />
		<tag k="no-barnehage:nsrid" v="1018038" />
		<tag k="operator" v="Notodden kommune" />
		<tag k="operator:type" v="public" />
	</node>
	<node id="-5305" lat="59.57706" lon="9.1853">
		<tag k="ADDRESS" v="Heddalsvegen 350, 3676 NOTODDEN" />
		<tag k="amenity" v="kindergarten" />
		<tag k="capacity" v="22" />
		<tag k="max_age" v="5" />
		<tag k="min_age" v="1" />
		<tag k="name" v="Betesda barnehage" />
		<tag k="no-barnehage:nsrid" v="1020204" />
		<tag k="operator" v="Betesda barnehage" />
		<tag k="operator:type" v="private" />
	</node>
	<node id="-5304" lat="59.56023" lon="9.26134">
		<tag k="ADDRESS" v="Hydros Gate 9, 3674 NOTODDEN" />
		<tag k="amenity" v="kindergarten" />
		<tag k="capacity" v="26" />
		<tag k="max_age" v="5" />
		<tag k="min_age" v="1" />
		<tag k="name" v="Betania barnehage" />
		<tag k="no-barnehage:nsrid" v="1022350" />
		<tag k="operator" v="Betania barnehage AS" />
		<tag k="operator:type" v="private" />
	</node>
	<node id="-5320" lat="59.55928" lon="9.26271">
		<tag k="ADDRESS" v="Orekåsgate 1, 3674 NOTODDEN" />
		<tag k="amenity" v="kindergarten" />
		<tag k="capacity" v="42" />
		<tag k="max_age" v="5" />
		<tag k="min_age" v="1" />
		<tag k="name" v="Villamoen barnehage" />
		<tag k="no-barnehage:nsrid" v="1015964" />
		<tag k="operator" v="Kattekleiv barnehage AS" />
		<tag k="operator:type" v="private" />
	</node>
	<node id="-5319" lat="59.57633" lon="9.19806">
		<tag k="ADDRESS" v="Trolldalsvegen 6, 3676 NOTODDEN" />
		<tag k="amenity" v="kindergarten" />
		<tag k="capacity" v="25" />
		<tag k="max_age" v="5" />
		<tag k="min_age" v="1" />
		<tag k="name" v="Trolldalen gårdsbarnehage" />
		<tag k="no-barnehage:nsrid" v="1012983" />
		<tag k="operator" v="Kattekleiv barnehage AS" />
		<tag k="operator:type" v="private" />
	</node>
	<node id="-5318" lat="59.56327" lon="9.27563">
		<tag k="ADDRESS" v="Hvålagata 4, 3681 NOTODDEN" />
		<tag k="amenity" v="kindergarten" />
		<tag k="capacity" v="49" />
		<tag k="max_age" v="5" />
		<tag k="min_age" v="1" />
		<tag k="name" v="Toppen barnehage" />
		<tag k="no-barnehage:nsrid" v="1018039" />
		<tag k="operator" v="Notodden kommune" />
		<tag k="operator:type" v="public" />
	</node>
	<node id="-5317" lat="59.56679" lon="9.27401">
		<tag k="ADDRESS" v="Nordahl Griegs Gate 6, 3679 NOTODDEN" />
		<tag k="amenity" v="kindergarten" />
		<tag k="capacity" v="46" />
		<tag k="max_age" v="5" />
		<tag k="min_age" v="1" />
		<tag k="name" v="Sætrebo barnehage" />
		<tag k="no-barnehage:nsrid" v="1017797" />
		<tag k="operator" v="Kattekleiv barnehage AS" />
		<tag k="operator:type" v="private" />
	</node>
	<node id="-5316" lat="59.56918" lon="9.28291">
		<tag k="ADDRESS" v="Meheiavegen 70, 3679 NOTODDEN" />
		<tag k="amenity" v="kindergarten" />
		<tag k="capacity" v="37" />
		<tag k="contact:website" v="http://www.ssn.no" />
		<tag k="max_age" v="5" />
		<tag k="min_age" v="1" />
		<tag k="name" v="Studentsamskipnaden i Sørøst-norge Sætreåsen studentbarnehage" />
		<tag k="no-barnehage:nsrid" v="1014818" />
		<tag k="operator" v="Studentsamskipnaden i Sørøst-Norge" />
		<tag k="operator:type" v="private" />
	</node>
	<node id="-5315" lat="59.56515" lon="9.26522">
		<tag k="ADDRESS" v="Solhaugveien 4, 3674 NOTODDEN" />
		<tag k="amenity" v="kindergarten" />
		<tag k="capacity" v="51" />
		<tag k="max_age" v="5" />
		<tag k="min_age" v="1" />
		<tag k="name" v="Solhaug barnehage" />
		<tag k="no-barnehage:nsrid" v="1017334" />
		<tag k="operator" v="Notodden kommune" />
		<tag k="operator:type" v="public" />
	</node>
	<node id="-5314" lat="59.5626" lon="9.26518">
		<tag k="ADDRESS" v="Storg 63-65, 3674 NOTODDEN" />
		<tag k="amenity" v="kindergarten" />
		<tag k="name" v="Sentrumskolen åpen barnehage" />
		<tag k="no-barnehage:nsrid" v="1013161" />
		<tag k="operator" v="Notodden kommune" />
		<tag k="operator:type" v="public" />
	</node>
	<node id="-5313" lat="59.58154" lon="9.17029">
		<tag k="ADDRESS" v="Heddalsvegen 447, 3676 NOTODDEN" />
		<tag k="amenity" v="kindergarten" />
		<tag k="capacity" v="61" />
		<tag k="max_age" v="5" />
		<tag k="min_age" v="1" />
		<tag k="name" v="Rygi barnehage" />
		<tag k="no-barnehage:nsrid" v="1014775" />
		<tag k="operator" v="Notodden kommune" />
		<tag k="operator:type" v="public" />
	</node>
</osm>
