<?xml version="1.0" encoding="UTF-8"?>
<osm generator="osmapis" version="0.6">
	<node id="-4677" lat="65.8189" lon="13.22004">
		<tag k="amenity" v="kindergarten" />
		<tag k="capacity" v="9" />
		<tag k="contact:email" v="trude.skar@online.no" />
		<tag k="contact:phone" v="+47 75 17 21 95" />
		<tag k="max_age" v="5" />
		<tag k="min_age" v="1" />
		<tag k="name" v="Nøtteliten Familiebarnehage Trude Skar" />
		<tag k="no-barnehage:nsrid" v="1021454" />
		<tag k="operator" v="Nøtteliten Familiebarnehage Trude Skar" />
		<tag k="operator:type" v="private" />
	</node>
	<node id="-4666" lat="65.82015" lon="13.22402">
		<tag k="amenity" v="kindergarten" />
		<tag k="capacity" v="10" />
		<tag k="contact:email" v="ninaaskerod@hotmail.com" />
		<tag k="contact:phone" v="+47 91861938" />
		<tag k="max_age" v="5" />
		<tag k="min_age" v="1" />
		<tag k="name" v="Bukkene Bruse Familiebarnehage" />
		<tag k="no-barnehage:nsrid" v="1021508" />
		<tag k="operator" v="Nina Askerød / Bukkene Bruse Fam.Barnehage" />
		<tag k="operator:type" v="private" />
	</node>
</osm>
