<?xml version="1.0" encoding="UTF-8"?>
<osm generator="osmapis" version="0.6">
	<node id="-5472" lat="65.84895" lon="13.19257">
		<tag k="amenity" v="kindergarten" />
		<tag k="capacity" v="54" />
		<tag k="contact:email" v="mosjoen@snnregnskap.no" />
		<tag k="contact:phone" v="75179390" />
		<tag k="contact:website" v="http://www.mkaf.no" />
		<tag k="max_age" v="5" />
		<tag k="min_age" v="1" />
		<tag k="name" v="Fagertun Barnehage, Mkaf" />
		<tag k="no-barnehage:nsrid" v="1020798" />
		<tag k="operator" v="Mosjøen Kjemiske Arbeiderforening" />
		<tag k="operator:type" v="private" />
		<tag k="start_date" v="1991-07-01" />
	</node>
	<node id="-5471" lat="66.1011" lon="13.542">
		<tag k="amenity" v="kindergarten" />
		<tag k="capacity" v="10" />
		<tag k="contact:email" v="rolf.jakobsen@vefsn.kommune.no" />
		<tag k="max_age" v="5" />
		<tag k="min_age" v="1" />
		<tag k="name" v="Elsfjord Oppvekstsenter barnehage" />
		<tag k="no-barnehage:nsrid" v="1015864" />
		<tag k="operator" v="Vefsn kommune" />
		<tag k="operator:type" v="public" />
		<tag k="start_date" v="1998-08-01" />
	</node>
	<node id="-5470" lat="65.9761" lon="13.2124">
		<tag k="amenity" v="kindergarten" />
		<tag k="capacity" v="32" />
		<tag k="contact:email" v="drevja.barnehage@vefsn.kommune.no" />
		<tag k="max_age" v="5" />
		<tag k="min_age" v="1" />
		<tag k="name" v="Drevja barnehage" />
		<tag k="no-barnehage:nsrid" v="1017387" />
		<tag k="operator" v="Vefsn kommune" />
		<tag k="operator:type" v="public" />
		<tag k="start_date" v="1978-09-24" />
	</node>
	<node id="-5469" lat="65.8455" lon="13.202">
		<tag k="amenity" v="kindergarten" />
		<tag k="capacity" v="42" />
		<tag k="contact:email" v="dolstadb@frisurf.no" />
		<tag k="contact:phone" v="75 17 77 89" />
		<tag k="max_age" v="5" />
		<tag k="min_age" v="1" />
		<tag k="name" v="Dolstad barnehage" />
		<tag k="no-barnehage:nsrid" v="1015536" />
		<tag k="operator" v="Dolstad barnehage AS" />
		<tag k="operator:type" v="private" />
		<tag k="start_date" v="1978-08-21" />
	</node>
	<node id="-5467" lat="65.83627" lon="13.21619">
		<tag k="amenity" v="kindergarten" />
		<tag k="capacity" v="27" />
		<tag k="contact:email" v="askeladden@barnehage.no" />
		<tag k="contact:phone" v="75 17 78 75" />
		<tag k="max_age" v="5" />
		<tag k="min_age" v="1" />
		<tag k="name" v="Askeladden barnehage AS" />
		<tag k="no-barnehage:nsrid" v="1020039" />
		<tag k="operator" v="Askeladden barnehage AS" />
		<tag k="operator:type" v="private" />
		<tag k="start_date" v="1989-01-02" />
	</node>
	<node id="-5484" lat="65.83132" lon="13.21012">
		<tag k="amenity" v="kindergarten" />
		<tag k="capacity" v="27" />
		<tag k="contact:email" v="tioringen@barnehage.no" />
		<tag k="contact:phone" v="75 11 51 89" />
		<tag k="contact:website" v="http://www.tioringen.barnehage.no" />
		<tag k="max_age" v="5" />
		<tag k="min_age" v="1" />
		<tag k="name" v="Tiøringen barnehage" />
		<tag k="no-barnehage:nsrid" v="1019840" />
		<tag k="operator" v="Stiftelsen Tiøringen barnehage" />
		<tag k="operator:type" v="private" />
		<tag k="start_date" v="1989-01-02" />
	</node>
	<node id="-5483" lat="65.836" lon="13.2172">
		<tag k="amenity" v="kindergarten" />
		<tag k="capacity" v="60" />
		<tag k="contact:email" v="skjervengan.barnehage@vefsn.kommune.no" />
		<tag k="contact:phone" v="75 10 13 40" />
		<tag k="max_age" v="5" />
		<tag k="min_age" v="1" />
		<tag k="name" v="Skjervengan barnehage" />
		<tag k="no-barnehage:nsrid" v="1016929" />
		<tag k="operator" v="Vefsn kommune" />
		<tag k="operator:type" v="public" />
		<tag k="start_date" v="1970-12-30" />
	</node>
	<node id="-5482" lat="65.90632" lon="13.17636">
		<tag k="amenity" v="kindergarten" />
		<tag k="capacity" v="25" />
		<tag k="contact:email" v="KONTOR@SKALAND-NATURBARNEHAGE.NO" />
		<tag k="contact:phone" v="958 78 745" />
		<tag k="max_age" v="5" />
		<tag k="min_age" v="1" />
		<tag k="name" v="Skaland Naturbarnehage AS" />
		<tag k="no-barnehage:nsrid" v="1021488" />
		<tag k="operator" v="Skaland Naturbarnehage AS" />
		<tag k="operator:type" v="private" />
		<tag k="start_date" v="2006-06-15" />
	</node>
	<node id="-5481" lat="65.83598" lon="13.2149">
		<tag k="amenity" v="kindergarten" />
		<tag k="capacity" v="27" />
		<tag k="contact:email" v="regnbuen@regnbuenvefsn.no" />
		<tag k="contact:phone" v="75175887" />
		<tag k="max_age" v="5" />
		<tag k="min_age" v="1" />
		<tag k="name" v="Regnbuen barnehage Mosjøen AS" />
		<tag k="no-barnehage:nsrid" v="1020102" />
		<tag k="operator" v="Regnbuen barnehage Mosjøen AS" />
		<tag k="operator:type" v="private" />
		<tag k="start_date" v="1992-08-01" />
	</node>
	<node id="-5480" lat="65.8218" lon="13.2273">
		<tag k="amenity" v="kindergarten" />
		<tag k="capacity" v="39" />
		<tag k="contact:email" v="rita.stenvik@vefsn.kommune.no" />
		<tag k="max_age" v="5" />
		<tag k="min_age" v="1" />
		<tag k="name" v="Olderskog barnehage" />
		<tag k="no-barnehage:nsrid" v="1013659" />
		<tag k="operator" v="Vefsn kommune" />
		<tag k="operator:type" v="public" />
		<tag k="start_date" v="1989-01-01" />
	</node>
	<node id="-5478" lat="65.83144" lon="13.21052">
		<tag k="amenity" v="kindergarten" />
		<tag k="capacity" v="26" />
		<tag k="contact:email" v="nyrudbhg@online.no" />
		<tag k="contact:phone" v="75171111" />
		<tag k="max_age" v="5" />
		<tag k="min_age" v="1" />
		<tag k="name" v="Nyrud barnehage Sa" />
		<tag k="no-barnehage:nsrid" v="1019749" />
		<tag k="operator" v="Nyrud barnehage Sa" />
		<tag k="operator:type" v="private" />
		<tag k="start_date" v="1989-01-02" />
	</node>
	<node id="-5477" lat="65.83373" lon="13.22265">
		<tag k="amenity" v="kindergarten" />
		<tag k="capacity" v="74" />
		<tag k="contact:email" v="dl.mosjoen@bhg.no" />
		<tag k="contact:phone" v="75 17 50 75" />
		<tag k="max_age" v="5" />
		<tag k="min_age" v="1" />
		<tag k="name" v="Mosjøen Fus barnehage AS" />
		<tag k="no-barnehage:nsrid" v="1021512" />
		<tag k="operator" v="Mosjøen Fus barnehage AS" />
		<tag k="operator:type" v="private" />
		<tag k="start_date" v="2006-08-08" />
	</node>
	<node id="-5476" lat="65.83692" lon="13.1934">
		<tag k="amenity" v="kindergarten" />
		<tag k="capacity" v="23" />
		<tag k="contact:email" v="gro-helen-j@live.no" />
		<tag k="contact:phone" v="75 18 92 74" />
		<tag k="max_age" v="5" />
		<tag k="min_age" v="1" />
		<tag k="name" v="Landbruksskolens barnehage Sa" />
		<tag k="no-barnehage:nsrid" v="1019808" />
		<tag k="operator" v="Landbruksskolens barnehage Sa" />
		<tag k="operator:type" v="private" />
		<tag k="start_date" v="1989-01-01" />
	</node>
	<node id="-5475" lat="65.8673" lon="13.2033">
		<tag k="amenity" v="kindergarten" />
		<tag k="capacity" v="65" />
		<tag k="contact:email" v="unni.norum@vefsn.kommune.no" />
		<tag k="max_age" v="5" />
		<tag k="min_age" v="1" />
		<tag k="name" v="Kulstad barnehage" />
		<tag k="no-barnehage:nsrid" v="1013902" />
		<tag k="operator" v="Vefsn kommune" />
		<tag k="operator:type" v="public" />
		<tag k="start_date" v="1990-01-01" />
	</node>
	<node id="-5474" lat="65.8734" lon="13.1893">
		<tag k="amenity" v="kindergarten" />
		<tag k="capacity" v="63" />
		<tag k="contact:email" v="anniken@vefsn.kommune.no" />
		<tag k="max_age" v="5" />
		<tag k="min_age" v="1" />
		<tag k="name" v="Krinkelkroken barnehage" />
		<tag k="no-barnehage:nsrid" v="1015594" />
		<tag k="operator" v="Vefsn kommune" />
		<tag k="operator:type" v="public" />
		<tag k="start_date" v="1992-08-01" />
	</node>
	<node id="-5473" lat="65.83336" lon="13.2174">
		<tag k="amenity" v="kindergarten" />
		<tag k="capacity" v="37" />
		<tag k="contact:email" v="irene.kippermoenfriluft@nax.no" />
		<tag k="contact:phone" v="75 17 19 45" />
		<tag k="contact:website" v="http://kipfri.no" />
		<tag k="max_age" v="5" />
		<tag k="min_age" v="1" />
		<tag k="name" v="Kippermoen Friluftsbarnehage AS" />
		<tag k="no-barnehage:nsrid" v="1021692" />
		<tag k="operator" v="Kippermoen Friluftsbarnehage AS" />
		<tag k="operator:type" v="private" />
		<tag k="start_date" v="2007-06-27" />
	</node>
</osm>
