<?xml version="1.0" encoding="UTF-8"?>
<osm version="0.6" generator="osmapis">
	<node lat="0.0" lon="0.0" id="-2322">
		<tag k="ADDRESS" v="Gamleveien 103, 2040 KLØFTA" />
		<tag k="amenity" v="kindergarten" />
		<tag k="capacity" v="60" />
		<tag k="max_age" v="5" />
		<tag k="min_age" v="1" />
		<tag k="name" v="Alvheim Barnhage" />
		<tag k="no-barnehage:nsrid" v="988320684" />
		<tag k="operator" v="Alvheim barnehage AS" />
		<tag k="operator:type" v="private" />
	</node>
	<node lat="60.0691" lon="11.13658" id="-2323">
		<tag k="ADDRESS" v="Bakkestien 6, 2040 KLØFTA" />
		<tag k="amenity" v="kindergarten" />
		<tag k="capacity" v="56" />
		<tag k="max_age" v="5" />
		<tag k="min_age" v="1" />
		<tag k="name" v="Bakke barnehage" />
		<tag k="no-barnehage:nsrid" v="975296555" />
		<tag k="operator" v="Ullensaker kommune" />
		<tag k="operator:type" v="public" />
	</node>
	<node lat="60.06823" lon="11.13147" id="-2324">
		<tag k="ADDRESS" v="Skolevegen 12, 2040 KLØFTA" />
		<tag k="amenity" v="kindergarten" />
		<tag k="capacity" v="58" />
		<tag k="max_age" v="5" />
		<tag k="min_age" v="1" />
		<tag k="name" v="Bakkedalen FUS barnehage" />
		<tag k="no-barnehage:nsrid" v="980472922" />
		<tag k="operator" v="Bakkedalen Fus barnehage AS" />
		<tag k="operator:type" v="private" />
	</node>
	<node lat="60.10088" lon="11.2193" id="-2327">
		<tag k="ADDRESS" v="Fredrik Borgens veg 1, 2040 KLØFTA" />
		<tag k="amenity" v="kindergarten" />
		<tag k="capacity" v="59" />
		<tag k="max_age" v="5" />
		<tag k="min_age" v="1" />
		<tag k="name" v="Borgen FUS barnehage" />
		<tag k="no-barnehage:nsrid" v="987374446" />
		<tag k="operator" v="Borgen Fus barnehage AS" />
		<tag k="operator:type" v="private" />
	</node>
	<node lat="60.13775" lon="11.16778" id="-2329">
		<tag k="ADDRESS" v="Veslevegen 5, 2050 JESSHEIM" />
		<tag k="amenity" v="kindergarten" />
		<tag k="capacity" v="52" />
		<tag k="contact:website" v="http://www.dolibarnehage.no" />
		<tag k="max_age" v="5" />
		<tag k="min_age" v="1" />
		<tag k="name" v="Døli barnehage" />
		<tag k="no-barnehage:nsrid" v="973481681" />
		<tag k="operator" v="Døli barnehage SA" />
		<tag k="operator:type" v="private" />
	</node>
	<node lat="60.13505" lon="11.20644" id="-2330">
		<tag k="ADDRESS" v="Hestehovstien 2, 2052 JESSHEIM" />
		<tag k="amenity" v="kindergarten" />
		<tag k="capacity" v="55" />
		<tag k="max_age" v="5" />
		<tag k="min_age" v="1" />
		<tag k="name" v="Fladbyseter barnehage" />
		<tag k="no-barnehage:nsrid" v="976638867" />
		<tag k="operator" v="Ullensaker kommune" />
		<tag k="operator:type" v="public" />
	</node>
	<node lat="60.18887" lon="11.26355" id="-2333">
		<tag k="ADDRESS" v="Storvegen 34, 2055 NORDKISA" />
		<tag k="amenity" v="kindergarten" />
		<tag k="capacity" v="91" />
		<tag k="max_age" v="5" />
		<tag k="min_age" v="1" />
		<tag k="name" v="Hoppensprett avd. Nordkisa" />
		<tag k="no-barnehage:nsrid" v="986916601" />
		<tag k="operator" v="Hoppensprett AS" />
		<tag k="operator:type" v="private" />
	</node>
	<node lat="60.13723" lon="11.19504" id="-2334">
		<tag k="ADDRESS" v="Skogmovegen 10, 2053 JESSHEIM" />
		<tag k="amenity" v="kindergarten" />
		<tag k="capacity" v="86" />
		<tag k="max_age" v="5" />
		<tag k="min_age" v="1" />
		<tag k="name" v="Hoppensprett avd. Skogmo" />
		<tag k="no-barnehage:nsrid" v="989118528" />
		<tag k="operator" v="Hoppensprett AS" />
		<tag k="operator:type" v="private" />
	</node>
	<node lat="60.06968" lon="11.13541" id="-2335">
		<tag k="ADDRESS" v="Bakkevegen 1, 2040 KLØFTA" />
		<tag k="amenity" v="kindergarten" />
		<tag k="capacity" v="41" />
		<tag k="contact:website" v="http://hoppensprett.no" />
		<tag k="max_age" v="5" />
		<tag k="min_age" v="1" />
		<tag k="name" v="Hoppensprett avd. Solbakken" />
		<tag k="no-barnehage:nsrid" v="990928525" />
		<tag k="operator" v="Hoppensprett AS" />
		<tag k="operator:type" v="private" />
	</node>
	<node lat="60.14166" lon="11.21335" id="-2336">
		<tag k="ADDRESS" v="Helga Holms veg 9, 2052 JESSHEIM" />
		<tag k="amenity" v="kindergarten" />
		<tag k="capacity" v="63" />
		<tag k="max_age" v="5" />
		<tag k="min_age" v="1" />
		<tag k="name" v="Hoppensprett Gystad" />
		<tag k="no-barnehage:nsrid" v="985858713" />
		<tag k="operator" v="Hoppensprett Gystad AS" />
		<tag k="operator:type" v="private" />
	</node>
	<node lat="60.15228" lon="11.18266" id="-2337">
		<tag k="ADDRESS" v="Industrivegen 34, 2069 JESSHEIM" />
		<tag k="amenity" v="kindergarten" />
		<tag k="contact:website" v="http://www.hoppensprett.no/Barnehager/Vaare-barnehager/Ullensaker-kommune/Hoppensprett-Skogmo-Barne" />
		<tag k="max_age" v="5" />
		<tag k="min_age" v="1" />
		<tag k="name" v="Hoppensprett Skogmo" />
		<tag k="no-barnehage:nsrid" v="831840072" />
		<tag k="operator" v="Hoppensprett Skogmo AS" />
		<tag k="operator:type" v="private" />
	</node>
	<node lat="60.15228" lon="11.18266" id="-2338">
		<tag k="ADDRESS" v="Industrivegen 34, 2069 JESSHEIM" />
		<tag k="amenity" v="kindergarten" />
		<tag k="capacity" v="112" />
		<tag k="contact:website" v="http://www.Hoppensprett.no" />
		<tag k="max_age" v="5" />
		<tag k="min_age" v="1" />
		<tag k="name" v="Hoppenspretthallen barnehage" />
		<tag k="no-barnehage:nsrid" v="991046224" />
		<tag k="operator" v="Hoppenspretthallen barnehage AS" />
		<tag k="operator:type" v="private" />
	</node>
	<node lat="60.1447" lon="11.16558" id="-2339">
		<tag k="ADDRESS" v="Gardermovegen 17C, 2050 JESSHEIM" />
		<tag k="amenity" v="kindergarten" />
		<tag k="capacity" v="75" />
		<tag k="max_age" v="5" />
		<tag k="min_age" v="1" />
		<tag k="name" v="Jessheim barnehage" />
		<tag k="no-barnehage:nsrid" v="875268392" />
		<tag k="operator" v="Ullensaker kommune" />
		<tag k="operator:type" v="public" />
	</node>
	<node lat="0.0" lon="0.0" id="-2340">
		<tag k="ADDRESS" v="Rådhusvegen 5, 2066 JESSHEIM" />
		<tag k="amenity" v="kindergarten" />
		<tag k="contact:website" v="http://www.kirken.no/jessheimoghovin" />
		<tag k="name" v="Jessheim åpen barnehage" />
		<tag k="no-barnehage:nsrid" v="996005364" />
		<tag k="operator" v="Jessheim og Hovin Sokn" />
		<tag k="operator:type" v="private" />
	</node>
	<node lat="60.06926" lon="11.13347" id="-2341">
		<tag k="ADDRESS" v="Skolevegen 23, 2040 KLØFTA" />
		<tag k="amenity" v="kindergarten" />
		<tag k="capacity" v="104" />
		<tag k="max_age" v="5" />
		<tag k="min_age" v="1" />
		<tag k="name" v="Kløfta barnehage" />
		<tag k="no-barnehage:nsrid" v="991647724" />
		<tag k="operator" v="Ullensaker kommune" />
		<tag k="operator:type" v="public" />
	</node>
	<node lat="60.15067" lon="11.15266" id="-2342">
		<tag k="ADDRESS" v="Kverndalsvegen 10, 2067 JESSHEIM" />
		<tag k="amenity" v="kindergarten" />
		<tag k="capacity" v="20" />
		<tag k="max_age" v="5" />
		<tag k="min_age" v="1" />
		<tag k="name" v="Kverndalen barnehage" />
		<tag k="no-barnehage:nsrid" v="993921890" />
		<tag k="operator" v="Ullensaker kommune" />
		<tag k="operator:type" v="public" />
	</node>
	<node lat="60.153" lon="11.18993" id="-2343">
		<tag k="ADDRESS" v="Aktivitetsvegen 2, 2069 JESSHEIM" />
		<tag k="amenity" v="kindergarten" />
		<tag k="name" v="Læringsverkstedet barnehage 3" />
		<tag k="no-barnehage:nsrid" v="932405911" />
		<tag k="operator" v="Læringsverkstedet barnehage 3 AS" />
		<tag k="operator:type" v="private" />
	</node>
	<node lat="60.153" lon="11.18993" id="-2344">
		<tag k="ADDRESS" v="Aktivitetsvegen 2, 2069 JESSHEIM" />
		<tag k="amenity" v="kindergarten" />
		<tag k="name" v="Læringsverkstedet barnehage 4" />
		<tag k="no-barnehage:nsrid" v="832405922" />
		<tag k="operator" v="Læringsverkstedet barnehage 4 AS" />
		<tag k="operator:type" v="private" />
	</node>
	<node lat="60.09868" lon="11.22164" id="-2345">
		<tag k="ADDRESS" v="Dugnadsvegen 9, 2040 KLØFTA" />
		<tag k="amenity" v="kindergarten" />
		<tag k="capacity" v="81" />
		<tag k="contact:website" v="http://www.laringsverkstedet.no/borgen" />
		<tag k="max_age" v="5" />
		<tag k="min_age" v="1" />
		<tag k="name" v="Læringsverkstedet Borgen idrettsbarnehage" />
		<tag k="no-barnehage:nsrid" v="998432847" />
		<tag k="operator" v="Læringsverkstedet Borgen idrettsbarnehage AS" />
		<tag k="operator:type" v="private" />
	</node>
	<node lat="60.13772" lon="11.22376" id="-2346">
		<tag k="ADDRESS" v="Lysåsvegen 2, 2052 JESSHEIM" />
		<tag k="amenity" v="kindergarten" />
		<tag k="capacity" v="129" />
		<tag k="contact:website" v="http://www.laringsverkstedet.no/ekornrud" />
		<tag k="max_age" v="5" />
		<tag k="min_age" v="1" />
		<tag k="name" v="Læringsverkstedet Ekornrud barnehage" />
		<tag k="no-barnehage:nsrid" v="992769475" />
		<tag k="operator" v="Læringsverkstedet Ekornrud barnehage AS" />
		<tag k="operator:type" v="private" />
	</node>
	<node lat="60.153" lon="11.18993" id="-2347">
		<tag k="ADDRESS" v="Aktivitetsvegen 2, 2069 JESSHEIM" />
		<tag k="amenity" v="kindergarten" />
		<tag k="capacity" v="90" />
		<tag k="max_age" v="5" />
		<tag k="min_age" v="1" />
		<tag k="name" v="Læringsverkstedet Gystadmarka Doremi barnehage" />
		<tag k="no-barnehage:nsrid" v="998439108" />
		<tag k="operator" v="Læringsverkstedet Gystadmarka Doremi barnehage AS" />
		<tag k="operator:type" v="private" />
	</node>
	<node lat="60.16273" lon="11.18943" id="-2348">
		<tag k="ADDRESS" v="Rugdevegen 89, 2069 JESSHEIM" />
		<tag k="amenity" v="kindergarten" />
		<tag k="capacity" v="81" />
		<tag k="contact:website" v="http://www.laringsverkstedet.no/nordbymoen" />
		<tag k="max_age" v="5" />
		<tag k="min_age" v="1" />
		<tag k="name" v="Læringsverkstedet Nordbymoen barnehage" />
		<tag k="no-barnehage:nsrid" v="992769467" />
		<tag k="operator" v="Læringsverkstedet Nordbymoen barnehage AS" />
		<tag k="operator:type" v="private" />
	</node>
	<node lat="60.1613" lon="11.13526" id="-2349">
		<tag k="ADDRESS" v="Vilbergvegen 54, 2067 JESSHEIM" />
		<tag k="amenity" v="kindergarten" />
		<tag k="capacity" v="27" />
		<tag k="contact:website" v="http://www.laringsverkstedet.no/olalokka" />
		<tag k="max_age" v="5" />
		<tag k="min_age" v="1" />
		<tag k="name" v="Læringsverkstedet Olaløkka barnehage" />
		<tag k="no-barnehage:nsrid" v="972924768" />
		<tag k="operator" v="Læringsverkstedet Olaløkka barnehage AS" />
		<tag k="operator:type" v="private" />
	</node>
	<node lat="60.14038" lon="11.1995" id="-2350">
		<tag k="ADDRESS" v="Løkkavegen 1, 2052 JESSHEIM" />
		<tag k="amenity" v="kindergarten" />
		<tag k="capacity" v="139" />
		<tag k="contact:website" v="http://www.laringsverkstedet.no/skogmo" />
		<tag k="max_age" v="5" />
		<tag k="min_age" v="1" />
		<tag k="name" v="Læringsverkstedet Skogmo barnehage" />
		<tag k="no-barnehage:nsrid" v="989965646" />
		<tag k="operator" v="Læringsverkstedet Skogmo barnehage AS" />
		<tag k="operator:type" v="private" />
	</node>
	<node lat="60.15018" lon="11.12698" id="-2351">
		<tag k="ADDRESS" v="Nedre Solhellinga 2, 2067 JESSHEIM" />
		<tag k="amenity" v="kindergarten" />
		<tag k="capacity" v="80" />
		<tag k="contact:website" v="http://www.laringsverkstedet.no/solhellinga" />
		<tag k="max_age" v="5" />
		<tag k="min_age" v="1" />
		<tag k="name" v="Læringsverkstedet Solhellinga barnehage" />
		<tag k="no-barnehage:nsrid" v="991542612" />
		<tag k="operator" v="Læringsverkstedet Solhellinga barnehage AS" />
		<tag k="operator:type" v="private" />
	</node>
	<node lat="59.14144" lon="11.39592" id="-2352">
		<tag k="ADDRESS" v="Kvartsveien 14, 1784 HALDEN" />
		<tag k="amenity" v="kindergarten" />
		<tag k="capacity" v="65" />
		<tag k="max_age" v="5" />
		<tag k="min_age" v="1" />
		<tag k="name" v="Læringsverkstedet Stenrød barnehage" />
		<tag k="no-barnehage:nsrid" v="979372892" />
		<tag k="operator" v="Læringsverkstedet Stenrød barnehage AS" />
		<tag k="operator:type" v="private" />
	</node>
	<node lat="60.13825" lon="11.16797" id="-2353">
		<tag k="ADDRESS" v="Verkensvegen 16, 2050 JESSHEIM" />
		<tag k="amenity" v="kindergarten" />
		<tag k="capacity" v="48" />
		<tag k="contact:website" v="http://www.laringsverkstedet.no/verkensveien" />
		<tag k="max_age" v="5" />
		<tag k="min_age" v="1" />
		<tag k="name" v="Læringsverkstedet Verkensveien barnehage" />
		<tag k="no-barnehage:nsrid" v="988629626" />
		<tag k="operator" v="Læringsverkstedet Verkensveien barnehage AS" />
		<tag k="operator:type" v="private" />
	</node>
	<node lat="60.07126" lon="11.13096" id="-2354">
		<tag k="ADDRESS" v="Reisoppvegen 9, 2040 KLØFTA" />
		<tag k="amenity" v="kindergarten" />
		<tag k="capacity" v="106" />
		<tag k="contact:website" v="http://www.norlandiabarnehagene.no/mamma-mia/" />
		<tag k="max_age" v="5" />
		<tag k="min_age" v="1" />
		<tag k="name" v="Mamma Mia barnehage" />
		<tag k="no-barnehage:nsrid" v="992391219" />
		<tag k="operator" v="Mamma Mia barnehage AS" />
		<tag k="operator:type" v="private" />
	</node>
	<node lat="60.15397" lon="11.17902" id="-2355">
		<tag k="ADDRESS" v="Nordbyvegen 15, 2069 JESSHEIM" />
		<tag k="amenity" v="kindergarten" />
		<tag k="capacity" v="66" />
		<tag k="max_age" v="5" />
		<tag k="min_age" v="1" />
		<tag k="name" v="Nordby barnehage" />
		<tag k="no-barnehage:nsrid" v="975292746" />
		<tag k="operator" v="Ullensaker kommune" />
		<tag k="operator:type" v="public" />
	</node>
	<node lat="60.22951" lon="11.1668" id="-2356">
		<tag k="ADDRESS" v="Løvenbergvegen 2, 2054 MOGREINA" />
		<tag k="amenity" v="kindergarten" />
		<tag k="capacity" v="116" />
		<tag k="max_age" v="5" />
		<tag k="min_age" v="1" />
		<tag k="name" v="Norlandia Mogreina barnehage" />
		<tag k="no-barnehage:nsrid" v="984626738" />
		<tag k="operator" v="Norlandia Mogreina barnehage AS" />
		<tag k="operator:type" v="private" />
	</node>
	<node lat="60.15974" lon="11.18661" id="-2357">
		<tag k="ADDRESS" v="Oppløpssiden 3, 2069 JESSHEIM" />
		<tag k="amenity" v="kindergarten" />
		<tag k="capacity" v="85" />
		<tag k="contact:website" v="http://nordbyhagen.norlandiabarnehagene.no" />
		<tag k="max_age" v="5" />
		<tag k="min_age" v="1" />
		<tag k="name" v="Norlandia Nordbyhagen barnehage" />
		<tag k="no-barnehage:nsrid" v="987431911" />
		<tag k="operator" v="Norlandia Nordbyhagen barnehage AS" />
		<tag k="operator:type" v="private" />
	</node>
	<node lat="60.14055" lon="11.16111" id="-2358">
		<tag k="ADDRESS" v="Langbråten 50, 2063 JESSHEIM" />
		<tag k="amenity" v="kindergarten" />
		<tag k="capacity" v="72" />
		<tag k="max_age" v="5" />
		<tag k="min_age" v="1" />
		<tag k="name" v="Norlandia Romsaas litteraturbarnehage" />
		<tag k="no-barnehage:nsrid" v="984914458" />
		<tag k="operator" v="Norlandia Romsaas barnehage AS" />
		<tag k="operator:type" v="private" />
	</node>
	<node lat="60.08246" lon="11.13766" id="-2359">
		<tag k="ADDRESS" v="Handelsvegen 4, 2040 KLØFTA" />
		<tag k="amenity" v="kindergarten" />
		<tag k="capacity" v="63" />
		<tag k="max_age" v="5" />
		<tag k="min_age" v="1" />
		<tag k="name" v="Olstadmoen barnehage" />
		<tag k="no-barnehage:nsrid" v="986344632" />
		<tag k="operator" v="Olstadmoen barnehage SA" />
		<tag k="operator:type" v="private" />
	</node>
	<node lat="60.07738" lon="11.14368" id="-2363">
		<tag k="ADDRESS" v="Kongsvingervegen 10, 2040 KLØFTA" />
		<tag k="amenity" v="kindergarten" />
		<tag k="capacity" v="17" />
		<tag k="max_age" v="5" />
		<tag k="min_age" v="1" />
		<tag k="name" v="Soria Moria barnehage" />
		<tag k="no-barnehage:nsrid" v="973826875" />
		<tag k="operator" v="Stiftelsen Soria Moria barnehage" />
		<tag k="operator:type" v="private" />
	</node>
	<node lat="60.15866" lon="11.17968" id="-2364">
		<tag k="ADDRESS" v="Krusesvingen 12, 2068 JESSHEIM" />
		<tag k="amenity" v="kindergarten" />
		<tag k="capacity" v="81" />
		<tag k="contact:website" v="http://www.sorholtet.no" />
		<tag k="max_age" v="5" />
		<tag k="min_age" v="1" />
		<tag k="name" v="Sørholtet andelsbarnehage" />
		<tag k="no-barnehage:nsrid" v="983353525" />
		<tag k="operator" v="Sørholtet Andelslag SA" />
		<tag k="operator:type" v="private" />
	</node>
	<node lat="60.15453" lon="11.18628" id="-2365">
		<tag k="ADDRESS" v="Tiurkroken 2, 2069 JESSHEIM" />
		<tag k="amenity" v="kindergarten" />
		<tag k="capacity" v="51" />
		<tag k="max_age" v="5" />
		<tag k="min_age" v="1" />
		<tag k="name" v="Tiurkroken barnehage" />
		<tag k="no-barnehage:nsrid" v="973611976" />
		<tag k="operator" v="Ullensaker kommune" />
		<tag k="operator:type" v="public" />
	</node>
</osm>
