<?xml version="1.0" encoding="UTF-8"?>
<osm generator="osmapis" version="0.6">
	<node id="-4600" lat="62.5021" lon="6.70344">
		<tag k="amenity" v="kindergarten" />
		<tag k="capacity" v="76" />
		<tag k="contact:email" v="kari.vadset@skodje.kommune.no" />
		<tag k="contact:phone" v="70 27 48 30" />
		<tag k="max_age" v="5" />
		<tag k="min_age" v="1" />
		<tag k="name" v="Skodje barnehage" />
		<tag k="no-barnehage:nsrid" v="1018189" />
		<tag k="operator" v="Skodje kommune" />
		<tag k="operator:type" v="public" />
		<tag k="start_date" v="1989-01-01" />
	</node>
	<node id="-4599" lat="62.50322" lon="6.684092">
		<tag k="amenity" v="kindergarten" />
		<tag k="capacity" v="73" />
		<tag k="contact:email" v="anita.roys@skodje.kommune.no" />
		<tag k="max_age" v="5" />
		<tag k="min_age" v="1" />
		<tag k="name" v="Prestemarka barnehage" />
		<tag k="no-barnehage:nsrid" v="1025440" />
		<tag k="operator" v="Skodje kommune" />
		<tag k="operator:type" v="public" />
		<tag k="start_date" v="2014-08-15" />
	</node>
	<node id="-4598" lat="62.50206" lon="6.703439">
		<tag k="amenity" v="kindergarten" />
		<tag k="capacity" v="70" />
		<tag k="contact:email" v="sbn@plassebakken.no" />
		<tag k="contact:phone" v="70 27 62 24" />
		<tag k="max_age" v="5" />
		<tag k="min_age" v="1" />
		<tag k="name" v="Plassebakken barnehage Sa" />
		<tag k="no-barnehage:nsrid" v="1019866" />
		<tag k="operator" v="Plassebakken barnehage Sa" />
		<tag k="operator:type" v="private" />
		<tag k="start_date" v="1989-09-01" />
	</node>
	<node id="-4602" lat="62.5021" lon="6.70344">
		<tag k="amenity" v="kindergarten" />
		<tag k="capacity" v="51" />
		<tag k="contact:email" v="camilla.brusdal@skodje.kommune.no" />
		<tag k="contact:phone" v="70 24 45 98" />
		<tag k="max_age" v="5" />
		<tag k="min_age" v="1" />
		<tag k="name" v="Valle barnehage" />
		<tag k="no-barnehage:nsrid" v="1014738" />
		<tag k="operator" v="Skodje kommune" />
		<tag k="operator:type" v="public" />
		<tag k="start_date" v="1992-01-01" />
	</node>
	<node id="-4601" lat="62.5021" lon="6.70344">
		<tag k="amenity" v="kindergarten" />
		<tag k="capacity" v="40" />
		<tag k="contact:email" v="marianne.tosse@skodje.kommune.no" />
		<tag k="contact:phone" v="70 24 44 85" />
		<tag k="max_age" v="5" />
		<tag k="min_age" v="1" />
		<tag k="name" v="Stette barnehage" />
		<tag k="no-barnehage:nsrid" v="1014896" />
		<tag k="operator" v="Skodje kommune" />
		<tag k="operator:type" v="public" />
		<tag k="start_date" v="1996-01-01" />
	</node>
</osm>
