<?xml version="1.0" encoding="UTF-8"?>
<osm generator="osmapis" version="0.6">
	<node id="-6128" lat="0.0" lon="0.0">
		<tag k="amenity" v="kindergarten" />
		<tag k="capacity" v="41" />
		<tag k="max_age" v="5" />
		<tag k="min_age" v="1" />
		<tag k="name" v="Fossen barnehage" />
		<tag k="no-barnehage:nsrid" v="1012734" />
		<tag k="operator" v="Kåfjord kommune Gaivuona Suohkan" />
		<tag k="operator:type" v="public" />
	</node>
	<node id="-6127" lat="69.49612" lon="20.83404">
		<tag k="amenity" v="kindergarten" />
		<tag k="capacity" v="20" />
		<tag k="max_age" v="5" />
		<tag k="min_age" v="1" />
		<tag k="name" v="Birtavarre barnehage" />
		<tag k="no-barnehage:nsrid" v="1012733" />
		<tag k="operator" v="Kåfjord kommune Gaivuona Suohkan" />
		<tag k="operator:type" v="public" />
	</node>
	<node id="-6129" lat="69.6071" lon="20.5267">
		<tag k="amenity" v="kindergarten" />
		<tag k="capacity" v="25" />
		<tag k="max_age" v="5" />
		<tag k="min_age" v="1" />
		<tag k="name" v="Olderdalen barnehage" />
		<tag k="no-barnehage:nsrid" v="1012732" />
		<tag k="operator" v="Kåfjord kommune Gaivuona Suohkan" />
		<tag k="operator:type" v="public" />
	</node>
</osm>
