<?xml version="1.0" encoding="UTF-8"?>
<osm generator="osmapis" version="0.6">
	<node id="-5963" lat="69.6071" lon="20.5267">
		<tag k="amenity" v="kindergarten" />
		<tag k="capacity" v="19" />
		<tag k="contact:email" v="tone.mette.johansen@kafjord.kommune.no" />
		<tag k="contact:phone" v="+47 77719370" />
		<tag k="max_age" v="5" />
		<tag k="min_age" v="1" />
		<tag k="name" v="Olderdalen barnehage" />
		<tag k="no-barnehage:nsrid" v="1012732" />
		<tag k="operator" v="Kåfjord kommune Gaivuona Suohkan" />
		<tag k="operator:type" v="public" />
		<tag k="start_date" v="1989-01-01" />
	</node>
	<node id="-5962" lat="69.5514" lon="20.5333">
		<tag k="amenity" v="kindergarten" />
		<tag k="capacity" v="37" />
		<tag k="contact:email" v="isabell.warsla@kafjord.kommune.no" />
		<tag k="contact:phone" v="+47 77 71 93 50" />
		<tag k="max_age" v="5" />
		<tag k="min_age" v="1" />
		<tag k="name" v="Fossen barnehage" />
		<tag k="no-barnehage:nsrid" v="1012734" />
		<tag k="operator" v="Kåfjord kommune Gaivuona Suohkan" />
		<tag k="operator:type" v="public" />
		<tag k="start_date" v="1990-02-01" />
	</node>
	<node id="-5961" lat="69.4961" lon="20.834">
		<tag k="amenity" v="kindergarten" />
		<tag k="capacity" v="19" />
		<tag k="contact:email" v="caroline.vatne@kafjord.kommune.no" />
		<tag k="contact:phone" v="+47 77719360" />
		<tag k="max_age" v="5" />
		<tag k="min_age" v="1" />
		<tag k="name" v="Birtavarre barnehage" />
		<tag k="no-barnehage:nsrid" v="1012733" />
		<tag k="operator" v="Kåfjord kommune Gaivuona Suohkan" />
		<tag k="operator:type" v="public" />
		<tag k="start_date" v="1989-01-01" />
	</node>
</osm>
