<?xml version="1.0" encoding="UTF-8"?>
<osm generator="osmapis" version="0.6">
	<node id="-1402" lat="62.90698" lon="6.9226">
		<tag k="ADDRESS" v="Hulderhaugvegen 9, 6430 BUD" />
		<tag k="amenity" v="kindergarten" />
		<tag k="capacity" v="48" />
		<tag k="max_age" v="5" />
		<tag k="min_age" v="1" />
		<tag k="name" v="Bud barnehage" />
		<tag k="no-barnehage:nsrid" v="975321045" />
		<tag k="operator" v="Hustadvika kommune" />
		<tag k="operator:type" v="public" />
	</node>
	<node id="-1403" lat="0.0" lon="0.0">
		<tag k="ADDRESS" v="RABBEN 3, 6490 EIDE" />
		<tag k="amenity" v="kindergarten" />
		<tag k="capacity" v="64" />
		<tag k="max_age" v="5" />
		<tag k="min_age" v="1" />
		<tag k="name" v="Eide barnehage" />
		<tag k="no-barnehage:nsrid" v="975315541" />
		<tag k="operator" v="Hustadvika kommune" />
		<tag k="operator:type" v="public" />
	</node>
	<node id="-1404" lat="62.95443" lon="7.09934">
		<tag k="ADDRESS" v="Kongsvegen 14, 6433 HUSTAD" />
		<tag k="amenity" v="kindergarten" />
		<tag k="capacity" v="46" />
		<tag k="max_age" v="5" />
		<tag k="min_age" v="1" />
		<tag k="name" v="Hustad barnehage" />
		<tag k="no-barnehage:nsrid" v="975323846" />
		<tag k="operator" v="Hustadvika kommune" />
		<tag k="operator:type" v="public" />
	</node>
	<node id="-1405" lat="62.78763" lon="7.00738">
		<tag k="ADDRESS" v="Storelvvegen 19, 6409 MOLDE" />
		<tag k="amenity" v="kindergarten" />
		<tag k="capacity" v="36" />
		<tag k="max_age" v="5" />
		<tag k="min_age" v="1" />
		<tag k="name" v="Jendem barnehage" />
		<tag k="no-barnehage:nsrid" v="974706954" />
		<tag k="operator" v="Hustadvika kommune" />
		<tag k="operator:type" v="public" />
	</node>
	<node id="-1406" lat="62.80184" lon="7.33138">
		<tag k="ADDRESS" v="Skaret 3, 6422 MOLDE" />
		<tag k="amenity" v="kindergarten" />
		<tag k="capacity" v="30" />
		<tag k="max_age" v="5" />
		<tag k="min_age" v="1" />
		<tag k="name" v="Krohnstad Montessori friluftsbarnehage" />
		<tag k="no-barnehage:nsrid" v="917230870" />
		<tag k="operator" v="Krohnstad Montessori barnehage AS" />
		<tag k="operator:type" v="private" />
	</node>
	<node id="-1407" lat="62.95992" lon="7.35625">
		<tag k="ADDRESS" v="Lyngstadvegen 202, 6493 LYNGSTAD" />
		<tag k="amenity" v="kindergarten" />
		<tag k="capacity" v="26" />
		<tag k="max_age" v="5" />
		<tag k="min_age" v="1" />
		<tag k="name" v="Lyngstad barnehage" />
		<tag k="no-barnehage:nsrid" v="875310712" />
		<tag k="operator" v="Hustadvika kommune" />
		<tag k="operator:type" v="public" />
	</node>
	<node id="-1408" lat="62.86203" lon="7.18634">
		<tag k="ADDRESS" v="Revestien 10, 6440 ELNESVÅGEN" />
		<tag k="amenity" v="kindergarten" />
		<tag k="capacity" v="69" />
		<tag k="max_age" v="5" />
		<tag k="min_age" v="1" />
		<tag k="name" v="Mobarn Dalelia barnehage" />
		<tag k="no-barnehage:nsrid" v="991452451" />
		<tag k="operator" v="Mobarn SA" />
		<tag k="operator:type" v="private" />
	</node>
	<node id="-1409" lat="62.85891" lon="7.17332">
		<tag k="ADDRESS" v="Trollstien 10, 6440 ELNESVÅGEN" />
		<tag k="amenity" v="kindergarten" />
		<tag k="capacity" v="33" />
		<tag k="max_age" v="5" />
		<tag k="min_age" v="1" />
		<tag k="name" v="Mobarn Hauglia barnehage" />
		<tag k="no-barnehage:nsrid" v="974194937" />
		<tag k="operator" v="Mobarn SA" />
		<tag k="operator:type" v="private" />
	</node>
	<node id="-1410" lat="62.78883" lon="7.02427">
		<tag k="ADDRESS" v="Åndalsbakken 7, 6409 MOLDE" />
		<tag k="amenity" v="kindergarten" />
		<tag k="capacity" v="47" />
		<tag k="contact:website" v="http://www.lyngen.mobarn.no" />
		<tag k="max_age" v="5" />
		<tag k="min_age" v="1" />
		<tag k="name" v="Mobarn Lyngen barnehage" />
		<tag k="no-barnehage:nsrid" v="917875103" />
		<tag k="operator" v="Mobarn SA" />
		<tag k="operator:type" v="private" />
	</node>
	<node id="-1411" lat="62.81736" lon="7.243">
		<tag k="ADDRESS" v="Granvegen 8, 6445 MALMEFJORDEN" />
		<tag k="amenity" v="kindergarten" />
		<tag k="capacity" v="59" />
		<tag k="max_age" v="5" />
		<tag k="min_age" v="1" />
		<tag k="name" v="Mobarn Sylte og Malme barnehage" />
		<tag k="no-barnehage:nsrid" v="973512013" />
		<tag k="operator" v="Mobarn SA" />
		<tag k="operator:type" v="private" />
	</node>
	<node id="-1412" lat="62.85563" lon="7.16886">
		<tag k="ADDRESS" v="Hauglivegen 8, 6440 ELNESVÅGEN" />
		<tag k="amenity" v="kindergarten" />
		<tag k="capacity" v="62" />
		<tag k="max_age" v="5" />
		<tag k="min_age" v="1" />
		<tag k="name" v="NLM barnehagene avd. Utsyn barnehage Elnesvågen" />
		<tag k="no-barnehage:nsrid" v="974147580" />
		<tag k="operator" v="Nlm-Barnehagene AS" />
		<tag k="operator:type" v="private" />
	</node>
	<node id="-1413" lat="62.85891" lon="7.17242">
		<tag k="ADDRESS" v="Trollstien 11, 6440 ELNESVÅGEN" />
		<tag k="amenity" v="kindergarten" />
		<tag k="capacity" v="59" />
		<tag k="contact:website" v="http://www.haugtussa.barnehage.no" />
		<tag k="max_age" v="5" />
		<tag k="min_age" v="1" />
		<tag k="name" v="Stiftelsen Haugtussa barnehage" />
		<tag k="no-barnehage:nsrid" v="973448765" />
		<tag k="operator" v="Stiftelsen Haugtussa barnehage" />
		<tag k="operator:type" v="private" />
	</node>
	<node id="-1414" lat="62.8996" lon="7.44032">
		<tag k="ADDRESS" v="Svanvikvegen 40, 6490 EIDE" />
		<tag k="amenity" v="kindergarten" />
		<tag k="capacity" v="57" />
		<tag k="max_age" v="5" />
		<tag k="min_age" v="1" />
		<tag k="name" v="Svanviken barnehage" />
		<tag k="no-barnehage:nsrid" v="975314677" />
		<tag k="operator" v="Hustadvika kommune" />
		<tag k="operator:type" v="public" />
	</node>
	<node id="-1415" lat="62.84174" lon="7.0562">
		<tag k="ADDRESS" v="Ausevegen 11, 6443 TORNES I ROMSDAL" />
		<tag k="amenity" v="kindergarten" />
		<tag k="capacity" v="54" />
		<tag k="max_age" v="5" />
		<tag k="min_age" v="1" />
		<tag k="name" v="Tornes barnehage" />
		<tag k="no-barnehage:nsrid" v="980969398" />
		<tag k="operator" v="Hustadvika kommune" />
		<tag k="operator:type" v="public" />
	</node>
	<node id="-1416" lat="62.99994" lon="7.27853">
		<tag k="ADDRESS" v="Skolevegen 22, 6494 VEVANG" />
		<tag k="amenity" v="kindergarten" />
		<tag k="capacity" v="27" />
		<tag k="max_age" v="5" />
		<tag k="min_age" v="1" />
		<tag k="name" v="Vevang barnehage" />
		<tag k="no-barnehage:nsrid" v="975310728" />
		<tag k="operator" v="Hustadvika kommune" />
		<tag k="operator:type" v="public" />
	</node>
</osm>
