<?xml version="1.0" encoding="UTF-8"?>
<osm generator="osmapis" version="0.6">
	<node id="-4713" lat="61.1919" lon="7.02318">
		<tag k="amenity" v="kindergarten" />
		<tag k="capacity" v="39" />
		<tag k="max_age" v="5" />
		<tag k="min_age" v="1" />
		<tag k="name" v="Ylvisåker barnehage" />
		<tag k="no-barnehage:nsrid" v="1013884" />
		<tag k="operator" v="Sogndal kommune" />
		<tag k="operator:type" v="public" />
	</node>
	<node id="-4712" lat="61.22598" lon="7.097316">
		<tag k="amenity" v="kindergarten" />
		<tag k="capacity" v="64" />
		<tag k="contact:website" v="http://stedje.barnehage.no/" />
		<tag k="max_age" v="5" />
		<tag k="min_age" v="1" />
		<tag k="name" v="Stedje barnehage" />
		<tag k="no-barnehage:nsrid" v="1019577" />
		<tag k="operator" v="Stedje barnehage" />
		<tag k="operator:type" v="private" />
	</node>
	<node id="-4711" lat="61.2331" lon="7.09522">
		<tag k="amenity" v="kindergarten" />
		<tag k="capacity" v="41" />
		<tag k="max_age" v="5" />
		<tag k="min_age" v="1" />
		<tag k="name" v="Sogndal studentbarnehage" />
		<tag k="no-barnehage:nsrid" v="1015612" />
		<tag k="operator" v="Studentsamskipnaden på Vestlandet" />
		<tag k="operator:type" v="private" />
	</node>
	<node id="-4710" lat="61.23222" lon="7.116729">
		<tag k="amenity" v="kindergarten" />
		<tag k="capacity" v="75" />
		<tag k="max_age" v="5" />
		<tag k="min_age" v="1" />
		<tag k="name" v="Rones barnehage" />
		<tag k="no-barnehage:nsrid" v="1019662" />
		<tag k="operator" v="Rones barnehage Sa" />
		<tag k="operator:type" v="private" />
	</node>
	<node id="-4709" lat="61.2298" lon="7.10049">
		<tag k="amenity" v="kindergarten" />
		<tag k="capacity" v="38" />
		<tag k="max_age" v="5" />
		<tag k="min_age" v="1" />
		<tag k="name" v="Notsete barnehage" />
		<tag k="no-barnehage:nsrid" v="1018147" />
		<tag k="operator" v="Sogndal kommune" />
		<tag k="operator:type" v="public" />
	</node>
	<node id="-4708" lat="61.2276" lon="7.09433">
		<tag k="amenity" v="kindergarten" />
		<tag k="capacity" v="57" />
		<tag k="max_age" v="5" />
		<tag k="min_age" v="1" />
		<tag k="name" v="Kyrkjebakken barnehage" />
		<tag k="no-barnehage:nsrid" v="1012679" />
		<tag k="operator" v="Sogndal kommune" />
		<tag k="operator:type" v="public" />
	</node>
	<node id="-4707" lat="61.2115" lon="7.12777">
		<tag k="amenity" v="kindergarten" />
		<tag k="capacity" v="81" />
		<tag k="max_age" v="5" />
		<tag k="min_age" v="1" />
		<tag k="name" v="Kjørnes barnehage" />
		<tag k="no-barnehage:nsrid" v="1013212" />
		<tag k="operator" v="Sogndal kommune" />
		<tag k="operator:type" v="public" />
	</node>
	<node id="-4706" lat="61.1896" lon="7.21674">
		<tag k="amenity" v="kindergarten" />
		<tag k="capacity" v="74" />
		<tag k="max_age" v="5" />
		<tag k="min_age" v="1" />
		<tag k="name" v="Furuli barnehage" />
		<tag k="no-barnehage:nsrid" v="1013883" />
		<tag k="operator" v="Sogndal kommune" />
		<tag k="operator:type" v="public" />
	</node>
	<node id="-4705" lat="61.4024" lon="6.7388">
		<tag k="amenity" v="kindergarten" />
		<tag k="capacity" v="8" />
		<tag k="max_age" v="5" />
		<tag k="min_age" v="1" />
		<tag k="name" v="Fjærland oppvekstsenter avd. barnehage" />
		<tag k="no-barnehage:nsrid" v="1018144" />
		<tag k="operator" v="Sogndal kommune" />
		<tag k="operator:type" v="public" />
	</node>
</osm>
