<?xml version="1.0" encoding="UTF-8"?>
<osm generator="osmapis" version="0.6">
	<node id="-4286" lat="61.1919" lon="7.02318">
		<tag k="amenity" v="kindergarten" />
		<tag k="capacity" v="24" />
		<tag k="contact:email" v="anne.siri.bentsen@sogndal.kommune.no" />
		<tag k="max_age" v="5" />
		<tag k="min_age" v="1" />
		<tag k="name" v="Ylvisåker barnehage" />
		<tag k="no-barnehage:nsrid" v="1013884" />
		<tag k="operator" v="Sogndal kommune" />
		<tag k="operator:type" v="public" />
		<tag k="start_date" v="1989-01-02" />
	</node>
	<node id="-4285" lat="61.22598" lon="7.097316">
		<tag k="amenity" v="kindergarten" />
		<tag k="capacity" v="63" />
		<tag k="contact:email" v="g.boyum@r-rekneskap.no" />
		<tag k="contact:phone" v="+47 57672053" />
		<tag k="max_age" v="5" />
		<tag k="min_age" v="1" />
		<tag k="name" v="Stedje barnehage" />
		<tag k="no-barnehage:nsrid" v="1019577" />
		<tag k="operator" v="Stedje barnehage" />
		<tag k="operator:type" v="private" />
		<tag k="start_date" v="1978-12-22" />
	</node>
	<node id="-4284" lat="61.2331" lon="7.09522">
		<tag k="amenity" v="kindergarten" />
		<tag k="capacity" v="43" />
		<tag k="contact:email" v="barnehage@sisof.no" />
		<tag k="max_age" v="5" />
		<tag k="min_age" v="1" />
		<tag k="name" v="Sogndal Studentbarnehage" />
		<tag k="no-barnehage:nsrid" v="1015612" />
		<tag k="operator" v="Studentsamskipnaden på Vestlandet" />
		<tag k="operator:type" v="private" />
		<tag k="start_date" v="1994-08-01" />
	</node>
	<node id="-4283" lat="61.23222" lon="7.116729">
		<tag k="amenity" v="kindergarten" />
		<tag k="capacity" v="71" />
		<tag k="contact:email" v="g.boyum@r-rekneskap.no" />
		<tag k="contact:phone" v="+47 711180000" />
		<tag k="max_age" v="5" />
		<tag k="min_age" v="1" />
		<tag k="name" v="Rones barnehage" />
		<tag k="no-barnehage:nsrid" v="1019662" />
		<tag k="operator" v="Rones barnehage Sa" />
		<tag k="operator:type" v="private" />
		<tag k="start_date" v="1988-04-01" />
	</node>
	<node id="-4282" lat="61.2298" lon="7.10049">
		<tag k="amenity" v="kindergarten" />
		<tag k="capacity" v="20" />
		<tag k="contact:email" v="randi.loftesnes@sogndal.kommune.no" />
		<tag k="max_age" v="5" />
		<tag k="min_age" v="1" />
		<tag k="name" v="Notsete barnehage" />
		<tag k="no-barnehage:nsrid" v="1018147" />
		<tag k="operator" v="Sogndal kommune" />
		<tag k="operator:type" v="public" />
		<tag k="start_date" v="1989-01-01" />
	</node>
	<node id="-4281" lat="61.2276" lon="7.09433">
		<tag k="amenity" v="kindergarten" />
		<tag k="capacity" v="57" />
		<tag k="contact:email" v="liv.kari.salte@sogndal.kommune.no" />
		<tag k="max_age" v="5" />
		<tag k="min_age" v="1" />
		<tag k="name" v="Kyrkjebakken barnehage" />
		<tag k="no-barnehage:nsrid" v="1012679" />
		<tag k="operator" v="Sogndal kommune" />
		<tag k="operator:type" v="public" />
		<tag k="start_date" v="1990-01-01" />
	</node>
	<node id="-4280" lat="61.2115" lon="7.12777">
		<tag k="amenity" v="kindergarten" />
		<tag k="capacity" v="53" />
		<tag k="contact:email" v="gunn.haugen@sogndal.kommune.no" />
		<tag k="contact:phone" v="+47 57 62 96 00" />
		<tag k="max_age" v="5" />
		<tag k="min_age" v="1" />
		<tag k="name" v="Kjørnes barnehage" />
		<tag k="no-barnehage:nsrid" v="1013212" />
		<tag k="operator" v="Sogndal kommune" />
		<tag k="operator:type" v="public" />
		<tag k="start_date" v="2004-01-01" />
	</node>
	<node id="-4279" lat="61.1896" lon="7.21674">
		<tag k="amenity" v="kindergarten" />
		<tag k="capacity" v="70" />
		<tag k="contact:email" v="heidi.navarsete@sogndal.kommune.no" />
		<tag k="max_age" v="5" />
		<tag k="min_age" v="1" />
		<tag k="name" v="Furuli barnehage" />
		<tag k="no-barnehage:nsrid" v="1013883" />
		<tag k="operator" v="Sogndal kommune" />
		<tag k="operator:type" v="public" />
		<tag k="start_date" v="1989-01-02" />
	</node>
	<node id="-4278" lat="61.4024" lon="6.7388">
		<tag k="amenity" v="kindergarten" />
		<tag k="capacity" v="10" />
		<tag k="contact:email" v="torbjorn.ask@sogndal.kommune.no" />
		<tag k="max_age" v="5" />
		<tag k="min_age" v="1" />
		<tag k="name" v="Fjærland Oppvekstsenter Avd Barnehage" />
		<tag k="no-barnehage:nsrid" v="1018144" />
		<tag k="operator" v="Sogndal kommune" />
		<tag k="operator:type" v="public" />
		<tag k="start_date" v="1989-01-01" />
	</node>
</osm>
