<?xml version="1.0" encoding="UTF-8"?>
<osm generator="osmapis" version="0.6">
	<node id="-96" lat="58.4001" lon="8.68898">
		<tag k="ADDRESS" v="Markblomstveien 9, 4823 NEDENES" />
		<tag k="amenity" v="kindergarten" />
		<tag k="capacity" v="52" />
		<tag k="contact:website" v="http://www.oyestad.barnehageenhet.no/index.php?pageID=186" />
		<tag k="max_age" v="5" />
		<tag k="min_age" v="1" />
		<tag k="name" v="Øyestad barnehageenhet, Engene" />
		<tag k="no-barnehage:nsrid" v="1017481" />
		<tag k="operator" v="Arendal kommune" />
		<tag k="operator:type" v="public" />
	</node>
	<node id="-95" lat="58.42611" lon="8.72303">
		<tag k="ADDRESS" v="Nedre Fagerhei 19, 4823 NEDENES" />
		<tag k="amenity" v="kindergarten" />
		<tag k="capacity" v="77" />
		<tag k="contact:website" v="http://fus.no/vippa" />
		<tag k="max_age" v="5" />
		<tag k="min_age" v="1" />
		<tag k="name" v="Vippa FUS barnehage" />
		<tag k="no-barnehage:nsrid" v="1022322" />
		<tag k="operator" v="Vippa Fus barnehage AS" />
		<tag k="operator:type" v="private" />
	</node>
	<node id="-94" lat="58.4601" lon="8.82697">
		<tag k="ADDRESS" v="Elgveien 32, 4818 FÆRVIK" />
		<tag k="amenity" v="kindergarten" />
		<tag k="capacity" v="48" />
		<tag k="contact:website" v="http://www.tybakken.no" />
		<tag k="max_age" v="5" />
		<tag k="min_age" v="1" />
		<tag k="name" v="Tybakken barnehage" />
		<tag k="no-barnehage:nsrid" v="1019632" />
		<tag k="operator" v="Stiftelsen Tromøy Menighets Barnehager" />
		<tag k="operator:type" v="private" />
	</node>
	<node id="-93" lat="0.0" lon="0.0">
		<tag k="ADDRESS" v="Fjellvik, 4818 FÆRVIK" />
		<tag k="amenity" v="kindergarten" />
		<tag k="capacity" v="19" />
		<tag k="contact:website" v="http://www.tromoy.barnehage.arendal.no/" />
		<tag k="max_age" v="5" />
		<tag k="min_age" v="3" />
		<tag k="name" v="Tromøy barnehageenhet, Fjellvik" />
		<tag k="no-barnehage:nsrid" v="1014093" />
		<tag k="operator" v="Arendal kommune" />
		<tag k="operator:type" v="public" />
	</node>
	<node id="-92" lat="58.47916" lon="8.8556">
		<tag k="ADDRESS" v="Fabakkveien 24, 4812 KONGSHAVN" />
		<tag k="amenity" v="kindergarten" />
		<tag k="capacity" v="53" />
		<tag k="contact:website" v="http://www.tromoy.barnehage.arendal.no/" />
		<tag k="max_age" v="5" />
		<tag k="min_age" v="1" />
		<tag k="name" v="Tromøy barnehageenhet, Fabakken avd. Karius og Baktus" />
		<tag k="no-barnehage:nsrid" v="1014721" />
		<tag k="operator" v="Arendal kommune" />
		<tag k="operator:type" v="public" />
	</node>
	<node id="-91" lat="58.55754" lon="8.95575">
		<tag k="ADDRESS" v="Kilsundveien 11, 4920 STAUBØ" />
		<tag k="amenity" v="kindergarten" />
		<tag k="capacity" v="34" />
		<tag k="contact:website" v="http://trollstubben.barnehage.no/" />
		<tag k="max_age" v="5" />
		<tag k="min_age" v="1" />
		<tag k="name" v="Trollstubben barnehage" />
		<tag k="no-barnehage:nsrid" v="1021569" />
		<tag k="operator" v="Trollstubben barnehage AS" />
		<tag k="operator:type" v="private" />
	</node>
	<node id="-90" lat="58.47863" lon="8.76032">
		<tag k="ADDRESS" v="Svalestien 2, 4846 ARENDAL" />
		<tag k="amenity" v="kindergarten" />
		<tag k="capacity" v="25" />
		<tag k="contact:website" v="http://svalestien.vigilo.no/web/index" />
		<tag k="max_age" v="5" />
		<tag k="min_age" v="1" />
		<tag k="name" v="Svalestien barnehage" />
		<tag k="no-barnehage:nsrid" v="1021619" />
		<tag k="operator" v="Svalestien barnehage AS" />
		<tag k="operator:type" v="private" />
	</node>
	<node id="-89" lat="58.45005" lon="8.74261">
		<tag k="ADDRESS" v="Vestre Strømsbuvei 26 B, 4839 ARENDAL" />
		<tag k="amenity" v="kindergarten" />
		<tag k="capacity" v="67" />
		<tag k="contact:website" v="http://www.strommen.oppvekstsenter.arendal.no/" />
		<tag k="max_age" v="5" />
		<tag k="min_age" v="1" />
		<tag k="name" v="Strømmen oppvekstsenter avd. barnehage" />
		<tag k="no-barnehage:nsrid" v="1018057" />
		<tag k="operator" v="Arendal kommune" />
		<tag k="operator:type" v="public" />
	</node>
	<node id="-88" lat="58.4597" lon="8.75322">
		<tag k="ADDRESS" v="Strømsbuåsen 10, 4836 ARENDAL" />
		<tag k="amenity" v="kindergarten" />
		<tag k="capacity" v="61" />
		<tag k="contact:website" v="http://stinta.barnehageenhet.no/" />
		<tag k="max_age" v="5" />
		<tag k="min_age" v="1" />
		<tag k="name" v="Stinta barnehageenhet, Strømsbuåsen" />
		<tag k="no-barnehage:nsrid" v="1017038" />
		<tag k="operator" v="Arendal kommune" />
		<tag k="operator:type" v="public" />
	</node>
	<node id="-87" lat="58.45953" lon="8.74725">
		<tag k="ADDRESS" v="Gåsåsen 20, 4847 ARENDAL" />
		<tag k="amenity" v="kindergarten" />
		<tag k="capacity" v="28" />
		<tag k="contact:website" v="http://stinta.barnehageenhet.no/" />
		<tag k="max_age" v="5" />
		<tag k="min_age" v="1" />
		<tag k="name" v="Stinta barnehageenhet, Gåsungen" />
		<tag k="no-barnehage:nsrid" v="1014115" />
		<tag k="operator" v="Arendal kommune" />
		<tag k="operator:type" v="public" />
	</node>
	<node id="-86" lat="58.47265" lon="8.78412">
		<tag k="ADDRESS" v="Store Solåsen 6b, 4843 ARENDAL" />
		<tag k="amenity" v="kindergarten" />
		<tag k="capacity" v="31" />
		<tag k="contact:website" v="http://www.stjerneglimt.no" />
		<tag k="max_age" v="5" />
		<tag k="min_age" v="1" />
		<tag k="name" v="Steinerbarnehagen Stjerneglimt" />
		<tag k="no-barnehage:nsrid" v="1019760" />
		<tag k="operator" v="Stiftelsen Stjerneglimt Steinerbarnehage" />
		<tag k="operator:type" v="private" />
	</node>
	<node id="-85" lat="58.45792" lon="8.76531">
		<tag k="ADDRESS" v="Kirkebakken 12, 4836 ARENDAL" />
		<tag k="amenity" v="kindergarten" />
		<tag k="capacity" v="20" />
		<tag k="contact:website" v="http://www.barnehage.stfx.no/" />
		<tag k="max_age" v="5" />
		<tag k="min_age" v="1" />
		<tag k="name" v="St Franciskus barnehage" />
		<tag k="no-barnehage:nsrid" v="1021531" />
		<tag k="operator" v="St. Franciskus barnehage" />
		<tag k="operator:type" v="private" />
	</node>
	<node id="-84" lat="58.46616" lon="8.75863">
		<tag k="ADDRESS" v="Springklev 6, 4838 ARENDAL" />
		<tag k="amenity" v="kindergarten" />
		<tag k="capacity" v="28" />
		<tag k="contact:website" v="http://www.springkleivbarnehage.no" />
		<tag k="max_age" v="5" />
		<tag k="min_age" v="1" />
		<tag k="name" v="Springkleiv barnehage" />
		<tag k="no-barnehage:nsrid" v="1022176" />
		<tag k="operator" v="Springkleiv barnehage AS" />
		<tag k="operator:type" v="private" />
	</node>
	<node id="-83" lat="58.44834" lon="8.85977">
		<tag k="ADDRESS" v="Spornesveien 16, 4818 FÆRVIK" />
		<tag k="amenity" v="kindergarten" />
		<tag k="capacity" v="60" />
		<tag k="contact:website" v="http://www.spornesbarn.no" />
		<tag k="max_age" v="5" />
		<tag k="min_age" v="1" />
		<tag k="name" v="Spornes gårdsbarnehage" />
		<tag k="no-barnehage:nsrid" v="1022015" />
		<tag k="operator" v="Spornes Gårdsbarnehage AS" />
		<tag k="operator:type" v="private" />
	</node>
	<node id="-82" lat="58.40302" lon="8.69639">
		<tag k="ADDRESS" v="Vesterveien 881, 4823 NEDENES" />
		<tag k="amenity" v="kindergarten" />
		<tag k="capacity" v="29" />
		<tag k="contact:website" v="http://solsikkenbhg.no/" />
		<tag k="max_age" v="5" />
		<tag k="min_age" v="1" />
		<tag k="name" v="Solsikken barnehage" />
		<tag k="no-barnehage:nsrid" v="1020611" />
		<tag k="operator" v="Solsikken barnehage AS" />
		<tag k="operator:type" v="private" />
	</node>
	<node id="-80" lat="58.52021" lon="8.91406">
		<tag k="ADDRESS" v="Flosterøyveien 170, 4810 EYDEHAVN" />
		<tag k="amenity" v="kindergarten" />
		<tag k="capacity" v="19" />
		<tag k="contact:website" v="http://skogenslykke.barnehage.no" />
		<tag k="max_age" v="5" />
		<tag k="min_age" v="1" />
		<tag k="name" v="Skogens Lykke barnehage" />
		<tag k="no-barnehage:nsrid" v="1022075" />
		<tag k="operator" v="Skogens Lykke barnehage AS" />
		<tag k="operator:type" v="private" />
	</node>
	<node id="-78" lat="58.48478" lon="8.87377">
		<tag k="ADDRESS" v="Høyåshei 6, 4812 KONGSHAVN" />
		<tag k="amenity" v="kindergarten" />
		<tag k="capacity" v="30" />
		<tag k="contact:website" v="http://www.sandnesbarnehage.net/" />
		<tag k="max_age" v="5" />
		<tag k="min_age" v="1" />
		<tag k="name" v="Sandnes barnehage Jarl Aanby" />
		<tag k="no-barnehage:nsrid" v="1021507" />
		<tag k="operator" v="Sandnes barnehage Jarl Aanby" />
		<tag k="operator:type" v="private" />
	</node>
	<node id="-77" lat="58.41258" lon="8.63603">
		<tag k="ADDRESS" v="Gamle Skolevei 6, 4821 RYKENE" />
		<tag k="amenity" v="kindergarten" />
		<tag k="capacity" v="30" />
		<tag k="contact:website" v="http://rykene.skole.arendal.no/" />
		<tag k="max_age" v="5" />
		<tag k="min_age" v="1" />
		<tag k="name" v="Rykene oppvekstsenter avd. barnehage" />
		<tag k="no-barnehage:nsrid" v="1014722" />
		<tag k="operator" v="Arendal kommune" />
		<tag k="operator:type" v="public" />
	</node>
	<node id="-76" lat="58.4712" lon="8.77677">
		<tag k="ADDRESS" v="Nyli Terrasse 2, 4844 ARENDAL" />
		<tag k="amenity" v="kindergarten" />
		<tag k="capacity" v="46" />
		<tag k="contact:website" v="http://www.nylibarnehage.no" />
		<tag k="max_age" v="5" />
		<tag k="min_age" v="1" />
		<tag k="name" v="Nyli barnehage" />
		<tag k="no-barnehage:nsrid" v="1016750" />
		<tag k="operator" v="Barbu Sokn" />
		<tag k="operator:type" v="private" />
	</node>
	<node id="-75" lat="58.41285" lon="8.63411">
		<tag k="ADDRESS" v="Tykkerisveien 30, 4821 RYKENE" />
		<tag k="amenity" v="kindergarten" />
		<tag k="capacity" v="26" />
		<tag k="contact:website" v="http://noas-park.barnehage.no/" />
		<tag k="max_age" v="5" />
		<tag k="min_age" v="1" />
		<tag k="name" v="Noas Park barnehage" />
		<tag k="no-barnehage:nsrid" v="1020468" />
		<tag k="operator" v="Rykene Bedehus" />
		<tag k="operator:type" v="private" />
	</node>
	<node id="-74" lat="58.50152" lon="8.83343">
		<tag k="ADDRESS" v="Haugereidveien 57, 4815 SALTRØD" />
		<tag k="amenity" v="kindergarten" />
		<tag k="capacity" v="16" />
		<tag k="contact:website" v="http://noahbarnehage.wixsite.com/noah" />
		<tag k="max_age" v="5" />
		<tag k="min_age" v="1" />
		<tag k="name" v="Noah barnehage" />
		<tag k="no-barnehage:nsrid" v="1020947" />
		<tag k="operator" v="Noah barnehage AS" />
		<tag k="operator:type" v="private" />
	</node>
	<node id="-73" lat="58.4423" lon="8.71609">
		<tag k="ADDRESS" v="Musserongveien 12, 4824 BJORBEKK" />
		<tag k="amenity" v="kindergarten" />
		<tag k="capacity" v="23" />
		<tag k="contact:website" v="http://www.facebook.com/Nidelv%C3%A5sen-barnehage-1147892258554253/" />
		<tag k="max_age" v="5" />
		<tag k="min_age" v="1" />
		<tag k="name" v="Nidelvåsen barnehage" />
		<tag k="no-barnehage:nsrid" v="1025686" />
		<tag k="operator" v="Nidelvåsen barnehage AS" />
		<tag k="operator:type" v="private" />
	</node>
	<node id="-72" lat="58.41161" lon="8.70267">
		<tag k="ADDRESS" v="Erik Munks Vei 6, 4823 NEDENES" />
		<tag k="amenity" v="kindergarten" />
		<tag k="capacity" v="18" />
		<tag k="contact:website" v="http://www.nedenesaasen.no" />
		<tag k="max_age" v="5" />
		<tag k="min_age" v="1" />
		<tag k="name" v="Nedenesåsen barnehage" />
		<tag k="no-barnehage:nsrid" v="1020925" />
		<tag k="operator" v="Nedenesåsen barnehage AS" />
		<tag k="operator:type" v="private" />
	</node>
	<node id="-71" lat="58.41402" lon="8.70638">
		<tag k="ADDRESS" v="Påskeveien 1, 4823 NEDENES" />
		<tag k="amenity" v="kindergarten" />
		<tag k="name" v="Nedenes åpen barnehage" />
		<tag k="no-barnehage:nsrid" v="2000271" />
		<tag k="operator" v="Norkirken Nedenes" />
		<tag k="operator:type" v="private" />
	</node>
	<node id="-70" lat="58.42318" lon="8.71678">
		<tag k="ADDRESS" v="Valsolveien 25, 4823 NEDENES" />
		<tag k="amenity" v="kindergarten" />
		<tag k="capacity" v="52" />
		<tag k="contact:website" v="http://www.natvigheiabarnehage.no" />
		<tag k="max_age" v="5" />
		<tag k="min_age" v="1" />
		<tag k="name" v="Natvigheia barnehage" />
		<tag k="no-barnehage:nsrid" v="1021022" />
		<tag k="operator" v="Natvigheia barnehage Sa" />
		<tag k="operator:type" v="private" />
	</node>
	<node id="-69" lat="58.45898" lon="8.7561">
		<tag k="ADDRESS" v="Fredens Vei 7, 4836 ARENDAL" />
		<tag k="amenity" v="kindergarten" />
		<tag k="capacity" v="65" />
		<tag k="contact:website" v="http://arendal.villamatilda.www4.protu.no/article.aspx?" />
		<tag k="max_age" v="5" />
		<tag k="min_age" v="1" />
		<tag k="name" v="Matilda avd. Arendal" />
		<tag k="no-barnehage:nsrid" v="1014079" />
		<tag k="operator" v="Matilda AS" />
		<tag k="operator:type" v="private" />
	</node>
	<node id="-67" lat="58.43328" lon="8.74603">
		<tag k="ADDRESS" v="Julius Smiths Vei 3, 4817 HIS" />
		<tag k="amenity" v="kindergarten" />
		<tag k="capacity" v="36" />
		<tag k="contact:website" v="http://laringsverkstedet.no/barnehage/portveien-his" />
		<tag k="max_age" v="5" />
		<tag k="min_age" v="1" />
		<tag k="name" v="Læringsverkstedet barnehage avd. Portveien His" />
		<tag k="no-barnehage:nsrid" v="1015908" />
		<tag k="operator" v="Læringsverkstedet AS" />
		<tag k="operator:type" v="private" />
	</node>
	<node id="-66" lat="58.46725" lon="8.74792">
		<tag k="ADDRESS" v="Kirkegårdsveien 33, 4847 ARENDAL" />
		<tag k="amenity" v="kindergarten" />
		<tag k="capacity" v="77" />
		<tag k="contact:website" v="http://laringsverkstedet.no/barnehage/furukollen" />
		<tag k="max_age" v="5" />
		<tag k="min_age" v="1" />
		<tag k="name" v="Læringsverkstedet barnehage avd. Furukollen" />
		<tag k="no-barnehage:nsrid" v="1013387" />
		<tag k="operator" v="Læringsverkstedet AS" />
		<tag k="operator:type" v="private" />
	</node>
	<node id="-65" lat="58.45759" lon="8.76618">
		<tag k="ADDRESS" v="Rådhusgaten 6, 4836 ARENDAL" />
		<tag k="amenity" v="kindergarten" />
		<tag k="capacity" v="43" />
		<tag k="contact:website" v="http://www.laringsverkstedet.no/barnehage/tyholmen" />
		<tag k="max_age" v="5" />
		<tag k="min_age" v="1" />
		<tag k="name" v="Læringsverkstedet barnehage avd. Tyholmen barnehage" />
		<tag k="no-barnehage:nsrid" v="1013413" />
		<tag k="operator" v="Læringsverkstedet AS" />
		<tag k="operator:type" v="private" />
	</node>
	<node id="-64" lat="58.50076" lon="8.87217">
		<tag k="ADDRESS" v="Skoleveien 12, 4810 EYDEHAVN" />
		<tag k="amenity" v="kindergarten" />
		<tag k="capacity" v="55" />
		<tag k="contact:website" v="http://laringsverkstedet.no/barnehage/grandehagen" />
		<tag k="max_age" v="5" />
		<tag k="min_age" v="1" />
		<tag k="name" v="Læringsverkstedet barnehage avd. Grandehagen barnehage" />
		<tag k="no-barnehage:nsrid" v="1020529" />
		<tag k="operator" v="Læringsverkstedet AS" />
		<tag k="operator:type" v="private" />
	</node>
	<node id="-63" lat="58.42997" lon="8.70025">
		<tag k="ADDRESS" v="Rykeneveien 425, 4824 BJORBEKK" />
		<tag k="amenity" v="kindergarten" />
		<tag k="capacity" v="25" />
		<tag k="contact:website" v="http://Www.laringsverkstedet.no/barnehage/sjiraffen" />
		<tag k="max_age" v="5" />
		<tag k="min_age" v="1" />
		<tag k="name" v="Læringsverkstedet barnehage avd. Sjiraffen barnehage" />
		<tag k="no-barnehage:nsrid" v="1021440" />
		<tag k="operator" v="Læringsverkstedet AS" />
		<tag k="operator:type" v="private" />
	</node>
	<node id="-62" lat="58.44461" lon="8.77437">
		<tag k="ADDRESS" v="Sandvigveien 120, 4816 KOLBJØRNSVIK" />
		<tag k="amenity" v="kindergarten" />
		<tag k="capacity" v="47" />
		<tag k="contact:website" v="http://laringsverkstedet.no/barnehage/slaabervig-naturbarnehage" />
		<tag k="max_age" v="5" />
		<tag k="min_age" v="1" />
		<tag k="name" v="Læringsverkstedet barnehage Slaabervig naturbarnehage" />
		<tag k="no-barnehage:nsrid" v="1015167" />
		<tag k="operator" v="Læringsverkstedet AS" />
		<tag k="operator:type" v="private" />
	</node>
	<node id="-61" lat="58.50886" lon="8.86988">
		<tag k="ADDRESS" v="Gartaveien 38, 4810 EYDEHAVN" />
		<tag k="amenity" v="kindergarten" />
		<tag k="capacity" v="66" />
		<tag k="contact:website" v="http://laringsverkstedet.no/barnehage/eydehavn" />
		<tag k="max_age" v="5" />
		<tag k="min_age" v="1" />
		<tag k="name" v="Læringsverkstedet barnehage avd. Eydehavn naturbarnehage" />
		<tag k="no-barnehage:nsrid" v="1015047" />
		<tag k="operator" v="Læringsverkstedet AS" />
		<tag k="operator:type" v="private" />
	</node>
	<node id="-60" lat="58.49049" lon="8.76212">
		<tag k="ADDRESS" v="Hans Thornes Vei 10, 4846 ARENDAL" />
		<tag k="amenity" v="kindergarten" />
		<tag k="capacity" v="48" />
		<tag k="contact:website" v="http://laringsverkstedet.no/barnehage/longum-naturbarnehage" />
		<tag k="max_age" v="5" />
		<tag k="min_age" v="1" />
		<tag k="name" v="Læringsverkstedet barnehage Longum naturbarnehage" />
		<tag k="no-barnehage:nsrid" v="1014104" />
		<tag k="operator" v="Læringsverkstedet AS" />
		<tag k="operator:type" v="private" />
	</node>
	<node id="-59" lat="58.44499" lon="8.77293">
		<tag k="ADDRESS" v="Sandvigveien 104, 4816 KOLBJØRNSVIK" />
		<tag k="amenity" v="kindergarten" />
		<tag k="capacity" v="43" />
		<tag k="contact:website" v="http://laringsverkstedet.no/barnehage/helsviga-naturbarnehage" />
		<tag k="max_age" v="5" />
		<tag k="min_age" v="1" />
		<tag k="name" v="Læringsverkstedet barnehage avd. Helsviga naturbarnehage" />
		<tag k="no-barnehage:nsrid" v="1017015" />
		<tag k="operator" v="Læringsverkstedet AS" />
		<tag k="operator:type" v="private" />
	</node>
	<node id="-58" lat="58.47592" lon="8.74979">
		<tag k="ADDRESS" v="Eidebakken 45, 4846 ARENDAL" />
		<tag k="amenity" v="kindergarten" />
		<tag k="capacity" v="19" />
		<tag k="contact:website" v="http://www.lindebakkenbarnehage.no" />
		<tag k="max_age" v="5" />
		<tag k="min_age" v="1" />
		<tag k="name" v="Lindebakken barnehage" />
		<tag k="no-barnehage:nsrid" v="1021314" />
		<tag k="operator" v="Lindebakken barnehage AS" />
		<tag k="operator:type" v="private" />
	</node>
	<node id="-57" lat="58.45226" lon="8.7401">
		<tag k="ADDRESS" v="Eikeliveien 14, 4839 ARENDAL" />
		<tag k="amenity" v="kindergarten" />
		<tag k="capacity" v="13" />
		<tag k="contact:website" v="http://www.lille-stromsbu.barnehage.no/" />
		<tag k="max_age" v="5" />
		<tag k="min_age" v="1" />
		<tag k="name" v="Lille-strømsbu barnehage" />
		<tag k="no-barnehage:nsrid" v="1021048" />
		<tag k="operator" v="Lille-Strømsbu barnehage Ans" />
		<tag k="operator:type" v="private" />
	</node>
	<node id="-56" lat="0.0" lon="0.0">
		<tag k="ADDRESS" v="Kapellsvingen, 4812 KONGSHAVN" />
		<tag k="amenity" v="kindergarten" />
		<tag k="capacity" v="13" />
		<tag k="contact:website" v="http://www.kongshavnbarnehage.no/index.php?pageID=27" />
		<tag k="max_age" v="5" />
		<tag k="min_age" v="1" />
		<tag k="name" v="Kongshavn barnehage Jarl Aanby" />
		<tag k="no-barnehage:nsrid" v="1021932" />
		<tag k="operator" v="Kongshavn barnehage Jarl Aanby" />
		<tag k="operator:type" v="private" />
	</node>
	<node id="-55" lat="58.46137" lon="8.76578">
		<tag k="ADDRESS" v="Torvet 2, 4836 ARENDAL" />
		<tag k="amenity" v="kindergarten" />
		<tag k="name" v="Kirkens Bymisjon Arendal åpen barnehage på Torvet" />
		<tag k="no-barnehage:nsrid" v="1025648" />
		<tag k="operator" v="Stiftelsen Kirkens Bymisjon Aust-Agder og Telemark" />
		<tag k="operator:type" v="private" />
	</node>
	<node id="-54" lat="58.49734" lon="8.8441">
		<tag k="ADDRESS" v="Nebbeliveien 3, 4815 SALTRØD" />
		<tag k="amenity" v="kindergarten" />
		<tag k="capacity" v="58" />
		<tag k="contact:website" v="http://jovannslia.no/" />
		<tag k="max_age" v="5" />
		<tag k="min_age" v="1" />
		<tag k="name" v="Jovannslia barnehageenhet, Lia" />
		<tag k="no-barnehage:nsrid" v="1012502" />
		<tag k="operator" v="Arendal kommune" />
		<tag k="operator:type" v="public" />
	</node>
	<node id="-53" lat="58.48043" lon="8.77255">
		<tag k="ADDRESS" v="Mårstien 1, 4844 ARENDAL" />
		<tag k="amenity" v="kindergarten" />
		<tag k="capacity" v="48" />
		<tag k="contact:website" v="http://jovannslia.no" />
		<tag k="max_age" v="5" />
		<tag k="min_age" v="1" />
		<tag k="name" v="Jovannslia barnehageenhet, Jovannslia" />
		<tag k="no-barnehage:nsrid" v="1017039" />
		<tag k="operator" v="Arendal kommune" />
		<tag k="operator:type" v="public" />
	</node>
	<node id="-52" lat="58.44221" lon="8.7637">
		<tag k="ADDRESS" v="Trommestadveien 90, 4817 HIS" />
		<tag k="amenity" v="kindergarten" />
		<tag k="capacity" v="54" />
		<tag k="contact:website" v="http://www.stemmehagen.no/" />
		<tag k="max_age" v="5" />
		<tag k="min_age" v="1" />
		<tag k="name" v="Hisøy barnehageenhet, Stemmehagen" />
		<tag k="no-barnehage:nsrid" v="1025443" />
		<tag k="operator" v="Arendal kommune" />
		<tag k="operator:type" v="public" />
	</node>
	<node id="-51" lat="58.47699" lon="8.72185">
		<tag k="ADDRESS" v="Østensbuveien 137, 4848 ARENDAL" />
		<tag k="amenity" v="kindergarten" />
		<tag k="capacity" v="98" />
		<tag k="contact:website" v="http://www.espira.no" />
		<tag k="max_age" v="5" />
		<tag k="min_age" v="1" />
		<tag k="name" v="Espira Myraskogen barnehage" />
		<tag k="no-barnehage:nsrid" v="1021752" />
		<tag k="operator" v="Espira Myraskogen AS" />
		<tag k="operator:type" v="private" />
	</node>
	<node id="-50" lat="58.43809" lon="8.70744">
		<tag k="ADDRESS" v="Rykeneveien 90, 4824 BJORBEKK" />
		<tag k="amenity" v="kindergarten" />
		<tag k="capacity" v="38" />
		<tag k="contact:website" v="http://eplehagenbarnehage.no" />
		<tag k="max_age" v="5" />
		<tag k="min_age" v="1" />
		<tag k="name" v="Eplehagen barnehagen" />
		<tag k="no-barnehage:nsrid" v="1025748" />
		<tag k="operator" v="Eplehagen Barnehagen AS" />
		<tag k="operator:type" v="private" />
	</node>
	<node id="-49" lat="58.47404" lon="8.80463">
		<tag k="ADDRESS" v="Engehaven 15, 4842 ARENDAL" />
		<tag k="amenity" v="kindergarten" />
		<tag k="capacity" v="19" />
		<tag k="contact:website" v="http://enghaven.barnehageside.no" />
		<tag k="max_age" v="5" />
		<tag k="min_age" v="1" />
		<tag k="name" v="Enghaven barnehage" />
		<tag k="no-barnehage:nsrid" v="1020723" />
		<tag k="operator" v="Enghaven barnehage AS" />
		<tag k="operator:type" v="private" />
	</node>
	<node id="-48" lat="58.47741" lon="8.7626">
		<tag k="ADDRESS" v="Lerkeveien 18, 4846 ARENDAL" />
		<tag k="amenity" v="kindergarten" />
		<tag k="capacity" v="67" />
		<tag k="contact:website" v="http://www.moltemyrskogen.no" />
		<tag k="max_age" v="5" />
		<tag k="min_age" v="1" />
		<tag k="name" v="Durapart avd. Moltemyrskogen barnehage" />
		<tag k="no-barnehage:nsrid" v="1017689" />
		<tag k="operator" v="Durapart AS" />
		<tag k="operator:type" v="private" />
	</node>
	<node id="-47" lat="58.48719" lon="8.84922">
		<tag k="ADDRESS" v="Skibvig Ringvei 31, 4815 SALTRØD" />
		<tag k="amenity" v="kindergarten" />
		<tag k="capacity" v="39" />
		<tag k="contact:website" v="http://www.drommevika-naturbarnehage.no" />
		<tag k="max_age" v="5" />
		<tag k="min_age" v="1" />
		<tag k="name" v="Drømmevika naturbarnehage" />
		<tag k="no-barnehage:nsrid" v="1022338" />
		<tag k="operator" v="Drømmevika Naturbarnehage AS" />
		<tag k="operator:type" v="private" />
	</node>
	<node id="-46" lat="58.5249" lon="8.79827">
		<tag k="ADDRESS" v="Dalenveien 565, 4849 ARENDAL" />
		<tag k="amenity" v="kindergarten" />
		<tag k="capacity" v="55" />
		<tag k="contact:website" v="http://dalenbarnehage.net" />
		<tag k="max_age" v="5" />
		<tag k="min_age" v="1" />
		<tag k="name" v="Dalen barnehage" />
		<tag k="no-barnehage:nsrid" v="1019908" />
		<tag k="operator" v="Dalen barnehage" />
		<tag k="operator:type" v="private" />
	</node>
	<node id="-45" lat="58.47522" lon="8.70503">
		<tag k="ADDRESS" v="Bråstadhuset Frolandsveien 307, 4848 ARENDAL" />
		<tag k="amenity" v="kindergarten" />
		<tag k="capacity" v="38" />
		<tag k="contact:website" v="http://brastad.barnehage.no" />
		<tag k="max_age" v="5" />
		<tag k="min_age" v="1" />
		<tag k="name" v="Bråstad barnehage" />
		<tag k="no-barnehage:nsrid" v="1020672" />
		<tag k="operator" v="Bråstad barnehage AS" />
		<tag k="operator:type" v="private" />
	</node>
	<node id="-44" lat="58.45361" lon="8.81167">
		<tag k="ADDRESS" v="Skilsøveien 183, 4818 FÆRVIK" />
		<tag k="amenity" v="kindergarten" />
		<tag k="capacity" v="28" />
		<tag k="contact:website" v="http://styrer@blaklokken.no" />
		<tag k="max_age" v="5" />
		<tag k="min_age" v="1" />
		<tag k="name" v="Blåklokken barnehage" />
		<tag k="no-barnehage:nsrid" v="1019766" />
		<tag k="operator" v="Blåklokken barnehage" />
		<tag k="operator:type" v="private" />
	</node>
	<node id="-43" lat="58.40744" lon="8.707">
		<tag k="ADDRESS" v="Juellsklev 3, 4841 ARENDAL" />
		<tag k="amenity" v="kindergarten" />
		<tag k="capacity" v="19" />
		<tag k="contact:website" v="http://www.sentrum-ost.barnehage.arendal.no/" />
		<tag k="max_age" v="5" />
		<tag k="min_age" v="1" />
		<tag k="name" v="Barnehager Sentrum Øst, Møllers Asyl" />
		<tag k="no-barnehage:nsrid" v="1017143" />
		<tag k="operator" v="Arendal kommune" />
		<tag k="operator:type" v="public" />
	</node>
	<node id="-42" lat="58.47362" lon="8.78821">
		<tag k="ADDRESS" v="Nordbødalen 3, 4843 ARENDAL" />
		<tag k="amenity" v="kindergarten" />
		<tag k="capacity" v="50" />
		<tag k="contact:website" v="http://www.sentrum-ost.barnehage.arendal.no/" />
		<tag k="max_age" v="5" />
		<tag k="min_age" v="1" />
		<tag k="name" v="Barnehager Sentrum Øst, Gullfakse" />
		<tag k="no-barnehage:nsrid" v="1017142" />
		<tag k="operator" v="Arendal kommune" />
		<tag k="operator:type" v="public" />
	</node>
	<node id="-41" lat="58.44848" lon="8.76659">
		<tag k="ADDRESS" v="Trommestadveien 50, 4816 KOLBJØRNSVIK" />
		<tag k="amenity" v="kindergarten" />
		<tag k="capacity" v="34" />
		<tag k="contact:website" v="http://www.facebook.com/askeladdenbarn/minaskeladden.barnehage.no/" />
		<tag k="max_age" v="5" />
		<tag k="min_age" v="1" />
		<tag k="name" v="Askeladden barnehage Friluft, natur, Omsorg" />
		<tag k="no-barnehage:nsrid" v="1019939" />
		<tag k="operator" v="Askeladden barnehage Åge Pettersen" />
		<tag k="operator:type" v="private" />
	</node>
	<node id="-40" lat="58.43395" lon="8.69631">
		<tag k="ADDRESS" v="Madshaven 3, 4824 BJORBEKK" />
		<tag k="amenity" v="kindergarten" />
		<tag k="capacity" v="39" />
		<tag k="contact:website" v="http://asdalbarnehage.no" />
		<tag k="max_age" v="5" />
		<tag k="min_age" v="1" />
		<tag k="name" v="Asdal barnehage" />
		<tag k="no-barnehage:nsrid" v="1022280" />
		<tag k="operator" v="Asdal barnehage AS" />
		<tag k="operator:type" v="private" />
	</node>
	<node id="-39" lat="58.44235" lon="8.71366">
		<tag k="ADDRESS" v="Nidelvåsen 60, 4824 BJORBEKK" />
		<tag k="amenity" v="kindergarten" />
		<tag k="capacity" v="51" />
		<tag k="contact:website" v="http://alvehetta.bhg.no" />
		<tag k="max_age" v="5" />
		<tag k="min_age" v="1" />
		<tag k="name" v="Alvehetta FUS barnehage" />
		<tag k="no-barnehage:nsrid" v="1021765" />
		<tag k="operator" v="Alvehetta Fus barnehage AS" />
		<tag k="operator:type" v="private" />
	</node>
</osm>
