<?xml version="1.0" encoding="UTF-8"?>
<osm version="0.6" generator="osmapis">
	<node lat="0.0" lon="0.0" id="-5009">
		<tag k="ADDRESS" v=", 7353 BØRSA" />
		<tag k="amenity" v="kindergarten" />
		<tag k="capacity" v="124" />
		<tag k="max_age" v="5" />
		<tag k="min_age" v="1" />
		<tag k="name" v="Børsa barnehage" />
		<tag k="no-barnehage:nsrid" v="988875945" />
		<tag k="operator" v="Skaun kommune" />
		<tag k="operator:type" v="public" />
	</node>
	<node lat="63.33608" lon="10.05885" id="-5010">
		<tag k="ADDRESS" v="Fredlyvegen 69, 7353 BØRSA" />
		<tag k="amenity" v="kindergarten" />
		<tag k="capacity" v="36" />
		<tag k="max_age" v="5" />
		<tag k="min_age" v="1" />
		<tag k="name" v="Fredly barnehage" />
		<tag k="no-barnehage:nsrid" v="975183939" />
		<tag k="operator" v="Stiftelsen Fredly folkehøgskole" />
		<tag k="operator:type" v="private" />
	</node>
	<node lat="63.30929" lon="10.1663" id="-5011">
		<tag k="ADDRESS" v="Hammerdalen 10, 7350 BUVIKA" />
		<tag k="amenity" v="kindergarten" />
		<tag k="capacity" v="134" />
		<tag k="max_age" v="5" />
		<tag k="min_age" v="1" />
		<tag k="name" v="Hammerdalen barnehage" />
		<tag k="no-barnehage:nsrid" v="915508480" />
		<tag k="operator" v="Skaun kommune" />
		<tag k="operator:type" v="public" />
	</node>
	<node lat="0.0" lon="0.0" id="-5012">
		<tag k="ADDRESS" v="FINNMYRVEIEN, 7350 BUVIKA" />
		<tag k="amenity" v="kindergarten" />
		<tag k="capacity" v="44" />
		<tag k="max_age" v="5" />
		<tag k="min_age" v="1" />
		<tag k="name" v="Ilhaugen barnehage" />
		<tag k="no-barnehage:nsrid" v="975325466" />
		<tag k="operator" v="Skaun kommune" />
		<tag k="operator:type" v="public" />
	</node>
	<node lat="63.25318" lon="9.97261" id="-5013">
		<tag k="ADDRESS" v="Melbyvegen 845, 7357 SKAUN" />
		<tag k="amenity" v="kindergarten" />
		<tag k="capacity" v="26" />
		<tag k="max_age" v="5" />
		<tag k="min_age" v="1" />
		<tag k="name" v="Jåren-råbygda oppvekstsenter avd. barnehage" />
		<tag k="no-barnehage:nsrid" v="974029960" />
		<tag k="operator" v="Skaun kommune" />
		<tag k="operator:type" v="public" />
	</node>
	<node lat="0.0" lon="0.0" id="-5014">
		<tag k="ADDRESS" v=", 7350 BUVIKA" />
		<tag k="amenity" v="kindergarten" />
		<tag k="capacity" v="85" />
		<tag k="max_age" v="5" />
		<tag k="min_age" v="1" />
		<tag k="name" v="Oterhaugen barnehage" />
		<tag k="no-barnehage:nsrid" v="988875961" />
		<tag k="operator" v="Skaun kommune" />
		<tag k="operator:type" v="public" />
	</node>
	<node lat="0.0" lon="0.0" id="-5015">
		<tag k="ADDRESS" v=", 7357 SKAUN" />
		<tag k="amenity" v="kindergarten" />
		<tag k="capacity" v="36" />
		<tag k="contact:website" v="http://www.skaun.kommune.no" />
		<tag k="max_age" v="5" />
		<tag k="min_age" v="1" />
		<tag k="name" v="Venn oppvekstsenter avd. barnehage" />
		<tag k="no-barnehage:nsrid" v="975311651" />
		<tag k="operator" v="Skaun kommune" />
		<tag k="operator:type" v="public" />
	</node>
	<node lat="0.0" lon="0.0" id="-5016">
		<tag k="ADDRESS" v=", 7354 VIGGJA" />
		<tag k="amenity" v="kindergarten" />
		<tag k="capacity" v="19" />
		<tag k="max_age" v="5" />
		<tag k="min_age" v="1" />
		<tag k="name" v="Viggja oppvekstsenter avd. barnehage" />
		<tag k="no-barnehage:nsrid" v="873495472" />
		<tag k="operator" v="Skaun kommune" />
		<tag k="operator:type" v="public" />
	</node>
</osm>
