<?xml version="1.0" encoding="UTF-8"?>
<osm generator="osmapis" version="0.6">
	<node id="-1917" lat="59.72972" lon="10.21242">
		<tag k="amenity" v="kindergarten" />
		<tag k="capacity" v="4" />
		<tag k="contact:phone" v="32 81 08 87" />
		<tag k="max_age" v="5" />
		<tag k="min_age" v="1" />
		<tag k="name" v="Strømsø Familiebarnehage Qum Gilani" />
		<tag k="no-barnehage:nsrid" v="1020768" />
		<tag k="operator" v="Strømsø Familiebarnehage Qum Gilani" />
		<tag k="operator:type" v="private" />
		<tag k="start_date" v="2001-11-01" />
	</node>
	<node id="-1908" lat="59.74319" lon="10.15218">
		<tag k="amenity" v="kindergarten" />
		<tag k="capacity" v="4" />
		<tag k="max_age" v="5" />
		<tag k="min_age" v="1" />
		<tag k="name" v="Peschanskaya Natalia Fyrtårn Familiebarnehage Avd Roald Amundsens Vei" />
		<tag k="no-barnehage:nsrid" v="1013589" />
		<tag k="operator" v="Fyrtårn barnehage Ved Natalia Peschanskaya" />
		<tag k="operator:type" v="private" />
		<tag k="start_date" v="2013-01-01" />
	</node>
	<node id="-1903" lat="59.69902" lon="10.25059">
		<tag k="amenity" v="kindergarten" />
		<tag k="capacity" v="8" />
		<tag k="contact:phone" v="32 88 05 69" />
		<tag k="max_age" v="2" />
		<tag k="min_age" v="1" />
		<tag k="name" v="Nedre Eik Familiebarnehage Lisbeth Halmrast" />
		<tag k="no-barnehage:nsrid" v="1020331" />
		<tag k="operator" v="Nedre Eik Familiebarnehage Lisbeth Halmrast" />
		<tag k="operator:type" v="private" />
		<tag k="start_date" v="1996-08-01" />
	</node>
	<node id="-1902" lat="59.74326" lon="10.15105">
		<tag k="amenity" v="kindergarten" />
		<tag k="capacity" v="7" />
		<tag k="contact:email" v="juliejenta2003@yahoo.no" />
		<tag k="max_age" v="5" />
		<tag k="min_age" v="1" />
		<tag k="name" v="Markblomsten Camilla Larsen Avd Drammen" />
		<tag k="no-barnehage:nsrid" v="1017915" />
		<tag k="operator" v="Markblomsten Camilla Larsen" />
		<tag k="operator:type" v="private" />
		<tag k="start_date" v="2008-01-01" />
	</node>
	<node id="-1893" lat="59.73806" lon="10.194">
		<tag k="amenity" v="kindergarten" />
		<tag k="capacity" v="3" />
		<tag k="contact:email" v="voltbeatrice@gmail.com" />
		<tag k="contact:phone" v="992 95 995" />
		<tag k="max_age" v="2" />
		<tag k="min_age" v="1" />
		<tag k="name" v="Karuna Familiebarnehage Anu Beatrice Stephensen" />
		<tag k="no-barnehage:nsrid" v="1022381" />
		<tag k="operator" v="Karuna Familiebarnehage Anu Beatrice Stephensen" />
		<tag k="operator:type" v="private" />
		<tag k="start_date" v="2013-06-17" />
	</node>
	<node id="-1923" lat="59.71292" lon="10.25272">
		<tag k="amenity" v="kindergarten" />
		<tag k="capacity" v="4" />
		<tag k="contact:phone" v="32 80 13 80" />
		<tag k="max_age" v="2" />
		<tag k="min_age" v="1" />
		<tag k="name" v="Åskollen Familiebarnehage Knerten Marit Fossum" />
		<tag k="no-barnehage:nsrid" v="1020283" />
		<tag k="operator" v="Åskollen Familiebarnehage Knerten Marit Fossum" />
		<tag k="operator:type" v="private" />
		<tag k="start_date" v="2002-11-13" />
	</node>
</osm>
