<?xml version="1.0" encoding="UTF-8"?>
<osm generator="osmapis" version="0.6">
	<node id="-2264" lat="59.7542" lon="10.1431">
		<tag k="amenity" v="kindergarten" />
		<tag k="capacity" v="20" />
		<tag k="contact:email" v="thansen@drammen.kirken.no" />
		<tag k="contact:phone" v="32 23 56 70" />
		<tag k="max_age" v="5" />
		<tag k="min_age" v="1" />
		<tag k="name" v="Åssiden Menighets barnehage" />
		<tag k="no-barnehage:nsrid" v="1015537" />
		<tag k="operator" v="Drammen Kirkelig Fellesråd" />
		<tag k="operator:type" v="private" />
		<tag k="start_date" v="1978-07-24" />
	</node>
	<node id="-2263" lat="59.75911" lon="10.13398">
		<tag k="amenity" v="kindergarten" />
		<tag k="capacity" v="31" />
		<tag k="contact:email" v="post@aslokka.com" />
		<tag k="contact:phone" v="32 82 44 05" />
		<tag k="max_age" v="5" />
		<tag k="min_age" v="1" />
		<tag k="name" v="Åssiden Kvinne og Familielag" />
		<tag k="no-barnehage:nsrid" v="1019795" />
		<tag k="operator" v="Åssiden Kvinne og Familielag" />
		<tag k="operator:type" v="private" />
		<tag k="start_date" v="1989-01-01" />
	</node>
	<node id="-2262" lat="59.7527" lon="10.1458">
		<tag k="amenity" v="kindergarten" />
		<tag k="capacity" v="48" />
		<tag k="contact:email" v="vivrul@drmk.no" />
		<tag k="contact:phone" v="32 82 08 88" />
		<tag k="max_age" v="5" />
		<tag k="min_age" v="1" />
		<tag k="name" v="Åssiden barnehage" />
		<tag k="no-barnehage:nsrid" v="1014771" />
		<tag k="operator" v="Drammen kommune" />
		<tag k="operator:type" v="public" />
		<tag k="start_date" v="1993-08-01" />
	</node>
	<node id="-2260" lat="59.75161" lon="10.16933">
		<tag k="amenity" v="kindergarten" />
		<tag k="capacity" v="60" />
		<tag k="contact:email" v="styrer@orenbarn.no" />
		<tag k="contact:phone" v="32 89 11 15" />
		<tag k="max_age" v="5" />
		<tag k="min_age" v="1" />
		<tag k="name" v="Øren Andelsbarnehage" />
		<tag k="no-barnehage:nsrid" v="1020680" />
		<tag k="operator" v="Øren Andelslag Sa" />
		<tag k="operator:type" v="private" />
		<tag k="start_date" v="2001-01-01" />
	</node>
	<node id="-2259" lat="59.7466" lon="10.1566">
		<tag k="amenity" v="kindergarten" />
		<tag k="capacity" v="75" />
		<tag k="contact:email" v="Vibeke@teknabarna.no" />
		<tag k="contact:phone" v="32838262" />
		<tag k="max_age" v="5" />
		<tag k="min_age" v="1" />
		<tag k="name" v="Tekna Barnehagen Tellus" />
		<tag k="no-barnehage:nsrid" v="1015936" />
		<tag k="operator" v="Stiftelsen Tekna Barnehager Drammen" />
		<tag k="operator:type" v="private" />
		<tag k="start_date" v="1989-01-01" />
	</node>
	<node id="-2258" lat="59.7033" lon="10.1594">
		<tag k="amenity" v="kindergarten" />
		<tag k="capacity" v="33" />
		<tag k="contact:email" v="tony@teknabarna.no" />
		<tag k="max_age" v="5" />
		<tag k="min_age" v="1" />
		<tag k="name" v="Tekna Barnehagen Rådyrtråkket" />
		<tag k="no-barnehage:nsrid" v="1016588" />
		<tag k="operator" v="Stiftelsen Tekna Barnehager Drammen" />
		<tag k="operator:type" v="private" />
		<tag k="start_date" v="2003-04-26" />
	</node>
	<node id="-2257" lat="59.7495" lon="10.192">
		<tag k="amenity" v="kindergarten" />
		<tag k="capacity" v="113" />
		<tag k="contact:email" v="lill.kristin.morch@drmk.no" />
		<tag k="contact:phone" v="803031000" />
		<tag k="max_age" v="5" />
		<tag k="min_age" v="1" />
		<tag k="name" v="Sørbyløkka barnehage" />
		<tag k="no-barnehage:nsrid" v="1016646" />
		<tag k="operator" v="Drammen kommune" />
		<tag k="operator:type" v="public" />
		<tag k="start_date" v="1989-01-02" />
	</node>
	<node id="-2256" lat="59.7144" lon="10.15">
		<tag k="amenity" v="kindergarten" />
		<tag k="capacity" v="48" />
		<tag k="contact:email" v="marfin@drmk.no" />
		<tag k="contact:phone" v="32 04 58 30" />
		<tag k="max_age" v="5" />
		<tag k="min_age" v="1" />
		<tag k="name" v="Svensedammen barnehage" />
		<tag k="no-barnehage:nsrid" v="1014699" />
		<tag k="operator" v="Drammen kommune" />
		<tag k="operator:type" v="public" />
		<tag k="start_date" v="1992-01-01" />
	</node>
	<node id="-2254" lat="59.7331" lon="10.2057">
		<tag k="amenity" v="kindergarten" />
		<tag k="capacity" v="97" />
		<tag k="contact:email" v="ingruk@drmk.no" />
		<tag k="contact:phone" v="32 04 49 50" />
		<tag k="max_age" v="5" />
		<tag k="min_age" v="1" />
		<tag k="name" v="Strømsø barnehage" />
		<tag k="no-barnehage:nsrid" v="1013933" />
		<tag k="operator" v="Drammen kommune" />
		<tag k="operator:type" v="public" />
		<tag k="start_date" v="1990-01-01" />
	</node>
	<node id="-2253" lat="59.7159" lon="10.26105">
		<tag k="amenity" v="kindergarten" />
		<tag k="capacity" v="45" />
		<tag k="contact:email" v="nordbygard@barnehage.no" />
		<tag k="contact:phone" v="32800955" />
		<tag k="max_age" v="5" />
		<tag k="min_age" v="1" />
		<tag k="name" v="Stiftelsen Nordby Gård barnehage" />
		<tag k="no-barnehage:nsrid" v="1019992" />
		<tag k="operator" v="Stiftelsen Nordby Gård barnehage" />
		<tag k="operator:type" v="private" />
		<tag k="start_date" v="1991-10-01" />
	</node>
	<node id="-2252" lat="59.73785" lon="10.18531">
		<tag k="amenity" v="kindergarten" />
		<tag k="capacity" v="39" />
		<tag k="contact:email" v="lassbba@frisurf.no" />
		<tag k="contact:phone" v="32 89 32 55" />
		<tag k="max_age" v="5" />
		<tag k="min_age" v="1" />
		<tag k="name" v="Stiftelsen Lassebakken barnehage" />
		<tag k="no-barnehage:nsrid" v="1020683" />
		<tag k="operator" v="Stiftelsen Lassebakken barnehage" />
		<tag k="operator:type" v="private" />
		<tag k="start_date" v="1989-01-02" />
	</node>
	<node id="-2251" lat="59.7276" lon="10.2389">
		<tag k="amenity" v="kindergarten" />
		<tag k="capacity" v="73" />
		<tag k="contact:email" v="Ellen.Marie.Winther@drmk.no" />
		<tag k="contact:phone" v="32 04 58 70" />
		<tag k="max_age" v="5" />
		<tag k="min_age" v="1" />
		<tag k="name" v="St. Hansberget barnehage" />
		<tag k="no-barnehage:nsrid" v="1017997" />
		<tag k="operator" v="Drammen kommune" />
		<tag k="operator:type" v="public" />
		<tag k="start_date" v="1989-01-01" />
	</node>
	<node id="-2250" lat="59.73674" lon="10.20589">
		<tag k="amenity" v="kindergarten" />
		<tag k="capacity" v="45" />
		<tag k="contact:email" v="drammen@steinerbarnehage.no" />
		<tag k="contact:phone" v="32891096" />
		<tag k="max_age" v="5" />
		<tag k="min_age" v="1" />
		<tag k="name" v="Solstreif barnehage" />
		<tag k="no-barnehage:nsrid" v="1019794" />
		<tag k="operator" v="Stiftelsen Mallinggata 1" />
		<tag k="operator:type" v="private" />
		<tag k="start_date" v="1989-01-01" />
	</node>
	<node id="-2249" lat="59.7241" lon="10.1348">
		<tag k="amenity" v="kindergarten" />
		<tag k="capacity" v="90" />
		<tag k="contact:email" v="bjofla@drmk.no" />
		<tag k="contact:phone" v="32 04 58 60" />
		<tag k="max_age" v="5" />
		<tag k="min_age" v="1" />
		<tag k="name" v="Solhaugen barnehage" />
		<tag k="no-barnehage:nsrid" v="1015679" />
		<tag k="operator" v="Drammen kommune" />
		<tag k="operator:type" v="public" />
		<tag k="start_date" v="1998-01-20" />
	</node>
	<node id="-2248" lat="59.75728" lon="10.13011">
		<tag k="amenity" v="kindergarten" />
		<tag k="capacity" v="45" />
		<tag k="contact:email" v="solstrba@online.no" />
		<tag k="contact:phone" v="32 89 02 60" />
		<tag k="max_age" v="5" />
		<tag k="min_age" v="1" />
		<tag k="name" v="Solhagen Rudolf Steiner barnehage" />
		<tag k="no-barnehage:nsrid" v="1021341" />
		<tag k="operator" v="Stiftelsen Mallinggata 1" />
		<tag k="operator:type" v="private" />
		<tag k="start_date" v="2005-08-01" />
	</node>
	<node id="-2247" lat="59.72041" lon="10.2207">
		<tag k="amenity" v="kindergarten" />
		<tag k="capacity" v="69" />
		<tag k="contact:email" v="styrer@skattekisten.net" />
		<tag k="contact:phone" v="32 80 18 12" />
		<tag k="contact:website" v="http://skattekisten.net" />
		<tag k="max_age" v="5" />
		<tag k="min_age" v="1" />
		<tag k="name" v="Skattekisten barnehage Sa" />
		<tag k="no-barnehage:nsrid" v="1021020" />
		<tag k="operator" v="Skattekisten barnehage Sa" />
		<tag k="operator:type" v="private" />
		<tag k="start_date" v="2004-02-26" />
	</node>
	<node id="-2246" lat="59.71767" lon="10.22239">
		<tag k="amenity" v="kindergarten" />
		<tag k="capacity" v="76" />
		<tag k="contact:email" v="dl.senterbarnehagen@bhg.no" />
		<tag k="contact:phone" v="32 21 02 92" />
		<tag k="max_age" v="5" />
		<tag k="min_age" v="1" />
		<tag k="name" v="Senterbarnehagen Fus AS" />
		<tag k="no-barnehage:nsrid" v="1021827" />
		<tag k="operator" v="Senterbarnehagen Fus AS" />
		<tag k="operator:type" v="private" />
		<tag k="start_date" v="2008-05-27" />
	</node>
	<node id="-2245" lat="59.71769" lon="10.15814">
		<tag k="amenity" v="kindergarten" />
		<tag k="capacity" v="49" />
		<tag k="contact:email" v="geir_andre@royseplassen.no" />
		<tag k="contact:phone" v="32 88 88 88" />
		<tag k="contact:website" v="http://www.royseplassen.no/" />
		<tag k="max_age" v="5" />
		<tag k="min_age" v="1" />
		<tag k="name" v="Røyseplassen barnehage Sa" />
		<tag k="no-barnehage:nsrid" v="1020031" />
		<tag k="operator" v="Røyseplassen barnehage Sa" />
		<tag k="operator:type" v="private" />
		<tag k="start_date" v="1993-01-01" />
	</node>
	<node id="-2243" lat="59.7456" lon="10.1945">
		<tag k="amenity" v="kindergarten" />
		<tag k="capacity" v="103" />
		<tag k="contact:email" v="jormog@drmk.no" />
		<tag k="contact:phone" v="32 04 57 70" />
		<tag k="max_age" v="5" />
		<tag k="min_age" v="1" />
		<tag k="name" v="Parktunet barnehage" />
		<tag k="no-barnehage:nsrid" v="1017996" />
		<tag k="operator" v="Drammen kommune" />
		<tag k="operator:type" v="public" />
		<tag k="start_date" v="1989-01-01" />
	</node>
	<node id="-2242" lat="59.71989" lon="10.2649">
		<tag k="amenity" v="kindergarten" />
		<tag k="capacity" v="62" />
		<tag k="contact:email" v="bhg.nostodden@laringsverkstedet.no" />
		<tag k="contact:phone" v="63 94 62 50" />
		<tag k="max_age" v="5" />
		<tag k="min_age" v="1" />
		<tag k="name" v="Nøstodden barnehage AS" />
		<tag k="no-barnehage:nsrid" v="1021707" />
		<tag k="operator" v="Nøstodden barnehage AS" />
		<tag k="operator:type" v="private" />
		<tag k="start_date" v="2007-08-17" />
	</node>
	<node id="-2241" lat="59.716" lon="10.2597">
		<tag k="amenity" v="kindergarten" />
		<tag k="capacity" v="68" />
		<tag k="contact:email" v="cecbra@drmk.no" />
		<tag k="contact:phone" v="32 26 08 00" />
		<tag k="max_age" v="5" />
		<tag k="min_age" v="1" />
		<tag k="name" v="Nordbylunden barnehage" />
		<tag k="no-barnehage:nsrid" v="1017995" />
		<tag k="operator" v="Drammen kommune" />
		<tag k="operator:type" v="public" />
		<tag k="start_date" v="1989-01-01" />
	</node>
	<node id="-2240" lat="59.7515" lon="10.1349">
		<tag k="amenity" v="kindergarten" />
		<tag k="capacity" v="34" />
		<tag k="contact:email" v="tryggheim.drammen@nlmbhg.no" />
		<tag k="contact:phone" v="32 82 29 76" />
		<tag k="max_age" v="5" />
		<tag k="min_age" v="1" />
		<tag k="name" v="Nlm Barnehagene AS Avd Tryggheim Barnehage Drammen" />
		<tag k="no-barnehage:nsrid" v="1016177" />
		<tag k="operator" v="Nlm-Barnehagene AS" />
		<tag k="operator:type" v="private" />
		<tag k="start_date" v="1976-12-24" />
	</node>
	<node id="-2237" lat="59.7352" lon="10.1968">
		<tag k="amenity" v="kindergarten" />
		<tag k="capacity" v="20" />
		<tag k="contact:email" v="ingruk@drmk.no" />
		<tag k="contact:phone" v="32 04 49 48" />
		<tag k="max_age" v="5" />
		<tag k="min_age" v="1" />
		<tag k="name" v="Marienlyst barnehage" />
		<tag k="no-barnehage:nsrid" v="1017994" />
		<tag k="operator" v="Drammen kommune" />
		<tag k="operator:type" v="public" />
		<tag k="start_date" v="1989-01-01" />
	</node>
	<node id="-2236" lat="59.74761" lon="10.2251">
		<tag k="amenity" v="kindergarten" />
		<tag k="capacity" v="39" />
		<tag k="contact:email" v="dagligleder@lokkebergevels.com" />
		<tag k="contact:phone" v="32 83 29 75" />
		<tag k="max_age" v="5" />
		<tag k="min_age" v="1" />
		<tag k="name" v="Løkkebergene Vels barnehage" />
		<tag k="no-barnehage:nsrid" v="1019633" />
		<tag k="operator" v="Løkkebergene Vels barnehage" />
		<tag k="operator:type" v="private" />
		<tag k="start_date" v="1982-01-01" />
	</node>
	<node id="-2235" lat="59.6858" lon="10.2166">
		<tag k="amenity" v="kindergarten" />
		<tag k="capacity" v="67" />
		<tag k="contact:email" v="skoger@laringsverkstedet.no" />
		<tag k="max_age" v="5" />
		<tag k="min_age" v="1" />
		<tag k="name" v="Læringsverkstedet barnehage Avd Skoger" />
		<tag k="no-barnehage:nsrid" v="1015057" />
		<tag k="operator" v="Læringsverkstedet AS" />
		<tag k="operator:type" v="private" />
		<tag k="start_date" v="2012-01-01" />
	</node>
	<node id="-2234" lat="59.7477" lon="10.1995">
		<tag k="amenity" v="kindergarten" />
		<tag k="capacity" v="44" />
		<tag k="contact:email" v="olehet@drmk.no" />
		<tag k="contact:phone" v="32 04 47 72" />
		<tag k="max_age" v="5" />
		<tag k="min_age" v="1" />
		<tag k="name" v="Lilleløkka barnehage" />
		<tag k="no-barnehage:nsrid" v="1013397" />
		<tag k="operator" v="Drammen kommune" />
		<tag k="operator:type" v="public" />
		<tag k="start_date" v="2006-08-14" />
	</node>
	<node id="-2233" lat="59.7192" lon="10.1471">
		<tag k="amenity" v="kindergarten" />
		<tag k="capacity" v="54" />
		<tag k="contact:email" v="jonas.borg@drmk.no" />
		<tag k="contact:phone" v="32 04 58 10" />
		<tag k="max_age" v="5" />
		<tag k="min_age" v="1" />
		<tag k="name" v="Konnerud barnehage" />
		<tag k="no-barnehage:nsrid" v="1017993" />
		<tag k="operator" v="Drammen kommune" />
		<tag k="operator:type" v="public" />
		<tag k="start_date" v="1989-01-01" />
	</node>
	<node id="-2232" lat="59.7286" lon="10.2298">
		<tag k="amenity" v="kindergarten" />
		<tag k="capacity" v="94" />
		<tag k="contact:email" v="jeafje@drmk.no" />
		<tag k="max_age" v="5" />
		<tag k="min_age" v="1" />
		<tag k="name" v="Kobbervik Gård barnehage" />
		<tag k="no-barnehage:nsrid" v="1013543" />
		<tag k="operator" v="Drammen kommune" />
		<tag k="operator:type" v="public" />
		<tag k="start_date" v="2013-03-01" />
	</node>
	<node id="-2231" lat="59.75023" lon="10.20415">
		<tag k="amenity" v="kindergarten" />
		<tag k="capacity" v="68" />
		<tag k="contact:email" v="grete.nordli@gmail.com" />
		<tag k="contact:phone" v="32 83 53 72" />
		<tag k="max_age" v="5" />
		<tag k="min_age" v="1" />
		<tag k="name" v="Klokkergården barnehage AS" />
		<tag k="no-barnehage:nsrid" v="1021544" />
		<tag k="operator" v="Klokkergården barnehage AS" />
		<tag k="operator:type" v="private" />
		<tag k="start_date" v="2007-04-10" />
	</node>
	<node id="-2230" lat="59.74237" lon="10.14816">
		<tag k="amenity" v="kindergarten" />
		<tag k="capacity" v="66" />
		<tag k="contact:email" v="styrer@kjerraten-bhg.no" />
		<tag k="contact:phone" v="32 83 87 15" />
		<tag k="max_age" v="5" />
		<tag k="min_age" v="1" />
		<tag k="name" v="Kjerraten barnehage Sa" />
		<tag k="no-barnehage:nsrid" v="1020519" />
		<tag k="operator" v="Kjerraten barnehage Sa" />
		<tag k="operator:type" v="private" />
		<tag k="start_date" v="1998-12-31" />
	</node>
	<node id="-2229" lat="59.706" lon="10.1566">
		<tag k="amenity" v="kindergarten" />
		<tag k="capacity" v="85" />
		<tag k="contact:email" v="peter.moberg@drmk.no" />
		<tag k="contact:phone" v="32 04 58 41" />
		<tag k="max_age" v="5" />
		<tag k="min_age" v="1" />
		<tag k="name" v="Jordbrekkskogen barnehage" />
		<tag k="no-barnehage:nsrid" v="1017992" />
		<tag k="operator" v="Drammen kommune" />
		<tag k="operator:type" v="public" />
		<tag k="start_date" v="1989-01-01" />
	</node>
	<node id="-2228" lat="59.71535" lon="10.26377">
		<tag k="amenity" v="kindergarten" />
		<tag k="capacity" v="15" />
		<tag k="contact:email" v="helleristningen.barnehage@ebnett.no" />
		<tag k="contact:phone" v="32 80 16 65" />
		<tag k="max_age" v="5" />
		<tag k="min_age" v="1" />
		<tag k="name" v="Helleristningen barnehage Bente Hennum" />
		<tag k="no-barnehage:nsrid" v="1021116" />
		<tag k="operator" v="Helleristningen barnehage Bente Hennum" />
		<tag k="operator:type" v="private" />
		<tag k="start_date" v="1996-09-01" />
	</node>
	<node id="-2227" lat="59.7276" lon="10.24124">
		<tag k="amenity" v="kindergarten" />
		<tag k="capacity" v="50" />
		<tag k="contact:email" v="hedensrud@barnehage.no" />
		<tag k="contact:phone" v="32811210" />
		<tag k="contact:website" v="http://www.hedensrud.barnehage.no" />
		<tag k="max_age" v="5" />
		<tag k="min_age" v="1" />
		<tag k="name" v="Hedensrud barnehage Sa" />
		<tag k="no-barnehage:nsrid" v="1020027" />
		<tag k="operator" v="Hedensrud barnehage Sa" />
		<tag k="operator:type" v="private" />
		<tag k="start_date" v="1992-01-01" />
	</node>
	<node id="-2226" lat="59.7473" lon="10.1571">
		<tag k="amenity" v="kindergarten" />
		<tag k="capacity" v="109" />
		<tag k="contact:email" v="lisbeth.dahl@drammen.kommune.no" />
		<tag k="max_age" v="5" />
		<tag k="min_age" v="1" />
		<tag k="name" v="Gulskogen barnehage Avdeling Øvre Eikervei" />
		<tag k="no-barnehage:nsrid" v="1017904" />
		<tag k="operator" v="Drammen kommune" />
		<tag k="operator:type" v="public" />
		<tag k="start_date" v="2007-09-15" />
	</node>
	<node id="-2225" lat="59.7454" lon="10.1539">
		<tag k="amenity" v="kindergarten" />
		<tag k="capacity" v="35" />
		<tag k="contact:email" v="lisbeth.dahl@drmk.no" />
		<tag k="contact:phone" v="32 04 48 80" />
		<tag k="max_age" v="5" />
		<tag k="min_age" v="1" />
		<tag k="name" v="Gulskogen barnehage Avdeling Rødgata" />
		<tag k="no-barnehage:nsrid" v="1017991" />
		<tag k="operator" v="Drammen kommune" />
		<tag k="operator:type" v="public" />
		<tag k="start_date" v="1989-01-01" />
	</node>
	<node id="-2224" lat="59.74089" lon="10.18626">
		<tag k="amenity" v="kindergarten" />
		<tag k="contact:email" v="vidar@solberg.no" />
		<tag k="name" v="Fredheim Åpen barnehage" />
		<tag k="no-barnehage:nsrid" v="1020570" />
		<tag k="operator" v="Brunstad Kristelige Menighet Drammen" />
		<tag k="operator:type" v="private" />
		<tag k="start_date" v="2009-01-01" />
	</node>
	<node id="-2223" lat="59.719" lon="10.2228">
		<tag k="amenity" v="kindergarten" />
		<tag k="capacity" v="75" />
		<tag k="contact:email" v="terje.langklop@drmk.no" />
		<tag k="contact:phone" v="32 04 49 30" />
		<tag k="max_age" v="5" />
		<tag k="min_age" v="1" />
		<tag k="name" v="Fjellhagen barnehage" />
		<tag k="no-barnehage:nsrid" v="1017990" />
		<tag k="operator" v="Drammen kommune" />
		<tag k="operator:type" v="public" />
		<tag k="start_date" v="1989-01-01" />
	</node>
	<node id="-2222" lat="59.7166" lon="10.2239">
		<tag k="amenity" v="kindergarten" />
		<tag k="capacity" v="112" />
		<tag k="contact:email" v="tofred@drmk.no" />
		<tag k="contact:phone" v="32 04 59 50" />
		<tag k="max_age" v="5" />
		<tag k="min_age" v="1" />
		<tag k="name" v="Fjell barnehage" />
		<tag k="no-barnehage:nsrid" v="1017989" />
		<tag k="operator" v="Drammen kommune" />
		<tag k="operator:type" v="public" />
		<tag k="start_date" v="1989-01-01" />
	</node>
	<node id="-2221" lat="59.73195" lon="10.13788">
		<tag k="amenity" v="kindergarten" />
		<tag k="capacity" v="120" />
		<tag k="contact:email" v="styrer@vannverksdammen.espira.no" />
		<tag k="contact:phone" v="52 84 50 20" />
		<tag k="contact:website" v="http://www.espira.no" />
		<tag k="max_age" v="5" />
		<tag k="min_age" v="1" />
		<tag k="name" v="Espira Vannverksdammen barnehage" />
		<tag k="no-barnehage:nsrid" v="1021529" />
		<tag k="operator" v="Espira Vannverksdammen AS" />
		<tag k="operator:type" v="private" />
		<tag k="start_date" v="2006-09-12" />
	</node>
	<node id="-2220" lat="59.71975" lon="10.16267">
		<tag k="amenity" v="kindergarten" />
		<tag k="capacity" v="66" />
		<tag k="contact:email" v="styrer@torsbergskogen.espira.no" />
		<tag k="contact:phone" v="52 84 50 20" />
		<tag k="contact:website" v="http://www.espira.no" />
		<tag k="max_age" v="5" />
		<tag k="min_age" v="1" />
		<tag k="name" v="Espira Torsbergskogen barnehage" />
		<tag k="no-barnehage:nsrid" v="1021667" />
		<tag k="operator" v="Espira Torsbergskogen AS" />
		<tag k="operator:type" v="private" />
		<tag k="start_date" v="2007-06-21" />
	</node>
	<node id="-2219" lat="59.70164" lon="10.26811">
		<tag k="amenity" v="kindergarten" />
		<tag k="capacity" v="108" />
		<tag k="contact:email" v="styrer@kniveasen.espira.no" />
		<tag k="contact:phone" v="52 84 50 20" />
		<tag k="contact:website" v="http://www.espira.no" />
		<tag k="max_age" v="5" />
		<tag k="min_age" v="1" />
		<tag k="name" v="Espira Kniveåsen barnehage" />
		<tag k="no-barnehage:nsrid" v="1021530" />
		<tag k="operator" v="Espira Kniveåsen AS" />
		<tag k="operator:type" v="private" />
		<tag k="start_date" v="2006-09-12" />
	</node>
	<node id="-2218" lat="59.71577" lon="10.15599">
		<tag k="amenity" v="kindergarten" />
		<tag k="capacity" v="65" />
		<tag k="contact:email" v="styrer@gaserud.espira.no" />
		<tag k="contact:website" v="http://www.espira.no" />
		<tag k="max_age" v="5" />
		<tag k="min_age" v="1" />
		<tag k="name" v="Espira Gåserud barnehage" />
		<tag k="no-barnehage:nsrid" v="1020861" />
		<tag k="operator" v="Espira Gåserud AS" />
		<tag k="operator:type" v="private" />
		<tag k="start_date" v="2002-04-23" />
	</node>
	<node id="-2217" lat="59.75068" lon="10.17817">
		<tag k="amenity" v="kindergarten" />
		<tag k="capacity" v="50" />
		<tag k="contact:email" v="styrer@ekornheia.no" />
		<tag k="contact:phone" v="32895302" />
		<tag k="contact:website" v="http://www.ekornheia.no" />
		<tag k="max_age" v="5" />
		<tag k="min_age" v="1" />
		<tag k="name" v="Ekornheia barnehage Sa" />
		<tag k="no-barnehage:nsrid" v="1019937" />
		<tag k="operator" v="Ekornheia barnehage Sa" />
		<tag k="operator:type" v="private" />
		<tag k="start_date" v="1990-01-01" />
	</node>
	<node id="-2216" lat="59.74916" lon="10.16955">
		<tag k="amenity" v="kindergarten" />
		<tag k="capacity" v="40" />
		<tag k="contact:email" v="ali@drmb.no" />
		<tag k="max_age" v="5" />
		<tag k="min_age" v="1" />
		<tag k="name" v="Drammen Montesorri barnehage AS" />
		<tag k="no-barnehage:nsrid" v="1022147" />
		<tag k="operator" v="Drammen Montessori barnehage AS" />
		<tag k="operator:type" v="private" />
		<tag k="start_date" v="2010-11-22" />
	</node>
	<node id="-2215" lat="59.72417" lon="10.20383">
		<tag k="amenity" v="kindergarten" />
		<tag k="capacity" v="71" />
		<tag k="contact:email" v="dl.drafnkollen@bhg.no" />
		<tag k="contact:phone" v="32 81 28 00" />
		<tag k="max_age" v="5" />
		<tag k="min_age" v="1" />
		<tag k="name" v="Drafnkollen Fus barnehage AS" />
		<tag k="no-barnehage:nsrid" v="1021721" />
		<tag k="operator" v="Drafnkollen Fus barnehage AS" />
		<tag k="operator:type" v="private" />
		<tag k="start_date" v="1991-07-01" />
	</node>
	<node id="-2214" lat="59.7337" lon="10.1969">
		<tag k="amenity" v="kindergarten" />
		<tag k="capacity" v="70" />
		<tag k="contact:email" v="hilkje@drmk.no" />
		<tag k="contact:phone" v="32 83 59 02" />
		<tag k="max_age" v="5" />
		<tag k="min_age" v="1" />
		<tag k="name" v="Danvik barnehage" />
		<tag k="no-barnehage:nsrid" v="1017988" />
		<tag k="operator" v="Drammen kommune" />
		<tag k="operator:type" v="public" />
		<tag k="start_date" v="1989-01-01" />
	</node>
	<node id="-2213" lat="59.7496" lon="10.1943">
		<tag k="amenity" v="kindergarten" />
		<tag k="capacity" v="68" />
		<tag k="contact:email" v="annette.plym@drmk.no" />
		<tag k="contact:phone" v="32 04 55 61" />
		<tag k="max_age" v="5" />
		<tag k="min_age" v="1" />
		<tag k="name" v="Dampsentralen barnehage" />
		<tag k="no-barnehage:nsrid" v="1014170" />
		<tag k="operator" v="Drammen kommune" />
		<tag k="operator:type" v="public" />
		<tag k="start_date" v="2010-06-01" />
	</node>
	<node id="-2212" lat="59.7586" lon="10.1337">
		<tag k="amenity" v="kindergarten" />
		<tag k="capacity" v="55" />
		<tag k="contact:email" v="rutmoi@drmk.no" />
		<tag k="contact:phone" v="32 04 49 20" />
		<tag k="max_age" v="5" />
		<tag k="min_age" v="1" />
		<tag k="name" v="Dalegårdsveien barnehage" />
		<tag k="no-barnehage:nsrid" v="1012493" />
		<tag k="operator" v="Drammen kommune" />
		<tag k="operator:type" v="public" />
		<tag k="start_date" v="1989-01-01" />
	</node>
	<node id="-2211" lat="59.76206" lon="10.11616">
		<tag k="amenity" v="kindergarten" />
		<tag k="capacity" v="84" />
		<tag k="contact:email" v="brottet.dl@barnehage.no" />
		<tag k="contact:phone" v="32 27 62 50" />
		<tag k="contact:website" v="http://www.brottet.barnehage.no" />
		<tag k="max_age" v="5" />
		<tag k="min_age" v="1" />
		<tag k="name" v="Brøttet barnehage Sa" />
		<tag k="no-barnehage:nsrid" v="1021244" />
		<tag k="operator" v="Brøttet barnehage Sa" />
		<tag k="operator:type" v="private" />
		<tag k="start_date" v="2005-04-05" />
	</node>
	<node id="-2210" lat="59.7462" lon="10.2154">
		<tag k="amenity" v="kindergarten" />
		<tag k="capacity" v="23" />
		<tag k="contact:email" v="olehet@drmk.no" />
		<tag k="contact:phone" v="32 83 80 08" />
		<tag k="max_age" v="5" />
		<tag k="min_age" v="1" />
		<tag k="name" v="Brannposten barnehage" />
		<tag k="no-barnehage:nsrid" v="1017987" />
		<tag k="operator" v="Drammen kommune" />
		<tag k="operator:type" v="public" />
		<tag k="start_date" v="1989-01-01" />
	</node>
	<node id="-2209" lat="59.74136" lon="10.21904">
		<tag k="amenity" v="kindergarten" />
		<tag k="capacity" v="42" />
		<tag k="contact:email" v="anine@skaubo.no" />
		<tag k="contact:phone" v="90776083" />
		<tag k="max_age" v="5" />
		<tag k="min_age" v="1" />
		<tag k="name" v="Bragernes Strand barnehage AS" />
		<tag k="no-barnehage:nsrid" v="1021761" />
		<tag k="operator" v="Bragernes Strand barnehage AS" />
		<tag k="operator:type" v="private" />
		<tag k="start_date" v="2007-12-19" />
	</node>
	<node id="-2208" lat="59.72905" lon="10.14844">
		<tag k="amenity" v="kindergarten" />
		<tag k="capacity" v="31" />
		<tag k="contact:email" v="styrer@btoppen.no" />
		<tag k="contact:phone" v="32 88 56 44" />
		<tag k="contact:website" v="http://www.btoppen.no" />
		<tag k="max_age" v="5" />
		<tag k="min_age" v="1" />
		<tag k="name" v="Blåbærtoppen barnehage Sa" />
		<tag k="no-barnehage:nsrid" v="1020781" />
		<tag k="operator" v="Blåbærtoppen barnehage Sa" />
		<tag k="operator:type" v="private" />
		<tag k="start_date" v="1995-02-22" />
	</node>
	<node id="-2207" lat="59.7305" lon="10.2023">
		<tag k="amenity" v="kindergarten" />
		<tag k="capacity" v="70" />
		<tag k="contact:email" v="hilgro@drmk.no" />
		<tag k="contact:phone" v="32 04 53 20" />
		<tag k="max_age" v="5" />
		<tag k="min_age" v="1" />
		<tag k="name" v="Bikkjestykket barnehage" />
		<tag k="no-barnehage:nsrid" v="1017677" />
		<tag k="operator" v="Drammen kommune" />
		<tag k="operator:type" v="public" />
		<tag k="start_date" v="2007-01-20" />
	</node>
	<node id="-2206" lat="59.75211" lon="10.12494">
		<tag k="amenity" v="kindergarten" />
		<tag k="capacity" v="46" />
		<tag k="contact:email" v="post@bessungenbarnehage.no" />
		<tag k="contact:phone" v="41635997" />
		<tag k="max_age" v="5" />
		<tag k="min_age" v="1" />
		<tag k="name" v="Bessungen AS" />
		<tag k="no-barnehage:nsrid" v="1021685" />
		<tag k="operator" v="Bessungen AS" />
		<tag k="operator:type" v="private" />
		<tag k="start_date" v="2007-06-08" />
	</node>
	<node id="-2205" lat="59.75374" lon="10.11973">
		<tag k="amenity" v="kindergarten" />
		<tag k="capacity" v="96" />
		<tag k="contact:email" v="leder@bekkevollen.no" />
		<tag k="contact:phone" v="32 82 27 95" />
		<tag k="max_age" v="5" />
		<tag k="min_age" v="1" />
		<tag k="name" v="Bekkevollen barnehage AS" />
		<tag k="no-barnehage:nsrid" v="1021814" />
		<tag k="operator" v="Bekkevollen barnehage AS" />
		<tag k="operator:type" v="private" />
		<tag k="start_date" v="2008-05-15" />
	</node>
	<node id="-2204" lat="59.7266" lon="10.2428">
		<tag k="amenity" v="kindergarten" />
		<tag k="capacity" v="17" />
		<tag k="contact:email" v="dagligleder@baltazarbarnehage.no" />
		<tag k="contact:phone" v="32 81 72 30" />
		<tag k="max_age" v="5" />
		<tag k="min_age" v="1" />
		<tag k="name" v="Baltazar barnehage" />
		<tag k="no-barnehage:nsrid" v="1015526" />
		<tag k="operator" v="Drammen Kirkelig Fellesråd" />
		<tag k="operator:type" v="private" />
		<tag k="start_date" v="1976-12-24" />
	</node>
	<node id="-2203" lat="59.7501" lon="10.1676">
		<tag k="amenity" v="kindergarten" />
		<tag k="capacity" v="74" />
		<tag k="contact:email" v="elirav@drmk.no" />
		<tag k="contact:phone" v="32 80 80 30" />
		<tag k="max_age" v="5" />
		<tag k="min_age" v="1" />
		<tag k="name" v="Bacheparken barnehage" />
		<tag k="no-barnehage:nsrid" v="1017986" />
		<tag k="operator" v="Drammen kommune" />
		<tag k="operator:type" v="public" />
		<tag k="start_date" v="1989-01-01" />
	</node>
	<node id="-2202" lat="59.7619" lon="10.1255">
		<tag k="amenity" v="kindergarten" />
		<tag k="capacity" v="58" />
		<tag k="contact:email" v="ellthr@drmk.no" />
		<tag k="contact:phone" v="32 04 59 70" />
		<tag k="max_age" v="5" />
		<tag k="min_age" v="1" />
		<tag k="name" v="Aronsløkka barnehage" />
		<tag k="no-barnehage:nsrid" v="1013895" />
		<tag k="operator" v="Drammen kommune" />
		<tag k="operator:type" v="public" />
		<tag k="start_date" v="1989-01-01" />
	</node>
	<node id="-2201" lat="59.7177" lon="10.1527">
		<tag k="amenity" v="kindergarten" />
		<tag k="capacity" v="24" />
		<tag k="contact:email" v="undrum@drammen.kirken.no" />
		<tag k="contact:phone" v="32 98 91 70" />
		<tag k="max_age" v="5" />
		<tag k="min_age" v="1" />
		<tag k="name" v="Amicus barnehage" />
		<tag k="no-barnehage:nsrid" v="1014915" />
		<tag k="operator" v="Drammen Kirkelig Fellesråd" />
		<tag k="operator:type" v="private" />
		<tag k="start_date" v="1996-09-01" />
	</node>
</osm>
