<?xml version="1.0" encoding="UTF-8"?>
<osm generator="osmapis" version="0.6">
	<node id="-3360" lat="58.1364" lon="7.07054">
		<tag k="amenity" v="kindergarten" />
		<tag k="name" v="Frikirken Åpen barnehage" />
		<tag k="no-barnehage:nsrid" v="1014242" />
		<tag k="operator" v="Frikirken Lyngdal Menighet" />
		<tag k="operator:type" v="private" />
		<tag k="start_date" v="2010-12-01" />
	</node>
	<node id="-3359" lat="58.13696" lon="7.071629">
		<tag k="amenity" v="kindergarten" />
		<tag k="capacity" v="42" />
		<tag k="contact:email" v="post@filadelfialyngdal.no" />
		<tag k="contact:phone" v="38 34 60 77" />
		<tag k="contact:website" v="http://www.filadelfialyngdal.no" />
		<tag k="max_age" v="5" />
		<tag k="min_age" v="1" />
		<tag k="name" v="Filadelfia barnehage" />
		<tag k="no-barnehage:nsrid" v="1019889" />
		<tag k="operator" v="Lyngdal Pinsemenighet" />
		<tag k="operator:type" v="private" />
		<tag k="start_date" v="1992-08-01" />
	</node>
	<node id="-3358" lat="58.1379" lon="7.070436">
		<tag k="amenity" v="kindergarten" />
		<tag k="capacity" v="27" />
		<tag k="contact:phone" v="38 34 71 18" />
		<tag k="max_age" v="5" />
		<tag k="min_age" v="1" />
		<tag k="name" v="Eplehagen barnehage Lyngdal AS" />
		<tag k="no-barnehage:nsrid" v="1022092" />
		<tag k="operator" v="Eplehagen barnehage Lyngdal AS" />
		<tag k="operator:type" v="private" />
		<tag k="start_date" v="2004-03-16" />
	</node>
	<node id="-3367" lat="58.14101" lon="7.061057">
		<tag k="amenity" v="kindergarten" />
		<tag k="capacity" v="19" />
		<tag k="contact:phone" v="38346004" />
		<tag k="max_age" v="5" />
		<tag k="min_age" v="1" />
		<tag k="name" v="Sangfuglen barnehage" />
		<tag k="no-barnehage:nsrid" v="1020085" />
		<tag k="operator" v="Sangfuglen barnehage R Limmesand" />
		<tag k="operator:type" v="private" />
		<tag k="start_date" v="1992-08-01" />
	</node>
	<node id="-3366" lat="58.1379" lon="7.07044">
		<tag k="amenity" v="kindergarten" />
		<tag k="capacity" v="101" />
		<tag k="contact:email" v="post@lyngdal.kommune.no" />
		<tag k="contact:phone" v="38 33 41 60" />
		<tag k="max_age" v="5" />
		<tag k="min_age" v="1" />
		<tag k="name" v="Nygård barnehage" />
		<tag k="no-barnehage:nsrid" v="1018074" />
		<tag k="operator" v="Lyngdal kommune" />
		<tag k="operator:type" v="public" />
		<tag k="start_date" v="1989-01-01" />
	</node>
	<node id="-3365" lat="58.2379" lon="7.17541">
		<tag k="amenity" v="kindergarten" />
		<tag k="capacity" v="16" />
		<tag k="max_age" v="5" />
		<tag k="min_age" v="1" />
		<tag k="name" v="Nlm Barnehagene AS Avd Kvås Barnehage" />
		<tag k="no-barnehage:nsrid" v="1016857" />
		<tag k="operator" v="Nlm-Barnehagene AS" />
		<tag k="operator:type" v="private" />
		<tag k="start_date" v="1989-01-01" />
	</node>
	<node id="-3364" lat="58.1379" lon="7.07044">
		<tag k="amenity" v="kindergarten" />
		<tag k="capacity" v="97" />
		<tag k="contact:email" v="post@lyngdal.kommune.no" />
		<tag k="contact:phone" v="38 33 42 11" />
		<tag k="max_age" v="5" />
		<tag k="min_age" v="1" />
		<tag k="name" v="Læringsverkstedet barnehage Avd Bergeheim" />
		<tag k="no-barnehage:nsrid" v="1014196" />
		<tag k="operator" v="Læringsverkstedet AS" />
		<tag k="operator:type" v="private" />
		<tag k="start_date" v="2010-08-01" />
	</node>
	<node id="-3363" lat="58.1379" lon="7.07044">
		<tag k="amenity" v="kindergarten" />
		<tag k="capacity" v="60" />
		<tag k="max_age" v="5" />
		<tag k="min_age" v="1" />
		<tag k="name" v="Læringsverkstedet Avd Rom barnehage" />
		<tag k="no-barnehage:nsrid" v="1013171" />
		<tag k="operator" v="Læringsverkstedet AS" />
		<tag k="operator:type" v="private" />
		<tag k="start_date" v="2004-08-18" />
	</node>
	<node id="-3362" lat="58.1284" lon="7.04735">
		<tag k="amenity" v="kindergarten" />
		<tag k="capacity" v="113" />
		<tag k="contact:email" v="post@lyngdal.kommune.no" />
		<tag k="contact:phone" v="38 33 07 50" />
		<tag k="max_age" v="5" />
		<tag k="min_age" v="1" />
		<tag k="name" v="Lyngtua barnehage" />
		<tag k="no-barnehage:nsrid" v="1012504" />
		<tag k="operator" v="Lyngdal kommune" />
		<tag k="operator:type" v="public" />
		<tag k="start_date" v="1989-01-01" />
	</node>
	<node id="-3361" lat="58.11181" lon="6.944086">
		<tag k="amenity" v="kindergarten" />
		<tag k="capacity" v="15" />
		<tag k="contact:email" v="kollevollbarnehage@gmail.com" />
		<tag k="contact:phone" v="38 34 64 72" />
		<tag k="max_age" v="5" />
		<tag k="min_age" v="1" />
		<tag k="name" v="Kollevoll barnehage Sa" />
		<tag k="no-barnehage:nsrid" v="1019728" />
		<tag k="operator" v="Kollevoll barnehage Sa" />
		<tag k="operator:type" v="private" />
		<tag k="start_date" v="1989-01-02" />
	</node>
</osm>
