<?xml version="1.0" encoding="UTF-8"?>
<osm version="0.6" generator="osmapis">
	<node lat="59.81611" lon="5.34035" id="-4192">
		<tag k="ADDRESS" v="Dåfjordvegen 197, 5410 SAGVÅG" />
		<tag k="amenity" v="kindergarten" />
		<tag k="capacity" v="8" />
		<tag k="max_age" v="5" />
		<tag k="min_age" v="1" />
		<tag k="name" v="Dåfjorden naturbarnehage" />
		<tag k="no-barnehage:nsrid" v="911992930" />
		<tag k="operator" v="Fitjar kommune" />
		<tag k="operator:type" v="public" />
	</node>
	<node lat="59.92133" lon="5.33858" id="-4193">
		<tag k="ADDRESS" v="Liarhaugvegen 20, 5419 FITJAR" />
		<tag k="amenity" v="kindergarten" />
		<tag k="name" v="Fitjar naturbarnehage" />
		<tag k="no-barnehage:nsrid" v="933723178" />
		<tag k="operator" v="Fitjar kommune" />
		<tag k="operator:type" v="public" />
	</node>
	<node lat="59.92359" lon="5.32683" id="-4194">
		<tag k="ADDRESS" v="Varhaugsvegen 2, 5419 FITJAR" />
		<tag k="amenity" v="kindergarten" />
		<tag k="capacity" v="53" />
		<tag k="max_age" v="5" />
		<tag k="min_age" v="1" />
		<tag k="name" v="Fitjar soknerådsbarnehage Stifting" />
		<tag k="no-barnehage:nsrid" v="988820628" />
		<tag k="operator" v="Fitjar soknerådsbarnehage Stifting" />
		<tag k="operator:type" v="private" />
	</node>
	<node lat="59.92712" lon="5.32626" id="-4195">
		<tag k="ADDRESS" v="Rossnesvegen 1, 5419 FITJAR" />
		<tag k="amenity" v="kindergarten" />
		<tag k="capacity" v="44" />
		<tag k="max_age" v="5" />
		<tag k="min_age" v="1" />
		<tag k="name" v="Svingen barnehage" />
		<tag k="no-barnehage:nsrid" v="974575736" />
		<tag k="operator" v="Fitjar kommune" />
		<tag k="operator:type" v="public" />
	</node>
	<node lat="59.93722" lon="5.33609" id="-4196">
		<tag k="ADDRESS" v="Sandvikvågvegen 60, 5419 FITJAR" />
		<tag k="amenity" v="kindergarten" />
		<tag k="capacity" v="11" />
		<tag k="max_age" v="5" />
		<tag k="min_age" v="1" />
		<tag k="name" v="Årskog barnehage" />
		<tag k="no-barnehage:nsrid" v="973465481" />
		<tag k="operator" v="Årskog barnehage SA" />
		<tag k="operator:type" v="private" />
	</node>
</osm>
