<?xml version="1.0" encoding="UTF-8"?>
<osm generator="osmapis" version="0.6">
	<node id="-2838" lat="59.56327" lon="9.27563">
		<tag k="ADDRESS" v="Hvålagata 4, 3681 NOTODDEN" />
		<tag k="amenity" v="kindergarten" />
		<tag k="capacity" v="50" />
		<tag k="max_age" v="5" />
		<tag k="min_age" v="1" />
		<tag k="name" v="Toppen barnehage" />
		<tag k="no-barnehage:nsrid" v="1018039" />
		<tag k="operator" v="Notodden kommune" />
		<tag k="operator:type" v="public" />
	</node>
	<node id="-2837" lat="0.0" lon="0.0">
		<tag k="ADDRESS" v="Storg 63-65, 3674 NOTODDEN" />
		<tag k="amenity" v="kindergarten" />
		<tag k="name" v="Sentrumskolen åpen barnehage" />
		<tag k="no-barnehage:nsrid" v="1013161" />
		<tag k="operator" v="Notodden kommune" />
		<tag k="operator:type" v="public" />
	</node>
	<node id="-2836" lat="59.57226" lon="9.25901">
		<tag k="ADDRESS" v="Langkåsveien 16, 3675 NOTODDEN" />
		<tag k="amenity" v="kindergarten" />
		<tag k="capacity" v="58" />
		<tag k="max_age" v="5" />
		<tag k="min_age" v="1" />
		<tag k="name" v="Meaksmoen barnehage" />
		<tag k="no-barnehage:nsrid" v="1015455" />
		<tag k="operator" v="Notodden kommune" />
		<tag k="operator:type" v="public" />
	</node>
	<node id="-2834" lat="0.0" lon="0.0">
		<tag k="ADDRESS" v=", 3691 GRANSHERAD" />
		<tag k="amenity" v="kindergarten" />
		<tag k="capacity" v="26" />
		<tag k="max_age" v="5" />
		<tag k="min_age" v="1" />
		<tag k="name" v="Gransherad barnehage" />
		<tag k="no-barnehage:nsrid" v="1018038" />
		<tag k="operator" v="Notodden kommune" />
		<tag k="operator:type" v="public" />
	</node>
	<node id="-2833" lat="59.57706" lon="9.1853">
		<tag k="ADDRESS" v="Heddalsvegen 350, 3676 NOTODDEN" />
		<tag k="amenity" v="kindergarten" />
		<tag k="capacity" v="21" />
		<tag k="max_age" v="5" />
		<tag k="min_age" v="1" />
		<tag k="name" v="Betesda barnehage" />
		<tag k="no-barnehage:nsrid" v="1020204" />
		<tag k="operator" v="Betesda barnehage" />
		<tag k="operator:type" v="private" />
	</node>
</osm>
