<?xml version="1.0" encoding="UTF-8"?>
<osm generator="osmapis" version="0.6">
	<node id="-2901" lat="59.5593" lon="9.26274">
		<tag k="amenity" v="kindergarten" />
		<tag k="capacity" v="43" />
		<tag k="max_age" v="5" />
		<tag k="min_age" v="1" />
		<tag k="name" v="Villamoen barnehage" />
		<tag k="no-barnehage:nsrid" v="1015964" />
		<tag k="operator" v="Kattekleiv barnehage AS" />
		<tag k="operator:type" v="private" />
		<tag k="start_date" v="1991-01-01" />
	</node>
	<node id="-2900" lat="59.5763" lon="9.19806">
		<tag k="amenity" v="kindergarten" />
		<tag k="capacity" v="26" />
		<tag k="max_age" v="5" />
		<tag k="min_age" v="1" />
		<tag k="name" v="Trolldalen Gårdsbarnehage" />
		<tag k="no-barnehage:nsrid" v="1012983" />
		<tag k="operator" v="Kattekleiv barnehage AS" />
		<tag k="operator:type" v="private" />
		<tag k="start_date" v="2004-03-01" />
	</node>
	<node id="-2899" lat="59.5633" lon="9.27565">
		<tag k="amenity" v="kindergarten" />
		<tag k="capacity" v="55" />
		<tag k="max_age" v="5" />
		<tag k="min_age" v="1" />
		<tag k="name" v="Toppen barnehage" />
		<tag k="no-barnehage:nsrid" v="1018039" />
		<tag k="operator" v="Notodden kommune" />
		<tag k="operator:type" v="public" />
		<tag k="start_date" v="1989-01-01" />
	</node>
	<node id="-2898" lat="59.5665" lon="9.27412">
		<tag k="amenity" v="kindergarten" />
		<tag k="capacity" v="49" />
		<tag k="max_age" v="5" />
		<tag k="min_age" v="1" />
		<tag k="name" v="Sætrebo barnehage" />
		<tag k="no-barnehage:nsrid" v="1017797" />
		<tag k="operator" v="Kattekleiv barnehage AS" />
		<tag k="operator:type" v="private" />
		<tag k="start_date" v="2006-06-01" />
	</node>
	<node id="-2897" lat="59.5692" lon="9.28292">
		<tag k="amenity" v="kindergarten" />
		<tag k="capacity" v="29" />
		<tag k="contact:phone" v="35 01 41 26" />
		<tag k="max_age" v="5" />
		<tag k="min_age" v="1" />
		<tag k="name" v="Studentsamskipnaden i Buskerud Sætreåsen Studentbarnehage" />
		<tag k="no-barnehage:nsrid" v="1014818" />
		<tag k="operator" v="Studentsamskipnaden i Sørøst-Norge" />
		<tag k="operator:type" v="private" />
		<tag k="start_date" v="1995-12-15" />
	</node>
	<node id="-2896" lat="59.5651" lon="9.26523">
		<tag k="amenity" v="kindergarten" />
		<tag k="capacity" v="55" />
		<tag k="max_age" v="5" />
		<tag k="min_age" v="1" />
		<tag k="name" v="Solhaug barnehage" />
		<tag k="no-barnehage:nsrid" v="1017334" />
		<tag k="operator" v="Notodden kommune" />
		<tag k="operator:type" v="public" />
		<tag k="start_date" v="1976-12-24" />
	</node>
	<node id="-2895" lat="59.5556" lon="9.26069">
		<tag k="amenity" v="kindergarten" />
		<tag k="name" v="Sentrumskolen Åpen barnehage" />
		<tag k="no-barnehage:nsrid" v="1013161" />
		<tag k="operator" v="Notodden kommune" />
		<tag k="operator:type" v="public" />
		<tag k="start_date" v="2004-09-01" />
	</node>
	<node id="-2894" lat="59.5811" lon="9.17023">
		<tag k="amenity" v="kindergarten" />
		<tag k="capacity" v="63" />
		<tag k="max_age" v="5" />
		<tag k="min_age" v="1" />
		<tag k="name" v="Rygi barnehage" />
		<tag k="no-barnehage:nsrid" v="1014775" />
		<tag k="operator" v="Notodden kommune" />
		<tag k="operator:type" v="public" />
		<tag k="start_date" v="1993-08-01" />
	</node>
	<node id="-2893" lat="59.5626" lon="9.25624">
		<tag k="amenity" v="kindergarten" />
		<tag k="capacity" v="89" />
		<tag k="contact:phone" v="35 01 25 30" />
		<tag k="max_age" v="5" />
		<tag k="min_age" v="1" />
		<tag k="name" v="Nlm Barnehagene AS Avd Tinnesmoen Barnehage" />
		<tag k="no-barnehage:nsrid" v="1016188" />
		<tag k="operator" v="Nlm-Barnehagene AS" />
		<tag k="operator:type" v="private" />
		<tag k="start_date" v="1982-01-01" />
	</node>
	<node id="-2892" lat="59.5723" lon="9.25901">
		<tag k="amenity" v="kindergarten" />
		<tag k="capacity" v="60" />
		<tag k="max_age" v="5" />
		<tag k="min_age" v="1" />
		<tag k="name" v="Meaksmoen barnehage" />
		<tag k="no-barnehage:nsrid" v="1015455" />
		<tag k="operator" v="Notodden kommune" />
		<tag k="operator:type" v="public" />
		<tag k="start_date" v="1991-01-01" />
	</node>
	<node id="-2890" lat="59.5597" lon="9.27028">
		<tag k="amenity" v="kindergarten" />
		<tag k="capacity" v="32" />
		<tag k="contact:phone" v="35 01 98 52" />
		<tag k="contact:website" v="http://www.kattkleiv.no" />
		<tag k="max_age" v="5" />
		<tag k="min_age" v="1" />
		<tag k="name" v="Kattekleiv barnehage" />
		<tag k="no-barnehage:nsrid" v="1016022" />
		<tag k="operator" v="Kattekleiv barnehage AS" />
		<tag k="operator:type" v="private" />
		<tag k="start_date" v="1990-01-01" />
	</node>
	<node id="-2889" lat="59.5631" lon="9.29988">
		<tag k="amenity" v="kindergarten" />
		<tag k="capacity" v="56" />
		<tag k="max_age" v="5" />
		<tag k="min_age" v="1" />
		<tag k="name" v="Idea Kompetanse AS Avd barnehage Notodden" />
		<tag k="no-barnehage:nsrid" v="1014820" />
		<tag k="operator" v="Idea Kompetanse AS" />
		<tag k="operator:type" v="private" />
		<tag k="start_date" v="1994-08-01" />
	</node>
	<node id="-2888" lat="59.6908" lon="9.04228">
		<tag k="amenity" v="kindergarten" />
		<tag k="capacity" v="25" />
		<tag k="max_age" v="5" />
		<tag k="min_age" v="1" />
		<tag k="name" v="Gransherad barnehage" />
		<tag k="no-barnehage:nsrid" v="1018038" />
		<tag k="operator" v="Notodden kommune" />
		<tag k="operator:type" v="public" />
		<tag k="start_date" v="1989-01-01" />
	</node>
	<node id="-2887" lat="59.57706" lon="9.185301">
		<tag k="amenity" v="kindergarten" />
		<tag k="capacity" v="21" />
		<tag k="contact:email" v="betesdabhg@tele2.no" />
		<tag k="contact:phone" v="35 02 07 10" />
		<tag k="max_age" v="5" />
		<tag k="min_age" v="1" />
		<tag k="name" v="Betesda barnehage" />
		<tag k="no-barnehage:nsrid" v="1020204" />
		<tag k="operator" v="Betesda barnehage" />
		<tag k="operator:type" v="private" />
		<tag k="start_date" v="1995-07-14" />
	</node>
	<node id="-2886" lat="59.56024" lon="9.261346">
		<tag k="amenity" v="kindergarten" />
		<tag k="capacity" v="24" />
		<tag k="max_age" v="5" />
		<tag k="min_age" v="1" />
		<tag k="name" v="Betania barnehage AS" />
		<tag k="no-barnehage:nsrid" v="1022350" />
		<tag k="operator" v="Betania barnehage AS" />
		<tag k="operator:type" v="private" />
		<tag k="start_date" v="2013-04-01" />
	</node>
</osm>
