<?xml version="1.0" encoding="UTF-8"?>
<osm generator="osmapis" version="0.6">
	<node id="-4723" lat="62.8417" lon="7.05621">
		<tag k="amenity" v="kindergarten" />
		<tag k="capacity" v="59" />
		<tag k="contact:email" v="vigdis.loset@frana.kommune.no" />
		<tag k="contact:phone" v="71263235" />
		<tag k="max_age" v="5" />
		<tag k="min_age" v="1" />
		<tag k="name" v="Tornes barnehage" />
		<tag k="no-barnehage:nsrid" v="1015761" />
		<tag k="operator" v="Fræna kommune" />
		<tag k="operator:type" v="public" />
		<tag k="start_date" v="1999-08-01" />
	</node>
	<node id="-4722" lat="62.8174" lon="7.243">
		<tag k="amenity" v="kindergarten" />
		<tag k="capacity" v="63" />
		<tag k="contact:phone" v="71 26 52 20" />
		<tag k="max_age" v="5" />
		<tag k="min_age" v="1" />
		<tag k="name" v="Sylte og Malme barnehage" />
		<tag k="no-barnehage:nsrid" v="1015978" />
		<tag k="operator" v="Mobarn Sa" />
		<tag k="operator:type" v="private" />
		<tag k="start_date" v="1993-08-01" />
	</node>
	<node id="-4721" lat="62.8556" lon="7.16889">
		<tag k="amenity" v="kindergarten" />
		<tag k="capacity" v="52" />
		<tag k="contact:phone" v="71 26 26 09" />
		<tag k="max_age" v="5" />
		<tag k="min_age" v="1" />
		<tag k="name" v="Nlm Barnehagene AS Avd Utsyn Barnehage Elnesvågen" />
		<tag k="no-barnehage:nsrid" v="1016183" />
		<tag k="operator" v="Nlm-Barnehagene AS" />
		<tag k="operator:type" v="private" />
		<tag k="start_date" v="1979-02-19" />
	</node>
	<node id="-4720" lat="62.78763" lon="7.007379">
		<tag k="amenity" v="kindergarten" />
		<tag k="capacity" v="53" />
		<tag k="contact:email" v="elin.jendem.barnehage@frenabb.no" />
		<tag k="contact:phone" v="71 26 03 70" />
		<tag k="max_age" v="5" />
		<tag k="min_age" v="1" />
		<tag k="name" v="Jendem barnehage" />
		<tag k="no-barnehage:nsrid" v="1021068" />
		<tag k="operator" v="Jendem Velforening" />
		<tag k="operator:type" v="private" />
		<tag k="start_date" v="1991-01-01" />
	</node>
	<node id="-4719" lat="62.9544" lon="7.09934">
		<tag k="amenity" v="kindergarten" />
		<tag k="capacity" v="63" />
		<tag k="contact:email" v="berit.sofie.lindseth@frana.kommune.no" />
		<tag k="contact:phone" v="71264577" />
		<tag k="max_age" v="5" />
		<tag k="min_age" v="1" />
		<tag k="name" v="Hustad barnehage" />
		<tag k="no-barnehage:nsrid" v="1014739" />
		<tag k="operator" v="Fræna kommune" />
		<tag k="operator:type" v="public" />
		<tag k="start_date" v="1992-01-01" />
	</node>
	<node id="-4718" lat="62.85891" lon="7.172413">
		<tag k="amenity" v="kindergarten" />
		<tag k="capacity" v="56" />
		<tag k="contact:phone" v="71 26 24 44" />
		<tag k="max_age" v="5" />
		<tag k="min_age" v="1" />
		<tag k="name" v="Haugtussa barnehage" />
		<tag k="no-barnehage:nsrid" v="1019654" />
		<tag k="operator" v="Haugtussa barnehage" />
		<tag k="operator:type" v="private" />
		<tag k="start_date" v="1988-01-01" />
	</node>
	<node id="-4717" lat="62.8589" lon="7.17332">
		<tag k="amenity" v="kindergarten" />
		<tag k="capacity" v="36" />
		<tag k="contact:email" v="hauglia@mobarn.no" />
		<tag k="max_age" v="5" />
		<tag k="min_age" v="1" />
		<tag k="name" v="Hauglia barnehage" />
		<tag k="no-barnehage:nsrid" v="1016216" />
		<tag k="operator" v="Mobarn Sa" />
		<tag k="operator:type" v="private" />
		<tag k="start_date" v="1990-08-01" />
	</node>
	<node id="-4716" lat="62.8544" lon="7.14065">
		<tag k="amenity" v="kindergarten" />
		<tag k="capacity" v="71" />
		<tag k="contact:email" v="mobo@mobo.no" />
		<tag k="max_age" v="5" />
		<tag k="min_age" v="1" />
		<tag k="name" v="Dalelia barnehage" />
		<tag k="no-barnehage:nsrid" v="1017833" />
		<tag k="operator" v="Mobarn Sa" />
		<tag k="operator:type" v="private" />
		<tag k="start_date" v="2006-09-26" />
	</node>
	<node id="-4715" lat="62.907" lon="6.9226">
		<tag k="amenity" v="kindergarten" />
		<tag k="capacity" v="49" />
		<tag k="contact:email" v="kari.anne.vikan@frana.kommune.no" />
		<tag k="contact:phone" v="71261188" />
		<tag k="max_age" v="5" />
		<tag k="min_age" v="1" />
		<tag k="name" v="Bud barnehage" />
		<tag k="no-barnehage:nsrid" v="1013944" />
		<tag k="operator" v="Fræna kommune" />
		<tag k="operator:type" v="public" />
		<tag k="start_date" v="1990-08-01" />
	</node>
</osm>
