<?xml version="1.0" encoding="UTF-8"?>
<osm generator="osmapis" version="0.6">
	<node id="-6056" lat="68.83659" lon="18.4011">
		<tag k="ADDRESS" v="Altevannsveien, 9360 BARDU" />
		<tag k="amenity" v="kindergarten" />
		<tag k="capacity" v="24" />
		<tag k="max_age" v="5" />
		<tag k="min_age" v="1" />
		<tag k="name" v="Øvre Bardu barnehage" />
		<tag k="no-barnehage:nsrid" v="1013701" />
		<tag k="operator" v="Bardu kommune" />
		<tag k="operator:type" v="public" />
	</node>
	<node id="-6055" lat="68.86169" lon="18.32737">
		<tag k="ADDRESS" v="Seterveien 20, 9360 BARDU" />
		<tag k="amenity" v="kindergarten" />
		<tag k="capacity" v="57" />
		<tag k="max_age" v="5" />
		<tag k="min_age" v="1" />
		<tag k="name" v="Seterveien barnehage" />
		<tag k="no-barnehage:nsrid" v="1014766" />
		<tag k="operator" v="Bardu kommune" />
		<tag k="operator:type" v="public" />
	</node>
	<node id="-6054" lat="69.00745" lon="18.51576">
		<tag k="ADDRESS" v="Beredskapsveien 20, 9360 BARDU" />
		<tag k="amenity" v="kindergarten" />
		<tag k="capacity" v="14" />
		<tag k="max_age" v="5" />
		<tag k="min_age" v="1" />
		<tag k="name" v="Nedre Bardu barnehage" />
		<tag k="no-barnehage:nsrid" v="1013700" />
		<tag k="operator" v="Bardu kommune" />
		<tag k="operator:type" v="public" />
	</node>
	<node id="-6053" lat="68.86" lon="18.34034">
		<tag k="ADDRESS" v="Gammelveien 20, 9360 BARDU" />
		<tag k="amenity" v="kindergarten" />
		<tag k="capacity" v="71" />
		<tag k="max_age" v="5" />
		<tag k="min_age" v="1" />
		<tag k="name" v="Lappraen barnehage" />
		<tag k="no-barnehage:nsrid" v="1025404" />
		<tag k="operator" v="Bardu kommune" />
		<tag k="operator:type" v="public" />
	</node>
	<node id="-6052" lat="68.87159" lon="18.34348">
		<tag k="ADDRESS" v="Storløveien 2, 9360 BARDU" />
		<tag k="amenity" v="kindergarten" />
		<tag k="capacity" v="39" />
		<tag k="max_age" v="5" />
		<tag k="min_age" v="1" />
		<tag k="name" v="Fageråsen barnehage" />
		<tag k="no-barnehage:nsrid" v="1013927" />
		<tag k="operator" v="Bardu kommune" />
		<tag k="operator:type" v="public" />
	</node>
</osm>
