<?xml version="1.0" encoding="UTF-8"?>
<osm generator="osmapis" version="0.6">
	<node id="-5933" lat="68.8592" lon="18.3519">
		<tag k="amenity" v="kindergarten" />
		<tag k="capacity" v="25" />
		<tag k="contact:email" v="ingrid.mahre@bardu.kommune.no" />
		<tag k="contact:phone" v="77185770" />
		<tag k="max_age" v="5" />
		<tag k="min_age" v="1" />
		<tag k="name" v="Øvre Bardu barnehage" />
		<tag k="no-barnehage:nsrid" v="1013701" />
		<tag k="operator" v="Bardu kommune" />
		<tag k="operator:type" v="public" />
		<tag k="start_date" v="1989-01-01" />
	</node>
	<node id="-5932" lat="68.8717" lon="18.3604">
		<tag k="amenity" v="kindergarten" />
		<tag k="capacity" v="39" />
		<tag k="contact:email" v="oyvind.kjarstad@bardu.kommune.no" />
		<tag k="contact:phone" v="77185400" />
		<tag k="max_age" v="5" />
		<tag k="min_age" v="1" />
		<tag k="name" v="Sponga barnehage" />
		<tag k="no-barnehage:nsrid" v="1013343" />
		<tag k="operator" v="Bardu kommune" />
		<tag k="operator:type" v="public" />
		<tag k="start_date" v="2004-01-01" />
	</node>
	<node id="-5931" lat="68.8617" lon="18.3272">
		<tag k="amenity" v="kindergarten" />
		<tag k="capacity" v="58" />
		<tag k="contact:email" v="jenny.kristiansen@bardu.kommune.no" />
		<tag k="contact:phone" v="77185730" />
		<tag k="max_age" v="5" />
		<tag k="min_age" v="1" />
		<tag k="name" v="Seterveien barnehage" />
		<tag k="no-barnehage:nsrid" v="1014766" />
		<tag k="operator" v="Bardu kommune" />
		<tag k="operator:type" v="public" />
		<tag k="start_date" v="1993-08-01" />
	</node>
	<node id="-5930" lat="69.00864" lon="18.51437">
		<tag k="amenity" v="kindergarten" />
		<tag k="capacity" v="19" />
		<tag k="contact:email" v="tora.jorgensen@bardu.kommune.no" />
		<tag k="contact:phone" v="77185780" />
		<tag k="max_age" v="5" />
		<tag k="min_age" v="1" />
		<tag k="name" v="Nedre Bardu barnehage" />
		<tag k="no-barnehage:nsrid" v="1013700" />
		<tag k="operator" v="Bardu kommune" />
		<tag k="operator:type" v="public" />
		<tag k="start_date" v="1989-01-01" />
	</node>
	<node id="-5929" lat="69.00864" lon="18.51437">
		<tag k="amenity" v="kindergarten" />
		<tag k="capacity" v="13" />
		<tag k="contact:email" v="kristin.rindstad@bardu.kommune.no" />
		<tag k="contact:phone" v="77185416" />
		<tag k="max_age" v="5" />
		<tag k="min_age" v="1" />
		<tag k="name" v="Fredly barnehage" />
		<tag k="no-barnehage:nsrid" v="1018518" />
		<tag k="operator" v="Bardu kommune" />
		<tag k="operator:type" v="public" />
		<tag k="start_date" v="2008-08-01" />
	</node>
	<node id="-5928" lat="68.8716" lon="18.3435">
		<tag k="amenity" v="kindergarten" />
		<tag k="capacity" v="43" />
		<tag k="contact:email" v="berit.moen@bardu.kommune.no" />
		<tag k="contact:phone" v="77185700" />
		<tag k="max_age" v="5" />
		<tag k="min_age" v="1" />
		<tag k="name" v="Fageråsen barnehage" />
		<tag k="no-barnehage:nsrid" v="1013927" />
		<tag k="operator" v="Bardu kommune" />
		<tag k="operator:type" v="public" />
		<tag k="start_date" v="1990-02-12" />
	</node>
	<node id="-5927" lat="68.8604" lon="18.3404">
		<tag k="amenity" v="kindergarten" />
		<tag k="capacity" v="30" />
		<tag k="contact:email" v="siv.sollid@bardu.kommune.no" />
		<tag k="contact:phone" v="77185720" />
		<tag k="max_age" v="5" />
		<tag k="min_age" v="1" />
		<tag k="name" v="Barnas Hus barnehage" />
		<tag k="no-barnehage:nsrid" v="1025404" />
		<tag k="operator" v="Bardu kommune" />
		<tag k="operator:type" v="public" />
		<tag k="start_date" v="1976-12-24" />
	</node>
</osm>
