<?xml version="1.0" encoding="UTF-8"?>
<osm generator="osmapis" version="0.6">
	<node id="-3678" lat="70.63572" lon="23.68027">
		<tag k="ADDRESS" v="Breidablikk 3, 9610 RYPEFJORD" />
		<tag k="amenity" v="kindergarten" />
		<tag k="capacity" v="52" />
		<tag k="max_age" v="5" />
		<tag k="min_age" v="1" />
		<tag k="name" v="Rypefjord barnehage" />
		<tag k="no-barnehage:nsrid" v="1013727" />
		<tag k="operator" v="Hammerfest kommune" />
		<tag k="operator:type" v="public" />
	</node>
	<node id="-3677" lat="70.67711" lon="23.67569">
		<tag k="ADDRESS" v="Forsølveien 38, 9601 HAMMERFEST" />
		<tag k="amenity" v="kindergarten" />
		<tag k="capacity" v="40" />
		<tag k="max_age" v="5" />
		<tag k="min_age" v="1" />
		<tag k="name" v="Radioen barnehage" />
		<tag k="no-barnehage:nsrid" v="1014767" />
		<tag k="operator" v="Hammerfest kommune" />
		<tag k="operator:type" v="public" />
	</node>
	<node id="-3676" lat="70.68969" lon="23.69184">
		<tag k="ADDRESS" v="Mercurs Vei 4, 9602 HAMMERFEST" />
		<tag k="amenity" v="kindergarten" />
		<tag k="capacity" v="22" />
		<tag k="contact:website" v="http://www.prarienbarnehage.no" />
		<tag k="max_age" v="5" />
		<tag k="min_age" v="1" />
		<tag k="name" v="Prærien barnehage" />
		<tag k="no-barnehage:nsrid" v="1019841" />
		<tag k="operator" v="Stiftelsen Prærien barnehage" />
		<tag k="operator:type" v="private" />
	</node>
	<node id="-3675" lat="70.65986" lon="23.71801">
		<tag k="ADDRESS" v="Storvannsveien 96, 9603 HAMMERFEST" />
		<tag k="amenity" v="kindergarten" />
		<tag k="capacity" v="40" />
		<tag k="max_age" v="5" />
		<tag k="min_age" v="1" />
		<tag k="name" v="Nissenskogen barnehage" />
		<tag k="no-barnehage:nsrid" v="1013714" />
		<tag k="operator" v="Hammerfest kommune" />
		<tag k="operator:type" v="public" />
	</node>
	<node id="-3674" lat="70.67393" lon="23.65499">
		<tag k="ADDRESS" v="Mylingen 3, 9601 HAMMERFEST" />
		<tag k="amenity" v="kindergarten" />
		<tag k="capacity" v="33" />
		<tag k="max_age" v="5" />
		<tag k="min_age" v="1" />
		<tag k="name" v="Mylingen barnehage" />
		<tag k="no-barnehage:nsrid" v="1016905" />
		<tag k="operator" v="Hammerfest kommune" />
		<tag k="operator:type" v="public" />
	</node>
	<node id="-3673" lat="70.72192" lon="23.79715">
		<tag k="ADDRESS" v="Skoleveien 20, 9612 FORSØL" />
		<tag k="amenity" v="kindergarten" />
		<tag k="capacity" v="16" />
		<tag k="max_age" v="5" />
		<tag k="min_age" v="1" />
		<tag k="name" v="Forsøl barnehage" />
		<tag k="no-barnehage:nsrid" v="1012540" />
		<tag k="operator" v="Hammerfest kommune" />
		<tag k="operator:type" v="public" />
	</node>
</osm>
