<?xml version="1.0" encoding="UTF-8"?>
<osm generator="osmapis" version="0.6">
	<node id="-5781" lat="70.65547" lon="23.69726">
		<tag k="amenity" v="kindergarten" />
		<tag k="capacity" v="66" />
		<tag k="contact:email" v="post@tyven.no" />
		<tag k="contact:phone" v="+47 78 42 74 60" />
		<tag k="max_age" v="5" />
		<tag k="min_age" v="1" />
		<tag k="name" v="Tyven barnehage" />
		<tag k="no-barnehage:nsrid" v="1019944" />
		<tag k="operator" v="Tyven barnehage AS" />
		<tag k="operator:type" v="private" />
		<tag k="start_date" v="1990-01-01" />
	</node>
	<node id="-5780" lat="70.64703" lon="23.67228">
		<tag k="amenity" v="kindergarten" />
		<tag k="capacity" v="18" />
		<tag k="contact:email" v="bar-roev@oline.no" />
		<tag k="contact:phone" v="+47 78 41 81 94" />
		<tag k="max_age" v="5" />
		<tag k="min_age" v="1" />
		<tag k="name" v="Røverhiet barnehage" />
		<tag k="no-barnehage:nsrid" v="1020108" />
		<tag k="operator" v="Røverhiet barnehage Undis Hustad" />
		<tag k="operator:type" v="private" />
		<tag k="start_date" v="1992-08-01" />
	</node>
	<node id="-5779" lat="70.6357" lon="23.6803">
		<tag k="amenity" v="kindergarten" />
		<tag k="capacity" v="53" />
		<tag k="contact:email" v="may.tove.johnsen@hammerfest.kommune.no" />
		<tag k="contact:phone" v="+47 78 42 17 40" />
		<tag k="max_age" v="5" />
		<tag k="min_age" v="1" />
		<tag k="name" v="Rypefjord barnehage" />
		<tag k="no-barnehage:nsrid" v="1013727" />
		<tag k="operator" v="Hammerfest kommune" />
		<tag k="operator:type" v="public" />
		<tag k="start_date" v="1989-01-01" />
	</node>
	<node id="-5778" lat="70.6909" lon="23.7008">
		<tag k="amenity" v="kindergarten" />
		<tag k="capacity" v="50" />
		<tag k="contact:email" v="liv.hilde.naess@hammerfest.kommune.no" />
		<tag k="contact:phone" v="+47 78 40 75 40" />
		<tag k="max_age" v="5" />
		<tag k="min_age" v="1" />
		<tag k="name" v="Reindalen barnehage" />
		<tag k="no-barnehage:nsrid" v="1013801" />
		<tag k="operator" v="Hammerfest kommune" />
		<tag k="operator:type" v="public" />
		<tag k="start_date" v="1989-01-02" />
	</node>
	<node id="-5777" lat="70.6771" lon="23.6757">
		<tag k="amenity" v="kindergarten" />
		<tag k="capacity" v="45" />
		<tag k="contact:email" v="lena.martinsen@hammerfest.kommune.no" />
		<tag k="contact:phone" v="+47 78 40 75 40" />
		<tag k="max_age" v="5" />
		<tag k="min_age" v="1" />
		<tag k="name" v="Radioen barnehage" />
		<tag k="no-barnehage:nsrid" v="1014767" />
		<tag k="operator" v="Hammerfest kommune" />
		<tag k="operator:type" v="public" />
		<tag k="start_date" v="1993-09-22" />
	</node>
	<node id="-5776" lat="70.6897" lon="23.69185">
		<tag k="amenity" v="kindergarten" />
		<tag k="capacity" v="24" />
		<tag k="contact:email" v="prarien@barnehage.no" />
		<tag k="contact:phone" v="+47 78 41 43 84" />
		<tag k="contact:website" v="http://www.prarienbarnehage.no" />
		<tag k="max_age" v="5" />
		<tag k="min_age" v="1" />
		<tag k="name" v="Prærien barnehage" />
		<tag k="no-barnehage:nsrid" v="1019841" />
		<tag k="operator" v="Stiftelsen Prærien barnehage" />
		<tag k="operator:type" v="private" />
		<tag k="start_date" v="1989-01-02" />
	</node>
	<node id="-5775" lat="70.6592" lon="23.7168">
		<tag k="amenity" v="kindergarten" />
		<tag k="capacity" v="30" />
		<tag k="contact:email" v="liss.tove.loveid@hammerfest.kommune.no" />
		<tag k="contact:phone" v="+47 78 42 98 40" />
		<tag k="max_age" v="5" />
		<tag k="min_age" v="1" />
		<tag k="name" v="Nissenskogen barnehage" />
		<tag k="no-barnehage:nsrid" v="1013714" />
		<tag k="operator" v="Hammerfest kommune" />
		<tag k="operator:type" v="public" />
		<tag k="start_date" v="1989-01-01" />
	</node>
	<node id="-5774" lat="70.6739" lon="23.655">
		<tag k="amenity" v="kindergarten" />
		<tag k="capacity" v="36" />
		<tag k="contact:email" v="magnus.krokli@hammerfest.kommune.no" />
		<tag k="contact:phone" v="+47 78 42 82 70" />
		<tag k="max_age" v="5" />
		<tag k="min_age" v="1" />
		<tag k="name" v="Mylingen barnehage" />
		<tag k="no-barnehage:nsrid" v="1016905" />
		<tag k="operator" v="Hammerfest kommune" />
		<tag k="operator:type" v="public" />
		<tag k="start_date" v="1976-12-24" />
	</node>
	<node id="-5773" lat="70.68091" lon="23.69805">
		<tag k="amenity" v="kindergarten" />
		<tag k="capacity" v="39" />
		<tag k="contact:email" v="post@isbjornhiet.no" />
		<tag k="max_age" v="5" />
		<tag k="min_age" v="1" />
		<tag k="name" v="Isbjørnhiet barnehage Sa" />
		<tag k="no-barnehage:nsrid" v="1020456" />
		<tag k="operator" v="Isbjørnhiet barnehage Sa" />
		<tag k="operator:type" v="private" />
		<tag k="start_date" v="2010-01-01" />
	</node>
	<node id="-5772" lat="70.6767" lon="23.6798">
		<tag k="amenity" v="kindergarten" />
		<tag k="capacity" v="63" />
		<tag k="contact:email" v="anita.arnesen@hammerfest.kommune.no" />
		<tag k="contact:phone" v="+47 78402880" />
		<tag k="max_age" v="5" />
		<tag k="min_age" v="1" />
		<tag k="name" v="Håja barnehage" />
		<tag k="no-barnehage:nsrid" v="1016742" />
		<tag k="operator" v="Hammerfest kommune" />
		<tag k="operator:type" v="public" />
		<tag k="start_date" v="1989-01-02" />
	</node>
	<node id="-5771" lat="70.7219" lon="23.7972">
		<tag k="amenity" v="kindergarten" />
		<tag k="capacity" v="17" />
		<tag k="contact:email" v="veronica.ostad@hammerfest.kommune.no" />
		<tag k="contact:phone" v="+47 78 42 20 95" />
		<tag k="max_age" v="5" />
		<tag k="min_age" v="1" />
		<tag k="name" v="Forsøl barnehage" />
		<tag k="no-barnehage:nsrid" v="1012540" />
		<tag k="operator" v="Hammerfest kommune" />
		<tag k="operator:type" v="public" />
		<tag k="start_date" v="1989-01-01" />
	</node>
	<node id="-5770" lat="70.63425" lon="23.68315">
		<tag k="amenity" v="kindergarten" />
		<tag k="capacity" v="62" />
		<tag k="contact:email" v="dl.fjordadalen@bhg.no" />
		<tag k="max_age" v="5" />
		<tag k="min_age" v="1" />
		<tag k="name" v="Fjordadalen Fus barnehage AS" />
		<tag k="no-barnehage:nsrid" v="1022158" />
		<tag k="operator" v="Fjordadalen Fus barnehage AS" />
		<tag k="operator:type" v="private" />
		<tag k="start_date" v="2011-08-01" />
	</node>
	<node id="-5769" lat="70.6661" lon="23.6966">
		<tag k="amenity" v="kindergarten" />
		<tag k="capacity" v="82" />
		<tag k="contact:email" v="astrid.valle@hammerfest.kommune.no" />
		<tag k="contact:phone" v="+47 78 42 87 40" />
		<tag k="max_age" v="5" />
		<tag k="min_age" v="1" />
		<tag k="name" v="Elvetun barnehage" />
		<tag k="no-barnehage:nsrid" v="1025344" />
		<tag k="operator" v="Hammerfest kommune" />
		<tag k="operator:type" v="public" />
		<tag k="start_date" v="1989-01-01" />
	</node>
</osm>
