<?xml version="1.0" encoding="UTF-8"?>
<osm generator="osmapis" version="0.6">
	<node id="-2432" lat="59.30482" lon="10.44273">
		<tag k="amenity" v="kindergarten" />
		<tag k="capacity" v="47" />
		<tag k="max_age" v="5" />
		<tag k="min_age" v="1" />
		<tag k="name" v="Klokkeråsen barnehage" />
		<tag k="no-barnehage:nsrid" v="2000036" />
		<tag k="operator" v="Tønsberg kommune" />
		<tag k="operator:type" v="public" />
	</node>
	<node id="-2430" lat="59.2915" lon="10.476">
		<tag k="amenity" v="kindergarten" />
		<tag k="capacity" v="66" />
		<tag k="max_age" v="5" />
		<tag k="min_age" v="1" />
		<tag k="name" v="Ilebrekke barnehage" />
		<tag k="no-barnehage:nsrid" v="1017866" />
		<tag k="operator" v="Tønsberg kommune" />
		<tag k="operator:type" v="public" />
	</node>
	<node id="-2429" lat="59.23688" lon="10.46369">
		<tag k="amenity" v="kindergarten" />
		<tag k="capacity" v="51" />
		<tag k="max_age" v="5" />
		<tag k="min_age" v="1" />
		<tag k="name" v="Husøy Maritime FUS barnehage" />
		<tag k="no-barnehage:nsrid" v="1021715" />
		<tag k="operator" v="Husøy Maritime Fus barnehage AS" />
		<tag k="operator:type" v="private" />
	</node>
	<node id="-2428" lat="59.2676" lon="10.3563">
		<tag k="amenity" v="kindergarten" />
		<tag k="capacity" v="67" />
		<tag k="max_age" v="5" />
		<tag k="min_age" v="1" />
		<tag k="name" v="Hogsnes oppvekstsenter" />
		<tag k="no-barnehage:nsrid" v="1012821" />
		<tag k="operator" v="Tønsberg kommune" />
		<tag k="operator:type" v="public" />
	</node>
	<node id="-2427" lat="59.2469" lon="10.5068">
		<tag k="amenity" v="kindergarten" />
		<tag k="capacity" v="31" />
		<tag k="max_age" v="5" />
		<tag k="min_age" v="1" />
		<tag k="name" v="Haugar barnehage" />
		<tag k="no-barnehage:nsrid" v="1015552" />
		<tag k="operator" v="Tønsbergkirkenes Barnehager AS" />
		<tag k="operator:type" v="private" />
	</node>
	<node id="-2424" lat="59.2698" lon="10.4546">
		<tag k="amenity" v="kindergarten" />
		<tag k="capacity" v="78" />
		<tag k="contact:website" v="http://glitne.kanvas.no/" />
		<tag k="max_age" v="5" />
		<tag k="min_age" v="1" />
		<tag k="name" v="Glitne Kanvas-barnehage" />
		<tag k="no-barnehage:nsrid" v="1018472" />
		<tag k="operator" v="Stiftelsen Kanvas" />
		<tag k="operator:type" v="private" />
	</node>
	<node id="-2423" lat="59.2746" lon="10.4621">
		<tag k="amenity" v="kindergarten" />
		<tag k="capacity" v="59" />
		<tag k="max_age" v="5" />
		<tag k="min_age" v="1" />
		<tag k="name" v="Fyllpå barnehage" />
		<tag k="no-barnehage:nsrid" v="1012822" />
		<tag k="operator" v="Tønsberg kommune" />
		<tag k="operator:type" v="public" />
	</node>
	<node id="-2422" lat="59.2712" lon="10.4062">
		<tag k="amenity" v="kindergarten" />
		<tag k="capacity" v="26" />
		<tag k="max_age" v="5" />
		<tag k="min_age" v="1" />
		<tag k="name" v="Fjerdingen barnehage" />
		<tag k="no-barnehage:nsrid" v="1012814" />
		<tag k="operator" v="Tønsberg kommune" />
		<tag k="operator:type" v="public" />
	</node>
	<node id="-2421" lat="59.2568" lon="10.366">
		<tag k="amenity" v="kindergarten" />
		<tag k="capacity" v="89" />
		<tag k="contact:website" v="http://www.tonsberg.kommune.no" />
		<tag k="max_age" v="5" />
		<tag k="min_age" v="1" />
		<tag k="name" v="Ekely barnehage" />
		<tag k="no-barnehage:nsrid" v="1018027" />
		<tag k="operator" v="Tønsberg kommune" />
		<tag k="operator:type" v="public" />
	</node>
	<node id="-2420" lat="59.3009" lon="10.4171">
		<tag k="amenity" v="kindergarten" />
		<tag k="capacity" v="41" />
		<tag k="max_age" v="5" />
		<tag k="min_age" v="1" />
		<tag k="name" v="Eik Vestre barnehage" />
		<tag k="no-barnehage:nsrid" v="1012816" />
		<tag k="operator" v="Tønsberg kommune" />
		<tag k="operator:type" v="public" />
	</node>
	<node id="-2419" lat="59.29877" lon="10.48702">
		<tag k="amenity" v="kindergarten" />
		<tag k="capacity" v="27" />
		<tag k="max_age" v="5" />
		<tag k="min_age" v="1" />
		<tag k="name" v="Brekke naturbarnehage" />
		<tag k="no-barnehage:nsrid" v="1021999" />
		<tag k="operator" v="Brekke Naturbarnehage AS" />
		<tag k="operator:type" v="private" />
	</node>
	<node id="-2418" lat="59.26633" lon="10.47818">
		<tag k="amenity" v="kindergarten" />
		<tag k="capacity" v="27" />
		<tag k="max_age" v="5" />
		<tag k="min_age" v="1" />
		<tag k="name" v="Bogen barnehage" />
		<tag k="no-barnehage:nsrid" v="1019797" />
		<tag k="operator" v="Bogen barnehage Sa" />
		<tag k="operator:type" v="private" />
	</node>
	<node id="-2417" lat="59.27085" lon="10.41671">
		<tag k="amenity" v="kindergarten" />
		<tag k="capacity" v="65" />
		<tag k="contact:website" v="http://www.kattekleiv.no" />
		<tag k="max_age" v="5" />
		<tag k="min_age" v="1" />
		<tag k="name" v="Belmar barnehage" />
		<tag k="no-barnehage:nsrid" v="1021847" />
		<tag k="operator" v="Belmar barnehage AS" />
		<tag k="operator:type" v="private" />
	</node>
	<node id="-2416" lat="59.3173" lon="10.3896">
		<tag k="amenity" v="kindergarten" />
		<tag k="capacity" v="110" />
		<tag k="max_age" v="5" />
		<tag k="min_age" v="1" />
		<tag k="name" v="Barkåker barnehage" />
		<tag k="no-barnehage:nsrid" v="1012818" />
		<tag k="operator" v="Tønsberg kommune" />
		<tag k="operator:type" v="public" />
	</node>
	<node id="-2415" lat="59.284" lon="10.3302">
		<tag k="amenity" v="kindergarten" />
		<tag k="capacity" v="13" />
		<tag k="max_age" v="5" />
		<tag k="min_age" v="1" />
		<tag k="name" v="Aulerød barnehage" />
		<tag k="no-barnehage:nsrid" v="1016012" />
		<tag k="operator" v="Tønsberg kommune" />
		<tag k="operator:type" v="public" />
	</node>
	<node id="-2456" lat="59.33172" lon="10.42431">
		<tag k="amenity" v="kindergarten" />
		<tag k="capacity" v="52" />
		<tag k="contact:website" v="http://www.montessori.vf.no" />
		<tag k="max_age" v="5" />
		<tag k="min_age" v="1" />
		<tag k="name" v="Tønsberg Montessori barnehage" />
		<tag k="no-barnehage:nsrid" v="1021675" />
		<tag k="operator" v="Tønsberg Montessori barnehage" />
		<tag k="operator:type" v="private" />
	</node>
	<node id="-2455" lat="59.2641" lon="10.4199">
		<tag k="amenity" v="kindergarten" />
		<tag k="capacity" v="63" />
		<tag k="max_age" v="5" />
		<tag k="min_age" v="1" />
		<tag k="name" v="Træleborg barnehage" />
		<tag k="no-barnehage:nsrid" v="1015501" />
		<tag k="operator" v="Velle Gruppen AS" />
		<tag k="operator:type" v="private" />
	</node>
	<node id="-2454" lat="59.2797" lon="10.4291">
		<tag k="amenity" v="kindergarten" />
		<tag k="capacity" v="50" />
		<tag k="max_age" v="5" />
		<tag k="min_age" v="1" />
		<tag k="name" v="Trudvanglia barnehage" />
		<tag k="no-barnehage:nsrid" v="1017947" />
		<tag k="operator" v="Tønsberg kommune" />
		<tag k="operator:type" v="public" />
	</node>
	<node id="-2453" lat="59.269" lon="10.4695">
		<tag k="amenity" v="kindergarten" />
		<tag k="capacity" v="56" />
		<tag k="max_age" v="5" />
		<tag k="min_age" v="1" />
		<tag k="name" v="Tolvsrød barnehage" />
		<tag k="no-barnehage:nsrid" v="1012815" />
		<tag k="operator" v="Tønsberg kommune" />
		<tag k="operator:type" v="public" />
	</node>
	<node id="-2452" lat="59.24686" lon="10.50683">
		<tag k="amenity" v="kindergarten" />
		<tag k="capacity" v="23" />
		<tag k="max_age" v="5" />
		<tag k="min_age" v="1" />
		<tag k="name" v="Teie Hageby barnehage" />
		<tag k="no-barnehage:nsrid" v="1020344" />
		<tag k="operator" v="Stiftelsen Teie Hageby barnehage" />
		<tag k="operator:type" v="private" />
	</node>
	<node id="-2451" lat="59.26563" lon="10.44799">
		<tag k="amenity" v="kindergarten" />
		<tag k="capacity" v="64" />
		<tag k="contact:website" v="http://www.regnbuen.barnehage.no" />
		<tag k="max_age" v="5" />
		<tag k="min_age" v="1" />
		<tag k="name" v="Stiftelsen Regnbuen" />
		<tag k="no-barnehage:nsrid" v="1019983" />
		<tag k="operator" v="Stiftelsen Regnbuen" />
		<tag k="operator:type" v="private" />
	</node>
	<node id="-2450" lat="59.2753" lon="10.4183">
		<tag k="amenity" v="kindergarten" />
		<tag k="capacity" v="53" />
		<tag k="max_age" v="5" />
		<tag k="min_age" v="1" />
		<tag k="name" v="Solvangkirkens barnehage" />
		<tag k="no-barnehage:nsrid" v="1015547" />
		<tag k="operator" v="Tønsbergkirkenes Barnehager AS" />
		<tag k="operator:type" v="private" />
	</node>
	<node id="-2449" lat="59.28985" lon="10.48717">
		<tag k="amenity" v="kindergarten" />
		<tag k="capacity" v="75" />
		<tag k="contact:website" v="http://solsikken-barnehage.no/index.html" />
		<tag k="max_age" v="5" />
		<tag k="min_age" v="1" />
		<tag k="name" v="Solsikken-barnehage" />
		<tag k="no-barnehage:nsrid" v="1020645" />
		<tag k="operator" v="Solsikken-Barnehage Sa" />
		<tag k="operator:type" v="private" />
	</node>
	<node id="-2448" lat="59.2681" lon="10.4542">
		<tag k="amenity" v="kindergarten" />
		<tag k="capacity" v="131" />
		<tag k="max_age" v="5" />
		<tag k="min_age" v="1" />
		<tag k="name" v="Slagen barnehage" />
		<tag k="no-barnehage:nsrid" v="1017230" />
		<tag k="operator" v="Tønsberg kommune" />
		<tag k="operator:type" v="public" />
	</node>
	<node id="-2447" lat="59.2707" lon="10.455">
		<tag k="amenity" v="kindergarten" />
		<tag k="capacity" v="41" />
		<tag k="max_age" v="5" />
		<tag k="min_age" v="1" />
		<tag k="name" v="Skoglund barnehage" />
		<tag k="no-barnehage:nsrid" v="1012820" />
		<tag k="operator" v="Tønsberg kommune" />
		<tag k="operator:type" v="public" />
	</node>
	<node id="-2446" lat="59.2586" lon="10.3672">
		<tag k="amenity" v="kindergarten" />
		<tag k="capacity" v="47" />
		<tag k="max_age" v="5" />
		<tag k="min_age" v="1" />
		<tag k="name" v="Sigridløkka barnehage" />
		<tag k="no-barnehage:nsrid" v="1015502" />
		<tag k="operator" v="Velle Gruppen AS" />
		<tag k="operator:type" v="private" />
	</node>
	<node id="-2445" lat="59.2839" lon="10.3276">
		<tag k="amenity" v="kindergarten" />
		<tag k="capacity" v="78" />
		<tag k="max_age" v="5" />
		<tag k="min_age" v="1" />
		<tag k="name" v="Semsløkka barnehage" />
		<tag k="no-barnehage:nsrid" v="1013392" />
		<tag k="operator" v="Tønsbergkirkenes Barnehager AS" />
		<tag k="operator:type" v="private" />
	</node>
	<node id="-2444" lat="59.2795" lon="10.3248">
		<tag k="amenity" v="kindergarten" />
		<tag k="capacity" v="35" />
		<tag k="max_age" v="5" />
		<tag k="min_age" v="1" />
		<tag k="name" v="Semsbyen barnehage" />
		<tag k="no-barnehage:nsrid" v="1012819" />
		<tag k="operator" v="Tønsberg kommune" />
		<tag k="operator:type" v="public" />
	</node>
	<node id="-2443" lat="59.2788" lon="10.4499">
		<tag k="amenity" v="kindergarten" />
		<tag k="capacity" v="154" />
		<tag k="max_age" v="5" />
		<tag k="min_age" v="1" />
		<tag k="name" v="Sandeåsen barnehage" />
		<tag k="no-barnehage:nsrid" v="1017269" />
		<tag k="operator" v="Tønsberg kommune" />
		<tag k="operator:type" v="public" />
	</node>
	<node id="-2442" lat="59.2604" lon="10.4536">
		<tag k="amenity" v="kindergarten" />
		<tag k="capacity" v="70" />
		<tag k="max_age" v="5" />
		<tag k="min_age" v="1" />
		<tag k="name" v="Råelåsen barnehage" />
		<tag k="no-barnehage:nsrid" v="1012824" />
		<tag k="operator" v="Tønsberg kommune" />
		<tag k="operator:type" v="public" />
	</node>
	<node id="-2441" lat="59.32779" lon="10.46875">
		<tag k="amenity" v="kindergarten" />
		<tag k="capacity" v="41" />
		<tag k="contact:website" v="http://www.roras.no" />
		<tag k="max_age" v="5" />
		<tag k="min_age" v="1" />
		<tag k="name" v="Rørås gårdsbarnehage" />
		<tag k="no-barnehage:nsrid" v="1021470" />
		<tag k="operator" v="Rørås Gårdsbarnehage" />
		<tag k="operator:type" v="private" />
	</node>
	<node id="-2440" lat="59.2851" lon="10.4859">
		<tag k="amenity" v="kindergarten" />
		<tag k="capacity" v="58" />
		<tag k="max_age" v="5" />
		<tag k="min_age" v="1" />
		<tag k="name" v="Ringshaug barnehage" />
		<tag k="no-barnehage:nsrid" v="1016937" />
		<tag k="operator" v="Tønsberg kommune" />
		<tag k="operator:type" v="public" />
	</node>
	<node id="-2438" lat="59.28087" lon="10.29033">
		<tag k="amenity" v="kindergarten" />
		<tag k="capacity" v="21" />
		<tag k="max_age" v="5" />
		<tag k="min_age" v="1" />
		<tag k="name" v="Rannveigs gårdsbarnehage" />
		<tag k="no-barnehage:nsrid" v="1020615" />
		<tag k="operator" v="Rannveig'S Gårdsbarnehage AS" />
		<tag k="operator:type" v="private" />
	</node>
	<node id="-2437" lat="59.2747" lon="10.4434">
		<tag k="amenity" v="kindergarten" />
		<tag k="capacity" v="47" />
		<tag k="max_age" v="5" />
		<tag k="min_age" v="1" />
		<tag k="name" v="Presterød barnehage" />
		<tag k="no-barnehage:nsrid" v="1025363" />
		<tag k="operator" v="Tønsberg kommune" />
		<tag k="operator:type" v="public" />
	</node>
	<node id="-2436" lat="59.2933" lon="10.4226">
		<tag k="amenity" v="kindergarten" />
		<tag k="capacity" v="60" />
		<tag k="max_age" v="5" />
		<tag k="min_age" v="1" />
		<tag k="name" v="Mortenåsen barnehage" />
		<tag k="no-barnehage:nsrid" v="1012823" />
		<tag k="operator" v="Tønsberg kommune" />
		<tag k="operator:type" v="public" />
	</node>
	<node id="-2435" lat="59.30564" lon="10.4267">
		<tag k="amenity" v="kindergarten" />
		<tag k="capacity" v="68" />
		<tag k="contact:website" v="http://www.lokebergstua.barnehage.no" />
		<tag k="max_age" v="5" />
		<tag k="min_age" v="1" />
		<tag k="name" v="Løkebergstua barnehage" />
		<tag k="no-barnehage:nsrid" v="1020617" />
		<tag k="operator" v="Løkebergstua barnehage Sa" />
		<tag k="operator:type" v="private" />
	</node>
	<node id="-2434" lat="59.2971" lon="10.4153">
		<tag k="amenity" v="kindergarten" />
		<tag k="capacity" v="112" />
		<tag k="max_age" v="5" />
		<tag k="min_age" v="1" />
		<tag k="name" v="Kongseik barnehage" />
		<tag k="no-barnehage:nsrid" v="1016013" />
		<tag k="operator" v="Tønsberg kommune" />
		<tag k="operator:type" v="public" />
	</node>
	<node id="-2433" lat="59.2727" lon="10.4111">
		<tag k="amenity" v="kindergarten" />
		<tag k="capacity" v="91" />
		<tag k="max_age" v="5" />
		<tag k="min_age" v="1" />
		<tag k="name" v="Knapløkka barnehage" />
		<tag k="no-barnehage:nsrid" v="1012817" />
		<tag k="operator" v="Tønsberg kommune" />
		<tag k="operator:type" v="public" />
	</node>
</osm>
