<?xml version="1.0" encoding="UTF-8"?>
<osm generator="osmapis" version="0.6">
	<node id="-2611" lat="59.33172" lon="10.42431">
		<tag k="amenity" v="kindergarten" />
		<tag k="capacity" v="50" />
		<tag k="contact:email" v="johanna.petersen@montessori.vf.no" />
		<tag k="contact:phone" v="+47 33380133" />
		<tag k="contact:website" v="http://www.montessori.vf.no" />
		<tag k="max_age" v="5" />
		<tag k="min_age" v="1" />
		<tag k="name" v="Tønsberg Montessori barnehage" />
		<tag k="no-barnehage:nsrid" v="1021675" />
		<tag k="operator" v="Tønsberg Montessori barnehage" />
		<tag k="operator:type" v="private" />
		<tag k="start_date" v="1991-08-01" />
	</node>
	<node id="-2610" lat="59.2641" lon="10.4199">
		<tag k="amenity" v="kindergarten" />
		<tag k="capacity" v="64" />
		<tag k="contact:email" v="janne.mikalsen@velle.no" />
		<tag k="contact:phone" v="+47 033318479" />
		<tag k="max_age" v="5" />
		<tag k="min_age" v="1" />
		<tag k="name" v="Træleborg barnehage" />
		<tag k="no-barnehage:nsrid" v="1015501" />
		<tag k="operator" v="Velle Utvikling AS" />
		<tag k="operator:type" v="private" />
		<tag k="start_date" v="1992-01-01" />
	</node>
	<node id="-2609" lat="59.2797" lon="10.4291">
		<tag k="amenity" v="kindergarten" />
		<tag k="capacity" v="56" />
		<tag k="contact:email" v="lindis.thorkildsen@tonsberg.kommune.no" />
		<tag k="max_age" v="5" />
		<tag k="min_age" v="1" />
		<tag k="name" v="Trudvanglia barnehage" />
		<tag k="no-barnehage:nsrid" v="1017947" />
		<tag k="operator" v="Tønsberg kommune" />
		<tag k="operator:type" v="public" />
		<tag k="start_date" v="2007-11-01" />
	</node>
	<node id="-2608" lat="59.269" lon="10.4695">
		<tag k="amenity" v="kindergarten" />
		<tag k="capacity" v="56" />
		<tag k="contact:email" v="unni.garbom@tonsberg.kommune.no" />
		<tag k="contact:phone" v="+47 033325807" />
		<tag k="max_age" v="5" />
		<tag k="min_age" v="1" />
		<tag k="name" v="Tolvsrød barnehage" />
		<tag k="no-barnehage:nsrid" v="1012815" />
		<tag k="operator" v="Tønsberg kommune" />
		<tag k="operator:type" v="public" />
		<tag k="start_date" v="1976-01-01" />
	</node>
	<node id="-2607" lat="59.24686" lon="10.50683">
		<tag k="amenity" v="kindergarten" />
		<tag k="capacity" v="25" />
		<tag k="contact:email" v="teieby@online.no" />
		<tag k="contact:phone" v="+47 97423059" />
		<tag k="max_age" v="5" />
		<tag k="min_age" v="1" />
		<tag k="name" v="Teie Hageby barnehage" />
		<tag k="no-barnehage:nsrid" v="1020344" />
		<tag k="operator" v="Stiftelsen Teie Hageby barnehage" />
		<tag k="operator:type" v="private" />
		<tag k="start_date" v="1991-07-22" />
	</node>
	<node id="-2606" lat="59.26563" lon="10.44799">
		<tag k="amenity" v="kindergarten" />
		<tag k="capacity" v="65" />
		<tag k="contact:email" v="post.regnbuen@barnehage.no" />
		<tag k="contact:phone" v="+47 33 35 99 80" />
		<tag k="contact:website" v="http://www.regnbuen.barnehage.no" />
		<tag k="max_age" v="5" />
		<tag k="min_age" v="1" />
		<tag k="name" v="Stiftelsen Regnbuen" />
		<tag k="no-barnehage:nsrid" v="1019983" />
		<tag k="operator" v="Stiftelsen Regnbuen" />
		<tag k="operator:type" v="private" />
		<tag k="start_date" v="1991-07-15" />
	</node>
	<node id="-2605" lat="59.2753" lon="10.4183">
		<tag k="amenity" v="kindergarten" />
		<tag k="capacity" v="60" />
		<tag k="contact:email" v="mlkj@sagarr.no" />
		<tag k="contact:phone" v="+47 33 31 46 35" />
		<tag k="max_age" v="5" />
		<tag k="min_age" v="1" />
		<tag k="name" v="Solvangkirkens barnehage" />
		<tag k="no-barnehage:nsrid" v="1015547" />
		<tag k="operator" v="Tønsbergkirkenes Barnehager AS" />
		<tag k="operator:type" v="private" />
		<tag k="start_date" v="1982-01-01" />
	</node>
	<node id="-2604" lat="59.28985" lon="10.48717">
		<tag k="amenity" v="kindergarten" />
		<tag k="capacity" v="80" />
		<tag k="contact:email" v="sobarne@online.no" />
		<tag k="contact:phone" v="+47 33 01 97 33" />
		<tag k="contact:website" v="http://www.solsikken.barnehage.no" />
		<tag k="max_age" v="5" />
		<tag k="min_age" v="1" />
		<tag k="name" v="Solsikken-Barnehage Sa" />
		<tag k="no-barnehage:nsrid" v="1020645" />
		<tag k="operator" v="Solsikken-Barnehage Sa" />
		<tag k="operator:type" v="private" />
		<tag k="start_date" v="2000-06-26" />
	</node>
	<node id="-2603" lat="59.2681" lon="10.4542">
		<tag k="amenity" v="kindergarten" />
		<tag k="capacity" v="131" />
		<tag k="contact:email" v="wenche.hoiseth@tonsberg.kommune.no" />
		<tag k="max_age" v="5" />
		<tag k="min_age" v="1" />
		<tag k="name" v="Slagen barnehage" />
		<tag k="no-barnehage:nsrid" v="1017230" />
		<tag k="operator" v="Tønsberg kommune" />
		<tag k="operator:type" v="public" />
		<tag k="start_date" v="2006-08-01" />
	</node>
	<node id="-2602" lat="59.2707" lon="10.455">
		<tag k="amenity" v="kindergarten" />
		<tag k="capacity" v="40" />
		<tag k="contact:email" v="lise.hanssen@tonsberg.kommune.no" />
		<tag k="contact:phone" v="+47 033324700" />
		<tag k="max_age" v="5" />
		<tag k="min_age" v="1" />
		<tag k="name" v="Skoglund barnehage" />
		<tag k="no-barnehage:nsrid" v="1012820" />
		<tag k="operator" v="Tønsberg kommune" />
		<tag k="operator:type" v="public" />
		<tag k="start_date" v="1989-01-01" />
	</node>
	<node id="-2601" lat="59.2839" lon="10.3276">
		<tag k="amenity" v="kindergarten" />
		<tag k="capacity" v="71" />
		<tag k="contact:email" v="mlkj@sagarr.no" />
		<tag k="contact:phone" v="+47 33 37 47 02" />
		<tag k="max_age" v="5" />
		<tag k="min_age" v="1" />
		<tag k="name" v="Semsløkka barnehage" />
		<tag k="no-barnehage:nsrid" v="1013392" />
		<tag k="operator" v="Tønsbergkirkenes Barnehager AS" />
		<tag k="operator:type" v="private" />
		<tag k="start_date" v="2006-05-22" />
	</node>
	<node id="-2600" lat="59.2795" lon="10.3248">
		<tag k="amenity" v="kindergarten" />
		<tag k="capacity" v="35" />
		<tag k="contact:email" v="solvi.mevold.gjennestad@tonsberg.kommune.no" />
		<tag k="contact:phone" v="+47 033333000" />
		<tag k="max_age" v="5" />
		<tag k="min_age" v="1" />
		<tag k="name" v="Semsbyen barnehage" />
		<tag k="no-barnehage:nsrid" v="1012819" />
		<tag k="operator" v="Tønsberg kommune" />
		<tag k="operator:type" v="public" />
		<tag k="start_date" v="1989-01-01" />
	</node>
	<node id="-2599" lat="59.2788" lon="10.4499">
		<tag k="amenity" v="kindergarten" />
		<tag k="capacity" v="165" />
		<tag k="contact:email" v="renate.rasmussen@tonsberg.kommune.no" />
		<tag k="contact:phone" v="+47 916 13325" />
		<tag k="max_age" v="5" />
		<tag k="min_age" v="1" />
		<tag k="name" v="Sandeåsen barnehage" />
		<tag k="no-barnehage:nsrid" v="1017269" />
		<tag k="operator" v="Tønsberg kommune" />
		<tag k="operator:type" v="public" />
		<tag k="start_date" v="2006-09-01" />
	</node>
	<node id="-2598" lat="59.2604" lon="10.4536">
		<tag k="amenity" v="kindergarten" />
		<tag k="capacity" v="78" />
		<tag k="contact:email" v="kjersti.fluge@tonsberg.kommune.no" />
		<tag k="max_age" v="5" />
		<tag k="min_age" v="1" />
		<tag k="name" v="Råelåsen barnehage" />
		<tag k="no-barnehage:nsrid" v="1012824" />
		<tag k="operator" v="Tønsberg kommune" />
		<tag k="operator:type" v="public" />
		<tag k="start_date" v="1990-10-01" />
	</node>
	<node id="-2597" lat="59.32779" lon="10.46875">
		<tag k="amenity" v="kindergarten" />
		<tag k="capacity" v="40" />
		<tag k="contact:email" v="eroera@online.no" />
		<tag k="contact:phone" v="+47 90143867" />
		<tag k="contact:website" v="http://www.roras.no" />
		<tag k="max_age" v="5" />
		<tag k="min_age" v="1" />
		<tag k="name" v="Rørås Gårdsbarnehage" />
		<tag k="no-barnehage:nsrid" v="1021470" />
		<tag k="operator" v="Rørås Gårdsbarnehage" />
		<tag k="operator:type" v="private" />
		<tag k="start_date" v="2006-06-27" />
	</node>
	<node id="-2596" lat="59.2851" lon="10.4859">
		<tag k="amenity" v="kindergarten" />
		<tag k="capacity" v="64" />
		<tag k="contact:email" v="kristine.forsa.hermanrud@tonsberg.kommune.no" />
		<tag k="contact:phone" v="+47 33 33 41 20" />
		<tag k="max_age" v="5" />
		<tag k="min_age" v="1" />
		<tag k="name" v="Ringshaug barnehage" />
		<tag k="no-barnehage:nsrid" v="1016937" />
		<tag k="operator" v="Tønsberg kommune" />
		<tag k="operator:type" v="public" />
		<tag k="start_date" v="2005-07-01" />
	</node>
	<node id="-2594" lat="59.28087" lon="10.29033">
		<tag k="amenity" v="kindergarten" />
		<tag k="capacity" v="19" />
		<tag k="contact:email" v="rannveig@grorud.net" />
		<tag k="contact:phone" v="+47 33 31 49 25" />
		<tag k="max_age" v="5" />
		<tag k="min_age" v="1" />
		<tag k="name" v="Rannveigs Gårdsbarnehage AS" />
		<tag k="no-barnehage:nsrid" v="1020615" />
		<tag k="operator" v="Rannveig'S Gårdsbarnehage AS" />
		<tag k="operator:type" v="private" />
		<tag k="start_date" v="1997-08-01" />
	</node>
	<node id="-2593" lat="59.2747" lon="10.4434">
		<tag k="amenity" v="kindergarten" />
		<tag k="capacity" v="50" />
		<tag k="contact:email" v="hilde.dybesland.lokkevik@tonsberg.kommune.no" />
		<tag k="contact:phone" v="+47 033325104" />
		<tag k="max_age" v="5" />
		<tag k="min_age" v="1" />
		<tag k="name" v="Presterød barnehage" />
		<tag k="no-barnehage:nsrid" v="1025363" />
		<tag k="operator" v="Tønsberg kommune" />
		<tag k="operator:type" v="public" />
		<tag k="start_date" v="1976-01-01" />
	</node>
	<node id="-2592" lat="59.2836" lon="10.4276">
		<tag k="amenity" v="kindergarten" />
		<tag k="contact:email" v="b-torsvo@online.no" />
		<tag k="contact:phone" v="+47 33311692" />
		<tag k="max_age" v="5" />
		<tag k="min_age" v="1" />
		<tag k="name" v="Nøtteliten barnehage V/ Knut Gran" />
		<tag k="no-barnehage:nsrid" v="1019938" />
		<tag k="operator" v="Nøtteliten barnehage Tønsberg Sa" />
		<tag k="operator:type" v="private" />
		<tag k="start_date" v="1990-01-01" />
	</node>
	<node id="-2591" lat="59.2933" lon="10.4226">
		<tag k="amenity" v="kindergarten" />
		<tag k="capacity" v="66" />
		<tag k="contact:email" v="aga@tonsberg.kommune.no" />
		<tag k="max_age" v="5" />
		<tag k="min_age" v="1" />
		<tag k="name" v="Mortenåsen barnehage" />
		<tag k="no-barnehage:nsrid" v="1012823" />
		<tag k="operator" v="Tønsberg kommune" />
		<tag k="operator:type" v="public" />
		<tag k="start_date" v="1989-01-01" />
	</node>
	<node id="-2590" lat="59.30564" lon="10.4267">
		<tag k="amenity" v="kindergarten" />
		<tag k="capacity" v="71" />
		<tag k="contact:email" v="post.lokebergstua@barnehage.no" />
		<tag k="contact:phone" v="+47 33 35 06 04" />
		<tag k="contact:website" v="http://www.lokebergstua.barnehage.no" />
		<tag k="max_age" v="5" />
		<tag k="min_age" v="1" />
		<tag k="name" v="Løkebergstua barnehage Sa" />
		<tag k="no-barnehage:nsrid" v="1020617" />
		<tag k="operator" v="Løkebergstua barnehage Sa" />
		<tag k="operator:type" v="private" />
		<tag k="start_date" v="2000-08-01" />
	</node>
	<node id="-2589" lat="59.2971" lon="10.4153">
		<tag k="amenity" v="kindergarten" />
		<tag k="capacity" v="140" />
		<tag k="contact:email" v="aga@tonsberg.kommune.no" />
		<tag k="contact:phone" v="+47 033368066" />
		<tag k="max_age" v="5" />
		<tag k="min_age" v="1" />
		<tag k="name" v="Kongseik barnehage" />
		<tag k="no-barnehage:nsrid" v="1016013" />
		<tag k="operator" v="Tønsberg kommune" />
		<tag k="operator:type" v="public" />
		<tag k="start_date" v="1993-08-02" />
	</node>
	<node id="-2588" lat="59.2727" lon="10.4111">
		<tag k="amenity" v="kindergarten" />
		<tag k="capacity" v="99" />
		<tag k="contact:email" v="lindis.thorkildsen@tonsberg.kommune.no" />
		<tag k="max_age" v="5" />
		<tag k="min_age" v="1" />
		<tag k="name" v="Knapløkka barnehage" />
		<tag k="no-barnehage:nsrid" v="1012817" />
		<tag k="operator" v="Tønsberg kommune" />
		<tag k="operator:type" v="public" />
		<tag k="start_date" v="1989-01-01" />
	</node>
	<node id="-2587" lat="59.30482" lon="10.44273">
		<tag k="amenity" v="kindergarten" />
		<tag k="capacity" v="42" />
		<tag k="contact:email" v="aga@tonsberg.kommune.no" />
		<tag k="max_age" v="2" />
		<tag k="min_age" v="1" />
		<tag k="name" v="Klokkeråsen barnehage" />
		<tag k="no-barnehage:nsrid" v="2000036" />
		<tag k="operator" v="Tønsberg kommune" />
		<tag k="operator:type" v="public" />
		<tag k="start_date" v="2016-08-01" />
	</node>
	<node id="-2584" lat="59.2915" lon="10.476">
		<tag k="amenity" v="kindergarten" />
		<tag k="capacity" v="73" />
		<tag k="contact:email" v="lene.hole@tonsberg.kommune.no" />
		<tag k="contact:phone" v="+47 33 01 64 80" />
		<tag k="max_age" v="5" />
		<tag k="min_age" v="1" />
		<tag k="name" v="Ilebrekke barnehage" />
		<tag k="no-barnehage:nsrid" v="1017866" />
		<tag k="operator" v="Tønsberg kommune" />
		<tag k="operator:type" v="public" />
		<tag k="start_date" v="2007-08-01" />
	</node>
	<node id="-2583" lat="59.23688" lon="10.46369">
		<tag k="amenity" v="kindergarten" />
		<tag k="capacity" v="55" />
		<tag k="contact:email" v="dl.husoy@bhg.no" />
		<tag k="contact:phone" v="+47 33 33 22 11" />
		<tag k="max_age" v="5" />
		<tag k="min_age" v="1" />
		<tag k="name" v="Husøy Maritime Fus barnehage AS" />
		<tag k="no-barnehage:nsrid" v="1021715" />
		<tag k="operator" v="Husøy Maritime Fus barnehage AS" />
		<tag k="operator:type" v="private" />
		<tag k="start_date" v="2007-08-24" />
	</node>
	<node id="-2582" lat="59.2676" lon="10.3563">
		<tag k="amenity" v="kindergarten" />
		<tag k="capacity" v="60" />
		<tag k="contact:email" v="solvi.mevold.gjennestad@tonsberg.kommune.no" />
		<tag k="contact:phone" v="+47 033331370" />
		<tag k="max_age" v="5" />
		<tag k="min_age" v="1" />
		<tag k="name" v="Hogsnes Oppvekstsenter" />
		<tag k="no-barnehage:nsrid" v="1012821" />
		<tag k="operator" v="Tønsberg kommune" />
		<tag k="operator:type" v="public" />
		<tag k="start_date" v="1989-01-01" />
	</node>
	<node id="-2581" lat="59.2469" lon="10.5068">
		<tag k="amenity" v="kindergarten" />
		<tag k="capacity" v="29" />
		<tag k="contact:email" v="as@tonsberg.kirken.no" />
		<tag k="contact:phone" v="+47 33 31 61 44" />
		<tag k="max_age" v="5" />
		<tag k="min_age" v="1" />
		<tag k="name" v="Haugar barnehage" />
		<tag k="no-barnehage:nsrid" v="1015552" />
		<tag k="operator" v="Tønsberg Kirkelige Fellesråd" />
		<tag k="operator:type" v="private" />
		<tag k="start_date" v="1982-01-01" />
	</node>
	<node id="-2578" lat="59.2698" lon="10.4546">
		<tag k="amenity" v="kindergarten" />
		<tag k="capacity" v="78" />
		<tag k="contact:email" v="glitne@kanvas.no" />
		<tag k="max_age" v="5" />
		<tag k="min_age" v="1" />
		<tag k="name" v="Glitne Kanvas-Barnehage" />
		<tag k="no-barnehage:nsrid" v="1018472" />
		<tag k="operator" v="Stiftelsen Kanvas" />
		<tag k="operator:type" v="private" />
		<tag k="start_date" v="2008-08-01" />
	</node>
	<node id="-2577" lat="59.2746" lon="10.4621">
		<tag k="amenity" v="kindergarten" />
		<tag k="capacity" v="64" />
		<tag k="contact:email" v="laila.johansen@tonsberg.kommune.no" />
		<tag k="contact:phone" v="+47 033327098" />
		<tag k="max_age" v="5" />
		<tag k="min_age" v="1" />
		<tag k="name" v="Fyllpå barnehage" />
		<tag k="no-barnehage:nsrid" v="1012822" />
		<tag k="operator" v="Tønsberg kommune" />
		<tag k="operator:type" v="public" />
		<tag k="start_date" v="1989-01-01" />
	</node>
	<node id="-2576" lat="59.2712" lon="10.4062">
		<tag k="amenity" v="kindergarten" />
		<tag k="capacity" v="34" />
		<tag k="contact:email" v="lindis.thorkildsen@tonsberg.kommune.no" />
		<tag k="contact:phone" v="+47 033318000" />
		<tag k="max_age" v="5" />
		<tag k="min_age" v="1" />
		<tag k="name" v="Fjerdingen barnehage" />
		<tag k="no-barnehage:nsrid" v="1012814" />
		<tag k="operator" v="Tønsberg kommune" />
		<tag k="operator:type" v="public" />
		<tag k="start_date" v="1983-08-02" />
	</node>
	<node id="-2575" lat="59.2568" lon="10.366">
		<tag k="amenity" v="kindergarten" />
		<tag k="capacity" v="80" />
		<tag k="contact:email" v="hilde.chluba@stokke.kommune.no" />
		<tag k="contact:phone" v="+47 33 29 56 20" />
		<tag k="contact:website" v="http://www.stokke.komune.no" />
		<tag k="max_age" v="5" />
		<tag k="min_age" v="1" />
		<tag k="name" v="Ekely barnehage" />
		<tag k="no-barnehage:nsrid" v="1018027" />
		<tag k="operator" v="Tønsberg kommune" />
		<tag k="operator:type" v="public" />
		<tag k="start_date" v="1989-01-01" />
	</node>
	<node id="-2574" lat="59.3009" lon="10.4171">
		<tag k="amenity" v="kindergarten" />
		<tag k="capacity" v="43" />
		<tag k="contact:email" v="aga@tonsberg.kommune.no" />
		<tag k="contact:phone" v="+47 033368594" />
		<tag k="max_age" v="5" />
		<tag k="min_age" v="1" />
		<tag k="name" v="Eik Vestre barnehage" />
		<tag k="no-barnehage:nsrid" v="1012816" />
		<tag k="operator" v="Tønsberg kommune" />
		<tag k="operator:type" v="public" />
		<tag k="start_date" v="1976-01-01" />
	</node>
	<node id="-2573" lat="59.29877" lon="10.48702">
		<tag k="amenity" v="kindergarten" />
		<tag k="capacity" v="27" />
		<tag k="contact:email" v="mlkj@sagarr.no" />
		<tag k="max_age" v="5" />
		<tag k="min_age" v="1" />
		<tag k="name" v="Brekke Naturbarnehage AS" />
		<tag k="no-barnehage:nsrid" v="1021999" />
		<tag k="operator" v="Brekke Naturbarnehage AS" />
		<tag k="operator:type" v="private" />
		<tag k="start_date" v="1972-12-26" />
	</node>
	<node id="-2572" lat="59.26633" lon="10.47818">
		<tag k="amenity" v="kindergarten" />
		<tag k="capacity" v="27" />
		<tag k="contact:email" v="kari.knutsen@bogenbarn.no" />
		<tag k="contact:phone" v="+47 33 32 62 03" />
		<tag k="max_age" v="5" />
		<tag k="min_age" v="1" />
		<tag k="name" v="Bogen barnehage Sa" />
		<tag k="no-barnehage:nsrid" v="1019797" />
		<tag k="operator" v="Bogen barnehage Sa" />
		<tag k="operator:type" v="private" />
		<tag k="start_date" v="1989-01-01" />
	</node>
	<node id="-2571" lat="59.27085" lon="10.41671">
		<tag k="amenity" v="kindergarten" />
		<tag k="capacity" v="35" />
		<tag k="contact:email" v="ingerlise@kattekleiv.no" />
		<tag k="contact:phone" v="+47 90968719" />
		<tag k="contact:website" v="http://www.kattekleiv.no" />
		<tag k="max_age" v="5" />
		<tag k="min_age" v="1" />
		<tag k="name" v="Belmar barnehage AS" />
		<tag k="no-barnehage:nsrid" v="1021847" />
		<tag k="operator" v="Belmar barnehage AS" />
		<tag k="operator:type" v="private" />
		<tag k="start_date" v="2008-05-22" />
	</node>
	<node id="-2570" lat="59.3173" lon="10.3896">
		<tag k="amenity" v="kindergarten" />
		<tag k="capacity" v="107" />
		<tag k="contact:email" v="solvi.mevold.gjennestad@tonsberg.kommune.no" />
		<tag k="contact:phone" v="+47 033380345" />
		<tag k="max_age" v="5" />
		<tag k="min_age" v="1" />
		<tag k="name" v="Barkåker barnehage" />
		<tag k="no-barnehage:nsrid" v="1012818" />
		<tag k="operator" v="Tønsberg kommune" />
		<tag k="operator:type" v="public" />
		<tag k="start_date" v="1989-01-01" />
	</node>
	<node id="-2569" lat="59.284" lon="10.3302">
		<tag k="amenity" v="kindergarten" />
		<tag k="capacity" v="16" />
		<tag k="contact:email" v="solvi.mevold.gjennestad@tonsberg.kommune.no" />
		<tag k="contact:phone" v="+47 033333244" />
		<tag k="max_age" v="5" />
		<tag k="min_age" v="1" />
		<tag k="name" v="Aulerød barnehage" />
		<tag k="no-barnehage:nsrid" v="1016012" />
		<tag k="operator" v="Tønsberg kommune" />
		<tag k="operator:type" v="public" />
		<tag k="start_date" v="1992-01-01" />
	</node>
</osm>
