<?xml version="1.0" encoding="UTF-8"?>
<osm generator="osmapis" version="0.6">
	<node id="-2580" lat="59.23868" lon="10.46995">
		<tag k="amenity" v="kindergarten" />
		<tag k="capacity" v="4" />
		<tag k="contact:email" v="alfildwroldsen@hotmail.com" />
		<tag k="contact:phone" v="+47 33 36 71 45" />
		<tag k="max_age" v="2" />
		<tag k="min_age" v="1" />
		<tag k="name" v="Ringbakken Familiebarnehage Alfhild Wroldsen" />
		<tag k="no-barnehage:nsrid" v="1021654" />
		<tag k="operator" v="Ringbakken Familiebarnehage Alfhild Wroldsen" />
		<tag k="operator:type" v="private" />
		<tag k="start_date" v="2007-08-01" />
	</node>
	<node id="-2574" lat="59.26716" lon="10.45506">
		<tag k="amenity" v="kindergarten" />
		<tag k="capacity" v="4" />
		<tag k="contact:email" v="kristinanorway@hotmail.com" />
		<tag k="max_age" v="2" />
		<tag k="min_age" v="1" />
		<tag k="name" v="Kristinas Tussi Familiebarnehage Staneviciute" />
		<tag k="no-barnehage:nsrid" v="1022058" />
		<tag k="operator" v="Kristinas Tussi Familiebarnehage Staneviciute" />
		<tag k="operator:type" v="private" />
		<tag k="start_date" v="2010-08-01" />
	</node>
	<node id="-2571" lat="59.27493" lon="10.46945">
		<tag k="amenity" v="kindergarten" />
		<tag k="capacity" v="4" />
		<tag k="contact:email" v="kastanjenoetten@hotmail.com" />
		<tag k="contact:phone" v="+47 33 32 69 25" />
		<tag k="max_age" v="2" />
		<tag k="min_age" v="1" />
		<tag k="name" v="Kastanjenøtten barnehage Hilde Sannum Lunne" />
		<tag k="no-barnehage:nsrid" v="1021287" />
		<tag k="operator" v="Kastanjenøtten barnehage Hilde Sannum Lunne" />
		<tag k="operator:type" v="private" />
		<tag k="start_date" v="2005-08-15" />
	</node>
	<node id="-2569" lat="59.26716" lon="10.45506">
		<tag k="amenity" v="kindergarten" />
		<tag k="capacity" v="4" />
		<tag k="contact:email" v="barshkutis@hotmail.com" />
		<tag k="contact:phone" v="+47 95133318" />
		<tag k="max_age" v="2" />
		<tag k="min_age" v="1" />
		<tag k="name" v="Ingas Tigergutt Familiebarnehage Inga Staneviciene" />
		<tag k="no-barnehage:nsrid" v="1022063" />
		<tag k="operator" v="Ingas Tigergutt Familiebarnehage Inga Staneviciene" />
		<tag k="operator:type" v="private" />
		<tag k="start_date" v="2010-08-01" />
	</node>
	<node id="-2564" lat="59.2863" lon="10.49567">
		<tag k="amenity" v="kindergarten" />
		<tag k="capacity" v="4" />
		<tag k="contact:email" v="nina-bs@hotmail.no" />
		<tag k="contact:phone" v="+47 33 33 13 25" />
		<tag k="max_age" v="2" />
		<tag k="min_age" v="1" />
		<tag k="name" v="Grusveien Familiebarnehage" />
		<tag k="no-barnehage:nsrid" v="1020740" />
		<tag k="operator" v="Nina Bollæren Sandvik" />
		<tag k="operator:type" v="private" />
		<tag k="start_date" v="2001-08-01" />
	</node>
	<node id="-2563" lat="59.28705" lon="10.49642">
		<tag k="amenity" v="kindergarten" />
		<tag k="capacity" v="4" />
		<tag k="contact:email" v="granstua.familiebarnehage@sf-nett.no" />
		<tag k="contact:phone" v="+47 934 56 664" />
		<tag k="max_age" v="2" />
		<tag k="min_age" v="1" />
		<tag k="name" v="Granstua Familiebarnehage Irene Homleid Kristiansen" />
		<tag k="no-barnehage:nsrid" v="1021845" />
		<tag k="operator" v="Granstua Familiebarnehage Irene Homleid Kristiansen" />
		<tag k="operator:type" v="private" />
		<tag k="start_date" v="2008-08-01" />
	</node>
</osm>
