<?xml version="1.0" encoding="UTF-8"?>
<osm generator="osmapis" version="0.6">
	<node id="-2801" lat="59.49942" lon="10.25668">
		<tag k="amenity" v="kindergarten" />
		<tag k="capacity" v="28" />
		<tag k="contact:website" v="http://www.fredlybarnehage.nlm.no" />
		<tag k="max_age" v="5" />
		<tag k="min_age" v="1" />
		<tag k="name" v="NLM barnehagene avd. Fredly barnehage" />
		<tag k="no-barnehage:nsrid" v="1025303" />
		<tag k="operator" v="Nlm-Barnehagene AS" />
		<tag k="operator:type" v="private" />
	</node>
	<node id="-2800" lat="59.50969" lon="10.19204">
		<tag k="amenity" v="kindergarten" />
		<tag k="capacity" v="61" />
		<tag k="max_age" v="5" />
		<tag k="min_age" v="1" />
		<tag k="name" v="Møllerdammen naturbarnehage" />
		<tag k="no-barnehage:nsrid" v="1021611" />
		<tag k="operator" v="Møllerdammen Naturbarnehage AS" />
		<tag k="operator:type" v="private" />
	</node>
	<node id="-2799" lat="59.48528" lon="10.30935">
		<tag k="amenity" v="kindergarten" />
		<tag k="capacity" v="73" />
		<tag k="max_age" v="5" />
		<tag k="min_age" v="1" />
		<tag k="name" v="Knutseskogen barnehage" />
		<tag k="no-barnehage:nsrid" v="1016251" />
		<tag k="operator" v="Holmestrand kommune" />
		<tag k="operator:type" v="public" />
	</node>
	<node id="-2798" lat="59.51075" lon="10.28459">
		<tag k="amenity" v="kindergarten" />
		<tag k="capacity" v="87" />
		<tag k="max_age" v="5" />
		<tag k="min_age" v="1" />
		<tag k="name" v="Kleiverud barnehage" />
		<tag k="no-barnehage:nsrid" v="1016252" />
		<tag k="operator" v="Holmestrand kommune" />
		<tag k="operator:type" v="public" />
	</node>
	<node id="-2797" lat="59.47699" lon="10.32091">
		<tag k="amenity" v="kindergarten" />
		<tag k="capacity" v="50" />
		<tag k="contact:website" v="http://www.montessoriskolen.no" />
		<tag k="max_age" v="5" />
		<tag k="min_age" v="1" />
		<tag k="name" v="Holmestrand Internasjonale montesssoribarnehage" />
		<tag k="no-barnehage:nsrid" v="1020951" />
		<tag k="operator" v="Holmestrand Internasjonale Montesssoribarnehage Sa" />
		<tag k="operator:type" v="private" />
	</node>
	<node id="-2796" lat="59.53807" lon="10.07634">
		<tag k="amenity" v="kindergarten" />
		<tag k="capacity" v="59" />
		<tag k="max_age" v="5" />
		<tag k="min_age" v="1" />
		<tag k="name" v="Hof barnehage" />
		<tag k="no-barnehage:nsrid" v="1015847" />
		<tag k="operator" v="Holmestrand kommune" />
		<tag k="operator:type" v="public" />
	</node>
	<node id="-2795" lat="59.49646" lon="10.25637">
		<tag k="amenity" v="kindergarten" />
		<tag k="capacity" v="62" />
		<tag k="max_age" v="5" />
		<tag k="min_age" v="1" />
		<tag k="name" v="Gullhaug barnehage" />
		<tag k="no-barnehage:nsrid" v="1016253" />
		<tag k="operator" v="Holmestrand kommune" />
		<tag k="operator:type" v="public" />
	</node>
	<node id="-2794" lat="59.48488" lon="10.3229">
		<tag k="amenity" v="kindergarten" />
		<tag k="capacity" v="67" />
		<tag k="max_age" v="5" />
		<tag k="min_age" v="1" />
		<tag k="name" v="Gausetangen barnehage" />
		<tag k="no-barnehage:nsrid" v="2000138" />
		<tag k="operator" v="Holmestrand kommune" />
		<tag k="operator:type" v="public" />
	</node>
	<node id="-2793" lat="59.50114" lon="10.2867">
		<tag k="amenity" v="kindergarten" />
		<tag k="capacity" v="35" />
		<tag k="contact:website" v="http://www.gaupas.barnehage.no" />
		<tag k="max_age" v="5" />
		<tag k="min_age" v="1" />
		<tag k="name" v="Gaupås barnehage" />
		<tag k="no-barnehage:nsrid" v="1020017" />
		<tag k="operator" v="Gaupås barnehage Sa" />
		<tag k="operator:type" v="private" />
	</node>
	<node id="-2792" lat="59.51094" lon="10.11994">
		<tag k="amenity" v="kindergarten" />
		<tag k="capacity" v="71" />
		<tag k="contact:website" v="http://www.espira.no" />
		<tag k="max_age" v="5" />
		<tag k="min_age" v="1" />
		<tag k="name" v="Espira Sundbyfoss barnehage" />
		<tag k="no-barnehage:nsrid" v="1021964" />
		<tag k="operator" v="Espira Sundbyfoss AS" />
		<tag k="operator:type" v="private" />
	</node>
	<node id="-2791" lat="59.47606" lon="10.32148">
		<tag k="amenity" v="kindergarten" />
		<tag k="capacity" v="55" />
		<tag k="contact:website" v="http://eikelund.barnehage.no/" />
		<tag k="max_age" v="5" />
		<tag k="min_age" v="1" />
		<tag k="name" v="Eikelund barnehage" />
		<tag k="no-barnehage:nsrid" v="1021145" />
		<tag k="operator" v="Eikelund barnehage Sa" />
		<tag k="operator:type" v="private" />
	</node>
	<node id="-2790" lat="59.59301" lon="10.0414">
		<tag k="amenity" v="kindergarten" />
		<tag k="capacity" v="21" />
		<tag k="max_age" v="5" />
		<tag k="min_age" v="1" />
		<tag k="name" v="Eidsfoss barnehage" />
		<tag k="no-barnehage:nsrid" v="1018025" />
		<tag k="operator" v="Holmestrand kommune" />
		<tag k="operator:type" v="public" />
	</node>
	<node id="-2789" lat="59.50558" lon="10.25148">
		<tag k="amenity" v="kindergarten" />
		<tag k="capacity" v="19" />
		<tag k="max_age" v="5" />
		<tag k="min_age" v="1" />
		<tag k="name" v="Botnestua naturbarnehage" />
		<tag k="no-barnehage:nsrid" v="1016869" />
		<tag k="operator" v="Botne Skiklubb" />
		<tag k="operator:type" v="private" />
	</node>
	<node id="-2788" lat="59.48586" lon="10.30063">
		<tag k="amenity" v="kindergarten" />
		<tag k="capacity" v="25" />
		<tag k="max_age" v="5" />
		<tag k="min_age" v="1" />
		<tag k="name" v="Bmb barnehage" />
		<tag k="no-barnehage:nsrid" v="1019504" />
		<tag k="operator" v="Bmb barnehage" />
		<tag k="operator:type" v="private" />
	</node>
	<node id="-2787" lat="59.483326" lon="10.3256788">
		<tag k="amenity" v="kindergarten" />
		<tag k="max_age" v="5" />
		<tag k="min_age" v="1" />
		<tag k="name" v="Backers barnehage" />
		<tag k="no-barnehage:nsrid" v="1019892" />
		<tag k="operator" v="Backers barnehage Sa" />
		<tag k="operator:type" v="private" />
	</node>
</osm>
