<?xml version="1.0" encoding="UTF-8"?>
<osm generator="osmapis" version="0.6">
	<node id="-1004" lat="58.78947" lon="5.60126">
		<tag k="ADDRESS" v="Verdalsvegen 39, 4351 KLEPPE" />
		<tag k="amenity" v="kindergarten" />
		<tag k="capacity" v="33" />
		<tag k="max_age" v="5" />
		<tag k="min_age" v="1" />
		<tag k="name" v="Bore barnehage" />
		<tag k="no-barnehage:nsrid" v="973459341" />
		<tag k="operator" v="Klepp kommune" />
		<tag k="operator:type" v="public" />
	</node>
	<node id="-1005" lat="58.7825" lon="5.56243">
		<tag k="ADDRESS" v="Nordsjøvegen 230, 4352 KLEPPE" />
		<tag k="amenity" v="kindergarten" />
		<tag k="capacity" v="50" />
		<tag k="max_age" v="5" />
		<tag k="min_age" v="1" />
		<tag k="name" v="Borsheim barnehage" />
		<tag k="no-barnehage:nsrid" v="875308262" />
		<tag k="operator" v="Klepp kommune" />
		<tag k="operator:type" v="public" />
	</node>
	<node id="-1006" lat="58.77732" lon="5.68287">
		<tag k="ADDRESS" v="Kvednadalen 2, 4353 KLEPP STASJON" />
		<tag k="amenity" v="kindergarten" />
		<tag k="capacity" v="70" />
		<tag k="max_age" v="5" />
		<tag k="min_age" v="1" />
		<tag k="name" v="Engelsvoll barnehage" />
		<tag k="no-barnehage:nsrid" v="985334641" />
		<tag k="operator" v="Klepp kommune" />
		<tag k="operator:type" v="public" />
	</node>
	<node id="-1007" lat="58.78975" lon="5.71544">
		<tag k="ADDRESS" v="Erlevegen 3, 4353 KLEPP STASJON" />
		<tag k="amenity" v="kindergarten" />
		<tag k="capacity" v="127" />
		<tag k="contact:website" v="http://www.espira.no" />
		<tag k="max_age" v="5" />
		<tag k="min_age" v="1" />
		<tag k="name" v="Espira Ormadalen barnehage" />
		<tag k="no-barnehage:nsrid" v="992461489" />
		<tag k="operator" v="Espira Ormadalen AS" />
		<tag k="operator:type" v="private" />
	</node>
	<node id="-1008" lat="58.75529" lon="5.5869">
		<tag k="ADDRESS" v="Orrevegen 304, 4352 KLEPPE" />
		<tag k="amenity" v="kindergarten" />
		<tag k="capacity" v="28" />
		<tag k="max_age" v="5" />
		<tag k="min_age" v="1" />
		<tag k="name" v="Horpestad barnehage" />
		<tag k="no-barnehage:nsrid" v="981331389" />
		<tag k="operator" v="Klepp kommune" />
		<tag k="operator:type" v="public" />
	</node>
	<node id="-1009" lat="0.0" lon="0.0">
		<tag k="ADDRESS" v="Fredheimsvegen 18, 4350 KLEPPE" />
		<tag k="amenity" v="kindergarten" />
		<tag k="capacity" v="76" />
		<tag k="max_age" v="5" />
		<tag k="min_age" v="1" />
		<tag k="name" v="Kleppe friluftsbarnehage" />
		<tag k="no-barnehage:nsrid" v="973889982" />
		<tag k="operator" v="Klepp kommune" />
		<tag k="operator:type" v="public" />
	</node>
	<node id="-1010" lat="58.76717" lon="5.63266">
		<tag k="ADDRESS" v="Kornvegen 23, 4350 KLEPPE" />
		<tag k="amenity" v="kindergarten" />
		<tag k="capacity" v="51" />
		<tag k="max_age" v="5" />
		<tag k="min_age" v="1" />
		<tag k="name" v="Kleppestemmen FUS barnehage" />
		<tag k="no-barnehage:nsrid" v="989427849" />
		<tag k="operator" v="Kleppestemmen Fus barnehage AS" />
		<tag k="operator:type" v="private" />
	</node>
	<node id="-1011" lat="58.77346" lon="5.63672">
		<tag k="ADDRESS" v="Fjogstadvegen 9, 4350 KLEPPE" />
		<tag k="amenity" v="kindergarten" />
		<tag k="capacity" v="81" />
		<tag k="max_age" v="5" />
		<tag k="min_age" v="1" />
		<tag k="name" v="Lyngmarka barnehage" />
		<tag k="no-barnehage:nsrid" v="975315347" />
		<tag k="operator" v="Klepp kommune" />
		<tag k="operator:type" v="public" />
	</node>
	<node id="-1012" lat="58.77934" lon="5.6405">
		<tag k="ADDRESS" v="Viervegen 31, 4351 KLEPPE" />
		<tag k="amenity" v="kindergarten" />
		<tag k="capacity" v="54" />
		<tag k="contact:website" v="http://www.markaa.no" />
		<tag k="max_age" v="5" />
		<tag k="min_age" v="1" />
		<tag k="name" v="Markå barnehage" />
		<tag k="no-barnehage:nsrid" v="985131678" />
		<tag k="operator" v="Markå barnehage Sa" />
		<tag k="operator:type" v="private" />
	</node>
	<node id="-1013" lat="58.78318" lon="5.622">
		<tag k="ADDRESS" v="P. Krohns Veg 1, 4351 KLEPPE" />
		<tag k="amenity" v="kindergarten" />
		<tag k="capacity" v="50" />
		<tag k="contact:website" v="http://www.myrsniba.no" />
		<tag k="max_age" v="5" />
		<tag k="min_age" v="1" />
		<tag k="name" v="Myrsnibå barnehage" />
		<tag k="no-barnehage:nsrid" v="874860212" />
		<tag k="operator" v="Klepp kommune" />
		<tag k="operator:type" v="public" />
	</node>
	<node id="-1014" lat="58.72022" lon="5.57469">
		<tag k="ADDRESS" v="Theavegen 9, 4343 ORRE" />
		<tag k="amenity" v="kindergarten" />
		<tag k="capacity" v="83" />
		<tag k="max_age" v="5" />
		<tag k="min_age" v="1" />
		<tag k="name" v="Orre barnehage" />
		<tag k="no-barnehage:nsrid" v="975308278" />
		<tag k="operator" v="Klepp kommune" />
		<tag k="operator:type" v="public" />
	</node>
	<node id="-1015" lat="58.78736" lon="5.71081">
		<tag k="ADDRESS" v="Skogvegen 16, 4353 KLEPP STASJON" />
		<tag k="amenity" v="kindergarten" />
		<tag k="capacity" v="59" />
		<tag k="max_age" v="5" />
		<tag k="min_age" v="1" />
		<tag k="name" v="Orstad naturbarnehage" />
		<tag k="no-barnehage:nsrid" v="975300315" />
		<tag k="operator" v="Klepp kommune" />
		<tag k="operator:type" v="public" />
	</node>
	<node id="-1016" lat="58.77492" lon="5.6271">
		<tag k="ADDRESS" v="Kleppevarden 2, 4350 KLEPPE" />
		<tag k="amenity" v="kindergarten" />
		<tag k="capacity" v="39" />
		<tag k="max_age" v="5" />
		<tag k="min_age" v="1" />
		<tag k="name" v="Steingarden barnehage" />
		<tag k="no-barnehage:nsrid" v="976828216" />
		<tag k="operator" v="Klepp kommune" />
		<tag k="operator:type" v="public" />
	</node>
	<node id="-1017" lat="58.78556" lon="5.64382">
		<tag k="ADDRESS" v="Hattelandsvegen 111, 4351 KLEPPE" />
		<tag k="amenity" v="kindergarten" />
		<tag k="capacity" v="73" />
		<tag k="max_age" v="5" />
		<tag k="min_age" v="1" />
		<tag k="name" v="Storhaug barnehage" />
		<tag k="no-barnehage:nsrid" v="974796880" />
		<tag k="operator" v="Klepp kommune" />
		<tag k="operator:type" v="public" />
	</node>
	<node id="-1018" lat="58.78426" lon="5.62347">
		<tag k="ADDRESS" v="Engrappstubben 1, 4351 KLEPPE" />
		<tag k="amenity" v="kindergarten" />
		<tag k="capacity" v="76" />
		<tag k="max_age" v="5" />
		<tag k="min_age" v="1" />
		<tag k="name" v="Sørhellet barnehage" />
		<tag k="no-barnehage:nsrid" v="991343628" />
		<tag k="operator" v="Klepp kommune" />
		<tag k="operator:type" v="public" />
	</node>
	<node id="-1019" lat="58.74143" lon="5.6355">
		<tag k="ADDRESS" v="Eskervegen 2, 4341 BRYNE" />
		<tag k="amenity" v="kindergarten" />
		<tag k="capacity" v="115" />
		<tag k="max_age" v="5" />
		<tag k="min_age" v="1" />
		<tag k="name" v="Tjøttaparken FUS barnehage" />
		<tag k="no-barnehage:nsrid" v="996258661" />
		<tag k="operator" v="Tjøttaparken Fus barnehage AS" />
		<tag k="operator:type" v="private" />
	</node>
	<node id="-1020" lat="58.74673" lon="5.63439">
		<tag k="ADDRESS" v="Austvegen 46, 4341 BRYNE" />
		<tag k="amenity" v="kindergarten" />
		<tag k="capacity" v="35" />
		<tag k="max_age" v="5" />
		<tag k="min_age" v="1" />
		<tag k="name" v="Tu barnehage" />
		<tag k="no-barnehage:nsrid" v="879199972" />
		<tag k="operator" v="Klepp kommune" />
		<tag k="operator:type" v="public" />
	</node>
	<node id="-1021" lat="58.80879" lon="5.61917">
		<tag k="ADDRESS" v="Stangelandsvegen 100, 4354 VOLL" />
		<tag k="amenity" v="kindergarten" />
		<tag k="capacity" v="22" />
		<tag k="contact:website" v="http://www.minbarnehage.no/vasshus" />
		<tag k="max_age" v="5" />
		<tag k="min_age" v="1" />
		<tag k="name" v="Vasshus barnehage" />
		<tag k="no-barnehage:nsrid" v="887908052" />
		<tag k="operator" v="Klepp kommune" />
		<tag k="operator:type" v="public" />
	</node>
	<node id="-1022" lat="58.80589" lon="5.6124">
		<tag k="ADDRESS" v="Stangelandsvegen 51, 4354 VOLL" />
		<tag k="amenity" v="kindergarten" />
		<tag k="capacity" v="76" />
		<tag k="max_age" v="5" />
		<tag k="min_age" v="1" />
		<tag k="name" v="Vasshus gardsbarnehage" />
		<tag k="no-barnehage:nsrid" v="988956848" />
		<tag k="operator" v="Vasshus Gardsbarnehage AS" />
		<tag k="operator:type" v="private" />
	</node>
</osm>
