<?xml version="1.0" encoding="UTF-8"?>
<osm generator="osmapis" version="0.6">
	<node id="-3670" lat="58.80589" lon="5.612392">
		<tag k="amenity" v="kindergarten" />
		<tag k="capacity" v="65" />
		<tag k="contact:phone" v="90858474" />
		<tag k="max_age" v="5" />
		<tag k="min_age" v="1" />
		<tag k="name" v="Vasshus Gardsbarnehage AS" />
		<tag k="no-barnehage:nsrid" v="1022088" />
		<tag k="operator" v="Vasshus Gardsbarnehage AS" />
		<tag k="operator:type" v="private" />
		<tag k="start_date" v="2005-08-15" />
	</node>
	<node id="-3669" lat="58.8088" lon="5.61916">
		<tag k="amenity" v="kindergarten" />
		<tag k="capacity" v="24" />
		<tag k="contact:email" v="vasshus.barnehage@klepp.kommune.no" />
		<tag k="contact:phone" v="51 78 92 96" />
		<tag k="contact:website" v="http://www.minbarnehage.no/vasshus" />
		<tag k="max_age" v="5" />
		<tag k="min_age" v="1" />
		<tag k="name" v="Vasshus barnehage" />
		<tag k="no-barnehage:nsrid" v="1013356" />
		<tag k="operator" v="Klepp kommune" />
		<tag k="operator:type" v="public" />
		<tag k="start_date" v="2005-01-01" />
	</node>
	<node id="-3668" lat="58.7466" lon="5.63475">
		<tag k="amenity" v="kindergarten" />
		<tag k="capacity" v="77" />
		<tag k="contact:email" v="tu.barnehage@klepp.kommune.no" />
		<tag k="contact:phone" v="51786808" />
		<tag k="max_age" v="5" />
		<tag k="min_age" v="1" />
		<tag k="name" v="Tu barnehage" />
		<tag k="no-barnehage:nsrid" v="1012599" />
		<tag k="operator" v="Klepp kommune" />
		<tag k="operator:type" v="public" />
		<tag k="start_date" v="1997-03-01" />
	</node>
	<node id="-3667" lat="58.79532" lon="5.657984">
		<tag k="amenity" v="kindergarten" />
		<tag k="capacity" v="143" />
		<tag k="max_age" v="5" />
		<tag k="min_age" v="1" />
		<tag k="name" v="Tjøttaparken Fus barnehage AS" />
		<tag k="no-barnehage:nsrid" v="1022151" />
		<tag k="operator" v="Tjøttaparken Fus barnehage AS" />
		<tag k="operator:type" v="private" />
		<tag k="start_date" v="2011-01-01" />
	</node>
	<node id="-3666" lat="58.7843" lon="5.62347">
		<tag k="amenity" v="kindergarten" />
		<tag k="capacity" v="76" />
		<tag k="contact:email" v="sorhellet.barnehage@klepp.kommune.no" />
		<tag k="max_age" v="5" />
		<tag k="min_age" v="1" />
		<tag k="name" v="Sørhellet barnehage" />
		<tag k="no-barnehage:nsrid" v="1017778" />
		<tag k="operator" v="Klepp kommune" />
		<tag k="operator:type" v="public" />
		<tag k="start_date" v="2007-01-01" />
	</node>
	<node id="-3665" lat="58.7856" lon="5.64381">
		<tag k="amenity" v="kindergarten" />
		<tag k="capacity" v="90" />
		<tag k="contact:phone" v="51 78 52 20" />
		<tag k="max_age" v="5" />
		<tag k="min_age" v="1" />
		<tag k="name" v="Storhaug barnehage" />
		<tag k="no-barnehage:nsrid" v="1016747" />
		<tag k="operator" v="Klepp kommune" />
		<tag k="operator:type" v="public" />
		<tag k="start_date" v="1976-12-24" />
	</node>
	<node id="-3664" lat="58.7749" lon="5.62711">
		<tag k="amenity" v="kindergarten" />
		<tag k="capacity" v="40" />
		<tag k="contact:email" v="steingarden.barnehage@klepp.kommune.no" />
		<tag k="contact:phone" v="51420939" />
		<tag k="max_age" v="5" />
		<tag k="min_age" v="1" />
		<tag k="name" v="Steingarden barnehage" />
		<tag k="no-barnehage:nsrid" v="1014927" />
		<tag k="operator" v="Klepp kommune" />
		<tag k="operator:type" v="public" />
		<tag k="start_date" v="1996-01-01" />
	</node>
	<node id="-3663" lat="58.7874" lon="5.71081">
		<tag k="amenity" v="kindergarten" />
		<tag k="capacity" v="77" />
		<tag k="contact:email" v="orstad.natur.barnehage@klepp.kommune.no" />
		<tag k="contact:phone" v="51 78 55 88" />
		<tag k="max_age" v="5" />
		<tag k="min_age" v="1" />
		<tag k="name" v="Orstad Naturbarnehage" />
		<tag k="no-barnehage:nsrid" v="1017484" />
		<tag k="operator" v="Klepp kommune" />
		<tag k="operator:type" v="public" />
		<tag k="start_date" v="1988-01-01" />
	</node>
	<node id="-3662" lat="58.7204" lon="5.57253">
		<tag k="amenity" v="kindergarten" />
		<tag k="capacity" v="59" />
		<tag k="contact:email" v="orre.barnehage@klepp.kommune.no" />
		<tag k="contact:phone" v="51 42 26 00" />
		<tag k="max_age" v="5" />
		<tag k="min_age" v="1" />
		<tag k="name" v="Orre barnehage" />
		<tag k="no-barnehage:nsrid" v="1018086" />
		<tag k="operator" v="Klepp kommune" />
		<tag k="operator:type" v="public" />
		<tag k="start_date" v="1989-01-01" />
	</node>
	<node id="-3661" lat="58.78319" lon="5.622005">
		<tag k="amenity" v="kindergarten" />
		<tag k="capacity" v="57" />
		<tag k="contact:email" v="post@myrsniba.no" />
		<tag k="contact:phone" v="51 42 00 59" />
		<tag k="contact:website" v="http://www.myrsniba.no" />
		<tag k="max_age" v="5" />
		<tag k="min_age" v="1" />
		<tag k="name" v="Myrsnibå barnehage" />
		<tag k="no-barnehage:nsrid" v="1019538" />
		<tag k="operator" v="Klepp kommune" />
		<tag k="operator:type" v="public" />
		<tag k="start_date" v="1994-08-29" />
	</node>
	<node id="-3660" lat="58.77935" lon="5.640505">
		<tag k="amenity" v="kindergarten" />
		<tag k="capacity" v="51" />
		<tag k="contact:email" v="styrer@markaa.no" />
		<tag k="contact:phone" v="51 78 60 00" />
		<tag k="contact:website" v="http://www.markaa.no" />
		<tag k="max_age" v="5" />
		<tag k="min_age" v="1" />
		<tag k="name" v="Markå barnehage Sa" />
		<tag k="no-barnehage:nsrid" v="1020864" />
		<tag k="operator" v="Markå barnehage Sa" />
		<tag k="operator:type" v="private" />
		<tag k="start_date" v="2002-11-01" />
	</node>
	<node id="-3659" lat="58.7734" lon="5.6377">
		<tag k="amenity" v="kindergarten" />
		<tag k="capacity" v="90" />
		<tag k="contact:email" v="lyngmarka.barnehage@klepp.kommune.no" />
		<tag k="contact:phone" v="51 78 79 10" />
		<tag k="max_age" v="5" />
		<tag k="min_age" v="1" />
		<tag k="name" v="Lyngmarka barnehage" />
		<tag k="no-barnehage:nsrid" v="1013779" />
		<tag k="operator" v="Klepp kommune" />
		<tag k="operator:type" v="public" />
		<tag k="start_date" v="1989-01-02" />
	</node>
	<node id="-3657" lat="58.76717" lon="5.632685">
		<tag k="amenity" v="kindergarten" />
		<tag k="capacity" v="54" />
		<tag k="contact:email" v="brev@tryggebarnehager.no" />
		<tag k="max_age" v="5" />
		<tag k="min_age" v="1" />
		<tag k="name" v="Kleppestemmen Fus barnehage AS" />
		<tag k="no-barnehage:nsrid" v="1021382" />
		<tag k="operator" v="Kleppestemmen Fus barnehage AS" />
		<tag k="operator:type" v="private" />
		<tag k="start_date" v="2006-01-04" />
	</node>
	<node id="-3656" lat="58.7713" lon="5.63266">
		<tag k="amenity" v="kindergarten" />
		<tag k="capacity" v="83" />
		<tag k="contact:email" v="klepp.fam.fri.barnehage@klepp.kommune.no" />
		<tag k="contact:phone" v="51425668" />
		<tag k="max_age" v="5" />
		<tag k="min_age" v="1" />
		<tag k="name" v="Kleppe Friluftsbarnehage" />
		<tag k="no-barnehage:nsrid" v="1016084" />
		<tag k="operator" v="Klepp kommune" />
		<tag k="operator:type" v="public" />
		<tag k="start_date" v="1989-01-01" />
	</node>
	<node id="-3655" lat="58.7553" lon="5.5869">
		<tag k="amenity" v="kindergarten" />
		<tag k="capacity" v="30" />
		<tag k="contact:email" v="horpestad.barnehage@klepp.kommune.no" />
		<tag k="contact:phone" v="51 78 62 64" />
		<tag k="max_age" v="5" />
		<tag k="min_age" v="1" />
		<tag k="name" v="Horpestad barnehage" />
		<tag k="no-barnehage:nsrid" v="1015791" />
		<tag k="operator" v="Klepp kommune" />
		<tag k="operator:type" v="public" />
		<tag k="start_date" v="1999-08-01" />
	</node>
	<node id="-3654" lat="58.78974" lon="5.715446">
		<tag k="amenity" v="kindergarten" />
		<tag k="capacity" v="138" />
		<tag k="contact:email" v="post@espira.no" />
		<tag k="contact:website" v="http://www.espira.no" />
		<tag k="max_age" v="5" />
		<tag k="min_age" v="1" />
		<tag k="name" v="Espira Ormadalen barnehage" />
		<tag k="no-barnehage:nsrid" v="1021785" />
		<tag k="operator" v="Espira Ormadalen AS" />
		<tag k="operator:type" v="private" />
		<tag k="start_date" v="2008-02-27" />
	</node>
	<node id="-3653" lat="58.7773" lon="5.68287">
		<tag k="amenity" v="kindergarten" />
		<tag k="capacity" v="76" />
		<tag k="contact:email" v="engelsvoll.barnehage@klepp.kommune.no" />
		<tag k="contact:phone" v="51786547" />
		<tag k="max_age" v="5" />
		<tag k="min_age" v="1" />
		<tag k="name" v="Engelsvoll barnehage" />
		<tag k="no-barnehage:nsrid" v="1016479" />
		<tag k="operator" v="Klepp kommune" />
		<tag k="operator:type" v="public" />
		<tag k="start_date" v="2002-08-01" />
	</node>
	<node id="-3652" lat="58.7829" lon="5.56193">
		<tag k="amenity" v="kindergarten" />
		<tag k="capacity" v="58" />
		<tag k="contact:email" v="borsheim.barnehage@klepp.kommune.no" />
		<tag k="contact:phone" v="51 42 60 10" />
		<tag k="max_age" v="5" />
		<tag k="min_age" v="1" />
		<tag k="name" v="Borsheim barnehage" />
		<tag k="no-barnehage:nsrid" v="1012505" />
		<tag k="operator" v="Klepp kommune" />
		<tag k="operator:type" v="public" />
		<tag k="start_date" v="1989-01-01" />
	</node>
	<node id="-3651" lat="58.7895" lon="5.60125">
		<tag k="amenity" v="kindergarten" />
		<tag k="capacity" v="41" />
		<tag k="contact:email" v="bore.barnehage@klepp.kommune.no" />
		<tag k="contact:phone" v="51 42 09 83" />
		<tag k="max_age" v="5" />
		<tag k="min_age" v="1" />
		<tag k="name" v="Bore barnehage" />
		<tag k="no-barnehage:nsrid" v="1015921" />
		<tag k="operator" v="Klepp kommune" />
		<tag k="operator:type" v="public" />
		<tag k="start_date" v="1989-01-02" />
	</node>
</osm>
