<?xml version="1.0" encoding="UTF-8"?>
<osm version="0.6" generator="osmapis">
	<node lat="60.4525" lon="5.31554" id="-3950">
		<tag k="ADDRESS" v="Blådalen 35, 5106 ØVRE ERVIK" />
		<tag k="amenity" v="kindergarten" />
		<tag k="capacity" v="92" />
		<tag k="contact:website" v="http://a2gbarnehage.no/" />
		<tag k="max_age" v="5" />
		<tag k="min_age" v="1" />
		<tag k="name" v="A2g friluftsbarnehage" />
		<tag k="no-barnehage:nsrid" v="994295314" />
		<tag k="operator" v="A2g friluftsbarnehage AS" />
		<tag k="operator:type" v="private" />
	</node>
	<node lat="60.29736" lon="5.27704" id="-3951">
		<tag k="ADDRESS" v="Sandslimarka 251, 5254 SANDSLI" />
		<tag k="amenity" v="kindergarten" />
		<tag k="capacity" v="57" />
		<tag k="contact:website" v="http://akrobaten.barnehage.no/" />
		<tag k="max_age" v="5" />
		<tag k="min_age" v="1" />
		<tag k="name" v="Akrobaten barnehage" />
		<tag k="no-barnehage:nsrid" v="988504483" />
		<tag k="operator" v="Akrobaten barnehage AS" />
		<tag k="operator:type" v="private" />
	</node>
	<node lat="60.293" lon="5.34082" id="-3952">
		<tag k="ADDRESS" v="Apeltunlien 16, 5238 RÅDAL" />
		<tag k="amenity" v="kindergarten" />
		<tag k="capacity" v="72" />
		<tag k="contact:website" v="http://www.bergen.kommune.no/omkommunen/avdelinger/apeltun-barnehage" />
		<tag k="max_age" v="5" />
		<tag k="min_age" v="1" />
		<tag k="name" v="Apeltun barnehage" />
		<tag k="no-barnehage:nsrid" v="986839658" />
		<tag k="operator" v="Bergen kommune" />
		<tag k="operator:type" v="public" />
	</node>
	<node lat="60.40837" lon="5.47871" id="-3953">
		<tag k="ADDRESS" v="Hølbekken 1, 5262 ARNATVEIT" />
		<tag k="amenity" v="kindergarten" />
		<tag k="capacity" v="56" />
		<tag k="contact:website" v="http://www.bergen.kommune.no/omkommunen/avdelinger/arnatveit-barnehage" />
		<tag k="max_age" v="5" />
		<tag k="min_age" v="1" />
		<tag k="name" v="Arnatveit barnehage" />
		<tag k="no-barnehage:nsrid" v="974739054" />
		<tag k="operator" v="Bergen kommune" />
		<tag k="operator:type" v="public" />
	</node>
	<node lat="60.30552" lon="5.28194" id="-3954">
		<tag k="ADDRESS" v="Aurdalslia 12, 5253 SANDSLI" />
		<tag k="amenity" v="kindergarten" />
		<tag k="capacity" v="50" />
		<tag k="contact:website" v="http://www.bergen.kommune.no/omkommunen/avdelinger/aurdalslia-barnehage" />
		<tag k="max_age" v="5" />
		<tag k="min_age" v="1" />
		<tag k="name" v="Aurdalslia barnehage" />
		<tag k="no-barnehage:nsrid" v="974739216" />
		<tag k="operator" v="Bergen kommune" />
		<tag k="operator:type" v="public" />
	</node>
	<node lat="60.28277" lon="5.25064" id="-3955">
		<tag k="ADDRESS" v="Hjellestadvegen 9, 5258 BLOMSTERDALEN" />
		<tag k="amenity" v="kindergarten" />
		<tag k="capacity" v="36" />
		<tag k="contact:website" v="http://www.karmel.no" />
		<tag k="max_age" v="5" />
		<tag k="min_age" v="1" />
		<tag k="name" v="Bedehusbarnehagen" />
		<tag k="no-barnehage:nsrid" v="973501283" />
		<tag k="operator" v="Bedehuset Karmel" />
		<tag k="operator:type" v="private" />
	</node>
	<node lat="60.33112" lon="5.2661" id="-3956">
		<tag k="ADDRESS" v="Vassteigen 51, 5141 FYLLINGSDALEN" />
		<tag k="amenity" v="kindergarten" />
		<tag k="capacity" v="17" />
		<tag k="contact:website" v="http://www.bergenmiljobhg.no" />
		<tag k="max_age" v="5" />
		<tag k="min_age" v="1" />
		<tag k="name" v="Bergen miljøbarnehage" />
		<tag k="no-barnehage:nsrid" v="973334859" />
		<tag k="operator" v="Bergen miljøbarnehage AS" />
		<tag k="operator:type" v="private" />
	</node>
	<node lat="60.39301" lon="5.33213" id="-3957">
		<tag k="ADDRESS" v="Asylplassen 2, 5018 BERGEN" />
		<tag k="amenity" v="kindergarten" />
		<tag k="capacity" v="60" />
		<tag k="contact:website" v="http://bergensbarneasyl.barnehage.no" />
		<tag k="max_age" v="5" />
		<tag k="min_age" v="1" />
		<tag k="name" v="Bergens Barneasyl Norges Eldste barnehage" />
		<tag k="no-barnehage:nsrid" v="974737450" />
		<tag k="operator" v="Bergen Barneasyl" />
		<tag k="operator:type" v="private" />
	</node>
	<node lat="0.0" lon="0.0" id="-3958">
		<tag k="ADDRESS" v="Vestlundveien 21, 5145 FYLLINGSDALEN" />
		<tag k="amenity" v="kindergarten" />
		<tag k="capacity" v="48" />
		<tag k="contact:website" v="http://Betanien.no" />
		<tag k="max_age" v="5" />
		<tag k="min_age" v="1" />
		<tag k="name" v="Betanien barnehage" />
		<tag k="no-barnehage:nsrid" v="975217604" />
		<tag k="operator" v="Stiftelsen Betanien Bergen" />
		<tag k="operator:type" v="private" />
	</node>
	<node lat="60.363" lon="5.36249" id="-3959">
		<tag k="ADDRESS" v="Birkeveien 25D, 5093 BERGEN" />
		<tag k="amenity" v="kindergarten" />
		<tag k="capacity" v="18" />
		<tag k="contact:website" v="http://birken.barnehage.no/" />
		<tag k="max_age" v="5" />
		<tag k="min_age" v="1" />
		<tag k="name" v="Birken barnehage" />
		<tag k="no-barnehage:nsrid" v="972213969" />
		<tag k="operator" v="Birken barnehage AS" />
		<tag k="operator:type" v="private" />
	</node>
	<node lat="60.42461" lon="5.29846" id="-3960">
		<tag k="ADDRESS" v="Skuldveien 2, 5043 BERGEN" />
		<tag k="amenity" v="kindergarten" />
		<tag k="capacity" v="21" />
		<tag k="max_age" v="5" />
		<tag k="min_age" v="1" />
		<tag k="name" v="Biskopshavn barnehage" />
		<tag k="no-barnehage:nsrid" v="974315483" />
		<tag k="operator" v="Biskopshavn barnehage SA" />
		<tag k="operator:type" v="private" />
	</node>
	<node lat="60.34817" lon="5.36152" id="-3961">
		<tag k="ADDRESS" v="Vilhelm Bjerknes' vei 54, 5081 BERGEN" />
		<tag k="amenity" v="kindergarten" />
		<tag k="capacity" v="71" />
		<tag k="contact:website" v="http://www.bergen.kommune.no/omkommunen/avdelinger/bjerknesparken-barnehage" />
		<tag k="max_age" v="5" />
		<tag k="min_age" v="1" />
		<tag k="name" v="Bjerknesparken barnehage" />
		<tag k="no-barnehage:nsrid" v="815471202" />
		<tag k="operator" v="Bergen kommune" />
		<tag k="operator:type" v="public" />
	</node>
	<node lat="60.33433" lon="5.24871" id="-3962">
		<tag k="ADDRESS" v="Bjørgedalen 94, 5141 FYLLINGSDALEN" />
		<tag k="amenity" v="kindergarten" />
		<tag k="capacity" v="66" />
		<tag k="contact:website" v="http://www.bergen.kommune.no/omkommunen/avdelinger/bjorgedalen-barnehage" />
		<tag k="max_age" v="5" />
		<tag k="min_age" v="1" />
		<tag k="name" v="Bjørgedalen barnehage" />
		<tag k="no-barnehage:nsrid" v="974739348" />
		<tag k="operator" v="Bergen kommune" />
		<tag k="operator:type" v="public" />
	</node>
	<node lat="60.46726" lon="5.31414" id="-3963">
		<tag k="ADDRESS" v="Myrdalskogen 55, 5118 ULSET" />
		<tag k="amenity" v="kindergarten" />
		<tag k="capacity" v="60" />
		<tag k="contact:website" v="http://www.bergen.kommune.no/omkommunen/avdelinger/blokkhaugen-barnehage" />
		<tag k="max_age" v="5" />
		<tag k="min_age" v="1" />
		<tag k="name" v="Blokkhaugen barnehage" />
		<tag k="no-barnehage:nsrid" v="974222051" />
		<tag k="operator" v="Bergen kommune" />
		<tag k="operator:type" v="public" />
	</node>
	<node lat="60.4304" lon="5.47224" id="-3964">
		<tag k="ADDRESS" v="Bogane 3, 5260 INDRE ARNA" />
		<tag k="amenity" v="kindergarten" />
		<tag k="capacity" v="46" />
		<tag k="contact:website" v="http://www.bergen.kommune.no/omkommunen/avdelinger/bogane-barnehage" />
		<tag k="max_age" v="5" />
		<tag k="min_age" v="1" />
		<tag k="name" v="Bogane barnehage" />
		<tag k="no-barnehage:nsrid" v="973924699" />
		<tag k="operator" v="Bergen kommune" />
		<tag k="operator:type" v="public" />
	</node>
	<node lat="60.34212" lon="5.27045" id="-3965">
		<tag k="ADDRESS" v="Vardeveien 1, 5141 FYLLINGSDALEN" />
		<tag k="amenity" v="kindergarten" />
		<tag k="capacity" v="54" />
		<tag k="contact:website" v="http://www.bergen.kommune.no/omkommunen/avdelinger/brinken-barnehage" />
		<tag k="max_age" v="5" />
		<tag k="min_age" v="1" />
		<tag k="name" v="Brinken barnehage" />
		<tag k="no-barnehage:nsrid" v="974739186" />
		<tag k="operator" v="Bergen kommune" />
		<tag k="operator:type" v="public" />
	</node>
	<node lat="60.32891" lon="5.3029" id="-3966">
		<tag k="ADDRESS" v="Bønesstølen 11, 5154 BØNES" />
		<tag k="amenity" v="kindergarten" />
		<tag k="capacity" v="47" />
		<tag k="contact:website" v="http://www.bergen.kommune.no/omkommunen/avdelinger/bones-barnehage" />
		<tag k="max_age" v="5" />
		<tag k="min_age" v="1" />
		<tag k="name" v="Bønes barnehage" />
		<tag k="no-barnehage:nsrid" v="974739097" />
		<tag k="operator" v="Bergen kommune" />
		<tag k="operator:type" v="public" />
	</node>
	<node lat="60.32698" lon="5.29485" id="-3967">
		<tag k="ADDRESS" v="Våkleiven 68, 5155 BØNES" />
		<tag k="amenity" v="kindergarten" />
		<tag k="capacity" v="22" />
		<tag k="contact:website" v="http://bones.menighets.barnehage.no/" />
		<tag k="max_age" v="5" />
		<tag k="min_age" v="1" />
		<tag k="name" v="Bønes menighets barnehage" />
		<tag k="no-barnehage:nsrid" v="973469665" />
		<tag k="operator" v="Bønes Menighets barnehage" />
		<tag k="operator:type" v="private" />
	</node>
	<node lat="60.336113" lon="5.29932547" id="-3968">
		<tag k="ADDRESS" v="Bønesskogen 331, 5154 BØNES" />
		<tag k="amenity" v="kindergarten" />
		<tag k="capacity" v="68" />
		<tag k="contact:website" v="http://bonestoppen.kanvas.no/" />
		<tag k="max_age" v="5" />
		<tag k="min_age" v="1" />
		<tag k="name" v="Bønestoppen Kanvas-barnehage" />
		<tag k="no-barnehage:nsrid" v="973076477" />
		<tag k="operator" v="Stiftelsen Kanvas" />
		<tag k="operator:type" v="private" />
	</node>
	<node lat="60.37741" lon="5.30339" id="-3969">
		<tag k="ADDRESS" v="Øvre Fyllingsveien 37, 5161 LAKSEVÅG" />
		<tag k="amenity" v="kindergarten" />
		<tag k="capacity" v="80" />
		<tag k="max_age" v="5" />
		<tag k="min_age" v="1" />
		<tag k="name" v="Damsgård Kanvas-barnehage" />
		<tag k="no-barnehage:nsrid" v="873470992" />
		<tag k="operator" v="Stiftelsen Kanvas" />
		<tag k="operator:type" v="private" />
	</node>
	<node lat="60.37967" lon="5.32461" id="-3970">
		<tag k="ADDRESS" v="Damsgårdsveien 62, 5058 BERGEN" />
		<tag k="amenity" v="kindergarten" />
		<tag k="contact:website" v="http://www.bergen.kommune.no/omkommunen/avdelinger/damsgardssundet-barnehage" />
		<tag k="max_age" v="5" />
		<tag k="min_age" v="1" />
		<tag k="name" v="Damsgårdssundet barnehage" />
		<tag k="no-barnehage:nsrid" v="929513827" />
		<tag k="operator" v="Bergen kommune" />
		<tag k="operator:type" v="public" />
	</node>
	<node lat="60.38229" lon="5.29872" id="-3971">
		<tag k="ADDRESS" v="Herman Grans vei 6, 5162 LAKSEVÅG" />
		<tag k="amenity" v="kindergarten" />
		<tag k="capacity" v="30" />
		<tag k="contact:website" v="http://www.internasjonale.barnehage.no" />
		<tag k="max_age" v="5" />
		<tag k="min_age" v="1" />
		<tag k="name" v="Den Internasjonale barnehage i Bergen avd. Laksevåg" />
		<tag k="no-barnehage:nsrid" v="873482052" />
		<tag k="operator" v="Den Internasjonale Kvinnegruppen i Bergen" />
		<tag k="operator:type" v="private" />
	</node>
	<node lat="60.36555" lon="5.37567" id="-3972">
		<tag k="ADDRESS" v="Sollien 129, 5096 BERGEN" />
		<tag k="amenity" v="kindergarten" />
		<tag k="capacity" v="49" />
		<tag k="contact:website" v="http://www.internasjonale.barnehage.no" />
		<tag k="max_age" v="5" />
		<tag k="min_age" v="1" />
		<tag k="name" v="Den Internasjonale barnehage i Bergen avd. Sollien" />
		<tag k="no-barnehage:nsrid" v="975185699" />
		<tag k="operator" v="Den Internasjonale Kvinnegruppen i Bergen" />
		<tag k="operator:type" v="private" />
	</node>
	<node lat="60.2948" lon="5.28091" id="-3973">
		<tag k="ADDRESS" v="Sandslihaugen 36, 5254 SANDSLI" />
		<tag k="amenity" v="kindergarten" />
		<tag k="capacity" v="50" />
		<tag k="contact:website" v="http://www.isbergen.no" />
		<tag k="max_age" v="5" />
		<tag k="min_age" v="1" />
		<tag k="name" v="Early Childhood Center" />
		<tag k="no-barnehage:nsrid" v="982954819" />
		<tag k="operator" v="Early Childhood Center AS" />
		<tag k="operator:type" v="private" />
	</node>
	<node lat="60.44454" lon="5.2837" id="-3974">
		<tag k="ADDRESS" v="Orreveien 8B, 5101 EIDSVÅGNESET" />
		<tag k="amenity" v="kindergarten" />
		<tag k="capacity" v="40" />
		<tag k="contact:website" v="http://eidsvagneset.barnehage.no/" />
		<tag k="max_age" v="5" />
		<tag k="min_age" v="1" />
		<tag k="name" v="Eidsvågnesets barnehage" />
		<tag k="no-barnehage:nsrid" v="973334794" />
		<tag k="operator" v="Eidsvågneset barnehage" />
		<tag k="operator:type" v="private" />
	</node>
	<node lat="60.30642" lon="5.29477" id="-3975">
		<tag k="ADDRESS" v="Saksarhaugen 124, 5253 SANDSLI" />
		<tag k="amenity" v="kindergarten" />
		<tag k="capacity" v="55" />
		<tag k="max_age" v="5" />
		<tag k="min_age" v="1" />
		<tag k="name" v="Einerhaugen barnehage" />
		<tag k="no-barnehage:nsrid" v="972174017" />
		<tag k="operator" v="Einerhaugen barnehage SA" />
		<tag k="operator:type" v="private" />
	</node>
	<node lat="60.30873" lon="5.27748" id="-3976">
		<tag k="ADDRESS" v="Eldsbakkane 60, 5253 SANDSLI" />
		<tag k="amenity" v="kindergarten" />
		<tag k="capacity" v="55" />
		<tag k="contact:website" v="http://www.bergen.kommune.no/omkommunen/avdelinger/eldsbakkane-barnehage" />
		<tag k="max_age" v="5" />
		<tag k="min_age" v="1" />
		<tag k="name" v="Eldsbakkane barnehage" />
		<tag k="no-barnehage:nsrid" v="974222035" />
		<tag k="operator" v="Bergen kommune" />
		<tag k="operator:type" v="public" />
	</node>
	<node lat="60.30607" lon="5.27601" id="-3977">
		<tag k="ADDRESS" v="Eldshovden 11, 5252 SØREIDGREND" />
		<tag k="amenity" v="kindergarten" />
		<tag k="capacity" v="42" />
		<tag k="contact:website" v="http://www.eldshovden.barnehage.no" />
		<tag k="max_age" v="5" />
		<tag k="min_age" v="1" />
		<tag k="name" v="Eldshovden barnehage" />
		<tag k="no-barnehage:nsrid" v="972925098" />
		<tag k="operator" v="Eldshovden barnehage SA" />
		<tag k="operator:type" v="private" />
	</node>
	<node lat="60.30595" lon="5.26526" id="-3978">
		<tag k="ADDRESS" v="Storrinden 117A, 5252 SØREIDGREND" />
		<tag k="amenity" v="kindergarten" />
		<tag k="capacity" v="27" />
		<tag k="contact:website" v="http://energiparken.broadpark.no" />
		<tag k="max_age" v="5" />
		<tag k="min_age" v="1" />
		<tag k="name" v="Energiparken barnehage" />
		<tag k="no-barnehage:nsrid" v="973494406" />
		<tag k="operator" v="Stiftelsen Barnekraft" />
		<tag k="operator:type" v="private" />
	</node>
	<node lat="60.34822" lon="5.38119" id="-3979">
		<tag k="ADDRESS" v="Øvre Sædalsvegen 247, 5099 BERGEN" />
		<tag k="amenity" v="kindergarten" />
		<tag k="capacity" v="55" />
		<tag k="contact:website" v="http://eplekarten.wordpress.com/" />
		<tag k="max_age" v="5" />
		<tag k="min_age" v="1" />
		<tag k="name" v="Eplekarten Steinerbarnehage" />
		<tag k="no-barnehage:nsrid" v="975036464" />
		<tag k="operator" v="Eplekarten steinerbarnehage SA" />
		<tag k="operator:type" v="private" />
	</node>
	<node lat="60.44108" lon="5.32364" id="-3980">
		<tag k="ADDRESS" v="Ervikveien 27, 5106 ØVRE ERVIK" />
		<tag k="amenity" v="kindergarten" />
		<tag k="capacity" v="63" />
		<tag k="contact:website" v="http://www.bergen.kommune.no/omkommunen/avdelinger/ervik-barnehage" />
		<tag k="max_age" v="5" />
		<tag k="min_age" v="1" />
		<tag k="name" v="Ervik barnehage" />
		<tag k="no-barnehage:nsrid" v="974739305" />
		<tag k="operator" v="Bergen kommune" />
		<tag k="operator:type" v="public" />
	</node>
	<node lat="60.35483" lon="5.2424" id="-3981">
		<tag k="ADDRESS" v="Bjørgeveien 316, 5170 BJØRNDALSTRÆ" />
		<tag k="amenity" v="kindergarten" />
		<tag k="capacity" v="79" />
		<tag k="contact:website" v="http://espira.no/barnehage/espira-eventyrskogen/" />
		<tag k="max_age" v="5" />
		<tag k="min_age" v="1" />
		<tag k="name" v="Espira Eventyrskogen barnehage" />
		<tag k="no-barnehage:nsrid" v="986708251" />
		<tag k="operator" v="Espira Eventyrskogen AS" />
		<tag k="operator:type" v="private" />
	</node>
	<node lat="60.35591" lon="5.33584" id="-3982">
		<tag k="ADDRESS" v="Fredlundveien 45, 5073 BERGEN" />
		<tag k="amenity" v="kindergarten" />
		<tag k="capacity" v="79" />
		<tag k="contact:website" v="http://espira.no/barnehage/espira-gronnestolen/" />
		<tag k="max_age" v="5" />
		<tag k="min_age" v="1" />
		<tag k="name" v="Espira Grønnestølen barnehage" />
		<tag k="no-barnehage:nsrid" v="994941488" />
		<tag k="operator" v="Espira Grønnestølen AS" />
		<tag k="operator:type" v="private" />
	</node>
	<node lat="60.33648" lon="5.38615" id="-3983">
		<tag k="ADDRESS" v="Sanddalsringen 260, 5225 NESTTUN" />
		<tag k="amenity" v="kindergarten" />
		<tag k="capacity" v="84" />
		<tag k="contact:website" v="http://espira.no/barnehage/espira-helldalsasen/" />
		<tag k="max_age" v="5" />
		<tag k="min_age" v="1" />
		<tag k="name" v="Espira Helldalsåsen barnehage" />
		<tag k="no-barnehage:nsrid" v="985330492" />
		<tag k="operator" v="Espira Helldalsåsen AS" />
		<tag k="operator:type" v="private" />
	</node>
	<node lat="60.33848" lon="5.36437" id="-3984">
		<tag k="ADDRESS" v="Kattuglebrotet 3, 5099 BERGEN" />
		<tag k="amenity" v="kindergarten" />
		<tag k="capacity" v="73" />
		<tag k="contact:website" v="http://espira.no/barnehage/espira-rambjora/" />
		<tag k="max_age" v="5" />
		<tag k="min_age" v="1" />
		<tag k="name" v="Espira Rambjøra barnehage" />
		<tag k="no-barnehage:nsrid" v="986933549" />
		<tag k="operator" v="Espira Rambjøra AS" />
		<tag k="operator:type" v="private" />
	</node>
	<node lat="60.2979" lon="5.32571" id="-3985">
		<tag k="ADDRESS" v="Steinsvikvegen 397A, 5239 RÅDAL" />
		<tag k="amenity" v="kindergarten" />
		<tag k="capacity" v="255" />
		<tag k="contact:website" v="http://espira.no/barnehage/espira-ra/" />
		<tag k="max_age" v="5" />
		<tag k="min_age" v="1" />
		<tag k="name" v="Espira Rå barnehage" />
		<tag k="no-barnehage:nsrid" v="989980963" />
		<tag k="operator" v="Espira Rå AS" />
		<tag k="operator:type" v="private" />
	</node>
	<node lat="0.0" lon="0.0" id="-3986">
		<tag k="ADDRESS" v="Solåsen 2, 5223 NESTTUN" />
		<tag k="amenity" v="kindergarten" />
		<tag k="capacity" v="162" />
		<tag k="contact:website" v="http://espira.no/barnehage/espira-solknatten/" />
		<tag k="max_age" v="5" />
		<tag k="min_age" v="1" />
		<tag k="name" v="Espira Solknatten barnehage" />
		<tag k="no-barnehage:nsrid" v="990737320" />
		<tag k="operator" v="Espira Solknatten AS" />
		<tag k="operator:type" v="private" />
	</node>
	<node lat="60.30988" lon="5.29312" id="-3987">
		<tag k="ADDRESS" v="Steinsvikvegen 89, 5251 SØREIDGREND" />
		<tag k="amenity" v="kindergarten" />
		<tag k="capacity" v="66" />
		<tag k="contact:website" v="http://espira.no/barnehage/espira-steinsviken/" />
		<tag k="max_age" v="5" />
		<tag k="min_age" v="1" />
		<tag k="name" v="Espira Steinsviken barnehage" />
		<tag k="no-barnehage:nsrid" v="896741632" />
		<tag k="operator" v="Espira Steinsviken AS" />
		<tag k="operator:type" v="private" />
	</node>
	<node lat="60.46326" lon="5.31062" id="-3988">
		<tag k="ADDRESS" v="Midtkleiva 56, 5119 ULSET" />
		<tag k="amenity" v="kindergarten" />
		<tag k="capacity" v="300" />
		<tag k="contact:website" v="http://espira.no/barnehage/espira-ulsetskogen/" />
		<tag k="max_age" v="5" />
		<tag k="min_age" v="1" />
		<tag k="name" v="Espira Ulsetskogen barnehage" />
		<tag k="no-barnehage:nsrid" v="991191712" />
		<tag k="operator" v="Espira Ulsetskogen AS" />
		<tag k="operator:type" v="private" />
	</node>
	<node lat="60.30045" lon="5.37746" id="-3989">
		<tag k="ADDRESS" v="Osvegen 72, 5227 NESTTUN" />
		<tag k="amenity" v="kindergarten" />
		<tag k="capacity" v="84" />
		<tag k="contact:website" v="http://eventus.barnehage.no" />
		<tag k="max_age" v="5" />
		<tag k="min_age" v="1" />
		<tag k="name" v="Eventus Birk barnehage friluftsbarnehage" />
		<tag k="no-barnehage:nsrid" v="919409649" />
		<tag k="operator" v="Eventus Birk barnehage AS" />
		<tag k="operator:type" v="private" />
	</node>
	<node lat="60.30849" lon="5.35387" id="-3990">
		<tag k="ADDRESS" v="Slåtthaugvegen 25, 5222 NESTTUN" />
		<tag k="amenity" v="kindergarten" />
		<tag k="capacity" v="29" />
		<tag k="contact:website" v="http://eventus.barnehage.no" />
		<tag k="max_age" v="5" />
		<tag k="min_age" v="1" />
		<tag k="name" v="Eventus Eventyrdalen barnehage" />
		<tag k="no-barnehage:nsrid" v="997458435" />
		<tag k="operator" v="Eventus Eventyrdalen barnehage AS" />
		<tag k="operator:type" v="private" />
	</node>
	<node lat="60.29719" lon="5.31134" id="-3991">
		<tag k="ADDRESS" v="Kvernslåttvegen 41, 5237 RÅDAL" />
		<tag k="amenity" v="kindergarten" />
		<tag k="capacity" v="111" />
		<tag k="contact:website" v="http://eventus.barnehage.no" />
		<tag k="max_age" v="5" />
		<tag k="min_age" v="1" />
		<tag k="name" v="Eventus Kvernslåtten barnehage" />
		<tag k="no-barnehage:nsrid" v="991380507" />
		<tag k="operator" v="Eventus Kvernslåtten barnehage AS" />
		<tag k="operator:type" v="private" />
	</node>
	<node lat="60.32115" lon="5.36005" id="-3992">
		<tag k="ADDRESS" v="Midtunhaugen 179, 5224 NESTTUN" />
		<tag k="amenity" v="kindergarten" />
		<tag k="capacity" v="102" />
		<tag k="contact:website" v="http://eventus.barnehage.no" />
		<tag k="max_age" v="5" />
		<tag k="min_age" v="1" />
		<tag k="name" v="Eventus Midtun barnehage" />
		<tag k="no-barnehage:nsrid" v="913085582" />
		<tag k="operator" v="Eventus Midtun barnehage AS" />
		<tag k="operator:type" v="private" />
	</node>
	<node lat="60.30166" lon="5.32125" id="-3993">
		<tag k="ADDRESS" v="Søråshøgda 311, 5235 RÅDAL" />
		<tag k="amenity" v="kindergarten" />
		<tag k="capacity" v="102" />
		<tag k="contact:website" v="http://eventus.barnehage.no" />
		<tag k="max_age" v="5" />
		<tag k="min_age" v="1" />
		<tag k="name" v="Eventus Tiriltoppen barnehage" />
		<tag k="no-barnehage:nsrid" v="976219414" />
		<tag k="operator" v="Eventus Tiriltoppen barnehage AS" />
		<tag k="operator:type" v="private" />
	</node>
	<node lat="60.26358" lon="5.34286" id="-3994">
		<tag k="ADDRESS" v="Høgsetebrotet 8, 5244 FANA" />
		<tag k="amenity" v="kindergarten" />
		<tag k="capacity" v="119" />
		<tag k="contact:website" v="http://www.bergen.kommune.no/omkommunen/avdelinger/fana-barnehage" />
		<tag k="max_age" v="5" />
		<tag k="min_age" v="1" />
		<tag k="name" v="Fana barnehage" />
		<tag k="no-barnehage:nsrid" v="874225762" />
		<tag k="operator" v="Bergen kommune" />
		<tag k="operator:type" v="public" />
	</node>
	<node lat="60.3035" lon="5.37937" id="-3995">
		<tag k="ADDRESS" v="Birkelandsbotn 55, 5226 NESTTUN" />
		<tag k="amenity" v="kindergarten" />
		<tag k="capacity" v="61" />
		<tag k="contact:website" v="http://www.fanatunet.no" />
		<tag k="max_age" v="5" />
		<tag k="min_age" v="1" />
		<tag k="name" v="Fanatunet barnehage" />
		<tag k="no-barnehage:nsrid" v="983793967" />
		<tag k="operator" v="Fanatunet barnehage SA" />
		<tag k="operator:type" v="private" />
	</node>
	<node lat="60.3894" lon="5.35232" id="-3997">
		<tag k="ADDRESS" v="Starefossveien 20A, 5019 BERGEN" />
		<tag k="amenity" v="kindergarten" />
		<tag k="capacity" v="31" />
		<tag k="contact:website" v="http://www.bergen.kommune.no/omkommunen/avdelinger/fjellsiden-barnehage" />
		<tag k="max_age" v="5" />
		<tag k="min_age" v="1" />
		<tag k="name" v="Fjellsiden barnehage" />
		<tag k="no-barnehage:nsrid" v="973334662" />
		<tag k="operator" v="Bergen kommune" />
		<tag k="operator:type" v="public" />
	</node>
	<node lat="60.4642" lon="5.35819" id="-3998">
		<tag k="ADDRESS" v="Flaktveitsvingane 19, 5135 FLAKTVEIT" />
		<tag k="amenity" v="kindergarten" />
		<tag k="capacity" v="51" />
		<tag k="contact:website" v="http://www.bergen.kommune.no/omkommunen/avdelinger/flaktveit-barnehage" />
		<tag k="max_age" v="5" />
		<tag k="min_age" v="1" />
		<tag k="name" v="Flaktveit barnehage" />
		<tag k="no-barnehage:nsrid" v="974739224" />
		<tag k="operator" v="Bergen kommune" />
		<tag k="operator:type" v="public" />
	</node>
	<node lat="60.37959" lon="5.35496" id="-3999">
		<tag k="ADDRESS" v="Fløenbakken 39A, 5009 BERGEN" />
		<tag k="amenity" v="kindergarten" />
		<tag k="capacity" v="28" />
		<tag k="contact:website" v="http://www.bergen.kommune.no/omkommunen/avdelinger/floenbakken-barnehage/kontakt" />
		<tag k="max_age" v="5" />
		<tag k="min_age" v="1" />
		<tag k="name" v="Fløenbakken barnehage" />
		<tag k="no-barnehage:nsrid" v="874316342" />
		<tag k="operator" v="Bergen kommune" />
		<tag k="operator:type" v="public" />
	</node>
	<node lat="60.39758" lon="5.33854" id="-4000">
		<tag k="ADDRESS" v="Fløyfjellet 4, 5014 BERGEN" />
		<tag k="amenity" v="kindergarten" />
		<tag k="capacity" v="71" />
		<tag k="contact:website" v="http://www.bergen.kommune.no/omkommunen/avdelinger/floyfjellet-naturbarnehage" />
		<tag k="max_age" v="5" />
		<tag k="min_age" v="1" />
		<tag k="name" v="Fløyfjellet naturbarnehage" />
		<tag k="no-barnehage:nsrid" v="974739003" />
		<tag k="operator" v="Bergen kommune" />
		<tag k="operator:type" v="public" />
	</node>
	<node lat="60.31473" lon="5.28285" id="-4001">
		<tag k="ADDRESS" v="Steinsvikvegen 29, 5251 SØREIDGREND" />
		<tag k="amenity" v="kindergarten" />
		<tag k="capacity" v="92" />
		<tag k="contact:website" v="http://www.fremtidenbarnehage.no" />
		<tag k="max_age" v="5" />
		<tag k="min_age" v="1" />
		<tag k="name" v="Fremtiden barnehage" />
		<tag k="no-barnehage:nsrid" v="986633421" />
		<tag k="operator" v="Fremtiden barnehage Eiendom AS" />
		<tag k="operator:type" v="private" />
	</node>
	<node lat="60.36289" lon="5.35617" id="-4002">
		<tag k="ADDRESS" v="Roald Amundsens vei 100, 5067 BERGEN" />
		<tag k="amenity" v="kindergarten" />
		<tag k="name" v="Fridalen menighets åpne barnehage" />
		<tag k="no-barnehage:nsrid" v="987532874" />
		<tag k="operator" v="Fridalen Sokn" />
		<tag k="operator:type" v="private" />
	</node>
	<node lat="60.44931" lon="5.46744" id="-4003">
		<tag k="ADDRESS" v="Garnesvegen 152, 5264 GARNES" />
		<tag k="amenity" v="kindergarten" />
		<tag k="capacity" v="51" />
		<tag k="contact:website" v="http://garnesgaard.barnehage.no" />
		<tag k="max_age" v="5" />
		<tag k="min_age" v="1" />
		<tag k="name" v="Garnes gårdsbarnehage Gård og friluftsbarnehage" />
		<tag k="no-barnehage:nsrid" v="989281615" />
		<tag k="operator" v="Garnes gårdsbarnehage AS" />
		<tag k="operator:type" v="private" />
	</node>
	<node lat="60.37148" lon="5.35385" id="-4004">
		<tag k="ADDRESS" v="St. Olavs vei 20, 5052 BERGEN" />
		<tag k="amenity" v="kindergarten" />
		<tag k="capacity" v="53" />
		<tag k="contact:website" v="http://www.bergen.kommune.no/omkommunen/avdelinger/gimle-oppveksttun-barnehage" />
		<tag k="max_age" v="5" />
		<tag k="min_age" v="1" />
		<tag k="name" v="Gimle oppveksttun - barnehage" />
		<tag k="no-barnehage:nsrid" v="994657984" />
		<tag k="operator" v="Bergen kommune" />
		<tag k="operator:type" v="public" />
	</node>
	<node lat="60.37626" lon="5.20445" id="-4005">
		<tag k="ADDRESS" v="Leirvikveien 2, 5179 GODVIK" />
		<tag k="amenity" v="kindergarten" />
		<tag k="capacity" v="78" />
		<tag k="contact:website" v="http://godvik.barnehage.no/" />
		<tag k="max_age" v="5" />
		<tag k="min_age" v="1" />
		<tag k="name" v="Godvik barnehage" />
		<tag k="no-barnehage:nsrid" v="973336622" />
		<tag k="operator" v="Godvik barnehage AS" />
		<tag k="operator:type" v="private" />
	</node>
	<node lat="60.45623" lon="5.28321" id="-4006">
		<tag k="ADDRESS" v="Grønskjeret 15, 5114 TERTNES" />
		<tag k="amenity" v="kindergarten" />
		<tag k="capacity" v="79" />
		<tag k="contact:website" v="http://gronskjeret.no" />
		<tag k="max_age" v="5" />
		<tag k="min_age" v="1" />
		<tag k="name" v="Grønskjeret barnehage" />
		<tag k="no-barnehage:nsrid" v="981207963" />
		<tag k="operator" v="Grønskjeret barnehage AS" />
		<tag k="operator:type" v="private" />
	</node>
	<node lat="60.3771" lon="5.22574" id="-4007">
		<tag k="ADDRESS" v="Skjenlien 125, 5183 OLSVIK" />
		<tag k="amenity" v="kindergarten" />
		<tag k="capacity" v="43" />
		<tag k="contact:website" v="http://www.bergen.kommune.no/omkommunen/avdelinger/grontulien-barnehage" />
		<tag k="max_age" v="5" />
		<tag k="min_age" v="1" />
		<tag k="name" v="Grøntulien barnehage" />
		<tag k="no-barnehage:nsrid" v="974739038" />
		<tag k="operator" v="Bergen kommune" />
		<tag k="operator:type" v="public" />
	</node>
	<node lat="60.33399" lon="5.30922" id="-4008">
		<tag k="ADDRESS" v="Gullstølsbotn 1, 5153 BØNES" />
		<tag k="amenity" v="kindergarten" />
		<tag k="capacity" v="98" />
		<tag k="contact:website" v="http://www.bergen.kommune.no/omkommunen/avdelinger/gullstolsbotn-barnehage" />
		<tag k="max_age" v="5" />
		<tag k="min_age" v="1" />
		<tag k="name" v="Gullstølsbotn barnehage" />
		<tag k="no-barnehage:nsrid" v="974739356" />
		<tag k="operator" v="Bergen kommune" />
		<tag k="operator:type" v="public" />
	</node>
	<node lat="60.38094" lon="5.31777" id="-4009">
		<tag k="ADDRESS" v="Lien 83, 5057 BERGEN" />
		<tag k="amenity" v="kindergarten" />
		<tag k="capacity" v="98" />
		<tag k="contact:website" v="http://www.bergen.kommune.no/omkommunen/avdelinger/gyldenpris-barnehage" />
		<tag k="max_age" v="5" />
		<tag k="min_age" v="1" />
		<tag k="name" v="Gyldenpris barnehage" />
		<tag k="no-barnehage:nsrid" v="974738813" />
		<tag k="operator" v="Bergen kommune" />
		<tag k="operator:type" v="public" />
	</node>
	<node lat="60.36481" lon="5.22836" id="-4010">
		<tag k="ADDRESS" v="Vadmyrveien 79, 5172 LODDEFJORD" />
		<tag k="amenity" v="kindergarten" />
		<tag k="capacity" v="58" />
		<tag k="contact:website" v="http://www.bergen.kommune.no/omkommunen/avdelinger/haugatun-barnehage" />
		<tag k="max_age" v="5" />
		<tag k="min_age" v="1" />
		<tag k="name" v="Haugatun barnehage" />
		<tag k="no-barnehage:nsrid" v="974739178" />
		<tag k="operator" v="Bergen kommune" />
		<tag k="operator:type" v="public" />
	</node>
	<node lat="60.39864" lon="5.30474" id="-4011">
		<tag k="ADDRESS" v="Haugeveien 40, 5005 BERGEN" />
		<tag k="amenity" v="kindergarten" />
		<tag k="capacity" v="62" />
		<tag k="contact:website" v="http://www.bergen.kommune.no/omkommunen/avdelinger/haugeveien-barnehage" />
		<tag k="max_age" v="5" />
		<tag k="min_age" v="1" />
		<tag k="name" v="Haugeveien barnehage" />
		<tag k="no-barnehage:nsrid" v="916674775" />
		<tag k="operator" v="Bergen kommune" />
		<tag k="operator:type" v="public" />
	</node>
	<node lat="60.46888" lon="5.28053" id="-4012">
		<tag k="ADDRESS" v="Morvikbotn 172, 5122 MORVIK" />
		<tag k="amenity" v="kindergarten" />
		<tag k="capacity" v="67" />
		<tag k="contact:website" v="http://haukedalsmyra.kanvas.no" />
		<tag k="max_age" v="5" />
		<tag k="min_age" v="1" />
		<tag k="name" v="Haukedalsmyra Kanvas-barnehage" />
		<tag k="no-barnehage:nsrid" v="973076450" />
		<tag k="operator" v="Stiftelsen Kanvas" />
		<tag k="operator:type" v="private" />
	</node>
	<node lat="60.48661" lon="5.2652" id="-4013">
		<tag k="ADDRESS" v="Marikollen 7, 5136 MJØLKERÅEN" />
		<tag k="amenity" v="kindergarten" />
		<tag k="capacity" v="27" />
		<tag k="contact:website" v="http://heimly.bhg.barnehage.no/" />
		<tag k="max_age" v="5" />
		<tag k="min_age" v="1" />
		<tag k="name" v="Heimly barnehage" />
		<tag k="no-barnehage:nsrid" v="974224917" />
		<tag k="operator" v="Heimly barnehage" />
		<tag k="operator:type" v="private" />
	</node>
	<node lat="60.43237" lon="5.28518" id="-4014">
		<tag k="ADDRESS" v="Hellebakken 31, 5039 BERGEN" />
		<tag k="amenity" v="kindergarten" />
		<tag k="capacity" v="30" />
		<tag k="max_age" v="5" />
		<tag k="min_age" v="1" />
		<tag k="name" v="Hellebakken barnehage" />
		<tag k="no-barnehage:nsrid" v="974738821" />
		<tag k="operator" v="Bergen kommune" />
		<tag k="operator:type" v="public" />
	</node>
	<node lat="60.37024" lon="5.36167" id="-4015">
		<tag k="ADDRESS" v="Haukelandsveien 38, 5096 BERGEN" />
		<tag k="amenity" v="kindergarten" />
		<tag k="capacity" v="72" />
		<tag k="contact:website" v="http://helse-bergen.no/avdelinger/driftteknisk-divisjon/barnehagar/vognstolen-barnehage" />
		<tag k="max_age" v="5" />
		<tag k="min_age" v="1" />
		<tag k="name" v="Helse Bergen HF Vognstølen barnehage" />
		<tag k="no-barnehage:nsrid" v="979468105" />
		<tag k="operator" v="Helse Bergen Hf" />
	</node>
	<node lat="60.37304" lon="5.36246" id="-4016">
		<tag k="ADDRESS" v="Haukelandsbakken 42, 5009 BERGEN" />
		<tag k="amenity" v="kindergarten" />
		<tag k="capacity" v="71" />
		<tag k="contact:website" v="http://helse-bergen.no/avdelinger/driftteknisk-divisjon/barnehagar/ravnebjerget-barnehage" />
		<tag k="max_age" v="5" />
		<tag k="min_age" v="1" />
		<tag k="name" v="Helse Bergen HF Ravnebjerget barnehage" />
		<tag k="no-barnehage:nsrid" v="975315096" />
		<tag k="operator" v="Helse Bergen Hf" />
	</node>
	<node lat="60.37476" lon="5.35203" id="-4017">
		<tag k="ADDRESS" v="Jonas Lies vei 59, 5021 BERGEN" />
		<tag k="amenity" v="kindergarten" />
		<tag k="capacity" v="45" />
		<tag k="contact:website" v="http://helse-bergen.no/avdelinger/driftteknisk-divisjon/barnehagar/hunstad-barnehage" />
		<tag k="max_age" v="5" />
		<tag k="min_age" v="1" />
		<tag k="name" v="Helse Bergen HF Hunstad barnehage" />
		<tag k="no-barnehage:nsrid" v="975315258" />
		<tag k="operator" v="Helse Bergen Hf" />
	</node>
	<node lat="60.41851" lon="5.31397" id="-4018">
		<tag k="ADDRESS" v="Sandviksleitet 1, 5036 BERGEN" />
		<tag k="amenity" v="kindergarten" />
		<tag k="capacity" v="51" />
		<tag k="contact:website" v="http://helse-bergen.no/avdelinger/driftteknisk-divisjon/barnehagar/vinterdalen-barnehage" />
		<tag k="max_age" v="5" />
		<tag k="min_age" v="1" />
		<tag k="name" v="Helse Bergen HF Vinterdalen barnehage" />
		<tag k="no-barnehage:nsrid" v="974737760" />
		<tag k="operator" v="Helse Bergen Hf" />
	</node>
	<node lat="60.32418" lon="5.34337" id="-4019">
		<tag k="ADDRESS" v="Kloppedalsvegen 18, 5232 PARADIS" />
		<tag k="amenity" v="kindergarten" />
		<tag k="capacity" v="76" />
		<tag k="contact:website" v="http://www.bergen.kommune.no/omkommunen/avdelinger/hop-oppveksttun-barnehage" />
		<tag k="max_age" v="5" />
		<tag k="min_age" v="1" />
		<tag k="name" v="Hop oppveksttun barnehage" />
		<tag k="no-barnehage:nsrid" v="974739232" />
		<tag k="operator" v="Bergen kommune" />
		<tag k="operator:type" v="public" />
	</node>
	<node lat="60.34494" lon="5.18816" id="-4020">
		<tag k="ADDRESS" v="Håkonshellaveien 125, 5174 MATHOPEN" />
		<tag k="amenity" v="kindergarten" />
		<tag k="capacity" v="71" />
		<tag k="contact:website" v="http://fus.no/haakonshella" />
		<tag k="max_age" v="5" />
		<tag k="min_age" v="1" />
		<tag k="name" v="Håkonshella FUS barnehage" />
		<tag k="no-barnehage:nsrid" v="989824716" />
		<tag k="operator" v="Håkonshella Fus barnehage AS" />
		<tag k="operator:type" v="private" />
	</node>
	<node lat="60.31051" lon="5.34642" id="-4021">
		<tag k="ADDRESS" v="Odins veg 41, 5221 NESTTUN" />
		<tag k="amenity" v="kindergarten" />
		<tag k="capacity" v="68" />
		<tag k="contact:website" v="http://www.bergen.kommune.no/omkommunen/avdelinger/idavollen-barnehage" />
		<tag k="max_age" v="5" />
		<tag k="min_age" v="1" />
		<tag k="name" v="Idavollen barnehage" />
		<tag k="no-barnehage:nsrid" v="974222043" />
		<tag k="operator" v="Bergen kommune" />
		<tag k="operator:type" v="public" />
	</node>
	<node lat="60.42213" lon="5.46968" id="-4022">
		<tag k="ADDRESS" v="Ådnavegen 42, 5260 INDRE ARNA" />
		<tag k="amenity" v="kindergarten" />
		<tag k="capacity" v="69" />
		<tag k="contact:website" v="http://www.bergen.kommune.no/omkommunen/avdelinger/indre-arna-barnehage" />
		<tag k="max_age" v="5" />
		<tag k="min_age" v="1" />
		<tag k="name" v="Indre Arna barnehage" />
		<tag k="no-barnehage:nsrid" v="997709268" />
		<tag k="operator" v="Bergen kommune" />
		<tag k="operator:type" v="public" />
	</node>
	<node lat="60.4302" lon="5.4691" id="-4023">
		<tag k="ADDRESS" v="Andreas Gjellesviks veg 23B, 5260 INDRE ARNA" />
		<tag k="amenity" v="kindergarten" />
		<tag k="name" v="Indre Arna Kvinne og familielag" />
		<tag k="no-barnehage:nsrid" v="973338536" />
		<tag k="operator" v="Indre Arna Kvinne og Familielag" />
		<tag k="operator:type" v="private" />
	</node>
	<node lat="60.38721" lon="5.34489" id="-4024">
		<tag k="ADDRESS" v="Kalfarveien 43, 5022 BERGEN" />
		<tag k="amenity" v="kindergarten" />
		<tag k="capacity" v="54" />
		<tag k="contact:website" v="http://www.bergen.kommune.no/omkommunen/avdelinger/kalfarveien-barnehage" />
		<tag k="max_age" v="5" />
		<tag k="min_age" v="1" />
		<tag k="name" v="Kalfarveien barnehage" />
		<tag k="no-barnehage:nsrid" v="974738988" />
		<tag k="operator" v="Bergen kommune" />
		<tag k="operator:type" v="public" />
	</node>
	<node lat="60.39296" lon="5.31883" id="-4025">
		<tag k="ADDRESS" v="Kalmargaten 2, 5011 BERGEN" />
		<tag k="amenity" v="kindergarten" />
		<tag k="capacity" v="12" />
		<tag k="max_age" v="5" />
		<tag k="min_age" v="3" />
		<tag k="name" v="Kalmargaten barnehage" />
		<tag k="no-barnehage:nsrid" v="974739313" />
		<tag k="operator" v="Bergen kommune" />
		<tag k="operator:type" v="public" />
	</node>
	<node lat="60.35484" lon="5.2715" id="-4026">
		<tag k="ADDRESS" v="Spelhaugen 24, 5147 FYLLINGSDALEN" />
		<tag k="amenity" v="kindergarten" />
		<tag k="capacity" v="58" />
		<tag k="contact:website" v="http://kanadaskogen.barnehage.no" />
		<tag k="max_age" v="5" />
		<tag k="min_age" v="1" />
		<tag k="name" v="Kanadaskogen friluftslivsbarnehage" />
		<tag k="no-barnehage:nsrid" v="973483536" />
		<tag k="operator" v="Kanadaskogen friluftslivsbarnehage Stiftelse" />
		<tag k="operator:type" v="private" />
	</node>
	<node lat="60.37697" lon="5.36244" id="-4027">
		<tag k="ADDRESS" v="Ulriksdal 39, 5009 BERGEN" />
		<tag k="amenity" v="kindergarten" />
		<tag k="capacity" v="18" />
		<tag k="contact:website" v="http://karusellen.barnehage.no/" />
		<tag k="max_age" v="5" />
		<tag k="min_age" v="1" />
		<tag k="name" v="Karusellen barnehage" />
		<tag k="no-barnehage:nsrid" v="972215910" />
		<tag k="operator" v="As Karusellen" />
		<tag k="operator:type" v="private" />
	</node>
	<node lat="60.34291" lon="5.26354" id="-4028">
		<tag k="ADDRESS" v="Allestadhaugen 1, 5142 FYLLINGSDALEN" />
		<tag k="amenity" v="kindergarten" />
		<tag k="capacity" v="61" />
		<tag k="contact:website" v="http://www.kidsabarnehager.no/" />
		<tag k="max_age" v="5" />
		<tag k="min_age" v="1" />
		<tag k="name" v="Kidsa Allestadhaugen" />
		<tag k="no-barnehage:nsrid" v="996789276" />
		<tag k="operator" v="Kidsa Allestadhaugen barnehage AS" />
		<tag k="operator:type" v="private" />
	</node>
	<node lat="60.49181" lon="5.38431" id="-4029">
		<tag k="ADDRESS" v="Leikvangvegen 6, 5111 BREISTEIN" />
		<tag k="amenity" v="kindergarten" />
		<tag k="capacity" v="101" />
		<tag k="contact:website" v="http://www.kidsabarnehager.no/breistein/" />
		<tag k="max_age" v="5" />
		<tag k="min_age" v="1" />
		<tag k="name" v="Kidsa Breistein" />
		<tag k="no-barnehage:nsrid" v="974225875" />
		<tag k="operator" v="Kidsa Breistein barnehage AS" />
		<tag k="operator:type" v="private" />
	</node>
	<node lat="60.37259" lon="5.22087" id="-4030">
		<tag k="ADDRESS" v="Brønndalsåsen 19, 5176 LODDEFJORD" />
		<tag k="amenity" v="kindergarten" />
		<tag k="capacity" v="49" />
		<tag k="contact:website" v="http://www.kidsabarnehager.no/" />
		<tag k="max_age" v="5" />
		<tag k="min_age" v="1" />
		<tag k="name" v="Kidsa Brønndalen" />
		<tag k="no-barnehage:nsrid" v="996194361" />
		<tag k="operator" v="Kidsa Brønndalen barnehage AS" />
		<tag k="operator:type" v="private" />
	</node>
	<node lat="60.40943" lon="5.32915" id="-4031">
		<tag k="ADDRESS" v="Øvre Heien 11, 5037 BERGEN" />
		<tag k="amenity" v="kindergarten" />
		<tag k="capacity" v="48" />
		<tag k="contact:website" v="http://www.kidsabarnehager.no/" />
		<tag k="max_age" v="5" />
		<tag k="min_age" v="1" />
		<tag k="name" v="Kidsa Christinegård" />
		<tag k="no-barnehage:nsrid" v="996789136" />
		<tag k="operator" v="Kidsa Christinegård barnehage AS" />
		<tag k="operator:type" v="private" />
	</node>
	<node lat="60.43796" lon="5.30236" id="-4032">
		<tag k="ADDRESS" v="Eidsvågskogen 33, 5104 EIDSVÅG I ÅSANE" />
		<tag k="amenity" v="kindergarten" />
		<tag k="capacity" v="30" />
		<tag k="contact:website" v="http://www.kidsabarnehager.no/" />
		<tag k="max_age" v="5" />
		<tag k="min_age" v="1" />
		<tag k="name" v="Kidsa Eidsvåg" />
		<tag k="no-barnehage:nsrid" v="896788752" />
		<tag k="operator" v="Kidsa Eidsvåg barnehage AS" />
		<tag k="operator:type" v="private" />
	</node>
	<node lat="60.35921" lon="5.36912" id="-4033">
		<tag k="ADDRESS" v="Erleveien 51, 5097 BERGEN" />
		<tag k="amenity" v="kindergarten" />
		<tag k="capacity" v="70" />
		<tag k="contact:website" v="http://www.kidsabarnehager.no/" />
		<tag k="max_age" v="5" />
		<tag k="min_age" v="1" />
		<tag k="name" v="Kidsa Erleveien" />
		<tag k="no-barnehage:nsrid" v="996789209" />
		<tag k="operator" v="Kidsa Erleveien barnehage AS" />
		<tag k="operator:type" v="private" />
	</node>
	<node lat="60.44288" lon="5.45368" id="-4034">
		<tag k="ADDRESS" v="Ytre Arna-vegen 46, 5265 YTRE ARNA" />
		<tag k="amenity" v="kindergarten" />
		<tag k="capacity" v="78" />
		<tag k="contact:website" v="http://www.kidsabarnehager.no/" />
		<tag k="max_age" v="5" />
		<tag k="min_age" v="1" />
		<tag k="name" v="Kidsa Festtangen" />
		<tag k="no-barnehage:nsrid" v="996194388" />
		<tag k="operator" v="Kidsa Festtangen barnehage AS" />
		<tag k="operator:type" v="private" />
	</node>
	<node lat="60.4631" lon="5.29309" id="-4035">
		<tag k="ADDRESS" v="Haukedalsveien 135, 5113 TERTNES" />
		<tag k="amenity" v="kindergarten" />
		<tag k="capacity" v="90" />
		<tag k="contact:website" v="http://www.kidsabarnehager.no" />
		<tag k="max_age" v="5" />
		<tag k="min_age" v="1" />
		<tag k="name" v="Kidsa Haukedalen" />
		<tag k="no-barnehage:nsrid" v="974225867" />
		<tag k="operator" v="Kidsa Haukedalen barnehage AS" />
		<tag k="operator:type" v="private" />
	</node>
	<node lat="60.51038" lon="5.34449" id="-4036">
		<tag k="ADDRESS" v="Hylkjeflaten 4, 5109 HYLKJE" />
		<tag k="amenity" v="kindergarten" />
		<tag k="capacity" v="153" />
		<tag k="contact:website" v="http://www.kidsabarnehager.no/" />
		<tag k="max_age" v="5" />
		<tag k="min_age" v="1" />
		<tag k="name" v="Kidsa Hylkje" />
		<tag k="no-barnehage:nsrid" v="986290389" />
		<tag k="operator" v="Kidsa Hylkje barnehage AS" />
		<tag k="operator:type" v="private" />
	</node>
	<node lat="60.36431" lon="5.35289" id="-4037">
		<tag k="ADDRESS" v="Inndalsveien 88, 5063 BERGEN" />
		<tag k="amenity" v="kindergarten" />
		<tag k="capacity" v="30" />
		<tag k="contact:website" v="http://www.kidsabarnehager.no/" />
		<tag k="max_age" v="5" />
		<tag k="min_age" v="1" />
		<tag k="name" v="Kidsa Inndalen" />
		<tag k="no-barnehage:nsrid" v="996789217" />
		<tag k="operator" v="Kidsa Inndalen barnehage AS" />
		<tag k="operator:type" v="private" />
	</node>
	<node lat="60.29852" lon="5.26121" id="-4038">
		<tag k="ADDRESS" v="Kokstadvegen 36, 5257 KOKSTAD" />
		<tag k="amenity" v="kindergarten" />
		<tag k="capacity" v="91" />
		<tag k="contact:website" v="http://www.kidsabarnehager.no/kokstad/" />
		<tag k="max_age" v="5" />
		<tag k="min_age" v="1" />
		<tag k="name" v="Kidsa Kokstad" />
		<tag k="no-barnehage:nsrid" v="974223481" />
		<tag k="operator" v="Kidsa Kokstad barnehage AS" />
		<tag k="operator:type" v="private" />
	</node>
	<node lat="60.40118" lon="5.32509" id="-4039">
		<tag k="ADDRESS" v="Hans Hauges gate 3, 5033 BERGEN" />
		<tag k="amenity" v="kindergarten" />
		<tag k="capacity" v="85" />
		<tag k="contact:website" v="http://www.kidsabarnehager.no/ladegarden/" />
		<tag k="max_age" v="5" />
		<tag k="min_age" v="1" />
		<tag k="name" v="Kidsa Ladegården friluftsbarnehage" />
		<tag k="no-barnehage:nsrid" v="812657402" />
		<tag k="operator" v="Kidsa Ladegården barnehage AS" />
		<tag k="operator:type" v="private" />
	</node>
	<node lat="60.35632" lon="5.28668" id="-4040">
		<tag k="ADDRESS" v="Løvåsbakken 20, 5145 FYLLINGSDALEN" />
		<tag k="amenity" v="kindergarten" />
		<tag k="capacity" v="57" />
		<tag k="contact:website" v="http://www.kidsabarnehager.no/" />
		<tag k="max_age" v="5" />
		<tag k="min_age" v="1" />
		<tag k="name" v="Kidsa Løvåsbakken" />
		<tag k="no-barnehage:nsrid" v="812610082" />
		<tag k="operator" v="Kidsa Løvåsbakken barnehage AS" />
		<tag k="operator:type" v="private" />
	</node>
	<node lat="60.46743" lon="5.31996" id="-4041">
		<tag k="ADDRESS" v="Åsane Senter 48, 5116 ULSET" />
		<tag k="amenity" v="kindergarten" />
		<tag k="capacity" v="67" />
		<tag k="contact:website" v="http://www.kidsabarnehager.no/" />
		<tag k="max_age" v="5" />
		<tag k="min_age" v="1" />
		<tag k="name" v="Kidsa Midtbygda" />
		<tag k="no-barnehage:nsrid" v="996194396" />
		<tag k="operator" v="Kidsa Midtbygda barnehage AS" />
		<tag k="operator:type" v="private" />
	</node>
	<node lat="60.4711" lon="5.31241" id="-4042">
		<tag k="ADDRESS" v="Myrdalsvegen 159, 5130 NYBORG" />
		<tag k="amenity" v="kindergarten" />
		<tag k="capacity" v="197" />
		<tag k="contact:website" v="http://www.kidsabarnehager.no/" />
		<tag k="max_age" v="5" />
		<tag k="min_age" v="1" />
		<tag k="name" v="Kidsa Myrdal" />
		<tag k="no-barnehage:nsrid" v="990215723" />
		<tag k="operator" v="Kidsa Myrdal barnehage AS" />
		<tag k="operator:type" v="private" />
	</node>
	<node lat="60.41816" lon="5.30932" id="-4043">
		<tag k="ADDRESS" v="Nyhavnsveien 4, 5042 BERGEN" />
		<tag k="amenity" v="kindergarten" />
		<tag k="capacity" v="44" />
		<tag k="contact:website" v="http://www.kidsabarnehager.no/" />
		<tag k="max_age" v="5" />
		<tag k="min_age" v="1" />
		<tag k="name" v="Kidsa Nyhavn" />
		<tag k="no-barnehage:nsrid" v="996789101" />
		<tag k="operator" v="Kidsa Nyhavn barnehage AS" />
		<tag k="operator:type" v="private" />
	</node>
	<node lat="60.38319" lon="5.21053" id="-4044">
		<tag k="ADDRESS" v="Olsvikskrenten 7, 5184 OLSVIK" />
		<tag k="amenity" v="kindergarten" />
		<tag k="capacity" v="49" />
		<tag k="contact:website" v="http://www.kidsabarnehager.no/" />
		<tag k="max_age" v="5" />
		<tag k="min_age" v="1" />
		<tag k="name" v="Kidsa Olsvikfjellet" />
		<tag k="no-barnehage:nsrid" v="996789241" />
		<tag k="operator" v="Kidsa Olsvikfjellet barnehage AS" />
		<tag k="operator:type" v="private" />
	</node>
	<node lat="60.3445" lon="5.30453" id="-4045">
		<tag k="ADDRESS" v="C. J. Hambros vei 74, 5148 FYLLINGSDALEN" />
		<tag k="amenity" v="kindergarten" />
		<tag k="capacity" v="39" />
		<tag k="contact:website" v="http://www.kidsabarnehager.no/" />
		<tag k="max_age" v="5" />
		<tag k="min_age" v="1" />
		<tag k="name" v="Kidsa Ospeli" />
		<tag k="no-barnehage:nsrid" v="996789284" />
		<tag k="operator" v="Kidsa Ospeli barnehage AS" />
		<tag k="operator:type" v="private" />
	</node>
	<node lat="60.36381" lon="5.22822" id="-4046">
		<tag k="ADDRESS" v="Vadmyrveien 69, 5172 LODDEFJORD" />
		<tag k="amenity" v="kindergarten" />
		<tag k="capacity" v="67" />
		<tag k="contact:website" v="http://www.kidsabarnehager.no/" />
		<tag k="max_age" v="5" />
		<tag k="min_age" v="1" />
		<tag k="name" v="Kidsa Sandgotna" />
		<tag k="no-barnehage:nsrid" v="912657388" />
		<tag k="operator" v="Kidsa Sandgotna barnehage AS" />
		<tag k="operator:type" v="private" />
	</node>
	<node lat="60.35568" lon="5.3599" id="-4047">
		<tag k="ADDRESS" v="Adolph Bergs vei 55, 5089 BERGEN" />
		<tag k="amenity" v="kindergarten" />
		<tag k="capacity" v="57" />
		<tag k="contact:website" v="http://www.kidsabarnehager.no/" />
		<tag k="max_age" v="5" />
		<tag k="min_age" v="1" />
		<tag k="name" v="Kidsa Slettebakken" />
		<tag k="no-barnehage:nsrid" v="996194442" />
		<tag k="operator" v="Kidsa Slettebakken barnehage AS" />
		<tag k="operator:type" v="private" />
	</node>
	<node lat="60.42217" lon="5.31354" id="-4048">
		<tag k="ADDRESS" v="Skytterveien 23A, 5038 BERGEN" />
		<tag k="amenity" v="kindergarten" />
		<tag k="capacity" v="30" />
		<tag k="contact:website" v="http://www.kidsabarnehager.no/" />
		<tag k="max_age" v="5" />
		<tag k="min_age" v="1" />
		<tag k="name" v="Kidsa Sølvberget" />
		<tag k="no-barnehage:nsrid" v="896194372" />
		<tag k="operator" v="Kidsa Sølvberget barnehage AS" />
		<tag k="operator:type" v="private" />
	</node>
	<node lat="60.45749" lon="5.28726" id="-4049">
		<tag k="ADDRESS" v="Bekkjarvikveien 3, 5114 TERTNES" />
		<tag k="amenity" v="kindergarten" />
		<tag k="capacity" v="43" />
		<tag k="contact:website" v="http://www.kidsabarnehager.no/" />
		<tag k="max_age" v="5" />
		<tag k="min_age" v="1" />
		<tag k="name" v="Kidsa Tertitten" />
		<tag k="no-barnehage:nsrid" v="996788733" />
		<tag k="operator" v="Kidsa Tertitten barnehage AS" />
		<tag k="operator:type" v="private" />
	</node>
	<node lat="60.4859" lon="5.27067" id="-4050">
		<tag k="ADDRESS" v="Nordre Toppe 3, 5136 MJØLKERÅEN" />
		<tag k="amenity" v="kindergarten" />
		<tag k="capacity" v="50" />
		<tag k="contact:website" v="http://www.kidsabarnehager.no/" />
		<tag k="max_age" v="5" />
		<tag k="min_age" v="1" />
		<tag k="name" v="Kidsa Toppemyr" />
		<tag k="no-barnehage:nsrid" v="996788717" />
		<tag k="operator" v="Kidsa Toppemyr barnehage AS" />
		<tag k="operator:type" v="private" />
	</node>
	<node lat="60.33997" lon="5.27176" id="-4051">
		<tag k="ADDRESS" v="Vardeveien 69, 5141 FYLLINGSDALEN" />
		<tag k="amenity" v="kindergarten" />
		<tag k="capacity" v="50" />
		<tag k="contact:website" v="http://www.kidsabarnehager.no/" />
		<tag k="max_age" v="5" />
		<tag k="min_age" v="1" />
		<tag k="name" v="Kidsa Varden" />
		<tag k="no-barnehage:nsrid" v="896194402" />
		<tag k="operator" v="Kidsa Varden barnehage AS" />
		<tag k="operator:type" v="private" />
	</node>
	<node lat="60.38839" lon="5.28763" id="-4052">
		<tag k="ADDRESS" v="Vågedalen 12, 5163 LAKSEVÅG" />
		<tag k="amenity" v="kindergarten" />
		<tag k="capacity" v="71" />
		<tag k="contact:website" v="http://www.kidsabarnehager.no/vagedalen/" />
		<tag k="max_age" v="5" />
		<tag k="min_age" v="1" />
		<tag k="name" v="Kidsa Vågedalen" />
		<tag k="no-barnehage:nsrid" v="996789268" />
		<tag k="operator" v="Kidsa Vågedalen barnehage AS" />
		<tag k="operator:type" v="private" />
	</node>
	<node lat="60.34603" lon="5.38018" id="-4053">
		<tag k="ADDRESS" v="Øvre Sædalsvegen 80, 5099 BERGEN" />
		<tag k="amenity" v="kindergarten" />
		<tag k="capacity" v="78" />
		<tag k="contact:website" v="http://www.kidsabarnehager.no/" />
		<tag k="max_age" v="5" />
		<tag k="min_age" v="1" />
		<tag k="name" v="Kidsa Øvre Sædal friluftsbarnehage" />
		<tag k="no-barnehage:nsrid" v="996194434" />
		<tag k="operator" v="Kidsa Øvre Sædal barnehage AS" />
		<tag k="operator:type" v="private" />
	</node>
	<node lat="60.31354" lon="5.36111" id="-4054">
		<tag k="ADDRESS" v="Øvsttunvegen 27, 5223 NESTTUN" />
		<tag k="amenity" v="kindergarten" />
		<tag k="capacity" v="82" />
		<tag k="contact:website" v="http://www.kidsabarnehager.no/" />
		<tag k="max_age" v="5" />
		<tag k="min_age" v="1" />
		<tag k="name" v="Kidsa Øvsttun" />
		<tag k="no-barnehage:nsrid" v="996789233" />
		<tag k="operator" v="Kidsa Øvsttun barnehage AS" />
		<tag k="operator:type" v="private" />
	</node>
	<node lat="60.42597" lon="5.46841" id="-4055">
		<tag k="ADDRESS" v="Ådnavegen 5, 5260 INDRE ARNA" />
		<tag k="amenity" v="kindergarten" />
		<tag k="capacity" v="114" />
		<tag k="contact:website" v="http://www.kidsabarnehager.no/" />
		<tag k="max_age" v="5" />
		<tag k="min_age" v="1" />
		<tag k="name" v="Kidsa Øyrane" />
		<tag k="no-barnehage:nsrid" v="996788695" />
		<tag k="operator" v="Kidsa Øyrane barnehage AS" />
		<tag k="operator:type" v="private" />
	</node>
	<node lat="60.38523" lon="5.30063" id="-4056">
		<tag k="ADDRESS" v="Damsgårdsveien 180, 5160 LAKSEVÅG" />
		<tag k="amenity" v="kindergarten" />
		<tag k="capacity" v="48" />
		<tag k="contact:website" v="http://www.bergen.kommune.no/omkommunen/avdelinger/kirkebukten-barnehage" />
		<tag k="max_age" v="5" />
		<tag k="min_age" v="1" />
		<tag k="name" v="Kirkebukten barnehage" />
		<tag k="no-barnehage:nsrid" v="973334727" />
		<tag k="operator" v="Bergen kommune" />
		<tag k="operator:type" v="public" />
	</node>
	<node lat="60.32987" lon="5.37737" id="-4057">
		<tag k="ADDRESS" v="Kjenndalslia 27, 5225 NESTTUN" />
		<tag k="amenity" v="kindergarten" />
		<tag k="capacity" v="57" />
		<tag k="contact:website" v="http://kjenndalslia.kanvas.no/" />
		<tag k="max_age" v="5" />
		<tag k="min_age" v="1" />
		<tag k="name" v="Kjenndalslia Kanvas-barnehage" />
		<tag k="no-barnehage:nsrid" v="973076469" />
		<tag k="operator" v="Stiftelsen Kanvas" />
		<tag k="operator:type" v="private" />
	</node>
	<node lat="60.37461" lon="5.19784" id="-4058">
		<tag k="ADDRESS" v="Breivikstølen 3, 5179 GODVIK" />
		<tag k="amenity" v="kindergarten" />
		<tag k="capacity" v="88" />
		<tag k="contact:website" v="http://kladden.kanvas.no" />
		<tag k="max_age" v="5" />
		<tag k="min_age" v="1" />
		<tag k="name" v="Kladden Kanvas-barnehage" />
		<tag k="no-barnehage:nsrid" v="988778591" />
		<tag k="operator" v="Stiftelsen Kanvas" />
		<tag k="operator:type" v="private" />
	</node>
	<node lat="60.27929" lon="5.40534" id="-4059">
		<tag k="ADDRESS" v="Osvegen 335, 5229 KALANDSEIDET" />
		<tag k="amenity" v="kindergarten" />
		<tag k="capacity" v="26" />
		<tag k="contact:website" v="http://www.klembarnehage.no/" />
		<tag k="max_age" v="5" />
		<tag k="min_age" v="1" />
		<tag k="name" v="Klem barnehage" />
		<tag k="no-barnehage:nsrid" v="990307164" />
		<tag k="operator" v="Klem barnehage AS" />
		<tag k="operator:type" v="private" />
	</node>
	<node lat="60.3947" lon="5.3156" id="-4060">
		<tag k="ADDRESS" v="Klosteret 2, 5005 BERGEN" />
		<tag k="amenity" v="kindergarten" />
		<tag k="capacity" v="37" />
		<tag k="contact:website" v="http://www.bergen.kommune.no/omkommunen/avdelinger/klosteret-barnehage" />
		<tag k="max_age" v="5" />
		<tag k="min_age" v="1" />
		<tag k="name" v="Klosteret barnehage" />
		<tag k="no-barnehage:nsrid" v="974739119" />
		<tag k="operator" v="Bergen kommune" />
		<tag k="operator:type" v="public" />
	</node>
	<node lat="60.36712" lon="5.35898" id="-4061">
		<tag k="ADDRESS" v="Kniksens plass 1, 5063 BERGEN" />
		<tag k="amenity" v="kindergarten" />
		<tag k="capacity" v="71" />
		<tag k="contact:website" v="http://www.bergen.kommune.no/omkommunen/avdelinger/kniksens-plass-barnehage" />
		<tag k="max_age" v="5" />
		<tag k="min_age" v="1" />
		<tag k="name" v="Kniksens Plass barnehage" />
		<tag k="no-barnehage:nsrid" v="997709241" />
		<tag k="operator" v="Bergen kommune" />
		<tag k="operator:type" v="public" />
	</node>
	<node lat="60.3546" lon="5.34286" id="-4062">
		<tag k="ADDRESS" v="Conrad Mohrs veg 17, 5072 BERGEN" />
		<tag k="amenity" v="kindergarten" />
		<tag k="capacity" v="72" />
		<tag k="contact:website" v="http://www.bergen.kommune.no/omkommunen/avdelinger/kristianborg-barnehage" />
		<tag k="max_age" v="5" />
		<tag k="min_age" v="1" />
		<tag k="name" v="Kristianborg barnehage" />
		<tag k="no-barnehage:nsrid" v="991648704" />
		<tag k="operator" v="Bergen kommune" />
		<tag k="operator:type" v="public" />
	</node>
	<node lat="60.376" lon="5.35091" id="-4063">
		<tag k="ADDRESS" v="Klaus Hanssens vei 48, 5053 BERGEN" />
		<tag k="amenity" v="kindergarten" />
		<tag k="capacity" v="44" />
		<tag k="contact:website" v="http://kronen.barnehage.no" />
		<tag k="max_age" v="5" />
		<tag k="min_age" v="1" />
		<tag k="name" v="Kronen barnehage" />
		<tag k="no-barnehage:nsrid" v="975048284" />
		<tag k="operator" v="Kronen barnehage" />
		<tag k="operator:type" v="private" />
	</node>
	<node lat="60.37556" lon="5.34726" id="-4064">
		<tag k="ADDRESS" v="Edvard Griegs vei 29, 5053 BERGEN" />
		<tag k="amenity" v="kindergarten" />
		<tag k="capacity" v="59" />
		<tag k="contact:website" v="http://www.bergen.kommune.no/omkommunen/avdelinger/8147" />
		<tag k="max_age" v="5" />
		<tag k="min_age" v="1" />
		<tag k="name" v="Kronstad oppveksttun barnehage" />
		<tag k="no-barnehage:nsrid" v="928342700" />
		<tag k="operator" v="Bergen kommune" />
		<tag k="operator:type" v="public" />
	</node>
	<node lat="60.37864" lon="5.30214" id="-4065">
		<tag k="ADDRESS" v="Solhaugveien 13, 5161 LAKSEVÅG" />
		<tag k="amenity" v="kindergarten" />
		<tag k="capacity" v="14" />
		<tag k="max_age" v="2" />
		<tag k="min_age" v="1" />
		<tag k="name" v="Laksevåg barnehage avd. Solhaug" />
		<tag k="no-barnehage:nsrid" v="927770830" />
		<tag k="operator" v="Bergen kommune" />
		<tag k="operator:type" v="public" />
	</node>
	<node lat="60.37619" lon="5.3052" id="-4066">
		<tag k="ADDRESS" v="Sverre Hjetlands vei 17, 5161 LAKSEVÅG" />
		<tag k="amenity" v="kindergarten" />
		<tag k="capacity" v="30" />
		<tag k="contact:website" v="http://www.bergen.kommune.no/omkommunen/avdelinger/laksevag-barnehage" />
		<tag k="max_age" v="5" />
		<tag k="min_age" v="1" />
		<tag k="name" v="Laksevåg barnehage" />
		<tag k="no-barnehage:nsrid" v="974738902" />
		<tag k="operator" v="Bergen kommune" />
		<tag k="operator:type" v="public" />
	</node>
	<node lat="60.46056" lon="5.36495" id="-4067">
		<tag k="ADDRESS" v="Breimyra 90, 5134 FLAKTVEIT" />
		<tag k="amenity" v="kindergarten" />
		<tag k="capacity" v="55" />
		<tag k="contact:website" v="http://www.bergen.kommune.no/omkommunen/avdelinger/langerinden-barnehage" />
		<tag k="max_age" v="5" />
		<tag k="min_age" v="1" />
		<tag k="name" v="Langerinden barnehage" />
		<tag k="no-barnehage:nsrid" v="974739127" />
		<tag k="operator" v="Bergen kommune" />
		<tag k="operator:type" v="public" />
	</node>
	<node lat="60.36504" lon="5.34795" id="-4068">
		<tag k="ADDRESS" v="Jacob Aalls vei 26, 5063 BERGEN" />
		<tag k="amenity" v="kindergarten" />
		<tag k="capacity" v="77" />
		<tag k="contact:website" v="http://www.bergen.kommune.no/omkommunen/avdelinger/leaparken-barnehage" />
		<tag k="max_age" v="5" />
		<tag k="min_age" v="1" />
		<tag k="name" v="Leaparken barnehage" />
		<tag k="no-barnehage:nsrid" v="918305149" />
		<tag k="operator" v="Bergen kommune" />
		<tag k="operator:type" v="public" />
	</node>
	<node lat="60.35695" lon="5.28045" id="-4069">
		<tag k="ADDRESS" v="Løvåsveien 80, 5145 FYLLINGSDALEN" />
		<tag k="amenity" v="kindergarten" />
		<tag k="capacity" v="30" />
		<tag k="contact:website" v="http://lekeklossen.barnehage.no/" />
		<tag k="max_age" v="5" />
		<tag k="min_age" v="1" />
		<tag k="name" v="Lekeklossen Løvåsen barnehage" />
		<tag k="no-barnehage:nsrid" v="982974453" />
		<tag k="operator" v="Lekeklossen barnehage Løvåsen AS" />
		<tag k="operator:type" v="private" />
	</node>
	<node lat="60.36103" lon="5.28986" id="-4070">
		<tag k="ADDRESS" v="Storhammeren 21, 5145 FYLLINGSDALEN" />
		<tag k="amenity" v="kindergarten" />
		<tag k="capacity" v="18" />
		<tag k="contact:website" v="http://lekeklossen.barnehage.no/" />
		<tag k="max_age" v="5" />
		<tag k="min_age" v="1" />
		<tag k="name" v="Lekeklossen Storhammaren barnehage" />
		<tag k="no-barnehage:nsrid" v="991233792" />
		<tag k="operator" v="Lekeklossen barnehage Storhammeren AS" />
		<tag k="operator:type" v="private" />
	</node>
	<node lat="60.34584" lon="5.29427" id="-4071">
		<tag k="ADDRESS" v="Torgny Segerstedts vei 176, 5143 FYLLINGSDALEN" />
		<tag k="amenity" v="kindergarten" />
		<tag k="capacity" v="28" />
		<tag k="contact:website" v="http://lekeklossen.barnehage.no/" />
		<tag k="max_age" v="5" />
		<tag k="min_age" v="1" />
		<tag k="name" v="Lekeklossen Vestre barnehage" />
		<tag k="no-barnehage:nsrid" v="977202140" />
		<tag k="operator" v="Lekeklossen barnehage Vestre AS" />
		<tag k="operator:type" v="private" />
	</node>
	<node lat="60.46706" lon="5.34817" id="-4072">
		<tag k="ADDRESS" v="Liakroken 24A, 5132 NYBORG" />
		<tag k="amenity" v="kindergarten" />
		<tag k="capacity" v="82" />
		<tag k="contact:website" v="http://www.bergen.kommune.no/omkommunen/avdelinger/liakroken-barnehage" />
		<tag k="max_age" v="5" />
		<tag k="min_age" v="1" />
		<tag k="name" v="Liakroken barnehage" />
		<tag k="no-barnehage:nsrid" v="974739046" />
		<tag k="operator" v="Bergen kommune" />
		<tag k="operator:type" v="public" />
	</node>
	<node lat="60.28526" lon="5.24482" id="-4073">
		<tag k="ADDRESS" v="Lilandsvegen 70B, 5258 BLOMSTERDALEN" />
		<tag k="amenity" v="kindergarten" />
		<tag k="capacity" v="74" />
		<tag k="contact:website" v="http://liland.barnehage.no" />
		<tag k="max_age" v="5" />
		<tag k="min_age" v="1" />
		<tag k="name" v="Liland barnehage" />
		<tag k="no-barnehage:nsrid" v="988388440" />
		<tag k="operator" v="Liland barnehage AS" />
		<tag k="operator:type" v="private" />
	</node>
	<node lat="60.35293" lon="5.29637" id="-4074">
		<tag k="ADDRESS" v="Nebbeveien 20, 5144 FYLLINGSDALEN" />
		<tag k="amenity" v="kindergarten" />
		<tag k="contact:website" v="http://bergen.kirken.no/fyllingsdalen" />
		<tag k="name" v="Liten og Stor åpen barnehage" />
		<tag k="no-barnehage:nsrid" v="996000389" />
		<tag k="operator" v="Fyllingsdalen Sokn" />
		<tag k="operator:type" v="private" />
	</node>
	<node lat="60.37066" lon="5.30163" id="-4075">
		<tag k="ADDRESS" v="Øvre Fyllingsveien 85, 5146 FYLLINGSDALEN" />
		<tag k="amenity" v="kindergarten" />
		<tag k="capacity" v="163" />
		<tag k="contact:website" v="http://www.bergen.kommune.no/omkommunen/avdelinger/litlafjellet-barnehage" />
		<tag k="max_age" v="5" />
		<tag k="min_age" v="1" />
		<tag k="name" v="Litlafjellet barnehage" />
		<tag k="no-barnehage:nsrid" v="993530026" />
		<tag k="operator" v="Bergen kommune" />
		<tag k="operator:type" v="public" />
	</node>
	<node lat="60.36142" lon="5.22687" id="-4076">
		<tag k="ADDRESS" v="Vestre Vadmyra 2C, 5172 LODDEFJORD" />
		<tag k="amenity" v="kindergarten" />
		<tag k="capacity" v="56" />
		<tag k="contact:website" v="http://www.bergen.kommune.no/omkommunen/avdelinger/lyngfaret-barnehage" />
		<tag k="max_age" v="5" />
		<tag k="min_age" v="1" />
		<tag k="name" v="Lyngfaret barnehage" />
		<tag k="no-barnehage:nsrid" v="974738961" />
		<tag k="operator" v="Bergen kommune" />
		<tag k="operator:type" v="public" />
	</node>
	<node lat="60.34307" lon="5.29602" id="-4077">
		<tag k="ADDRESS" v="Lillehatten 3, 5148 FYLLINGSDALEN" />
		<tag k="amenity" v="kindergarten" />
		<tag k="capacity" v="85" />
		<tag k="contact:website" v="http://www.bergen.kommune.no/omkommunen/avdelinger/lyshovden-oppveksttun-barnehage" />
		<tag k="max_age" v="5" />
		<tag k="min_age" v="1" />
		<tag k="name" v="Lyshovden oppveksttun - barnehage" />
		<tag k="no-barnehage:nsrid" v="994657925" />
		<tag k="operator" v="Bergen kommune" />
		<tag k="operator:type" v="public" />
	</node>
	<node lat="60.28589" lon="5.24415" id="-4078">
		<tag k="ADDRESS" v="Lilandsvegen 78, 5258 BLOMSTERDALEN" />
		<tag k="amenity" v="kindergarten" />
		<tag k="capacity" v="45" />
		<tag k="max_age" v="5" />
		<tag k="min_age" v="1" />
		<tag k="name" v="Læringsverkstedet Blomsterdalen barnehage" />
		<tag k="no-barnehage:nsrid" v="974847795" />
		<tag k="operator" v="Læringsverkstedet Blomsterdalen barnehage AS" />
		<tag k="operator:type" v="private" />
	</node>
	<node lat="60.35096" lon="5.39224" id="-4079">
		<tag k="ADDRESS" v="Nye Sædalsveien 188, 5099 BERGEN" />
		<tag k="amenity" v="kindergarten" />
		<tag k="capacity" v="121" />
		<tag k="contact:website" v="http://laringsverkstedet.no/barnehage/fana-gards-og-friluftsbarnehage" />
		<tag k="max_age" v="5" />
		<tag k="min_age" v="1" />
		<tag k="name" v="Læringsverkstedet Fana gårds og friluftsbarnehage" />
		<tag k="no-barnehage:nsrid" v="991103813" />
		<tag k="operator" v="Læringsverkstedet Fana Gårds og friluftsbarnehage AS" />
		<tag k="operator:type" v="private" />
	</node>
	<node lat="60.29186" lon="5.32011" id="-4080">
		<tag k="ADDRESS" v="Grimseidvegen 37, 5239 RÅDAL" />
		<tag k="amenity" v="kindergarten" />
		<tag k="capacity" v="22" />
		<tag k="max_age" v="5" />
		<tag k="min_age" v="1" />
		<tag k="name" v="Læringsverkstedet Helgatun Solkollen barnehage" />
		<tag k="no-barnehage:nsrid" v="973456075" />
		<tag k="operator" v="Læringsverkstedet Helgatun Solkollen barnehage AS" />
		<tag k="operator:type" v="private" />
	</node>
	<node lat="60.36768" lon="5.18095" id="-4081">
		<tag k="ADDRESS" v="Janaveien 157, 5179 GODVIK" />
		<tag k="amenity" v="kindergarten" />
		<tag k="capacity" v="90" />
		<tag k="contact:website" v="http://laringsverkstedet.no/barnehage/kanutten/" />
		<tag k="max_age" v="5" />
		<tag k="min_age" v="1" />
		<tag k="name" v="Læringsverkstedet Kanutten barnehage" />
		<tag k="no-barnehage:nsrid" v="987711779" />
		<tag k="operator" v="Læringsverkstedet Kanutten barnehage AS" />
		<tag k="operator:type" v="private" />
	</node>
	<node lat="60.37352" lon="5.22964" id="-4082">
		<tag k="ADDRESS" v="Kjøkkelvikveien 26, 5178 LODDEFJORD" />
		<tag k="amenity" v="kindergarten" />
		<tag k="capacity" v="79" />
		<tag k="contact:website" v="http://www.laringsverkstedet.no" />
		<tag k="max_age" v="5" />
		<tag k="min_age" v="1" />
		<tag k="name" v="Læringsverkstedet Kjøkkelvik barnehage" />
		<tag k="no-barnehage:nsrid" v="987280107" />
		<tag k="operator" v="Læringsverkstedet Kjøkkelvik barnehage AS" />
		<tag k="operator:type" v="private" />
	</node>
	<node lat="60.25431" lon="5.26387" id="-4083">
		<tag k="ADDRESS" v="Mildevegen 146, 5259 HJELLESTAD" />
		<tag k="amenity" v="kindergarten" />
		<tag k="capacity" v="90" />
		<tag k="contact:website" v="http://laringsverkstedet.no/barnehage/krokusbakken" />
		<tag k="max_age" v="5" />
		<tag k="min_age" v="1" />
		<tag k="name" v="Læringsverkstedet Krokusbakken barnehage" />
		<tag k="no-barnehage:nsrid" v="989625934" />
		<tag k="operator" v="Læringsverkstedet Krokusbakken barnehage AS" />
		<tag k="operator:type" v="private" />
	</node>
	<node lat="60.26596" lon="5.35861" id="-4084">
		<tag k="ADDRESS" v="Nordheimsvegen 24, 5243 FANA" />
		<tag k="amenity" v="kindergarten" />
		<tag k="capacity" v="54" />
		<tag k="contact:website" v="http://laringsverkstedet.no/barnehage/kvernabekken" />
		<tag k="max_age" v="5" />
		<tag k="min_age" v="1" />
		<tag k="name" v="Læringsverkstedet Kvernabekken barnehage" />
		<tag k="no-barnehage:nsrid" v="976729919" />
		<tag k="operator" v="Læringsverkstedet Kvernabekken barnehage AS" />
		<tag k="operator:type" v="private" />
	</node>
	<node lat="60.33669" lon="5.20338" id="-4085">
		<tag k="ADDRESS" v="Kongsmyrveien 45, 5174 MATHOPEN" />
		<tag k="amenity" v="kindergarten" />
		<tag k="capacity" v="67" />
		<tag k="contact:website" v="http://laringsverkstedet.no/barnehage/l%C3%A6ringsverkstedet-mathopen-1" />
		<tag k="max_age" v="5" />
		<tag k="min_age" v="1" />
		<tag k="name" v="Læringsverkstedet Mathopen barnehage" />
		<tag k="no-barnehage:nsrid" v="997645545" />
		<tag k="operator" v="Læringsverkstedet Mathopen barnehage AS" />
		<tag k="operator:type" v="private" />
	</node>
	<node lat="60.32164" lon="5.363" id="-4086">
		<tag k="ADDRESS" v="Midtunheia 18, 5224 NESTTUN" />
		<tag k="amenity" v="kindergarten" />
		<tag k="capacity" v="59" />
		<tag k="contact:website" v="http://laringsverkstedet.no/barnehage/midtunbratet-doremi" />
		<tag k="max_age" v="5" />
		<tag k="min_age" v="1" />
		<tag k="name" v="Læringsverkstedet Midtunbråtet Doremi barnehage" />
		<tag k="no-barnehage:nsrid" v="999069312" />
		<tag k="operator" v="Læringsverkstedet Midtunbråtet Doremi barnehage AS" />
		<tag k="operator:type" v="private" />
	</node>
	<node lat="60.29877" lon="5.30167" id="-4087">
		<tag k="ADDRESS" v="Steinsvikkroken 2, 5237 RÅDAL" />
		<tag k="amenity" v="kindergarten" />
		<tag k="capacity" v="89" />
		<tag k="contact:website" v="http://laringsverkstedet.no/barnehage/steinsvikkroken" />
		<tag k="max_age" v="5" />
		<tag k="min_age" v="1" />
		<tag k="name" v="Læringsverkstedet Steinsvikkroken barnehage" />
		<tag k="no-barnehage:nsrid" v="993601918" />
		<tag k="operator" v="Læringsverkstedet Steinsvikkroken barnehage AS" />
		<tag k="operator:type" v="private" />
	</node>
	<node lat="60.31567" lon="5.2726" id="-4088">
		<tag k="ADDRESS" v="Steinsvikvegen 4, 5251 SØREIDGREND" />
		<tag k="amenity" v="kindergarten" />
		<tag k="capacity" v="116" />
		<tag k="max_age" v="5" />
		<tag k="min_age" v="1" />
		<tag k="name" v="Læringsverkstedet Søreidtunet barnehage" />
		<tag k="no-barnehage:nsrid" v="994235222" />
		<tag k="operator" v="Læringsverkstedet Søreidtunet barnehage AS" />
		<tag k="operator:type" v="private" />
	</node>
	<node lat="60.44968" lon="5.30378" id="-4089">
		<tag k="ADDRESS" v="Åstveitveien 73, 5106 ØVRE ERVIK" />
		<tag k="amenity" v="kindergarten" />
		<tag k="capacity" v="18" />
		<tag k="contact:website" v="http://laringsverkstedet.no/barnehage/våganeset" />
		<tag k="max_age" v="5" />
		<tag k="min_age" v="1" />
		<tag k="name" v="Læringsverkstedet Våganeset Maritime barnehage" />
		<tag k="no-barnehage:nsrid" v="990265631" />
		<tag k="operator" v="Læringsverkstedet Våganeset Maritime barnehage AS" />
		<tag k="operator:type" v="private" />
	</node>
	<node lat="60.45929" lon="5.35861" id="-4090">
		<tag k="ADDRESS" v="Hjortlandsvegen 61, 5135 FLAKTVEIT" />
		<tag k="amenity" v="kindergarten" />
		<tag k="capacity" v="90" />
		<tag k="contact:website" v="http://laringsverkstedet.no/barnehage/aasane" />
		<tag k="max_age" v="5" />
		<tag k="min_age" v="1" />
		<tag k="name" v="Læringsverkstedet Åsane gårds- og friluftsbarnehage" />
		<tag k="no-barnehage:nsrid" v="985366853" />
		<tag k="operator" v="Læringsverkstedet Åsane Gårds- og friluftsbarnehage AS" />
		<tag k="operator:type" v="private" />
	</node>
	<node lat="60.3373" lon="5.31883" id="-4091">
		<tag k="ADDRESS" v="Øvre Kråkenes 64, 5152 BØNES" />
		<tag k="amenity" v="kindergarten" />
		<tag k="capacity" v="26" />
		<tag k="contact:website" v="http://lovstakken.barnehage.no" />
		<tag k="max_age" v="5" />
		<tag k="min_age" v="1" />
		<tag k="name" v="Løvstakken barnehage" />
		<tag k="no-barnehage:nsrid" v="976094034" />
		<tag k="operator" v="Løvstakken barnehage AS" />
		<tag k="operator:type" v="private" />
	</node>
	<node lat="60.35355" lon="5.29173" id="-4092">
		<tag k="ADDRESS" v="Nebbeveien 1, 5144 FYLLINGSDALEN" />
		<tag k="amenity" v="kindergarten" />
		<tag k="capacity" v="65" />
		<tag k="contact:website" v="http://www.bergen.kommune.no/omkommunen/avdelinger/lovas-oppveksttun-barnehage" />
		<tag k="max_age" v="5" />
		<tag k="min_age" v="1" />
		<tag k="name" v="Løvås oppveksttun - barnehage" />
		<tag k="no-barnehage:nsrid" v="994657887" />
		<tag k="operator" v="Bergen kommune" />
		<tag k="operator:type" v="public" />
	</node>
	<node lat="0.0" lon="0.0" id="-4093">
		<tag k="ADDRESS" v="Conrad Mohrsvei 40, 5072 BERGEN" />
		<tag k="amenity" v="kindergarten" />
		<tag k="capacity" v="54" />
		<tag k="contact:website" v="http://laaven.barnehage.no" />
		<tag k="max_age" v="5" />
		<tag k="min_age" v="1" />
		<tag k="name" v="Låven barnehage" />
		<tag k="no-barnehage:nsrid" v="973501313" />
		<tag k="operator" v="Låven barnehage" />
		<tag k="operator:type" v="private" />
	</node>
	<node lat="60.35365" lon="5.3662" id="-4094">
		<tag k="ADDRESS" v="Mannsverk 8, 5094 BERGEN" />
		<tag k="amenity" v="kindergarten" />
		<tag k="capacity" v="41" />
		<tag k="contact:website" v="http://www.bergen.kommune.no/omkommunen/avdelinger/mannsverk-barnehage" />
		<tag k="max_age" v="5" />
		<tag k="min_age" v="1" />
		<tag k="name" v="Mannsverk barnehage" />
		<tag k="no-barnehage:nsrid" v="974738848" />
		<tag k="operator" v="Bergen kommune" />
		<tag k="operator:type" v="public" />
	</node>
	<node lat="60.40158" lon="5.32777" id="-4095">
		<tag k="ADDRESS" v="Breistølsveien 2A, 5034 BERGEN" />
		<tag k="amenity" v="kindergarten" />
		<tag k="contact:website" v="http://bergendomkirke.no/barn-og-unge/apne-barnehager/" />
		<tag k="name" v="Mariakirken åpen barnehage" />
		<tag k="no-barnehage:nsrid" v="994915959" />
		<tag k="operator" v="Bergen Domkirke Sokn" />
		<tag k="operator:type" v="private" />
	</node>
	<node lat="60.38129" lon="5.33006" id="-4096">
		<tag k="ADDRESS" v="Thormøhlens gate 53E, 5006 BERGEN" />
		<tag k="amenity" v="kindergarten" />
		<tag k="capacity" v="32" />
		<tag k="contact:website" v="http://www.marineholmenbarnehage.info" />
		<tag k="max_age" v="5" />
		<tag k="min_age" v="1" />
		<tag k="name" v="Marineholmen barnehage Drift" />
		<tag k="no-barnehage:nsrid" v="992779632" />
		<tag k="operator" v="Marineholmen barnehage Drift AS" />
		<tag k="operator:type" v="private" />
	</node>
	<node lat="60.39197" lon="5.33234" id="-4097">
		<tag k="ADDRESS" v="Kong Oscars gate 55, 5017 BERGEN" />
		<tag k="amenity" v="kindergarten" />
		<tag k="capacity" v="28" />
		<tag k="contact:website" v="http://www.bergen.kommune.no/omkommunen/avdelinger/marken-barnehage" />
		<tag k="max_age" v="5" />
		<tag k="min_age" v="1" />
		<tag k="name" v="Marken barnehage" />
		<tag k="no-barnehage:nsrid" v="974739143" />
		<tag k="operator" v="Bergen kommune" />
		<tag k="operator:type" v="public" />
	</node>
	<node lat="60.36091" lon="5.35213" id="-4098">
		<tag k="ADDRESS" v="Bendixens vei 49, 5067 BERGEN" />
		<tag k="amenity" v="kindergarten" />
		<tag k="capacity" v="145" />
		<tag k="contact:website" v="http://www.bergen.kommune.no/omkommunen/avdelinger/minde-barnehage" />
		<tag k="max_age" v="5" />
		<tag k="min_age" v="1" />
		<tag k="name" v="Minde barnehage" />
		<tag k="no-barnehage:nsrid" v="974739070" />
		<tag k="operator" v="Bergen kommune" />
		<tag k="operator:type" v="public" />
	</node>
	<node lat="60.35095" lon="5.29376" id="-4099">
		<tag k="ADDRESS" v="Nebbestølen 85, 5144 FYLLINGSDALEN" />
		<tag k="amenity" v="kindergarten" />
		<tag k="capacity" v="41" />
		<tag k="contact:website" v="http://minken.barnehage.no" />
		<tag k="max_age" v="5" />
		<tag k="min_age" v="1" />
		<tag k="name" v="Minken barnehage" />
		<tag k="no-barnehage:nsrid" v="872236112" />
		<tag k="operator" v="Minken barnehage AS" />
		<tag k="operator:type" v="private" />
	</node>
	<node lat="60.46951" lon="5.2794" id="-4100">
		<tag k="ADDRESS" v="Morvikbotn 174, 5122 MORVIK" />
		<tag k="amenity" v="kindergarten" />
		<tag k="capacity" v="53" />
		<tag k="contact:website" v="http://www.bergen.kommune.no/omkommunen/avdelinger/morvikbotn-barnehage" />
		<tag k="max_age" v="5" />
		<tag k="min_age" v="1" />
		<tag k="name" v="Morvikbotn barnehage" />
		<tag k="no-barnehage:nsrid" v="874739162" />
		<tag k="operator" v="Bergen kommune" />
		<tag k="operator:type" v="public" />
	</node>
	<node lat="60.40539" lon="5.33087" id="-4101">
		<tag k="ADDRESS" v="Mulesvingen 2, 5034 BERGEN" />
		<tag k="amenity" v="kindergarten" />
		<tag k="capacity" v="70" />
		<tag k="contact:website" v="http://www.bergen.kommune.no/omkommunen/avdelinger/mulesvingen-barnehage" />
		<tag k="max_age" v="5" />
		<tag k="min_age" v="1" />
		<tag k="name" v="Mulesvingen barnehage" />
		<tag k="no-barnehage:nsrid" v="992685530" />
		<tag k="operator" v="Bergen kommune" />
		<tag k="operator:type" v="public" />
	</node>
	<node lat="60.34396" lon="5.18794" id="-4102">
		<tag k="ADDRESS" v="Håkonshellaveien 120, 5174 MATHOPEN" />
		<tag k="amenity" v="kindergarten" />
		<tag k="capacity" v="79" />
		<tag k="contact:website" v="http://www.myrengårdsbarnehage.no" />
		<tag k="max_age" v="5" />
		<tag k="min_age" v="1" />
		<tag k="name" v="Myren gårdsbarnehage" />
		<tag k="no-barnehage:nsrid" v="915787185" />
		<tag k="operator" v="Myren gårdsbarnehage AS" />
		<tag k="operator:type" v="private" />
	</node>
	<node lat="60.34527" lon="5.27197" id="-4103">
		<tag k="ADDRESS" v="Myrholtet 133, 5142 FYLLINGSDALEN" />
		<tag k="amenity" v="kindergarten" />
		<tag k="capacity" v="39" />
		<tag k="contact:website" v="http://www.bergen.kommune.no/omkommunen/avdelinger/myrholtet-barnehage" />
		<tag k="max_age" v="5" />
		<tag k="min_age" v="1" />
		<tag k="name" v="Myrholtet barnehage" />
		<tag k="no-barnehage:nsrid" v="974738899" />
		<tag k="operator" v="Bergen kommune" />
		<tag k="operator:type" v="public" />
	</node>
	<node lat="60.38309" lon="5.32257" id="-4104">
		<tag k="ADDRESS" v="Thormøhlens gate 25, 5006 BERGEN" />
		<tag k="amenity" v="kindergarten" />
		<tag k="capacity" v="71" />
		<tag k="contact:website" v="http://www.bergen.kommune.no/omkommunen/avdelinger/mohlenpris-oppveksttun-barnehage" />
		<tag k="max_age" v="5" />
		<tag k="min_age" v="1" />
		<tag k="name" v="Møhlenpris oppveksttun - barnehage" />
		<tag k="no-barnehage:nsrid" v="918305254" />
		<tag k="operator" v="Bergen kommune" />
		<tag k="operator:type" v="public" />
	</node>
	<node lat="60.34751" lon="5.37777" id="-4105">
		<tag k="ADDRESS" v="Nattlandsrinden 71, 5098 BERGEN" />
		<tag k="amenity" v="kindergarten" />
		<tag k="capacity" v="29" />
		<tag k="contact:website" v="http://www.bergen.kommune.no/omkommunen/avdelinger/natlandsfjellet-barnehage" />
		<tag k="max_age" v="5" />
		<tag k="min_age" v="1" />
		<tag k="name" v="Natlandsfjellet barnehage" />
		<tag k="no-barnehage:nsrid" v="974739291" />
		<tag k="operator" v="Bergen kommune" />
		<tag k="operator:type" v="public" />
	</node>
	<node lat="60.33669" lon="5.37311" id="-4106">
		<tag k="ADDRESS" v="Merkurvegen 30, 5099 BERGEN" />
		<tag k="amenity" v="kindergarten" />
		<tag k="capacity" v="9" />
		<tag k="contact:website" v="http://www.bergen.kommune.no/omkommunen/avdelinger/nattland-oppveksttun-barnehage" />
		<tag k="max_age" v="5" />
		<tag k="min_age" v="1" />
		<tag k="name" v="Nattland oppveksttun - barnehage" />
		<tag k="no-barnehage:nsrid" v="918305270" />
		<tag k="operator" v="Bergen kommune" />
		<tag k="operator:type" v="public" />
	</node>
	<node lat="60.33899" lon="5.32024" id="-4107">
		<tag k="ADDRESS" v="Øvre Kråkenes 49, 5152 BØNES" />
		<tag k="amenity" v="kindergarten" />
		<tag k="capacity" v="39" />
		<tag k="contact:website" v="http://naturbasen.no" />
		<tag k="max_age" v="5" />
		<tag k="min_age" v="1" />
		<tag k="name" v="Naturbasen barnehage friluftsbarnehage" />
		<tag k="no-barnehage:nsrid" v="914985560" />
		<tag k="operator" v="Naturbasen barnehage AS" />
		<tag k="operator:type" v="private" />
	</node>
	<node lat="60.35257" lon="5.29166" id="-4108">
		<tag k="ADDRESS" v="Folke Bernadottes vei 32, 5147 FYLLINGSDALEN" />
		<tag k="amenity" v="kindergarten" />
		<tag k="capacity" v="58" />
		<tag k="contact:website" v="http://www.bergen.kommune.no/omkommunen/avdelinger/nebbestolen-barnehage" />
		<tag k="max_age" v="5" />
		<tag k="min_age" v="1" />
		<tag k="name" v="Nebbestølen barnehage" />
		<tag k="no-barnehage:nsrid" v="974738937" />
		<tag k="operator" v="Bergen kommune" />
		<tag k="operator:type" v="public" />
	</node>
	<node lat="60.37344" lon="5.46506" id="-4109">
		<tag k="ADDRESS" v="Neset 57, 5267 ESPELAND" />
		<tag k="amenity" v="kindergarten" />
		<tag k="capacity" v="80" />
		<tag k="contact:website" v="http://www.bergen.kommune.no/omkommunen/avdelinger/neshaugane-barnehage" />
		<tag k="max_age" v="5" />
		<tag k="min_age" v="1" />
		<tag k="name" v="Neshaugane barnehage" />
		<tag k="no-barnehage:nsrid" v="998178991" />
		<tag k="operator" v="Bergen kommune" />
		<tag k="operator:type" v="public" />
	</node>
	<node lat="60.31061" lon="5.3632" id="-4110">
		<tag k="ADDRESS" v="Øvsttunvegen 58, 5223 NESTTUN" />
		<tag k="amenity" v="kindergarten" />
		<tag k="capacity" v="18" />
		<tag k="contact:website" v="http://nibarnehage.no/" />
		<tag k="max_age" v="5" />
		<tag k="min_age" v="1" />
		<tag k="name" v="Nesttun Indremisjons barnehage" />
		<tag k="no-barnehage:nsrid" v="973304143" />
		<tag k="operator" v="Nesttun Indremisjon" />
		<tag k="operator:type" v="private" />
	</node>
	<node lat="60.51782" lon="5.30737" id="-4111">
		<tag k="ADDRESS" v="Hordvikvegen 131, 5108 HORDVIK" />
		<tag k="amenity" v="kindergarten" />
		<tag k="capacity" v="56" />
		<tag k="contact:website" v="http://hordvik.barnehage.no/" />
		<tag k="max_age" v="5" />
		<tag k="min_age" v="1" />
		<tag k="name" v="Preg barnehage" />
		<tag k="no-barnehage:nsrid" v="990664048" />
		<tag k="operator" v="Nlm-Barnehage Hordvik AS" />
		<tag k="operator:type" v="private" />
	</node>
	<node lat="60.39085" lon="5.32044" id="-4112">
		<tag k="ADDRESS" v="Sigurds gate 6, 5015 BERGEN" />
		<tag k="amenity" v="kindergarten" />
		<tag k="name" v="Nlm-barnehage Salem åpen" />
		<tag k="no-barnehage:nsrid" v="993638943" />
		<tag k="operator" v="Nlm-Barnehage Salem åpen barnehage AS" />
		<tag k="operator:type" v="private" />
	</node>
	<node lat="60.38017" lon="5.27121" id="-4113">
		<tag k="ADDRESS" v="Lyngbøveien 83, 5164 LAKSEVÅG" />
		<tag k="amenity" v="kindergarten" />
		<tag k="capacity" v="25" />
		<tag k="contact:website" v="http://solglott.barnehage.no/" />
		<tag k="max_age" v="5" />
		<tag k="min_age" v="1" />
		<tag k="name" v="Preg barnehager Lyngbø" />
		<tag k="no-barnehage:nsrid" v="975183149" />
		<tag k="operator" v="Nlm-Barnehage Solgløtt AS" />
		<tag k="operator:type" v="private" />
	</node>
	<node lat="60.45782" lon="5.43962" id="-4114">
		<tag k="ADDRESS" v="Peter Jebsens veg 39, 5265 YTRE ARNA" />
		<tag k="amenity" v="kindergarten" />
		<tag k="name" v="Noa åpen barnehage" />
		<tag k="no-barnehage:nsrid" v="994947362" />
		<tag k="operator" v="Ytre Arna Sokn" />
		<tag k="operator:type" v="private" />
	</node>
	<node lat="60.3163" lon="5.27292" id="-4115">
		<tag k="ADDRESS" v="Steinsvikvegen 6, 5251 SØREIDGREND" />
		<tag k="amenity" v="kindergarten" />
		<tag k="capacity" v="85" />
		<tag k="contact:website" v="http://www.bergen.kommune.no/omkommunen/avdelinger/nordeide-barnehage" />
		<tag k="max_age" v="5" />
		<tag k="min_age" v="1" />
		<tag k="name" v="Nordeide barnehage" />
		<tag k="no-barnehage:nsrid" v="973304100" />
		<tag k="operator" v="Bergen kommune" />
		<tag k="operator:type" v="public" />
	</node>
	<node lat="60.3973" lon="5.30817" id="-4116">
		<tag k="ADDRESS" v="Nordnesparken 3, 5005 BERGEN" />
		<tag k="amenity" v="kindergarten" />
		<tag k="capacity" v="35" />
		<tag k="contact:website" v="http://www.bergen.kommune.no/omkommunen/avdelinger/nordnes-oppveksttun-barnehage" />
		<tag k="max_age" v="5" />
		<tag k="min_age" v="1" />
		<tag k="name" v="Nordnes oppveksttun avd. barnehage" />
		<tag k="no-barnehage:nsrid" v="924539011" />
		<tag k="operator" v="Bergen kommune" />
		<tag k="operator:type" v="public" />
	</node>
	<node lat="60.30455" lon="5.30897" id="-4117">
		<tag k="ADDRESS" v="Nordåsvegen 179, 5235 RÅDAL" />
		<tag k="amenity" v="kindergarten" />
		<tag k="capacity" v="57" />
		<tag k="contact:website" v="http://www.bergen.kommune.no/omkommunen/avdelinger/nordas-barnehage" />
		<tag k="max_age" v="5" />
		<tag k="min_age" v="1" />
		<tag k="name" v="Nordås barnehage" />
		<tag k="no-barnehage:nsrid" v="974739100" />
		<tag k="operator" v="Bergen kommune" />
		<tag k="operator:type" v="public" />
	</node>
	<node lat="60.30941" lon="5.32339" id="-4118">
		<tag k="ADDRESS" v="Nordåsgrenda 88, 5235 RÅDAL" />
		<tag k="amenity" v="kindergarten" />
		<tag k="capacity" v="26" />
		<tag k="contact:website" v="http://nordasgrenda.barnehage.no/" />
		<tag k="max_age" v="5" />
		<tag k="min_age" v="1" />
		<tag k="name" v="Nordås Selegrend Kunst- og musikkbarnehage" />
		<tag k="no-barnehage:nsrid" v="995096471" />
		<tag k="operator" v="Nordås Selegrend Borettslag" />
		<tag k="operator:type" v="private" />
	</node>
	<node lat="60.2938" lon="5.27806" id="-4119">
		<tag k="ADDRESS" v="Sandslimarka 183, 5254 SANDSLI" />
		<tag k="amenity" v="kindergarten" />
		<tag k="capacity" v="58" />
		<tag k="contact:website" v="http://capella.norlandiabarnehagene.no/" />
		<tag k="max_age" v="5" />
		<tag k="min_age" v="1" />
		<tag k="name" v="Norlandia Capella barnehage" />
		<tag k="no-barnehage:nsrid" v="811616532" />
		<tag k="operator" v="Norlandia Capella barnehage AS" />
		<tag k="operator:type" v="private" />
	</node>
	<node lat="60.38713" lon="5.22276" id="-4120">
		<tag k="ADDRESS" v="Lerums vei 22, 5178 LODDEFJORD" />
		<tag k="amenity" v="kindergarten" />
		<tag k="capacity" v="99" />
		<tag k="contact:website" v="http://www.norlandiabarnehagene.no" />
		<tag k="max_age" v="5" />
		<tag k="min_age" v="1" />
		<tag k="name" v="Norlandia Festeråsen barnehage" />
		<tag k="no-barnehage:nsrid" v="915345875" />
		<tag k="operator" v="Norlandia Festeråsen barnehage AS" />
		<tag k="operator:type" v="private" />
	</node>
	<node lat="60.4562" lon="5.32921" id="-4121">
		<tag k="ADDRESS" v="Rollandslia 269, 5115 ULSET" />
		<tag k="amenity" v="kindergarten" />
		<tag k="capacity" v="109" />
		<tag k="contact:website" v="http://norlandiabarnehagene.no/rollandslia" />
		<tag k="max_age" v="5" />
		<tag k="min_age" v="1" />
		<tag k="name" v="Norlandia Rollandslia barnehage" />
		<tag k="no-barnehage:nsrid" v="990918880" />
		<tag k="operator" v="Norlandia Rollandslia barnehage AS" />
		<tag k="operator:type" v="private" />
	</node>
	<node lat="60.38474" lon="5.35006" id="-4122">
		<tag k="ADDRESS" v="Kalfarveien 79, 5022 BERGEN" />
		<tag k="amenity" v="kindergarten" />
		<tag k="capacity" v="38" />
		<tag k="contact:website" v="http://nubb1.barnehage.no/" />
		<tag k="max_age" v="5" />
		<tag k="min_age" v="1" />
		<tag k="name" v="Nubben barnehage" />
		<tag k="no-barnehage:nsrid" v="991858733" />
		<tag k="operator" v="Nubben barnehage AS" />
		<tag k="operator:type" v="private" />
	</node>
	<node lat="60.37532" lon="5.33353" id="-4123">
		<tag k="ADDRESS" v="Rogagaten 9, 5055 BERGEN" />
		<tag k="amenity" v="kindergarten" />
		<tag k="capacity" v="55" />
		<tag k="contact:website" v="http://www.bergen.kommune.no/omkommunen/avdelinger/ny-krohnborg-avdeling-barnehage" />
		<tag k="max_age" v="5" />
		<tag k="min_age" v="1" />
		<tag k="name" v="Ny Krohnborg barnehage" />
		<tag k="no-barnehage:nsrid" v="974739240" />
		<tag k="operator" v="Bergen kommune" />
		<tag k="operator:type" v="public" />
	</node>
	<node lat="60.38772" lon="5.27345" id="-4124">
		<tag k="ADDRESS" v="Alfred Offerdals vei 24, 5165 LAKSEVÅG" />
		<tag k="amenity" v="kindergarten" />
		<tag k="capacity" v="48" />
		<tag k="contact:website" v="http://www.bergen.kommune.no/omkommunen/avdelinger/nygard-barnehage" />
		<tag k="max_age" v="5" />
		<tag k="min_age" v="1" />
		<tag k="name" v="Nygård barnehage" />
		<tag k="no-barnehage:nsrid" v="973383620" />
		<tag k="operator" v="Bergen kommune" />
		<tag k="operator:type" v="public" />
	</node>
	<node lat="60.39639" lon="5.31132" id="-4125">
		<tag k="ADDRESS" v="Haugeveien 1C, 5005 BERGEN" />
		<tag k="amenity" v="kindergarten" />
		<tag k="capacity" v="49" />
		<tag k="contact:website" v="http://www.bergen.kommune.no/omkommunen/avdelinger/nykirken-barnehage" />
		<tag k="max_age" v="5" />
		<tag k="min_age" v="1" />
		<tag k="name" v="Nykirken barnehage" />
		<tag k="no-barnehage:nsrid" v="973334743" />
		<tag k="operator" v="Bergen kommune" />
		<tag k="operator:type" v="public" />
	</node>
	<node lat="60.39648" lon="5.31109" id="-4126">
		<tag k="ADDRESS" v="Fredriksbergsgaten 4, 5005 BERGEN" />
		<tag k="amenity" v="kindergarten" />
		<tag k="contact:website" v="http://bergendomkirke.no/barn-og-unge/apne-barnehager/" />
		<tag k="name" v="Nykirken åpen barnehage" />
		<tag k="no-barnehage:nsrid" v="994915274" />
		<tag k="operator" v="Bergen Domkirke Sokn" />
		<tag k="operator:type" v="private" />
	</node>
	<node lat="60.37865" lon="5.2189" id="-4127">
		<tag k="ADDRESS" v="Olsvikåsen 109, 5183 OLSVIK" />
		<tag k="amenity" v="kindergarten" />
		<tag k="contact:website" v="http://www.olsvik-kirke.no/" />
		<tag k="name" v="Olsvik menighets åpen barnehage" />
		<tag k="no-barnehage:nsrid" v="996004783" />
		<tag k="operator" v="Olsvik Sokn" />
		<tag k="operator:type" v="private" />
	</node>
	<node lat="60.38272" lon="5.21661" id="-4128">
		<tag k="ADDRESS" v="Olsvikåsen 33A, 5183 OLSVIK" />
		<tag k="amenity" v="kindergarten" />
		<tag k="capacity" v="57" />
		<tag k="contact:website" v="http://www.bergen.kommune.no/omkommunen/avdelinger/olsvikparken-barnehage" />
		<tag k="max_age" v="5" />
		<tag k="min_age" v="1" />
		<tag k="name" v="Olsvikparken barnehage" />
		<tag k="no-barnehage:nsrid" v="974739089" />
		<tag k="operator" v="Bergen kommune" />
		<tag k="operator:type" v="public" />
	</node>
	<node lat="60.38054" lon="5.21888" id="-4129">
		<tag k="ADDRESS" v="Olsvikåsen 36, 5183 OLSVIK" />
		<tag k="amenity" v="kindergarten" />
		<tag k="capacity" v="60" />
		<tag k="contact:website" v="http://olsvikasen.kanvas.no/" />
		<tag k="max_age" v="5" />
		<tag k="min_age" v="1" />
		<tag k="name" v="Olsvikåsen Kanvas-barnehage" />
		<tag k="no-barnehage:nsrid" v="973076485" />
		<tag k="operator" v="Stiftelsen Kanvas" />
		<tag k="operator:type" v="private" />
	</node>
	<node lat="60.33779" lon="5.35359" id="-4130">
		<tag k="ADDRESS" v="Birkelundsbakken 7, 5231 PARADIS" />
		<tag k="amenity" v="kindergarten" />
		<tag k="capacity" v="90" />
		<tag k="contact:website" v="http://www.bergen.kommune.no/omkommunen/avdelinger/paradis-barnehage" />
		<tag k="max_age" v="5" />
		<tag k="min_age" v="1" />
		<tag k="name" v="Paradis barnehage" />
		<tag k="no-barnehage:nsrid" v="972181161" />
		<tag k="operator" v="Bergen kommune" />
		<tag k="operator:type" v="public" />
	</node>
	<node lat="60.30122" lon="5.29196" id="-4131">
		<tag k="ADDRESS" v="Petedalsheia 166, 5254 SANDSLI" />
		<tag k="amenity" v="kindergarten" />
		<tag k="capacity" v="55" />
		<tag k="contact:website" v="http://www.bergen.kommune.no/omkommunen/avdelinger/petedalsheia-barnehage" />
		<tag k="max_age" v="5" />
		<tag k="min_age" v="1" />
		<tag k="name" v="Petedalsheia barnehage" />
		<tag k="no-barnehage:nsrid" v="974739135" />
		<tag k="operator" v="Bergen kommune" />
		<tag k="operator:type" v="public" />
	</node>
	<node lat="60.31831" lon="5.36234" id="-4132">
		<tag k="ADDRESS" v="Midtunhaugen 12, 5224 NESTTUN" />
		<tag k="amenity" v="kindergarten" />
		<tag k="capacity" v="27" />
		<tag k="contact:website" v="http://prismen.kanvas.no" />
		<tag k="max_age" v="5" />
		<tag k="min_age" v="1" />
		<tag k="name" v="Prismen Kanvas-barnehage" />
		<tag k="no-barnehage:nsrid" v="983878008" />
		<tag k="operator" v="Stiftelsen Kanvas" />
		<tag k="operator:type" v="private" />
	</node>
	<node lat="60.31435" lon="5.33772" id="-4133">
		<tag k="ADDRESS" v="Sundts veg 150, 5221 NESTTUN" />
		<tag k="amenity" v="kindergarten" />
		<tag k="capacity" v="81" />
		<tag k="contact:website" v="http://www.bergen.kommune.no/omkommunen/avdelinger/ramstad-barnehage" />
		<tag k="max_age" v="5" />
		<tag k="min_age" v="1" />
		<tag k="name" v="Ramstad barnehage" />
		<tag k="no-barnehage:nsrid" v="913205820" />
		<tag k="operator" v="Bergen kommune" />
		<tag k="operator:type" v="public" />
	</node>
	<node lat="60.46304" lon="5.33196" id="-4134">
		<tag k="ADDRESS" v="Åslia 7, 5115 ULSET" />
		<tag k="amenity" v="kindergarten" />
		<tag k="capacity" v="68" />
		<tag k="contact:website" v="http://www.bergen.kommune.no/omkommunen/avdelinger/rolland-ulsetasen-barnehage" />
		<tag k="max_age" v="5" />
		<tag k="min_age" v="1" />
		<tag k="name" v="Rolland-ulsetåsen barnehage" />
		<tag k="no-barnehage:nsrid" v="974739372" />
		<tag k="operator" v="Bergen kommune" />
		<tag k="operator:type" v="public" />
	</node>
	<node lat="60.31112" lon="5.32836" id="-4135">
		<tag k="ADDRESS" v="Harald Skjolds veg 42, 5236 RÅDAL" />
		<tag k="amenity" v="kindergarten" />
		<tag k="capacity" v="44" />
		<tag k="contact:website" v="http://www.rosenhagen.steinerbarnehage.no" />
		<tag k="max_age" v="5" />
		<tag k="min_age" v="1" />
		<tag k="name" v="Rosenhagen Steinerbarnehage" />
		<tag k="no-barnehage:nsrid" v="973455710" />
		<tag k="operator" v="Stiftelsen Rosenhagen steinerbarnehage" />
		<tag k="operator:type" v="private" />
	</node>
	<node lat="60.38901" lon="5.32103" id="-4136">
		<tag k="ADDRESS" v="Olav Kyrres gate 59, 5015 BERGEN" />
		<tag k="amenity" v="kindergarten" />
		<tag k="capacity" v="39" />
		<tag k="contact:website" v="http://www.bergen.kommune.no/omkommunen/avdelinger/rosetarnet-barnehage" />
		<tag k="max_age" v="5" />
		<tag k="min_age" v="1" />
		<tag k="name" v="Rosetårnet barnehage" />
		<tag k="no-barnehage:nsrid" v="975198987" />
		<tag k="operator" v="Bergen kommune" />
		<tag k="operator:type" v="public" />
	</node>
	<node lat="60.29152" lon="5.32134" id="-4137">
		<tag k="ADDRESS" v="Råtun 1, 5239 RÅDAL" />
		<tag k="amenity" v="kindergarten" />
		<tag k="capacity" v="98" />
		<tag k="contact:website" v="http://www.bergen.kommune.no/omkommunen/avdelinger/ratun-barnehage" />
		<tag k="max_age" v="5" />
		<tag k="min_age" v="1" />
		<tag k="name" v="Råtun barnehage" />
		<tag k="no-barnehage:nsrid" v="890941702" />
		<tag k="operator" v="Bergen kommune" />
		<tag k="operator:type" v="public" />
	</node>
	<node lat="60.4186" lon="5.46806" id="-4138">
		<tag k="ADDRESS" v="Lakslia 21, 5261 INDRE ARNA" />
		<tag k="amenity" v="kindergarten" />
		<tag k="name" v="Sakkeus åpen barnehage" />
		<tag k="no-barnehage:nsrid" v="995119560" />
		<tag k="operator" v="Arna Sokn" />
		<tag k="operator:type" v="private" />
	</node>
	<node lat="60.50378" lon="5.26293" id="-4139">
		<tag k="ADDRESS" v="Vikavegen 10, 5107 SALHUS" />
		<tag k="amenity" v="kindergarten" />
		<tag k="capacity" v="15" />
		<tag k="contact:website" v="http://www.bergen.kommune.no/omkommunen/avdelinger/salhus-barnehage" />
		<tag k="max_age" v="5" />
		<tag k="min_age" v="1" />
		<tag k="name" v="Salhus barnehage" />
		<tag k="no-barnehage:nsrid" v="973304747" />
		<tag k="operator" v="Bergen kommune" />
		<tag k="operator:type" v="public" />
	</node>
	<node lat="60.42275" lon="5.30895" id="-4140">
		<tag k="ADDRESS" v="Øyjordsveien 11, 5038 BERGEN" />
		<tag k="amenity" v="kindergarten" />
		<tag k="capacity" v="49" />
		<tag k="max_age" v="5" />
		<tag k="min_age" v="1" />
		<tag k="name" v="Sammen Blokksberg barnehage" />
		<tag k="no-barnehage:nsrid" v="981212355" />
		<tag k="operator" v="Sammen Blokksberg barnehage AS" />
		<tag k="operator:type" v="private" />
	</node>
	<node lat="60.34365" lon="5.35974" id="-4141">
		<tag k="ADDRESS" v="Studentbyen Nattland 148, 5082 BERGEN" />
		<tag k="amenity" v="kindergarten" />
		<tag k="capacity" v="85" />
		<tag k="contact:website" v="http://www.sammen.no/no/bergen/barnehage/bortigard" />
		<tag k="max_age" v="5" />
		<tag k="min_age" v="1" />
		<tag k="name" v="Sammen Bortigard barnehage" />
		<tag k="no-barnehage:nsrid" v="988007196" />
		<tag k="operator" v="Sammen Bortigard barnehage AS" />
		<tag k="operator:type" v="private" />
	</node>
	<node lat="60.38589" lon="5.34797" id="-4142">
		<tag k="ADDRESS" v="Kalfarveien 59, 5022 BERGEN" />
		<tag k="amenity" v="kindergarten" />
		<tag k="capacity" v="48" />
		<tag k="contact:website" v="http://www.sammen.no/no/bergen/barnehage/fagertun" />
		<tag k="max_age" v="5" />
		<tag k="min_age" v="1" />
		<tag k="name" v="Sammen Fagertun barnehage" />
		<tag k="no-barnehage:nsrid" v="981212304" />
		<tag k="operator" v="Sammen Fagertun barnehage AS" />
		<tag k="operator:type" v="private" />
	</node>
	<node lat="60.34575" lon="5.35471" id="-4143">
		<tag k="ADDRESS" v="Fantoftvegen 14, 5075 BERGEN" />
		<tag k="amenity" v="kindergarten" />
		<tag k="capacity" v="79" />
		<tag k="contact:website" v="http://www.sammen.no/no/bergen/barnehage/fantoft" />
		<tag k="max_age" v="5" />
		<tag k="min_age" v="1" />
		<tag k="name" v="Sammen Fantoft barnehage" />
		<tag k="no-barnehage:nsrid" v="918676708" />
		<tag k="operator" v="Sammen Fantoft barnehage AS" />
		<tag k="operator:type" v="private" />
	</node>
	<node lat="60.34787" lon="5.3519" id="-4144">
		<tag k="ADDRESS" v="Øvre Fantoftåsen 54, 5072 BERGEN" />
		<tag k="amenity" v="kindergarten" />
		<tag k="capacity" v="97" />
		<tag k="contact:website" v="http://www.sammen.no/no/bergen/barnehage/fantoft-gard-barnehage-1" />
		<tag k="max_age" v="5" />
		<tag k="min_age" v="1" />
		<tag k="name" v="Sammen Fantoft gård barnehage" />
		<tag k="no-barnehage:nsrid" v="975044556" />
		<tag k="operator" v="Sammen Fantoft Gård barnehage AS" />
		<tag k="operator:type" v="private" />
	</node>
	<node lat="60.38945" lon="5.31512" id="-4145">
		<tag k="ADDRESS" v="Magnus Lagabøtes plass 5, 5010 BERGEN" />
		<tag k="amenity" v="kindergarten" />
		<tag k="capacity" v="95" />
		<tag k="contact:website" v="http://www.sammen.no/no/bergen/barnehage/jekteviken" />
		<tag k="max_age" v="5" />
		<tag k="min_age" v="1" />
		<tag k="name" v="Sammen Jekteviken barnehage" />
		<tag k="no-barnehage:nsrid" v="973162861" />
		<tag k="operator" v="Sammen Jekteviken barnehage AS" />
		<tag k="operator:type" v="private" />
	</node>
	<node lat="60.34432" lon="5.36086" id="-4146">
		<tag k="ADDRESS" v="Birkelundsbakken 54B, 5231 PARADIS" />
		<tag k="amenity" v="kindergarten" />
		<tag k="capacity" v="49" />
		<tag k="contact:website" v="http://www.sammen.no/no/bergen/barnehage/nerigard" />
		<tag k="max_age" v="5" />
		<tag k="min_age" v="1" />
		<tag k="name" v="Sammen Nerigard barnehage" />
		<tag k="no-barnehage:nsrid" v="975183106" />
		<tag k="operator" v="Sammen Nerigard barnehage AS" />
		<tag k="operator:type" v="private" />
	</node>
	<node lat="60.34467" lon="5.35995" id="-4147">
		<tag k="ADDRESS" v="Birkelundsbakken 56B, 5231 PARADIS" />
		<tag k="amenity" v="kindergarten" />
		<tag k="capacity" v="55" />
		<tag k="contact:website" v="http://www.sammen.no/no/bergen/barnehage/oppigard" />
		<tag k="max_age" v="5" />
		<tag k="min_age" v="1" />
		<tag k="name" v="Sammen Oppigard barnehage" />
		<tag k="no-barnehage:nsrid" v="975183114" />
		<tag k="operator" v="Sammen Oppigard barnehage AS" />
		<tag k="operator:type" v="private" />
	</node>
	<node lat="60.33098" lon="5.36775" id="-4148">
		<tag k="ADDRESS" v="Sanddalsbotn 54, 5221 NESTTUN" />
		<tag k="amenity" v="kindergarten" />
		<tag k="capacity" v="66" />
		<tag k="contact:website" v="http://www.bergen.kommune.no/omkommunen/avdelinger/sandalsbotn-barnehage" />
		<tag k="max_age" v="5" />
		<tag k="min_age" v="1" />
		<tag k="name" v="Sandalsbotn barnehage" />
		<tag k="no-barnehage:nsrid" v="973924702" />
		<tag k="operator" v="Bergen kommune" />
		<tag k="operator:type" v="public" />
	</node>
	<node lat="60.29773" lon="5.28063" id="-4149">
		<tag k="ADDRESS" v="Sandslimarka 262, 5254 SANDSLI" />
		<tag k="amenity" v="kindergarten" />
		<tag k="capacity" v="134" />
		<tag k="contact:website" v="http://sandslimarka.kanvas.no/" />
		<tag k="max_age" v="5" />
		<tag k="min_age" v="1" />
		<tag k="name" v="Sandslimarka Kanvas-barnehage" />
		<tag k="no-barnehage:nsrid" v="897797062" />
		<tag k="operator" v="Stiftelsen Kanvas" />
		<tag k="operator:type" v="private" />
	</node>
	<node lat="60.40537" lon="5.32658" id="-4150">
		<tag k="ADDRESS" v="Kirkegaten 1A, 5036 BERGEN" />
		<tag k="amenity" v="kindergarten" />
		<tag k="capacity" v="29" />
		<tag k="contact:website" v="http://www.bergen.kommune.no/omkommunen/avdelinger/sandviken-barnehage" />
		<tag k="max_age" v="5" />
		<tag k="min_age" v="1" />
		<tag k="name" v="Sandviken barnehage" />
		<tag k="no-barnehage:nsrid" v="973334832" />
		<tag k="operator" v="Bergen kommune" />
		<tag k="operator:type" v="public" />
	</node>
	<node lat="60.35953" lon="5.28642" id="-4151">
		<tag k="ADDRESS" v="Seljesvingen 33, 5145 FYLLINGSDALEN" />
		<tag k="amenity" v="kindergarten" />
		<tag k="capacity" v="54" />
		<tag k="contact:website" v="http://www.bergen.kommune.no/omkommunen/avdelinger/seljedalen-barnehage" />
		<tag k="max_age" v="5" />
		<tag k="min_age" v="1" />
		<tag k="name" v="Seljedalen barnehage" />
		<tag k="no-barnehage:nsrid" v="974739364" />
		<tag k="operator" v="Bergen kommune" />
		<tag k="operator:type" v="public" />
	</node>
	<node lat="60.33401" lon="5.29609" id="-4152">
		<tag k="ADDRESS" v="Fjellsdalen 9, 5155 BØNES" />
		<tag k="amenity" v="kindergarten" />
		<tag k="capacity" v="96" />
		<tag k="max_age" v="5" />
		<tag k="min_age" v="1" />
		<tag k="name" v="Senterhagen barnehage" />
		<tag k="no-barnehage:nsrid" v="982367379" />
		<tag k="operator" v="Bergen kommune" />
		<tag k="operator:type" v="public" />
	</node>
	<node lat="60.28676" lon="5.27995" id="-4153">
		<tag k="ADDRESS" v="Skagevegen 82, 5258 BLOMSTERDALEN" />
		<tag k="amenity" v="kindergarten" />
		<tag k="capacity" v="29" />
		<tag k="contact:website" v="http://www.sionbarn.no" />
		<tag k="max_age" v="5" />
		<tag k="min_age" v="1" />
		<tag k="name" v="Sion menighetsbarnehage" />
		<tag k="no-barnehage:nsrid" v="974222388" />
		<tag k="operator" v="Menigheten Sion Blomsterdalen" />
		<tag k="operator:type" v="private" />
	</node>
	<node lat="0.0" lon="0.0" id="-4154">
		<tag k="ADDRESS" v="Wallemslien 4-8, 5165 LAKSEVÅG" />
		<tag k="amenity" v="kindergarten" />
		<tag k="capacity" v="60" />
		<tag k="contact:website" v="http://www.sjosproyten.barnehageside.no" />
		<tag k="max_age" v="5" />
		<tag k="min_age" v="1" />
		<tag k="name" v="Sjøsprøyten barnehage" />
		<tag k="no-barnehage:nsrid" v="973471775" />
		<tag k="operator" v="Stiftelsen Sjøsprøyten" />
		<tag k="operator:type" v="private" />
	</node>
	<node lat="60.39381" lon="5.33761" id="-4155">
		<tag k="ADDRESS" v="Ole Irgens' vei 90, 5019 BERGEN" />
		<tag k="amenity" v="kindergarten" />
		<tag k="capacity" v="58" />
		<tag k="contact:website" v="http://www.bergen.kommune.no/omkommunen/avdelinger/skansemyren-barnehage" />
		<tag k="max_age" v="5" />
		<tag k="min_age" v="1" />
		<tag k="name" v="Skansemyren barnehage" />
		<tag k="no-barnehage:nsrid" v="918305203" />
		<tag k="operator" v="Bergen kommune" />
		<tag k="operator:type" v="public" />
	</node>
	<node lat="60.30907" lon="5.33714" id="-4156">
		<tag k="ADDRESS" v="Skjoldvegen 6, 5221 NESTTUN" />
		<tag k="amenity" v="kindergarten" />
		<tag k="capacity" v="62" />
		<tag k="contact:website" v="http://www.bergen.kommune.no/omkommunen/avdelinger/skjold-barnehage" />
		<tag k="max_age" v="5" />
		<tag k="min_age" v="1" />
		<tag k="name" v="Skjold barnehage" />
		<tag k="no-barnehage:nsrid" v="974738856" />
		<tag k="operator" v="Bergen kommune" />
		<tag k="operator:type" v="public" />
	</node>
	<node lat="60.30623" lon="5.33242" id="-4157">
		<tag k="ADDRESS" v="Skjoldlia 53, 5236 RÅDAL" />
		<tag k="amenity" v="kindergarten" />
		<tag k="capacity" v="86" />
		<tag k="contact:website" v="http://www.bergen.kommune.no/omkommunen/avdelinger/skjoldlia-barnehage" />
		<tag k="max_age" v="5" />
		<tag k="min_age" v="1" />
		<tag k="name" v="Skjoldlia barnehage" />
		<tag k="no-barnehage:nsrid" v="991895299" />
		<tag k="operator" v="Bergen kommune" />
		<tag k="operator:type" v="public" />
	</node>
	<node lat="60.30567" lon="5.33694" id="-4158">
		<tag k="ADDRESS" v="Skjoldstølen 20, 5236 RÅDAL" />
		<tag k="amenity" v="kindergarten" />
		<tag k="capacity" v="54" />
		<tag k="contact:website" v="http://www.skjoldtunbarnehage.com" />
		<tag k="max_age" v="5" />
		<tag k="min_age" v="1" />
		<tag k="name" v="Skjoldtun barnehage" />
		<tag k="no-barnehage:nsrid" v="974224356" />
		<tag k="operator" v="Skjoldtun Kvinne- og Familielag" />
		<tag k="operator:type" v="private" />
	</node>
	<node lat="60.30196" lon="5.27182" id="-4159">
		<tag k="ADDRESS" v="Skranevegen 8, 5252 SØREIDGREND" />
		<tag k="amenity" v="kindergarten" />
		<tag k="capacity" v="49" />
		<tag k="contact:website" v="http://www.bergen.kommune.no/omkommunen/avdelinger/skranevegen-barnehage" />
		<tag k="max_age" v="5" />
		<tag k="min_age" v="1" />
		<tag k="name" v="Skranevegen barnehage" />
		<tag k="no-barnehage:nsrid" v="972291706" />
		<tag k="operator" v="Bergen kommune" />
		<tag k="operator:type" v="public" />
	</node>
	<node lat="60.34" lon="5.22002" id="-4160">
		<tag k="ADDRESS" v="Haakonsvern 1, 5173 LODDEFJORD" />
		<tag k="amenity" v="kindergarten" />
		<tag k="capacity" v="38" />
		<tag k="contact:website" v="http://www.bergen.kommune.no/omkommunen/avdelinger/skarungen-barnehage" />
		<tag k="max_age" v="5" />
		<tag k="min_age" v="1" />
		<tag k="name" v="Skårungen barnehage" />
		<tag k="no-barnehage:nsrid" v="974739267" />
		<tag k="operator" v="Bergen kommune" />
		<tag k="operator:type" v="public" />
	</node>
	<node lat="60.35282" lon="5.35719" id="-4161">
		<tag k="ADDRESS" v="Vilhelm Bjerknes' vei 31, 5081 BERGEN" />
		<tag k="amenity" v="kindergarten" />
		<tag k="capacity" v="24" />
		<tag k="contact:website" v="http://slettebakkenmenighets.barnehage.no/" />
		<tag k="max_age" v="5" />
		<tag k="min_age" v="1" />
		<tag k="name" v="Slettebakken menighets barnehage" />
		<tag k="no-barnehage:nsrid" v="973455729" />
		<tag k="operator" v="Slettebakken Menighets barnehage AS" />
		<tag k="operator:type" v="private" />
	</node>
	<node lat="60.35823" lon="5.36388" id="-4162">
		<tag k="ADDRESS" v="Kristofer Jansons vei 31, 5089 BERGEN" />
		<tag k="amenity" v="kindergarten" />
		<tag k="capacity" v="45" />
		<tag k="contact:website" v="http://www.bergen.kommune.no/omkommunen/avdelinger/sletten-barnehage" />
		<tag k="max_age" v="5" />
		<tag k="min_age" v="1" />
		<tag k="name" v="Sletten barnehage" />
		<tag k="no-barnehage:nsrid" v="974738864" />
		<tag k="operator" v="Bergen kommune" />
		<tag k="operator:type" v="public" />
	</node>
	<node lat="60.49678" lon="5.38157" id="-4163">
		<tag k="ADDRESS" v="Olav Bjordals veg 43, 5111 BREISTEIN" />
		<tag k="amenity" v="kindergarten" />
		<tag k="capacity" v="31" />
		<tag k="contact:website" v="http://sofus.barnehage.no/" />
		<tag k="max_age" v="5" />
		<tag k="min_age" v="1" />
		<tag k="name" v="Sofusbarnehagen" />
		<tag k="no-barnehage:nsrid" v="979082088" />
		<tag k="operator" v="Sofusbarnehagen AS" />
		<tag k="operator:type" v="private" />
	</node>
	<node lat="60.42683" lon="5.30021" id="-4164">
		<tag k="ADDRESS" v="Solbakken 16, 5038 BERGEN" />
		<tag k="amenity" v="kindergarten" />
		<tag k="capacity" v="59" />
		<tag k="contact:website" v="http://www.bergen.kommune.no/omkommunen/avdelinger/solbakken-barnehage" />
		<tag k="max_age" v="5" />
		<tag k="min_age" v="1" />
		<tag k="name" v="Solbakken barnehage" />
		<tag k="no-barnehage:nsrid" v="974738872" />
		<tag k="operator" v="Bergen kommune" />
		<tag k="operator:type" v="public" />
	</node>
	<node lat="60.37585" lon="5.32703" id="-4165">
		<tag k="ADDRESS" v="Solheimslien 12, 5056 BERGEN" />
		<tag k="amenity" v="kindergarten" />
		<tag k="capacity" v="71" />
		<tag k="contact:website" v="http://www.bergen.kommune.no/omkommunen/avdelinger/solheimslien-barnehage" />
		<tag k="max_age" v="5" />
		<tag k="min_age" v="1" />
		<tag k="name" v="Solheimslien barnehage" />
		<tag k="no-barnehage:nsrid" v="913071247" />
		<tag k="operator" v="Bergen kommune" />
		<tag k="operator:type" v="public" />
	</node>
	<node lat="60.37082" lon="5.36417" id="-4166">
		<tag k="ADDRESS" v="Sollien 36C, 5096 BERGEN" />
		<tag k="amenity" v="kindergarten" />
		<tag k="capacity" v="73" />
		<tag k="contact:website" v="http://www.bergen.kommune.no/omkommunen/avdelinger/sollien-barnehage" />
		<tag k="max_age" v="5" />
		<tag k="min_age" v="1" />
		<tag k="name" v="Sollien barnehage" />
		<tag k="no-barnehage:nsrid" v="913071131" />
		<tag k="operator" v="Bergen kommune" />
		<tag k="operator:type" v="public" />
	</node>
	<node lat="60.28386" lon="5.30283" id="-4167">
		<tag k="ADDRESS" v="Grimseidvegen 149, 5239 RÅDAL" />
		<tag k="amenity" v="kindergarten" />
		<tag k="capacity" v="50" />
		<tag k="max_age" v="5" />
		<tag k="min_age" v="1" />
		<tag k="name" v="Solsikken barnehage Skeie" />
		<tag k="no-barnehage:nsrid" v="973455737" />
		<tag k="operator" v="Solsikken barnehage Skeie AS" />
		<tag k="operator:type" v="private" />
	</node>
	<node lat="60.36167" lon="5.36388" id="-4168">
		<tag k="ADDRESS" v="Joachim Lampes vei 5, 5089 BERGEN" />
		<tag k="amenity" v="kindergarten" />
		<tag k="name" v="Språkstien åpen barnehage Slettebakken" />
		<tag k="no-barnehage:nsrid" v="997325753" />
		<tag k="operator" v="Stiftelsen Kirkens Bymisjon" />
		<tag k="operator:type" v="private" />
	</node>
	<node lat="60.38906" lon="5.35317" id="-4169">
		<tag k="ADDRESS" v="Starefossveien 20, 5019 BERGEN" />
		<tag k="amenity" v="kindergarten" />
		<tag k="capacity" v="18" />
		<tag k="contact:website" v="http://starefossenbarnehage.no" />
		<tag k="max_age" v="5" />
		<tag k="min_age" v="1" />
		<tag k="name" v="Starefossen barnehage" />
		<tag k="no-barnehage:nsrid" v="993266361" />
		<tag k="operator" v="Starefossen barnehage" />
		<tag k="operator:type" v="private" />
	</node>
	<node lat="60.46454" lon="5.32894" id="-4170">
		<tag k="ADDRESS" v="Åsligrenda 46, 5115 ULSET" />
		<tag k="amenity" v="kindergarten" />
		<tag k="capacity" v="16" />
		<tag k="contact:website" v="http://www.selegrend-barnehage.no" />
		<tag k="max_age" v="5" />
		<tag k="min_age" v="1" />
		<tag k="name" v="Stiftelsen Selegrend barnehage" />
		<tag k="no-barnehage:nsrid" v="979154399" />
		<tag k="operator" v="Stiftelsen Selegrend barnehage" />
		<tag k="operator:type" v="private" />
	</node>
	<node lat="60.31636" lon="5.356" id="-4171">
		<tag k="ADDRESS" v="Wollert Konows plass 1, 5224 NESTTUN" />
		<tag k="amenity" v="kindergarten" />
		<tag k="name" v="Stiftelsen Sesam" />
		<tag k="no-barnehage:nsrid" v="979740530" />
		<tag k="operator" v="Stiftelsen Sesam" />
		<tag k="operator:type" v="private" />
	</node>
	<node lat="60.46699" lon="5.32189" id="-4172">
		<tag k="ADDRESS" v="Åsane Senter 44, 5116 ULSET" />
		<tag k="amenity" v="kindergarten" />
		<tag k="name" v="Stjernen åpen barnehage" />
		<tag k="no-barnehage:nsrid" v="996000540" />
		<tag k="operator" v="Åsane Sokn" />
		<tag k="operator:type" v="private" />
	</node>
	<node lat="60.34625" lon="5.34544" id="-4173">
		<tag k="ADDRESS" v="Storetveitvegen 125B, 5231 PARADIS" />
		<tag k="amenity" v="kindergarten" />
		<tag k="capacity" v="72" />
		<tag k="contact:website" v="http://www.bergen.kommune.no/omkommunen/avdelinger/storetveit-barnehage" />
		<tag k="max_age" v="5" />
		<tag k="min_age" v="1" />
		<tag k="name" v="Storetveit barnehage" />
		<tag k="no-barnehage:nsrid" v="991636617" />
		<tag k="operator" v="Bergen kommune" />
		<tag k="operator:type" v="public" />
	</node>
	<node lat="60.33444" lon="5.28762" id="-4174">
		<tag k="ADDRESS" v="Stokkedalen 59, 5151 STRAUMSGREND" />
		<tag k="amenity" v="kindergarten" />
		<tag k="capacity" v="46" />
		<tag k="contact:website" v="http://straumsgrend.barnehage.no/" />
		<tag k="max_age" v="5" />
		<tag k="min_age" v="1" />
		<tag k="name" v="Straumsgrend barnehage" />
		<tag k="no-barnehage:nsrid" v="973288792" />
		<tag k="operator" v="Straumsgrend barnehage SA" />
		<tag k="operator:type" v="private" />
	</node>
	<node lat="60.34619" lon="5.39428" id="-4175">
		<tag k="ADDRESS" v="Sædalssvingene 6, 5099 BERGEN" />
		<tag k="amenity" v="kindergarten" />
		<tag k="capacity" v="62" />
		<tag k="contact:website" v="http://www.bergen.kommune.no/omkommunen/avdelinger/sadalen-barnehage" />
		<tag k="max_age" v="5" />
		<tag k="min_age" v="1" />
		<tag k="name" v="Sædalen barnehage" />
		<tag k="no-barnehage:nsrid" v="986421750" />
		<tag k="operator" v="Bergen kommune" />
		<tag k="operator:type" v="public" />
	</node>
	<node lat="60.34678" lon="5.28256" id="-4176">
		<tag k="ADDRESS" v="Torgny Segerstedts vei 4, 5143 FYLLINGSDALEN" />
		<tag k="amenity" v="kindergarten" />
		<tag k="capacity" v="81" />
		<tag k="contact:website" v="http://www.bergen.kommune.no/omkommunen/avdelinger/salen-oppveksttun-barnehage" />
		<tag k="max_age" v="5" />
		<tag k="min_age" v="1" />
		<tag k="name" v="Sælen oppveksttun avd. barnehage" />
		<tag k="no-barnehage:nsrid" v="874738832" />
		<tag k="operator" v="Bergen kommune" />
		<tag k="operator:type" v="public" />
	</node>
	<node lat="60.34523" lon="5.23946" id="-4177">
		<tag k="ADDRESS" v="Bjørndalsskogen 41, 5170 BJØRNDALSTRÆ" />
		<tag k="amenity" v="kindergarten" />
		<tag k="capacity" v="29" />
		<tag k="contact:website" v="http://www.bergen.kommune.no/omkommunen/avdelinger/saterdal-barnehage" />
		<tag k="max_age" v="5" />
		<tag k="min_age" v="1" />
		<tag k="name" v="Sæterdal barnehage" />
		<tag k="no-barnehage:nsrid" v="874738972" />
		<tag k="operator" v="Bergen kommune" />
		<tag k="operator:type" v="public" />
	</node>
	<node lat="60.37566" lon="5.33" id="-4178">
		<tag k="ADDRESS" v="Firdagaten 35, 5055 BERGEN" />
		<tag k="amenity" v="kindergarten" />
		<tag k="capacity" v="47" />
		<tag k="contact:website" v="http://www.bergen.kommune.no/omkommunen/avdelinger/sore-skogvei-barnehage" />
		<tag k="max_age" v="5" />
		<tag k="min_age" v="1" />
		<tag k="name" v="Søre Skogvei barnehage" />
		<tag k="no-barnehage:nsrid" v="974738996" />
		<tag k="operator" v="Bergen kommune" />
		<tag k="operator:type" v="public" />
	</node>
	<node lat="60.45701" lon="5.31132" id="-4179">
		<tag k="ADDRESS" v="Tertnesveien 24, 5113 TERTNES" />
		<tag k="amenity" v="kindergarten" />
		<tag k="capacity" v="28" />
		<tag k="contact:website" v="http://tertnes.barnehage.no/" />
		<tag k="max_age" v="5" />
		<tag k="min_age" v="1" />
		<tag k="name" v="Tertnesparken barnehage" />
		<tag k="no-barnehage:nsrid" v="973345656" />
		<tag k="operator" v="Tertnesparken barnehage AS" />
		<tag k="operator:type" v="private" />
	</node>
	<node lat="60.42704" lon="5.62866" id="-4180">
		<tag k="ADDRESS" v="Skulstadvegen 8, 5263 TRENGEREID" />
		<tag k="amenity" v="kindergarten" />
		<tag k="capacity" v="11" />
		<tag k="contact:website" v="http://www.bergen.kommune.no/omkommunen/avdelinger/trengereid-oppveksttun-avd-barnehage" />
		<tag k="max_age" v="5" />
		<tag k="min_age" v="1" />
		<tag k="name" v="Trengereid oppveksttun avd. barnehage" />
		<tag k="no-barnehage:nsrid" v="898020002" />
		<tag k="operator" v="Bergen kommune" />
		<tag k="operator:type" v="public" />
	</node>
	<node lat="60.34471" lon="5.34264" id="-4181">
		<tag k="ADDRESS" v="Rieber-Mohns veg 14, 5230 PARADIS" />
		<tag k="amenity" v="kindergarten" />
		<tag k="capacity" v="74" />
		<tag k="contact:website" v="http://www.tryllefloyten.no" />
		<tag k="max_age" v="5" />
		<tag k="min_age" v="1" />
		<tag k="name" v="Tryllefløyten Steinerbarnehage" />
		<tag k="no-barnehage:nsrid" v="986848266" />
		<tag k="operator" v="Tryllefløyten steinerbarnehage SA" />
		<tag k="operator:type" v="private" />
	</node>
	<node lat="60.34988" lon="5.35619" id="-4182">
		<tag k="ADDRESS" v="Vilhelm Bjerknes' vei 83, 5081 BERGEN" />
		<tag k="amenity" v="kindergarten" />
		<tag k="capacity" v="16" />
		<tag k="max_age" v="5" />
		<tag k="min_age" v="1" />
		<tag k="name" v="Tveitevannet barnehage" />
		<tag k="no-barnehage:nsrid" v="973455745" />
		<tag k="operator" v="Tveitevannet barnehage SA" />
		<tag k="operator:type" v="private" />
	</node>
	<node lat="60.36453" lon="5.37183" id="-4183">
		<tag k="ADDRESS" v="Kanonhaugen 25, 5097 BERGEN" />
		<tag k="amenity" v="kindergarten" />
		<tag k="contact:website" v="http://www.kfuk-kfum.no/bjorgvin/ulriken" />
		<tag k="name" v="Ulriken Kfuk-kfum åpen barnehage" />
		<tag k="no-barnehage:nsrid" v="997019814" />
		<tag k="operator" v="Kfuk-Kfum Ulriken" />
		<tag k="operator:type" v="private" />
	</node>
	<node lat="60.46332" lon="5.31522" id="-4184">
		<tag k="ADDRESS" v="Midtkleiva 80, 5119 ULSET" />
		<tag k="amenity" v="kindergarten" />
		<tag k="capacity" v="49" />
		<tag k="contact:website" v="http://ulset.barnehage.no/" />
		<tag k="max_age" v="5" />
		<tag k="min_age" v="1" />
		<tag k="name" v="Ulset barnehage" />
		<tag k="no-barnehage:nsrid" v="974156458" />
		<tag k="operator" v="Ulset barnehage" />
		<tag k="operator:type" v="private" />
	</node>
	<node lat="60.46007" lon="5.31377" id="-4185">
		<tag k="ADDRESS" v="Ulsetskogen 7, 5119 ULSET" />
		<tag k="amenity" v="kindergarten" />
		<tag k="capacity" v="26" />
		<tag k="contact:website" v="http://www.bergen.kommune.no/omkommunen/avdelinger/barnehager/rolland-ulsetasen-barnehage" />
		<tag k="max_age" v="5" />
		<tag k="min_age" v="1" />
		<tag k="name" v="Ulsetåsen barnehage" />
		<tag k="no-barnehage:nsrid" v="874737402" />
		<tag k="operator" v="Bergen kommune" />
		<tag k="operator:type" v="public" />
	</node>
	<node lat="60.31234" lon="5.37257" id="-4186">
		<tag k="ADDRESS" v="Solåsen 52, 5223 NESTTUN" />
		<tag k="amenity" v="kindergarten" />
		<tag k="capacity" v="54" />
		<tag k="contact:website" v="http://www.bergen.kommune.no/omkommunen/avdelinger/ulsmag-barnehage" />
		<tag k="max_age" v="5" />
		<tag k="min_age" v="1" />
		<tag k="name" v="Ulsmåg barnehage" />
		<tag k="no-barnehage:nsrid" v="974739062" />
		<tag k="operator" v="Bergen kommune" />
		<tag k="operator:type" v="public" />
	</node>
	<node lat="60.36094" lon="5.47879" id="-4187">
		<tag k="ADDRESS" v="Unnelandsvegen 245, 5268 HAUKELAND" />
		<tag k="amenity" v="kindergarten" />
		<tag k="capacity" v="57" />
		<tag k="contact:website" v="http://www.unnelandbarnehage.no" />
		<tag k="max_age" v="5" />
		<tag k="min_age" v="1" />
		<tag k="name" v="Unneland barnehage" />
		<tag k="no-barnehage:nsrid" v="973334875" />
		<tag k="operator" v="Unneland barnehage" />
		<tag k="operator:type" v="private" />
	</node>
	<node lat="60.36198" lon="5.22557" id="-4188">
		<tag k="ADDRESS" v="Vestre Vadmyra 2D, 5172 LODDEFJORD" />
		<tag k="amenity" v="kindergarten" />
		<tag k="capacity" v="73" />
		<tag k="contact:website" v="http://www.bergen.kommune.no/omkommunen/avdelinger/vadmyra-barnehage" />
		<tag k="max_age" v="5" />
		<tag k="min_age" v="1" />
		<tag k="name" v="Vadmyra barnehage" />
		<tag k="no-barnehage:nsrid" v="974738880" />
		<tag k="operator" v="Bergen kommune" />
		<tag k="operator:type" v="public" />
	</node>
	<node lat="60.38324" lon="5.26636" id="-4189">
		<tag k="ADDRESS" v="Gravdalspollen 25, 5164 LAKSEVÅG" />
		<tag k="amenity" v="kindergarten" />
		<tag k="capacity" v="144" />
		<tag k="contact:website" v="http://www.bergen.kommune.no/omkommunen/avdelinger/valheim-barnehage" />
		<tag k="max_age" v="5" />
		<tag k="min_age" v="1" />
		<tag k="name" v="Valheim barnehage" />
		<tag k="no-barnehage:nsrid" v="913071093" />
		<tag k="operator" v="Bergen kommune" />
		<tag k="operator:type" v="public" />
	</node>
	<node lat="60.29373" lon="5.38436" id="-4190">
		<tag k="ADDRESS" v="Vallalia 3, 5227 NESTTUN" />
		<tag k="amenity" v="kindergarten" />
		<tag k="capacity" v="63" />
		<tag k="contact:website" v="http://www.bergen.kommune.no/omkommunen/avdelinger/vallalia-barnehage" />
		<tag k="max_age" v="5" />
		<tag k="min_age" v="1" />
		<tag k="name" v="Vallalia barnehage" />
		<tag k="no-barnehage:nsrid" v="974222027" />
		<tag k="operator" v="Bergen kommune" />
		<tag k="operator:type" v="public" />
	</node>
	<node lat="60.29893" lon="5.30904" id="-4192">
		<tag k="ADDRESS" v="Harald Sæveruds veg 5, 5237 RÅDAL" />
		<tag k="amenity" v="kindergarten" />
		<tag k="capacity" v="64" />
		<tag k="contact:website" v="http://vindharpen.no/" />
		<tag k="max_age" v="5" />
		<tag k="min_age" v="1" />
		<tag k="name" v="Vindharpen barnehage" />
		<tag k="no-barnehage:nsrid" v="984375670" />
		<tag k="operator" v="Vindharpen barnehage SA" />
		<tag k="operator:type" v="private" />
	</node>
	<node lat="60.32993" lon="5.29158" id="-4193">
		<tag k="ADDRESS" v="Våkleivbrotet 45, 5155 BØNES" />
		<tag k="amenity" v="kindergarten" />
		<tag k="capacity" v="64" />
		<tag k="contact:website" v="http://vaakleivbrotet.kanvas.no" />
		<tag k="max_age" v="5" />
		<tag k="min_age" v="1" />
		<tag k="name" v="Våkleivbrotet Kanvas-barnehage" />
		<tag k="no-barnehage:nsrid" v="973076442" />
		<tag k="operator" v="Stiftelsen Kanvas" />
		<tag k="operator:type" v="private" />
	</node>
	<node lat="60.32758" lon="5.28456" id="-4194">
		<tag k="ADDRESS" v="Våkleivskogen 160, 5155 BØNES" />
		<tag k="amenity" v="kindergarten" />
		<tag k="capacity" v="22" />
		<tag k="contact:website" v="http://vaatun.barnehage.no" />
		<tag k="max_age" v="5" />
		<tag k="min_age" v="1" />
		<tag k="name" v="Våtun barnehage" />
		<tag k="no-barnehage:nsrid" v="973455753" />
		<tag k="operator" v="Våtun barnehage SA" />
		<tag k="operator:type" v="private" />
	</node>
	<node lat="60.45808" lon="5.43562" id="-4195">
		<tag k="ADDRESS" v="Gudrun Kolderups veg 22, 5265 YTRE ARNA" />
		<tag k="amenity" v="kindergarten" />
		<tag k="capacity" v="42" />
		<tag k="contact:website" v="http://www.bergen.kommune.no/omkommunen/avdelinger/ytre-arna-barnehage" />
		<tag k="max_age" v="5" />
		<tag k="min_age" v="1" />
		<tag k="name" v="Ytre Arna barnehage" />
		<tag k="no-barnehage:nsrid" v="974738945" />
		<tag k="operator" v="Bergen kommune" />
		<tag k="operator:type" v="public" />
	</node>
	<node lat="60.3452" lon="5.37204" id="-4196">
		<tag k="ADDRESS" v="Østre Nattlandsfjellet 4, 5098 BERGEN" />
		<tag k="amenity" v="kindergarten" />
		<tag k="capacity" v="25" />
		<tag k="contact:website" v="http://www.onbhg.barnehage.no" />
		<tag k="max_age" v="5" />
		<tag k="min_age" v="1" />
		<tag k="name" v="Østre Nattlandsfjellet barnehage" />
		<tag k="no-barnehage:nsrid" v="991862153" />
		<tag k="operator" v="Østre Nattlandsfjellet barnehage Ans" />
		<tag k="operator:type" v="private" />
	</node>
	<node lat="60.35627" lon="5.35826" id="-4197">
		<tag k="ADDRESS" v="Vilhelm Bjerknes' vei 15, 5081 BERGEN" />
		<tag k="amenity" v="kindergarten" />
		<tag k="capacity" v="55" />
		<tag k="contact:website" v="http://www.bergen.kommune.no/omkommunen/avdelinger/ovrebo-barnehage" />
		<tag k="max_age" v="5" />
		<tag k="min_age" v="1" />
		<tag k="name" v="Øvrebø barnehage" />
		<tag k="no-barnehage:nsrid" v="973924680" />
		<tag k="operator" v="Bergen kommune" />
		<tag k="operator:type" v="public" />
	</node>
	<node lat="60.4299" lon="5.30064" id="-4198">
		<tag k="ADDRESS" v="Øyjordsveien 69, 5038 BERGEN" />
		<tag k="amenity" v="kindergarten" />
		<tag k="capacity" v="99" />
		<tag k="contact:website" v="http://www.bergen.kommune.no/omkommunen/avdelinger/oyjorden-barnehage" />
		<tag k="max_age" v="5" />
		<tag k="min_age" v="1" />
		<tag k="name" v="Øyjorden barnehage" />
		<tag k="no-barnehage:nsrid" v="992584440" />
		<tag k="operator" v="Bergen kommune" />
		<tag k="operator:type" v="public" />
	</node>
	<node lat="60.41771" lon="5.47132" id="-4199">
		<tag k="ADDRESS" v="Indre Arna-vegen 115, 5261 INDRE ARNA" />
		<tag k="amenity" v="kindergarten" />
		<tag k="capacity" v="32" />
		<tag k="contact:website" v="http://www.bergen.kommune.no/omkommunen/avdelinger/adnanipa-barnehage" />
		<tag k="max_age" v="5" />
		<tag k="min_age" v="1" />
		<tag k="name" v="Ådnanipa barnehage" />
		<tag k="no-barnehage:nsrid" v="974737396" />
		<tag k="operator" v="Bergen kommune" />
		<tag k="operator:type" v="public" />
	</node>
	<node lat="60.26335" lon="5.34805" id="-4200">
		<tag k="ADDRESS" v="Fanavegen 320, 5244 FANA" />
		<tag k="amenity" v="kindergarten" />
		<tag k="contact:website" v="http://www.openbarnehage.no/" />
		<tag k="name" v="Åpen barnehage Fana Km" />
		<tag k="no-barnehage:nsrid" v="993481947" />
		<tag k="operator" v="Fana Kfuk-Kfum" />
		<tag k="operator:type" v="private" />
	</node>
	<node lat="60.39177" lon="5.33318" id="-4201">
		<tag k="ADDRESS" v="Kong Oscars gate 62, 5017 BERGEN" />
		<tag k="amenity" v="kindergarten" />
		<tag k="name" v="Åpen barnehage Sentrum" />
		<tag k="no-barnehage:nsrid" v="990636850" />
		<tag k="operator" v="Stiftelsen Kirkens Bymisjon" />
		<tag k="operator:type" v="private" />
	</node>
	<node lat="60.36477" lon="5.3597" id="-4202">
		<tag k="ADDRESS" v="Slettebakksveien 41, 5093 BERGEN" />
		<tag k="amenity" v="kindergarten" />
		<tag k="capacity" v="119" />
		<tag k="contact:website" v="http://www.bergen.kommune.no/omkommunen/avdelinger/arstad-brannstasjon-barnehage" />
		<tag k="max_age" v="5" />
		<tag k="min_age" v="1" />
		<tag k="name" v="Årstad Brannstasjon barnehage" />
		<tag k="no-barnehage:nsrid" v="991648690" />
		<tag k="operator" v="Bergen kommune" />
		<tag k="operator:type" v="public" />
	</node>
</osm>
