<?xml version="1.0" encoding="UTF-8"?>
<osm version="0.6" generator="osmapis">
	<node lat="62.45901" lon="6.26631" id="-1192">
		<tag k="ADDRESS" v="Hatlahaugen 11, 6016 ÅLESUND" />
		<tag k="amenity" v="kindergarten" />
		<tag k="capacity" v="9" />
		<tag k="max_age" v="5" />
		<tag k="min_age" v="1" />
		<tag k="name" v="Hatlahaugen familiebarnehage Gunn Berit Rødstøl" />
		<tag k="no-barnehage:nsrid" v="984167954" />
		<tag k="operator" v="Hatlahaugen familiebarnehage V/Gunn Berit Rødstøl" />
		<tag k="operator:type" v="private" />
	</node>
	<node lat="62.46265" lon="6.12015629" id="-1224">
		<tag k="ADDRESS" v="c/o Inger Lise Rysgård Kaptein Linges veg 23, 6006 ÅLESUND" />
		<tag k="amenity" v="kindergarten" />
		<tag k="capacity" v="8" />
		<tag k="max_age" v="2" />
		<tag k="min_age" v="1" />
		<tag k="name" v="Solstrålen familiebarnehage" />
		<tag k="no-barnehage:nsrid" v="987167114" />
		<tag k="operator" v="Solstrålen familiebarnehage AS" />
		<tag k="operator:type" v="private" />
	</node>
</osm>
