<?xml version="1.0" encoding="UTF-8"?>
<osm version="0.6" generator="osmapis">
	<node lat="62.47795" lon="6.37907" id="-1165">
		<tag k="ADDRESS" v="Olsvollen 16, 6019 ÅLESUND" />
		<tag k="amenity" v="kindergarten" />
		<tag k="capacity" v="14" />
		<tag k="max_age" v="2" />
		<tag k="min_age" v="1" />
		<tag k="name" v="Askepott barnehage" />
		<tag k="no-barnehage:nsrid" v="985352771" />
		<tag k="operator" v="Askepott barnehage AS" />
		<tag k="operator:type" v="private" />
	</node>
	<node lat="62.4737" lon="6.2374" id="-1166">
		<tag k="ADDRESS" v="Nørvegjerdet 7, 6009 ÅLESUND" />
		<tag k="amenity" v="kindergarten" />
		<tag k="capacity" v="78" />
		<tag k="contact:website" v="http://www.barnashage.com" />
		<tag k="max_age" v="5" />
		<tag k="min_age" v="1" />
		<tag k="name" v="Barnas Hage Larsgården" />
		<tag k="no-barnehage:nsrid" v="984609612" />
		<tag k="operator" v="Barnas Hage Larsgården SA" />
		<tag k="operator:type" v="private" />
	</node>
	<node lat="62.46497" lon="6.23247" id="-1167">
		<tag k="ADDRESS" v="Borgundgavlen 51, 6015 ÅLESUND" />
		<tag k="amenity" v="kindergarten" />
		<tag k="capacity" v="27" />
		<tag k="max_age" v="5" />
		<tag k="min_age" v="1" />
		<tag k="name" v="Borgund menighetsbarnehage" />
		<tag k="no-barnehage:nsrid" v="974799553" />
		<tag k="operator" v="Borgund Sokn" />
		<tag k="operator:type" v="private" />
	</node>
	<node lat="62.47223" lon="6.21133" id="-1168">
		<tag k="ADDRESS" v="Borgundvegen 234, 6008 ÅLESUND" />
		<tag k="amenity" v="kindergarten" />
		<tag k="capacity" v="37" />
		<tag k="contact:website" v="http://www.borgundveien-barnehage.no" />
		<tag k="max_age" v="5" />
		<tag k="min_age" v="1" />
		<tag k="name" v="Borgundveien barnehage" />
		<tag k="no-barnehage:nsrid" v="973470264" />
		<tag k="operator" v="Borgundveien barnehage AS" />
		<tag k="operator:type" v="private" />
	</node>
	<node lat="62.5906" lon="6.44023" id="-1169">
		<tag k="ADDRESS" v="Fjellbu 2, 6270 BRATTVÅG" />
		<tag k="amenity" v="kindergarten" />
		<tag k="capacity" v="64" />
		<tag k="max_age" v="5" />
		<tag k="min_age" v="1" />
		<tag k="name" v="Brattvåg barnehage" />
		<tag k="no-barnehage:nsrid" v="972290807" />
		<tag k="operator" v="Brattvåg barnehage SA" />
		<tag k="operator:type" v="private" />
	</node>
	<node lat="62.46601" lon="6.34496" id="-1170">
		<tag k="ADDRESS" v="Breivikvegen 5, 6018 ÅLESUND" />
		<tag k="amenity" v="kindergarten" />
		<tag k="capacity" v="39" />
		<tag k="max_age" v="5" />
		<tag k="min_age" v="1" />
		<tag k="name" v="Brisk barnehage" />
		<tag k="no-barnehage:nsrid" v="993780448" />
		<tag k="operator" v="Brisk barnehage AS" />
		<tag k="operator:type" v="private" />
	</node>
	<node lat="62.43657" lon="6.45328" id="-1171">
		<tag k="ADDRESS" v="Markastien 11, 6013 ÅLESUND" />
		<tag k="amenity" v="kindergarten" />
		<tag k="capacity" v="105" />
		<tag k="contact:website" v="http://www.ebbegarden.com" />
		<tag k="max_age" v="5" />
		<tag k="min_age" v="1" />
		<tag k="name" v="Ebbegarden barnehage" />
		<tag k="no-barnehage:nsrid" v="984927185" />
		<tag k="operator" v="Ebbegarden barnehage SA" />
		<tag k="operator:type" v="private" />
	</node>
	<node lat="0.0" lon="0.0" id="-1172">
		<tag k="ADDRESS" v="Hoffland, 6057 ELLINGSØY" />
		<tag k="amenity" v="kindergarten" />
		<tag k="capacity" v="75" />
		<tag k="max_age" v="5" />
		<tag k="min_age" v="1" />
		<tag k="name" v="Ellingsøy barnehage" />
		<tag k="no-barnehage:nsrid" v="986517642" />
		<tag k="operator" v="Ålesund kommune" />
		<tag k="operator:type" v="public" />
	</node>
	<node lat="62.47491" lon="6.22177" id="-1173">
		<tag k="ADDRESS" v="Fagerlibakken 11, 6008 ÅLESUND" />
		<tag k="amenity" v="kindergarten" />
		<tag k="capacity" v="72" />
		<tag k="max_age" v="5" />
		<tag k="min_age" v="1" />
		<tag k="name" v="Fagerlia barnehage" />
		<tag k="no-barnehage:nsrid" v="976974395" />
		<tag k="operator" v="Ålesund kommune" />
		<tag k="operator:type" v="public" />
	</node>
	<node lat="62.47607" lon="6.19277" id="-1174">
		<tag k="ADDRESS" v="Kråmyrvegen 3, 6007 ÅLESUND" />
		<tag k="amenity" v="kindergarten" />
		<tag k="capacity" v="39" />
		<tag k="max_age" v="5" />
		<tag k="min_age" v="1" />
		<tag k="name" v="Fjelltun barnehage" />
		<tag k="no-barnehage:nsrid" v="975048179" />
		<tag k="operator" v="Fjelltun barnehage AS" />
		<tag k="operator:type" v="private" />
	</node>
	<node lat="62.46601" lon="6.37838" id="-1175">
		<tag k="ADDRESS" v="Holsmyrvegen 48, 6011 ÅLESUND" />
		<tag k="amenity" v="kindergarten" />
		<tag k="capacity" v="74" />
		<tag k="max_age" v="5" />
		<tag k="min_age" v="1" />
		<tag k="name" v="Fremmerholen barnehage" />
		<tag k="no-barnehage:nsrid" v="975310213" />
		<tag k="operator" v="Ålesund kommune" />
		<tag k="operator:type" v="public" />
	</node>
	<node lat="62.63808" lon="6.26803" id="-1176">
		<tag k="ADDRESS" v="Barnehagevegen 66, 6290 HARAMSØY" />
		<tag k="amenity" v="kindergarten" />
		<tag k="capacity" v="36" />
		<tag k="max_age" v="5" />
		<tag k="min_age" v="1" />
		<tag k="name" v="Haramsøy barnehage" />
		<tag k="no-barnehage:nsrid" v="975310582" />
		<tag k="operator" v="Ålesund kommune" />
		<tag k="operator:type" v="public" />
	</node>
	<node lat="62.77193" lon="6.46134" id="-1177">
		<tag k="ADDRESS" v="Skulevegen 10, 6296 HARØY" />
		<tag k="amenity" v="kindergarten" />
		<tag k="capacity" v="41" />
		<tag k="max_age" v="5" />
		<tag k="min_age" v="1" />
		<tag k="name" v="Harøy barnehage" />
		<tag k="no-barnehage:nsrid" v="874013382" />
		<tag k="operator" v="Ålesund kommune" />
		<tag k="operator:type" v="public" />
	</node>
	<node lat="62.44009" lon="6.36657" id="-1178">
		<tag k="ADDRESS" v="Holmevatnet 36, 6020 ÅLESUND" />
		<tag k="amenity" v="kindergarten" />
		<tag k="capacity" v="52" />
		<tag k="contact:website" v="http://heimdalen.barnehage.no" />
		<tag k="max_age" v="5" />
		<tag k="min_age" v="1" />
		<tag k="name" v="Heimdalen barnehage" />
		<tag k="no-barnehage:nsrid" v="983443923" />
		<tag k="operator" v="Heimdalen barnehage SA" />
		<tag k="operator:type" v="private" />
	</node>
	<node lat="62.60382" lon="6.35293" id="-1179">
		<tag k="ADDRESS" v="Hildredalsvegen 40, 6272 HILDRE" />
		<tag k="amenity" v="kindergarten" />
		<tag k="capacity" v="16" />
		<tag k="max_age" v="5" />
		<tag k="min_age" v="1" />
		<tag k="name" v="Hildre barnehage" />
		<tag k="no-barnehage:nsrid" v="983952488" />
		<tag k="operator" v="Ålesund kommune" />
		<tag k="operator:type" v="public" />
	</node>
	<node lat="62.4721" lon="6.18009" id="-1180">
		<tag k="ADDRESS" v="Klipragata 5, 6007 ÅLESUND" />
		<tag k="amenity" v="kindergarten" />
		<tag k="capacity" v="39" />
		<tag k="max_age" v="5" />
		<tag k="min_age" v="1" />
		<tag k="name" v="Jugendby barnehage" />
		<tag k="no-barnehage:nsrid" v="992876891" />
		<tag k="operator" v="Jugendby barnehage AS" />
		<tag k="operator:type" v="private" />
	</node>
	<node lat="62.47203" lon="6.17826" id="-1181">
		<tag k="ADDRESS" v="Fjellgata 55, 6007 ÅLESUND" />
		<tag k="amenity" v="kindergarten" />
		<tag k="capacity" v="31" />
		<tag k="max_age" v="5" />
		<tag k="min_age" v="1" />
		<tag k="name" v="Klipra barnehage" />
		<tag k="no-barnehage:nsrid" v="873458712" />
		<tag k="operator" v="Klipra barnehage SA" />
		<tag k="operator:type" v="private" />
	</node>
	<node lat="62.48415" lon="6.84643" id="-1182">
		<tag k="ADDRESS" v="Bårdsgjerdevegen 8, 6240 ØRSKOG" />
		<tag k="amenity" v="kindergarten" />
		<tag k="capacity" v="60" />
		<tag k="contact:website" v="http://fus.no/lande" />
		<tag k="max_age" v="5" />
		<tag k="min_age" v="1" />
		<tag k="name" v="Lande FUS barnehage" />
		<tag k="no-barnehage:nsrid" v="998633923" />
		<tag k="operator" v="Lande Fus barnehage AS" />
		<tag k="operator:type" v="private" />
	</node>
	<node lat="62.60756" lon="6.20005" id="-1183">
		<tag k="ADDRESS" v="Lepsøyvegen 23, 6292 KJERSTAD" />
		<tag k="amenity" v="kindergarten" />
		<tag k="capacity" v="10" />
		<tag k="max_age" v="5" />
		<tag k="min_age" v="1" />
		<tag k="name" v="Lepsøy barnehage" />
		<tag k="no-barnehage:nsrid" v="980454754" />
		<tag k="operator" v="Ålesund kommune" />
		<tag k="operator:type" v="public" />
	</node>
	<node lat="62.46777" lon="6.30697" id="-1184">
		<tag k="ADDRESS" v="Kyrkjehaugen 4B, 6014 ÅLESUND" />
		<tag k="amenity" v="kindergarten" />
		<tag k="capacity" v="45" />
		<tag k="max_age" v="5" />
		<tag k="min_age" v="1" />
		<tag k="name" v="Lerstad barnehage" />
		<tag k="no-barnehage:nsrid" v="875310232" />
		<tag k="operator" v="Ålesund kommune" />
		<tag k="operator:type" v="public" />
	</node>
	<node lat="62.46388" lon="6.31882" id="-1185">
		<tag k="ADDRESS" v="Øvre Geilegrend 16, 6017 ÅLESUND" />
		<tag k="amenity" v="kindergarten" />
		<tag k="capacity" v="32" />
		<tag k="max_age" v="5" />
		<tag k="min_age" v="1" />
		<tag k="name" v="Lykkeliten barnehage" />
		<tag k="no-barnehage:nsrid" v="993818666" />
		<tag k="operator" v="Ludens Norge AS" />
		<tag k="operator:type" v="private" />
	</node>
	<node lat="62.44074" lon="6.38636" id="-1186">
		<tag k="ADDRESS" v="Ospedalssvingen 48, 6012 ÅLESUND" />
		<tag k="amenity" v="kindergarten" />
		<tag k="capacity" v="67" />
		<tag k="contact:website" v="http://laringsverkstedet.no/barnehage/blindheim" />
		<tag k="max_age" v="5" />
		<tag k="min_age" v="1" />
		<tag k="name" v="Læringsverkstedet Blindheim naturbarnehage" />
		<tag k="no-barnehage:nsrid" v="972218243" />
		<tag k="operator" v="Læringsverkstedet Blindheim naturbarnehage AS" />
		<tag k="operator:type" v="private" />
	</node>
	<node lat="62.48044" lon="6.37741" id="-1187">
		<tag k="ADDRESS" v="Nyelvmyrvegen 11, 6019 ÅLESUND" />
		<tag k="amenity" v="kindergarten" />
		<tag k="capacity" v="134" />
		<tag k="max_age" v="5" />
		<tag k="min_age" v="1" />
		<tag k="name" v="Læringsverkstedet Olsvika idrettsbarnehage" />
		<tag k="no-barnehage:nsrid" v="991208216" />
		<tag k="operator" v="Læringsverkstedet Olsvika idrettsbarnehage AS" />
		<tag k="operator:type" v="private" />
	</node>
	<node lat="62.45833" lon="6.36561" id="-1188">
		<tag k="ADDRESS" v="Mogensvegen 41, 6010 ÅLESUND" />
		<tag k="amenity" v="kindergarten" />
		<tag k="capacity" v="40" />
		<tag k="contact:website" v="http://laringsverkstedet.no/barnehage/skogheim" />
		<tag k="max_age" v="5" />
		<tag k="min_age" v="1" />
		<tag k="name" v="Læringsverkstedet Skogheim barnehage" />
		<tag k="no-barnehage:nsrid" v="990524424" />
		<tag k="operator" v="Læringsverkstedet Skogheim barnehage AS" />
		<tag k="operator:type" v="private" />
	</node>
	<node lat="62.46389" lon="6.31819" id="-1189">
		<tag k="ADDRESS" v="Øvre Geilegrend 12, 6017 ÅLESUND" />
		<tag k="amenity" v="kindergarten" />
		<tag k="capacity" v="80" />
		<tag k="max_age" v="5" />
		<tag k="min_age" v="1" />
		<tag k="name" v="Læringsverkstedet Åse barnehage" />
		<tag k="no-barnehage:nsrid" v="973470094" />
		<tag k="operator" v="Læringsverkstedet Åse barnehage AS" />
		<tag k="operator:type" v="private" />
	</node>
	<node lat="62.47382" lon="6.15949" id="-1190">
		<tag k="ADDRESS" v="Losgata 2, 6002 ÅLESUND" />
		<tag k="amenity" v="kindergarten" />
		<tag k="capacity" v="44" />
		<tag k="max_age" v="5" />
		<tag k="min_age" v="1" />
		<tag k="name" v="Midtbyen barnehage" />
		<tag k="no-barnehage:nsrid" v="975310248" />
		<tag k="operator" v="Ålesund kommune" />
		<tag k="operator:type" v="public" />
	</node>
	<node lat="62.58195" lon="6.45032" id="-1191">
		<tag k="ADDRESS" v="Øvrehjellen 1, 6270 BRATTVÅG" />
		<tag k="amenity" v="kindergarten" />
		<tag k="capacity" v="76" />
		<tag k="max_age" v="5" />
		<tag k="min_age" v="1" />
		<tag k="name" v="Nlm-barnehage Tryggheim Brattvåg" />
		<tag k="no-barnehage:nsrid" v="974156172" />
		<tag k="operator" v="Nlm-Barnehage Tryggheim Brattvåg AS" />
		<tag k="operator:type" v="private" />
	</node>
	<node lat="62.5586" lon="6.62065" id="-1192">
		<tag k="ADDRESS" v="Ulvestadvegen 4, 6265 VATNE" />
		<tag k="amenity" v="kindergarten" />
		<tag k="capacity" v="85" />
		<tag k="max_age" v="5" />
		<tag k="min_age" v="1" />
		<tag k="name" v="Nlm-barnehage Tryggheim Vatne" />
		<tag k="no-barnehage:nsrid" v="974156164" />
		<tag k="operator" v="Nlm-Barnehage Tryggheim Vatne AS" />
		<tag k="operator:type" v="private" />
	</node>
	<node lat="62.46313" lon="6.33123" id="-1193">
		<tag k="ADDRESS" v="Gartnerivegen 2, 6017 ÅLESUND" />
		<tag k="amenity" v="kindergarten" />
		<tag k="capacity" v="61" />
		<tag k="max_age" v="5" />
		<tag k="min_age" v="1" />
		<tag k="name" v="Nlm-barnehage Tryggheim Ålesund" />
		<tag k="no-barnehage:nsrid" v="974143003" />
		<tag k="operator" v="Nlm-Barnehage Tryggheim Ålesund AS" />
		<tag k="operator:type" v="private" />
	</node>
	<node lat="62.42884" lon="6.40703" id="-1194">
		<tag k="ADDRESS" v="Flisnesvegen 60, 6013 ÅLESUND" />
		<tag k="amenity" v="kindergarten" />
		<tag k="capacity" v="125" />
		<tag k="contact:website" v="http://www.gnistbarnehager.no" />
		<tag k="max_age" v="5" />
		<tag k="min_age" v="1" />
		<tag k="name" v="Norlandia Flisnes barnehage" />
		<tag k="no-barnehage:nsrid" v="893193952" />
		<tag k="operator" v="Norlandia Flisnes barnehage AS" />
		<tag k="operator:type" v="private" />
	</node>
	<node lat="62.4578" lon="6.13899" id="-1195">
		<tag k="ADDRESS" v="Solsidevegen 2, 6006 ÅLESUND" />
		<tag k="amenity" v="kindergarten" />
		<tag k="capacity" v="112" />
		<tag k="contact:website" v="http://www.norlandiabarnehagene.no" />
		<tag k="max_age" v="5" />
		<tag k="min_age" v="1" />
		<tag k="name" v="Norlandia Hessa barnehage" />
		<tag k="no-barnehage:nsrid" v="989543482" />
		<tag k="operator" v="Norlandia Hessa barnehage AS" />
		<tag k="operator:type" v="private" />
	</node>
	<node lat="62.46895" lon="6.35912" id="-1196">
		<tag k="ADDRESS" v="Stykkjevegen 6, 6018 ÅLESUND" />
		<tag k="amenity" v="kindergarten" />
		<tag k="capacity" v="96" />
		<tag k="contact:website" v="http://norlandiabarnehagene.no" />
		<tag k="max_age" v="5" />
		<tag k="min_age" v="1" />
		<tag k="name" v="Norlandia Høgvoll barnehage" />
		<tag k="no-barnehage:nsrid" v="988009180" />
		<tag k="operator" v="Norlandia Høgvoll barnehage AS" />
		<tag k="operator:type" v="private" />
	</node>
	<node lat="62.46278" lon="6.26181" id="-1197">
		<tag k="ADDRESS" v="Søstrene Ratviks veg 14, 6015 ÅLESUND" />
		<tag k="amenity" v="kindergarten" />
		<tag k="capacity" v="77" />
		<tag k="contact:website" v="http://www.norlandiabarnehagene.no/ratvika" />
		<tag k="max_age" v="5" />
		<tag k="min_age" v="1" />
		<tag k="name" v="Norlandia Ratvika barnehage" />
		<tag k="no-barnehage:nsrid" v="995737329" />
		<tag k="operator" v="Norlandia Ratvika barnehage AS" />
		<tag k="operator:type" v="private" />
	</node>
	<node lat="62.47396" lon="6.22481" id="-1198">
		<tag k="ADDRESS" v="Bøgata 37, 6008 ÅLESUND" />
		<tag k="amenity" v="kindergarten" />
		<tag k="capacity" v="49" />
		<tag k="max_age" v="5" />
		<tag k="min_age" v="1" />
		<tag k="name" v="Nørve barnehage" />
		<tag k="no-barnehage:nsrid" v="975310272" />
		<tag k="operator" v="Ålesund kommune" />
		<tag k="operator:type" v="public" />
	</node>
	<node lat="62.49784" lon="6.72931" id="-1199">
		<tag k="ADDRESS" v="Furlivegen 60, 6260 SKODJE" />
		<tag k="amenity" v="kindergarten" />
		<tag k="capacity" v="76" />
		<tag k="max_age" v="5" />
		<tag k="min_age" v="1" />
		<tag k="name" v="Plassebakken barnehage" />
		<tag k="no-barnehage:nsrid" v="973472461" />
		<tag k="operator" v="Plassebakken barnehage SA" />
		<tag k="operator:type" v="private" />
	</node>
	<node lat="62.5034" lon="6.68427" id="-1200">
		<tag k="ADDRESS" v="Nedreskodjevegen 12, 6260 SKODJE" />
		<tag k="amenity" v="kindergarten" />
		<tag k="capacity" v="70" />
		<tag k="contact:website" v="http://alesund.kommune.no/prestemarka-barnehage" />
		<tag k="max_age" v="5" />
		<tag k="min_age" v="1" />
		<tag k="name" v="Prestemarka barnehage" />
		<tag k="no-barnehage:nsrid" v="913878299" />
		<tag k="operator" v="Ålesund kommune" />
		<tag k="operator:type" v="public" />
	</node>
	<node lat="62.43381" lon="6.40047" id="-1201">
		<tag k="ADDRESS" v="Ramsvika 1, 6012 ÅLESUND" />
		<tag k="amenity" v="kindergarten" />
		<tag k="capacity" v="41" />
		<tag k="contact:website" v="http://www.puskhola.barnehage.no" />
		<tag k="max_age" v="5" />
		<tag k="min_age" v="1" />
		<tag k="name" v="Puskhola barnehage" />
		<tag k="no-barnehage:nsrid" v="972215473" />
		<tag k="operator" v="Puskhola barnehage SA" />
		<tag k="operator:type" v="private" />
	</node>
	<node lat="62.4348" lon="6.35044" id="-1202">
		<tag k="ADDRESS" v="Vegsundvegen 62, 6020 ÅLESUND" />
		<tag k="amenity" v="kindergarten" />
		<tag k="capacity" v="62" />
		<tag k="max_age" v="5" />
		<tag k="min_age" v="1" />
		<tag k="name" v="Rabbevågen barnehage" />
		<tag k="no-barnehage:nsrid" v="993371696" />
		<tag k="operator" v="Ålesund kommune" />
		<tag k="operator:type" v="public" />
	</node>
	<node lat="0.0" lon="0.0" id="-1203">
		<tag k="ADDRESS" v="Hatlaskaret 19, 6016 ÅLESUND" />
		<tag k="amenity" v="kindergarten" />
		<tag k="capacity" v="29" />
		<tag k="max_age" v="5" />
		<tag k="min_age" v="1" />
		<tag k="name" v="Ratvikåsen barnehage" />
		<tag k="no-barnehage:nsrid" v="975310280" />
		<tag k="operator" v="Ålesund kommune" />
		<tag k="operator:type" v="public" />
	</node>
	<node lat="0.0" lon="0.0" id="-1204">
		<tag k="ADDRESS" v="Harhauggata 41, 6006 ÅLESUND" />
		<tag k="amenity" v="kindergarten" />
		<tag k="capacity" v="60" />
		<tag k="max_age" v="5" />
		<tag k="min_age" v="1" />
		<tag k="name" v="Skarbøvik barnehage" />
		<tag k="no-barnehage:nsrid" v="975310299" />
		<tag k="operator" v="Ålesund kommune" />
		<tag k="operator:type" v="public" />
	</node>
	<node lat="62.50356" lon="6.67686" id="-1205">
		<tag k="ADDRESS" v="Stadionvegen 19, 6260 SKODJE" />
		<tag k="amenity" v="kindergarten" />
		<tag k="capacity" v="40" />
		<tag k="contact:website" v="http://alesund.kommune.no" />
		<tag k="max_age" v="5" />
		<tag k="min_age" v="1" />
		<tag k="name" v="Skodje barnehage" />
		<tag k="no-barnehage:nsrid" v="975310531" />
		<tag k="operator" v="Ålesund kommune" />
		<tag k="operator:type" v="public" />
	</node>
	<node lat="62.4502" lon="6.36301" id="-1206">
		<tag k="ADDRESS" v="Skåthaugen 1, 6010 ÅLESUND" />
		<tag k="amenity" v="kindergarten" />
		<tag k="capacity" v="68" />
		<tag k="contact:website" v="http://www.skothaugen.barnehage.no" />
		<tag k="max_age" v="5" />
		<tag k="min_age" v="1" />
		<tag k="name" v="Skåthaugen barnehage" />
		<tag k="no-barnehage:nsrid" v="983173764" />
		<tag k="operator" v="Skåthaugen barnehage SA" />
		<tag k="operator:type" v="private" />
	</node>
	<node lat="62.45796" lon="6.15023" id="-1207">
		<tag k="ADDRESS" v="Skolemestervegen 50, 6006 ÅLESUND" />
		<tag k="amenity" v="kindergarten" />
		<tag k="capacity" v="59" />
		<tag k="contact:website" v="http://www.slinningen.barnehage.no" />
		<tag k="max_age" v="5" />
		<tag k="min_age" v="1" />
		<tag k="name" v="Slinningen barnehage" />
		<tag k="no-barnehage:nsrid" v="984962924" />
		<tag k="operator" v="Slinningen barnehage SA" />
		<tag k="operator:type" v="private" />
	</node>
	<node lat="62.52397" lon="6.60529" id="-1209">
		<tag k="ADDRESS" v="Bjønnaberget 7, 6260 SKODJE" />
		<tag k="amenity" v="kindergarten" />
		<tag k="capacity" v="43" />
		<tag k="contact:website" v="http://alesund.kommune.no/kommunen/alle-einingar/opplaring/barnehage/barnehagar-skodje-orskog/stette-barneh" />
		<tag k="max_age" v="5" />
		<tag k="min_age" v="1" />
		<tag k="name" v="Stette barnehage" />
		<tag k="no-barnehage:nsrid" v="976675894" />
		<tag k="operator" v="Ålesund kommune" />
		<tag k="operator:type" v="public" />
	</node>
	<node lat="62.47396" lon="6.23711" id="-1210">
		<tag k="ADDRESS" v="Husafjellet 7, 6009 ÅLESUND" />
		<tag k="amenity" v="kindergarten" />
		<tag k="capacity" v="30" />
		<tag k="max_age" v="5" />
		<tag k="min_age" v="1" />
		<tag k="name" v="Stiftelsen Rudolf steinerbarnehagen Stjerneøye" />
		<tag k="no-barnehage:nsrid" v="973465007" />
		<tag k="operator" v="Stiftelsen Rudolf Steinerbarnehagen Stjerneøye" />
		<tag k="operator:type" v="private" />
	</node>
	<node lat="62.50476" lon="6.3977" id="-1211">
		<tag k="ADDRESS" v="Røysetmarka 11, 6057 ELLINGSØY" />
		<tag k="amenity" v="kindergarten" />
		<tag k="capacity" v="94" />
		<tag k="contact:website" v="http://fus.no/stokke" />
		<tag k="max_age" v="5" />
		<tag k="min_age" v="1" />
		<tag k="name" v="Stokke Maritime FUS barnehage" />
		<tag k="no-barnehage:nsrid" v="921015437" />
		<tag k="operator" v="Stokke Maritime Fus barnehage AS" />
		<tag k="operator:type" v="private" />
	</node>
	<node lat="62.47194" lon="6.1425" id="-1212">
		<tag k="ADDRESS" v="Storhauggata 9, 6005 ÅLESUND" />
		<tag k="amenity" v="kindergarten" />
		<tag k="capacity" v="60" />
		<tag k="max_age" v="5" />
		<tag k="min_age" v="1" />
		<tag k="name" v="Storhaugen barnehage" />
		<tag k="no-barnehage:nsrid" v="975310302" />
		<tag k="operator" v="Ålesund kommune" />
		<tag k="operator:type" v="public" />
	</node>
	<node lat="62.54535" lon="6.27753" id="-1213">
		<tag k="ADDRESS" v="Plassen 19, 6280 SØVIK" />
		<tag k="amenity" v="kindergarten" />
		<tag k="capacity" v="57" />
		<tag k="max_age" v="5" />
		<tag k="min_age" v="1" />
		<tag k="name" v="Søvik barnehage" />
		<tag k="no-barnehage:nsrid" v="975310590" />
		<tag k="operator" v="Ålesund kommune" />
		<tag k="operator:type" v="public" />
	</node>
	<node lat="62.54391" lon="6.58729" id="-1214">
		<tag k="ADDRESS" v="Trolldalssletta 18, 6264 TENNFJORD" />
		<tag k="amenity" v="kindergarten" />
		<tag k="capacity" v="87" />
		<tag k="max_age" v="5" />
		<tag k="min_age" v="1" />
		<tag k="name" v="Tennfjord barnehage" />
		<tag k="no-barnehage:nsrid" v="983952852" />
		<tag k="operator" v="Ålesund kommune" />
		<tag k="operator:type" v="public" />
	</node>
	<node lat="62.46161" lon="6.36134" id="-1215">
		<tag k="ADDRESS" v="Liljedahlvegen 21, 6010 ÅLESUND" />
		<tag k="amenity" v="kindergarten" />
		<tag k="capacity" v="50" />
		<tag k="max_age" v="5" />
		<tag k="min_age" v="1" />
		<tag k="name" v="Tommeliten FUS barnehage" />
		<tag k="no-barnehage:nsrid" v="972200336" />
		<tag k="operator" v="Tommeliten Fus barnehage AS" />
		<tag k="operator:type" v="private" />
	</node>
	<node lat="62.47592" lon="6.24718" id="-1216">
		<tag k="ADDRESS" v="Torvteigen 25, 6009 ÅLESUND" />
		<tag k="amenity" v="kindergarten" />
		<tag k="capacity" v="37" />
		<tag k="max_age" v="5" />
		<tag k="min_age" v="1" />
		<tag k="name" v="Torvteigen barnehage" />
		<tag k="no-barnehage:nsrid" v="974194678" />
		<tag k="operator" v="Torvteigen barnehage AS" />
		<tag k="operator:type" v="private" />
	</node>
	<node lat="62.46782" lon="6.24831" id="-1217">
		<tag k="ADDRESS" v="Haugvegen 19, 6015 ÅLESUND" />
		<tag k="amenity" v="kindergarten" />
		<tag k="capacity" v="133" />
		<tag k="contact:website" v="http://www.trollhaugenbarnehage.no" />
		<tag k="max_age" v="5" />
		<tag k="min_age" v="1" />
		<tag k="name" v="Trollhaugen barnehage" />
		<tag k="no-barnehage:nsrid" v="974187604" />
		<tag k="operator" v="Trollhaugen barnehage AS" />
		<tag k="operator:type" v="private" />
	</node>
	<node lat="62.53939" lon="6.50393" id="-1218">
		<tag k="ADDRESS" v="Grytafjordvegen 34, 6265 VATNE" />
		<tag k="amenity" v="kindergarten" />
		<tag k="capacity" v="27" />
		<tag k="max_age" v="5" />
		<tag k="min_age" v="1" />
		<tag k="name" v="Utigarden barnehage" />
		<tag k="no-barnehage:nsrid" v="987110201" />
		<tag k="operator" v="Utigarden barnehage AS" />
		<tag k="operator:type" v="private" />
	</node>
	<node lat="62.47791" lon="6.66158" id="-1219">
		<tag k="ADDRESS" v="Vallemyrane 3, 6260 SKODJE" />
		<tag k="amenity" v="kindergarten" />
		<tag k="capacity" v="51" />
		<tag k="contact:website" v="http://www.alesund.kommune.no" />
		<tag k="max_age" v="5" />
		<tag k="min_age" v="1" />
		<tag k="name" v="Valle barnehage" />
		<tag k="no-barnehage:nsrid" v="975323773" />
		<tag k="operator" v="Ålesund kommune" />
		<tag k="operator:type" v="public" />
	</node>
	<node lat="62.43512" lon="6.35123" id="-1220">
		<tag k="ADDRESS" v="Vegsundvegen 44, 6020 ÅLESUND" />
		<tag k="amenity" v="kindergarten" />
		<tag k="capacity" v="72" />
		<tag k="max_age" v="5" />
		<tag k="min_age" v="1" />
		<tag k="name" v="Vegsund barnehage" />
		<tag k="no-barnehage:nsrid" v="987045833" />
		<tag k="operator" v="Vegsund barnehage SA" />
		<tag k="operator:type" v="private" />
	</node>
	<node lat="62.46051" lon="6.37262" id="-1221">
		<tag k="ADDRESS" v="Bolsethvegen 31, 6011 ÅLESUND" />
		<tag k="amenity" v="kindergarten" />
		<tag k="capacity" v="59" />
		<tag k="contact:website" v="http://www.veslefrikk.barnehage.no" />
		<tag k="max_age" v="5" />
		<tag k="min_age" v="1" />
		<tag k="name" v="Veslefrikk barnehage Ålesund" />
		<tag k="no-barnehage:nsrid" v="973470280" />
		<tag k="operator" v="Veslefrikk barnehage Ålesund SA" />
		<tag k="operator:type" v="private" />
	</node>
	<node lat="0.0" lon="0.0" id="-1222">
		<tag k="ADDRESS" v="Årøyvegen 7, 6240 ØRSKOG" />
		<tag k="amenity" v="kindergarten" />
		<tag k="capacity" v="49" />
		<tag k="contact:website" v="http://www.alesund.kommune.no" />
		<tag k="max_age" v="5" />
		<tag k="min_age" v="1" />
		<tag k="name" v="Årøyhaugen barnehage" />
		<tag k="no-barnehage:nsrid" v="975317803" />
		<tag k="operator" v="Ålesund kommune" />
		<tag k="operator:type" v="public" />
	</node>
	<node lat="62.4606" lon="6.3356" id="-1223">
		<tag k="ADDRESS" v="Borgundfjordvegen 78, 6017 ÅLESUND" />
		<tag k="amenity" v="kindergarten" />
		<tag k="capacity" v="37" />
		<tag k="contact:website" v="http://aasestranda.barnehage.no" />
		<tag k="max_age" v="5" />
		<tag k="min_age" v="1" />
		<tag k="name" v="Åsestranda barnehage" />
		<tag k="no-barnehage:nsrid" v="973489623" />
		<tag k="operator" v="Åsestranda barnehage SA" />
		<tag k="operator:type" v="private" />
	</node>
</osm>
