<?xml version="1.0" encoding="UTF-8"?>
<osm generator="osmapis" version="0.6">
	<node id="-4605" lat="60.32135" lon="5.33603">
		<tag k="ADDRESS" v="Hopsåsen 14a, 5232 PARADIS" />
		<tag k="amenity" v="kindergarten" />
		<tag k="capacity" v="8" />
		<tag k="contact:website" v="http://www.lekehagen.no" />
		<tag k="max_age" v="2" />
		<tag k="min_age" v="1" />
		<tag k="name" v="Lekehagen familiebarnehage" />
		<tag k="no-barnehage:nsrid" v="1020539" />
		<tag k="operator" v="Lekehagen Familiebarnehage" />
		<tag k="operator:type" v="private" />
	</node>
	<node id="-4719" lat="60.29259" lon="5.37898">
		<tag k="ADDRESS" v="Vestre Vallavegen 69, 5227 NESTTUN" />
		<tag k="amenity" v="kindergarten" />
		<tag k="capacity" v="9" />
		<tag k="contact:website" v="http://valle-familiebarnehage.com" />
		<tag k="max_age" v="5" />
		<tag k="min_age" v="1" />
		<tag k="name" v="Valle familiebarnehage" />
		<tag k="no-barnehage:nsrid" v="1020741" />
		<tag k="operator" v="Berge Holding AS" />
		<tag k="operator:type" v="private" />
	</node>
	<node id="-4529" lat="60.38503" lon="5.20259">
		<tag k="ADDRESS" v="Gjerdingsskjenet 28, 5179 GODVIK" />
		<tag k="amenity" v="kindergarten" />
		<tag k="capacity" v="9" />
		<tag k="contact:website" v="http://gjeringsvikfamiliebarnehage.com/hjem" />
		<tag k="max_age" v="5" />
		<tag k="min_age" v="1" />
		<tag k="name" v="Gjæringsvik familiebarnehage" />
		<tag k="no-barnehage:nsrid" v="1020064" />
		<tag k="operator" v="Gjæringsvik Familiebarnehage Ans" />
		<tag k="operator:type" v="private" />
	</node>
	<node id="-4516" lat="60.25652" lon="5.34108">
		<tag k="ADDRESS" v="Fanavollen 20, 5244 FANA" />
		<tag k="amenity" v="kindergarten" />
		<tag k="capacity" v="9" />
		<tag k="max_age" v="5" />
		<tag k="min_age" v="1" />
		<tag k="name" v="Fanavollen familiebarnehage" />
		<tag k="no-barnehage:nsrid" v="1021481" />
		<tag k="operator" v="Fanavollen Familiebarnehage AS" />
		<tag k="operator:type" v="private" />
	</node>
	<node id="-4513" lat="60.33873" lon="5.37205">
		<tag k="ADDRESS" v="Sædalsvegen 88, 5099 BERGEN" />
		<tag k="amenity" v="kindergarten" />
		<tag k="capacity" v="6" />
		<tag k="contact:website" v="http://www.fagerbakken.no" />
		<tag k="max_age" v="5" />
		<tag k="min_age" v="1" />
		<tag k="name" v="Fagerbakken familiebarnehage" />
		<tag k="no-barnehage:nsrid" v="1021681" />
		<tag k="operator" v="Fagerbakken Familiebarnehage AS" />
		<tag k="operator:type" v="private" />
	</node>
</osm>
