<?xml version="1.0" encoding="UTF-8"?>
<osm generator="osmapis" version="0.6">
	<node id="-3806" lat="60.38503" lon="5.202597">
		<tag k="amenity" v="kindergarten" />
		<tag k="capacity" v="9" />
		<tag k="contact:email" v="nordange@online.no" />
		<tag k="contact:phone" v="+47 55 50 99 91" />
		<tag k="max_age" v="5" />
		<tag k="min_age" v="1" />
		<tag k="name" v="Gjæringsvik Familiebarnehage" />
		<tag k="no-barnehage:nsrid" v="1020064" />
		<tag k="operator" v="Gjæringsvik Familiebarnehage Ans" />
		<tag k="operator:type" v="private" />
		<tag k="start_date" v="1992-08-01" />
	</node>
	<node id="-3797" lat="60.25652" lon="5.341087">
		<tag k="amenity" v="kindergarten" />
		<tag k="capacity" v="9" />
		<tag k="contact:email" v="bspartv@gmail.com" />
		<tag k="contact:phone" v="+47 93221576" />
		<tag k="max_age" v="5" />
		<tag k="min_age" v="1" />
		<tag k="name" v="Fanavollen Familiebarnehage" />
		<tag k="no-barnehage:nsrid" v="1021481" />
		<tag k="operator" v="Fanavollen Familiebarnehage AS" />
		<tag k="operator:type" v="private" />
		<tag k="start_date" v="1995-02-23" />
	</node>
	<node id="-3876" lat="60.32104" lon="5.336156">
		<tag k="amenity" v="kindergarten" />
		<tag k="capacity" v="12" />
		<tag k="contact:email" v="bjornolavnielsen@hotmail.com" />
		<tag k="contact:phone" v="+47 55 10 17 63" />
		<tag k="contact:website" v="http://www.lekehagen.no" />
		<tag k="max_age" v="2" />
		<tag k="min_age" v="1" />
		<tag k="name" v="Lekehagen Familiebarnehage" />
		<tag k="no-barnehage:nsrid" v="1020539" />
		<tag k="operator" v="Lekehagen Familiebarnehage" />
		<tag k="operator:type" v="private" />
		<tag k="start_date" v="1998-03-31" />
	</node>
	<node id="-3977" lat="60.31583" lon="5.348122">
		<tag k="amenity" v="kindergarten" />
		<tag k="capacity" v="8" />
		<tag k="contact:email" v="irenebe@online.no" />
		<tag k="contact:phone" v="+47 55 10 18 59" />
		<tag k="max_age" v="5" />
		<tag k="min_age" v="1" />
		<tag k="name" v="Valle Familiebarnehage" />
		<tag k="no-barnehage:nsrid" v="1020741" />
		<tag k="operator" v="Berge Holding AS" />
		<tag k="operator:type" v="private" />
		<tag k="start_date" v="2001-08-01" />
	</node>
	<node id="-3793" lat="60.28632" lon="5.391444">
		<tag k="amenity" v="kindergarten" />
		<tag k="capacity" v="9" />
		<tag k="contact:email" v="post@fagerbakken.no" />
		<tag k="contact:phone" v="+47 55 27 16 00" />
		<tag k="contact:website" v="http://www.fagerbakken.no" />
		<tag k="max_age" v="5" />
		<tag k="min_age" v="1" />
		<tag k="name" v="Fagerbakken Familiebarnehage AS" />
		<tag k="no-barnehage:nsrid" v="1021681" />
		<tag k="operator" v="Fagerbakken Familiebarnehage AS" />
		<tag k="operator:type" v="private" />
		<tag k="start_date" v="2007-07-04" />
	</node>
</osm>
