<?xml version="1.0" encoding="UTF-8"?>
<osm generator="osmapis" version="0.6">
	<node id="-4072" lat="60.4593" lon="5.35861">
		<tag k="amenity" v="kindergarten" />
		<tag k="capacity" v="93" />
		<tag k="contact:email" v="postmaster@gaardsbarnehagen.no" />
		<tag k="contact:phone" v="+47 55 18 32 00" />
		<tag k="max_age" v="5" />
		<tag k="min_age" v="1" />
		<tag k="name" v="Åsane Gårds-Og Friluftsbarnehage" />
		<tag k="no-barnehage:nsrid" v="1016483" />
		<tag k="operator" v="Åsane Gårds- og Friluftsbarnehage AS" />
		<tag k="operator:type" v="private" />
		<tag k="start_date" v="2003-01-01" />
	</node>
	<node id="-4071" lat="60.3648" lon="5.35971">
		<tag k="amenity" v="kindergarten" />
		<tag k="capacity" v="123" />
		<tag k="contact:email" v="grethe.haugland@bergen.kommune.no" />
		<tag k="max_age" v="5" />
		<tag k="min_age" v="1" />
		<tag k="name" v="Årstad Brannstasjon barnehage" />
		<tag k="no-barnehage:nsrid" v="1017890" />
		<tag k="operator" v="Bergen kommune" />
		<tag k="operator:type" v="public" />
		<tag k="start_date" v="2007-10-01" />
	</node>
	<node id="-4070" lat="60.3947" lon="5.32933">
		<tag k="amenity" v="kindergarten" />
		<tag k="contact:email" v="ase.christiansen@skbb.no" />
		<tag k="name" v="Åpen barnehage Sentrum" />
		<tag k="no-barnehage:nsrid" v="1017646" />
		<tag k="operator" v="Stiftelsen Kirkens Bymisjon i Bergen" />
		<tag k="operator:type" v="private" />
		<tag k="start_date" v="2006-08-01" />
	</node>
	<node id="-4069" lat="60.26334" lon="5.34838">
		<tag k="amenity" v="kindergarten" />
		<tag k="contact:email" v="kari71@start.no" />
		<tag k="contact:phone" v="+47 41228003" />
		<tag k="contact:website" v="http://www.openbarnehage.no/" />
		<tag k="name" v="Åpen barnehage Fana Km" />
		<tag k="no-barnehage:nsrid" v="1020421" />
		<tag k="operator" v="Fana Kfuk-Kfum" />
		<tag k="operator:type" v="private" />
		<tag k="start_date" v="2008-01-28" />
	</node>
	<node id="-4068" lat="60.4299" lon="5.30064">
		<tag k="amenity" v="kindergarten" />
		<tag k="capacity" v="120" />
		<tag k="contact:email" v="Anne.Asbjornsen@bergen.kommune.no" />
		<tag k="max_age" v="5" />
		<tag k="min_age" v="1" />
		<tag k="name" v="Øyjorden barnehage" />
		<tag k="no-barnehage:nsrid" v="1018383" />
		<tag k="operator" v="Bergen kommune" />
		<tag k="operator:type" v="public" />
		<tag k="start_date" v="2008-04-01" />
	</node>
	<node id="-4067" lat="60.3563" lon="5.35826">
		<tag k="amenity" v="kindergarten" />
		<tag k="capacity" v="55" />
		<tag k="contact:email" v="annegrethe.andersen@bergen.kommune.no" />
		<tag k="contact:phone" v="+47 55271845" />
		<tag k="max_age" v="5" />
		<tag k="min_age" v="1" />
		<tag k="name" v="Øvrebø barnehage" />
		<tag k="no-barnehage:nsrid" v="1016087" />
		<tag k="operator" v="Bergen kommune" />
		<tag k="operator:type" v="public" />
		<tag k="start_date" v="1993-08-01" />
	</node>
	<node id="-4066" lat="60.34519" lon="5.372035">
		<tag k="amenity" v="kindergarten" />
		<tag k="capacity" v="25" />
		<tag k="contact:email" v="dagligleder@onbhg.no" />
		<tag k="contact:phone" v="+47 55 28 69 50" />
		<tag k="contact:website" v="http://www.onbhg.barnehage.no" />
		<tag k="max_age" v="5" />
		<tag k="min_age" v="1" />
		<tag k="name" v="Østre Nattlandsfjellet barnehage Ans" />
		<tag k="no-barnehage:nsrid" v="1021720" />
		<tag k="operator" v="Østre Nattlandsfjellet barnehage Ans" />
		<tag k="operator:type" v="private" />
		<tag k="start_date" v="2007-10-22" />
	</node>
	<node id="-4065" lat="60.35177" lon="5.286781">
		<tag k="amenity" v="kindergarten" />
		<tag k="capacity" v="9" />
		<tag k="contact:email" v="ornehag@online.no" />
		<tag k="contact:phone" v="+47 55 16 71 80" />
		<tag k="max_age" v="5" />
		<tag k="min_age" v="1" />
		<tag k="name" v="Ørnehaugen barnehage V/turid Svendsen" />
		<tag k="no-barnehage:nsrid" v="1020359" />
		<tag k="operator" v="Ørnehaugen barnehage V/turid Svendsen" />
		<tag k="operator:type" v="private" />
		<tag k="start_date" v="1995-09-14" />
	</node>
	<node id="-4064" lat="60.4581" lon="5.43562">
		<tag k="amenity" v="kindergarten" />
		<tag k="capacity" v="43" />
		<tag k="contact:email" v="maud.gaupas@bergen.kommune.no" />
		<tag k="max_age" v="5" />
		<tag k="min_age" v="1" />
		<tag k="name" v="Ytre Arna barnehage" />
		<tag k="no-barnehage:nsrid" v="1016689" />
		<tag k="operator" v="Bergen kommune" />
		<tag k="operator:type" v="public" />
		<tag k="start_date" v="1976-01-01" />
	</node>
	<node id="-4063" lat="60.32758" lon="5.284569">
		<tag k="amenity" v="kindergarten" />
		<tag k="capacity" v="22" />
		<tag k="contact:email" v="vaatun@barnehage.no" />
		<tag k="contact:phone" v="+47 55 12 37 73" />
		<tag k="max_age" v="5" />
		<tag k="min_age" v="1" />
		<tag k="name" v="Våtun barnehage" />
		<tag k="no-barnehage:nsrid" v="1019680" />
		<tag k="operator" v="Våtun barnehage Sa" />
		<tag k="operator:type" v="private" />
		<tag k="start_date" v="1989-01-02" />
	</node>
	<node id="-4062" lat="60.36082" lon="5.363639">
		<tag k="amenity" v="kindergarten" />
		<tag k="capacity" v="14" />
		<tag k="contact:email" v="ka-n-fle@online.no" />
		<tag k="contact:phone" v="+47 55 28 72 31" />
		<tag k="max_age" v="5" />
		<tag k="min_age" v="1" />
		<tag k="name" v="Vår Barnehager AS" />
		<tag k="no-barnehage:nsrid" v="1020552" />
		<tag k="operator" v="Vår Barnehager AS" />
		<tag k="operator:type" v="private" />
		<tag k="start_date" v="1999-01-01" />
	</node>
	<node id="-4061" lat="60.3299" lon="5.29158">
		<tag k="amenity" v="kindergarten" />
		<tag k="capacity" v="61" />
		<tag k="contact:email" v="vaakleivbrotet@kanvas.no" />
		<tag k="contact:phone" v="+47 22 40 58 40" />
		<tag k="max_age" v="5" />
		<tag k="min_age" v="1" />
		<tag k="name" v="Våkleivbrotet Kanvas-Barnehage" />
		<tag k="no-barnehage:nsrid" v="1015484" />
		<tag k="operator" v="Stiftelsen Kanvas" />
		<tag k="operator:type" v="private" />
		<tag k="start_date" v="1990-01-01" />
	</node>
	<node id="-4060" lat="60.4497" lon="5.30377">
		<tag k="amenity" v="kindergarten" />
		<tag k="capacity" v="17" />
		<tag k="contact:email" v="postmaster@gaardsbarnehagen.no" />
		<tag k="contact:phone" v="+47 55 18 32 00" />
		<tag k="max_age" v="5" />
		<tag k="min_age" v="1" />
		<tag k="name" v="Våganeset barnehage" />
		<tag k="no-barnehage:nsrid" v="1017259" />
		<tag k="operator" v="Åsane Gårds- og Friluftsbarnehage AS" />
		<tag k="operator:type" v="private" />
		<tag k="start_date" v="2006-09-01" />
	</node>
	<node id="-4059" lat="60.29787" lon="5.308863">
		<tag k="amenity" v="kindergarten" />
		<tag k="capacity" v="63" />
		<tag k="contact:email" v="postmaster@vindharpen.no" />
		<tag k="contact:phone" v="+47 55 52 27 70" />
		<tag k="max_age" v="5" />
		<tag k="min_age" v="1" />
		<tag k="name" v="Vindharpen Barnehge Sa" />
		<tag k="no-barnehage:nsrid" v="1020790" />
		<tag k="operator" v="Vindharpen barnehage Sa" />
		<tag k="operator:type" v="private" />
		<tag k="start_date" v="2002-09-01" />
	</node>
	<node id="-4057" lat="60.2937" lon="5.38396">
		<tag k="amenity" v="kindergarten" />
		<tag k="capacity" v="67" />
		<tag k="contact:email" v="Vallalia.barnehage@bergen.kommune.no" />
		<tag k="max_age" v="5" />
		<tag k="min_age" v="1" />
		<tag k="name" v="Vallalia barnehage" />
		<tag k="no-barnehage:nsrid" v="1016226" />
		<tag k="operator" v="Bergen kommune" />
		<tag k="operator:type" v="public" />
		<tag k="start_date" v="1994-08-01" />
	</node>
	<node id="-4056" lat="60.38307" lon="5.266974">
		<tag k="amenity" v="kindergarten" />
		<tag k="capacity" v="140" />
		<tag k="contact:email" v="janne.kristoffersen@bergen.kommune.no" />
		<tag k="max_age" v="5" />
		<tag k="min_age" v="1" />
		<tag k="name" v="Valheim barnehage" />
		<tag k="no-barnehage:nsrid" v="1019682" />
		<tag k="operator" v="Bergen kommune" />
		<tag k="operator:type" v="public" />
		<tag k="start_date" v="2014-02-01" />
	</node>
	<node id="-4055" lat="60.3617" lon="5.22586">
		<tag k="amenity" v="kindergarten" />
		<tag k="capacity" v="38" />
		<tag k="contact:email" v="torill.hodneland@bergen.kommune.no" />
		<tag k="contact:phone" v="+47 52 26 49 00" />
		<tag k="max_age" v="5" />
		<tag k="min_age" v="1" />
		<tag k="name" v="Vadmyra barnehage" />
		<tag k="no-barnehage:nsrid" v="1016685" />
		<tag k="operator" v="Bergen kommune" />
		<tag k="operator:type" v="public" />
		<tag k="start_date" v="1976-01-01" />
	</node>
	<node id="-4054" lat="60.36094" lon="5.478795">
		<tag k="amenity" v="kindergarten" />
		<tag k="capacity" v="58" />
		<tag k="contact:email" v="post@unnelandbarnehage.no" />
		<tag k="contact:phone" v="+47 55241966" />
		<tag k="max_age" v="5" />
		<tag k="min_age" v="1" />
		<tag k="name" v="Unneland barnehage" />
		<tag k="no-barnehage:nsrid" v="1019510" />
		<tag k="operator" v="Unneland barnehage" />
		<tag k="operator:type" v="private" />
		<tag k="start_date" v="1976-12-24" />
	</node>
	<node id="-4053" lat="60.4642" lon="5.35819">
		<tag k="amenity" v="kindergarten" />
		<tag k="capacity" v="58" />
		<tag k="contact:email" v="rune.espe@bergen.kommune.no" />
		<tag k="max_age" v="5" />
		<tag k="min_age" v="1" />
		<tag k="name" v="Ulvhøyen barnehage" />
		<tag k="no-barnehage:nsrid" v="1016711" />
		<tag k="operator" v="Bergen kommune" />
		<tag k="operator:type" v="public" />
		<tag k="start_date" v="1992-08-01" />
	</node>
	<node id="-4052" lat="60.4648" lon="5.36269">
		<tag k="amenity" v="kindergarten" />
		<tag k="capacity" v="28" />
		<tag k="contact:email" v="rune.espe@bergen.kommune.no" />
		<tag k="max_age" v="5" />
		<tag k="min_age" v="1" />
		<tag k="name" v="Ulvedalen barnehage" />
		<tag k="no-barnehage:nsrid" v="1016720" />
		<tag k="operator" v="Bergen kommune" />
		<tag k="operator:type" v="public" />
		<tag k="start_date" v="1993-01-01" />
	</node>
	<node id="-4051" lat="60.3123" lon="5.37257">
		<tag k="amenity" v="kindergarten" />
		<tag k="capacity" v="57" />
		<tag k="contact:email" v="torhild.bertelsen@bergen.kommune.no" />
		<tag k="max_age" v="5" />
		<tag k="min_age" v="1" />
		<tag k="name" v="Ulsmåg barnehage" />
		<tag k="no-barnehage:nsrid" v="1016697" />
		<tag k="operator" v="Bergen kommune" />
		<tag k="operator:type" v="public" />
		<tag k="start_date" v="1989-01-01" />
	</node>
	<node id="-4050" lat="60.4601" lon="5.31376">
		<tag k="amenity" v="kindergarten" />
		<tag k="capacity" v="28" />
		<tag k="contact:email" v="ingjerd.tveiteras@bergen.kommune.no" />
		<tag k="max_age" v="5" />
		<tag k="min_age" v="1" />
		<tag k="name" v="Ulsetåsen barnehage" />
		<tag k="no-barnehage:nsrid" v="1025391" />
		<tag k="operator" v="Bergen kommune" />
		<tag k="operator:type" v="public" />
		<tag k="start_date" v="1970-12-30" />
	</node>
	<node id="-4049" lat="60.46339" lon="5.315091">
		<tag k="amenity" v="kindergarten" />
		<tag k="capacity" v="53" />
		<tag k="contact:email" v="uls-barn@frisurf.no" />
		<tag k="contact:phone" v="+47 55 18 10 30" />
		<tag k="max_age" v="5" />
		<tag k="min_age" v="1" />
		<tag k="name" v="Ulset barnehage" />
		<tag k="no-barnehage:nsrid" v="1020315" />
		<tag k="operator" v="Ulset barnehage" />
		<tag k="operator:type" v="private" />
		<tag k="start_date" v="1982-01-01" />
	</node>
	<node id="-4048" lat="60.3591" lon="5.3754">
		<tag k="amenity" v="kindergarten" />
		<tag k="contact:email" v="jan.frode.sandvik@bergen.kirken.no" />
		<tag k="contact:website" v="http://www.kfuk-kfum.no/bjorgvin/ulriken" />
		<tag k="name" v="Ulriken Kfuk-Kfum Åpen barnehage" />
		<tag k="no-barnehage:nsrid" v="1014295" />
		<tag k="operator" v="Ulriken Kfuk-Kfum" />
		<tag k="operator:type" v="private" />
		<tag k="start_date" v="2011-06-01" />
	</node>
	<node id="-4047" lat="60.34988" lon="5.356184">
		<tag k="amenity" v="kindergarten" />
		<tag k="capacity" v="17" />
		<tag k="contact:email" v="tobarn@online.no" />
		<tag k="contact:phone" v="+47 55 28 54 60" />
		<tag k="max_age" v="5" />
		<tag k="min_age" v="1" />
		<tag k="name" v="Tveitevannet barnehage Sa" />
		<tag k="no-barnehage:nsrid" v="1019679" />
		<tag k="operator" v="Tveitevannet barnehage Sa" />
		<tag k="operator:type" v="private" />
		<tag k="start_date" v="1989-01-02" />
	</node>
	<node id="-4046" lat="60.34471" lon="5.34265">
		<tag k="amenity" v="kindergarten" />
		<tag k="capacity" v="75" />
		<tag k="contact:email" v="styrer@tryllefloyten.no" />
		<tag k="contact:phone" v="+47 55 92 63 10" />
		<tag k="contact:website" v="http://www.tryllefloyten.no" />
		<tag k="max_age" v="5" />
		<tag k="min_age" v="1" />
		<tag k="name" v="Tryllefløyten Steinerbarnehage Sa" />
		<tag k="no-barnehage:nsrid" v="1021043" />
		<tag k="operator" v="Tryllefløyten Steinerbarnehage Sa" />
		<tag k="operator:type" v="private" />
		<tag k="start_date" v="2004-04-30" />
	</node>
	<node id="-4045" lat="60.32167" lon="5.349499">
		<tag k="amenity" v="kindergarten" />
		<tag k="contact:email" v="bruas@bgnett.no" />
		<tag k="contact:phone" v="+47 55 13 36 06" />
		<tag k="max_age" v="5" />
		<tag k="min_age" v="1" />
		<tag k="name" v="Trollhatten barnehage AS" />
		<tag k="no-barnehage:nsrid" v="1021376" />
		<tag k="operator" v="Trollhatten barnehage AS" />
		<tag k="operator:type" v="private" />
		<tag k="start_date" v="2006-01-01" />
	</node>
	<node id="-4044" lat="60.427" lon="5.62866">
		<tag k="amenity" v="kindergarten" />
		<tag k="capacity" v="19" />
		<tag k="contact:email" v="lars-jorgen.pedersen@bergen.kommune.no" />
		<tag k="max_age" v="5" />
		<tag k="min_age" v="1" />
		<tag k="name" v="Trengereid Oppveksttun Avd Barnehage" />
		<tag k="no-barnehage:nsrid" v="1013522" />
		<tag k="operator" v="Bergen kommune" />
		<tag k="operator:type" v="public" />
		<tag k="start_date" v="2012-08-01" />
	</node>
	<node id="-4043" lat="60.45701" lon="5.311313">
		<tag k="amenity" v="kindergarten" />
		<tag k="capacity" v="28" />
		<tag k="contact:email" v="tertnesparken@barnehage.no" />
		<tag k="contact:phone" v="+47 55 19 21 42" />
		<tag k="max_age" v="5" />
		<tag k="min_age" v="1" />
		<tag k="name" v="Tertnesparken barnehage AS" />
		<tag k="no-barnehage:nsrid" v="1021345" />
		<tag k="operator" v="Tertnesparken barnehage AS" />
		<tag k="operator:type" v="private" />
		<tag k="start_date" v="1978-06-20" />
	</node>
	<node id="-4042" lat="60.3757" lon="5.33001">
		<tag k="amenity" v="kindergarten" />
		<tag k="capacity" v="60" />
		<tag k="contact:email" v="tone.sandstaa@bergen.kommune.no" />
		<tag k="contact:phone" v="+47 55 57 77 50" />
		<tag k="max_age" v="5" />
		<tag k="min_age" v="1" />
		<tag k="name" v="Søre Skogvei barnehage" />
		<tag k="no-barnehage:nsrid" v="1016692" />
		<tag k="operator" v="Bergen kommune" />
		<tag k="operator:type" v="public" />
		<tag k="start_date" v="1989-01-01" />
	</node>
	<node id="-4041" lat="60.34523" lon="5.239459">
		<tag k="amenity" v="kindergarten" />
		<tag k="capacity" v="28" />
		<tag k="contact:email" v="Berit.Wangsholm@bergen.kommune.no" />
		<tag k="max_age" v="5" />
		<tag k="min_age" v="1" />
		<tag k="name" v="Sæterdal barnehage" />
		<tag k="no-barnehage:nsrid" v="1025396" />
		<tag k="operator" v="Bergen kommune" />
		<tag k="operator:type" v="public" />
		<tag k="start_date" v="2000-11-27" />
	</node>
	<node id="-4040" lat="60.3468" lon="5.28254">
		<tag k="amenity" v="kindergarten" />
		<tag k="capacity" v="84" />
		<tag k="contact:email" v="jan.lundjanson@bergen.kommune.no" />
		<tag k="max_age" v="5" />
		<tag k="min_age" v="1" />
		<tag k="name" v="Sælen Oppveksttun Avd Barnehage" />
		<tag k="no-barnehage:nsrid" v="1025392" />
		<tag k="operator" v="Bergen kommune" />
		<tag k="operator:type" v="public" />
		<tag k="start_date" v="1976-01-01" />
	</node>
	<node id="-4039" lat="60.33444" lon="5.287619">
		<tag k="amenity" v="kindergarten" />
		<tag k="capacity" v="46" />
		<tag k="contact:email" v="kontor@straumsgrendbhg.no" />
		<tag k="contact:phone" v="+47 55 12 06 60" />
		<tag k="contact:website" v="http://www.straumsgrend.barnehage.no" />
		<tag k="max_age" v="5" />
		<tag k="min_age" v="1" />
		<tag k="name" v="Straumsgrend barnehage" />
		<tag k="no-barnehage:nsrid" v="1019616" />
		<tag k="operator" v="Straumsgrend barnehage Sa" />
		<tag k="operator:type" v="private" />
		<tag k="start_date" v="1972-12-25" />
	</node>
	<node id="-4038" lat="60.3511" lon="5.344502">
		<tag k="amenity" v="kindergarten" />
		<tag k="capacity" v="8" />
		<tag k="contact:email" v="storetveit-menighet@barnehage.no" />
		<tag k="contact:phone" v="+47 55201487" />
		<tag k="max_age" v="5" />
		<tag k="min_age" v="1" />
		<tag k="name" v="Storetveit Menighets barnehage V/henny Aalvik" />
		<tag k="no-barnehage:nsrid" v="1019516" />
		<tag k="operator" v="Storetveit Menighets barnehage" />
		<tag k="operator:type" v="private" />
		<tag k="start_date" v="1979-01-01" />
	</node>
	<node id="-4037" lat="60.3463" lon="5.34566">
		<tag k="amenity" v="kindergarten" />
		<tag k="capacity" v="73" />
		<tag k="contact:email" v="Aina.Varbakken@bergen.kommune.no" />
		<tag k="max_age" v="5" />
		<tag k="min_age" v="1" />
		<tag k="name" v="Storetveit barnehage" />
		<tag k="no-barnehage:nsrid" v="1017881" />
		<tag k="operator" v="Bergen kommune" />
		<tag k="operator:type" v="public" />
		<tag k="start_date" v="2007-08-28" />
	</node>
	<node id="-4036" lat="60.467" lon="5.32189">
		<tag k="amenity" v="kindergarten" />
		<tag k="contact:email" v="kate.eliassen.bolstad@bergen.kirken.no" />
		<tag k="name" v="Stjernen Åpen barnehage" />
		<tag k="no-barnehage:nsrid" v="1014216" />
		<tag k="operator" v="Åsane Sokn" />
		<tag k="operator:type" v="private" />
		<tag k="start_date" v="2010-09-01" />
	</node>
	<node id="-4035" lat="60.31637" lon="5.356017">
		<tag k="amenity" v="kindergarten" />
		<tag k="contact:email" v="torill@sesamist.com" />
		<tag k="contact:phone" v="+47 55 56 11 43" />
		<tag k="name" v="Stiftelsen Sesam" />
		<tag k="no-barnehage:nsrid" v="1020070" />
		<tag k="operator" v="Stiftelsen Sesam" />
		<tag k="operator:type" v="private" />
		<tag k="start_date" v="1992-08-01" />
	</node>
	<node id="-4034" lat="60.46454" lon="5.328941">
		<tag k="amenity" v="kindergarten" />
		<tag k="capacity" v="24" />
		<tag k="contact:email" v="post@selegrend-barnehage.no" />
		<tag k="contact:phone" v="+47 55 19 36 30" />
		<tag k="contact:website" v="http://www.selegrend-barnehage.no" />
		<tag k="max_age" v="5" />
		<tag k="min_age" v="1" />
		<tag k="name" v="Stiftelsen Selegrend barnehage" />
		<tag k="no-barnehage:nsrid" v="1020478" />
		<tag k="operator" v="Stiftelsen Selegrend barnehage" />
		<tag k="operator:type" v="private" />
		<tag k="start_date" v="1997-07-28" />
	</node>
	<node id="-4033" lat="60.38906" lon="5.353173">
		<tag k="amenity" v="kindergarten" />
		<tag k="capacity" v="18" />
		<tag k="contact:email" v="staref.bhg@gmail.com" />
		<tag k="contact:phone" v="+47 55 96 11 05" />
		<tag k="contact:website" v="http://starefossenbarnehage.no" />
		<tag k="max_age" v="5" />
		<tag k="min_age" v="1" />
		<tag k="name" v="Starfossen barnehage" />
		<tag k="no-barnehage:nsrid" v="1020374" />
		<tag k="operator" v="Starefossen barnehage" />
		<tag k="operator:type" v="private" />
		<tag k="start_date" v="2008-03-01" />
	</node>
	<node id="-4032" lat="60.3617" lon="5.36388">
		<tag k="amenity" v="kindergarten" />
		<tag k="contact:email" v="ase.christiansen@skbb.no" />
		<tag k="name" v="Språkstien Åpen barnehage Slettebakken" />
		<tag k="no-barnehage:nsrid" v="1015031" />
		<tag k="operator" v="Stiftelsen Kirkens Bymisjon i Bergen" />
		<tag k="operator:type" v="private" />
		<tag k="start_date" v="2011-09-15" />
	</node>
	<node id="-4031" lat="60.33725" lon="5.317613">
		<tag k="amenity" v="kindergarten" />
		<tag k="capacity" v="25" />
		<tag k="contact:email" v="post@spiren-barnehage.com" />
		<tag k="contact:phone" v="+47 55 12 28 73" />
		<tag k="max_age" v="5" />
		<tag k="min_age" v="1" />
		<tag k="name" v="Spiren barnehage AS" />
		<tag k="no-barnehage:nsrid" v="1021139" />
		<tag k="operator" v="Spiren barnehage AS" />
		<tag k="operator:type" v="private" />
		<tag k="start_date" v="2003-02-19" />
	</node>
	<node id="-4030" lat="60.28384" lon="5.302938">
		<tag k="amenity" v="kindergarten" />
		<tag k="capacity" v="48" />
		<tag k="contact:email" v="styrer@solsikkenbarnehage.no" />
		<tag k="max_age" v="5" />
		<tag k="min_age" v="1" />
		<tag k="name" v="Solsikken barnehage Skeie AS" />
		<tag k="no-barnehage:nsrid" v="1021687" />
		<tag k="operator" v="Solsikken barnehage Skeie AS" />
		<tag k="operator:type" v="private" />
		<tag k="start_date" v="1989-01-02" />
	</node>
	<node id="-4029" lat="60.37074" lon="5.364843">
		<tag k="amenity" v="kindergarten" />
		<tag k="capacity" v="70" />
		<tag k="contact:email" v="bjorg.askildsen@bergen.kommune.no" />
		<tag k="max_age" v="5" />
		<tag k="min_age" v="1" />
		<tag k="name" v="Sollien barnehage" />
		<tag k="no-barnehage:nsrid" v="1019683" />
		<tag k="operator" v="Bergen kommune" />
		<tag k="operator:type" v="public" />
		<tag k="start_date" v="2014-02-01" />
	</node>
	<node id="-4028" lat="60.37575" lon="5.32744">
		<tag k="amenity" v="kindergarten" />
		<tag k="capacity" v="74" />
		<tag k="contact:email" v="elisabet.rishaug@bergen.kommune.no" />
		<tag k="max_age" v="5" />
		<tag k="min_age" v="1" />
		<tag k="name" v="Solheimslien barnehage" />
		<tag k="no-barnehage:nsrid" v="1019684" />
		<tag k="operator" v="Bergen kommune" />
		<tag k="operator:type" v="public" />
		<tag k="start_date" v="2014-02-01" />
	</node>
	<node id="-4027" lat="60.3871" lon="5.27557">
		<tag k="amenity" v="kindergarten" />
		<tag k="capacity" v="28" />
		<tag k="contact:email" v="ajbe@broadpark.no" />
		<tag k="contact:phone" v="+47 55 34 72 40" />
		<tag k="max_age" v="5" />
		<tag k="min_age" v="1" />
		<tag k="name" v="Solgløtt barnehage" />
		<tag k="no-barnehage:nsrid" v="1016854" />
		<tag k="operator" v="Bergens Indremisjon" />
		<tag k="operator:type" v="private" />
		<tag k="start_date" v="1989-01-02" />
	</node>
	<node id="-4026" lat="60.4268" lon="5.30021">
		<tag k="amenity" v="kindergarten" />
		<tag k="capacity" v="63" />
		<tag k="contact:email" v="solbakken.barnehage@bergen.kommune.no" />
		<tag k="max_age" v="5" />
		<tag k="min_age" v="1" />
		<tag k="name" v="Solbakken barnehage" />
		<tag k="no-barnehage:nsrid" v="1016684" />
		<tag k="operator" v="Bergen kommune" />
		<tag k="operator:type" v="public" />
		<tag k="start_date" v="1976-01-01" />
	</node>
	<node id="-4025" lat="60.49678" lon="5.381577">
		<tag k="amenity" v="kindergarten" />
		<tag k="capacity" v="31" />
		<tag k="contact:email" v="sofus@barnehage.no" />
		<tag k="contact:phone" v="+47 55 24 85 26" />
		<tag k="max_age" v="5" />
		<tag k="min_age" v="1" />
		<tag k="name" v="Sofusbarnehagen AS" />
		<tag k="no-barnehage:nsrid" v="1022344" />
		<tag k="operator" v="Sofusbarnehagen AS" />
		<tag k="operator:type" v="private" />
		<tag k="start_date" v="1995-12-30" />
	</node>
	<node id="-4024" lat="60.3582" lon="5.36388">
		<tag k="amenity" v="kindergarten" />
		<tag k="capacity" v="45" />
		<tag k="contact:email" v="laila.fitje@bergen.kommune.no" />
		<tag k="max_age" v="5" />
		<tag k="min_age" v="1" />
		<tag k="name" v="Sletten barnehage" />
		<tag k="no-barnehage:nsrid" v="1016683" />
		<tag k="operator" v="Bergen kommune" />
		<tag k="operator:type" v="public" />
		<tag k="start_date" v="1976-01-01" />
	</node>
	<node id="-4023" lat="60.3528" lon="5.35724">
		<tag k="amenity" v="kindergarten" />
		<tag k="capacity" v="21" />
		<tag k="contact:email" v="slettebakkenmenighetsbarnehage@gmail.com" />
		<tag k="contact:phone" v="+47 48 60 31 06" />
		<tag k="max_age" v="5" />
		<tag k="min_age" v="1" />
		<tag k="name" v="Slettebakken Menighets barnehage AS" />
		<tag k="no-barnehage:nsrid" v="1015568" />
		<tag k="operator" v="Slettebakken Menighets barnehage AS" />
		<tag k="operator:type" v="private" />
		<tag k="start_date" v="1989-01-02" />
	</node>
	<node id="-4022" lat="60.3392" lon="5.22813">
		<tag k="amenity" v="kindergarten" />
		<tag k="capacity" v="50" />
		<tag k="contact:email" v="merete.ruvang@bergen.kommune.no" />
		<tag k="max_age" v="5" />
		<tag k="min_age" v="1" />
		<tag k="name" v="Skårungen barnehage" />
		<tag k="no-barnehage:nsrid" v="1016715" />
		<tag k="operator" v="Bergen kommune" />
		<tag k="operator:type" v="public" />
		<tag k="start_date" v="1988-04-01" />
	</node>
	<node id="-4021" lat="60.30568" lon="5.336945">
		<tag k="amenity" v="kindergarten" />
		<tag k="capacity" v="55" />
		<tag k="contact:email" v="berit@skjoldtunbarnehage.no" />
		<tag k="contact:phone" v="+47 55130806" />
		<tag k="max_age" v="5" />
		<tag k="min_age" v="1" />
		<tag k="name" v="Skjoldtun barnehage" />
		<tag k="no-barnehage:nsrid" v="1020299" />
		<tag k="operator" v="Skjoldtun Kvinne- og Familielag" />
		<tag k="operator:type" v="private" />
		<tag k="start_date" v="1977-02-23" />
	</node>
	<node id="-4020" lat="60.3091" lon="5.33714">
		<tag k="amenity" v="kindergarten" />
		<tag k="capacity" v="72" />
		<tag k="contact:email" v="elin.elvsaas@bergen.kommune.no" />
		<tag k="max_age" v="5" />
		<tag k="min_age" v="1" />
		<tag k="name" v="Skjold barnehage" />
		<tag k="no-barnehage:nsrid" v="1016682" />
		<tag k="operator" v="Bergen kommune" />
		<tag k="operator:type" v="public" />
		<tag k="start_date" v="1976-01-01" />
	</node>
	<node id="-4019" lat="60.39297" lon="5.339229">
		<tag k="amenity" v="kindergarten" />
		<tag k="name" v="Skansemyren barnehage" />
		<tag k="no-barnehage:nsrid" v="2000091" />
		<tag k="operator" v="Bergen kommune" />
		<tag k="operator:type" v="public" />
		<tag k="start_date" v="2017-01-01" />
	</node>
	<node id="-4018" lat="60.39174" lon="5.26436">
		<tag k="amenity" v="kindergarten" />
		<tag k="capacity" v="62" />
		<tag k="contact:email" v="kontor@sjosproytenbhg.no" />
		<tag k="contact:phone" v="+47 55 50 52 52" />
		<tag k="max_age" v="5" />
		<tag k="min_age" v="1" />
		<tag k="name" v="Sjøsprøyten barnehage" />
		<tag k="no-barnehage:nsrid" v="1021609" />
		<tag k="operator" v="Stiftelsen Sjøsprøyten" />
		<tag k="operator:type" v="private" />
		<tag k="start_date" v="1989-01-02" />
	</node>
	<node id="-4017" lat="60.28632" lon="5.279553">
		<tag k="amenity" v="kindergarten" />
		<tag k="capacity" v="29" />
		<tag k="contact:email" v="barnehage@sionblomsterdalen.com" />
		<tag k="contact:phone" v="+47 55 99 00 61" />
		<tag k="max_age" v="5" />
		<tag k="min_age" v="1" />
		<tag k="name" v="Sion Menighetsbarnehage" />
		<tag k="no-barnehage:nsrid" v="1020242" />
		<tag k="operator" v="Menigheten Sion Blomsterdalen" />
		<tag k="operator:type" v="private" />
		<tag k="start_date" v="1994-08-01" />
	</node>
	<node id="-4016" lat="60.334" lon="5.29608">
		<tag k="amenity" v="kindergarten" />
		<tag k="capacity" v="97" />
		<tag k="contact:email" v="senterhagen@brsbhg.no" />
		<tag k="max_age" v="5" />
		<tag k="min_age" v="1" />
		<tag k="name" v="Senterhagen barnehage" />
		<tag k="no-barnehage:nsrid" v="1015870" />
		<tag k="operator" v="Bergen Racketsenter AS" />
		<tag k="operator:type" v="private" />
		<tag k="start_date" v="1999-12-15" />
	</node>
	<node id="-4015" lat="60.3595" lon="5.28642">
		<tag k="amenity" v="kindergarten" />
		<tag k="capacity" v="55" />
		<tag k="contact:email" v="trine.amundsen@bergen.kommune.no" />
		<tag k="contact:phone" v="+47 55 160335" />
		<tag k="max_age" v="5" />
		<tag k="min_age" v="1" />
		<tag k="name" v="Seljedalen barnehage" />
		<tag k="no-barnehage:nsrid" v="1016723" />
		<tag k="operator" v="Bergen kommune" />
		<tag k="operator:type" v="public" />
		<tag k="start_date" v="1993-01-01" />
	</node>
	<node id="-4014" lat="60.3448" lon="5.180608">
		<tag k="amenity" v="kindergarten" />
		<tag k="contact:email" v="dl.haakonshella@bhg.no" />
		<tag k="max_age" v="2" />
		<tag k="min_age" v="1" />
		<tag k="name" v="Seledammen Fus barnehage AS" />
		<tag k="no-barnehage:nsrid" v="1021970" />
		<tag k="operator" v="Seledammen Fus barnehage AS" />
		<tag k="operator:type" v="private" />
		<tag k="start_date" v="1989-01-02" />
	</node>
	<node id="-4013" lat="60.2983" lon="5.27948">
		<tag k="amenity" v="kindergarten" />
		<tag k="capacity" v="121" />
		<tag k="contact:email" v="sandslimarka@kanvas.no" />
		<tag k="contact:phone" v="+47 93085666" />
		<tag k="max_age" v="5" />
		<tag k="min_age" v="1" />
		<tag k="name" v="Sandslimarka Kanvas-Barnehage" />
		<tag k="no-barnehage:nsrid" v="1013520" />
		<tag k="operator" v="Stiftelsen Kanvas" />
		<tag k="operator:type" v="private" />
		<tag k="start_date" v="2012-01-15" />
	</node>
	<node id="-4012" lat="60.331" lon="5.36774">
		<tag k="amenity" v="kindergarten" />
		<tag k="capacity" v="70" />
		<tag k="contact:email" v="Robert.kvinge2@bergen.kommune.no" />
		<tag k="contact:phone" v="+47 55 105560" />
		<tag k="max_age" v="5" />
		<tag k="min_age" v="1" />
		<tag k="name" v="Sandalsbotn barnehage" />
		<tag k="no-barnehage:nsrid" v="1016089" />
		<tag k="operator" v="Bergen kommune" />
		<tag k="operator:type" v="public" />
		<tag k="start_date" v="1990-01-01" />
	</node>
	<node id="-4011" lat="60.5038" lon="5.26292">
		<tag k="amenity" v="kindergarten" />
		<tag k="capacity" v="18" />
		<tag k="contact:email" v="ingebjorg.gausemel@bergen.kommune.no" />
		<tag k="max_age" v="5" />
		<tag k="min_age" v="1" />
		<tag k="name" v="Salhus barnehage" />
		<tag k="no-barnehage:nsrid" v="1015521" />
		<tag k="operator" v="Bergen kommune" />
		<tag k="operator:type" v="public" />
		<tag k="start_date" v="1972-12-26" />
	</node>
	<node id="-4010" lat="60.4186" lon="5.46806">
		<tag k="amenity" v="kindergarten" />
		<tag k="contact:email" v="moyfrid.opheim@bergen.kirken.no" />
		<tag k="name" v="Sakkeus Åpen barnehage" />
		<tag k="no-barnehage:nsrid" v="1014113" />
		<tag k="operator" v="Arna Sokn" />
		<tag k="operator:type" v="private" />
		<tag k="start_date" v="2009-01-01" />
	</node>
	<node id="-4009" lat="60.389" lon="5.32104">
		<tag k="amenity" v="kindergarten" />
		<tag k="capacity" v="44" />
		<tag k="contact:email" v="aina.hagensen@bergen.kommune.no" />
		<tag k="contact:phone" v="+47 55 56 43 50" />
		<tag k="max_age" v="5" />
		<tag k="min_age" v="1" />
		<tag k="name" v="Rosetårnet barnehage" />
		<tag k="no-barnehage:nsrid" v="1016874" />
		<tag k="operator" v="Bergen kommune" />
		<tag k="operator:type" v="public" />
		<tag k="start_date" v="1990-01-01" />
	</node>
	<node id="-4008" lat="60.31112" lon="5.328359">
		<tag k="amenity" v="kindergarten" />
		<tag k="capacity" v="39" />
		<tag k="contact:email" v="Rosenhagen@Steinerbarnehage.no" />
		<tag k="contact:phone" v="+47 55 11 70 90" />
		<tag k="max_age" v="5" />
		<tag k="min_age" v="1" />
		<tag k="name" v="Rosenhagen barnehage" />
		<tag k="no-barnehage:nsrid" v="1020691" />
		<tag k="operator" v="Stiftelsen Rosenhagen Steinerbarnehage" />
		<tag k="operator:type" v="private" />
		<tag k="start_date" v="1989-01-02" />
	</node>
	<node id="-4007" lat="60.463" lon="5.33196">
		<tag k="amenity" v="kindergarten" />
		<tag k="capacity" v="71" />
		<tag k="contact:email" v="ingjerd.tveiteras@bergen.kommune.no" />
		<tag k="max_age" v="5" />
		<tag k="min_age" v="1" />
		<tag k="name" v="Rolland barnehage" />
		<tag k="no-barnehage:nsrid" v="1016724" />
		<tag k="operator" v="Bergen kommune" />
		<tag k="operator:type" v="public" />
		<tag k="start_date" v="1993-01-01" />
	</node>
	<node id="-4006" lat="60.319" lon="5.36296">
		<tag k="amenity" v="kindergarten" />
		<tag k="capacity" v="37" />
		<tag k="contact:email" v="prismen@kanvas.no" />
		<tag k="max_age" v="5" />
		<tag k="min_age" v="1" />
		<tag k="name" v="Prismen Kanvas-Barnehage" />
		<tag k="no-barnehage:nsrid" v="1016321" />
		<tag k="operator" v="Stiftelsen Kanvas" />
		<tag k="operator:type" v="private" />
		<tag k="start_date" v="2001-11-01" />
	</node>
	<node id="-4005" lat="60.3762" lon="5.3479">
		<tag k="amenity" v="kindergarten" />
		<tag k="capacity" v="42" />
		<tag k="contact:email" v="pinnelien.barnehage@bergen.kommune.no" />
		<tag k="max_age" v="5" />
		<tag k="min_age" v="1" />
		<tag k="name" v="Pinnelien barnehage" />
		<tag k="no-barnehage:nsrid" v="1014829" />
		<tag k="operator" v="Bergen kommune" />
		<tag k="operator:type" v="public" />
		<tag k="start_date" v="1995-01-01" />
	</node>
	<node id="-4004" lat="60.3012" lon="5.29196">
		<tag k="amenity" v="kindergarten" />
		<tag k="capacity" v="57" />
		<tag k="contact:email" v="aud.leras@bergen.kommune.no" />
		<tag k="max_age" v="5" />
		<tag k="min_age" v="1" />
		<tag k="name" v="Petedalsheia barnehage" />
		<tag k="no-barnehage:nsrid" v="1016704" />
		<tag k="operator" v="Bergen kommune" />
		<tag k="operator:type" v="public" />
		<tag k="start_date" v="1989-01-01" />
	</node>
	<node id="-4003" lat="60.3447" lon="5.35994">
		<tag k="amenity" v="kindergarten" />
		<tag k="capacity" v="64" />
		<tag k="contact:email" v="eline.solheim@sib.no" />
		<tag k="contact:phone" v="+47 55 28 20 21" />
		<tag k="max_age" v="5" />
		<tag k="min_age" v="1" />
		<tag k="name" v="Oppigard barnehage" />
		<tag k="no-barnehage:nsrid" v="1016853" />
		<tag k="operator" v="Studentsamskipnaden på Vestlandet" />
		<tag k="operator:type" v="private" />
		<tag k="start_date" v="1989-01-02" />
	</node>
	<node id="-4002" lat="60.3805" lon="5.21887">
		<tag k="amenity" v="kindergarten" />
		<tag k="capacity" v="61" />
		<tag k="contact:email" v="olsvikaasen@kanvas.no" />
		<tag k="contact:phone" v="+47 22 40 58 40" />
		<tag k="max_age" v="5" />
		<tag k="min_age" v="1" />
		<tag k="name" v="Olsvikåsen Kanvas-Barnehage" />
		<tag k="no-barnehage:nsrid" v="1015488" />
		<tag k="operator" v="Stiftelsen Kanvas" />
		<tag k="operator:type" v="private" />
		<tag k="start_date" v="1991-01-01" />
	</node>
	<node id="-4001" lat="60.37865" lon="5.218894">
		<tag k="amenity" v="kindergarten" />
		<tag k="contact:email" v="nina@angeltveit.info" />
		<tag k="name" v="Olsvik Menighets Åpen barnehage" />
		<tag k="no-barnehage:nsrid" v="1020591" />
		<tag k="operator" v="Olsvik Sokn" />
		<tag k="operator:type" v="private" />
		<tag k="start_date" v="2010-09-01" />
	</node>
	<node id="-4000" lat="60.3802" lon="5.21765">
		<tag k="amenity" v="kindergarten" />
		<tag k="contact:email" v="olsvik.barnehage@bergen.kommune.no" />
		<tag k="max_age" v="5" />
		<tag k="min_age" v="1" />
		<tag k="name" v="Olsvik barnehage" />
		<tag k="no-barnehage:nsrid" v="1017882" />
		<tag k="operator" v="Bergen kommune" />
		<tag k="operator:type" v="public" />
		<tag k="start_date" v="2007-08-28" />
	</node>
	<node id="-3999" lat="60.3965" lon="5.31109">
		<tag k="amenity" v="kindergarten" />
		<tag k="contact:email" v="jan.frode.sandvik@bergen.kirken.no" />
		<tag k="name" v="Nykirken Åpen barnehage" />
		<tag k="no-barnehage:nsrid" v="1014085" />
		<tag k="operator" v="Bergen Domkirke Sokn" />
		<tag k="operator:type" v="private" />
		<tag k="start_date" v="2009-01-01" />
	</node>
	<node id="-3998" lat="60.3834" lon="5.32757">
		<tag k="amenity" v="kindergarten" />
		<tag k="capacity" v="78" />
		<tag k="contact:email" v="katrine.hausberg@bergen.kommune.no" />
		<tag k="max_age" v="5" />
		<tag k="min_age" v="1" />
		<tag k="name" v="Nygårdsparken barnehage" />
		<tag k="no-barnehage:nsrid" v="1017892" />
		<tag k="operator" v="Bergen kommune" />
		<tag k="operator:type" v="public" />
		<tag k="start_date" v="2007-10-01" />
	</node>
	<node id="-3997" lat="60.3753" lon="5.33352">
		<tag k="amenity" v="kindergarten" />
		<tag k="capacity" v="56" />
		<tag k="contact:email" v="Hege.Rasmussen@bergen.kommune.no" />
		<tag k="max_age" v="5" />
		<tag k="min_age" v="1" />
		<tag k="name" v="Ny Krohnborg barnehage" />
		<tag k="no-barnehage:nsrid" v="1016713" />
		<tag k="operator" v="Bergen kommune" />
		<tag k="operator:type" v="public" />
		<tag k="start_date" v="1992-07-01" />
	</node>
	<node id="-3996" lat="60.38552" lon="5.349478">
		<tag k="amenity" v="kindergarten" />
		<tag k="capacity" v="41" />
		<tag k="contact:email" v="styrernubben@bgds.no" />
		<tag k="contact:phone" v="+47 55 01 80 98" />
		<tag k="contact:website" v="http://www.nubb1.barnehage.no/" />
		<tag k="max_age" v="5" />
		<tag k="min_age" v="1" />
		<tag k="name" v="Nubben barnehage" />
		<tag k="no-barnehage:nsrid" v="1021719" />
		<tag k="operator" v="Nubben barnehage AS" />
		<tag k="operator:type" v="private" />
		<tag k="start_date" v="2007-10-11" />
	</node>
	<node id="-3995" lat="60.3827" lon="5.2166">
		<tag k="amenity" v="kindergarten" />
		<tag k="capacity" v="62" />
		<tag k="contact:email" v="anne.zachariassen@bergen.kommune.no" />
		<tag k="max_age" v="5" />
		<tag k="min_age" v="1" />
		<tag k="name" v="Norheim barnehage" />
		<tag k="no-barnehage:nsrid" v="1016699" />
		<tag k="operator" v="Bergen kommune" />
		<tag k="operator:type" v="public" />
		<tag k="start_date" v="1989-01-01" />
	</node>
	<node id="-3994" lat="60.30888" lon="5.318526">
		<tag k="amenity" v="kindergarten" />
		<tag k="capacity" v="24" />
		<tag k="contact:email" v="nordaastraeet@barnehage.no" />
		<tag k="contact:phone" v="+47 55 13 49 07" />
		<tag k="max_age" v="5" />
		<tag k="min_age" v="1" />
		<tag k="name" v="Nordåstræets barnehage S Nordås" />
		<tag k="no-barnehage:nsrid" v="1021441" />
		<tag k="operator" v="Nordåstræets barnehage S Nordås" />
		<tag k="operator:type" v="private" />
		<tag k="start_date" v="2006-05-20" />
	</node>
	<node id="-3993" lat="60.3888" lon="5.325762">
		<tag k="amenity" v="kindergarten" />
		<tag k="capacity" v="28" />
		<tag k="contact:email" v="nordasgrenda.barnehage@bkkfiber.no" />
		<tag k="max_age" v="5" />
		<tag k="min_age" v="1" />
		<tag k="name" v="Nordås Selegrend barnehage" />
		<tag k="no-barnehage:nsrid" v="1019690" />
		<tag k="operator" v="Nordås Selegrend Borettslag" />
		<tag k="operator:type" v="private" />
		<tag k="start_date" v="2010-01-01" />
	</node>
	<node id="-3992" lat="60.3045" lon="5.30897">
		<tag k="amenity" v="kindergarten" />
		<tag k="capacity" v="56" />
		<tag k="contact:email" v="Anni.Johannessen@bergen.kommune.no" />
		<tag k="max_age" v="5" />
		<tag k="min_age" v="1" />
		<tag k="name" v="Nordås barnehage" />
		<tag k="no-barnehage:nsrid" v="1016701" />
		<tag k="operator" v="Bergen kommune" />
		<tag k="operator:type" v="public" />
		<tag k="start_date" v="1989-01-01" />
	</node>
	<node id="-3991" lat="60.4583" lon="5.43971">
		<tag k="amenity" v="kindergarten" />
		<tag k="contact:email" v="iliseth@live.no" />
		<tag k="name" v="Noa Åpen barnehage" />
		<tag k="no-barnehage:nsrid" v="1014092" />
		<tag k="operator" v="Ytre Arna Sokn" />
		<tag k="operator:type" v="private" />
		<tag k="start_date" v="2009-09-15" />
	</node>
	<node id="-3990" lat="60.3443" lon="5.36085">
		<tag k="amenity" v="kindergarten" />
		<tag k="capacity" v="51" />
		<tag k="contact:email" v="linda.birkeland@sib.no" />
		<tag k="contact:phone" v="+47 55 28 19 80" />
		<tag k="max_age" v="5" />
		<tag k="min_age" v="1" />
		<tag k="name" v="Nerigard barnehage" />
		<tag k="no-barnehage:nsrid" v="1016852" />
		<tag k="operator" v="Studentsamskipnaden på Vestlandet" />
		<tag k="operator:type" v="private" />
		<tag k="start_date" v="1989-01-02" />
	</node>
	<node id="-3989" lat="60.3528" lon="5.29113">
		<tag k="amenity" v="kindergarten" />
		<tag k="capacity" v="58" />
		<tag k="contact:email" v="vibeke.wirsching@bergen.kommune.no" />
		<tag k="max_age" v="5" />
		<tag k="min_age" v="1" />
		<tag k="name" v="Nebbestølen barnehage" />
		<tag k="no-barnehage:nsrid" v="1016688" />
		<tag k="operator" v="Bergen kommune" />
		<tag k="operator:type" v="public" />
		<tag k="start_date" v="1976-01-01" />
	</node>
	<node id="-3988" lat="60.3475" lon="5.37777">
		<tag k="amenity" v="kindergarten" />
		<tag k="capacity" v="42" />
		<tag k="contact:email" v="kristine.halvorsen@bergen.kommune.no" />
		<tag k="max_age" v="5" />
		<tag k="min_age" v="1" />
		<tag k="name" v="Natlandsfjellet barnehage" />
		<tag k="no-barnehage:nsrid" v="1016717" />
		<tag k="operator" v="Bergen kommune" />
		<tag k="operator:type" v="public" />
		<tag k="start_date" v="1989-01-02" />
	</node>
	<node id="-3987" lat="60.3453" lon="5.27197">
		<tag k="amenity" v="kindergarten" />
		<tag k="capacity" v="48" />
		<tag k="contact:email" v="eva.johannessen2@bergen.kommune.no" />
		<tag k="max_age" v="5" />
		<tag k="min_age" v="1" />
		<tag k="name" v="Myrholtet barnehage" />
		<tag k="no-barnehage:nsrid" v="1016686" />
		<tag k="operator" v="Bergen kommune" />
		<tag k="operator:type" v="public" />
		<tag k="start_date" v="1989-01-01" />
	</node>
	<node id="-3986" lat="60.4054" lon="5.33087">
		<tag k="amenity" v="kindergarten" />
		<tag k="capacity" v="84" />
		<tag k="contact:email" v="Signe-Lise.Lagestrand@bergen.kommune.no" />
		<tag k="contact:phone" v="+47 55 56 73 30" />
		<tag k="contact:website" v="http://www.bergen.kommune.no/organisasjonsenhet/barnehage/mulesvingen" />
		<tag k="max_age" v="5" />
		<tag k="min_age" v="1" />
		<tag k="name" v="Mulesvingen barnehage" />
		<tag k="no-barnehage:nsrid" v="1018397" />
		<tag k="operator" v="Bergen kommune" />
		<tag k="operator:type" v="public" />
		<tag k="start_date" v="2008-01-01" />
	</node>
	<node id="-3985" lat="60.4695" lon="5.27941">
		<tag k="amenity" v="kindergarten" />
		<tag k="capacity" v="58" />
		<tag k="contact:email" v="sissel.nummedal@bergen.kommune.no" />
		<tag k="max_age" v="5" />
		<tag k="min_age" v="1" />
		<tag k="name" v="Morvikbotn barnehage" />
		<tag k="no-barnehage:nsrid" v="1025397" />
		<tag k="operator" v="Bergen kommune" />
		<tag k="operator:type" v="public" />
		<tag k="start_date" v="1991-01-01" />
	</node>
	<node id="-3984" lat="60.31175" lon="5.351688">
		<tag k="amenity" v="kindergarten" />
		<tag k="capacity" v="27" />
		<tag k="contact:email" v="oddrug@online.no" />
		<tag k="contact:phone" v="+47 55 91 58 60" />
		<tag k="max_age" v="5" />
		<tag k="min_age" v="3" />
		<tag k="name" v="Montessoribarnehagen Knerten AS" />
		<tag k="no-barnehage:nsrid" v="1019792" />
		<tag k="operator" v="Montessoribarnehagen Knerten AS" />
		<tag k="operator:type" v="private" />
		<tag k="start_date" v="1989-01-02" />
	</node>
	<node id="-3983" lat="60.35119" lon="5.293489">
		<tag k="amenity" v="kindergarten" />
		<tag k="capacity" v="41" />
		<tag k="contact:email" v="min-baa@frisurf.no" />
		<tag k="contact:phone" v="+47 55 19 62 92" />
		<tag k="max_age" v="5" />
		<tag k="min_age" v="1" />
		<tag k="name" v="Minken barnehage" />
		<tag k="no-barnehage:nsrid" v="1019959" />
		<tag k="operator" v="Minken barnehage AS" />
		<tag k="operator:type" v="private" />
		<tag k="start_date" v="1990-01-01" />
	</node>
	<node id="-3982" lat="60.3609" lon="5.35213">
		<tag k="amenity" v="kindergarten" />
		<tag k="capacity" v="54" />
		<tag k="contact:email" v="Bente.hammersland@bergen.kommune.no" />
		<tag k="max_age" v="5" />
		<tag k="min_age" v="1" />
		<tag k="name" v="Minde barnehage" />
		<tag k="no-barnehage:nsrid" v="1016698" />
		<tag k="operator" v="Bergen kommune" />
		<tag k="operator:type" v="public" />
		<tag k="start_date" v="1976-01-01" />
	</node>
	<node id="-3981" lat="60.321" lon="5.363488">
		<tag k="amenity" v="kindergarten" />
		<tag k="capacity" v="80" />
		<tag k="contact:email" v="bhg.midtunbratet@laringsverkstedet.no" />
		<tag k="contact:phone" v="+47 63 94 62 50" />
		<tag k="max_age" v="5" />
		<tag k="min_age" v="1" />
		<tag k="name" v="Midtunbråtet barnehage AS" />
		<tag k="no-barnehage:nsrid" v="1021176" />
		<tag k="operator" v="Midtunbråtet barnehage AS" />
		<tag k="operator:type" v="private" />
		<tag k="start_date" v="2012-10-01" />
	</node>
	<node id="-3980" lat="60.33669" lon="5.203382">
		<tag k="amenity" v="kindergarten" />
		<tag k="capacity" v="69" />
		<tag k="contact:email" v="solfrid.wergeland@mathopenbhg.no" />
		<tag k="contact:phone" v="+47 91636717" />
		<tag k="max_age" v="5" />
		<tag k="min_age" v="1" />
		<tag k="name" v="Mathopen barnehage AS" />
		<tag k="no-barnehage:nsrid" v="1022229" />
		<tag k="operator" v="Mathopen barnehage AS" />
		<tag k="operator:type" v="private" />
		<tag k="start_date" v="2011-11-22" />
	</node>
	<node id="-3979" lat="60.3924" lon="5.33204">
		<tag k="amenity" v="kindergarten" />
		<tag k="capacity" v="52" />
		<tag k="contact:email" v="jannicke.ellingsen@bergen.kommune.no" />
		<tag k="max_age" v="5" />
		<tag k="min_age" v="1" />
		<tag k="name" v="Marken barnehage" />
		<tag k="no-barnehage:nsrid" v="1016705" />
		<tag k="operator" v="Bergen kommune" />
		<tag k="operator:type" v="public" />
		<tag k="start_date" v="1989-01-01" />
	</node>
	<node id="-3978" lat="60.38129" lon="5.330059">
		<tag k="amenity" v="kindergarten" />
		<tag k="capacity" v="30" />
		<tag k="contact:email" v="postmaster@marineholmenbhg.no" />
		<tag k="contact:phone" v="+47 950 35 583" />
		<tag k="max_age" v="5" />
		<tag k="min_age" v="1" />
		<tag k="name" v="Marineholmen barnehage Drift AS" />
		<tag k="no-barnehage:nsrid" v="1021819" />
		<tag k="operator" v="Marineholmen barnehage Drift AS" />
		<tag k="operator:type" v="private" />
		<tag k="start_date" v="2008-10-01" />
	</node>
	<node id="-3977" lat="60.4016" lon="5.32765">
		<tag k="amenity" v="kindergarten" />
		<tag k="contact:email" v="jan.frode.sandvik@bergen.kirken.no" />
		<tag k="name" v="Mariakirken Åpen barnehage" />
		<tag k="no-barnehage:nsrid" v="1014086" />
		<tag k="operator" v="Bergen Domkirke Sokn" />
		<tag k="operator:type" v="private" />
		<tag k="start_date" v="2010-01-01" />
	</node>
	<node id="-3976" lat="60.3537" lon="5.3662">
		<tag k="amenity" v="kindergarten" />
		<tag k="capacity" v="41" />
		<tag k="contact:email" v="janne.hovi@bergen.kommune.no" />
		<tag k="max_age" v="5" />
		<tag k="min_age" v="1" />
		<tag k="name" v="Mannsverk barnehage" />
		<tag k="no-barnehage:nsrid" v="1016681" />
		<tag k="operator" v="Bergen kommune" />
		<tag k="operator:type" v="public" />
		<tag k="start_date" v="1976-01-01" />
	</node>
	<node id="-3975" lat="60.34993" lon="5.34165">
		<tag k="amenity" v="kindergarten" />
		<tag k="capacity" v="56" />
		<tag k="contact:email" v="laabarne@online.no" />
		<tag k="contact:phone" v="+47 55 27 04 96" />
		<tag k="contact:website" v="http://laavenbarnehage.no" />
		<tag k="max_age" v="5" />
		<tag k="min_age" v="1" />
		<tag k="name" v="Låven barnehage" />
		<tag k="no-barnehage:nsrid" v="1020058" />
		<tag k="operator" v="Låven barnehage" />
		<tag k="operator:type" v="private" />
		<tag k="start_date" v="1992-08-01" />
	</node>
	<node id="-3974" lat="60.3535" lon="5.29172">
		<tag k="amenity" v="kindergarten" />
		<tag k="capacity" v="62" />
		<tag k="contact:email" v="audun.dalland@bergen.kommune.no" />
		<tag k="max_age" v="5" />
		<tag k="min_age" v="1" />
		<tag k="name" v="Løvås Oppveksttun Avd Barnehage" />
		<tag k="no-barnehage:nsrid" v="1014069" />
		<tag k="operator" v="Bergen kommune" />
		<tag k="operator:type" v="public" />
		<tag k="start_date" v="2009-10-01" />
	</node>
	<node id="-3973" lat="60.3373" lon="5.31884">
		<tag k="amenity" v="kindergarten" />
		<tag k="capacity" v="26" />
		<tag k="contact:email" v="lovstakkenbarnehage@live.no" />
		<tag k="contact:phone" v="+47 55 12 42 42" />
		<tag k="contact:website" v="http://www.lovstakkenbarnehage.no" />
		<tag k="max_age" v="5" />
		<tag k="min_age" v="1" />
		<tag k="name" v="Løvstakken barnehage AS" />
		<tag k="no-barnehage:nsrid" v="1022386" />
		<tag k="operator" v="Løvstakken barnehage AS" />
		<tag k="operator:type" v="private" />
		<tag k="start_date" v="1990-01-01" />
	</node>
	<node id="-3972" lat="60.36063" lon="5.339868">
		<tag k="amenity" v="kindergarten" />
		<tag k="capacity" v="18" />
		<tag k="contact:email" v="bruas@bgnett.no" />
		<tag k="contact:phone" v="+47 55 29 89 10" />
		<tag k="contact:website" v="http://www.bruas.barnehageside.no" />
		<tag k="max_age" v="5" />
		<tag k="min_age" v="1" />
		<tag k="name" v="Løbergstien barnehage AS" />
		<tag k="no-barnehage:nsrid" v="1020534" />
		<tag k="operator" v="Løbergstien barnehage AS" />
		<tag k="operator:type" v="private" />
		<tag k="start_date" v="1990-01-01" />
	</node>
	<node id="-3971" lat="60.31567" lon="5.272601">
		<tag k="amenity" v="kindergarten" />
		<tag k="capacity" v="117" />
		<tag k="contact:email" v="post@soreidtunet-barnehage.no" />
		<tag k="contact:phone" v="+47 63 94 62 50" />
		<tag k="max_age" v="5" />
		<tag k="min_age" v="1" />
		<tag k="name" v="Læringsverkstedet Søreidtunet barnehage" />
		<tag k="no-barnehage:nsrid" v="1021852" />
		<tag k="operator" v="Læringsverkstedet Søreidtunet AS" />
		<tag k="operator:type" v="private" />
		<tag k="start_date" v="2008-06-30" />
	</node>
	<node id="-3970" lat="60.29858" lon="5.301443">
		<tag k="amenity" v="kindergarten" />
		<tag k="capacity" v="90" />
		<tag k="contact:email" v="steinsvikkroken@laringsverkstedet.no" />
		<tag k="max_age" v="5" />
		<tag k="min_age" v="1" />
		<tag k="name" v="Læringsverkstedet Steinsvikkroken barnehage AS" />
		<tag k="no-barnehage:nsrid" v="1021910" />
		<tag k="operator" v="Læringsverkstedet Steinsvikkroken barnehage AS" />
		<tag k="operator:type" v="private" />
		<tag k="start_date" v="2009-01-28" />
	</node>
	<node id="-3969" lat="60.26585" lon="5.358906">
		<tag k="amenity" v="kindergarten" />
		<tag k="capacity" v="67" />
		<tag k="contact:email" v="kontor@laringsverkstedet.no" />
		<tag k="contact:phone" v="+47 55 91 50 75" />
		<tag k="contact:website" v="http://www.kultur.no" />
		<tag k="max_age" v="5" />
		<tag k="min_age" v="1" />
		<tag k="name" v="Læringsverkstedet barnehage Kvernabekken" />
		<tag k="no-barnehage:nsrid" v="1021626" />
		<tag k="operator" v="Læringsverkstedet Kvernabekken barnehage AS" />
		<tag k="operator:type" v="private" />
		<tag k="start_date" v="1996-09-01" />
	</node>
	<node id="-3968" lat="60.3677" lon="5.18095">
		<tag k="amenity" v="kindergarten" />
		<tag k="capacity" v="91" />
		<tag k="contact:email" v="kanutten@laringsverkstedet.no" />
		<tag k="contact:phone" v="+47 55 60 75 69" />
		<tag k="contact:website" v="http://www.laringsverkstede" />
		<tag k="max_age" v="5" />
		<tag k="min_age" v="1" />
		<tag k="name" v="Læringsverkstedet barnehage Avd Kanutten" />
		<tag k="no-barnehage:nsrid" v="1013152" />
		<tag k="operator" v="Læringsverkstedet AS" />
		<tag k="operator:type" v="private" />
		<tag k="start_date" v="2005-01-05" />
	</node>
	<node id="-3967" lat="60.29186" lon="5.320107">
		<tag k="amenity" v="kindergarten" />
		<tag k="capacity" v="22" />
		<tag k="contact:phone" v="+47 55131228" />
		<tag k="max_age" v="5" />
		<tag k="min_age" v="1" />
		<tag k="name" v="Læringsverkstedet barnehage Avd Helgatun" />
		<tag k="no-barnehage:nsrid" v="1019688" />
		<tag k="operator" v="Læringsverkstedet AS" />
		<tag k="operator:type" v="private" />
		<tag k="start_date" v="1989-01-02" />
	</node>
	<node id="-3966" lat="60.2543" lon="5.263866">
		<tag k="amenity" v="kindergarten" />
		<tag k="capacity" v="87" />
		<tag k="contact:email" v="krokusbakken@laringsverkstedet.no" />
		<tag k="contact:phone" v="+47 55 60 31 55" />
		<tag k="max_age" v="5" />
		<tag k="min_age" v="1" />
		<tag k="name" v="Læringsverkstedet AS Avd Krokusbakken" />
		<tag k="no-barnehage:nsrid" v="1021411" />
		<tag k="operator" v="Læringsverkstedet AS" />
		<tag k="operator:type" v="private" />
		<tag k="start_date" v="2006-02-01" />
	</node>
	<node id="-3965" lat="60.3431" lon="5.29601">
		<tag k="amenity" v="kindergarten" />
		<tag k="capacity" v="85" />
		<tag k="contact:email" v="kjersti.saelensminde@bergen.kommune.no" />
		<tag k="max_age" v="5" />
		<tag k="min_age" v="1" />
		<tag k="name" v="Lyshovden Oppveksttun Avd Barnehage" />
		<tag k="no-barnehage:nsrid" v="1014070" />
		<tag k="operator" v="Bergen kommune" />
		<tag k="operator:type" v="public" />
		<tag k="start_date" v="2009-10-01" />
	</node>
	<node id="-3964" lat="60.3614" lon="5.22687">
		<tag k="amenity" v="kindergarten" />
		<tag k="capacity" v="57" />
		<tag k="contact:email" v="lyngfaret.barnehage@bergen.kommune.no" />
		<tag k="max_age" v="5" />
		<tag k="min_age" v="1" />
		<tag k="name" v="Lyngfaret barnehage" />
		<tag k="no-barnehage:nsrid" v="1016690" />
		<tag k="operator" v="Bergen kommune" />
		<tag k="operator:type" v="public" />
		<tag k="start_date" v="1989-01-01" />
	</node>
	<node id="-3963" lat="60.35293" lon="5.296362">
		<tag k="amenity" v="kindergarten" />
		<tag k="contact:email" v="fyllingsdalen.menighet@bergen.kirken.no" />
		<tag k="contact:website" v="http://bergen.kirken.no/fyllingsdalen" />
		<tag k="name" v="Liten og Stor Åpen barnehage" />
		<tag k="no-barnehage:nsrid" v="1020415" />
		<tag k="operator" v="Fyllingsdalen Sokn" />
		<tag k="operator:type" v="private" />
		<tag k="start_date" v="2010-09-01" />
	</node>
	<node id="-3962" lat="60.28527" lon="5.244808">
		<tag k="amenity" v="kindergarten" />
		<tag k="capacity" v="88" />
		<tag k="contact:email" v="gro@liland-barnehage.no" />
		<tag k="contact:phone" v="+47 55 11 26 52" />
		<tag k="max_age" v="5" />
		<tag k="min_age" v="1" />
		<tag k="name" v="Liland barnehage AS" />
		<tag k="no-barnehage:nsrid" v="1021263" />
		<tag k="operator" v="Liland barnehage AS" />
		<tag k="operator:type" v="private" />
		<tag k="start_date" v="2005-06-17" />
	</node>
	<node id="-3961" lat="60.4668" lon="5.34832">
		<tag k="amenity" v="kindergarten" />
		<tag k="capacity" v="114" />
		<tag k="contact:email" v="linda.lund@bergen.kommune.no" />
		<tag k="max_age" v="5" />
		<tag k="min_age" v="1" />
		<tag k="name" v="Liakroken barnehage" />
		<tag k="no-barnehage:nsrid" v="1016695" />
		<tag k="operator" v="Bergen kommune" />
		<tag k="operator:type" v="public" />
		<tag k="start_date" v="1989-01-01" />
	</node>
	<node id="-3960" lat="60.361" lon="5.28986">
		<tag k="amenity" v="kindergarten" />
		<tag k="capacity" v="19" />
		<tag k="contact:email" v="likaarda@online.no" />
		<tag k="max_age" v="5" />
		<tag k="min_age" v="1" />
		<tag k="name" v="Lekeklossen barnehage AS Avd Storhammeren" />
		<tag k="no-barnehage:nsrid" v="1017760" />
		<tag k="operator" v="Lekeklossen barnehage AS" />
		<tag k="operator:type" v="private" />
		<tag k="start_date" v="2007-05-01" />
	</node>
	<node id="-3959" lat="60.3459" lon="5.29426">
		<tag k="amenity" v="kindergarten" />
		<tag k="capacity" v="27" />
		<tag k="contact:email" v="likaarda@online.no" />
		<tag k="max_age" v="5" />
		<tag k="min_age" v="1" />
		<tag k="name" v="Lekeklossen barnehage AS Avd 2" />
		<tag k="no-barnehage:nsrid" v="1014969" />
		<tag k="operator" v="Lekeklossen barnehage AS" />
		<tag k="operator:type" v="private" />
		<tag k="start_date" v="1994-08-01" />
	</node>
	<node id="-3958" lat="60.3569" lon="5.28046">
		<tag k="amenity" v="kindergarten" />
		<tag k="capacity" v="28" />
		<tag k="contact:email" v="likaarda@online.no" />
		<tag k="max_age" v="5" />
		<tag k="min_age" v="1" />
		<tag k="name" v="Lekeklossen barnehage AS Avd 1" />
		<tag k="no-barnehage:nsrid" v="1015915" />
		<tag k="operator" v="Lekeklossen barnehage AS" />
		<tag k="operator:type" v="private" />
		<tag k="start_date" v="2001-03-01" />
	</node>
	<node id="-3956" lat="60.37152" lon="5.343793">
		<tag k="amenity" v="kindergarten" />
		<tag k="capacity" v="26" />
		<tag k="contact:email" v="postmaster@lekefabrikken.no" />
		<tag k="contact:phone" v="+47 55 29 41 99" />
		<tag k="max_age" v="5" />
		<tag k="min_age" v="1" />
		<tag k="name" v="Lekefabrikken barnehage AS" />
		<tag k="no-barnehage:nsrid" v="1021724" />
		<tag k="operator" v="Lekefabrikken barnehage AS" />
		<tag k="operator:type" v="private" />
		<tag k="start_date" v="1995-12-30" />
	</node>
	<node id="-3955" lat="60.36505" lon="5.347953">
		<tag k="amenity" v="kindergarten" />
		<tag k="name" v="Leaparken barnehage" />
		<tag k="no-barnehage:nsrid" v="2000090" />
		<tag k="operator" v="Bergen kommune" />
		<tag k="operator:type" v="public" />
		<tag k="start_date" v="2017-01-01" />
	</node>
	<node id="-3954" lat="60.4606" lon="5.36496">
		<tag k="amenity" v="kindergarten" />
		<tag k="capacity" v="58" />
		<tag k="contact:email" v="bente.tunestveit@bergen.kommune.no" />
		<tag k="max_age" v="5" />
		<tag k="min_age" v="1" />
		<tag k="name" v="Langerinden barnehage" />
		<tag k="no-barnehage:nsrid" v="1016703" />
		<tag k="operator" v="Bergen kommune" />
		<tag k="operator:type" v="public" />
		<tag k="start_date" v="1989-01-01" />
	</node>
	<node id="-3953" lat="60.3761" lon="5.30528">
		<tag k="amenity" v="kindergarten" />
		<tag k="capacity" v="74" />
		<tag k="contact:email" v="laksevag.barnehage@bergen.kommune.no" />
		<tag k="contact:phone" v="+47 55 34 01 73" />
		<tag k="max_age" v="5" />
		<tag k="min_age" v="1" />
		<tag k="name" v="Laksevåg barnehage" />
		<tag k="no-barnehage:nsrid" v="1016687" />
		<tag k="operator" v="Bergen kommune" />
		<tag k="operator:type" v="public" />
		<tag k="start_date" v="1976-01-01" />
	</node>
	<node id="-3952" lat="60.376" lon="5.350913">
		<tag k="amenity" v="kindergarten" />
		<tag k="capacity" v="48" />
		<tag k="contact:email" v="styrer@kronen-barnehage.no" />
		<tag k="contact:phone" v="+47 94790773" />
		<tag k="contact:website" v="http://www.kronen.barnehage.no" />
		<tag k="max_age" v="5" />
		<tag k="min_age" v="1" />
		<tag k="name" v="Kronen barnehage" />
		<tag k="no-barnehage:nsrid" v="1019754" />
		<tag k="operator" v="Kronen barnehage" />
		<tag k="operator:type" v="private" />
		<tag k="start_date" v="1993-08-01" />
	</node>
	<node id="-3951" lat="60.3546" lon="5.34265">
		<tag k="amenity" v="kindergarten" />
		<tag k="capacity" v="115" />
		<tag k="contact:email" v="kristianborg.barnehage@bergen.kommune.no" />
		<tag k="contact:phone" v="+47 55 56 55 40" />
		<tag k="contact:website" v="http://www.bergen.kommune.no/omkommunen/avdelinger/barnehager/kristianborg-barnehage" />
		<tag k="max_age" v="5" />
		<tag k="min_age" v="1" />
		<tag k="name" v="Kristianborg barnehage" />
		<tag k="no-barnehage:nsrid" v="1017891" />
		<tag k="operator" v="Bergen kommune" />
		<tag k="operator:type" v="public" />
		<tag k="start_date" v="2007-09-01" />
	</node>
	<node id="-3950" lat="60.3671" lon="5.35899">
		<tag k="amenity" v="kindergarten" />
		<tag k="capacity" v="75" />
		<tag k="contact:email" v="gloer.gudmundsen@bergen.kommune.no" />
		<tag k="max_age" v="5" />
		<tag k="min_age" v="1" />
		<tag k="name" v="Kniksens Plass barnehage" />
		<tag k="no-barnehage:nsrid" v="1015058" />
		<tag k="operator" v="Bergen kommune" />
		<tag k="operator:type" v="public" />
		<tag k="start_date" v="2011-08-01" />
	</node>
	<node id="-3949" lat="60.3947" lon="5.3156">
		<tag k="amenity" v="kindergarten" />
		<tag k="capacity" v="40" />
		<tag k="contact:email" v="elisabeth.alnes@bergen.kommune.no" />
		<tag k="max_age" v="5" />
		<tag k="min_age" v="1" />
		<tag k="name" v="Klosteret barnehage" />
		<tag k="no-barnehage:nsrid" v="1016702" />
		<tag k="operator" v="Bergen kommune" />
		<tag k="operator:type" v="public" />
		<tag k="start_date" v="1989-01-01" />
	</node>
	<node id="-3948" lat="60.27929" lon="5.405344">
		<tag k="amenity" v="kindergarten" />
		<tag k="capacity" v="27" />
		<tag k="contact:email" v="postmaster@klembarnehage.no" />
		<tag k="contact:phone" v="+47 40 64 55 92" />
		<tag k="max_age" v="5" />
		<tag k="min_age" v="1" />
		<tag k="name" v="Klem barnehage AS" />
		<tag k="no-barnehage:nsrid" v="1021525" />
		<tag k="operator" v="Klem barnehage AS" />
		<tag k="operator:type" v="private" />
		<tag k="start_date" v="2006-09-11" />
	</node>
	<node id="-3947" lat="60.3746" lon="5.19785">
		<tag k="amenity" v="kindergarten" />
		<tag k="capacity" v="89" />
		<tag k="contact:email" v="kladden@kanvas.no" />
		<tag k="max_age" v="5" />
		<tag k="min_age" v="1" />
		<tag k="name" v="Kladden Kanvas-Barnehage" />
		<tag k="no-barnehage:nsrid" v="1017009" />
		<tag k="operator" v="Stiftelsen Kanvas" />
		<tag k="operator:type" v="private" />
		<tag k="start_date" v="2005-09-01" />
	</node>
	<node id="-3946" lat="60.3299" lon="5.37737">
		<tag k="amenity" v="kindergarten" />
		<tag k="capacity" v="66" />
		<tag k="contact:email" v="kjenndalslia@kanvas.no" />
		<tag k="contact:phone" v="+47 22 40 58 40" />
		<tag k="max_age" v="5" />
		<tag k="min_age" v="1" />
		<tag k="name" v="Kjenndalslia Kanvas-Barnehage" />
		<tag k="no-barnehage:nsrid" v="1015486" />
		<tag k="operator" v="Stiftelsen Kanvas" />
		<tag k="operator:type" v="private" />
		<tag k="start_date" v="1990-01-01" />
	</node>
	<node id="-3945" lat="60.4262" lon="5.4687">
		<tag k="amenity" v="kindergarten" />
		<tag k="capacity" v="112" />
		<tag k="contact:email" v="nina.solberg@kidsabarnehager.no" />
		<tag k="max_age" v="5" />
		<tag k="min_age" v="1" />
		<tag k="name" v="Kidsa Øyrane" />
		<tag k="no-barnehage:nsrid" v="1014279" />
		<tag k="operator" v="Kidsa Barnehager AS" />
		<tag k="operator:type" v="private" />
		<tag k="start_date" v="2011-04-01" />
	</node>
	<node id="-3944" lat="60.3134" lon="5.3612">
		<tag k="amenity" v="kindergarten" />
		<tag k="capacity" v="89" />
		<tag k="contact:email" v="Anne.Teigland@kidsabarnehager.no" />
		<tag k="max_age" v="5" />
		<tag k="min_age" v="1" />
		<tag k="name" v="Kidsa Øvsttun" />
		<tag k="no-barnehage:nsrid" v="1014280" />
		<tag k="operator" v="Kidsa Barnehager AS" />
		<tag k="operator:type" v="private" />
		<tag k="start_date" v="2011-04-01" />
	</node>
	<node id="-3943" lat="60.346" lon="5.38018">
		<tag k="amenity" v="kindergarten" />
		<tag k="capacity" v="89" />
		<tag k="contact:email" v="Tone.Spjell@kidsabarnehager.no" />
		<tag k="max_age" v="5" />
		<tag k="min_age" v="1" />
		<tag k="name" v="Kidsa Øvre Sædal" />
		<tag k="no-barnehage:nsrid" v="1014237" />
		<tag k="operator" v="Kidsa Barnehager AS" />
		<tag k="operator:type" v="private" />
		<tag k="start_date" v="2010-10-29" />
	</node>
	<node id="-3942" lat="60.38841" lon="5.287889">
		<tag k="amenity" v="kindergarten" />
		<tag k="capacity" v="68" />
		<tag k="contact:email" v="Roald.Bjorke@kidsabarnehager.no" />
		<tag k="max_age" v="5" />
		<tag k="min_age" v="1" />
		<tag k="name" v="Kidsa Vågedalen" />
		<tag k="no-barnehage:nsrid" v="1022416" />
		<tag k="operator" v="Kidsa Barnehager AS" />
		<tag k="operator:type" v="private" />
		<tag k="start_date" v="2011-04-01" />
	</node>
	<node id="-3941" lat="60.33997" lon="5.27176">
		<tag k="amenity" v="kindergarten" />
		<tag k="capacity" v="47" />
		<tag k="contact:email" v="Eirin.Volden@kidsabarnehager.no" />
		<tag k="max_age" v="5" />
		<tag k="min_age" v="1" />
		<tag k="name" v="Kidsa Varden" />
		<tag k="no-barnehage:nsrid" v="1022418" />
		<tag k="operator" v="Kidsa Barnehager AS" />
		<tag k="operator:type" v="private" />
		<tag k="start_date" v="2010-10-29" />
	</node>
	<node id="-3940" lat="60.48591" lon="5.270676">
		<tag k="amenity" v="kindergarten" />
		<tag k="capacity" v="49" />
		<tag k="contact:email" v="anne-grete.lund.bakke@kidsabarnehager.no" />
		<tag k="max_age" v="5" />
		<tag k="min_age" v="1" />
		<tag k="name" v="Kidsa Toppemyr" />
		<tag k="no-barnehage:nsrid" v="1022410" />
		<tag k="operator" v="Kidsa Barnehager AS" />
		<tag k="operator:type" v="private" />
		<tag k="start_date" v="2011-04-01" />
	</node>
	<node id="-3939" lat="60.45749" lon="5.287246">
		<tag k="amenity" v="kindergarten" />
		<tag k="capacity" v="42" />
		<tag k="contact:email" v="tertitten@kidsabarnehager.no" />
		<tag k="max_age" v="5" />
		<tag k="min_age" v="1" />
		<tag k="name" v="Kidsa Tertitten" />
		<tag k="no-barnehage:nsrid" v="1022409" />
		<tag k="operator" v="Kidsa Barnehager AS" />
		<tag k="operator:type" v="private" />
		<tag k="start_date" v="2011-04-01" />
	</node>
	<node id="-3938" lat="60.42217" lon="5.313543">
		<tag k="amenity" v="kindergarten" />
		<tag k="capacity" v="25" />
		<tag k="contact:email" v="solvberget@kidsabarnehager.no" />
		<tag k="max_age" v="5" />
		<tag k="min_age" v="1" />
		<tag k="name" v="Kidsa Sølvberget" />
		<tag k="no-barnehage:nsrid" v="1022413" />
		<tag k="operator" v="Kidsa Barnehager AS" />
		<tag k="operator:type" v="private" />
		<tag k="start_date" v="2010-10-29" />
	</node>
	<node id="-3937" lat="60.35569" lon="5.359894">
		<tag k="amenity" v="kindergarten" />
		<tag k="capacity" v="58" />
		<tag k="contact:email" v="Mette.Vinje.Steinslid@kidsabarnehager.no" />
		<tag k="max_age" v="5" />
		<tag k="min_age" v="1" />
		<tag k="name" v="Kidsa Slettebakken" />
		<tag k="no-barnehage:nsrid" v="1022415" />
		<tag k="operator" v="Kidsa Barnehager AS" />
		<tag k="operator:type" v="private" />
		<tag k="start_date" v="2010-10-29" />
	</node>
	<node id="-3936" lat="60.36382" lon="5.228222">
		<tag k="amenity" v="kindergarten" />
		<tag k="capacity" v="68" />
		<tag k="contact:email" v="Trine.Dalland@kidsabarnehager.no" />
		<tag k="max_age" v="5" />
		<tag k="min_age" v="1" />
		<tag k="name" v="Kidsa Sandgotna" />
		<tag k="no-barnehage:nsrid" v="1022426" />
		<tag k="operator" v="Kidsa Barnehager AS" />
		<tag k="operator:type" v="private" />
		<tag k="start_date" v="2013-10-09" />
	</node>
	<node id="-3935" lat="60.34404" lon="5.303623">
		<tag k="amenity" v="kindergarten" />
		<tag k="capacity" v="36" />
		<tag k="contact:email" v="Inger.Boe@kidsabarnehager.no" />
		<tag k="max_age" v="5" />
		<tag k="min_age" v="1" />
		<tag k="name" v="Kidsa Ospeli" />
		<tag k="no-barnehage:nsrid" v="1022420" />
		<tag k="operator" v="Kidsa Barnehager AS" />
		<tag k="operator:type" v="private" />
		<tag k="start_date" v="2011-04-01" />
	</node>
	<node id="-3934" lat="60.3756" lon="5.226544">
		<tag k="amenity" v="kindergarten" />
		<tag k="capacity" v="48" />
		<tag k="contact:email" v="Kari.Olnes@kidsabarnehager.no" />
		<tag k="contact:phone" v="+47 55933155" />
		<tag k="max_age" v="5" />
		<tag k="min_age" v="1" />
		<tag k="name" v="Kidsa Olsvikfjellet" />
		<tag k="no-barnehage:nsrid" v="1022417" />
		<tag k="operator" v="Kidsa Barnehager AS" />
		<tag k="operator:type" v="private" />
		<tag k="start_date" v="2011-04-01" />
	</node>
	<node id="-3933" lat="60.41816" lon="5.309314">
		<tag k="amenity" v="kindergarten" />
		<tag k="capacity" v="39" />
		<tag k="contact:email" v="Lise.Helen.Astvedt@kidsabarnehager.no" />
		<tag k="max_age" v="5" />
		<tag k="min_age" v="1" />
		<tag k="name" v="Kidsa Nyhavn" />
		<tag k="no-barnehage:nsrid" v="1022412" />
		<tag k="operator" v="Kidsa Barnehager AS" />
		<tag k="operator:type" v="private" />
		<tag k="start_date" v="2011-04-01" />
	</node>
	<node id="-3932" lat="60.47111" lon="5.312402">
		<tag k="amenity" v="kindergarten" />
		<tag k="capacity" v="176" />
		<tag k="contact:email" v="Ragnhild.Elisabeth.Fosse@kidsabarnehager.no" />
		<tag k="contact:phone" v="+47 55 19 42 00" />
		<tag k="max_age" v="5" />
		<tag k="min_age" v="1" />
		<tag k="name" v="Kidsa Myrdal" />
		<tag k="no-barnehage:nsrid" v="1021503" />
		<tag k="operator" v="Kidsa Barnehager AS" />
		<tag k="operator:type" v="private" />
		<tag k="start_date" v="2006-08-30" />
	</node>
	<node id="-3931" lat="60.46743" lon="5.319958">
		<tag k="amenity" v="kindergarten" />
		<tag k="capacity" v="68" />
		<tag k="contact:email" v="Vivian.Endresen@kidsabarnehager.no" />
		<tag k="max_age" v="5" />
		<tag k="min_age" v="1" />
		<tag k="name" v="Kidsa Midtbygda" />
		<tag k="no-barnehage:nsrid" v="1022421" />
		<tag k="operator" v="Kidsa Barnehager AS" />
		<tag k="operator:type" v="private" />
		<tag k="start_date" v="2010-10-29" />
	</node>
	<node id="-3930" lat="60.35632" lon="5.286674">
		<tag k="amenity" v="kindergarten" />
		<tag k="capacity" v="57" />
		<tag k="contact:email" v="Irene.Ellen.Sellevag@kidsabarnehager.no" />
		<tag k="max_age" v="5" />
		<tag k="min_age" v="1" />
		<tag k="name" v="Kidsa Løvåsbakken" />
		<tag k="no-barnehage:nsrid" v="1022425" />
		<tag k="operator" v="Kidsa Barnehager AS" />
		<tag k="operator:type" v="private" />
		<tag k="start_date" v="2013-10-09" />
	</node>
	<node id="-3929" lat="60.40118" lon="5.325088">
		<tag k="amenity" v="kindergarten" />
		<tag k="capacity" v="85" />
		<tag k="contact:email" v="Elin.Vik@kidsabarnehager.no" />
		<tag k="max_age" v="5" />
		<tag k="min_age" v="1" />
		<tag k="name" v="Kidsa Ladegården" />
		<tag k="no-barnehage:nsrid" v="1022427" />
		<tag k="operator" v="Kidsa Barnehager AS" />
		<tag k="operator:type" v="private" />
		<tag k="start_date" v="2013-10-09" />
	</node>
	<node id="-3928" lat="60.29889" lon="5.260512">
		<tag k="amenity" v="kindergarten" />
		<tag k="capacity" v="93" />
		<tag k="contact:email" v="frode.fjeldberg@kidsabarnehager.no" />
		<tag k="contact:phone" v="+47 55 19 42 00" />
		<tag k="max_age" v="5" />
		<tag k="min_age" v="1" />
		<tag k="name" v="Kidsa Kokstad" />
		<tag k="no-barnehage:nsrid" v="1020243" />
		<tag k="operator" v="Kidsa Barnehager AS" />
		<tag k="operator:type" v="private" />
		<tag k="start_date" v="1993-03-01" />
	</node>
	<node id="-3927" lat="60.36431" lon="5.352886">
		<tag k="amenity" v="kindergarten" />
		<tag k="capacity" v="31" />
		<tag k="contact:email" v="Anne.Gina.Haegland@kidsabarnehager.no" />
		<tag k="max_age" v="5" />
		<tag k="min_age" v="1" />
		<tag k="name" v="Kidsa Inndalen" />
		<tag k="no-barnehage:nsrid" v="1022414" />
		<tag k="operator" v="Kidsa Barnehager AS" />
		<tag k="operator:type" v="private" />
		<tag k="start_date" v="2011-04-01" />
	</node>
	<node id="-3926" lat="60.51038" lon="5.344489">
		<tag k="amenity" v="kindergarten" />
		<tag k="capacity" v="156" />
		<tag k="contact:email" v="einar.bolstad@kidsabarnehager.no" />
		<tag k="contact:phone" v="+47 55 19 42 00" />
		<tag k="max_age" v="5" />
		<tag k="min_age" v="1" />
		<tag k="name" v="Kidsa Hylkje" />
		<tag k="no-barnehage:nsrid" v="1020986" />
		<tag k="operator" v="Kidsa Barnehager AS" />
		<tag k="operator:type" v="private" />
		<tag k="start_date" v="2003-10-21" />
	</node>
	<node id="-3925" lat="60.4631" lon="5.293104">
		<tag k="amenity" v="kindergarten" />
		<tag k="capacity" v="84" />
		<tag k="contact:email" v="kristi.aadland@kidsabarnehager.no" />
		<tag k="contact:phone" v="+47 55 53 08 10" />
		<tag k="contact:website" v="http://www.kidsabarnehager.no" />
		<tag k="max_age" v="5" />
		<tag k="min_age" v="1" />
		<tag k="name" v="Kidsa Haukedalen" />
		<tag k="no-barnehage:nsrid" v="1020987" />
		<tag k="operator" v="Kidsa Barnehager AS" />
		<tag k="operator:type" v="private" />
		<tag k="start_date" v="1990-08-01" />
	</node>
	<node id="-3924" lat="60.4429" lon="5.45367">
		<tag k="amenity" v="kindergarten" />
		<tag k="capacity" v="81" />
		<tag k="contact:email" v="Siri.Sivertsen@kidsabarnehager.no" />
		<tag k="max_age" v="5" />
		<tag k="min_age" v="1" />
		<tag k="name" v="Kidsa Festtangen" />
		<tag k="no-barnehage:nsrid" v="1014236" />
		<tag k="operator" v="Kidsa Barnehager AS" />
		<tag k="operator:type" v="private" />
		<tag k="start_date" v="2010-10-29" />
	</node>
	<node id="-3923" lat="60.35921" lon="5.369123">
		<tag k="amenity" v="kindergarten" />
		<tag k="capacity" v="69" />
		<tag k="contact:email" v="erleveien@kidsabarnehager.no" />
		<tag k="max_age" v="5" />
		<tag k="min_age" v="1" />
		<tag k="name" v="Kidsa Erleveien" />
		<tag k="no-barnehage:nsrid" v="1022145" />
		<tag k="operator" v="Kidsa Barnehager AS" />
		<tag k="operator:type" v="private" />
		<tag k="start_date" v="2011-04-01" />
	</node>
	<node id="-3922" lat="60.43796" lon="5.302357">
		<tag k="amenity" v="kindergarten" />
		<tag k="capacity" v="30" />
		<tag k="contact:email" v="eidsvag@kidsabarnehager.no" />
		<tag k="max_age" v="5" />
		<tag k="min_age" v="1" />
		<tag k="name" v="Kidsa Eidsvåg" />
		<tag k="no-barnehage:nsrid" v="1022143" />
		<tag k="operator" v="Kidsa Barnehager AS" />
		<tag k="operator:type" v="private" />
		<tag k="start_date" v="2011-04-01" />
	</node>
	<node id="-3921" lat="60.40945" lon="5.329139">
		<tag k="amenity" v="kindergarten" />
		<tag k="capacity" v="48" />
		<tag k="contact:email" v="Johan.Johnsson@kidsabarnehager.no" />
		<tag k="max_age" v="5" />
		<tag k="min_age" v="1" />
		<tag k="name" v="Kidsa Christinegård" />
		<tag k="no-barnehage:nsrid" v="1022411" />
		<tag k="operator" v="Kidsa Barnehager AS" />
		<tag k="operator:type" v="private" />
		<tag k="start_date" v="2011-04-01" />
	</node>
	<node id="-3920" lat="60.37258" lon="5.220877">
		<tag k="amenity" v="kindergarten" />
		<tag k="capacity" v="44" />
		<tag k="contact:email" v="bente.gjerde@kidsabarnehager.no" />
		<tag k="max_age" v="5" />
		<tag k="min_age" v="1" />
		<tag k="name" v="Kidsa Brønndalen" />
		<tag k="no-barnehage:nsrid" v="1022407" />
		<tag k="operator" v="Kidsa Barnehager AS" />
		<tag k="operator:type" v="private" />
		<tag k="start_date" v="2010-10-29" />
	</node>
	<node id="-3919" lat="60.49181" lon="5.384311">
		<tag k="amenity" v="kindergarten" />
		<tag k="capacity" v="104" />
		<tag k="contact:email" v="birgitte.flom@kidsabarnehager.no" />
		<tag k="contact:phone" v="+47 55 19 42 00" />
		<tag k="max_age" v="5" />
		<tag k="min_age" v="1" />
		<tag k="name" v="Kidsa Breistein" />
		<tag k="no-barnehage:nsrid" v="1020163" />
		<tag k="operator" v="Kidsa Barnehager AS" />
		<tag k="operator:type" v="private" />
		<tag k="start_date" v="1992-01-04" />
	</node>
	<node id="-3918" lat="60.34291" lon="5.263539">
		<tag k="amenity" v="kindergarten" />
		<tag k="capacity" v="55" />
		<tag k="contact:email" v="chrmob@kidsabarnehager.no" />
		<tag k="max_age" v="5" />
		<tag k="min_age" v="1" />
		<tag k="name" v="Kidsa Allestadhaugen" />
		<tag k="no-barnehage:nsrid" v="1022419" />
		<tag k="operator" v="Kidsa Barnehager AS" />
		<tag k="operator:type" v="private" />
		<tag k="start_date" v="2011-04-01" />
	</node>
	<node id="-3917" lat="60.37697" lon="5.362443">
		<tag k="amenity" v="kindergarten" />
		<tag k="capacity" v="18" />
		<tag k="contact:email" v="karusellen@barnehage.no" />
		<tag k="contact:phone" v="+47 55 20 13 27" />
		<tag k="max_age" v="5" />
		<tag k="min_age" v="1" />
		<tag k="name" v="Karusellen barnehage" />
		<tag k="no-barnehage:nsrid" v="1019926" />
		<tag k="operator" v="As Karusellen" />
		<tag k="operator:type" v="private" />
		<tag k="start_date" v="1990-10-01" />
	</node>
	<node id="-3916" lat="60.35484" lon="5.271505">
		<tag k="amenity" v="kindergarten" />
		<tag k="capacity" v="52" />
		<tag k="contact:email" v="kanadaskogen@barnehage.no" />
		<tag k="contact:phone" v="+47 55 16 34 91" />
		<tag k="contact:website" v="http://kanadaskogen.barnehage.no" />
		<tag k="max_age" v="5" />
		<tag k="min_age" v="1" />
		<tag k="name" v="Kanadaskogen Friluftsbarnehage" />
		<tag k="no-barnehage:nsrid" v="1019960" />
		<tag k="operator" v="Kanadaskogen Friluftslivsbarnehage Stiftelse" />
		<tag k="operator:type" v="private" />
		<tag k="start_date" v="1990-01-01" />
	</node>
	<node id="-3915" lat="60.393" lon="5.31883">
		<tag k="amenity" v="kindergarten" />
		<tag k="capacity" v="18" />
		<tag k="contact:email" v="elisabeth.alnes@bergen.kommune.no" />
		<tag k="max_age" v="5" />
		<tag k="min_age" v="1" />
		<tag k="name" v="Kalmargaten barnehage" />
		<tag k="no-barnehage:nsrid" v="1016719" />
		<tag k="operator" v="Bergen kommune" />
		<tag k="operator:type" v="public" />
		<tag k="start_date" v="1993-01-01" />
	</node>
	<node id="-3914" lat="60.3872" lon="5.34503">
		<tag k="amenity" v="kindergarten" />
		<tag k="capacity" v="52" />
		<tag k="contact:email" v="mona.ulvedal@bergen.kommune.no" />
		<tag k="max_age" v="5" />
		<tag k="min_age" v="1" />
		<tag k="name" v="Kalfarveien barnehage" />
		<tag k="no-barnehage:nsrid" v="1016691" />
		<tag k="operator" v="Bergen kommune" />
		<tag k="operator:type" v="public" />
		<tag k="start_date" v="1976-01-01" />
	</node>
	<node id="-3913" lat="60.27929" lon="5.405344">
		<tag k="amenity" v="kindergarten" />
		<tag k="capacity" v="22" />
		<tag k="contact:email" v="Kaland.barnehage@hotmail.com" />
		<tag k="contact:phone" v="+47 55 11 91 70" />
		<tag k="contact:website" v="http://www.kalandbarnehage.no" />
		<tag k="max_age" v="5" />
		<tag k="min_age" v="1" />
		<tag k="name" v="Kaland barnehage AS" />
		<tag k="no-barnehage:nsrid" v="1019618" />
		<tag k="operator" v="Kaland barnehage AS" />
		<tag k="operator:type" v="private" />
		<tag k="start_date" v="1980-10-06" />
	</node>
	<node id="-3912" lat="60.3894" lon="5.31511">
		<tag k="amenity" v="kindergarten" />
		<tag k="capacity" v="59" />
		<tag k="contact:email" v="oystein.bekken@sib.no" />
		<tag k="contact:phone" v="+47 55 90 19 64" />
		<tag k="max_age" v="5" />
		<tag k="min_age" v="1" />
		<tag k="name" v="Jekteviken barnehage" />
		<tag k="no-barnehage:nsrid" v="1015505" />
		<tag k="operator" v="Studentsamskipnaden på Vestlandet" />
		<tag k="operator:type" v="private" />
		<tag k="start_date" v="1965-12-31" />
	</node>
	<node id="-3911" lat="60.307" lon="5.32282">
		<tag k="amenity" v="kindergarten" />
		<tag k="capacity" v="26" />
		<tag k="contact:email" v="monika.okland@bergen.kommune.no" />
		<tag k="contact:phone" v="+47 55 138010" />
		<tag k="max_age" v="5" />
		<tag k="min_age" v="1" />
		<tag k="name" v="Iristunet barnehage" />
		<tag k="no-barnehage:nsrid" v="1016706" />
		<tag k="operator" v="Bergen kommune" />
		<tag k="operator:type" v="public" />
		<tag k="start_date" v="1989-01-02" />
	</node>
	<node id="-3910" lat="60.3546" lon="5.35828">
		<tag k="amenity" v="kindergarten" />
		<tag k="capacity" v="54" />
		<tag k="contact:email" v="post@isob.no" />
		<tag k="contact:phone" v="+47 55 28 77 16" />
		<tag k="max_age" v="5" />
		<tag k="min_age" v="3" />
		<tag k="name" v="International School Of Bergen Avd Barnehage" />
		<tag k="no-barnehage:nsrid" v="1015914" />
		<tag k="operator" v="Stiftelsen International School Of Bergen" />
		<tag k="operator:type" v="private" />
		<tag k="start_date" v="1975-08-01" />
	</node>
	<node id="-3909" lat="60.43019" lon="5.469101">
		<tag k="amenity" v="kindergarten" />
		<tag k="contact:email" v="elinbrev@online.no" />
		<tag k="contact:phone" v="+47 55 24 39 50" />
		<tag k="name" v="Indre Arna Kvinne og Familielag" />
		<tag k="no-barnehage:nsrid" v="1019566" />
		<tag k="operator" v="Indre Arna Kvinne og Familielag" />
		<tag k="operator:type" v="private" />
		<tag k="start_date" v="1977-12-02" />
	</node>
	<node id="-3908" lat="60.4221" lon="5.46969">
		<tag k="amenity" v="kindergarten" />
		<tag k="capacity" v="60" />
		<tag k="contact:email" v="lisbeth.kallestad@bergen.kommune.no" />
		<tag k="max_age" v="5" />
		<tag k="min_age" v="1" />
		<tag k="name" v="Indre Arna barnehage" />
		<tag k="no-barnehage:nsrid" v="1015059" />
		<tag k="operator" v="Bergen kommune" />
		<tag k="operator:type" v="public" />
		<tag k="start_date" v="2011-08-01" />
	</node>
	<node id="-3907" lat="60.3095" lon="5.34721">
		<tag k="amenity" v="kindergarten" />
		<tag k="capacity" v="69" />
		<tag k="contact:email" v="lilly.korsvold@bergen.kommune.no" />
		<tag k="contact:phone" v="+47 55979700" />
		<tag k="max_age" v="5" />
		<tag k="min_age" v="1" />
		<tag k="name" v="Idavollen barnehage" />
		<tag k="no-barnehage:nsrid" v="1016228" />
		<tag k="operator" v="Bergen kommune" />
		<tag k="operator:type" v="public" />
		<tag k="start_date" v="1994-08-01" />
	</node>
	<node id="-3906" lat="60.34494" lon="5.188158">
		<tag k="amenity" v="kindergarten" />
		<tag k="capacity" v="83" />
		<tag k="contact:email" v="dl.haakonshella@bhg.no" />
		<tag k="contact:phone" v="+47 55 26 79 69" />
		<tag k="max_age" v="5" />
		<tag k="min_age" v="1" />
		<tag k="name" v="Håkonshella Fus barnehage AS" />
		<tag k="no-barnehage:nsrid" v="1021412" />
		<tag k="operator" v="Håkonshella Fus barnehage AS" />
		<tag k="operator:type" v="private" />
		<tag k="start_date" v="2006-01-30" />
	</node>
	<node id="-3905" lat="60.3242" lon="5.34337">
		<tag k="amenity" v="kindergarten" />
		<tag k="capacity" v="78" />
		<tag k="contact:email" v="line.texe@bergen.kommune.no" />
		<tag k="contact:phone" v="+47 55 191130" />
		<tag k="max_age" v="5" />
		<tag k="min_age" v="1" />
		<tag k="name" v="Hop Oppveksttun barnehage" />
		<tag k="no-barnehage:nsrid" v="1016712" />
		<tag k="operator" v="Bergen kommune" />
		<tag k="operator:type" v="public" />
		<tag k="start_date" v="1992-07-01" />
	</node>
	<node id="-3904" lat="60.3699" lon="5.36223">
		<tag k="amenity" v="kindergarten" />
		<tag k="capacity" v="72" />
		<tag k="contact:email" v="geba@helse-bergen.no" />
		<tag k="max_age" v="5" />
		<tag k="min_age" v="1" />
		<tag k="name" v="Helse Bergen Hf Vognstølen Barnehage" />
		<tag k="no-barnehage:nsrid" v="1015604" />
		<tag k="operator" v="Helse Bergen Hf" />
		<tag k="start_date" v="1997-12-01" />
	</node>
	<node id="-3903" lat="60.4185" lon="5.31396">
		<tag k="amenity" v="kindergarten" />
		<tag k="capacity" v="54" />
		<tag k="contact:email" v="rsro@helse-bergen.no" />
		<tag k="max_age" v="5" />
		<tag k="min_age" v="1" />
		<tag k="name" v="Helse Bergen Hf Vinterdalen Barnehage" />
		<tag k="no-barnehage:nsrid" v="1016678" />
		<tag k="operator" v="Helse Bergen Hf" />
		<tag k="start_date" v="1989-01-02" />
	</node>
	<node id="-3902" lat="60.373" lon="5.36246">
		<tag k="amenity" v="kindergarten" />
		<tag k="capacity" v="72" />
		<tag k="contact:email" v="ravnebjerget.barnehage@helse-bergen.no" />
		<tag k="max_age" v="5" />
		<tag k="min_age" v="1" />
		<tag k="name" v="Helse Bergen Hf Ravnebjerget Barnehage" />
		<tag k="no-barnehage:nsrid" v="1013772" />
		<tag k="operator" v="Helse Bergen Hf" />
		<tag k="start_date" v="1989-01-02" />
	</node>
	<node id="-3901" lat="60.3748" lon="5.35198">
		<tag k="amenity" v="kindergarten" />
		<tag k="capacity" v="43" />
		<tag k="contact:email" v="iguv@helse-bergen.no" />
		<tag k="max_age" v="5" />
		<tag k="min_age" v="1" />
		<tag k="name" v="Helse Bergen Hf Hunstad Barnehage" />
		<tag k="no-barnehage:nsrid" v="1013777" />
		<tag k="operator" v="Helse Bergen Hf" />
		<tag k="start_date" v="1989-01-02" />
	</node>
	<node id="-3900" lat="60.426" lon="5.2966">
		<tag k="amenity" v="kindergarten" />
		<tag k="capacity" v="21" />
		<tag k="contact:email" v="Elisabeth.Berge@bergen.kommune.no" />
		<tag k="max_age" v="5" />
		<tag k="min_age" v="1" />
		<tag k="name" v="Hellemyren barnehage" />
		<tag k="no-barnehage:nsrid" v="1014910" />
		<tag k="operator" v="Bergen kommune" />
		<tag k="operator:type" v="public" />
		<tag k="start_date" v="1995-09-01" />
	</node>
	<node id="-3899" lat="60.4324" lon="5.28519">
		<tag k="amenity" v="kindergarten" />
		<tag k="capacity" v="30" />
		<tag k="contact:email" v="hellebakken.barnehage@bergen.kommune.no" />
		<tag k="max_age" v="5" />
		<tag k="min_age" v="1" />
		<tag k="name" v="Hellebakken barnehage" />
		<tag k="no-barnehage:nsrid" v="1016680" />
		<tag k="operator" v="Bergen kommune" />
		<tag k="operator:type" v="public" />
		<tag k="start_date" v="1976-01-01" />
	</node>
	<node id="-3898" lat="60.48662" lon="5.2652">
		<tag k="amenity" v="kindergarten" />
		<tag k="capacity" v="30" />
		<tag k="contact:email" v="heimly.bhg@barnehage.no" />
		<tag k="contact:phone" v="+47 55 18 02 44" />
		<tag k="max_age" v="5" />
		<tag k="min_age" v="1" />
		<tag k="name" v="Heimly barnehage" />
		<tag k="no-barnehage:nsrid" v="1020319" />
		<tag k="operator" v="Heimly barnehage" />
		<tag k="operator:type" v="private" />
		<tag k="start_date" v="1972-12-25" />
	</node>
	<node id="-3897" lat="60.4689" lon="5.28053">
		<tag k="amenity" v="kindergarten" />
		<tag k="capacity" v="65" />
		<tag k="contact:email" v="haukedalsmyra@kanvas.no" />
		<tag k="contact:phone" v="+47 22 40 58 40" />
		<tag k="max_age" v="5" />
		<tag k="min_age" v="1" />
		<tag k="name" v="Haukedalsmyra Kanvas-Barnehage" />
		<tag k="no-barnehage:nsrid" v="1015485" />
		<tag k="operator" v="Stiftelsen Kanvas" />
		<tag k="operator:type" v="private" />
		<tag k="start_date" v="1990-03-01" />
	</node>
	<node id="-3896" lat="60.3648" lon="5.22836">
		<tag k="amenity" v="kindergarten" />
		<tag k="capacity" v="103" />
		<tag k="contact:email" v="cecilie.storli@bergen.kommune.no" />
		<tag k="contact:phone" v="+47 55 979935" />
		<tag k="max_age" v="5" />
		<tag k="min_age" v="1" />
		<tag k="name" v="Haugatun barnehage" />
		<tag k="no-barnehage:nsrid" v="1016707" />
		<tag k="operator" v="Bergen kommune" />
		<tag k="operator:type" v="public" />
		<tag k="start_date" v="1991-07-01" />
	</node>
	<node id="-3895" lat="60.3809" lon="5.31778">
		<tag k="amenity" v="kindergarten" />
		<tag k="capacity" v="93" />
		<tag k="contact:email" v="lisbeth.trones@bergen.kommune.no" />
		<tag k="max_age" v="5" />
		<tag k="min_age" v="1" />
		<tag k="name" v="Gyldenpris barnehage" />
		<tag k="no-barnehage:nsrid" v="1016679" />
		<tag k="operator" v="Bergen kommune" />
		<tag k="operator:type" v="public" />
		<tag k="start_date" v="1976-01-01" />
	</node>
	<node id="-3894" lat="60.3336" lon="5.30747">
		<tag k="amenity" v="kindergarten" />
		<tag k="capacity" v="97" />
		<tag k="contact:email" v="siw.hansson@bergen.kommune.no" />
		<tag k="max_age" v="5" />
		<tag k="min_age" v="1" />
		<tag k="name" v="Gullstølsbotn barnehage" />
		<tag k="no-barnehage:nsrid" v="1016722" />
		<tag k="operator" v="Bergen kommune" />
		<tag k="operator:type" v="public" />
		<tag k="start_date" v="1993-01-01" />
	</node>
	<node id="-3893" lat="60.3771" lon="5.22574">
		<tag k="amenity" v="kindergarten" />
		<tag k="capacity" v="52" />
		<tag k="contact:email" v="merethe.johannessen@bergen.kommune.no" />
		<tag k="max_age" v="5" />
		<tag k="min_age" v="1" />
		<tag k="name" v="Grøntulien barnehage" />
		<tag k="no-barnehage:nsrid" v="1016694" />
		<tag k="operator" v="Bergen kommune" />
		<tag k="operator:type" v="public" />
		<tag k="start_date" v="1989-01-01" />
	</node>
	<node id="-3892" lat="60.4562" lon="5.28321">
		<tag k="amenity" v="kindergarten" />
		<tag k="capacity" v="95" />
		<tag k="contact:email" v="styrer@gronskjeret.no" />
		<tag k="contact:website" v="http://gronskjeret.no" />
		<tag k="max_age" v="5" />
		<tag k="min_age" v="1" />
		<tag k="name" v="Grønskjeret barnehage AS" />
		<tag k="no-barnehage:nsrid" v="1015784" />
		<tag k="operator" v="Grønskjeret barnehage AS" />
		<tag k="operator:type" v="private" />
		<tag k="start_date" v="1999-09-23" />
	</node>
	<node id="-3891" lat="60.3561" lon="5.34464">
		<tag k="amenity" v="kindergarten" />
		<tag k="capacity" v="71" />
		<tag k="contact:email" v="elin.eggen@bergen.kommune.no" />
		<tag k="max_age" v="5" />
		<tag k="min_age" v="1" />
		<tag k="name" v="Granebo Naturbarnehage" />
		<tag k="no-barnehage:nsrid" v="1016693" />
		<tag k="operator" v="Bergen kommune" />
		<tag k="operator:type" v="public" />
		<tag k="start_date" v="1977-09-15" />
	</node>
	<node id="-3890" lat="60.37626" lon="5.204453">
		<tag k="amenity" v="kindergarten" />
		<tag k="capacity" v="75" />
		<tag k="contact:email" v="frid@godvikbhg.no" />
		<tag k="contact:phone" v="+47 55266201" />
		<tag k="max_age" v="5" />
		<tag k="min_age" v="1" />
		<tag k="name" v="Godvik barnehage" />
		<tag k="no-barnehage:nsrid" v="1019639" />
		<tag k="operator" v="Godvik Sanitetsforening" />
		<tag k="operator:type" v="private" />
		<tag k="start_date" v="1977-09-15" />
	</node>
	<node id="-3889" lat="60.4562" lon="5.329211">
		<tag k="amenity" v="kindergarten" />
		<tag k="capacity" v="112" />
		<tag k="contact:email" v="leder.rollandslia@gnistbarnehager.no" />
		<tag k="contact:phone" v="+47 40 00 65 96" />
		<tag k="contact:website" v="http://www.gnistbarnehager.no" />
		<tag k="max_age" v="5" />
		<tag k="min_age" v="1" />
		<tag k="name" v="Gnist Barnehager Rollandslia AS" />
		<tag k="no-barnehage:nsrid" v="1021594" />
		<tag k="operator" v="Gnist Barnehager Rollandslia AS" />
		<tag k="operator:type" v="private" />
		<tag k="start_date" v="2007-01-19" />
	</node>
	<node id="-3888" lat="60.38693" lon="5.224202">
		<tag k="amenity" v="kindergarten" />
		<tag k="capacity" v="101" />
		<tag k="contact:email" v="leder.festerasen@gnistbarnehager.no" />
		<tag k="contact:phone" v="+47 40 00 65 96" />
		<tag k="contact:website" v="http://www.gnistbarnehager.no" />
		<tag k="max_age" v="5" />
		<tag k="min_age" v="1" />
		<tag k="name" v="Gnist Barnehager Festeråsen AS" />
		<tag k="no-barnehage:nsrid" v="1025934" />
		<tag k="operator" v="Gnist Barnehager Festeråsen AS" />
		<tag k="operator:type" v="private" />
		<tag k="start_date" v="2015-05-01" />
	</node>
	<node id="-3886" lat="60.3715" lon="5.35385">
		<tag k="amenity" v="kindergarten" />
		<tag k="capacity" v="57" />
		<tag k="contact:email" v="Monika.karlsen@bergen.kommnune.no" />
		<tag k="max_age" v="5" />
		<tag k="min_age" v="1" />
		<tag k="name" v="Gimle Oppveksttun Barnehage" />
		<tag k="no-barnehage:nsrid" v="1014071" />
		<tag k="operator" v="Bergen kommune" />
		<tag k="operator:type" v="public" />
		<tag k="start_date" v="2009-10-01" />
	</node>
	<node id="-3885" lat="60.44902" lon="5.468039">
		<tag k="amenity" v="kindergarten" />
		<tag k="capacity" v="51" />
		<tag k="contact:email" v="garnesgaard@barnehage.no" />
		<tag k="contact:phone" v="+47 55 24 57 02" />
		<tag k="contact:website" v="http://garnesgaard.barnehage.no" />
		<tag k="max_age" v="5" />
		<tag k="min_age" v="1" />
		<tag k="name" v="Garnes Gårdsbarnehage AS" />
		<tag k="no-barnehage:nsrid" v="1021354" />
		<tag k="operator" v="Garnes Gårdsbarnehage AS" />
		<tag k="operator:type" v="private" />
		<tag k="start_date" v="2006-01-02" />
	</node>
	<node id="-3884" lat="60.51782" lon="5.307369">
		<tag k="amenity" v="kindergarten" />
		<tag k="capacity" v="60" />
		<tag k="contact:email" v="hordvik@barnehage.no" />
		<tag k="contact:phone" v="+47 55 24 73 57" />
		<tag k="contact:website" v="http://www.hordvik.barnehage.no" />
		<tag k="max_age" v="5" />
		<tag k="min_age" v="1" />
		<tag k="name" v="Gamleskulen barnehage" />
		<tag k="no-barnehage:nsrid" v="1021553" />
		<tag k="operator" v="Gamleskulen AS" />
		<tag k="operator:type" v="private" />
		<tag k="start_date" v="2006-12-05" />
	</node>
	<node id="-3883" lat="60.3629" lon="5.35618">
		<tag k="amenity" v="kindergarten" />
		<tag k="contact:email" v="fridalenapenbhg@gmail.com" />
		<tag k="name" v="Fridalen Menighets Åpne barnehage" />
		<tag k="no-barnehage:nsrid" v="1013128" />
		<tag k="operator" v="Fridalen Sokn" />
		<tag k="operator:type" v="private" />
		<tag k="start_date" v="2005-05-01" />
	</node>
	<node id="-3882" lat="60.3634" lon="5.35981">
		<tag k="amenity" v="kindergarten" />
		<tag k="capacity" v="90" />
		<tag k="contact:email" v="fridalen@brsbhg.no" />
		<tag k="max_age" v="5" />
		<tag k="min_age" v="1" />
		<tag k="name" v="Fridalen barnehage" />
		<tag k="no-barnehage:nsrid" v="1017700" />
		<tag k="operator" v="Bergen Racketsenter AS" />
		<tag k="operator:type" v="private" />
		<tag k="start_date" v="2007-04-16" />
	</node>
	<node id="-3881" lat="60.31472" lon="5.282853">
		<tag k="amenity" v="kindergarten" />
		<tag k="capacity" v="70" />
		<tag k="contact:email" v="randi@fremtidenbarnehage.no" />
		<tag k="contact:phone" v="+47 55 98 48 30" />
		<tag k="max_age" v="5" />
		<tag k="min_age" v="1" />
		<tag k="name" v="Fremtiden barnehage AS" />
		<tag k="no-barnehage:nsrid" v="1021021" />
		<tag k="operator" v="Fremtiden barnehage AS" />
		<tag k="operator:type" v="private" />
		<tag k="start_date" v="2004-02-18" />
	</node>
	<node id="-3880" lat="60.3972" lon="5.30804">
		<tag k="amenity" v="kindergarten" />
		<tag k="capacity" v="26" />
		<tag k="contact:email" v="eva.rokkum@bergen.kommune.no" />
		<tag k="max_age" v="2" />
		<tag k="min_age" v="1" />
		<tag k="name" v="Fredriksberg barnehage" />
		<tag k="no-barnehage:nsrid" v="1016716" />
		<tag k="operator" v="Bergen kommune" />
		<tag k="operator:type" v="public" />
		<tag k="start_date" v="1992-07-01" />
	</node>
	<node id="-3879" lat="60.3479" lon="5.35191">
		<tag k="amenity" v="kindergarten" />
		<tag k="capacity" v="101" />
		<tag k="contact:email" v="bente.brusdal@sib.no" />
		<tag k="contact:phone" v="+47 55 27 12 35" />
		<tag k="max_age" v="5" />
		<tag k="min_age" v="1" />
		<tag k="name" v="Fantoft Gård barnehage" />
		<tag k="no-barnehage:nsrid" v="1016832" />
		<tag k="operator" v="Studentsamskipnaden på Vestlandet" />
		<tag k="operator:type" v="private" />
		<tag k="start_date" v="1992-08-01" />
	</node>
	<node id="-3878" lat="60.34549" lon="5.353357">
		<tag k="amenity" v="kindergarten" />
		<tag k="name" v="Fantoft barnehage" />
		<tag k="no-barnehage:nsrid" v="2000125" />
		<tag k="operator" v="Studentsamskipnaden på Vestlandet" />
		<tag k="operator:type" v="private" />
		<tag k="start_date" v="2017-02-01" />
	</node>
	<node id="-3876" lat="60.3035" lon="5.37937">
		<tag k="amenity" v="kindergarten" />
		<tag k="capacity" v="63" />
		<tag k="contact:email" v="post@fanatunet.no" />
		<tag k="contact:phone" v="+47 55 92 22 00" />
		<tag k="contact:website" v="http://www.fanatunet.no" />
		<tag k="max_age" v="5" />
		<tag k="min_age" v="1" />
		<tag k="name" v="Fanatunet barnehage Sa" />
		<tag k="no-barnehage:nsrid" v="1020749" />
		<tag k="operator" v="Fanatunet barnehage Sa" />
		<tag k="operator:type" v="private" />
		<tag k="start_date" v="2001-10-10" />
	</node>
	<node id="-3875" lat="60.44968" lon="5.303775">
		<tag k="amenity" v="kindergarten" />
		<tag k="capacity" v="127" />
		<tag k="contact:email" v="fana@gaardsbarnehagen.no" />
		<tag k="contact:phone" v="+47 928 51 010" />
		<tag k="max_age" v="5" />
		<tag k="min_age" v="1" />
		<tag k="name" v="Fana Gårds- og Friluftsbarnehage AS" />
		<tag k="no-barnehage:nsrid" v="1021621" />
		<tag k="operator" v="Fana Gårds- og Friluftsbarnehage AS" />
		<tag k="operator:type" v="private" />
		<tag k="start_date" v="2007-03-13" />
	</node>
	<node id="-3874" lat="60.3863" lon="5.34781">
		<tag k="amenity" v="kindergarten" />
		<tag k="capacity" v="50" />
		<tag k="contact:email" v="aste.kostveit@sib.no" />
		<tag k="contact:phone" v="+47 55 30 19 40" />
		<tag k="max_age" v="5" />
		<tag k="min_age" v="1" />
		<tag k="name" v="Fagertun barnehage" />
		<tag k="no-barnehage:nsrid" v="1015786" />
		<tag k="operator" v="Studentsamskipnaden på Vestlandet" />
		<tag k="operator:type" v="private" />
		<tag k="start_date" v="1994-08-01" />
	</node>
	<node id="-3872" lat="60.30165" lon="5.321247">
		<tag k="amenity" v="kindergarten" />
		<tag k="capacity" v="104" />
		<tag k="contact:email" v="tiril@barnehage.no" />
		<tag k="contact:phone" v="+47 55 13 77 70" />
		<tag k="contact:website" v="http://eventus.barnehage.no" />
		<tag k="max_age" v="5" />
		<tag k="min_age" v="1" />
		<tag k="name" v="Eventus Tiriltoppen barnehage AS" />
		<tag k="no-barnehage:nsrid" v="1020294" />
		<tag k="operator" v="Eventus Tiriltoppen barnehage AS" />
		<tag k="operator:type" v="private" />
		<tag k="start_date" v="1996-01-01" />
	</node>
	<node id="-3871" lat="60.32114" lon="5.360052">
		<tag k="amenity" v="kindergarten" />
		<tag k="capacity" v="99" />
		<tag k="contact:email" v="midtun@barnehage.no" />
		<tag k="contact:phone" v="+47 55014658" />
		<tag k="contact:website" v="http://eventus.barnehage.no" />
		<tag k="max_age" v="5" />
		<tag k="min_age" v="1" />
		<tag k="name" v="Eventus Midtun barnehage AS" />
		<tag k="no-barnehage:nsrid" v="1022432" />
		<tag k="operator" v="Eventus Midtun barnehage AS" />
		<tag k="operator:type" v="private" />
		<tag k="start_date" v="2014-01-01" />
	</node>
	<node id="-3870" lat="60.29719" lon="5.311335">
		<tag k="amenity" v="kindergarten" />
		<tag k="capacity" v="111" />
		<tag k="contact:email" v="kvernslaatten@barnehage.no" />
		<tag k="contact:phone" v="+47 92 82 83 33" />
		<tag k="contact:website" v="http://eventus.barnehage.no" />
		<tag k="max_age" v="5" />
		<tag k="min_age" v="1" />
		<tag k="name" v="Eventus Kvernslåtten barnehage AS" />
		<tag k="no-barnehage:nsrid" v="1021663" />
		<tag k="operator" v="Eventus Kvernslåtten barnehage AS" />
		<tag k="operator:type" v="private" />
		<tag k="start_date" v="2007-06-01" />
	</node>
	<node id="-3869" lat="60.30849" lon="5.35388">
		<tag k="amenity" v="kindergarten" />
		<tag k="capacity" v="29" />
		<tag k="contact:email" v="eventyr@barnehage.no" />
		<tag k="contact:phone" v="+47 55228661" />
		<tag k="contact:website" v="http://eventus.barnehage.no" />
		<tag k="max_age" v="5" />
		<tag k="min_age" v="1" />
		<tag k="name" v="Eventus Eventyrdalen barnehage AS" />
		<tag k="no-barnehage:nsrid" v="1022221" />
		<tag k="operator" v="Eventus Eventyrdalen barnehage AS" />
		<tag k="operator:type" v="private" />
		<tag k="start_date" v="2011-09-28" />
	</node>
	<node id="-3868" lat="60.46326" lon="5.310622">
		<tag k="amenity" v="kindergarten" />
		<tag k="capacity" v="287" />
		<tag k="contact:email" v="styrer@ulsetskogen.espira.no" />
		<tag k="contact:phone" v="+47 52 84 50 20" />
		<tag k="contact:website" v="http://www.espira.no" />
		<tag k="max_age" v="5" />
		<tag k="min_age" v="1" />
		<tag k="name" v="Espira Ulsetskogen barnehage" />
		<tag k="no-barnehage:nsrid" v="1021636" />
		<tag k="operator" v="Espira Ulsetskogen AS" />
		<tag k="operator:type" v="private" />
		<tag k="start_date" v="2007-04-26" />
	</node>
	<node id="-3867" lat="60.31018" lon="5.293979">
		<tag k="amenity" v="kindergarten" />
		<tag k="capacity" v="56" />
		<tag k="contact:email" v="styrer@steinsviken.espira.no" />
		<tag k="contact:phone" v="+47 52 84 50 20" />
		<tag k="contact:website" v="http://www.espira.no" />
		<tag k="max_age" v="5" />
		<tag k="min_age" v="1" />
		<tag k="name" v="Espira Steinsviken barnehage" />
		<tag k="no-barnehage:nsrid" v="1022179" />
		<tag k="operator" v="Espira Barnehager AS" />
		<tag k="operator:type" v="private" />
		<tag k="start_date" v="2011-01-01" />
	</node>
	<node id="-3866" lat="60.31498" lon="5.364183">
		<tag k="amenity" v="kindergarten" />
		<tag k="capacity" v="160" />
		<tag k="contact:email" v="styrer@solknatten.espira.no" />
		<tag k="contact:phone" v="+47 52 84 50 20" />
		<tag k="contact:website" v="http://www.espira.no" />
		<tag k="max_age" v="5" />
		<tag k="min_age" v="1" />
		<tag k="name" v="Espira Solknatten barnehage" />
		<tag k="no-barnehage:nsrid" v="1021561" />
		<tag k="operator" v="Espira Solknatten AS" />
		<tag k="operator:type" v="private" />
		<tag k="start_date" v="2007-01-06" />
	</node>
	<node id="-3865" lat="60.2979" lon="5.32572">
		<tag k="amenity" v="kindergarten" />
		<tag k="capacity" v="255" />
		<tag k="contact:email" v="styrer@ra.espira.no" />
		<tag k="contact:phone" v="+47 52 84 50 20" />
		<tag k="contact:website" v="http://www.espira.no" />
		<tag k="max_age" v="5" />
		<tag k="min_age" v="1" />
		<tag k="name" v="Espira Rå barnehage" />
		<tag k="no-barnehage:nsrid" v="1021457" />
		<tag k="operator" v="Espira Rå AS" />
		<tag k="operator:type" v="private" />
		<tag k="start_date" v="2006-06-20" />
	</node>
	<node id="-3864" lat="60.33847" lon="5.36438">
		<tag k="amenity" v="kindergarten" />
		<tag k="capacity" v="84" />
		<tag k="contact:email" v="styrer@rambjora.espira.no" />
		<tag k="contact:phone" v="+47 52 84 50 20" />
		<tag k="contact:website" v="http://www.espira.no" />
		<tag k="max_age" v="5" />
		<tag k="min_age" v="1" />
		<tag k="name" v="Espira Rambjøra barnehage" />
		<tag k="no-barnehage:nsrid" v="1021058" />
		<tag k="operator" v="Espira Rambjøra AS" />
		<tag k="operator:type" v="private" />
		<tag k="start_date" v="2004-04-19" />
	</node>
	<node id="-3863" lat="60.33648" lon="5.386156">
		<tag k="amenity" v="kindergarten" />
		<tag k="capacity" v="84" />
		<tag k="contact:email" v="styrer@helldalsasen.espira.no" />
		<tag k="contact:phone" v="+47 52 84 50 20" />
		<tag k="contact:website" v="http://www.espira.no" />
		<tag k="max_age" v="5" />
		<tag k="min_age" v="1" />
		<tag k="name" v="Espira Helldalsåsen barnehage" />
		<tag k="no-barnehage:nsrid" v="1020881" />
		<tag k="operator" v="Espira Helldalsåsen AS" />
		<tag k="operator:type" v="private" />
		<tag k="start_date" v="2003-01-29" />
	</node>
	<node id="-3862" lat="60.35595" lon="5.335752">
		<tag k="amenity" v="kindergarten" />
		<tag k="capacity" v="76" />
		<tag k="contact:email" v="styrer@gronnestolen.espira.no" />
		<tag k="contact:phone" v="+47 52 84 50 20" />
		<tag k="contact:website" v="http://www.espira.no" />
		<tag k="max_age" v="5" />
		<tag k="min_age" v="1" />
		<tag k="name" v="Espira Grønnestølen barnehage" />
		<tag k="no-barnehage:nsrid" v="1022008" />
		<tag k="operator" v="Espira Barnehager AS" />
		<tag k="operator:type" v="private" />
		<tag k="start_date" v="2010-07-01" />
	</node>
	<node id="-3861" lat="60.35484" lon="5.242403">
		<tag k="amenity" v="kindergarten" />
		<tag k="capacity" v="77" />
		<tag k="contact:email" v="styrer@eventyrskogen.espira.no" />
		<tag k="contact:phone" v="+47 52 84 50 20" />
		<tag k="max_age" v="5" />
		<tag k="min_age" v="1" />
		<tag k="name" v="Espira Eventyrskogen barnehage" />
		<tag k="no-barnehage:nsrid" v="1021831" />
		<tag k="operator" v="Espira Barnehager AS" />
		<tag k="operator:type" v="private" />
		<tag k="start_date" v="2004-03-18" />
	</node>
	<node id="-3860" lat="60.4411" lon="5.32364">
		<tag k="amenity" v="kindergarten" />
		<tag k="capacity" v="68" />
		<tag k="contact:email" v="elin.kristiansen3@bergen.kommune.no" />
		<tag k="max_age" v="5" />
		<tag k="min_age" v="1" />
		<tag k="name" v="Ervik barnehage" />
		<tag k="no-barnehage:nsrid" v="1016718" />
		<tag k="operator" v="Bergen kommune" />
		<tag k="operator:type" v="public" />
		<tag k="start_date" v="1989-01-02" />
	</node>
	<node id="-3859" lat="60.34822" lon="5.381318">
		<tag k="amenity" v="kindergarten" />
		<tag k="capacity" v="56" />
		<tag k="contact:email" v="eplekarten@steinerbarnehage.no" />
		<tag k="contact:phone" v="+47 55 61 38 30" />
		<tag k="max_age" v="5" />
		<tag k="min_age" v="1" />
		<tag k="name" v="Eplekarten Steinerbarnehage Sa" />
		<tag k="no-barnehage:nsrid" v="1019872" />
		<tag k="operator" v="Eplekarten Steinerbarnehage Sa" />
		<tag k="operator:type" v="private" />
		<tag k="start_date" v="1990-01-01" />
	</node>
	<node id="-3858" lat="60.30131" lon="5.264941">
		<tag k="amenity" v="kindergarten" />
		<tag k="capacity" v="32" />
		<tag k="contact:email" v="post@eparken.no" />
		<tag k="contact:phone" v="+47 55 12 74 35" />
		<tag k="max_age" v="5" />
		<tag k="min_age" v="1" />
		<tag k="name" v="Energiparken barnehage" />
		<tag k="no-barnehage:nsrid" v="1019999" />
		<tag k="operator" v="Stiftelsen Barnekraft" />
		<tag k="operator:type" v="private" />
		<tag k="start_date" v="1991-10-01" />
	</node>
	<node id="-3857" lat="60.30607" lon="5.276011">
		<tag k="amenity" v="kindergarten" />
		<tag k="capacity" v="47" />
		<tag k="contact:email" v="eldshovden@barnehage.no" />
		<tag k="contact:phone" v="+47 55 98 97 00" />
		<tag k="contact:website" v="http://www.eldshovden.barnehage.no" />
		<tag k="max_age" v="5" />
		<tag k="min_age" v="1" />
		<tag k="name" v="Eldshovden barnehage Sa" />
		<tag k="no-barnehage:nsrid" v="1020056" />
		<tag k="operator" v="Eldshovden barnehage Sa" />
		<tag k="operator:type" v="private" />
		<tag k="start_date" v="1990-10-02" />
	</node>
	<node id="-3856" lat="60.3087" lon="5.27748">
		<tag k="amenity" v="kindergarten" />
		<tag k="capacity" v="62" />
		<tag k="contact:email" v="wenche.hjellestad@bergen.kommune.no" />
		<tag k="contact:phone" v="+47 55979700" />
		<tag k="max_age" v="5" />
		<tag k="min_age" v="1" />
		<tag k="name" v="Eldsbakkane barnehage" />
		<tag k="no-barnehage:nsrid" v="1016227" />
		<tag k="operator" v="Bergen kommune" />
		<tag k="operator:type" v="public" />
		<tag k="start_date" v="1994-12-01" />
	</node>
	<node id="-3855" lat="60.30643" lon="5.294774">
		<tag k="amenity" v="kindergarten" />
		<tag k="capacity" v="63" />
		<tag k="contact:email" v="einer.bh@online.no" />
		<tag k="contact:phone" v="+47 55 52 75 20" />
		<tag k="max_age" v="5" />
		<tag k="min_age" v="1" />
		<tag k="name" v="Einerhaugen barnehage Sa" />
		<tag k="no-barnehage:nsrid" v="1020057" />
		<tag k="operator" v="Einerhaugen barnehage Sa" />
		<tag k="operator:type" v="private" />
		<tag k="start_date" v="1989-01-02" />
	</node>
	<node id="-3854" lat="60.44454" lon="5.283698">
		<tag k="amenity" v="kindergarten" />
		<tag k="capacity" v="40" />
		<tag k="contact:email" v="enb-bhg@outlook.com" />
		<tag k="contact:phone" v="+47 55257562" />
		<tag k="max_age" v="5" />
		<tag k="min_age" v="1" />
		<tag k="name" v="Eidsvågnesets barnehage" />
		<tag k="no-barnehage:nsrid" v="1019509" />
		<tag k="operator" v="Eidsvågneset barnehage" />
		<tag k="operator:type" v="private" />
		<tag k="start_date" v="1976-12-24" />
	</node>
	<node id="-3853" lat="60.3823" lon="5.29871">
		<tag k="amenity" v="kindergarten" />
		<tag k="capacity" v="24" />
		<tag k="contact:email" v="internasjonale.barnehage@gmail.com" />
		<tag k="contact:phone" v="+47 55342110" />
		<tag k="max_age" v="5" />
		<tag k="min_age" v="1" />
		<tag k="name" v="Den Internasjonale barnehage i Bergen Avd Laksevåg" />
		<tag k="no-barnehage:nsrid" v="1025329" />
		<tag k="operator" v="Den Internasjonale Kvinnegruppen i Bergen" />
		<tag k="operator:type" v="private" />
		<tag k="start_date" v="1990-06-01" />
	</node>
	<node id="-3852" lat="60.3655" lon="5.37567">
		<tag k="amenity" v="kindergarten" />
		<tag k="capacity" v="43" />
		<tag k="contact:email" v="intbarn@broadpark.no" />
		<tag k="max_age" v="5" />
		<tag k="min_age" v="1" />
		<tag k="name" v="Den Internasjonale barnehage i Bergen Avd Bergen" />
		<tag k="no-barnehage:nsrid" v="1016870" />
		<tag k="operator" v="Den Internasjonale Kvinnegruppen i Bergen" />
		<tag k="operator:type" v="private" />
		<tag k="start_date" v="1989-01-02" />
	</node>
	<node id="-3851" lat="60.37968" lon="5.324621">
		<tag k="amenity" v="kindergarten" />
		<tag k="name" v="Damsgård Fus barnehage AS" />
		<tag k="no-barnehage:nsrid" v="2000110" />
		<tag k="operator" v="Damsgård Fus barnehage AS" />
		<tag k="operator:type" v="private" />
		<tag k="start_date" v="2016-12-22" />
	</node>
	<node id="-3850" lat="60.37741" lon="5.303392">
		<tag k="amenity" v="kindergarten" />
		<tag k="capacity" v="80" />
		<tag k="contact:email" v="christine.andreassen@outlook.com" />
		<tag k="contact:phone" v="+47 95 22 37 48" />
		<tag k="max_age" v="5" />
		<tag k="min_age" v="1" />
		<tag k="name" v="Damsgård barnehage" />
		<tag k="no-barnehage:nsrid" v="1021504" />
		<tag k="operator" v="Damsgård barnehage AS" />
		<tag k="operator:type" v="private" />
		<tag k="start_date" v="1989-01-02" />
	</node>
	<node id="-3849" lat="60.33735" lon="5.215237">
		<tag k="amenity" v="kindergarten" />
		<tag k="capacity" v="27" />
		<tag k="contact:email" v="barnehagekontoret@gmail.com" />
		<tag k="contact:phone" v="+47 55 51 12 10" />
		<tag k="max_age" v="5" />
		<tag k="min_age" v="1" />
		<tag k="name" v="Cultiva barnehage AS" />
		<tag k="no-barnehage:nsrid" v="1021623" />
		<tag k="operator" v="Cultiva barnehage AS" />
		<tag k="operator:type" v="private" />
		<tag k="start_date" v="2007-03-20" />
	</node>
	<node id="-3848" lat="60.2938" lon="5.27807">
		<tag k="amenity" v="kindergarten" />
		<tag k="capacity" v="49" />
		<tag k="contact:email" v="capella.bhg@norlandiabarnehagene.no" />
		<tag k="max_age" v="5" />
		<tag k="min_age" v="1" />
		<tag k="name" v="Capella barnehage" />
		<tag k="no-barnehage:nsrid" v="1022468" />
		<tag k="operator" v="Norlandia Barnehagene AS" />
		<tag k="operator:type" v="private" />
		<tag k="start_date" v="2012-11-09" />
	</node>
	<node id="-3847" lat="60.3361" lon="5.29941">
		<tag k="amenity" v="kindergarten" />
		<tag k="capacity" v="61" />
		<tag k="contact:email" v="bonestoppen.barnehage@kanvas.no" />
		<tag k="contact:phone" v="+47 22 40 58 40" />
		<tag k="max_age" v="5" />
		<tag k="min_age" v="1" />
		<tag k="name" v="Bønestoppen Kanvas-Barnehage" />
		<tag k="no-barnehage:nsrid" v="1015487" />
		<tag k="operator" v="Stiftelsen Kanvas" />
		<tag k="operator:type" v="private" />
		<tag k="start_date" v="1991-04-01" />
	</node>
	<node id="-3846" lat="60.32698" lon="5.294852">
		<tag k="amenity" v="kindergarten" />
		<tag k="capacity" v="22" />
		<tag k="contact:email" v="torilledris@hotmail.no" />
		<tag k="max_age" v="5" />
		<tag k="min_age" v="1" />
		<tag k="name" v="Bønes Menighets barnehage" />
		<tag k="no-barnehage:nsrid" v="1019791" />
		<tag k="operator" v="Bønes Menighets barnehage" />
		<tag k="operator:type" v="private" />
		<tag k="start_date" v="1989-01-02" />
	</node>
	<node id="-3845" lat="60.3289" lon="5.30291">
		<tag k="amenity" v="kindergarten" />
		<tag k="capacity" v="44" />
		<tag k="contact:email" v="benedikte.henriksen@bergen.kommune.no" />
		<tag k="max_age" v="5" />
		<tag k="min_age" v="1" />
		<tag k="name" v="Bønes barnehage" />
		<tag k="no-barnehage:nsrid" v="1016700" />
		<tag k="operator" v="Bergen kommune" />
		<tag k="operator:type" v="public" />
		<tag k="start_date" v="1989-01-01" />
	</node>
	<node id="-3844" lat="60.3421" lon="5.27044">
		<tag k="amenity" v="kindergarten" />
		<tag k="capacity" v="58" />
		<tag k="contact:email" v="siri.olsen@bergen.kommune.no" />
		<tag k="contact:phone" v="+47 55 167760" />
		<tag k="max_age" v="5" />
		<tag k="min_age" v="1" />
		<tag k="name" v="Brinken barnehage" />
		<tag k="no-barnehage:nsrid" v="1016708" />
		<tag k="operator" v="Bergen kommune" />
		<tag k="operator:type" v="public" />
		<tag k="start_date" v="1991-07-01" />
	</node>
	<node id="-3843" lat="60.3436" lon="5.35977">
		<tag k="amenity" v="kindergarten" />
		<tag k="capacity" v="89" />
		<tag k="contact:email" v="sissel.mongstad@sib.no" />
		<tag k="contact:phone" v="+47 55 27 71 40" />
		<tag k="max_age" v="5" />
		<tag k="min_age" v="1" />
		<tag k="name" v="Bortigard barnehage" />
		<tag k="no-barnehage:nsrid" v="1013205" />
		<tag k="operator" v="Studentsamskipnaden på Vestlandet" />
		<tag k="operator:type" v="private" />
		<tag k="start_date" v="2005-02-01" />
	</node>
	<node id="-3842" lat="60.4304" lon="5.47224">
		<tag k="amenity" v="kindergarten" />
		<tag k="capacity" v="50" />
		<tag k="contact:email" v="bogane.barnehage@bergen.kommune.no" />
		<tag k="contact:phone" v="+47 53034080" />
		<tag k="max_age" v="5" />
		<tag k="min_age" v="1" />
		<tag k="name" v="Bogane barnehage" />
		<tag k="no-barnehage:nsrid" v="1016088" />
		<tag k="operator" v="Bergen kommune" />
		<tag k="operator:type" v="public" />
		<tag k="start_date" v="1994-11-01" />
	</node>
	<node id="-3841" lat="60.28601" lon="5.242863">
		<tag k="amenity" v="kindergarten" />
		<tag k="capacity" v="54" />
		<tag k="contact:email" v="blomsterdalen@barnehage.no" />
		<tag k="max_age" v="5" />
		<tag k="min_age" v="1" />
		<tag k="name" v="Blomsterdalen barnehage AS" />
		<tag k="no-barnehage:nsrid" v="1022237" />
		<tag k="operator" v="Blomsterdalen barnehage AS" />
		<tag k="operator:type" v="private" />
		<tag k="start_date" v="1978-09-07" />
	</node>
	<node id="-3840" lat="60.4228" lon="5.30894">
		<tag k="amenity" v="kindergarten" />
		<tag k="capacity" v="47" />
		<tag k="contact:email" v="mette.presttun@sib.no" />
		<tag k="contact:phone" v="+47 55 25 65 41" />
		<tag k="max_age" v="5" />
		<tag k="min_age" v="1" />
		<tag k="name" v="Blokksberg barnehage" />
		<tag k="no-barnehage:nsrid" v="1015787" />
		<tag k="operator" v="Studentsamskipnaden på Vestlandet" />
		<tag k="operator:type" v="private" />
		<tag k="start_date" v="1998-01-01" />
	</node>
	<node id="-3839" lat="60.4673" lon="5.31414">
		<tag k="amenity" v="kindergarten" />
		<tag k="capacity" v="59" />
		<tag k="contact:email" v="toril.olsen@bergen.kommune.no" />
		<tag k="contact:phone" v="+47 55979700" />
		<tag k="max_age" v="5" />
		<tag k="min_age" v="1" />
		<tag k="name" v="Blokkhaugen barnehage" />
		<tag k="no-barnehage:nsrid" v="1016229" />
		<tag k="operator" v="Bergen kommune" />
		<tag k="operator:type" v="public" />
		<tag k="start_date" v="1994-08-01" />
	</node>
	<node id="-3838" lat="60.3349" lon="5.24943">
		<tag k="amenity" v="kindergarten" />
		<tag k="capacity" v="61" />
		<tag k="contact:email" v="Svanhild.Hovland@bergen.kommune.no" />
		<tag k="contact:phone" v="+47 55122780" />
		<tag k="max_age" v="5" />
		<tag k="min_age" v="1" />
		<tag k="name" v="Bjørgedalen barnehage" />
		<tag k="no-barnehage:nsrid" v="1016721" />
		<tag k="operator" v="Bergen kommune" />
		<tag k="operator:type" v="public" />
		<tag k="start_date" v="1993-01-01" />
	</node>
	<node id="-3837" lat="60.4246" lon="5.29847">
		<tag k="amenity" v="kindergarten" />
		<tag k="capacity" v="22" />
		<tag k="contact:email" v="post@biskopshavnbarnehage.no" />
		<tag k="contact:phone" v="+47 55 25 78 89" />
		<tag k="max_age" v="5" />
		<tag k="min_age" v="1" />
		<tag k="name" v="Biskopshavn Kirkes barnehage Sa" />
		<tag k="no-barnehage:nsrid" v="1016233" />
		<tag k="operator" v="Biskopshavn Kirkes barnehage Sa" />
		<tag k="operator:type" v="private" />
		<tag k="start_date" v="1989-01-02" />
	</node>
	<node id="-3836" lat="60.36299" lon="5.363033">
		<tag k="amenity" v="kindergarten" />
		<tag k="capacity" v="14" />
		<tag k="contact:phone" v="+47 55291420" />
		<tag k="max_age" v="5" />
		<tag k="min_age" v="1" />
		<tag k="name" v="Birken barnehage AS" />
		<tag k="no-barnehage:nsrid" v="1019907" />
		<tag k="operator" v="Birken barnehage AS" />
		<tag k="operator:type" v="private" />
		<tag k="start_date" v="1990-08-01" />
	</node>
	<node id="-3835" lat="60.3621" lon="5.29153">
		<tag k="amenity" v="kindergarten" />
		<tag k="capacity" v="50" />
		<tag k="contact:email" v="anne.bjorkbom.knutsen@betanien.no" />
		<tag k="max_age" v="5" />
		<tag k="min_age" v="1" />
		<tag k="name" v="Betanien barnehage" />
		<tag k="no-barnehage:nsrid" v="1016891" />
		<tag k="operator" v="Stiftelsen Betanien Bergen" />
		<tag k="operator:type" v="private" />
		<tag k="start_date" v="1993-08-01" />
	</node>
	<node id="-3834" lat="60.39295" lon="5.332161">
		<tag k="amenity" v="kindergarten" />
		<tag k="capacity" v="76" />
		<tag k="contact:email" v="bergensbarneasyl@barnehage.no" />
		<tag k="contact:phone" v="+47 55 54 83 50" />
		<tag k="max_age" v="5" />
		<tag k="min_age" v="1" />
		<tag k="name" v="Bergens Barneasyl" />
		<tag k="no-barnehage:nsrid" v="1020202" />
		<tag k="operator" v="Bergen Barneasyl" />
		<tag k="operator:type" v="private" />
		<tag k="start_date" v="1976-01-01" />
	</node>
	<node id="-3833" lat="60.33113" lon="5.266108">
		<tag k="amenity" v="kindergarten" />
		<tag k="capacity" v="18" />
		<tag k="contact:email" v="bergen@miljobhg.no" />
		<tag k="contact:phone" v="+47 55 12 31 62" />
		<tag k="max_age" v="5" />
		<tag k="min_age" v="1" />
		<tag k="name" v="Bergen Miljøbarnehage AS" />
		<tag k="no-barnehage:nsrid" v="1021346" />
		<tag k="operator" v="Bergen Miljøbarnehage AS" />
		<tag k="operator:type" v="private" />
		<tag k="start_date" v="1976-12-24" />
	</node>
	<node id="-3832" lat="60.39707" lon="5.311038">
		<tag k="amenity" v="kindergarten" />
		<tag k="capacity" v="22" />
		<tag k="contact:email" v="jesoren@msn.com" />
		<tag k="contact:phone" v="+47 55234629" />
		<tag k="max_age" v="5" />
		<tag k="min_age" v="1" />
		<tag k="name" v="Bergen barnehage" />
		<tag k="no-barnehage:nsrid" v="1020164" />
		<tag k="operator" v="Bergen barnehage AS" />
		<tag k="operator:type" v="private" />
		<tag k="start_date" v="1993-07-01" />
	</node>
	<node id="-3831" lat="60.28277" lon="5.250642">
		<tag k="amenity" v="kindergarten" />
		<tag k="capacity" v="36" />
		<tag k="contact:email" v="bedehusbarnehagen@karmel.no" />
		<tag k="contact:phone" v="+47 55 22 90 06" />
		<tag k="contact:website" v="http://www.karmel.no" />
		<tag k="max_age" v="5" />
		<tag k="min_age" v="1" />
		<tag k="name" v="Bedehusbarnehagen" />
		<tag k="no-barnehage:nsrid" v="1021610" />
		<tag k="operator" v="Bedehuset Karmel" />
		<tag k="operator:type" v="private" />
		<tag k="start_date" v="1992-08-01" />
	</node>
	<node id="-3830" lat="60.3055" lon="5.28194">
		<tag k="amenity" v="kindergarten" />
		<tag k="capacity" v="57" />
		<tag k="contact:email" v="magnus.tufteland@bergen.kommune.no" />
		<tag k="contact:phone" v="+47 55 56 17 75" />
		<tag k="max_age" v="5" />
		<tag k="min_age" v="1" />
		<tag k="name" v="Aurdalslia barnehage" />
		<tag k="no-barnehage:nsrid" v="1016710" />
		<tag k="operator" v="Bergen kommune" />
		<tag k="operator:type" v="public" />
		<tag k="start_date" v="1991-07-01" />
	</node>
	<node id="-3829" lat="60.4084" lon="5.4788">
		<tag k="amenity" v="kindergarten" />
		<tag k="capacity" v="60" />
		<tag k="contact:email" v="marta.tunes@bergen.kommune.no" />
		<tag k="contact:phone" v="+47 55 53 49 30" />
		<tag k="max_age" v="5" />
		<tag k="min_age" v="1" />
		<tag k="name" v="Arnatveit barnehage" />
		<tag k="no-barnehage:nsrid" v="1016696" />
		<tag k="operator" v="Bergen kommune" />
		<tag k="operator:type" v="public" />
		<tag k="start_date" v="1989-01-01" />
	</node>
	<node id="-3828" lat="60.3866" lon="5.46735">
		<tag k="amenity" v="kindergarten" />
		<tag k="capacity" v="36" />
		<tag k="contact:email" v="beate.hansen@bergen.kommune.no" />
		<tag k="contact:phone" v="+47 53033870" />
		<tag k="max_age" v="5" />
		<tag k="min_age" v="1" />
		<tag k="name" v="Arna Familiebarnehage" />
		<tag k="no-barnehage:nsrid" v="1016714" />
		<tag k="operator" v="Bergen kommune" />
		<tag k="operator:type" v="public" />
		<tag k="start_date" v="1989-01-01" />
	</node>
	<node id="-3827" lat="60.2934" lon="5.34054">
		<tag k="amenity" v="kindergarten" />
		<tag k="capacity" v="76" />
		<tag k="contact:email" v="apeltun.barnehage@bergen.kommune.no" />
		<tag k="contact:phone" v="+47 55 98 48 40" />
		<tag k="max_age" v="5" />
		<tag k="min_age" v="1" />
		<tag k="name" v="Apeltun barnehage" />
		<tag k="no-barnehage:nsrid" v="1013009" />
		<tag k="operator" v="Bergen kommune" />
		<tag k="operator:type" v="public" />
		<tag k="start_date" v="2004-05-01" />
	</node>
	<node id="-3826" lat="60.29737" lon="5.277037">
		<tag k="amenity" v="kindergarten" />
		<tag k="capacity" v="57" />
		<tag k="contact:email" v="Jane.Ellertsen@akersolutions.com" />
		<tag k="contact:phone" v="+47 55 22 30 00" />
		<tag k="max_age" v="5" />
		<tag k="min_age" v="1" />
		<tag k="name" v="Akrobaten barnehage AS" />
		<tag k="no-barnehage:nsrid" v="1021286" />
		<tag k="operator" v="Akrobaten barnehage AS" />
		<tag k="operator:type" v="private" />
		<tag k="start_date" v="2005-07-14" />
	</node>
	<node id="-3825" lat="60.3194" lon="5.27828">
		<tag k="amenity" v="kindergarten" />
		<tag k="capacity" v="77" />
		<tag k="contact:email" v="torill.vatne.nilsen@akasia.no" />
		<tag k="contact:phone" v="+47 55120740" />
		<tag k="max_age" v="5" />
		<tag k="min_age" v="1" />
		<tag k="name" v="Akasia Søreide Menighetsbarnehage" />
		<tag k="no-barnehage:nsrid" v="1015520" />
		<tag k="operator" v="Akasia barnehage AS" />
		<tag k="operator:type" v="private" />
		<tag k="start_date" v="1972-12-26" />
	</node>
	<node id="-3824" lat="60.38799" lon="5.332164">
		<tag k="amenity" v="kindergarten" />
		<tag k="capacity" v="156" />
		<tag k="contact:phone" v="+47 55 92 64 00" />
		<tag k="contact:website" v="http://sedalen.barnehageside.no" />
		<tag k="max_age" v="5" />
		<tag k="min_age" v="1" />
		<tag k="name" v="Akasia Sædalen barnehage" />
		<tag k="no-barnehage:nsrid" v="1020396" />
		<tag k="operator" v="Akasia barnehage AS" />
		<tag k="operator:type" v="private" />
		<tag k="start_date" v="2001-12-12" />
	</node>
	<node id="-3823" lat="60.30197" lon="5.271829">
		<tag k="amenity" v="kindergarten" />
		<tag k="capacity" v="65" />
		<tag k="contact:phone" v="+47 55 98 70 30" />
		<tag k="contact:website" v="http://www.skranesvingenbarnehage.no" />
		<tag k="max_age" v="5" />
		<tag k="min_age" v="1" />
		<tag k="name" v="Akasia Skranesvingen barnehage" />
		<tag k="no-barnehage:nsrid" v="1021300" />
		<tag k="operator" v="Akasia barnehage AS" />
		<tag k="operator:type" v="private" />
		<tag k="start_date" v="1992-04-29" />
	</node>
	<node id="-3822" lat="60.3062" lon="5.33242">
		<tag k="amenity" v="kindergarten" />
		<tag k="capacity" v="87" />
		<tag k="contact:email" v="skjoldmenighetsbarnehage@akasia.no" />
		<tag k="contact:phone" v="+47 55 59 78 10" />
		<tag k="contact:website" v="http://skjoldmenighet.akasiabarnehage.no/" />
		<tag k="max_age" v="5" />
		<tag k="min_age" v="1" />
		<tag k="name" v="Akasia Skjold Menighetsbarnehage" />
		<tag k="no-barnehage:nsrid" v="1017928" />
		<tag k="operator" v="Akasia barnehage AS" />
		<tag k="operator:type" v="private" />
		<tag k="start_date" v="2007-11-12" />
	</node>
	<node id="-3821" lat="60.4054" lon="5.32658">
		<tag k="amenity" v="kindergarten" />
		<tag k="capacity" v="30" />
		<tag k="contact:email" v="aina.olsnes.bjorvatn@akasia.no" />
		<tag k="contact:phone" v="+47 55 32 46 47" />
		<tag k="max_age" v="5" />
		<tag k="min_age" v="1" />
		<tag k="name" v="Akasia Sandviken Menighetsbarnehage" />
		<tag k="no-barnehage:nsrid" v="1015525" />
		<tag k="operator" v="Akasia barnehage AS" />
		<tag k="operator:type" v="private" />
		<tag k="start_date" v="1976-12-24" />
	</node>
	<node id="-3820" lat="60.29152" lon="5.32134">
		<tag k="amenity" v="kindergarten" />
		<tag k="capacity" v="99" />
		<tag k="contact:phone" v="+47 55 11 09 40" />
		<tag k="contact:website" v="http://www.raatunbarnehage.no" />
		<tag k="max_age" v="5" />
		<tag k="min_age" v="1" />
		<tag k="name" v="Akasia Råtun barnehage" />
		<tag k="no-barnehage:nsrid" v="1021596" />
		<tag k="operator" v="Akasia barnehage AS" />
		<tag k="operator:type" v="private" />
		<tag k="start_date" v="2007-02-21" />
	</node>
	<node id="-3819" lat="60.31635" lon="5.339149">
		<tag k="amenity" v="kindergarten" />
		<tag k="capacity" v="78" />
		<tag k="contact:phone" v="+47 55 59 39 00" />
		<tag k="contact:website" v="http://www.akasia.no" />
		<tag k="max_age" v="5" />
		<tag k="min_age" v="1" />
		<tag k="name" v="Akasia Ramstad barnehage" />
		<tag k="no-barnehage:nsrid" v="1022441" />
		<tag k="operator" v="Akasia barnehage AS" />
		<tag k="operator:type" v="private" />
		<tag k="start_date" v="2014-06-02" />
	</node>
	<node id="-3818" lat="60.38799" lon="5.332164">
		<tag k="amenity" v="kindergarten" />
		<tag k="capacity" v="109" />
		<tag k="contact:email" v="siri.andal@akasia.no" />
		<tag k="contact:phone" v="+47 55 91 31 30" />
		<tag k="contact:website" v="http://paradis.barnehageside.no" />
		<tag k="max_age" v="5" />
		<tag k="min_age" v="1" />
		<tag k="name" v="Akasia Paradis barnehage" />
		<tag k="no-barnehage:nsrid" v="1020388" />
		<tag k="operator" v="Akasia barnehage AS" />
		<tag k="operator:type" v="private" />
		<tag k="start_date" v="1989-08-01" />
	</node>
	<node id="-3817" lat="60.3964" lon="5.31131">
		<tag k="amenity" v="kindergarten" />
		<tag k="capacity" v="68" />
		<tag k="contact:email" v="nykirken.barnehage@akasia.no" />
		<tag k="contact:phone" v="+47 55 59 78 50" />
		<tag k="contact:website" v="http://www.akasia.no" />
		<tag k="max_age" v="5" />
		<tag k="min_age" v="1" />
		<tag k="name" v="Akasia Nykirken barnehage" />
		<tag k="no-barnehage:nsrid" v="1015524" />
		<tag k="operator" v="Akasia barnehage AS" />
		<tag k="operator:type" v="private" />
		<tag k="start_date" v="1976-12-24" />
	</node>
	<node id="-3816" lat="60.3877" lon="5.27345">
		<tag k="amenity" v="kindergarten" />
		<tag k="capacity" v="66" />
		<tag k="contact:email" v="benedikte.torsvik@akasia.no" />
		<tag k="contact:phone" v="+47 55342088" />
		<tag k="max_age" v="5" />
		<tag k="min_age" v="1" />
		<tag k="name" v="Akasia Nygård Menighetsbarnehage" />
		<tag k="no-barnehage:nsrid" v="1015561" />
		<tag k="operator" v="Akasia barnehage AS" />
		<tag k="operator:type" v="private" />
		<tag k="start_date" v="1982-01-01" />
	</node>
	<node id="-3815" lat="60.3744" lon="5.46358">
		<tag k="amenity" v="kindergarten" />
		<tag k="capacity" v="80" />
		<tag k="contact:email" v="syoi@akasia.no" />
		<tag k="max_age" v="5" />
		<tag k="min_age" v="1" />
		<tag k="name" v="Akasia Neshaugane barnehage" />
		<tag k="no-barnehage:nsrid" v="1015094" />
		<tag k="operator" v="Akasia barnehage AS" />
		<tag k="operator:type" v="private" />
		<tag k="start_date" v="2012-09-03" />
	</node>
	<node id="-3814" lat="60.37044" lon="5.302481">
		<tag k="amenity" v="kindergarten" />
		<tag k="capacity" v="156" />
		<tag k="contact:phone" v="+47 56 11 34 20" />
		<tag k="contact:website" v="http://www.litlafjellbarnehage.no" />
		<tag k="max_age" v="5" />
		<tag k="min_age" v="1" />
		<tag k="name" v="Akasia Litlafjell barnehage" />
		<tag k="no-barnehage:nsrid" v="1021899" />
		<tag k="operator" v="Akasia barnehage AS" />
		<tag k="operator:type" v="private" />
		<tag k="start_date" v="2009-01-01" />
	</node>
	<node id="-3813" lat="60.3796" lon="5.35496">
		<tag k="amenity" v="kindergarten" />
		<tag k="capacity" v="31" />
		<tag k="contact:email" v="Landasmenighetsbhg@akasia.no" />
		<tag k="contact:phone" v="+47 55 28 65 08" />
		<tag k="contact:website" v="http://akasiabarnehage.no" />
		<tag k="max_age" v="5" />
		<tag k="min_age" v="1" />
		<tag k="name" v="Akasia Landås Menighetsbarnehage" />
		<tag k="no-barnehage:nsrid" v="1025349" />
		<tag k="operator" v="Akasia barnehage AS" />
		<tag k="operator:type" v="private" />
		<tag k="start_date" v="1977-09-15" />
	</node>
	<node id="-3812" lat="60.3852" lon="5.30063">
		<tag k="amenity" v="kindergarten" />
		<tag k="capacity" v="35" />
		<tag k="contact:email" v="helen.stanghelle@akasia.no" />
		<tag k="contact:phone" v="+47 55 34 52 91" />
		<tag k="max_age" v="5" />
		<tag k="min_age" v="1" />
		<tag k="name" v="Akasia Laksevåg Kirkes barnehage" />
		<tag k="no-barnehage:nsrid" v="1015523" />
		<tag k="operator" v="Akasia barnehage AS" />
		<tag k="operator:type" v="private" />
		<tag k="start_date" v="1976-12-24" />
	</node>
	<node id="-3811" lat="60.26358" lon="5.342865">
		<tag k="amenity" v="kindergarten" />
		<tag k="capacity" v="119" />
		<tag k="contact:email" v="fanabarnehage@akasia.no" />
		<tag k="contact:phone" v="+47 55 11 70 80" />
		<tag k="contact:website" v="http://www.fanabarnehage.no" />
		<tag k="max_age" v="5" />
		<tag k="min_age" v="1" />
		<tag k="name" v="Akasia Fana barnehage" />
		<tag k="no-barnehage:nsrid" v="1021394" />
		<tag k="operator" v="Akasia barnehage AS" />
		<tag k="operator:type" v="private" />
		<tag k="start_date" v="1989-01-02" />
	</node>
	<node id="-3810" lat="60.3894" lon="5.35232">
		<tag k="amenity" v="kindergarten" />
		<tag k="capacity" v="36" />
		<tag k="contact:email" v="ingrid.rosseland@akasia.no" />
		<tag k="contact:phone" v="+47 55 31 13 25" />
		<tag k="max_age" v="5" />
		<tag k="min_age" v="1" />
		<tag k="name" v="Akasia Domkirken barnehage" />
		<tag k="no-barnehage:nsrid" v="1015522" />
		<tag k="operator" v="Akasia barnehage AS" />
		<tag k="operator:type" v="private" />
		<tag k="start_date" v="1976-12-24" />
	</node>
	<node id="-3809" lat="60.34769" lon="5.359738">
		<tag k="amenity" v="kindergarten" />
		<tag k="capacity" v="69" />
		<tag k="contact:email" v="shabnam.lahooti.carlsen@akasia.no" />
		<tag k="max_age" v="5" />
		<tag k="min_age" v="1" />
		<tag k="name" v="Akasia Bjeknesparken barnehage" />
		<tag k="no-barnehage:nsrid" v="1025961" />
		<tag k="operator" v="Akasia barnehage AS" />
		<tag k="operator:type" v="private" />
		<tag k="start_date" v="2015-06-02" />
	</node>
	<node id="-3808" lat="60.4177" lon="5.47132">
		<tag k="amenity" v="kindergarten" />
		<tag k="capacity" v="33" />
		<tag k="contact:email" v="Arnakyrkjelydbhg@akasia.no" />
		<tag k="contact:phone" v="+47 55597816" />
		<tag k="max_age" v="5" />
		<tag k="min_age" v="1" />
		<tag k="name" v="Akasia Arna Kyrkjelyd Sin barnehage" />
		<tag k="no-barnehage:nsrid" v="1016677" />
		<tag k="operator" v="Akasia barnehage AS" />
		<tag k="operator:type" v="private" />
		<tag k="start_date" v="1976-01-01" />
	</node>
	<node id="-3807" lat="60.4525" lon="5.31555">
		<tag k="amenity" v="kindergarten" />
		<tag k="capacity" v="136" />
		<tag k="contact:email" v="anette.yung.alvaer@a2g.no" />
		<tag k="max_age" v="5" />
		<tag k="min_age" v="1" />
		<tag k="name" v="A2g barnehage" />
		<tag k="no-barnehage:nsrid" v="1014014" />
		<tag k="operator" v="A2g Gruppen AS" />
		<tag k="operator:type" v="private" />
		<tag k="start_date" v="2009-01-01" />
	</node>
</osm>
