<?xml version="1.0" encoding="UTF-8"?>
<osm generator="osmapis" version="0.6">
	<node id="-5063" lat="63.72554" lon="8.834004">
		<tag k="amenity" v="kindergarten" />
		<tag k="capacity" v="61" />
		<tag k="contact:email" v="e-helme@online.no" />
		<tag k="contact:phone" v="+47 72 44 92 96" />
		<tag k="max_age" v="5" />
		<tag k="min_age" v="1" />
		<tag k="name" v="Sistranda Kystbarnehage AS" />
		<tag k="no-barnehage:nsrid" v="1020818" />
		<tag k="operator" v="Sistranda Kystbarnehage AS" />
		<tag k="operator:type" v="private" />
		<tag k="start_date" v="2002-07-01" />
	</node>
	<node id="-5062" lat="63.69029" lon="8.399248">
		<tag k="amenity" v="kindergarten" />
		<tag k="capacity" v="36" />
		<tag k="contact:email" v="silje.christensen@froya.kommune.no" />
		<tag k="max_age" v="5" />
		<tag k="min_age" v="1" />
		<tag k="name" v="Nordskag Oppvekstsenter Avd barnehage" />
		<tag k="no-barnehage:nsrid" v="1025670" />
		<tag k="operator" v="Frøya kommune" />
		<tag k="operator:type" v="public" />
		<tag k="start_date" v="1992-08-01" />
	</node>
	<node id="-5061" lat="63.7565" lon="8.82187">
		<tag k="amenity" v="kindergarten" />
		<tag k="capacity" v="49" />
		<tag k="contact:email" v="rita.tangen@froya.kommune.no" />
		<tag k="contact:phone" v="+47 72449700" />
		<tag k="max_age" v="5" />
		<tag k="min_age" v="1" />
		<tag k="name" v="Nesset barnehage" />
		<tag k="no-barnehage:nsrid" v="1018231" />
		<tag k="operator" v="Frøya kommune" />
		<tag k="operator:type" v="public" />
		<tag k="start_date" v="1989-01-01" />
	</node>
	<node id="-5060" lat="63.6969" lon="8.80703">
		<tag k="amenity" v="kindergarten" />
		<tag k="capacity" v="55" />
		<tag k="contact:email" v="ann.karin.fredagsvik@froya.kommune.no" />
		<tag k="contact:phone" v="+47 72446100" />
		<tag k="max_age" v="5" />
		<tag k="min_age" v="1" />
		<tag k="name" v="Nabeita Oppvekstsenter Avd barnehage" />
		<tag k="no-barnehage:nsrid" v="1012525" />
		<tag k="operator" v="Frøya kommune" />
		<tag k="operator:type" v="public" />
		<tag k="start_date" v="1989-01-01" />
	</node>
	<node id="-5059" lat="63.86832" lon="8.66733">
		<tag k="amenity" v="kindergarten" />
		<tag k="capacity" v="5" />
		<tag k="contact:email" v="mausund.oppvekstsenter@froya.kommune.no" />
		<tag k="contact:phone" v="+47 72 44 86 58" />
		<tag k="contact:website" v="http://www.mausund.skole.no" />
		<tag k="max_age" v="5" />
		<tag k="min_age" v="1" />
		<tag k="name" v="Mausund Oppvekstsenter Avd barnehage" />
		<tag k="no-barnehage:nsrid" v="1025668" />
		<tag k="operator" v="Frøya kommune" />
		<tag k="operator:type" v="public" />
		<tag k="start_date" v="1989-01-02" />
	</node>
	<node id="-5058" lat="63.80069" lon="8.699689">
		<tag k="amenity" v="kindergarten" />
		<tag k="capacity" v="10" />
		<tag k="contact:email" v="randi.gaustad@froya.kommune.no" />
		<tag k="max_age" v="5" />
		<tag k="min_age" v="1" />
		<tag k="name" v="Dyrøy Oppvekstsenter Avd barnehage" />
		<tag k="no-barnehage:nsrid" v="1025669" />
		<tag k="operator" v="Frøya kommune" />
		<tag k="operator:type" v="public" />
		<tag k="start_date" v="1990-01-01" />
	</node>
</osm>
