<?xml version="1.0" encoding="UTF-8"?>
<osm generator="osmapis" version="0.6">
	<node id="-2816" lat="59.14344" lon="9.64292">
		<tag k="ADDRESS" v="Moldhaugvegen 3, 3919 PORSGRUNN" />
		<tag k="amenity" v="kindergarten" />
		<tag k="max_age" v="5" />
		<tag k="min_age" v="1" />
		<tag k="name" v="Kirketjernet barnehage" />
		<tag k="no-barnehage:nsrid" v="1018034" />
		<tag k="operator" v="Porsgrunn kommune" />
		<tag k="operator:type" v="public" />
	</node>
	<node id="-2815" lat="59.08618" lon="9.68191">
		<tag k="ADDRESS" v="Lundedalen 35, 3940 PORSGRUNN" />
		<tag k="amenity" v="kindergarten" />
		<tag k="capacity" v="1" />
		<tag k="max_age" v="5" />
		<tag k="min_age" v="3" />
		<tag k="name" v="Heistadskolene avd. MarihÃ¸na Spesialavdeling" />
		<tag k="no-barnehage:nsrid" v="1013300" />
		<tag k="operator" v="Porsgrunn kommune" />
		<tag k="operator:type" v="public" />
	</node>
	<node id="-2818" lat="59.1491" lon="9.65916">
		<tag k="ADDRESS" v="Storgata 215, 3912 PORSGRUNN" />
		<tag k="amenity" v="kindergarten" />
		<tag k="capacity" v="28" />
		<tag k="max_age" v="5" />
		<tag k="min_age" v="1" />
		<tag k="name" v="Radehuset barnehage" />
		<tag k="no-barnehage:nsrid" v="1016329" />
		<tag k="operator" v="Porsgrunn kommune" />
		<tag k="operator:type" v="public" />
	</node>
	<node id="-2817" lat="59.13351" lon="9.64221">
		<tag k="ADDRESS" v="Maristien 11, 3933 PORSGRUNN" />
		<tag k="amenity" v="kindergarten" />
		<tag k="name" v="Maristien barnehage" />
		<tag k="no-barnehage:nsrid" v="2000544" />
		<tag k="operator" v="Porsgrunn kommune" />
		<tag k="operator:type" v="public" />
	</node>
</osm>
