<?xml version="1.0" encoding="UTF-8"?>
<osm generator="osmapis" version="0.6">
	<node id="-2784" lat="59.1388" lon="9.67216">
		<tag k="amenity" v="kindergarten" />
		<tag k="capacity" v="18" />
		<tag k="max_age" v="5" />
		<tag k="min_age" v="1" />
		<tag k="name" v="Studentsamskipnaden i Sørøst-Norge Elverhøy Studentbarnehage" />
		<tag k="no-barnehage:nsrid" v="1015492" />
		<tag k="operator" v="Studentsamskipnaden i Sørøst-Norge" />
		<tag k="operator:type" v="private" />
		<tag k="start_date" v="1992-01-01" />
	</node>
	<node id="-2783" lat="59.1282" lon="9.65582">
		<tag k="amenity" v="kindergarten" />
		<tag k="capacity" v="39" />
		<tag k="contact:phone" v="35 56 73 15" />
		<tag k="max_age" v="5" />
		<tag k="min_age" v="1" />
		<tag k="name" v="Skrukkerød barnehage" />
		<tag k="no-barnehage:nsrid" v="1012704" />
		<tag k="operator" v="Porsgrunn kommune" />
		<tag k="operator:type" v="public" />
		<tag k="start_date" v="1989-01-02" />
	</node>
	<node id="-2782" lat="59.13852" lon="9.646303">
		<tag k="amenity" v="kindergarten" />
		<tag k="contact:phone" v="35 55 23 80" />
		<tag k="name" v="Porsgrunn Menighetspleie Frivillighetssentral og barnehage" />
		<tag k="no-barnehage:nsrid" v="1016051" />
		<tag k="operator" v="Porsgrunn Sokn" />
		<tag k="operator:type" v="private" />
		<tag k="start_date" v="1995-02-23" />
	</node>
	<node id="-2781" lat="59.1487" lon="9.66419">
		<tag k="amenity" v="kindergarten" />
		<tag k="capacity" v="48" />
		<tag k="max_age" v="5" />
		<tag k="min_age" v="1" />
		<tag k="name" v="Hovenga barnehage" />
		<tag k="no-barnehage:nsrid" v="1012500" />
		<tag k="operator" v="Porsgrunn kommune" />
		<tag k="operator:type" v="public" />
		<tag k="start_date" v="1989-01-01" />
	</node>
	<node id="-2780" lat="59.0868" lon="9.68296">
		<tag k="amenity" v="kindergarten" />
		<tag k="capacity" v="4" />
		<tag k="contact:phone" v="46 90 41 39" />
		<tag k="max_age" v="5" />
		<tag k="min_age" v="1" />
		<tag k="name" v="Heistadskolene Avd Marihøna Spesialavdeling" />
		<tag k="no-barnehage:nsrid" v="1013300" />
		<tag k="operator" v="Porsgrunn kommune" />
		<tag k="operator:type" v="public" />
		<tag k="start_date" v="2001-08-01" />
	</node>
	<node id="-2779" lat="59.1486" lon="9.66888">
		<tag k="amenity" v="kindergarten" />
		<tag k="capacity" v="100" />
		<tag k="max_age" v="5" />
		<tag k="min_age" v="1" />
		<tag k="name" v="Borgeenga barnehage" />
		<tag k="no-barnehage:nsrid" v="1013426" />
		<tag k="operator" v="Den Gode Barnehagen AS" />
		<tag k="operator:type" v="private" />
		<tag k="start_date" v="2007-08-01" />
	</node>
	<node id="-2786" lat="59.1403" lon="9.63639">
		<tag k="amenity" v="kindergarten" />
		<tag k="capacity" v="35" />
		<tag k="contact:phone" v="35 51 55 08" />
		<tag k="max_age" v="5" />
		<tag k="min_age" v="1" />
		<tag k="name" v="Vest-Tun barnehage" />
		<tag k="no-barnehage:nsrid" v="1015940" />
		<tag k="operator" v="Den Evangelisk Lutherske Frikirke Porsgrunn Menighet" />
		<tag k="operator:type" v="private" />
		<tag k="start_date" v="1989-01-01" />
	</node>
	<node id="-2785" lat="59.1356" lon="9.67312">
		<tag k="amenity" v="kindergarten" />
		<tag k="capacity" v="66" />
		<tag k="contact:phone" v="35 55 11 17" />
		<tag k="max_age" v="5" />
		<tag k="min_age" v="1" />
		<tag k="name" v="Vallermyrene barnehage" />
		<tag k="no-barnehage:nsrid" v="1014875" />
		<tag k="operator" v="Porsgrunn kommune" />
		<tag k="operator:type" v="public" />
		<tag k="start_date" v="1996-04-01" />
	</node>
</osm>
