<?xml version="1.0" encoding="UTF-8"?>
<osm generator="osmapis" version="0.6">
	<node id="-2420" lat="59.90251" lon="9.903712">
		<tag k="amenity" v="kindergarten" />
		<tag k="capacity" v="22" />
		<tag k="contact:phone" v="32 78 50 11" />
		<tag k="max_age" v="5" />
		<tag k="min_age" v="1" />
		<tag k="name" v="Strand barnehage" />
		<tag k="no-barnehage:nsrid" v="1020196" />
		<tag k="operator" v="Strand barnehage Sa" />
		<tag k="operator:type" v="private" />
		<tag k="start_date" v="1989-01-02" />
	</node>
	<node id="-2419" lat="60.01294" lon="9.887671">
		<tag k="amenity" v="kindergarten" />
		<tag k="capacity" v="15" />
		<tag k="contact:email" v="snarumbarnehage@postweb.no" />
		<tag k="contact:phone" v="32 78 28 10" />
		<tag k="contact:website" v="http://snarum.barnehage.no" />
		<tag k="max_age" v="5" />
		<tag k="min_age" v="1" />
		<tag k="name" v="Snarum barnehage Sa" />
		<tag k="no-barnehage:nsrid" v="1020346" />
		<tag k="operator" v="Snarum barnehage Sa" />
		<tag k="operator:type" v="private" />
		<tag k="start_date" v="1989-01-02" />
	</node>
	<node id="-2418" lat="59.9369" lon="9.97706">
		<tag k="amenity" v="kindergarten" />
		<tag k="capacity" v="52" />
		<tag k="max_age" v="5" />
		<tag k="min_age" v="1" />
		<tag k="name" v="Rolighetsmoen barnehage" />
		<tag k="no-barnehage:nsrid" v="1013797" />
		<tag k="operator" v="Modum kommune" />
		<tag k="operator:type" v="public" />
		<tag k="start_date" v="1989-01-02" />
	</node>
	<node id="-2417" lat="59.8969" lon="9.88943">
		<tag k="amenity" v="kindergarten" />
		<tag k="capacity" v="44" />
		<tag k="max_age" v="5" />
		<tag k="min_age" v="1" />
		<tag k="name" v="Nordbråten barnehage" />
		<tag k="no-barnehage:nsrid" v="1014700" />
		<tag k="operator" v="Modum kommune" />
		<tag k="operator:type" v="public" />
		<tag k="start_date" v="1992-01-01" />
	</node>
	<node id="-2416" lat="59.89917" lon="9.937772">
		<tag k="amenity" v="kindergarten" />
		<tag k="capacity" v="69" />
		<tag k="contact:website" v="http://melumenga.modum.kommune.no/forsiden.124128.no.html" />
		<tag k="max_age" v="5" />
		<tag k="min_age" v="1" />
		<tag k="name" v="Mælumenga barnehage" />
		<tag k="no-barnehage:nsrid" v="1013127" />
		<tag k="operator" v="Modum kommune" />
		<tag k="operator:type" v="public" />
		<tag k="start_date" v="2004-12-01" />
	</node>
	<node id="-2415" lat="59.96727" lon="9.985814">
		<tag k="amenity" v="kindergarten" />
		<tag k="capacity" v="18" />
		<tag k="contact:email" v="undervisningsetaten@modum.kommune.no" />
		<tag k="contact:phone" v="32 78 93 40" />
		<tag k="contact:website" v="http://www.modum.kommune.no" />
		<tag k="max_age" v="2" />
		<tag k="min_age" v="1" />
		<tag k="name" v="Løkkeveien barnehage" />
		<tag k="no-barnehage:nsrid" v="1017796" />
		<tag k="operator" v="Modum kommune" />
		<tag k="operator:type" v="public" />
		<tag k="start_date" v="2007-08-01" />
	</node>
	<node id="-2414" lat="59.9589" lon="9.98054">
		<tag k="amenity" v="kindergarten" />
		<tag k="capacity" v="51" />
		<tag k="max_age" v="5" />
		<tag k="min_age" v="1" />
		<tag k="name" v="Kroka barnehage" />
		<tag k="no-barnehage:nsrid" v="1015827" />
		<tag k="operator" v="Modum kommune" />
		<tag k="operator:type" v="public" />
		<tag k="start_date" v="2000-08-01" />
	</node>
	<node id="-2413" lat="59.94473" lon="9.97069">
		<tag k="amenity" v="kindergarten" />
		<tag k="capacity" v="83" />
		<tag k="contact:email" v="dl.kjemperud@bhg.no" />
		<tag k="max_age" v="5" />
		<tag k="min_age" v="1" />
		<tag k="name" v="Kjemperud Fus barnehage AS" />
		<tag k="no-barnehage:nsrid" v="1021516" />
		<tag k="operator" v="Kjemperud Fus barnehage AS" />
		<tag k="operator:type" v="private" />
		<tag k="start_date" v="2006-08-04" />
	</node>
	<node id="-2412" lat="59.96397" lon="9.948586">
		<tag k="amenity" v="kindergarten" />
		<tag k="capacity" v="32" />
		<tag k="max_age" v="5" />
		<tag k="min_age" v="1" />
		<tag k="name" v="Kilden barnehage" />
		<tag k="no-barnehage:nsrid" v="1016827" />
		<tag k="operator" v="Modum Bad - Gordon Johnsens Stiftelse" />
		<tag k="operator:type" v="private" />
		<tag k="start_date" v="1992-01-01" />
	</node>
	<node id="-2411" lat="59.9118" lon="9.94994">
		<tag k="amenity" v="kindergarten" />
		<tag k="capacity" v="44" />
		<tag k="max_age" v="5" />
		<tag k="min_age" v="1" />
		<tag k="name" v="Gustadmoen barnehage" />
		<tag k="no-barnehage:nsrid" v="1018015" />
		<tag k="operator" v="Modum kommune" />
		<tag k="operator:type" v="public" />
		<tag k="start_date" v="1989-01-01" />
	</node>
	<node id="-2410" lat="59.99768" lon="10.04791">
		<tag k="amenity" v="kindergarten" />
		<tag k="capacity" v="17" />
		<tag k="contact:phone" v="32 78 86 70" />
		<tag k="max_age" v="5" />
		<tag k="min_age" v="1" />
		<tag k="name" v="Fure barnehage" />
		<tag k="no-barnehage:nsrid" v="1019503" />
		<tag k="operator" v="Fure barnehage Sa" />
		<tag k="operator:type" v="private" />
		<tag k="start_date" v="1977-06-09" />
	</node>
	<node id="-2409" lat="60.02282" lon="10.0039">
		<tag k="amenity" v="kindergarten" />
		<tag k="capacity" v="16" />
		<tag k="contact:phone" v="32782393" />
		<tag k="max_age" v="5" />
		<tag k="min_age" v="1" />
		<tag k="name" v="Drolsum Naturbarnehage" />
		<tag k="no-barnehage:nsrid" v="1019617" />
		<tag k="operator" v="Drolsum Naturbarnehage" />
		<tag k="operator:type" v="private" />
		<tag k="start_date" v="1977-02-22" />
	</node>
	<node id="-2408" lat="59.89566" lon="9.923836">
		<tag k="amenity" v="kindergarten" />
		<tag k="capacity" v="52" />
		<tag k="contact:phone" v="32 78 72 40" />
		<tag k="max_age" v="5" />
		<tag k="min_age" v="1" />
		<tag k="name" v="Bårudåsen barnehage Sa" />
		<tag k="no-barnehage:nsrid" v="1021029" />
		<tag k="operator" v="Bårudåsen barnehage Sa" />
		<tag k="operator:type" v="private" />
		<tag k="start_date" v="2004-03-19" />
	</node>
	<node id="-2407" lat="59.98836" lon="9.890077">
		<tag k="amenity" v="kindergarten" />
		<tag k="capacity" v="14" />
		<tag k="contact:email" v="boenbarnehage@gmail.com" />
		<tag k="contact:phone" v="32 78 39 60" />
		<tag k="max_age" v="5" />
		<tag k="min_age" v="1" />
		<tag k="name" v="Bøen barnehage Sa" />
		<tag k="no-barnehage:nsrid" v="1019878" />
		<tag k="operator" v="Bøen barnehage Sa" />
		<tag k="operator:type" v="private" />
		<tag k="start_date" v="1989-01-01" />
	</node>
	<node id="-2406" lat="59.95799" lon="9.964681">
		<tag k="amenity" v="kindergarten" />
		<tag k="capacity" v="45" />
		<tag k="contact:email" v="brunes@modum.kommune.no" />
		<tag k="max_age" v="5" />
		<tag k="min_age" v="1" />
		<tag k="name" v="Brunes Naturbarnehage" />
		<tag k="no-barnehage:nsrid" v="1018327" />
		<tag k="operator" v="Modum kommune" />
		<tag k="operator:type" v="public" />
		<tag k="start_date" v="2008-01-01" />
	</node>
	<node id="-2405" lat="59.9667" lon="9.99252">
		<tag k="amenity" v="kindergarten" />
		<tag k="capacity" v="52" />
		<tag k="max_age" v="5" />
		<tag k="min_age" v="1" />
		<tag k="name" v="Barnas Hus" />
		<tag k="no-barnehage:nsrid" v="1018014" />
		<tag k="operator" v="Modum kommune" />
		<tag k="operator:type" v="public" />
		<tag k="start_date" v="1989-01-01" />
	</node>
</osm>
