<?xml version="1.0" encoding="UTF-8"?>
<osm generator="osmapis" version="0.6">
	<node id="-1845" lat="60.8343" lon="9.50348">
		<tag k="amenity" v="kindergarten" />
		<tag k="capacity" v="73" />
		<tag k="contact:phone" v="61 34 86 47" />
		<tag k="max_age" v="5" />
		<tag k="min_age" v="1" />
		<tag k="name" v="Reinli barnehage" />
		<tag k="no-barnehage:nsrid" v="1015958" />
		<tag k="operator" v="Sør-Aurdal kommune" />
		<tag k="operator:type" v="public" />
		<tag k="start_date" v="1990-01-01" />
	</node>
	<node id="-1844" lat="60.78265" lon="9.634668">
		<tag k="amenity" v="kindergarten" />
		<tag k="capacity" v="8" />
		<tag k="contact:email" v="leirskogen.barnehage@start.no" />
		<tag k="contact:phone" v="61 34 79 36" />
		<tag k="max_age" v="5" />
		<tag k="min_age" v="1" />
		<tag k="name" v="Leirskogen barnehage" />
		<tag k="no-barnehage:nsrid" v="1020370" />
		<tag k="operator" v="Leirskogen barnehage" />
		<tag k="operator:type" v="private" />
		<tag k="start_date" v="1995-02-22" />
	</node>
	<node id="-1843" lat="60.6236" lon="9.69655">
		<tag k="amenity" v="kindergarten" />
		<tag k="capacity" v="26" />
		<tag k="contact:phone" v="61348671" />
		<tag k="max_age" v="5" />
		<tag k="min_age" v="1" />
		<tag k="name" v="Hedalen Naturbarnehage" />
		<tag k="no-barnehage:nsrid" v="1015574" />
		<tag k="operator" v="Sør-Aurdal kommune" />
		<tag k="operator:type" v="public" />
		<tag k="start_date" v="1989-01-02" />
	</node>
	<node id="-1842" lat="60.6655" lon="9.7204">
		<tag k="amenity" v="kindergarten" />
		<tag k="capacity" v="19" />
		<tag k="contact:phone" v="61348686" />
		<tag k="max_age" v="5" />
		<tag k="min_age" v="1" />
		<tag k="name" v="Begnadalen barnehage" />
		<tag k="no-barnehage:nsrid" v="1017410" />
		<tag k="operator" v="Sør-Aurdal kommune" />
		<tag k="operator:type" v="public" />
		<tag k="start_date" v="1978-06-21" />
	</node>
</osm>
