<?xml version="1.0" encoding="UTF-8"?>
<osm generator="osmapis" version="0.6">
	<node id="-2560" lat="59.17921" lon="10.17575">
		<tag k="amenity" v="kindergarten" />
		<tag k="capacity" v="83" />
		<tag k="contact:email" v="vigdis@napperod.no" />
		<tag k="contact:phone" v="+47 33 48 10 40" />
		<tag k="max_age" v="5" />
		<tag k="min_age" v="1" />
		<tag k="name" v="Napperød Naturbarnehage AS" />
		<tag k="no-barnehage:nsrid" v="1021429" />
		<tag k="operator" v="Napperød Naturbarnehage AS" />
		<tag k="operator:type" v="private" />
		<tag k="start_date" v="2007-01-02" />
	</node>
	<node id="-2559" lat="59.3016" lon="10.1728">
		<tag k="amenity" v="kindergarten" />
		<tag k="capacity" v="56" />
		<tag k="contact:email" v="grethe.johnsen@andebu.kommune.no" />
		<tag k="contact:phone" v="+47 33 43 82 75" />
		<tag k="max_age" v="5" />
		<tag k="min_age" v="1" />
		<tag k="name" v="Møyland barnehage" />
		<tag k="no-barnehage:nsrid" v="1013209" />
		<tag k="operator" v="Sandefjord kommune" />
		<tag k="operator:type" v="public" />
		<tag k="start_date" v="2005-08-01" />
	</node>
	<node id="-2558" lat="59.08959" lon="10.21902">
		<tag k="amenity" v="kindergarten" />
		<tag k="capacity" v="56" />
		<tag k="contact:email" v="post@mokollen.no" />
		<tag k="contact:phone" v="+47 033462209" />
		<tag k="max_age" v="5" />
		<tag k="min_age" v="1" />
		<tag k="name" v="Mokollen barnehage AS" />
		<tag k="no-barnehage:nsrid" v="1020138" />
		<tag k="operator" v="Mokollen barnehage AS" />
		<tag k="operator:type" v="private" />
		<tag k="start_date" v="1989-01-02" />
	</node>
	<node id="-2557" lat="59.1415" lon="10.2072">
		<tag k="amenity" v="kindergarten" />
		<tag k="capacity" v="76" />
		<tag k="contact:email" v="modalen.barnehage@sandefjord.kommune.no" />
		<tag k="contact:phone" v="+47 33 41 92 20" />
		<tag k="max_age" v="5" />
		<tag k="min_age" v="1" />
		<tag k="name" v="Modalen barnehage" />
		<tag k="no-barnehage:nsrid" v="1018355" />
		<tag k="operator" v="Sandefjord kommune" />
		<tag k="operator:type" v="public" />
		<tag k="start_date" v="2008-04-01" />
	</node>
	<node id="-2556" lat="59.1642" lon="10.2166">
		<tag k="amenity" v="kindergarten" />
		<tag k="capacity" v="51" />
		<tag k="contact:email" v="post@lokkabarnehage.no" />
		<tag k="contact:phone" v="+47 33448440" />
		<tag k="contact:website" v="http://www.lokkabarnehage.no" />
		<tag k="max_age" v="5" />
		<tag k="min_age" v="1" />
		<tag k="name" v="Løkka og Knøttetreff barnehage Sandefjord" />
		<tag k="no-barnehage:nsrid" v="1018389" />
		<tag k="operator" v="Løkka barnehage Sandefjord AS" />
		<tag k="operator:type" v="private" />
		<tag k="start_date" v="2008-05-01" />
	</node>
	<node id="-2555" lat="59.13131" lon="10.21659">
		<tag k="amenity" v="kindergarten" />
		<tag k="capacity" v="92" />
		<tag k="contact:phone" v="+47 33 44 79 00" />
		<tag k="max_age" v="5" />
		<tag k="min_age" v="1" />
		<tag k="name" v="Læringsverkstedet barnehage Veraåsen barnehage" />
		<tag k="no-barnehage:nsrid" v="1022013" />
		<tag k="operator" v="Læringsverkstedet AS" />
		<tag k="operator:type" v="private" />
		<tag k="start_date" v="2009-12-10" />
	</node>
	<node id="-2554" lat="59.11787" lon="10.28245">
		<tag k="amenity" v="kindergarten" />
		<tag k="capacity" v="40" />
		<tag k="contact:email" v="post@lahellebarnehage.no" />
		<tag k="contact:phone" v="+47 33 47 28 00" />
		<tag k="contact:website" v="http://lahelle.barnehage.no" />
		<tag k="max_age" v="5" />
		<tag k="min_age" v="1" />
		<tag k="name" v="Lahelle barnehage Horieh Yegani-Behambari" />
		<tag k="no-barnehage:nsrid" v="1021164" />
		<tag k="operator" v="Lahelle barnehage Horieh Yegani-Behambari" />
		<tag k="operator:type" v="private" />
		<tag k="start_date" v="2005-08-01" />
	</node>
	<node id="-2553" lat="59.0887" lon="10.2118">
		<tag k="amenity" v="kindergarten" />
		<tag k="capacity" v="55" />
		<tag k="contact:email" v="post@noahs-ark.info" />
		<tag k="contact:phone" v="+47 33 46 91 60" />
		<tag k="max_age" v="5" />
		<tag k="min_age" v="1" />
		<tag k="name" v="Kulturbarnehagen Noahs Ark" />
		<tag k="no-barnehage:nsrid" v="1014000" />
		<tag k="operator" v="Stiftelsen Sandefjord Menighetspleie og Kirkesenter" />
		<tag k="operator:type" v="private" />
		<tag k="start_date" v="2009-06-01" />
	</node>
	<node id="-2552" lat="59.1404" lon="10.2237">
		<tag k="amenity" v="kindergarten" />
		<tag k="capacity" v="25" />
		<tag k="contact:email" v="irinajon@online.no" />
		<tag k="max_age" v="5" />
		<tag k="min_age" v="1" />
		<tag k="name" v="Krokusen barnehage" />
		<tag k="no-barnehage:nsrid" v="1013235" />
		<tag k="operator" v="Krokusen barnehage AS" />
		<tag k="operator:type" v="private" />
		<tag k="start_date" v="2005-05-09" />
	</node>
	<node id="-2551" lat="59.1306" lon="10.1837">
		<tag k="amenity" v="kindergarten" />
		<tag k="capacity" v="49" />
		<tag k="contact:email" v="krokenskogen@kanvas.no" />
		<tag k="max_age" v="5" />
		<tag k="min_age" v="1" />
		<tag k="name" v="Krokenskogen Kanvas-Barnehage" />
		<tag k="no-barnehage:nsrid" v="1015707" />
		<tag k="operator" v="Stiftelsen Kanvas" />
		<tag k="operator:type" v="private" />
		<tag k="start_date" v="1998-08-01" />
	</node>
	<node id="-2550" lat="59.1322" lon="10.1821">
		<tag k="amenity" v="kindergarten" />
		<tag k="capacity" v="76" />
		<tag k="contact:email" v="krokemoa.barnehage@sandefjord.kommune.no" />
		<tag k="contact:phone" v="+47 33 41 78 30" />
		<tag k="max_age" v="5" />
		<tag k="min_age" v="1" />
		<tag k="name" v="Krokemoa barnehage" />
		<tag k="no-barnehage:nsrid" v="1012854" />
		<tag k="operator" v="Sandefjord kommune" />
		<tag k="operator:type" v="public" />
		<tag k="start_date" v="1976-01-01" />
	</node>
	<node id="-2549" lat="59.2153" lon="10.1396">
		<tag k="amenity" v="kindergarten" />
		<tag k="capacity" v="68" />
		<tag k="contact:email" v="kodal.bhg@andebu.kommune.no" />
		<tag k="contact:phone" v="+47 33 44 14 30" />
		<tag k="max_age" v="5" />
		<tag k="min_age" v="1" />
		<tag k="name" v="Kodal barnehage" />
		<tag k="no-barnehage:nsrid" v="1014690" />
		<tag k="operator" v="Sandefjord kommune" />
		<tag k="operator:type" v="public" />
		<tag k="start_date" v="1990-09-01" />
	</node>
	<node id="-2548" lat="59.12991" lon="10.21388">
		<tag k="amenity" v="kindergarten" />
		<tag k="capacity" v="44" />
		<tag k="contact:email" v="POST@KATHRINESHAVE.NO" />
		<tag k="contact:phone" v="+47 33 47 49 60" />
		<tag k="max_age" v="5" />
		<tag k="min_age" v="1" />
		<tag k="name" v="Kathrines Have AS" />
		<tag k="no-barnehage:nsrid" v="1020395" />
		<tag k="operator" v="Kathrines Have AS" />
		<tag k="operator:type" v="private" />
		<tag k="start_date" v="2007-01-01" />
	</node>
	<node id="-2547" lat="59.1368" lon="10.1894">
		<tag k="amenity" v="kindergarten" />
		<tag k="capacity" v="47" />
		<tag k="contact:email" v="karisletta@kanvas.no" />
		<tag k="contact:phone" v="+47 22 40 58 40" />
		<tag k="max_age" v="5" />
		<tag k="min_age" v="1" />
		<tag k="name" v="Karisletta Kanvas-Barnehage" />
		<tag k="no-barnehage:nsrid" v="1015476" />
		<tag k="operator" v="Stiftelsen Kanvas" />
		<tag k="operator:type" v="private" />
		<tag k="start_date" v="1989-01-01" />
	</node>
	<node id="-2546" lat="59.1328" lon="10.2004">
		<tag k="amenity" v="kindergarten" />
		<tag k="capacity" v="27" />
		<tag k="contact:email" v="kapteinlokka.barnehage@sandefjord.kommune.no" />
		<tag k="contact:phone" v="+47 33 41 92 10" />
		<tag k="max_age" v="5" />
		<tag k="min_age" v="1" />
		<tag k="name" v="Kapteinløkka barnehage" />
		<tag k="no-barnehage:nsrid" v="1016031" />
		<tag k="operator" v="Sandefjord kommune" />
		<tag k="operator:type" v="public" />
		<tag k="start_date" v="1993-08-01" />
	</node>
	<node id="-2545" lat="59.3609" lon="10.1381">
		<tag k="amenity" v="kindergarten" />
		<tag k="capacity" v="45" />
		<tag k="contact:email" v="heidi.hov@andebu.kommune.no" />
		<tag k="contact:phone" v="+47 33 44 20 15" />
		<tag k="contact:website" v="http://Heidi.Riis.Hov@sandefjord.kommune.no" />
		<tag k="max_age" v="5" />
		<tag k="min_age" v="1" />
		<tag k="name" v="Høyjord barnehage" />
		<tag k="no-barnehage:nsrid" v="1015874" />
		<tag k="operator" v="Sandefjord kommune" />
		<tag k="operator:type" v="public" />
		<tag k="start_date" v="1999-08-01" />
	</node>
	<node id="-2544" lat="59.1453" lon="10.1908">
		<tag k="amenity" v="kindergarten" />
		<tag k="capacity" v="38" />
		<tag k="contact:email" v="trine.fjeldheim@sandefjord.kommune.no" />
		<tag k="contact:phone" v="+47 33 41 78 00" />
		<tag k="max_age" v="5" />
		<tag k="min_age" v="1" />
		<tag k="name" v="Haukerød barnehage" />
		<tag k="no-barnehage:nsrid" v="1012859" />
		<tag k="operator" v="Sandefjord kommune" />
		<tag k="operator:type" v="public" />
		<tag k="start_date" v="1976-01-01" />
	</node>
	<node id="-2543" lat="59.3097" lon="10.1987">
		<tag k="amenity" v="kindergarten" />
		<tag k="capacity" v="67" />
		<tag k="contact:email" v="elisabeth.trollsaas.jellum@andebu.kommune.no" />
		<tag k="contact:phone" v="+47 33 43 82 80" />
		<tag k="max_age" v="5" />
		<tag k="min_age" v="1" />
		<tag k="name" v="Gravdal barnehage" />
		<tag k="no-barnehage:nsrid" v="1013422" />
		<tag k="operator" v="Sandefjord kommune" />
		<tag k="operator:type" v="public" />
		<tag k="start_date" v="2007-08-01" />
	</node>
	<node id="-2542" lat="59.1275" lon="10.2711">
		<tag k="amenity" v="kindergarten" />
		<tag k="capacity" v="50" />
		<tag k="contact:email" v="gjekstad@kanvas.no" />
		<tag k="contact:phone" v="+47 22 40 58 40" />
		<tag k="max_age" v="5" />
		<tag k="min_age" v="1" />
		<tag k="name" v="Gjekstad Kanvas-Barnehage" />
		<tag k="no-barnehage:nsrid" v="1015477" />
		<tag k="operator" v="Stiftelsen Kanvas" />
		<tag k="operator:type" v="private" />
		<tag k="start_date" v="1992-11-01" />
	</node>
	<node id="-2541" lat="59.188" lon="10.31">
		<tag k="amenity" v="kindergarten" />
		<tag k="capacity" v="44" />
		<tag k="contact:email" v="cathrine.klaveness.tuengen@sandefjord.kommune.no" />
		<tag k="contact:phone" v="+47 33 29 56 70" />
		<tag k="contact:website" v="http://www.sandefjord.kommune.no" />
		<tag k="max_age" v="5" />
		<tag k="min_age" v="1" />
		<tag k="name" v="Feen barnehage" />
		<tag k="no-barnehage:nsrid" v="1014137" />
		<tag k="operator" v="Sandefjord kommune" />
		<tag k="operator:type" v="public" />
		<tag k="start_date" v="2010-08-01" />
	</node>
	<node id="-2540" lat="59.15154" lon="10.219">
		<tag k="amenity" v="kindergarten" />
		<tag k="capacity" v="138" />
		<tag k="contact:email" v="styrer@abol.espira.no" />
		<tag k="contact:phone" v="+47 52 84 50 20" />
		<tag k="contact:website" v="http://www.espira.no" />
		<tag k="max_age" v="5" />
		<tag k="min_age" v="1" />
		<tag k="name" v="Espira Åbol barnehage" />
		<tag k="no-barnehage:nsrid" v="1021833" />
		<tag k="operator" v="Espira Åbol AS" />
		<tag k="operator:type" v="private" />
		<tag k="start_date" v="2008-06-04" />
	</node>
	<node id="-2539" lat="59.13229" lon="10.24334">
		<tag k="amenity" v="kindergarten" />
		<tag k="capacity" v="20" />
		<tag k="contact:email" v="epleblomsten@steinerbarnehage.no" />
		<tag k="contact:phone" v="+47 33461520" />
		<tag k="max_age" v="5" />
		<tag k="min_age" v="1" />
		<tag k="name" v="Epleblomsten Steinerbarnehage i Sandefjord" />
		<tag k="no-barnehage:nsrid" v="1020310" />
		<tag k="operator" v="Rudolf Steinerbarnehagen i Sandefjord" />
		<tag k="operator:type" v="private" />
		<tag k="start_date" v="1995-02-22" />
	</node>
	<node id="-2538" lat="59.2917" lon="10.2463">
		<tag k="amenity" v="kindergarten" />
		<tag k="capacity" v="41" />
		<tag k="contact:email" v="kjersti.lysen@sandefjord.kommune.no" />
		<tag k="contact:phone" v="+47 33 29 56 30" />
		<tag k="contact:website" v="http://www.sandefjord.kommune.no" />
		<tag k="max_age" v="5" />
		<tag k="min_age" v="1" />
		<tag k="name" v="Elverhøy barnehage" />
		<tag k="no-barnehage:nsrid" v="1018028" />
		<tag k="operator" v="Sandefjord kommune" />
		<tag k="operator:type" v="public" />
		<tag k="start_date" v="1989-01-01" />
	</node>
	<node id="-2537" lat="59.1318" lon="10.1997">
		<tag k="amenity" v="kindergarten" />
		<tag k="capacity" v="39" />
		<tag k="contact:email" v="bugarden.barnehage@sandefjord.kommune.no" />
		<tag k="contact:phone" v="+47 33 41 92 00" />
		<tag k="max_age" v="5" />
		<tag k="min_age" v="1" />
		<tag k="name" v="Bugården barnehage" />
		<tag k="no-barnehage:nsrid" v="1012858" />
		<tag k="operator" v="Sandefjord kommune" />
		<tag k="operator:type" v="public" />
		<tag k="start_date" v="1976-01-01" />
	</node>
	<node id="-2536" lat="59.16434" lon="10.21627">
		<tag k="amenity" v="kindergarten" />
		<tag k="name" v="Brunstad Kristelige Menighet Sandefjord" />
		<tag k="no-barnehage:nsrid" v="2000202" />
		<tag k="operator" v="Brunstad Kristelige Menighet Sandefjord" />
		<tag k="operator:type" v="private" />
		<tag k="start_date" v="2016-01-01" />
	</node>
	<node id="-2535" lat="59.1449" lon="10.2239">
		<tag k="amenity" v="kindergarten" />
		<tag k="capacity" v="51" />
		<tag k="contact:email" v="breidablikk@kanvas.no" />
		<tag k="contact:phone" v="+47 22 40 58 40" />
		<tag k="max_age" v="5" />
		<tag k="min_age" v="1" />
		<tag k="name" v="Breidablikk Kanvas-Barnehage" />
		<tag k="no-barnehage:nsrid" v="1015478" />
		<tag k="operator" v="Stiftelsen Kanvas" />
		<tag k="operator:type" v="private" />
		<tag k="start_date" v="1989-01-02" />
	</node>
	<node id="-2534" lat="59.223" lon="10.3383">
		<tag k="amenity" v="kindergarten" />
		<tag k="capacity" v="42" />
		<tag k="contact:email" v="Anne.Lilleas@stokke.kommune.no" />
		<tag k="contact:phone" v="+47 33 29 56 10" />
		<tag k="contact:website" v="http://www.stokke.kommune.no" />
		<tag k="max_age" v="5" />
		<tag k="min_age" v="1" />
		<tag k="name" v="Barnas Hus barnehage" />
		<tag k="no-barnehage:nsrid" v="1014692" />
		<tag k="operator" v="Sandefjord kommune" />
		<tag k="operator:type" v="public" />
		<tag k="start_date" v="1991-02-01" />
	</node>
	<node id="-2533" lat="59.13597" lon="10.22382">
		<tag k="amenity" v="kindergarten" />
		<tag k="capacity" v="50" />
		<tag k="contact:email" v="post@barnashave.no" />
		<tag k="contact:phone" v="+47 33 46 29 74" />
		<tag k="max_age" v="5" />
		<tag k="min_age" v="1" />
		<tag k="name" v="Barnas Have A/s" />
		<tag k="no-barnehage:nsrid" v="1021554" />
		<tag k="operator" v="Barnas Have AS" />
		<tag k="operator:type" v="private" />
		<tag k="start_date" v="1991-08-09" />
	</node>
	<node id="-2587" lat="59.0877" lon="10.2101">
		<tag k="amenity" v="kindergarten" />
		<tag k="capacity" v="38" />
		<tag k="contact:email" v="asane.barnehage@sandefjord.kommune.no" />
		<tag k="contact:phone" v="+47 33 41 79 80" />
		<tag k="max_age" v="5" />
		<tag k="min_age" v="1" />
		<tag k="name" v="Åsane barnehage" />
		<tag k="no-barnehage:nsrid" v="1012860" />
		<tag k="operator" v="Sandefjord kommune" />
		<tag k="operator:type" v="public" />
		<tag k="start_date" v="1989-01-01" />
	</node>
	<node id="-2586" lat="59.10427" lon="10.2882">
		<tag k="amenity" v="kindergarten" />
		<tag k="capacity" v="38" />
		<tag k="contact:email" v="styrer@naturbarnehage.no" />
		<tag k="contact:phone" v="+47 33 45 14 45" />
		<tag k="contact:website" v="http://www.naturbarnehage.no" />
		<tag k="max_age" v="5" />
		<tag k="min_age" v="1" />
		<tag k="name" v="Østerøy Naturbarnehage Sa" />
		<tag k="no-barnehage:nsrid" v="1019899" />
		<tag k="operator" v="Østerøy Naturbarnehage Sa" />
		<tag k="operator:type" v="private" />
		<tag k="start_date" v="1990-08-01" />
	</node>
	<node id="-2585" lat="59.12001" lon="10.2431">
		<tag k="amenity" v="kindergarten" />
		<tag k="capacity" v="26" />
		<tag k="contact:email" v="villavillekulla@barnehage.no" />
		<tag k="contact:phone" v="+47 33 45 16 00" />
		<tag k="max_age" v="5" />
		<tag k="min_age" v="1" />
		<tag k="name" v="Villa Villekulla barnehage AS" />
		<tag k="no-barnehage:nsrid" v="1021959" />
		<tag k="operator" v="Villa Villekulla barnehage AS" />
		<tag k="operator:type" v="private" />
		<tag k="start_date" v="2005-10-01" />
	</node>
	<node id="-2584" lat="59.3049" lon="10.1797">
		<tag k="amenity" v="kindergarten" />
		<tag k="capacity" v="32" />
		<tag k="contact:email" v="vesteraat.bhg@andebu.kommune.no" />
		<tag k="contact:phone" v="+47 33 44 37 80" />
		<tag k="max_age" v="5" />
		<tag k="min_age" v="1" />
		<tag k="name" v="Vesteråt barnehage" />
		<tag k="no-barnehage:nsrid" v="1018026" />
		<tag k="operator" v="Sandefjord kommune" />
		<tag k="operator:type" v="public" />
		<tag k="start_date" v="1989-01-01" />
	</node>
	<node id="-2583" lat="59.1196" lon="10.2395">
		<tag k="amenity" v="kindergarten" />
		<tag k="capacity" v="41" />
		<tag k="contact:email" v="bhgvesteroy@sandefjord.kirken.no" />
		<tag k="contact:phone" v="+47 33 42 34 19" />
		<tag k="max_age" v="5" />
		<tag k="min_age" v="1" />
		<tag k="name" v="Vesterøy Menighetsbarnehage" />
		<tag k="no-barnehage:nsrid" v="1015939" />
		<tag k="operator" v="Sandefjord Kirkelige Fellesråd" />
		<tag k="operator:type" v="private" />
		<tag k="start_date" v="1989-01-01" />
	</node>
	<node id="-2582" lat="59.15011" lon="10.18486">
		<tag k="amenity" v="kindergarten" />
		<tag k="capacity" v="102" />
		<tag k="contact:email" v="nancy@veslehaven.no" />
		<tag k="contact:phone" v="+47 33 42 18 40" />
		<tag k="contact:website" v="http://veslehaven.no" />
		<tag k="max_age" v="5" />
		<tag k="min_age" v="1" />
		<tag k="name" v="Veslehaven barnehage AS" />
		<tag k="no-barnehage:nsrid" v="1020720" />
		<tag k="operator" v="Veslehaven barnehage AS" />
		<tag k="operator:type" v="private" />
		<tag k="start_date" v="2001-08-01" />
	</node>
	<node id="-2581" lat="59.1219" lon="10.2579">
		<tag k="amenity" v="kindergarten" />
		<tag k="capacity" v="51" />
		<tag k="contact:email" v="vardenlia.barnehage@sandefjord.kommune.no" />
		<tag k="contact:phone" v="+47 33 41 79 50" />
		<tag k="max_age" v="5" />
		<tag k="min_age" v="1" />
		<tag k="name" v="Vardenlia barnehage" />
		<tag k="no-barnehage:nsrid" v="1012856" />
		<tag k="operator" v="Sandefjord kommune" />
		<tag k="operator:type" v="public" />
		<tag k="start_date" v="1989-01-01" />
	</node>
	<node id="-2580" lat="59.2226" lon="10.3103">
		<tag k="amenity" v="kindergarten" />
		<tag k="capacity" v="66" />
		<tag k="contact:email" v="Lisbeth.Berg-Hansen@sandefjord.kommune.no" />
		<tag k="contact:phone" v="+47 33 29 56 60" />
		<tag k="contact:website" v="http://www.sandefjord.kommune.no" />
		<tag k="max_age" v="5" />
		<tag k="min_age" v="1" />
		<tag k="name" v="Tuften barnehage" />
		<tag k="no-barnehage:nsrid" v="1013094" />
		<tag k="operator" v="Sandefjord kommune" />
		<tag k="operator:type" v="public" />
		<tag k="start_date" v="2004-08-01" />
	</node>
	<node id="-2579" lat="59.1418" lon="10.2219">
		<tag k="amenity" v="kindergarten" />
		<tag k="capacity" v="71" />
		<tag k="contact:email" v="johannes.almaaas@sandefjord.kommune.no" />
		<tag k="contact:phone" v="+47 33 41 79 30" />
		<tag k="max_age" v="5" />
		<tag k="min_age" v="1" />
		<tag k="name" v="Trudvang barnehage" />
		<tag k="no-barnehage:nsrid" v="1012852" />
		<tag k="operator" v="Sandefjord kommune" />
		<tag k="operator:type" v="public" />
		<tag k="start_date" v="1976-01-01" />
	</node>
	<node id="-2578" lat="59.2278" lon="10.332">
		<tag k="amenity" v="kindergarten" />
		<tag k="capacity" v="39" />
		<tag k="contact:email" v="Anne.Marie.Lilleas@sandefjord.kommune.no" />
		<tag k="contact:phone" v="+47 33 29 56 50" />
		<tag k="contact:website" v="http://www.sandefjord.kommune.no" />
		<tag k="max_age" v="5" />
		<tag k="min_age" v="1" />
		<tag k="name" v="Trekanten barnehage" />
		<tag k="no-barnehage:nsrid" v="1018029" />
		<tag k="operator" v="Sandefjord kommune" />
		<tag k="operator:type" v="public" />
		<tag k="start_date" v="1989-01-01" />
	</node>
	<node id="-2577" lat="59.13137" lon="10.26767">
		<tag k="amenity" v="kindergarten" />
		<tag k="capacity" v="14" />
		<tag k="contact:email" v="annemarit.skei@gmail.com" />
		<tag k="contact:phone" v="+47 33 45 08 95" />
		<tag k="contact:website" v="http://www.toppenbhg.com" />
		<tag k="max_age" v="5" />
		<tag k="min_age" v="1" />
		<tag k="name" v="Toppen barnehage AS" />
		<tag k="no-barnehage:nsrid" v="1021794" />
		<tag k="operator" v="Toppen barnehage AS" />
		<tag k="operator:type" v="private" />
		<tag k="start_date" v="1994-08-08" />
	</node>
	<node id="-2576" lat="59.13977" lon="10.23149">
		<tag k="amenity" v="kindergarten" />
		<tag k="capacity" v="29" />
		<tag k="contact:email" v="til@sverstadbarnehage.no" />
		<tag k="max_age" v="5" />
		<tag k="min_age" v="1" />
		<tag k="name" v="Sverstad barnehage AS" />
		<tag k="no-barnehage:nsrid" v="1021467" />
		<tag k="operator" v="Sverstad barnehage AS" />
		<tag k="operator:type" v="private" />
		<tag k="start_date" v="2006-06-19" />
	</node>
	<node id="-2575" lat="59.141" lon="10.1941">
		<tag k="amenity" v="kindergarten" />
		<tag k="capacity" v="50" />
		<tag k="contact:email" v="gerd.carlsen@sandefjord.kommune.no" />
		<tag k="contact:phone" v="+47 33 41 79 20" />
		<tag k="max_age" v="5" />
		<tag k="min_age" v="1" />
		<tag k="name" v="Svartås barnehage" />
		<tag k="no-barnehage:nsrid" v="1012857" />
		<tag k="operator" v="Sandefjord kommune" />
		<tag k="operator:type" v="public" />
		<tag k="start_date" v="1989-01-01" />
	</node>
	<node id="-2574" lat="59.11978" lon="10.23106">
		<tag k="amenity" v="kindergarten" />
		<tag k="capacity" v="18" />
		<tag k="contact:email" v="admin@skagerak.org" />
		<tag k="contact:phone" v="+47 33 45 65 00" />
		<tag k="contact:website" v="http://www.skagerak.org" />
		<tag k="max_age" v="5" />
		<tag k="min_age" v="3" />
		<tag k="name" v="Stiftelsen Skagerak International School, Kindergarten" />
		<tag k="no-barnehage:nsrid" v="1022317" />
		<tag k="operator" v="Stiftelsen Skagerak International School, Kindergarten" />
		<tag k="operator:type" v="private" />
		<tag k="start_date" v="2012-10-02" />
	</node>
	<node id="-2573" lat="59.13455" lon="10.21067">
		<tag k="amenity" v="kindergarten" />
		<tag k="capacity" v="93" />
		<tag k="contact:email" v="solvangbarnehage@sfjbb.net" />
		<tag k="contact:phone" v="+47 33 48 94 50" />
		<tag k="max_age" v="5" />
		<tag k="min_age" v="1" />
		<tag k="name" v="Solvang barnehage Sa" />
		<tag k="no-barnehage:nsrid" v="1019652" />
		<tag k="operator" v="Solvang barnehage Sa" />
		<tag k="operator:type" v="private" />
		<tag k="start_date" v="1988-01-01" />
	</node>
	<node id="-2572" lat="59.10914" lon="10.20823">
		<tag k="amenity" v="kindergarten" />
		<tag k="capacity" v="18" />
		<tag k="contact:email" v="post@soltoppenbarnehage.no" />
		<tag k="contact:phone" v="+47 92 49 27 55" />
		<tag k="contact:website" v="http://www.soltoppenbarnehage.no" />
		<tag k="max_age" v="5" />
		<tag k="min_age" v="1" />
		<tag k="name" v="Soltoppen barnehage AS" />
		<tag k="no-barnehage:nsrid" v="1021306" />
		<tag k="operator" v="Soltoppen barnehage AS" />
		<tag k="operator:type" v="private" />
		<tag k="start_date" v="2005-09-01" />
	</node>
	<node id="-2571" lat="59.10616" lon="10.20986">
		<tag k="amenity" v="kindergarten" />
		<tag k="capacity" v="144" />
		<tag k="contact:email" v="post@sole-barnehage.no" />
		<tag k="contact:phone" v="+47 33 42 63 50" />
		<tag k="max_age" v="5" />
		<tag k="min_age" v="1" />
		<tag k="name" v="Sole barnehage Sa" />
		<tag k="no-barnehage:nsrid" v="1020060" />
		<tag k="operator" v="Sole barnehage Sa" />
		<tag k="operator:type" v="private" />
		<tag k="start_date" v="1991-10-14" />
	</node>
	<node id="-2570" lat="59.22697" lon="10.10258">
		<tag k="amenity" v="kindergarten" />
		<tag k="capacity" v="48" />
		<tag k="contact:email" v="perivar@smiehavna.no" />
		<tag k="contact:phone" v="+47 33 44 28 20" />
		<tag k="max_age" v="5" />
		<tag k="min_age" v="1" />
		<tag k="name" v="Smiehavna Gårdsbarnehage AS" />
		<tag k="no-barnehage:nsrid" v="1022329" />
		<tag k="operator" v="Smiehavna Gårdsbarnehage AS" />
		<tag k="operator:type" v="private" />
		<tag k="start_date" v="2003-06-25" />
	</node>
	<node id="-2569" lat="59.13" lon="10.2197">
		<tag k="amenity" v="kindergarten" />
		<tag k="contact:email" v="anne.haukaas@sandefjord.kommune.no" />
		<tag k="contact:phone" v="+47 33 41 66 20" />
		<tag k="name" v="Sandefjord kommune Åpen barnehage Sentrum" />
		<tag k="no-barnehage:nsrid" v="1017146" />
		<tag k="operator" v="Sandefjord kommune" />
		<tag k="operator:type" v="public" />
		<tag k="start_date" v="2006-01-01" />
	</node>
	<node id="-2568" lat="59.1318" lon="10.1712">
		<tag k="amenity" v="kindergarten" />
		<tag k="contact:email" v="anne.haukaas@sandefjord.kommune.no" />
		<tag k="name" v="Sandefjord kommune Åpen barnehage Kroken" />
		<tag k="no-barnehage:nsrid" v="1014881" />
		<tag k="operator" v="Sandefjord kommune" />
		<tag k="operator:type" v="public" />
		<tag k="start_date" v="1996-01-01" />
	</node>
	<node id="-2567" lat="59.1221" lon="10.2591">
		<tag k="amenity" v="kindergarten" />
		<tag k="contact:email" v="anne.haukaas@sandefjord.kommune.no" />
		<tag k="contact:phone" v="+47 33 41 79 60" />
		<tag k="name" v="Sandefjord kommune Åpen barnehage Grenda" />
		<tag k="no-barnehage:nsrid" v="1015583" />
		<tag k="operator" v="Sandefjord kommune" />
		<tag k="operator:type" v="public" />
		<tag k="start_date" v="1997-03-01" />
	</node>
	<node id="-2566" lat="59.1221" lon="10.2552">
		<tag k="amenity" v="kindergarten" />
		<tag k="capacity" v="51" />
		<tag k="contact:email" v="hege.reielsen@sandefjord.kommune.no" />
		<tag k="contact:phone" v="+47 33 41 79 50" />
		<tag k="max_age" v="5" />
		<tag k="min_age" v="1" />
		<tag k="name" v="Ringkollen barnehage" />
		<tag k="no-barnehage:nsrid" v="1012853" />
		<tag k="operator" v="Sandefjord kommune" />
		<tag k="operator:type" v="public" />
		<tag k="start_date" v="1989-01-01" />
	</node>
	<node id="-2565" lat="59.1159" lon="10.2125">
		<tag k="amenity" v="kindergarten" />
		<tag k="capacity" v="50" />
		<tag k="contact:email" v="torunn.johannessen@sandefjord.kommune.no" />
		<tag k="contact:phone" v="+47 33 41 78 70" />
		<tag k="max_age" v="5" />
		<tag k="min_age" v="1" />
		<tag k="name" v="Ranvik barnehage" />
		<tag k="no-barnehage:nsrid" v="1012855" />
		<tag k="operator" v="Sandefjord kommune" />
		<tag k="operator:type" v="public" />
		<tag k="start_date" v="1976-01-01" />
	</node>
	<node id="-2564" lat="59.1358" lon="10.2373">
		<tag k="amenity" v="kindergarten" />
		<tag k="capacity" v="22" />
		<tag k="contact:email" v="prestekragenbarnehage@gmail.com" />
		<tag k="max_age" v="5" />
		<tag k="min_age" v="1" />
		<tag k="name" v="Prestekragen barnehage AS" />
		<tag k="no-barnehage:nsrid" v="1016446" />
		<tag k="operator" v="Prestekragen barnehage AS" />
		<tag k="operator:type" v="private" />
		<tag k="start_date" v="2002-10-29" />
	</node>
	<node id="-2563" lat="59.13149" lon="10.19991">
		<tag k="amenity" v="kindergarten" />
		<tag k="capacity" v="36" />
		<tag k="contact:email" v="pingeline@barnehage.no" />
		<tag k="contact:phone" v="+47 33 47 74 14" />
		<tag k="contact:website" v="http://pingeline.barnehage.no" />
		<tag k="max_age" v="5" />
		<tag k="min_age" v="1" />
		<tag k="name" v="Pingeline barnehage" />
		<tag k="no-barnehage:nsrid" v="1020059" />
		<tag k="operator" v="Pingeline barnehage AS" />
		<tag k="operator:type" v="private" />
		<tag k="start_date" v="1991-08-01" />
	</node>
	<node id="-2562" lat="59.2175" lon="10.3089">
		<tag k="amenity" v="kindergarten" />
		<tag k="capacity" v="43" />
		<tag k="contact:email" v="kristin.eriksen@velle.no" />
		<tag k="contact:phone" v="+47 45445822" />
		<tag k="contact:website" v="http://www.velle.no" />
		<tag k="max_age" v="5" />
		<tag k="min_age" v="1" />
		<tag k="name" v="Olaløkka barnehage" />
		<tag k="no-barnehage:nsrid" v="1014882" />
		<tag k="operator" v="Velle Utvikling AS" />
		<tag k="operator:type" v="private" />
		<tag k="start_date" v="1994-08-01" />
	</node>
	<node id="-2561" lat="59.22029" lon="10.24337">
		<tag k="amenity" v="kindergarten" />
		<tag k="capacity" v="20" />
		<tag k="contact:email" v="post@naturkameratene.no" />
		<tag k="contact:phone" v="+47 92 25 31 80" />
		<tag k="max_age" v="5" />
		<tag k="min_age" v="1" />
		<tag k="name" v="Naturkameratene Naturbarnehage Ans" />
		<tag k="no-barnehage:nsrid" v="1020532" />
		<tag k="operator" v="Naturkameratene Ans" />
		<tag k="operator:type" v="private" />
		<tag k="start_date" v="1998-09-10" />
	</node>
</osm>
