<?xml version="1.0" encoding="UTF-8"?>
<osm version="0.6" generator="osmapis">
	<node lat="62.14893" lon="6.12638" id="-1370">
		<tag k="ADDRESS" v="Bakkelidvegen 30, 6104 VOLDA" />
		<tag k="amenity" v="kindergarten" />
		<tag k="capacity" v="74" />
		<tag k="max_age" v="5" />
		<tag k="min_age" v="1" />
		<tag k="name" v="Bratteberg barnehage" />
		<tag k="no-barnehage:nsrid" v="997618769" />
		<tag k="operator" v="Volda kommune" />
		<tag k="operator:type" v="public" />
	</node>
	<node lat="62.14957" lon="6.06201" id="-1371">
		<tag k="ADDRESS" v="Gamle Engesetvegen 9, 6102 VOLDA" />
		<tag k="amenity" v="kindergarten" />
		<tag k="capacity" v="54" />
		<tag k="max_age" v="5" />
		<tag k="min_age" v="1" />
		<tag k="name" v="Engeset barnehage" />
		<tag k="no-barnehage:nsrid" v="974007762" />
		<tag k="operator" v="Volda kommune" />
		<tag k="operator:type" v="public" />
	</node>
	<node lat="0.0" lon="0.0" id="-1372">
		<tag k="ADDRESS" v="Folkestad, 6120 FOLKESTAD" />
		<tag k="amenity" v="kindergarten" />
		<tag k="capacity" v="17" />
		<tag k="max_age" v="5" />
		<tag k="min_age" v="1" />
		<tag k="name" v="Folkestad barnehage" />
		<tag k="no-barnehage:nsrid" v="974702711" />
		<tag k="operator" v="Volda kommune" />
		<tag k="operator:type" v="public" />
	</node>
	<node lat="62.15041" lon="6.11439" id="-1373">
		<tag k="ADDRESS" v="Gamletufta 3, 6104 VOLDA" />
		<tag k="amenity" v="kindergarten" />
		<tag k="capacity" v="35" />
		<tag k="max_age" v="5" />
		<tag k="min_age" v="1" />
		<tag k="name" v="Hjellbakkane barnehage stiftelsen" />
		<tag k="no-barnehage:nsrid" v="973458779" />
		<tag k="operator" v="Hjellbakkane barnehage stiftelsen" />
		<tag k="operator:type" v="private" />
	</node>
	<node lat="61.98102" lon="6.51969" id="-1374">
		<tag k="ADDRESS" v="Kirkhornsbakkane 1, 6763 HORNINDAL" />
		<tag k="amenity" v="kindergarten" />
		<tag k="capacity" v="41" />
		<tag k="max_age" v="5" />
		<tag k="min_age" v="1" />
		<tag k="name" v="Hornindal barnehage" />
		<tag k="no-barnehage:nsrid" v="974542412" />
		<tag k="operator" v="Volda kommune" />
		<tag k="operator:type" v="public" />
	</node>
	<node lat="0.0" lon="0.0" id="-1375">
		<tag k="ADDRESS" v="Lauvstad, 6133 LAUVSTAD" />
		<tag k="amenity" v="kindergarten" />
		<tag k="capacity" v="33" />
		<tag k="max_age" v="5" />
		<tag k="min_age" v="1" />
		<tag k="name" v="Lauvstad barnehage" />
		<tag k="no-barnehage:nsrid" v="977180058" />
		<tag k="operator" v="Volda kommune" />
		<tag k="operator:type" v="public" />
	</node>
	<node lat="0.0" lon="0.0" id="-1376">
		<tag k="ADDRESS" v="MORK, 6105 VOLDA" />
		<tag k="amenity" v="kindergarten" />
		<tag k="capacity" v="52" />
		<tag k="max_age" v="5" />
		<tag k="min_age" v="1" />
		<tag k="name" v="Mork barnehage" />
		<tag k="no-barnehage:nsrid" v="973471589" />
		<tag k="operator" v="Volda kommune" />
		<tag k="operator:type" v="public" />
	</node>
	<node lat="62.15018" lon="6.09414" id="-1377">
		<tag k="ADDRESS" v="Heltnevegen 13, 6103 VOLDA" />
		<tag k="amenity" v="kindergarten" />
		<tag k="capacity" v="55" />
		<tag k="max_age" v="5" />
		<tag k="min_age" v="1" />
		<tag k="name" v="Oppigarden barnehage" />
		<tag k="no-barnehage:nsrid" v="974747553" />
		<tag k="operator" v="Volda kommune" />
		<tag k="operator:type" v="public" />
	</node>
	<node lat="62.1418" lon="6.08542" id="-1378">
		<tag k="ADDRESS" v="Bømarka 1, 6100 VOLDA" />
		<tag k="amenity" v="kindergarten" />
		<tag k="capacity" v="49" />
		<tag k="contact:website" v="http://www.rotset.barnehage.no" />
		<tag k="max_age" v="5" />
		<tag k="min_age" v="1" />
		<tag k="name" v="Rotset barnehage" />
		<tag k="no-barnehage:nsrid" v="973502565" />
		<tag k="operator" v="Rotset barnehage SA" />
		<tag k="operator:type" v="private" />
	</node>
	<node lat="62.14926" lon="6.08144" id="-1379">
		<tag k="ADDRESS" v="Kårstadvegen 8a, 6103 VOLDA" />
		<tag k="amenity" v="kindergarten" />
		<tag k="capacity" v="29" />
		<tag k="contact:website" v="http://www.sivolda.no" />
		<tag k="max_age" v="5" />
		<tag k="min_age" v="1" />
		<tag k="name" v="Studentsamskipnaden i Volda avd. Røysmarka studentbarnehage" />
		<tag k="no-barnehage:nsrid" v="973172301" />
		<tag k="operator" v="Studentsamskipnaden i Volda" />
		<tag k="operator:type" v="private" />
	</node>
	<node lat="0.0" lon="0.0" id="-1380">
		<tag k="ADDRESS" v="Kårstadvegen 22, 6103 VOLDA" />
		<tag k="amenity" v="kindergarten" />
		<tag k="capacity" v="22" />
		<tag k="max_age" v="5" />
		<tag k="min_age" v="1" />
		<tag k="name" v="Trollsletta barnehage" />
		<tag k="no-barnehage:nsrid" v="973458868" />
		<tag k="operator" v="Stiftinga Trollsletta barnehage" />
		<tag k="operator:type" v="private" />
	</node>
	<node lat="61.99363" lon="6.55396" id="-1381">
		<tag k="ADDRESS" v="Nyvoll 6, 6763 HORNINDAL" />
		<tag k="amenity" v="kindergarten" />
		<tag k="capacity" v="28" />
		<tag k="max_age" v="5" />
		<tag k="min_age" v="1" />
		<tag k="name" v="Tunåsen barnehage" />
		<tag k="no-barnehage:nsrid" v="998696666" />
		<tag k="operator" v="Tunåsen barnehage AS" />
		<tag k="operator:type" v="private" />
	</node>
	<node lat="62.15033" lon="6.11324" id="-1382">
		<tag k="ADDRESS" v="Gamletufta 1, 6104 VOLDA" />
		<tag k="amenity" v="kindergarten" />
		<tag k="name" v="Volda Opne barnehage avd. barnehage" />
		<tag k="no-barnehage:nsrid" v="914082080" />
		<tag k="operator" v="Volda Frikyrkje Den Evangeliske Lutherske" />
		<tag k="operator:type" v="private" />
	</node>
	<node lat="0.0" lon="0.0" id="-1383">
		<tag k="ADDRESS" v="Barstadhuset Seljebakken 24, 6102 VOLDA" />
		<tag k="amenity" v="kindergarten" />
		<tag k="capacity" v="63" />
		<tag k="max_age" v="5" />
		<tag k="min_age" v="1" />
		<tag k="name" v="Øyra barnehage" />
		<tag k="no-barnehage:nsrid" v="973472429" />
		<tag k="operator" v="Øyra barnehage" />
		<tag k="operator:type" v="private" />
	</node>
</osm>
