<?xml version="1.0" encoding="UTF-8"?>
<osm version="0.6" generator="osmapis">
	<node lat="59.92169" lon="10.47831" id="-1971">
		<tag k="ADDRESS" v="Grindstuveien 8, 1349 RYKKINN" />
		<tag k="amenity" v="kindergarten" />
		<tag k="capacity" v="8" />
		<tag k="max_age" v="2" />
		<tag k="min_age" v="1" />
		<tag k="name" v="Grindstuveien familiebarnehage" />
		<tag k="no-barnehage:nsrid" v="992217723" />
		<tag k="operator" v="Grindstuveien familiebarnehage AS" />
		<tag k="operator:type" v="private" />
	</node>
	<node lat="59.91417" lon="10.62783" id="-1975">
		<tag k="ADDRESS" v="Nordraaks vei 9A, 1369 STABEKK" />
		<tag k="amenity" v="kindergarten" />
		<tag k="capacity" v="5" />
		<tag k="max_age" v="2" />
		<tag k="min_age" v="1" />
		<tag k="name" v="Gullungene familiebarnehage avd. Nordraaks vei" />
		<tag k="no-barnehage:nsrid" v="882719332" />
		<tag k="operator" v="Gullungene familiebarnehage Mona K Axelsen" />
		<tag k="operator:type" v="private" />
	</node>
	<node lat="59.92716" lon="10.60639" id="-1976">
		<tag k="ADDRESS" v="Bjerkelundsveien 37C, 1358 JAR" />
		<tag k="amenity" v="kindergarten" />
		<tag k="capacity" v="8" />
		<tag k="max_age" v="2" />
		<tag k="min_age" v="1" />
		<tag k="name" v="Gullungene familiebarnehage avd. Bjerkelundsveien" />
		<tag k="no-barnehage:nsrid" v="991155686" />
		<tag k="operator" v="Gullungene familiebarnehage Mona K Axelsen" />
		<tag k="operator:type" v="private" />
	</node>
	<node lat="59.9415" lon="10.62536" id="-1977">
		<tag k="ADDRESS" v="Vollsveien 168, 1359 EIKSMARKA" />
		<tag k="amenity" v="kindergarten" />
		<tag k="capacity" v="7" />
		<tag k="contact:website" v="http://www.gullungenebarnehage.no/" />
		<tag k="max_age" v="2" />
		<tag k="min_age" v="1" />
		<tag k="name" v="Gullungene familiebarnehage avd. Vollsveien" />
		<tag k="no-barnehage:nsrid" v="992581328" />
		<tag k="operator" v="Gullungene familiebarnehage Mona K Axelsen" />
		<tag k="operator:type" v="private" />
	</node>
	<node lat="59.94963" lon="10.62465" id="-1997">
		<tag k="ADDRESS" v="Grinistubben 6, 1359 EIKSMARKA" />
		<tag k="amenity" v="kindergarten" />
		<tag k="capacity" v="8" />
		<tag k="contact:website" v="http://www.liljabhg.com" />
		<tag k="max_age" v="2" />
		<tag k="min_age" v="1" />
		<tag k="name" v="Lilja familiebarnehage" />
		<tag k="no-barnehage:nsrid" v="912807932" />
		<tag k="operator" v="Lilja familiebarnehage Da" />
		<tag k="operator:type" v="private" />
	</node>
	<node lat="59.89996" lon="10.56188" id="-2000">
		<tag k="ADDRESS" v="Gamle Drammensvei 142, 1363 HØVIK" />
		<tag k="amenity" v="kindergarten" />
		<tag k="capacity" v="8" />
		<tag k="contact:website" v="http://www.tornsvalen.no" />
		<tag k="max_age" v="2" />
		<tag k="min_age" v="1" />
		<tag k="name" v="Lindegaard familiebarnehage" />
		<tag k="no-barnehage:nsrid" v="982913683" />
		<tag k="operator" v="Lindegaard familiebarnehage AS" />
		<tag k="operator:type" v="private" />
	</node>
	<node lat="59.90053" lon="10.55774" id="-2018">
		<tag k="ADDRESS" v="Blommenholmveien 21, 1365 BLOMMENHOLM" />
		<tag k="amenity" v="kindergarten" />
		<tag k="capacity" v="8" />
		<tag k="contact:website" v="http://www.familiebarnehage.no" />
		<tag k="max_age" v="2" />
		<tag k="min_age" v="1" />
		<tag k="name" v="Nøtteliten Blommenholmveien" />
		<tag k="no-barnehage:nsrid" v="997173848" />
		<tag k="operator" v="Nøtteliten Blommenholmveien AS" />
		<tag k="operator:type" v="private" />
	</node>
	<node lat="59.89407" lon="10.48871" id="-2019">
		<tag k="ADDRESS" v="Tobias Kupfers vei 8, 1336 SANDVIKA" />
		<tag k="amenity" v="kindergarten" />
		<tag k="capacity" v="8" />
		<tag k="contact:website" v="http://www.familiebarnehage.no" />
		<tag k="max_age" v="2" />
		<tag k="min_age" v="1" />
		<tag k="name" v="Nøtteliten Emma Hjort" />
		<tag k="no-barnehage:nsrid" v="913387031" />
		<tag k="operator" v="Nøtteliten Emma Hjort AS" />
		<tag k="operator:type" v="private" />
	</node>
	<node lat="59.91304" lon="10.60054" id="-2020">
		<tag k="ADDRESS" v="Festningsveien 20C, 1368 STABEKK" />
		<tag k="amenity" v="kindergarten" />
		<tag k="capacity" v="8" />
		<tag k="contact:website" v="http://www.familiebarnehage.no" />
		<tag k="max_age" v="2" />
		<tag k="min_age" v="1" />
		<tag k="name" v="Nøtteliten Festningsveien" />
		<tag k="no-barnehage:nsrid" v="984173067" />
		<tag k="operator" v="Nøtteliten Festningsveien AS" />
		<tag k="operator:type" v="private" />
	</node>
	<node lat="59.9067" lon="10.59291" id="-2021">
		<tag k="ADDRESS" v="Gamle Drammensvei 70A, 1369 STABEKK" />
		<tag k="amenity" v="kindergarten" />
		<tag k="capacity" v="8" />
		<tag k="contact:website" v="http://www.familiebarnehage.no" />
		<tag k="max_age" v="2" />
		<tag k="min_age" v="1" />
		<tag k="name" v="Nøtteliten Gml Drammensvei" />
		<tag k="no-barnehage:nsrid" v="979437412" />
		<tag k="operator" v="Nøtteliten Gml Drammensvei AS" />
		<tag k="operator:type" v="private" />
	</node>
	<node lat="0.0" lon="0.0" id="-2022">
		<tag k="ADDRESS" v="Gamle Solbergvei 5, 1337 SANDVIKA" />
		<tag k="amenity" v="kindergarten" />
		<tag k="capacity" v="8" />
		<tag k="contact:website" v="http://www.familiebarnehage.no" />
		<tag k="max_age" v="2" />
		<tag k="min_age" v="1" />
		<tag k="name" v="Nøtteliten Gml Solbergvei" />
		<tag k="no-barnehage:nsrid" v="984173083" />
		<tag k="operator" v="Nøtteliten Gml Solbergvei AS" />
		<tag k="operator:type" v="private" />
	</node>
	<node lat="59.93847" lon="10.58718" id="-2023">
		<tag k="ADDRESS" v="Grevlingåsen 22, 1362 HOSLE" />
		<tag k="amenity" v="kindergarten" />
		<tag k="capacity" v="8" />
		<tag k="contact:website" v="http://www.familiebarnehage.no" />
		<tag k="max_age" v="2" />
		<tag k="min_age" v="1" />
		<tag k="name" v="Nøtteliten Grevlingåsen" />
		<tag k="no-barnehage:nsrid" v="992217731" />
		<tag k="operator" v="Nøtteliten Grevlingåsen AS" />
		<tag k="operator:type" v="private" />
	</node>
	<node lat="59.92282" lon="10.55887" id="-2024">
		<tag k="ADDRESS" v="Haslum terrasse 20, 1344 HASLUM" />
		<tag k="amenity" v="kindergarten" />
		<tag k="capacity" v="8" />
		<tag k="contact:website" v="http://www.familiebarnehage.no" />
		<tag k="max_age" v="2" />
		<tag k="min_age" v="1" />
		<tag k="name" v="Nøtteliten Haslum terrasse" />
		<tag k="no-barnehage:nsrid" v="988362484" />
		<tag k="operator" v="Nøtteliten Haslum Terrasse AS" />
		<tag k="operator:type" v="private" />
	</node>
	<node lat="59.91159" lon="10.57669" id="-2025">
		<tag k="ADDRESS" v="Høvikveien 60, 1356 BEKKESTUA" />
		<tag k="amenity" v="kindergarten" />
		<tag k="capacity" v="8" />
		<tag k="contact:website" v="http://www.familiebarnehage.no" />
		<tag k="max_age" v="2" />
		<tag k="min_age" v="1" />
		<tag k="name" v="Nøtteliten Høvikveien" />
		<tag k="no-barnehage:nsrid" v="914045533" />
		<tag k="operator" v="Nøtteliten Høvikveien AS" />
		<tag k="operator:type" v="private" />
	</node>
	<node lat="59.91246" lon="10.61076" id="-2026">
		<tag k="ADDRESS" v="Kyrres vei 28F, 1369 STABEKK" />
		<tag k="amenity" v="kindergarten" />
		<tag k="capacity" v="8" />
		<tag k="contact:website" v="http://www.familiebarnehage.no" />
		<tag k="max_age" v="2" />
		<tag k="min_age" v="1" />
		<tag k="name" v="Nøtteliten Kyrresvei" />
		<tag k="no-barnehage:nsrid" v="992592591" />
		<tag k="operator" v="Nøtteliten Kyrresvei AS" />
		<tag k="operator:type" v="private" />
	</node>
	<node lat="59.90267" lon="10.54258" id="-2027">
		<tag k="ADDRESS" v="Lillehagveien 52B, 1365 BLOMMENHOLM" />
		<tag k="amenity" v="kindergarten" />
		<tag k="capacity" v="8" />
		<tag k="contact:website" v="http://www.familiebarnehage.no" />
		<tag k="max_age" v="2" />
		<tag k="min_age" v="1" />
		<tag k="name" v="Nøtteliten Lillehagveien" />
		<tag k="no-barnehage:nsrid" v="895612162" />
		<tag k="operator" v="Nøtteliten Lillehagveien AS" />
		<tag k="operator:type" v="private" />
	</node>
	<node lat="59.90279" lon="10.5997095" id="-2028">
		<tag k="ADDRESS" v="Michelets vei 85, 1368 STABEKK" />
		<tag k="amenity" v="kindergarten" />
		<tag k="capacity" v="8" />
		<tag k="contact:website" v="http://www.familiebarnehage.no" />
		<tag k="max_age" v="2" />
		<tag k="min_age" v="1" />
		<tag k="name" v="Nøtteliten Micheletsvei" />
		<tag k="no-barnehage:nsrid" v="984172540" />
		<tag k="operator" v="Nøtteliten Micheletsvei AS" />
		<tag k="operator:type" v="private" />
	</node>
	<node lat="59.90598" lon="10.5693" id="-2029">
		<tag k="ADDRESS" v="Ramstadåsveien 17, 1363 HØVIK" />
		<tag k="amenity" v="kindergarten" />
		<tag k="capacity" v="8" />
		<tag k="contact:website" v="http://www.familiebarnehage.no" />
		<tag k="max_age" v="2" />
		<tag k="min_age" v="1" />
		<tag k="name" v="Nøtteliten Ramstadåsveien" />
		<tag k="no-barnehage:nsrid" v="991963650" />
		<tag k="operator" v="Nøtteliten Ramstadåsveien AS" />
		<tag k="operator:type" v="private" />
	</node>
	<node lat="59.90198" lon="10.55909" id="-2030">
		<tag k="ADDRESS" v="Stasjonsveien 38, 1365 BLOMMENHOLM" />
		<tag k="amenity" v="kindergarten" />
		<tag k="capacity" v="8" />
		<tag k="contact:website" v="http://www.familiebarnehage.no" />
		<tag k="max_age" v="2" />
		<tag k="min_age" v="1" />
		<tag k="name" v="Nøtteliten Stasjonsveien" />
		<tag k="no-barnehage:nsrid" v="987662530" />
		<tag k="operator" v="Nøtteliten Stasjonsveien AS" />
		<tag k="operator:type" v="private" />
	</node>
	<node lat="59.91821" lon="10.6206255" id="-2031">
		<tag k="ADDRESS" v="Storengveien 22, 1358 JAR" />
		<tag k="amenity" v="kindergarten" />
		<tag k="capacity" v="8" />
		<tag k="contact:website" v="http://www.familiebarnehage.no" />
		<tag k="max_age" v="2" />
		<tag k="min_age" v="1" />
		<tag k="name" v="Nøtteliten Storengveien" />
		<tag k="no-barnehage:nsrid" v="979437404" />
		<tag k="operator" v="Nøtteliten Storengveien AS" />
		<tag k="operator:type" v="private" />
	</node>
	<node lat="59.90199" lon="10.59572" id="-2032">
		<tag k="ADDRESS" v="Strandalleen 3, 1368 STABEKK" />
		<tag k="amenity" v="kindergarten" />
		<tag k="capacity" v="8" />
		<tag k="contact:website" v="http://www.familiebarnehage.no" />
		<tag k="max_age" v="2" />
		<tag k="min_age" v="1" />
		<tag k="name" v="Nøtteliten Strandalleen" />
		<tag k="no-barnehage:nsrid" v="915150187" />
		<tag k="operator" v="Nøtteliten Strandalleen AS" />
		<tag k="operator:type" v="private" />
	</node>
	<node lat="59.92" lon="10.56925" id="-2033">
		<tag k="ADDRESS" v="Tveterlia 6, 1344 HASLUM" />
		<tag k="amenity" v="kindergarten" />
		<tag k="capacity" v="8" />
		<tag k="contact:website" v="http://www.familiebarnehage.no" />
		<tag k="max_age" v="2" />
		<tag k="min_age" v="1" />
		<tag k="name" v="Nøtteliten Tveterlia" />
		<tag k="no-barnehage:nsrid" v="979437390" />
		<tag k="operator" v="Nøtteliten Tveterlia AS" />
		<tag k="operator:type" v="private" />
	</node>
	<node lat="59.93578" lon="10.62048" id="-2034">
		<tag k="ADDRESS" v="Velliveien 30A, 1358 JAR" />
		<tag k="amenity" v="kindergarten" />
		<tag k="capacity" v="8" />
		<tag k="contact:website" v="http://www.familiebarnehage.no" />
		<tag k="max_age" v="2" />
		<tag k="min_age" v="1" />
		<tag k="name" v="Nøtteliten Velliveien" />
		<tag k="no-barnehage:nsrid" v="984173091" />
		<tag k="operator" v="Nøtteliten Velliveien AS" />
		<tag k="operator:type" v="private" />
	</node>
	<node lat="59.9208" lon="10.62369" id="-2035">
		<tag k="ADDRESS" v="Wedel Jarlsbergs vei 4A, 1358 JAR" />
		<tag k="amenity" v="kindergarten" />
		<tag k="capacity" v="8" />
		<tag k="contact:website" v="http://www.familiebarnehage.no" />
		<tag k="max_age" v="2" />
		<tag k="min_age" v="1" />
		<tag k="name" v="Nøtteliten Wedel Jarlsbergsvei" />
		<tag k="no-barnehage:nsrid" v="921320957" />
		<tag k="operator" v="Nøtteliten Wedel Jarlsbergsvei AS" />
		<tag k="operator:type" v="private" />
	</node>
	<node lat="59.94664" lon="10.60667" id="-2036">
		<tag k="ADDRESS" v="Østeråsbakken 13, 1361 ØSTERÅS" />
		<tag k="amenity" v="kindergarten" />
		<tag k="capacity" v="8" />
		<tag k="contact:website" v="http://www.familiebarnehage.no" />
		<tag k="max_age" v="2" />
		<tag k="min_age" v="1" />
		<tag k="name" v="Nøtteliten Østeråsbakken" />
		<tag k="no-barnehage:nsrid" v="814045382" />
		<tag k="operator" v="Nøtteliten Østeråsbakken AS" />
		<tag k="operator:type" v="private" />
	</node>
	<node lat="59.91726" lon="10.56431" id="-2043">
		<tag k="ADDRESS" v="Tveterveien 49, 1344 HASLUM" />
		<tag k="amenity" v="kindergarten" />
		<tag k="capacity" v="8" />
		<tag k="max_age" v="2" />
		<tag k="min_age" v="1" />
		<tag k="name" v="Rugekassen avd. Bærum" />
		<tag k="no-barnehage:nsrid" v="891554842" />
		<tag k="operator" v="Kapelo AS" />
		<tag k="operator:type" v="private" />
	</node>
	<node lat="59.91243" lon="10.60747" id="-2058">
		<tag k="ADDRESS" v="Storengveien 56B, 1368 STABEKK" />
		<tag k="amenity" v="kindergarten" />
		<tag k="capacity" v="8" />
		<tag k="max_age" v="2" />
		<tag k="min_age" v="1" />
		<tag k="name" v="Sukkerspinn familiebarnehage" />
		<tag k="no-barnehage:nsrid" v="988495220" />
		<tag k="operator" v="Sukkerspinn familiebarnehage Da" />
		<tag k="operator:type" v="private" />
	</node>
</osm>
