<?xml version="1.0" encoding="UTF-8"?>
<osm version="0.6" generator="osmapis">
	<node lat="59.91221" lon="10.60195" id="-1947">
		<tag k="ADDRESS" v="Skogveien 64A, 1368 STABEKK" />
		<tag k="amenity" v="kindergarten" />
		<tag k="capacity" v="56" />
		<tag k="contact:website" v="http://aktivitetsbarnehagen.barnehage.no/Hjem" />
		<tag k="max_age" v="5" />
		<tag k="min_age" v="1" />
		<tag k="name" v="Aktivitetsbarnehagen" />
		<tag k="no-barnehage:nsrid" v="986112421" />
		<tag k="operator" v="Aktivitetsbarnehagen AS" />
		<tag k="operator:type" v="private" />
	</node>
	<node lat="59.89437" lon="10.49014" id="-1948">
		<tag k="ADDRESS" v="Tobias Kupfers vei 2, 1336 SANDVIKA" />
		<tag k="amenity" v="kindergarten" />
		<tag k="capacity" v="26" />
		<tag k="max_age" v="5" />
		<tag k="min_age" v="1" />
		<tag k="name" v="Arba avd. Kløverbakken barnehage" />
		<tag k="no-barnehage:nsrid" v="976723201" />
		<tag k="operator" v="Arba AS" />
		<tag k="operator:type" v="private" />
	</node>
	<node lat="59.90689" lon="10.57955" id="-1949">
		<tag k="ADDRESS" v="Ballerud alle 1, 1363 HØVIK" />
		<tag k="amenity" v="kindergarten" />
		<tag k="capacity" v="33" />
		<tag k="max_age" v="5" />
		<tag k="min_age" v="1" />
		<tag k="name" v="Barnas Hus" />
		<tag k="no-barnehage:nsrid" v="973932705" />
		<tag k="operator" v="Barnas Hus AS" />
		<tag k="operator:type" v="private" />
	</node>
	<node lat="59.90748" lon="10.63089" id="-1950">
		<tag k="ADDRESS" v="Lilløyveien 8, 1366 LYSAKER" />
		<tag k="amenity" v="kindergarten" />
		<tag k="capacity" v="53" />
		<tag k="contact:website" v="http://www.vier.no" />
		<tag k="max_age" v="5" />
		<tag k="min_age" v="1" />
		<tag k="name" v="Barnehagen Vier" />
		<tag k="no-barnehage:nsrid" v="985998795" />
		<tag k="operator" v="Barnehagen Vier SA" />
		<tag k="operator:type" v="private" />
	</node>
	<node lat="59.9404" lon="10.58585" id="-1951">
		<tag k="ADDRESS" v="Berta Bråtens vei 6, 1362 HOSLE" />
		<tag k="amenity" v="kindergarten" />
		<tag k="capacity" v="106" />
		<tag k="max_age" v="5" />
		<tag k="min_age" v="1" />
		<tag k="name" v="Barnehagenvår Hosletoppen" />
		<tag k="no-barnehage:nsrid" v="915235794" />
		<tag k="operator" v="Theas Bærum AS" />
		<tag k="operator:type" v="private" />
	</node>
	<node lat="59.95895" lon="10.62654" id="-1952">
		<tag k="ADDRESS" v="Fossumbakken 12, 1359 EIKSMARKA" />
		<tag k="amenity" v="kindergarten" />
		<tag k="capacity" v="31" />
		<tag k="max_age" v="5" />
		<tag k="min_age" v="1" />
		<tag k="name" v="Barnehagenvår Fossum grendehus" />
		<tag k="no-barnehage:nsrid" v="979890834" />
		<tag k="operator" v="Mazut AS" />
		<tag k="operator:type" v="private" />
	</node>
	<node lat="59.95598" lon="10.607" id="-1953">
		<tag k="ADDRESS" v="Basaltveien 20, 1359 EIKSMARKA" />
		<tag k="amenity" v="kindergarten" />
		<tag k="capacity" v="62" />
		<tag k="max_age" v="5" />
		<tag k="min_age" v="1" />
		<tag k="name" v="Barnehagenvår Fossum terrasse" />
		<tag k="no-barnehage:nsrid" v="986898190" />
		<tag k="operator" v="Basaltveien 20 AS" />
		<tag k="operator:type" v="private" />
	</node>
	<node lat="59.93408" lon="10.47042" id="-1954">
		<tag k="ADDRESS" v="Otto Rykkinds vei 7, 1349 RYKKINN" />
		<tag k="amenity" v="kindergarten" />
		<tag k="capacity" v="14" />
		<tag k="max_age" v="5" />
		<tag k="min_age" v="1" />
		<tag k="name" v="Barnelåven Janne Rosenlind" />
		<tag k="no-barnehage:nsrid" v="988897523" />
		<tag k="operator" v="Barnelåven Janne Rosenlind" />
		<tag k="operator:type" v="private" />
	</node>
	<node lat="59.92044" lon="10.58639" id="-1955">
		<tag k="ADDRESS" v="Haukeveien 8, 1357 BEKKESTUA" />
		<tag k="amenity" v="kindergarten" />
		<tag k="capacity" v="160" />
		<tag k="max_age" v="5" />
		<tag k="min_age" v="1" />
		<tag k="name" v="Bekkestua Kanvas-barnehage" />
		<tag k="no-barnehage:nsrid" v="989944487" />
		<tag k="operator" v="Stiftelsen Kanvas" />
		<tag k="operator:type" v="private" />
	</node>
	<node lat="0.0" lon="0.0" id="-1956">
		<tag k="ADDRESS" v="Friggs vei 20, 1349 RYKKINN" />
		<tag k="amenity" v="kindergarten" />
		<tag k="capacity" v="85" />
		<tag k="max_age" v="5" />
		<tag k="min_age" v="1" />
		<tag k="name" v="Berger barnehage" />
		<tag k="no-barnehage:nsrid" v="974553813" />
		<tag k="operator" v="Bærum kommune" />
		<tag k="operator:type" v="public" />
	</node>
	<node lat="59.93027" lon="10.44875" id="-1957">
		<tag k="ADDRESS" v="Berghoffveien 43, 1340 SKUI" />
		<tag k="amenity" v="kindergarten" />
		<tag k="capacity" v="23" />
		<tag k="contact:website" v="http://berghoff.barnehage.no" />
		<tag k="max_age" v="5" />
		<tag k="min_age" v="1" />
		<tag k="name" v="Berghoff barnehage" />
		<tag k="no-barnehage:nsrid" v="973469150" />
		<tag k="operator" v="Stiftelsen Berghoff barnehage" />
		<tag k="operator:type" v="private" />
	</node>
	<node lat="59.89383" lon="10.54079" id="-1958">
		<tag k="ADDRESS" v="Gamle Drammensvei 189B, 1365 BLOMMENHOLM" />
		<tag k="amenity" v="kindergarten" />
		<tag k="capacity" v="21" />
		<tag k="max_age" v="5" />
		<tag k="min_age" v="1" />
		<tag k="name" v="Blommenholm barnehage" />
		<tag k="no-barnehage:nsrid" v="973602993" />
		<tag k="operator" v="Blommenholm barnehage SA" />
		<tag k="operator:type" v="private" />
	</node>
	<node lat="59.90824" lon="10.52561" id="-1959">
		<tag k="ADDRESS" v="Hvitveisstien 15, 1346 GJETTUM" />
		<tag k="amenity" v="kindergarten" />
		<tag k="capacity" v="28" />
		<tag k="contact:website" v="http://www.blaveiskroken.no" />
		<tag k="max_age" v="5" />
		<tag k="min_age" v="1" />
		<tag k="name" v="Blåveiskroken barnehage" />
		<tag k="no-barnehage:nsrid" v="973471961" />
		<tag k="operator" v="Blåveiskroken barnehage" />
		<tag k="operator:type" v="private" />
	</node>
	<node lat="59.92977" lon="10.56168" id="-1960">
		<tag k="ADDRESS" v="Gamle Ringeriksvei 110, 1356 BEKKESTUA" />
		<tag k="amenity" v="kindergarten" />
		<tag k="capacity" v="82" />
		<tag k="max_age" v="5" />
		<tag k="min_age" v="1" />
		<tag k="name" v="Bærumsmarka FUS barnehage" />
		<tag k="no-barnehage:nsrid" v="998991250" />
		<tag k="operator" v="Bærumsmarka Fus barnehage AS" />
		<tag k="operator:type" v="private" />
	</node>
	<node lat="0.0" lon="0.0" id="-1961">
		<tag k="ADDRESS" v="Gamle Drammensvei 189, 1365 BLOMMENHOLM" />
		<tag k="amenity" v="kindergarten" />
		<tag k="capacity" v="15" />
		<tag k="max_age" v="5" />
		<tag k="min_age" v="1" />
		<tag k="name" v="Damstua barnehage" />
		<tag k="no-barnehage:nsrid" v="973346407" />
		<tag k="operator" v="Blommenholm Familieforening" />
		<tag k="operator:type" v="private" />
	</node>
	<node lat="59.90136" lon="10.50435" id="-1962">
		<tag k="ADDRESS" v="Dønskiveien 43C, 1346 GJETTUM" />
		<tag k="amenity" v="kindergarten" />
		<tag k="capacity" v="82" />
		<tag k="max_age" v="5" />
		<tag k="min_age" v="1" />
		<tag k="name" v="Dønski barnehage" />
		<tag k="no-barnehage:nsrid" v="993814466" />
		<tag k="operator" v="Bærum kommune" />
		<tag k="operator:type" v="public" />
	</node>
	<node lat="59.94673" lon="10.61925" id="-1963">
		<tag k="ADDRESS" v="Niels Leuchs vei 40, 1359 EIKSMARKA" />
		<tag k="amenity" v="kindergarten" />
		<tag k="capacity" v="34" />
		<tag k="max_age" v="5" />
		<tag k="min_age" v="1" />
		<tag k="name" v="Eikebo barnehage" />
		<tag k="no-barnehage:nsrid" v="973445995" />
		<tag k="operator" v="Eikebo foreldrelagsbarnehage SA" />
		<tag k="operator:type" v="private" />
	</node>
	<node lat="59.93497" lon="10.59976" id="-1964">
		<tag k="ADDRESS" v="Nadderudveien 104, 1362 HOSLE" />
		<tag k="amenity" v="kindergarten" />
		<tag k="capacity" v="102" />
		<tag k="max_age" v="5" />
		<tag k="min_age" v="1" />
		<tag k="name" v="Eikelia barnehage" />
		<tag k="no-barnehage:nsrid" v="974553864" />
		<tag k="operator" v="Bærum kommune" />
		<tag k="operator:type" v="public" />
	</node>
	<node lat="59.94669" lon="10.6205" id="-1965">
		<tag k="ADDRESS" v="Niels Leuchs vei 44, 1359 EIKSMARKA" />
		<tag k="amenity" v="kindergarten" />
		<tag k="capacity" v="55" />
		<tag k="contact:website" v="http://www.eiksmarkabarnehage.no" />
		<tag k="max_age" v="5" />
		<tag k="min_age" v="1" />
		<tag k="name" v="Eiksmarka foreldrelagsbarnehage" />
		<tag k="no-barnehage:nsrid" v="976795024" />
		<tag k="operator" v="Eiksmarka foreldrelagsbarnehage SA" />
		<tag k="operator:type" v="private" />
	</node>
	<node lat="59.91002" lon="10.57225" id="-1966">
		<tag k="ADDRESS" v="Ekebergveien 5, 1356 BEKKESTUA" />
		<tag k="amenity" v="kindergarten" />
		<tag k="capacity" v="54" />
		<tag k="max_age" v="5" />
		<tag k="min_age" v="1" />
		<tag k="name" v="Ekebergparken barnehage" />
		<tag k="no-barnehage:nsrid" v="989491482" />
		<tag k="operator" v="Gjønnes Kvinne- og Familielag" />
		<tag k="operator:type" v="private" />
	</node>
	<node lat="59.92493" lon="10.57142" id="-1967">
		<tag k="ADDRESS" v="Ekrekroken 1, 1356 BEKKESTUA" />
		<tag k="amenity" v="kindergarten" />
		<tag k="capacity" v="80" />
		<tag k="max_age" v="5" />
		<tag k="min_age" v="1" />
		<tag k="name" v="Ekrekroken barnehage" />
		<tag k="no-barnehage:nsrid" v="980430588" />
		<tag k="operator" v="Ekrekroken barnehage SA" />
		<tag k="operator:type" v="private" />
	</node>
	<node lat="59.89699" lon="10.49266" id="-1968">
		<tag k="ADDRESS" v="Tokes vei 4, 1336 SANDVIKA" />
		<tag k="amenity" v="kindergarten" />
		<tag k="capacity" v="54" />
		<tag k="contact:website" v="http://www.baerum.kommune.no" />
		<tag k="max_age" v="5" />
		<tag k="min_age" v="1" />
		<tag k="name" v="Emma Hjorth barnehage" />
		<tag k="no-barnehage:nsrid" v="987806028" />
		<tag k="operator" v="Bærum kommune" />
		<tag k="operator:type" v="public" />
	</node>
	<node lat="59.89711" lon="10.52523" id="-1969">
		<tag k="ADDRESS" v="Skytterdalen 11, 1337 SANDVIKA" />
		<tag k="amenity" v="kindergarten" />
		<tag k="capacity" v="50" />
		<tag k="contact:website" v="http://epleskogen.barnehage.no" />
		<tag k="max_age" v="5" />
		<tag k="min_age" v="1" />
		<tag k="name" v="Epleskogen barnehage" />
		<tag k="no-barnehage:nsrid" v="979698631" />
		<tag k="operator" v="Epleskogen barnehage SA" />
		<tag k="operator:type" v="private" />
	</node>
	<node lat="59.89777" lon="10.51336" id="-1970">
		<tag k="ADDRESS" v="Stanga 16, 1346 GJETTUM" />
		<tag k="amenity" v="kindergarten" />
		<tag k="capacity" v="57" />
		<tag k="max_age" v="5" />
		<tag k="min_age" v="1" />
		<tag k="name" v="Espira Evje barnehage" />
		<tag k="no-barnehage:nsrid" v="981007816" />
		<tag k="operator" v="Espira Evje AS" />
		<tag k="operator:type" v="private" />
	</node>
	<node lat="59.898" lon="10.57637" id="-1971">
		<tag k="ADDRESS" v="Fjordveien 1, 1363 HØVIK" />
		<tag k="amenity" v="kindergarten" />
		<tag k="capacity" v="131" />
		<tag k="contact:website" v="http://www.fjordveienbarnehage.no" />
		<tag k="max_age" v="5" />
		<tag k="min_age" v="1" />
		<tag k="name" v="Fjordveien barnehage" />
		<tag k="no-barnehage:nsrid" v="915616518" />
		<tag k="operator" v="Fjordveien barnehage AS" />
		<tag k="operator:type" v="private" />
	</node>
	<node lat="59.87709" lon="10.60554" id="-1972">
		<tag k="ADDRESS" v="Fürstveien 46, 1367 SNARØYA" />
		<tag k="amenity" v="kindergarten" />
		<tag k="capacity" v="36" />
		<tag k="max_age" v="5" />
		<tag k="min_age" v="1" />
		<tag k="name" v="Flåklypa barnehage" />
		<tag k="no-barnehage:nsrid" v="973598430" />
		<tag k="operator" v="Snarøya Kvinne- og Familielag" />
		<tag k="operator:type" v="private" />
	</node>
	<node lat="59.9226" lon="10.57715" id="-1973">
		<tag k="ADDRESS" v="Furuveien 1, 1356 BEKKESTUA" />
		<tag k="amenity" v="kindergarten" />
		<tag k="capacity" v="40" />
		<tag k="contact:website" v="http://www.furubarnehage.no" />
		<tag k="max_age" v="5" />
		<tag k="min_age" v="1" />
		<tag k="name" v="Furu barnehage" />
		<tag k="no-barnehage:nsrid" v="987644788" />
		<tag k="operator" v="Furu barnehage AS" />
		<tag k="operator:type" v="private" />
	</node>
	<node lat="59.91346" lon="10.5919" id="-1974">
		<tag k="ADDRESS" v="Gartnerveien 8, 1356 BEKKESTUA" />
		<tag k="amenity" v="kindergarten" />
		<tag k="capacity" v="10" />
		<tag k="max_age" v="5" />
		<tag k="min_age" v="1" />
		<tag k="name" v="Gartnerveien barnehage" />
		<tag k="no-barnehage:nsrid" v="973337785" />
		<tag k="operator" v="Bærum kommune" />
		<tag k="operator:type" v="public" />
	</node>
	<node lat="59.90885" lon="10.53046" id="-1975">
		<tag k="ADDRESS" v="Gjettumveien 75, 1346 GJETTUM" />
		<tag k="amenity" v="kindergarten" />
		<tag k="capacity" v="56" />
		<tag k="contact:website" v="http://www.gjettumbarnehage.no" />
		<tag k="max_age" v="5" />
		<tag k="min_age" v="1" />
		<tag k="name" v="Gjettum barnehage" />
		<tag k="no-barnehage:nsrid" v="974891778" />
		<tag k="operator" v="Gjettum barnehage SA" />
		<tag k="operator:type" v="private" />
	</node>
	<node lat="59.90578" lon="10.53053" id="-1976">
		<tag k="ADDRESS" v="Gjettumtunet 10, 1346 GJETTUM" />
		<tag k="amenity" v="kindergarten" />
		<tag k="capacity" v="92" />
		<tag k="max_age" v="5" />
		<tag k="min_age" v="1" />
		<tag k="name" v="Gjettumkollen barnehage" />
		<tag k="no-barnehage:nsrid" v="929422295" />
		<tag k="operator" v="Bærum kommune" />
		<tag k="operator:type" v="public" />
	</node>
	<node lat="59.92975" lon="10.48768" id="-1977">
		<tag k="ADDRESS" v="Belsetveien 84, 1348 RYKKINN" />
		<tag k="amenity" v="kindergarten" />
		<tag k="capacity" v="54" />
		<tag k="max_age" v="5" />
		<tag k="min_age" v="1" />
		<tag k="name" v="Glitre barnehage avd. Bakkeplassen" />
		<tag k="no-barnehage:nsrid" v="974553880" />
		<tag k="operator" v="Bærum kommune" />
		<tag k="operator:type" v="public" />
	</node>
	<node lat="59.92785" lon="10.49205" id="-1978">
		<tag k="ADDRESS" v="Langleiken 6, 1348 RYKKINN" />
		<tag k="amenity" v="kindergarten" />
		<tag k="capacity" v="54" />
		<tag k="max_age" v="5" />
		<tag k="min_age" v="1" />
		<tag k="name" v="Glitre barnehage avd. Langeleiken" />
		<tag k="no-barnehage:nsrid" v="974553929" />
		<tag k="operator" v="Bærum kommune" />
		<tag k="operator:type" v="public" />
	</node>
	<node lat="59.92958" lon="10.50123" id="-1979">
		<tag k="ADDRESS" v="Åsbråtan 75, 1352 KOLSÅS" />
		<tag k="amenity" v="kindergarten" />
		<tag k="capacity" v="40" />
		<tag k="max_age" v="5" />
		<tag k="min_age" v="1" />
		<tag k="name" v="Glitre barnehage avd. Løkenlia" />
		<tag k="no-barnehage:nsrid" v="974554119" />
		<tag k="operator" v="Bærum kommune" />
		<tag k="operator:type" v="public" />
	</node>
	<node lat="59.92586" lon="10.49954" id="-1980">
		<tag k="ADDRESS" v="Steinsoppgrenda 50, 1352 KOLSÅS" />
		<tag k="amenity" v="kindergarten" />
		<tag k="capacity" v="12" />
		<tag k="max_age" v="5" />
		<tag k="min_age" v="3" />
		<tag k="name" v="Glitre barnehage avd. Soppen" />
		<tag k="no-barnehage:nsrid" v="993162604" />
		<tag k="operator" v="Bærum kommune" />
		<tag k="operator:type" v="public" />
	</node>
	<node lat="59.92861" lon="10.48146" id="-1981">
		<tag k="ADDRESS" v="Skytten 24, 1348 RYKKINN" />
		<tag k="amenity" v="kindergarten" />
		<tag k="capacity" v="88" />
		<tag k="max_age" v="5" />
		<tag k="min_age" v="1" />
		<tag k="name" v="Gommerud barnehage" />
		<tag k="no-barnehage:nsrid" v="974553775" />
		<tag k="operator" v="Bærum kommune" />
		<tag k="operator:type" v="public" />
	</node>
	<node lat="59.93201" lon="10.60253" id="-1982">
		<tag k="ADDRESS" v="Fagertunveien 120, 1358 JAR" />
		<tag k="amenity" v="kindergarten" />
		<tag k="capacity" v="53" />
		<tag k="contact:website" v="http://www.baerum.kommune.no/tjenester/barnehage/alle-barnehager/grav-barnehage/" />
		<tag k="max_age" v="5" />
		<tag k="min_age" v="1" />
		<tag k="name" v="Grav barnehage avd. Liom" />
		<tag k="no-barnehage:nsrid" v="974553791" />
		<tag k="operator" v="Bærum kommune" />
		<tag k="operator:type" v="public" />
	</node>
	<node lat="59.93414" lon="10.62176" id="-1983">
		<tag k="ADDRESS" v="Lindebergveien 2B, 1358 JAR" />
		<tag k="amenity" v="kindergarten" />
		<tag k="capacity" v="17" />
		<tag k="max_age" v="5" />
		<tag k="min_age" v="1" />
		<tag k="name" v="Grav barnehage avd. Øvrevoll" />
		<tag k="no-barnehage:nsrid" v="973336460" />
		<tag k="operator" v="Bærum kommune" />
		<tag k="operator:type" v="public" />
	</node>
	<node lat="59.94441" lon="10.49409" id="-1984">
		<tag k="ADDRESS" v="Grindaberget 1, 1354 BÆRUMS VERK" />
		<tag k="amenity" v="kindergarten" />
		<tag k="capacity" v="54" />
		<tag k="contact:website" v="http://www.grindaberget.no" />
		<tag k="max_age" v="5" />
		<tag k="min_age" v="1" />
		<tag k="name" v="Grindaberget barnehage" />
		<tag k="no-barnehage:nsrid" v="976056957" />
		<tag k="operator" v="Grindaberget barnehage SA" />
		<tag k="operator:type" v="private" />
	</node>
	<node lat="59.94743" lon="10.62134" id="-1986">
		<tag k="ADDRESS" v="Niels Leuchs vei 52, 1359 EIKSMARKA" />
		<tag k="amenity" v="kindergarten" />
		<tag k="capacity" v="55" />
		<tag k="contact:website" v="http://www.baerum.kommune.no/grini" />
		<tag k="max_age" v="5" />
		<tag k="min_age" v="1" />
		<tag k="name" v="Grini barnehage avd. Briskehaugen" />
		<tag k="no-barnehage:nsrid" v="974554151" />
		<tag k="operator" v="Bærum kommune" />
		<tag k="operator:type" v="public" />
	</node>
	<node lat="59.95898" lon="10.62691" id="-1987">
		<tag k="ADDRESS" v="Fossumbakken 11, 1359 EIKSMARKA" />
		<tag k="amenity" v="kindergarten" />
		<tag k="capacity" v="26" />
		<tag k="contact:website" v="http://www.baerum.kommune.no/grini" />
		<tag k="max_age" v="5" />
		<tag k="min_age" v="1" />
		<tag k="name" v="Grini barnehage avd. Fossum" />
		<tag k="no-barnehage:nsrid" v="974554194" />
		<tag k="operator" v="Bærum kommune" />
		<tag k="operator:type" v="public" />
	</node>
	<node lat="59.94099" lon="10.49303" id="-1988">
		<tag k="ADDRESS" v="Gullhaugveien 133C, 1354 BÆRUMS VERK" />
		<tag k="amenity" v="kindergarten" />
		<tag k="capacity" v="38" />
		<tag k="max_age" v="5" />
		<tag k="min_age" v="1" />
		<tag k="name" v="Gullhaug barnehage" />
		<tag k="no-barnehage:nsrid" v="974553805" />
		<tag k="operator" v="Bærum kommune" />
		<tag k="operator:type" v="public" />
	</node>
	<node lat="59.91467" lon="10.56701" id="-1991">
		<tag k="ADDRESS" v="Bjørnemyrsveien 89, 1344 HASLUM" />
		<tag k="amenity" v="kindergarten" />
		<tag k="capacity" v="28" />
		<tag k="max_age" v="5" />
		<tag k="min_age" v="1" />
		<tag k="name" v="Haslum barnehage avd. Nedre Haslum" />
		<tag k="no-barnehage:nsrid" v="995849658" />
		<tag k="operator" v="Bærum kommune" />
		<tag k="operator:type" v="public" />
	</node>
	<node lat="59.91408" lon="10.56819" id="-1992">
		<tag k="ADDRESS" v="Bjørnemyrsveien 67, 1344 HASLUM" />
		<tag k="amenity" v="kindergarten" />
		<tag k="capacity" v="54" />
		<tag k="max_age" v="5" />
		<tag k="min_age" v="3" />
		<tag k="name" v="Haslum barnehage avd. Øvre Haslum" />
		<tag k="no-barnehage:nsrid" v="974186829" />
		<tag k="operator" v="Bærum kommune" />
		<tag k="operator:type" v="public" />
	</node>
	<node lat="59.90239" lon="10.51357" id="-1993">
		<tag k="ADDRESS" v="Sogneprest Munthe-Kaas vei 1, 1346 GJETTUM" />
		<tag k="amenity" v="kindergarten" />
		<tag k="capacity" v="19" />
		<tag k="contact:website" v="http://helgerudmenighet.barnehage.no" />
		<tag k="max_age" v="5" />
		<tag k="min_age" v="1" />
		<tag k="name" v="Helgerud menighets barnehage" />
		<tag k="no-barnehage:nsrid" v="973469207" />
		<tag k="operator" v="Helgerud menighetsbarnehage AS" />
		<tag k="operator:type" v="private" />
	</node>
	<node lat="59.94392" lon="10.51355" id="-1994">
		<tag k="ADDRESS" v="Skollerudveien 41, 1353 BÆRUMS VERK" />
		<tag k="amenity" v="kindergarten" />
		<tag k="capacity" v="41" />
		<tag k="max_age" v="5" />
		<tag k="min_age" v="1" />
		<tag k="name" v="Helset barnehage avd. Helset" />
		<tag k="no-barnehage:nsrid" v="974554240" />
		<tag k="operator" v="Bærum kommune" />
		<tag k="operator:type" v="public" />
	</node>
	<node lat="59.94693" lon="10.51464" id="-1995">
		<tag k="ADDRESS" v="Skollerudveien 71, 1353 BÆRUMS VERK" />
		<tag k="amenity" v="kindergarten" />
		<tag k="capacity" v="55" />
		<tag k="max_age" v="5" />
		<tag k="min_age" v="1" />
		<tag k="name" v="Helset barnehage avd. Skollerudveien" />
		<tag k="no-barnehage:nsrid" v="974554291" />
		<tag k="operator" v="Bærum kommune" />
		<tag k="operator:type" v="public" />
	</node>
	<node lat="59.91519" lon="10.46605" id="-1996">
		<tag k="ADDRESS" v="Ringeriksveien 188A, 1339 VØYENENGA" />
		<tag k="amenity" v="kindergarten" />
		<tag k="capacity" v="171" />
		<tag k="max_age" v="5" />
		<tag k="min_age" v="1" />
		<tag k="name" v="Hornienga FUS barnehage" />
		<tag k="no-barnehage:nsrid" v="993233994" />
		<tag k="operator" v="Hornienga Fus barnehage AS" />
		<tag k="operator:type" v="private" />
	</node>
	<node lat="59.93567" lon="10.58662" id="-1997">
		<tag k="ADDRESS" v="Granåsen 11, 1362 HOSLE" />
		<tag k="amenity" v="kindergarten" />
		<tag k="capacity" v="79" />
		<tag k="max_age" v="5" />
		<tag k="min_age" v="1" />
		<tag k="name" v="Hosle barnehage avd. Hosle" />
		<tag k="no-barnehage:nsrid" v="987805420" />
		<tag k="operator" v="Bærum kommune" />
		<tag k="operator:type" v="public" />
	</node>
	<node lat="59.89015" lon="10.6215" id="-1998">
		<tag k="ADDRESS" v="Snarøyveien 81, 1364 FORNEBU" />
		<tag k="amenity" v="kindergarten" />
		<tag k="capacity" v="108" />
		<tag k="max_age" v="5" />
		<tag k="min_age" v="1" />
		<tag k="name" v="Hundsund barnehage" />
		<tag k="no-barnehage:nsrid" v="992382643" />
		<tag k="operator" v="Bærum kommune" />
		<tag k="operator:type" v="public" />
	</node>
	<node lat="59.90259" lon="10.57315" id="-1999">
		<tag k="ADDRESS" v="Gamle Drammensvei 113, 1363 HØVIK" />
		<tag k="amenity" v="kindergarten" />
		<tag k="capacity" v="114" />
		<tag k="max_age" v="5" />
		<tag k="min_age" v="1" />
		<tag k="name" v="Høvik barnehage Hovedhus" />
		<tag k="no-barnehage:nsrid" v="974553872" />
		<tag k="operator" v="Bærum kommune" />
		<tag k="operator:type" v="public" />
	</node>
	<node lat="59.88923" lon="10.51598" id="-2000">
		<tag k="ADDRESS" v="Jongsåsveien 2, 1337 SANDVIKA" />
		<tag k="amenity" v="kindergarten" />
		<tag k="capacity" v="23" />
		<tag k="max_age" v="5" />
		<tag k="min_age" v="1" />
		<tag k="name" v="International Montessori Preschool barnehage" />
		<tag k="no-barnehage:nsrid" v="973455079" />
		<tag k="operator" v="International Montessori Preschool SA" />
		<tag k="operator:type" v="private" />
	</node>
	<node lat="59.91945" lon="10.61102" id="-2001">
		<tag k="ADDRESS" v="Trudvangveien 15, 1358 JAR" />
		<tag k="amenity" v="kindergarten" />
		<tag k="capacity" v="57" />
		<tag k="max_age" v="5" />
		<tag k="min_age" v="1" />
		<tag k="name" v="Jar FUS barnehage" />
		<tag k="no-barnehage:nsrid" v="990387915" />
		<tag k="operator" v="Jar Fus barnehage AS" />
		<tag k="operator:type" v="private" />
	</node>
	<node lat="59.92054" lon="10.62473" id="-2002">
		<tag k="ADDRESS" v="Storengveien 3, 1358 JAR" />
		<tag k="amenity" v="kindergarten" />
		<tag k="capacity" v="168" />
		<tag k="max_age" v="5" />
		<tag k="min_age" v="1" />
		<tag k="name" v="Jarenga barnehage" />
		<tag k="no-barnehage:nsrid" v="992255862" />
		<tag k="operator" v="Bærum kommune" />
		<tag k="operator:type" v="public" />
	</node>
	<node lat="59.88674" lon="10.50898" id="-2003">
		<tag k="ADDRESS" v="Jongssvingen 1, 1337 SANDVIKA" />
		<tag k="amenity" v="kindergarten" />
		<tag k="capacity" v="103" />
		<tag k="max_age" v="5" />
		<tag k="min_age" v="1" />
		<tag k="name" v="Jongskollen barnehage" />
		<tag k="no-barnehage:nsrid" v="974554178" />
		<tag k="operator" v="Bærum kommune" />
		<tag k="operator:type" v="public" />
	</node>
	<node lat="59.90649" lon="10.47477" id="-2004">
		<tag k="ADDRESS" v="Borkenveien 41, 1339 VØYENENGA" />
		<tag k="amenity" v="kindergarten" />
		<tag k="capacity" v="34" />
		<tag k="contact:website" v="http://www.kbfb.no" />
		<tag k="max_age" v="5" />
		<tag k="min_age" v="1" />
		<tag k="name" v="Kirkerudbakken barnehage" />
		<tag k="no-barnehage:nsrid" v="973471686" />
		<tag k="operator" v="Kirkerudbakken friluftsbarnehage SA" />
		<tag k="operator:type" v="private" />
	</node>
	<node lat="59.89454" lon="10.57147" id="-2005">
		<tag k="ADDRESS" v="Skogstuveien 20, 1363 HØVIK" />
		<tag k="amenity" v="kindergarten" />
		<tag k="capacity" v="26" />
		<tag k="contact:website" v="http://kloverenga.barnehage.no" />
		<tag k="max_age" v="5" />
		<tag k="min_age" v="1" />
		<tag k="name" v="Kløverenga barnehage" />
		<tag k="no-barnehage:nsrid" v="974143097" />
		<tag k="operator" v="Kløverenga Kvinne- og Familielag" />
		<tag k="operator:type" v="private" />
	</node>
	<node lat="59.91439" lon="10.50875" id="-2006">
		<tag k="ADDRESS" v="Gabbroveien 15, 1352 KOLSÅS" />
		<tag k="amenity" v="kindergarten" />
		<tag k="capacity" v="69" />
		<tag k="max_age" v="5" />
		<tag k="min_age" v="3" />
		<tag k="name" v="Kolsås barnehage avd. Hovedhuset" />
		<tag k="no-barnehage:nsrid" v="974553910" />
		<tag k="operator" v="Bærum kommune" />
		<tag k="operator:type" v="public" />
	</node>
	<node lat="59.91439" lon="10.50875" id="-2007">
		<tag k="ADDRESS" v="Gabbroveien 15, 1352 KOLSÅS" />
		<tag k="amenity" v="kindergarten" />
		<tag k="capacity" v="28" />
		<tag k="max_age" v="2" />
		<tag k="min_age" v="1" />
		<tag k="name" v="Kolsås barnehage avd. Småbarnshuset" />
		<tag k="no-barnehage:nsrid" v="990619360" />
		<tag k="operator" v="Bærum kommune" />
		<tag k="operator:type" v="public" />
	</node>
	<node lat="0.0" lon="0.0" id="-2008">
		<tag k="ADDRESS" v="Kolsås leir Rødskiferveien 20, 1352 KOLSÅS" />
		<tag k="amenity" v="kindergarten" />
		<tag k="capacity" v="51" />
		<tag k="contact:website" v="http://www.kolsastrollet.no" />
		<tag k="max_age" v="5" />
		<tag k="min_age" v="1" />
		<tag k="name" v="Kolsåstrollet barnehage" />
		<tag k="no-barnehage:nsrid" v="982291127" />
		<tag k="operator" v="Kolsåstrollet barnehage" />
		<tag k="operator:type" v="private" />
	</node>
	<node lat="59.9369" lon="10.61271" id="-2009">
		<tag k="ADDRESS" v="General Fleischers vei 1, 1359 EIKSMARKA" />
		<tag k="amenity" v="kindergarten" />
		<tag k="capacity" v="28" />
		<tag k="max_age" v="5" />
		<tag k="min_age" v="1" />
		<tag k="name" v="Lijordet barnehage" />
		<tag k="no-barnehage:nsrid" v="973336452" />
		<tag k="operator" v="Eikeli-Lijordet Kvinne- og Familielag" />
		<tag k="operator:type" v="private" />
	</node>
	<node lat="59.90508" lon="10.54462" id="-2012">
		<tag k="ADDRESS" v="Vierveien 29, 1344 HASLUM" />
		<tag k="amenity" v="kindergarten" />
		<tag k="capacity" v="90" />
		<tag k="max_age" v="5" />
		<tag k="min_age" v="1" />
		<tag k="name" v="Lillehagen barnehage" />
		<tag k="no-barnehage:nsrid" v="874180882" />
		<tag k="operator" v="Bærum kommune" />
		<tag k="operator:type" v="public" />
	</node>
	<node lat="59.89146" lon="10.49054" id="-2013">
		<tag k="ADDRESS" v="Lars Jongs vei 52, 1341 SLEPENDEN" />
		<tag k="amenity" v="kindergarten" />
		<tag k="capacity" v="18" />
		<tag k="contact:website" v="http://www.lillejong.no" />
		<tag k="max_age" v="2" />
		<tag k="min_age" v="1" />
		<tag k="name" v="Lille-jong barnehage" />
		<tag k="no-barnehage:nsrid" v="973999389" />
		<tag k="operator" v="Lille-Jong barnehage SA" />
		<tag k="operator:type" v="private" />
	</node>
	<node lat="59.95534" lon="10.48157" id="-2015">
		<tag k="ADDRESS" v="Gamleveien 86, 1350 LOMMEDALEN" />
		<tag k="amenity" v="kindergarten" />
		<tag k="capacity" v="50" />
		<tag k="contact:website" v="http://www.baerum.kommune.no/tjenester/barnehage/alle-barnehager/lommedalen-barnehage/" />
		<tag k="max_age" v="5" />
		<tag k="min_age" v="1" />
		<tag k="name" v="Lommedalen barnehage" />
		<tag k="no-barnehage:nsrid" v="974553953" />
		<tag k="operator" v="Bærum kommune" />
		<tag k="operator:type" v="public" />
	</node>
	<node lat="59.9537" lon="10.5018" id="-2016">
		<tag k="ADDRESS" v="Skollerudveien 100A, 1350 LOMMEDALEN" />
		<tag k="amenity" v="kindergarten" />
		<tag k="capacity" v="18" />
		<tag k="contact:website" v="http://www.lommedalenmenighetsbarnehage.no" />
		<tag k="max_age" v="5" />
		<tag k="min_age" v="1" />
		<tag k="name" v="Lommedalen menighets barnehage" />
		<tag k="no-barnehage:nsrid" v="981232232" />
		<tag k="operator" v="Lommedalen Sokn" />
		<tag k="operator:type" v="private" />
	</node>
	<node lat="59.89312" lon="10.61031" id="-2017">
		<tag k="ADDRESS" v="Bjørnenga 1, 1364 FORNEBU" />
		<tag k="amenity" v="kindergarten" />
		<tag k="capacity" v="141" />
		<tag k="contact:website" v="http://www.laringsverkstdet.no" />
		<tag k="max_age" v="5" />
		<tag k="min_age" v="1" />
		<tag k="name" v="Læringsverkstedet Fornebu idrettsbarnehage" />
		<tag k="no-barnehage:nsrid" v="815366832" />
		<tag k="operator" v="Læringsverkstedet Fornebu idrettsbarnehage AS" />
		<tag k="operator:type" v="private" />
	</node>
	<node lat="59.91608" lon="10.57248" id="-2018">
		<tag k="ADDRESS" v="Gjønnesjordet 36, 1357 BEKKESTUA" />
		<tag k="amenity" v="kindergarten" />
		<tag k="capacity" v="108" />
		<tag k="max_age" v="5" />
		<tag k="min_age" v="1" />
		<tag k="name" v="Læringsverkstedet Haslum idrettsbarnehage" />
		<tag k="no-barnehage:nsrid" v="992413034" />
		<tag k="operator" v="Læringsverkstedet Haslum idrettsbarnehage AS" />
		<tag k="operator:type" v="private" />
	</node>
	<node lat="59.92474" lon="10.61265" id="-2019">
		<tag k="ADDRESS" v="Bærumsveien 126, 1358 JAR" />
		<tag k="amenity" v="kindergarten" />
		<tag k="capacity" v="96" />
		<tag k="contact:website" v="http://laringsverkstedet.no/barnehage/jar-idrettsbarnehage" />
		<tag k="max_age" v="5" />
		<tag k="min_age" v="1" />
		<tag k="name" v="Læringsverkstedet Jar idrettsbarnehage" />
		<tag k="no-barnehage:nsrid" v="999640869" />
		<tag k="operator" v="Læringsverkstedet Jar idrettsbarnehage AS" />
		<tag k="operator:type" v="private" />
	</node>
	<node lat="59.90704" lon="10.62755" id="-2020">
		<tag k="ADDRESS" v="Fornebuveien 39, 1366 LYSAKER" />
		<tag k="amenity" v="kindergarten" />
		<tag k="capacity" v="94" />
		<tag k="max_age" v="5" />
		<tag k="min_age" v="1" />
		<tag k="name" v="Læringsverkstedet Lysaker idrettsbarnehage" />
		<tag k="no-barnehage:nsrid" v="995967707" />
		<tag k="operator" v="Læringsverkstedet Lysaker idrettsbarnehage AS" />
		<tag k="operator:type" v="private" />
	</node>
	<node lat="59.94373" lon="10.59834" id="-2021">
		<tag k="ADDRESS" v="Fredheimlia 45, 1362 HOSLE" />
		<tag k="amenity" v="kindergarten" />
		<tag k="capacity" v="104" />
		<tag k="max_age" v="5" />
		<tag k="min_age" v="1" />
		<tag k="name" v="Lønnås barnehage" />
		<tag k="no-barnehage:nsrid" v="974553899" />
		<tag k="operator" v="Bærum kommune" />
		<tag k="operator:type" v="public" />
	</node>
	<node lat="59.90158" lon="10.48965" id="-2022">
		<tag k="ADDRESS" v="Åses vei 75, 1336 SANDVIKA" />
		<tag k="amenity" v="kindergarten" />
		<tag k="capacity" v="50" />
		<tag k="max_age" v="5" />
		<tag k="min_age" v="1" />
		<tag k="name" v="Marihøna barnehage" />
		<tag k="no-barnehage:nsrid" v="973999427" />
		<tag k="operator" v="Marihøna barnehage SA" />
		<tag k="operator:type" v="private" />
	</node>
	<node lat="59.89787" lon="10.50737" id="-2023">
		<tag k="ADDRESS" v="Dønskiveien 8, 1346 GJETTUM" />
		<tag k="amenity" v="kindergarten" />
		<tag k="capacity" v="54" />
		<tag k="max_age" v="5" />
		<tag k="min_age" v="1" />
		<tag k="name" v="Martina Hansens hospital personalbarnehagen" />
		<tag k="no-barnehage:nsrid" v="874116572" />
		<tag k="operator" v="Martina Hansens hospital AS" />
		<tag k="operator:type" v="private" />
	</node>
	<node lat="59.91887" lon="10.57094" id="-2024">
		<tag k="ADDRESS" v="Tvetermyra 23, 1344 HASLUM" />
		<tag k="amenity" v="kindergarten" />
		<tag k="capacity" v="14" />
		<tag k="max_age" v="2" />
		<tag k="min_age" v="1" />
		<tag k="name" v="Myrsnipa FUS barnehage" />
		<tag k="no-barnehage:nsrid" v="923531394" />
		<tag k="operator" v="Myrsnipa Fus barnehage AS" />
		<tag k="operator:type" v="private" />
	</node>
	<node lat="0.0" lon="0.0" id="-2025">
		<tag k="ADDRESS" v="Øygardveien 49, 1357 BEKKESTUA" />
		<tag k="amenity" v="kindergarten" />
		<tag k="capacity" v="44" />
		<tag k="max_age" v="5" />
		<tag k="min_age" v="1" />
		<tag k="name" v="Nadderudskogen barnehage avd. Nadderud" />
		<tag k="no-barnehage:nsrid" v="974553740" />
		<tag k="operator" v="Bærum kommune" />
		<tag k="operator:type" v="public" />
	</node>
	<node lat="59.91937" lon="10.57459" id="-2026">
		<tag k="ADDRESS" v="Gjønnesskogen 26, 1356 BEKKESTUA" />
		<tag k="amenity" v="kindergarten" />
		<tag k="capacity" v="40" />
		<tag k="contact:website" v="http://www.baerum.kommune.no/tjenester/barnehage/alle-barnehager/nadderudskogen-barnehage/" />
		<tag k="max_age" v="5" />
		<tag k="min_age" v="1" />
		<tag k="name" v="Nadderudskogen barnehage avd. Gjønnesskogen" />
		<tag k="no-barnehage:nsrid" v="974554224" />
		<tag k="operator" v="Bærum kommune" />
		<tag k="operator:type" v="public" />
	</node>
	<node lat="59.89537" lon="10.6238" id="-2027">
		<tag k="ADDRESS" v="Forneburingen 225, 1364 FORNEBU" />
		<tag k="amenity" v="kindergarten" />
		<tag k="capacity" v="162" />
		<tag k="max_age" v="5" />
		<tag k="min_age" v="1" />
		<tag k="name" v="Nansenparken barnehage" />
		<tag k="no-barnehage:nsrid" v="974553848" />
		<tag k="operator" v="Bærum kommune" />
		<tag k="operator:type" v="public" />
	</node>
	<node lat="59.89392" lon="10.50905" id="-2028">
		<tag k="ADDRESS" v="Bjørnegårdsvingen 25, 1338 SANDVIKA" />
		<tag k="amenity" v="kindergarten" />
		<tag k="capacity" v="105" />
		<tag k="max_age" v="5" />
		<tag k="min_age" v="1" />
		<tag k="name" v="Norlandia Bjørnegårdssvingen barnehage" />
		<tag k="no-barnehage:nsrid" v="922401349" />
		<tag k="operator" v="Norlandia Bjørnegårdsvingen barnehage AS" />
		<tag k="operator:type" v="private" />
	</node>
	<node lat="59.89277" lon="10.569" id="-2029">
		<tag k="ADDRESS" v="Glassverkveien 32, 1363 HØVIK" />
		<tag k="amenity" v="kindergarten" />
		<tag k="capacity" v="104" />
		<tag k="max_age" v="5" />
		<tag k="min_age" v="1" />
		<tag k="name" v="Norlandia Glassverket barnehage" />
		<tag k="no-barnehage:nsrid" v="986136215" />
		<tag k="operator" v="Norlandia Glassverket barnehage AS" />
		<tag k="operator:type" v="private" />
	</node>
	<node lat="59.9242" lon="10.58761" id="-2030">
		<tag k="ADDRESS" v="Øygardveien 45, 1357 BEKKESTUA" />
		<tag k="amenity" v="kindergarten" />
		<tag k="capacity" v="95" />
		<tag k="contact:website" v="http://www.norlandiabarnehagene.no" />
		<tag k="max_age" v="5" />
		<tag k="min_age" v="1" />
		<tag k="name" v="Norlandia Huskestua barnehage" />
		<tag k="no-barnehage:nsrid" v="986136258" />
		<tag k="operator" v="Norlandia Huskestua barnehage AS" />
		<tag k="operator:type" v="private" />
	</node>
	<node lat="59.89368" lon="10.62928" id="-2031">
		<tag k="ADDRESS" v="Martin Linges vei 2, 1364 FORNEBU" />
		<tag k="amenity" v="kindergarten" />
		<tag k="capacity" v="101" />
		<tag k="contact:website" v="http://sjoflyhavna.norlandiabarnehagene.no" />
		<tag k="max_age" v="5" />
		<tag k="min_age" v="1" />
		<tag k="name" v="Norlandia Sjøflyhavna avd. barnehage" />
		<tag k="no-barnehage:nsrid" v="916092725" />
		<tag k="operator" v="Norlandia Sjøflyhavna AS" />
		<tag k="operator:type" v="private" />
	</node>
	<node lat="59.89171" lon="10.5607" id="-2052">
		<tag k="ADDRESS" v="Sonja Henies vei 14, 1363 HØVIK" />
		<tag k="amenity" v="kindergarten" />
		<tag k="capacity" v="75" />
		<tag k="contact:website" v="http://www.oddenskogen.barnehage.no" />
		<tag k="max_age" v="5" />
		<tag k="min_age" v="1" />
		<tag k="name" v="Oddenskogen barnehage" />
		<tag k="no-barnehage:nsrid" v="976134176" />
		<tag k="operator" v="Oddenskogen barnehage SA" />
		<tag k="operator:type" v="private" />
	</node>
	<node lat="59.89442" lon="10.61135" id="-2053">
		<tag k="ADDRESS" v="Forneburingen 140, 1364 FORNEBU" />
		<tag k="amenity" v="kindergarten" />
		<tag k="capacity" v="123" />
		<tag k="max_age" v="5" />
		<tag k="min_age" v="1" />
		<tag k="name" v="Oksenøya barnehage" />
		<tag k="no-barnehage:nsrid" v="928770745" />
		<tag k="operator" v="Bærum kommune" />
		<tag k="operator:type" v="public" />
	</node>
	<node lat="59.91107" lon="10.49234" id="-2054">
		<tag k="ADDRESS" v="Haganjordet 2, 1351 RUD" />
		<tag k="amenity" v="kindergarten" />
		<tag k="capacity" v="65" />
		<tag k="max_age" v="5" />
		<tag k="min_age" v="1" />
		<tag k="name" v="Piruetten Kanvas-barnehage" />
		<tag k="no-barnehage:nsrid" v="990940045" />
		<tag k="operator" v="Stiftelsen Kanvas" />
		<tag k="operator:type" v="private" />
	</node>
	<node lat="59.89565" lon="10.57587" id="-2055">
		<tag k="ADDRESS" v="Fjordveien 97, 1363 HØVIK" />
		<tag k="amenity" v="kindergarten" />
		<tag k="capacity" v="44" />
		<tag k="max_age" v="5" />
		<tag k="min_age" v="1" />
		<tag k="name" v="Plahtejordet barnehage" />
		<tag k="no-barnehage:nsrid" v="974553937" />
		<tag k="operator" v="Bærum kommune" />
		<tag k="operator:type" v="public" />
	</node>
	<node lat="59.96217" lon="10.47402" id="-2056">
		<tag k="ADDRESS" v="Gamleveien 141, 1350 LOMMEDALEN" />
		<tag k="amenity" v="kindergarten" />
		<tag k="capacity" v="97" />
		<tag k="contact:website" v="http://reddiken.kanvas.no" />
		<tag k="max_age" v="5" />
		<tag k="min_age" v="1" />
		<tag k="name" v="Reddiken Kanvas-barnehage" />
		<tag k="no-barnehage:nsrid" v="990839891" />
		<tag k="operator" v="Stiftelsen Kanvas" />
		<tag k="operator:type" v="private" />
	</node>
	<node lat="59.91627" lon="10.59322" id="-2057">
		<tag k="ADDRESS" v="Gamle Ringeriksvei 21A, 1356 BEKKESTUA" />
		<tag k="amenity" v="kindergarten" />
		<tag k="capacity" v="92" />
		<tag k="contact:website" v="http://fus.no/ringstabekk" />
		<tag k="max_age" v="5" />
		<tag k="min_age" v="1" />
		<tag k="name" v="Ringstabekk FUS barnehage" />
		<tag k="no-barnehage:nsrid" v="893581642" />
		<tag k="operator" v="Ringstabekk Fus barnehage AS" />
		<tag k="operator:type" v="private" />
	</node>
	<node lat="59.93411" lon="10.62735" id="-2059">
		<tag k="ADDRESS" v="Kvernveien 111, 1358 JAR" />
		<tag k="amenity" v="kindergarten" />
		<tag k="capacity" v="46" />
		<tag k="contact:website" v="http://www.ruglandveien.no" />
		<tag k="max_age" v="5" />
		<tag k="min_age" v="1" />
		<tag k="name" v="Ruglandveien barnehage" />
		<tag k="no-barnehage:nsrid" v="973449931" />
		<tag k="operator" v="Ruglandsveien barnehage SA" />
		<tag k="operator:type" v="private" />
	</node>
	<node lat="59.9457" lon="10.49436" id="-2060">
		<tag k="ADDRESS" v="Skarvaveien 101, 1350 LOMMEDALEN" />
		<tag k="amenity" v="kindergarten" />
		<tag k="capacity" v="17" />
		<tag k="contact:website" v="http://www.skarva-barnehage.no" />
		<tag k="max_age" v="5" />
		<tag k="min_age" v="1" />
		<tag k="name" v="Skarva grendehus avd. barnehage" />
		<tag k="no-barnehage:nsrid" v="974204592" />
		<tag k="operator" v="Skarva barnehage SA" />
		<tag k="operator:type" v="private" />
	</node>
	<node lat="59.92833" lon="10.62206" id="-2061">
		<tag k="ADDRESS" v="Ruglandveien 1, 1358 JAR" />
		<tag k="amenity" v="kindergarten" />
		<tag k="capacity" v="40" />
		<tag k="max_age" v="5" />
		<tag k="min_age" v="1" />
		<tag k="name" v="Skaubo barnehage" />
		<tag k="no-barnehage:nsrid" v="977561345" />
		<tag k="operator" v="Skaubo AS" />
		<tag k="operator:type" v="private" />
	</node>
	<node lat="59.90903" lon="10.59455" id="-2062">
		<tag k="ADDRESS" v="Skogtunet 2, 1369 STABEKK" />
		<tag k="amenity" v="kindergarten" />
		<tag k="capacity" v="41" />
		<tag k="max_age" v="5" />
		<tag k="min_age" v="1" />
		<tag k="name" v="Skogveien barnehage" />
		<tag k="no-barnehage:nsrid" v="974554259" />
		<tag k="operator" v="Bærum kommune" />
		<tag k="operator:type" v="public" />
	</node>
	<node lat="59.9452" lon="10.50428" id="-2063">
		<tag k="ADDRESS" v="Sleiverudåsen 3, 1354 BÆRUMS VERK" />
		<tag k="amenity" v="kindergarten" />
		<tag k="capacity" v="50" />
		<tag k="max_age" v="5" />
		<tag k="min_age" v="1" />
		<tag k="name" v="Sleiverud barnehage" />
		<tag k="no-barnehage:nsrid" v="974554267" />
		<tag k="operator" v="Bærum kommune" />
		<tag k="operator:type" v="public" />
	</node>
	<node lat="0.0" lon="0.0" id="-2064">
		<tag k="ADDRESS" v="Snarøyveien 147, 1367 SNARØYA" />
		<tag k="amenity" v="kindergarten" />
		<tag k="capacity" v="23" />
		<tag k="contact:website" v="http://www.snaroyabarnehage.no" />
		<tag k="max_age" v="5" />
		<tag k="min_age" v="1" />
		<tag k="name" v="Snarøya barnehage" />
		<tag k="no-barnehage:nsrid" v="973336436" />
		<tag k="operator" v="Snarøya barnehage AS" />
		<tag k="operator:type" v="private" />
	</node>
	<node lat="59.90379" lon="10.58878" id="-2065">
		<tag k="ADDRESS" v="Peter Loranges vei 15, 1369 STABEKK" />
		<tag k="amenity" v="kindergarten" />
		<tag k="capacity" v="42" />
		<tag k="max_age" v="5" />
		<tag k="min_age" v="1" />
		<tag k="name" v="Stabekk barnehage avd. Stabekk" />
		<tag k="no-barnehage:nsrid" v="974554186" />
		<tag k="operator" v="Bærum kommune" />
		<tag k="operator:type" v="public" />
	</node>
	<node lat="59.92941" lon="10.60432" id="-2066">
		<tag k="ADDRESS" v="Grav Gårdsvei 10, 1358 JAR" />
		<tag k="amenity" v="kindergarten" />
		<tag k="capacity" v="54" />
		<tag k="max_age" v="5" />
		<tag k="min_age" v="1" />
		<tag k="name" v="Stiftelsen Almeskogen Steinerbarnehage" />
		<tag k="no-barnehage:nsrid" v="974204622" />
		<tag k="operator" v="Stiftelsen Almeskogen steinerbarnehage" />
		<tag k="operator:type" v="private" />
	</node>
	<node lat="59.88904" lon="10.56072" id="-2067">
		<tag k="ADDRESS" v="Veritasveien 11, 1363 HØVIK" />
		<tag k="amenity" v="kindergarten" />
		<tag k="capacity" v="49" />
		<tag k="contact:website" v="http://www.dnvbarnehage.no" />
		<tag k="max_age" v="5" />
		<tag k="min_age" v="1" />
		<tag k="name" v="Stiftelsen Det Norske Veritas barnehage" />
		<tag k="no-barnehage:nsrid" v="983164765" />
		<tag k="operator" v="Stiftelsen Det Norske Veritas barnehage" />
		<tag k="operator:type" v="private" />
	</node>
	<node lat="59.87886" lon="10.4952" id="-2068">
		<tag k="ADDRESS" v="Åsløkkveien 41, 1341 SLEPENDEN" />
		<tag k="amenity" v="kindergarten" />
		<tag k="capacity" v="33" />
		<tag k="contact:website" v="http://sollia.barnehage.no" />
		<tag k="max_age" v="5" />
		<tag k="min_age" v="1" />
		<tag k="name" v="Stiftelsen Sollia barnehage" />
		<tag k="no-barnehage:nsrid" v="973500848" />
		<tag k="operator" v="Stiftelsen Sollia barnehage" />
		<tag k="operator:type" v="private" />
	</node>
	<node lat="59.90815" lon="10.60328" id="-2069">
		<tag k="ADDRESS" v="Jernbaneveien 11, 1369 STABEKK" />
		<tag k="amenity" v="kindergarten" />
		<tag k="capacity" v="38" />
		<tag k="contact:website" v="http://stabekktunet.no" />
		<tag k="max_age" v="5" />
		<tag k="min_age" v="1" />
		<tag k="name" v="Stiftelsen Stabekktunet barnehage" />
		<tag k="no-barnehage:nsrid" v="973931733" />
		<tag k="operator" v="Stiftelsen Stabekktunet barnehage" />
		<tag k="operator:type" v="private" />
	</node>
	<node lat="59.89442" lon="10.61135" id="-2070">
		<tag k="ADDRESS" v="Forneburingen 140, 1364 FORNEBU" />
		<tag k="amenity" v="kindergarten" />
		<tag k="capacity" v="100" />
		<tag k="max_age" v="5" />
		<tag k="min_age" v="1" />
		<tag k="name" v="Storøya barnehage" />
		<tag k="no-barnehage:nsrid" v="993593001" />
		<tag k="operator" v="Bærum kommune" />
		<tag k="operator:type" v="public" />
	</node>
	<node lat="59.89992" lon="10.59283" id="-2071">
		<tag k="ADDRESS" v="Strandalleen 59, 1368 STABEKK" />
		<tag k="amenity" v="kindergarten" />
		<tag k="capacity" v="48" />
		<tag k="contact:website" v="http://strand-barnehage.no" />
		<tag k="max_age" v="5" />
		<tag k="min_age" v="1" />
		<tag k="name" v="Strand barnehage" />
		<tag k="no-barnehage:nsrid" v="973445979" />
		<tag k="operator" v="Strand barnehage SA" />
		<tag k="operator:type" v="private" />
	</node>
	<node lat="59.9067" lon="10.47337" id="-2072">
		<tag k="ADDRESS" v="Borkenveien 45, 1339 VØYENENGA" />
		<tag k="amenity" v="kindergarten" />
		<tag k="capacity" v="30" />
		<tag k="contact:website" v="http://www.baerum.kommune.no/tjenester/barnehage/alle-barnehager/stavi-barnehage" />
		<tag k="max_age" v="5" />
		<tag k="min_age" v="1" />
		<tag k="name" v="Ståvi barnehage avd. Borkenhagen" />
		<tag k="no-barnehage:nsrid" v="974553821" />
		<tag k="operator" v="Bærum kommune" />
		<tag k="operator:type" v="public" />
	</node>
	<node lat="59.92599" lon="10.45137" id="-2073">
		<tag k="ADDRESS" v="Ringeriksveien 238, 1340 SKUI" />
		<tag k="amenity" v="kindergarten" />
		<tag k="capacity" v="31" />
		<tag k="max_age" v="5" />
		<tag k="min_age" v="1" />
		<tag k="name" v="Ståvi barnehage avd. Skui" />
		<tag k="no-barnehage:nsrid" v="974554208" />
		<tag k="operator" v="Bærum kommune" />
		<tag k="operator:type" v="public" />
	</node>
	<node lat="59.9111" lon="10.5814" id="-2075">
		<tag k="ADDRESS" v="Søråsen 20, 1356 BEKKESTUA" />
		<tag k="amenity" v="kindergarten" />
		<tag k="capacity" v="68" />
		<tag k="max_age" v="5" />
		<tag k="min_age" v="1" />
		<tag k="name" v="Søråsen barnehage" />
		<tag k="no-barnehage:nsrid" v="973483528" />
		<tag k="operator" v="Stiftelsen Søråsen barnehage" />
		<tag k="operator:type" v="private" />
	</node>
	<node lat="59.88405" lon="10.4751" id="-2076">
		<tag k="ADDRESS" v="Staverbråtan 5, 1341 SLEPENDEN" />
		<tag k="amenity" v="kindergarten" />
		<tag k="capacity" v="57" />
		<tag k="contact:website" v="http://fus.no/tanum" />
		<tag k="max_age" v="5" />
		<tag k="min_age" v="1" />
		<tag k="name" v="Tanum FUS barnehage" />
		<tag k="no-barnehage:nsrid" v="981428048" />
		<tag k="operator" v="Tanum Fus barnehage AS" />
		<tag k="operator:type" v="private" />
	</node>
	<node lat="59.91956" lon="10.58345" id="-2077">
		<tag k="ADDRESS" v="Gamle Ringeriksvei 53, 1357 BEKKESTUA" />
		<tag k="amenity" v="kindergarten" />
		<tag k="capacity" v="14" />
		<tag k="max_age" v="5" />
		<tag k="min_age" v="3" />
		<tag k="name" v="The International Kindergarten" />
		<tag k="no-barnehage:nsrid" v="991418776" />
		<tag k="operator" v="Stiftelse Oslo International School" />
		<tag k="operator:type" v="private" />
	</node>
	<node lat="59.93835" lon="10.51326" id="-2078">
		<tag k="ADDRESS" v="Øvre Toppenhaug 41, 1353 BÆRUMS VERK" />
		<tag k="amenity" v="kindergarten" />
		<tag k="capacity" v="41" />
		<tag k="contact:website" v="http://www.baerum.kommune.no/tjenester/barnehage/alle-barnehager/toppenhaug-barnehage-avdeling-ovre-toppenh" />
		<tag k="max_age" v="5" />
		<tag k="min_age" v="1" />
		<tag k="name" v="Toppenhaug barnehage avd. Øvre Toppenhaug" />
		<tag k="no-barnehage:nsrid" v="974554275" />
		<tag k="operator" v="Bærum kommune" />
		<tag k="operator:type" v="public" />
	</node>
	<node lat="59.94057" lon="10.50768" id="-2079">
		<tag k="ADDRESS" v="Nedre Toppenhaug 56, 1353 BÆRUMS VERK" />
		<tag k="amenity" v="kindergarten" />
		<tag k="capacity" v="39" />
		<tag k="contact:website" v="http://www.baerum.kommune.no/tjenester/barnehage/alle-barnehager/toppenhaug-barnehage/" />
		<tag k="max_age" v="5" />
		<tag k="min_age" v="1" />
		<tag k="name" v="Toppenhaug barnehage avd. Nedre Toppenhaug" />
		<tag k="no-barnehage:nsrid" v="974554232" />
		<tag k="operator" v="Bærum kommune" />
		<tag k="operator:type" v="public" />
	</node>
	<node lat="59.91879" lon="10.56861" id="-2080">
		<tag k="ADDRESS" v="Tveterveien 30J, 1344 HASLUM" />
		<tag k="amenity" v="kindergarten" />
		<tag k="capacity" v="78" />
		<tag k="contact:website" v="http://fus.no/tveterjordet" />
		<tag k="max_age" v="5" />
		<tag k="min_age" v="1" />
		<tag k="name" v="Tveterjordet FUS barnehage" />
		<tag k="no-barnehage:nsrid" v="915323642" />
		<tag k="operator" v="Tveterjordet Fus barnehage AS" />
		<tag k="operator:type" v="private" />
	</node>
	<node lat="59.91094" lon="10.62215" id="-2081">
		<tag k="ADDRESS" v="Fagerhøyveien 34, 1369 STABEKK" />
		<tag k="amenity" v="kindergarten" />
		<tag k="capacity" v="51" />
		<tag k="contact:website" v="http://www.toffebarnehage.no" />
		<tag k="max_age" v="5" />
		<tag k="min_age" v="1" />
		<tag k="name" v="Tøffe barnehage" />
		<tag k="no-barnehage:nsrid" v="973494422" />
		<tag k="operator" v="Tøffe barnehage SA" />
		<tag k="operator:type" v="private" />
	</node>
	<node lat="59.88762" lon="10.49503" id="-2082">
		<tag k="ADDRESS" v="Nedre Åsvei 39, 1341 SLEPENDEN" />
		<tag k="amenity" v="kindergarten" />
		<tag k="capacity" v="30" />
		<tag k="contact:website" v="http://veslefrikkbarnehage89@gmail.com" />
		<tag k="max_age" v="5" />
		<tag k="min_age" v="1" />
		<tag k="name" v="Veslefrikk barnehage" />
		<tag k="no-barnehage:nsrid" v="973461168" />
		<tag k="operator" v="Stiftelsen Veslefrikk barnehage" />
		<tag k="operator:type" v="private" />
	</node>
	<node lat="59.90712" lon="10.47909" id="-2083">
		<tag k="ADDRESS" v="Skuiveien 137, 1339 VØYENENGA" />
		<tag k="amenity" v="kindergarten" />
		<tag k="capacity" v="106" />
		<tag k="max_age" v="5" />
		<tag k="min_age" v="1" />
		<tag k="name" v="Vøyen FUS barnehage" />
		<tag k="no-barnehage:nsrid" v="916729375" />
		<tag k="operator" v="Vøyen Fus barnehage AS" />
		<tag k="operator:type" v="private" />
	</node>
	<node lat="59.94049" lon="10.61053" id="-2084">
		<tag k="ADDRESS" v="Eiksveien 100, 1361 ØSTERÅS" />
		<tag k="amenity" v="kindergarten" />
		<tag k="capacity" v="43" />
		<tag k="max_age" v="5" />
		<tag k="min_age" v="1" />
		<tag k="name" v="Østerås barnehage avd. Fururabben" />
		<tag k="no-barnehage:nsrid" v="874554162" />
		<tag k="operator" v="Bærum kommune" />
		<tag k="operator:type" v="public" />
	</node>
	<node lat="59.94043" lon="10.60698" id="-2085">
		<tag k="ADDRESS" v="Ovenbakken 10, 1361 ØSTERÅS" />
		<tag k="amenity" v="kindergarten" />
		<tag k="capacity" v="12" />
		<tag k="max_age" v="2" />
		<tag k="min_age" v="1" />
		<tag k="name" v="Østerås barnehage avd. Ovenbakken" />
		<tag k="no-barnehage:nsrid" v="987805331" />
		<tag k="operator" v="Bærum kommune" />
		<tag k="operator:type" v="public" />
	</node>
	<node lat="59.93913" lon="10.60761" id="-2086">
		<tag k="ADDRESS" v="Eiksveien 104, 1361 ØSTERÅS" />
		<tag k="amenity" v="kindergarten" />
		<tag k="capacity" v="114" />
		<tag k="max_age" v="5" />
		<tag k="min_age" v="1" />
		<tag k="name" v="Østerås barnehage" />
		<tag k="no-barnehage:nsrid" v="992328827" />
		<tag k="operator" v="Bærum kommune" />
		<tag k="operator:type" v="public" />
	</node>
	<node lat="59.92792" lon="10.60971" id="-2087">
		<tag k="ADDRESS" v="Bjerkelundsveien 31, 1358 JAR" />
		<tag k="amenity" v="kindergarten" />
		<tag k="capacity" v="35" />
		<tag k="contact:website" v="http://www.ostheimbarnehage.no" />
		<tag k="max_age" v="5" />
		<tag k="min_age" v="1" />
		<tag k="name" v="Østheim barnehage" />
		<tag k="no-barnehage:nsrid" v="973500791" />
		<tag k="operator" v="Østheim barnehage" />
		<tag k="operator:type" v="private" />
	</node>
	<node lat="0.0" lon="0.0" id="-2088">
		<tag k="ADDRESS" v="Gamle Ringeriksvei 125, 1356 BEKKESTUA" />
		<tag k="amenity" v="kindergarten" />
		<tag k="capacity" v="49" />
		<tag k="max_age" v="5" />
		<tag k="min_age" v="1" />
		<tag k="name" v="Øverland barnehage" />
		<tag k="no-barnehage:nsrid" v="976285964" />
		<tag k="operator" v="Øverland barnehage AS" />
		<tag k="operator:type" v="private" />
	</node>
	<node lat="59.88468" lon="10.49461" id="-2089">
		<tag k="ADDRESS" v="Gamle Tanumvei 44, 1341 SLEPENDEN" />
		<tag k="amenity" v="kindergarten" />
		<tag k="capacity" v="42" />
		<tag k="max_age" v="5" />
		<tag k="min_age" v="1" />
		<tag k="name" v="Ås barnehage avd. Vågebytoppen" />
		<tag k="no-barnehage:nsrid" v="974554143" />
		<tag k="operator" v="Bærum kommune" />
		<tag k="operator:type" v="public" />
	</node>
	<node lat="59.89146" lon="10.49054" id="-2090">
		<tag k="ADDRESS" v="Lars Jongs vei 52, 1341 SLEPENDEN" />
		<tag k="amenity" v="kindergarten" />
		<tag k="capacity" v="61" />
		<tag k="max_age" v="5" />
		<tag k="min_age" v="1" />
		<tag k="name" v="Ås barnehage avd. Vestre Jong" />
		<tag k="no-barnehage:nsrid" v="974554305" />
		<tag k="operator" v="Bærum kommune" />
		<tag k="operator:type" v="public" />
	</node>
	<node lat="59.92463" lon="10.55338" id="-2091">
		<tag k="ADDRESS" v="Åsterudveien 27, 1344 HASLUM" />
		<tag k="amenity" v="kindergarten" />
		<tag k="capacity" v="42" />
		<tag k="max_age" v="5" />
		<tag k="min_age" v="1" />
		<tag k="name" v="Åsterud barnehage avd. Åsterudveien" />
		<tag k="no-barnehage:nsrid" v="974554135" />
		<tag k="operator" v="Bærum kommune" />
		<tag k="operator:type" v="public" />
	</node>
</osm>
