<?xml version="1.0" encoding="UTF-8"?>
<osm generator="osmapis" version="0.6">
	<node id="-3168" lat="59.1821" lon="5.19387">
		<tag k="ADDRESS" v="Vestre Karmøyveg 780, 4272 SANDVE" />
		<tag k="amenity" v="kindergarten" />
		<tag k="name" v="Nina Mjølhus" />
		<tag k="no-barnehage:nsrid" v="1022097" />
		<tag k="operator" v="Nina Mjølhus" />
		<tag k="operator:type" v="private" />
	</node>
	<node id="-3167" lat="59.20776" lon="5.18411">
		<tag k="ADDRESS" v="Sjerpevegen 100, 4274 STOL" />
		<tag k="amenity" v="kindergarten" />
		<tag k="contact:website" v="http://kyrkjebakken.vigilo.no" />
		<tag k="max_age" v="5" />
		<tag k="min_age" v="1" />
		<tag k="name" v="Kyrkjebakken barnehage" />
		<tag k="no-barnehage:nsrid" v="1019968" />
		<tag k="operator" v="Kyrkjebakken barnehage" />
		<tag k="operator:type" v="private" />
	</node>
	<node id="-3166" lat="59.32518" lon="5.20717">
		<tag k="ADDRESS" v="Kalstøvegen 25, 4264 KVALAVÅG" />
		<tag k="amenity" v="kindergarten" />
		<tag k="contact:website" v="http://www.minbarnehage.no/kvalavagbhg" />
		<tag k="max_age" v="5" />
		<tag k="min_age" v="1" />
		<tag k="name" v="Kvalavåg barnehage" />
		<tag k="no-barnehage:nsrid" v="1019737" />
		<tag k="operator" v="Kvalavåg barnehage" />
		<tag k="operator:type" v="private" />
	</node>
	<node id="-3165" lat="59.25648" lon="5.19524">
		<tag k="ADDRESS" v="Skulevegen 4, 4270 ÅKREHAMN" />
		<tag k="amenity" v="kindergarten" />
		<tag k="capacity" v="109" />
		<tag k="max_age" v="5" />
		<tag k="min_age" v="1" />
		<tag k="name" v="Kirketunet barnehage" />
		<tag k="no-barnehage:nsrid" v="1015563" />
		<tag k="operator" v="Åkra Sokn" />
		<tag k="operator:type" v="private" />
	</node>
	<node id="-3164" lat="59.31809" lon="5.29024">
		<tag k="ADDRESS" v="Håvikvegen 60, 4265 HÅVIK" />
		<tag k="amenity" v="kindergarten" />
		<tag k="capacity" v="91" />
		<tag k="contact:website" v="http://www.eventyrhagen.com" />
		<tag k="max_age" v="5" />
		<tag k="min_age" v="1" />
		<tag k="name" v="Eventyrhagen barnehage" />
		<tag k="no-barnehage:nsrid" v="1020420" />
		<tag k="operator" v="Stiftelsen KF  nsattes barnehage" />
		<tag k="operator:type" v="private" />
	</node>
	<node id="-3163" lat="59.34787" lon="5.27827">
		<tag k="ADDRESS" v="Veldetunvegen 20, 4262 AVALDSNES" />
		<tag k="amenity" v="kindergarten" />
		<tag k="capacity" v="93" />
		<tag k="contact:website" v="http://veldetun.espira.no/" />
		<tag k="max_age" v="5" />
		<tag k="min_age" v="1" />
		<tag k="name" v="Espira Veldetun barnehage" />
		<tag k="no-barnehage:nsrid" v="1020897" />
		<tag k="operator" v="Espira Veldetun AS" />
		<tag k="operator:type" v="private" />
	</node>
	<node id="-3162" lat="59.34198" lon="5.27307">
		<tag k="ADDRESS" v="Helganesvegen 47, 4262 AVALDSNES" />
		<tag k="amenity" v="kindergarten" />
		<tag k="capacity" v="76" />
		<tag k="contact:website" v="http://www.espira.no" />
		<tag k="max_age" v="5" />
		<tag k="min_age" v="1" />
		<tag k="name" v="Casa Musica barnehage" />
		<tag k="no-barnehage:nsrid" v="1020776" />
		<tag k="operator" v="Espira Casa Musica barnehage AS" />
		<tag k="operator:type" v="private" />
	</node>
	<node id="-3173" lat="59.35688" lon="5.323">
		<tag k="ADDRESS" v="Steinhaugvegen 33, 5545 VORMEDAL" />
		<tag k="amenity" v="kindergarten" />
		<tag k="capacity" v="110" />
		<tag k="contact:website" v="http://vormedal.vigilo.no/web/index" />
		<tag k="max_age" v="5" />
		<tag k="min_age" v="1" />
		<tag k="name" v="Vormedal barnehage" />
		<tag k="no-barnehage:nsrid" v="1014728" />
		<tag k="operator" v="Karmøy kommune" />
		<tag k="operator:type" v="public" />
	</node>
	<node id="-3172" lat="59.28745" lon="5.24387">
		<tag k="ADDRESS" v="Slettavegen 124, 4276 VEAVÅGEN" />
		<tag k="amenity" v="kindergarten" />
		<tag k="capacity" v="61" />
		<tag k="contact:website" v="http://vea.vigilo.no/web/index" />
		<tag k="max_age" v="5" />
		<tag k="min_age" v="1" />
		<tag k="name" v="Vea barnehage" />
		<tag k="no-barnehage:nsrid" v="1015926" />
		<tag k="operator" v="Karmøy kommune" />
		<tag k="operator:type" v="public" />
	</node>
	<node id="-3171" lat="59.39032" lon="5.26344">
		<tag k="ADDRESS" v="Bjørgevegen 100, 4260 TORVASTAD" />
		<tag k="amenity" v="kindergarten" />
		<tag k="capacity" v="43" />
		<tag k="contact:website" v="http://storesund.vigilo.no/web/index" />
		<tag k="max_age" v="5" />
		<tag k="min_age" v="1" />
		<tag k="name" v="Storesund barnehage" />
		<tag k="no-barnehage:nsrid" v="1016873" />
		<tag k="operator" v="Karmøy kommune" />
		<tag k="operator:type" v="public" />
	</node>
	<node id="-3170" lat="59.14966" lon="5.24652">
		<tag k="ADDRESS" v="Øygardshaugen 47, 4280 SKUDENESHAVN" />
		<tag k="amenity" v="kindergarten" />
		<tag k="capacity" v="63" />
		<tag k="contact:website" v="http://slagstemmen.vigilo.no" />
		<tag k="max_age" v="5" />
		<tag k="min_age" v="1" />
		<tag k="name" v="Slagstemmen barnehage" />
		<tag k="no-barnehage:nsrid" v="1020796" />
		<tag k="operator" v="Slågstemmen barnehage Sa" />
		<tag k="operator:type" v="private" />
	</node>
	<node id="-3169" lat="59.2771" lon="5.32109">
		<tag k="ADDRESS" v="Rusvikvegen 3d, 4250 KOPERVIK" />
		<tag k="amenity" v="kindergarten" />
		<tag k="capacity" v="54" />
		<tag k="contact:website" v="http://www.rusviknaturbarnehage.no" />
		<tag k="max_age" v="5" />
		<tag k="min_age" v="1" />
		<tag k="name" v="Rusvik naturbarnehage" />
		<tag k="no-barnehage:nsrid" v="1019909" />
		<tag k="operator" v="Rusvik Naturbarnehage Sa" />
		<tag k="operator:type" v="private" />
	</node>
</osm>
