<?xml version="1.0" encoding="UTF-8"?>
<osm generator="osmapis" version="0.6">
	<node id="-3773" lat="59.2565" lon="5.19525">
		<tag k="amenity" v="kindergarten" />
		<tag k="capacity" v="96" />
		<tag k="contact:email" v="post.akra.soknerads.barnehage@haugnett.no" />
		<tag k="contact:phone" v="52 81 69 84" />
		<tag k="max_age" v="5" />
		<tag k="min_age" v="1" />
		<tag k="name" v="Åkra Sokneråds barnehage" />
		<tag k="no-barnehage:nsrid" v="1015563" />
		<tag k="operator" v="Åkra Sokn" />
		<tag k="operator:type" v="private" />
		<tag k="start_date" v="1988-01-01" />
	</node>
	<node id="-3772" lat="59.3569" lon="5.323">
		<tag k="amenity" v="kindergarten" />
		<tag k="capacity" v="110" />
		<tag k="contact:email" v="vormedal.barnehage@karmoy.kommune.no" />
		<tag k="contact:phone" v="52812158" />
		<tag k="max_age" v="5" />
		<tag k="min_age" v="1" />
		<tag k="name" v="Vormedal barnehage" />
		<tag k="no-barnehage:nsrid" v="1014728" />
		<tag k="operator" v="Karmøy kommune" />
		<tag k="operator:type" v="public" />
		<tag k="start_date" v="1992-01-01" />
	</node>
	<node id="-3771" lat="59.2873" lon="5.24399">
		<tag k="amenity" v="kindergarten" />
		<tag k="capacity" v="71" />
		<tag k="contact:email" v="vea.barnehage@karmoy.kommune.no" />
		<tag k="contact:phone" v="52812330" />
		<tag k="max_age" v="5" />
		<tag k="min_age" v="1" />
		<tag k="name" v="Vea barnehage" />
		<tag k="no-barnehage:nsrid" v="1015926" />
		<tag k="operator" v="Karmøy kommune" />
		<tag k="operator:type" v="public" />
		<tag k="start_date" v="1989-01-02" />
	</node>
	<node id="-3770" lat="59.3903" lon="5.26344">
		<tag k="amenity" v="kindergarten" />
		<tag k="capacity" v="45" />
		<tag k="contact:email" v="storesund.barnehage@karmoy.kommune.no" />
		<tag k="contact:phone" v="52812134" />
		<tag k="max_age" v="5" />
		<tag k="min_age" v="1" />
		<tag k="name" v="Storesund barnehage" />
		<tag k="no-barnehage:nsrid" v="1016873" />
		<tag k="operator" v="Karmøy kommune" />
		<tag k="operator:type" v="public" />
		<tag k="start_date" v="1990-08-01" />
	</node>
	<node id="-3769" lat="59.38093" lon="5.323195">
		<tag k="amenity" v="kindergarten" />
		<tag k="capacity" v="116" />
		<tag k="contact:email" v="norhbarn@online.no" />
		<tag k="contact:phone" v="52 85 63 50" />
		<tag k="max_age" v="5" />
		<tag k="min_age" v="1" />
		<tag k="name" v="Stiftelsen Norheim barnehage" />
		<tag k="no-barnehage:nsrid" v="1020891" />
		<tag k="operator" v="Stiftelsen Norheim barnehage" />
		<tag k="operator:type" v="private" />
		<tag k="start_date" v="2003-08-01" />
	</node>
	<node id="-3768" lat="59.31817" lon="5.290392">
		<tag k="amenity" v="kindergarten" />
		<tag k="capacity" v="94" />
		<tag k="contact:email" v="post@eventyrhagen.com" />
		<tag k="contact:phone" v="52 84 33 44" />
		<tag k="contact:website" v="http://www.eventyrhagen.com" />
		<tag k="max_age" v="5" />
		<tag k="min_age" v="1" />
		<tag k="name" v="Stiftelsen KF  nsattes barnehage Eventyrhagen" />
		<tag k="no-barnehage:nsrid" v="1020420" />
		<tag k="operator" v="Stiftelsen KF  nsattes barnehage" />
		<tag k="operator:type" v="private" />
		<tag k="start_date" v="1991-01-01" />
	</node>
	<node id="-3766" lat="59.3785" lon="5.24503">
		<tag k="amenity" v="kindergarten" />
		<tag k="capacity" v="14" />
		<tag k="contact:email" v="post@smabarnehager.no" />
		<tag k="contact:phone" v="95813986" />
		<tag k="max_age" v="5" />
		<tag k="min_age" v="1" />
		<tag k="name" v="Små Barnehager AS Avd Torvastad" />
		<tag k="no-barnehage:nsrid" v="1014031" />
		<tag k="operator" v="Små Barnehager AS" />
		<tag k="operator:type" v="private" />
		<tag k="start_date" v="2009-06-16" />
	</node>
	<node id="-3765" lat="59.1549" lon="5.23663">
		<tag k="amenity" v="kindergarten" />
		<tag k="capacity" v="83" />
		<tag k="contact:email" v="skudenes.barnehage@karmoy.kommune.no" />
		<tag k="contact:phone" v="52812146" />
		<tag k="max_age" v="5" />
		<tag k="min_age" v="1" />
		<tag k="name" v="Skudenes barnehage" />
		<tag k="no-barnehage:nsrid" v="1016930" />
		<tag k="operator" v="Karmøy kommune" />
		<tag k="operator:type" v="public" />
		<tag k="start_date" v="1971-12-29" />
	</node>
	<node id="-3764" lat="59.2717" lon="5.19887">
		<tag k="amenity" v="kindergarten" />
		<tag k="capacity" v="66" />
		<tag k="contact:email" v="rut@karmoy.kommune.no" />
		<tag k="contact:phone" v="52817510" />
		<tag k="max_age" v="5" />
		<tag k="min_age" v="1" />
		<tag k="name" v="Sevland barnehage" />
		<tag k="no-barnehage:nsrid" v="1016879" />
		<tag k="operator" v="Karmøy kommune" />
		<tag k="operator:type" v="public" />
		<tag k="start_date" v="1991-01-01" />
	</node>
	<node id="-3763" lat="59.27707" lon="5.321112">
		<tag k="amenity" v="kindergarten" />
		<tag k="capacity" v="49" />
		<tag k="contact:email" v="post@rusviknaturbarnehage.no" />
		<tag k="contact:phone" v="52 85 02 06" />
		<tag k="contact:website" v="http://www.rusviknaturbarnehage.no" />
		<tag k="max_age" v="5" />
		<tag k="min_age" v="1" />
		<tag k="name" v="Rusvik Naturbarnehage" />
		<tag k="no-barnehage:nsrid" v="1019909" />
		<tag k="operator" v="Rusvik Naturbarnehage Sa" />
		<tag k="operator:type" v="private" />
		<tag k="start_date" v="1990-08-01" />
	</node>
	<node id="-3762" lat="59.20776" lon="5.184103">
		<tag k="amenity" v="kindergarten" />
		<tag k="capacity" v="45" />
		<tag k="contact:email" v="post@ferkingstadbarnehage.no" />
		<tag k="contact:phone" v="52820020" />
		<tag k="contact:website" v="http://www.minbarnehage.no/kyrkjebakkenbarnehage" />
		<tag k="max_age" v="5" />
		<tag k="min_age" v="1" />
		<tag k="name" v="Kyrkjebakken barnehage" />
		<tag k="no-barnehage:nsrid" v="1019968" />
		<tag k="operator" v="Kyrkjebakken barnehage" />
		<tag k="operator:type" v="private" />
		<tag k="start_date" v="1991-01-01" />
	</node>
	<node id="-3761" lat="59.32507" lon="5.206708">
		<tag k="amenity" v="kindergarten" />
		<tag k="capacity" v="21" />
		<tag k="contact:email" v="kvalavagbhg@gmail.com" />
		<tag k="contact:phone" v="52 84 03 90" />
		<tag k="max_age" v="5" />
		<tag k="min_age" v="1" />
		<tag k="name" v="Kvalavåg barnehage" />
		<tag k="no-barnehage:nsrid" v="1019737" />
		<tag k="operator" v="Kvalavåg Vel K T B Hage" />
		<tag k="operator:type" v="private" />
		<tag k="start_date" v="1989-01-02" />
	</node>
	<node id="-3760" lat="59.3915" lon="5.3655">
		<tag k="amenity" v="kindergarten" />
		<tag k="capacity" v="39" />
		<tag k="contact:email" v="kolnes.barnehage@karmoy.kommune.no" />
		<tag k="max_age" v="5" />
		<tag k="min_age" v="1" />
		<tag k="name" v="Kolnes barnehage" />
		<tag k="no-barnehage:nsrid" v="1014928" />
		<tag k="operator" v="Karmøy kommune" />
		<tag k="operator:type" v="public" />
		<tag k="start_date" v="1989-01-02" />
	</node>
	<node id="-3759" lat="59.2837" lon="5.30687">
		<tag k="amenity" v="kindergarten" />
		<tag k="capacity" v="102" />
		<tag k="contact:email" v="bygnes.barnehage@karmoy.kommune.no" />
		<tag k="contact:phone" v="52812140" />
		<tag k="max_age" v="5" />
		<tag k="min_age" v="1" />
		<tag k="name" v="Bygnes Vitenbarnehage" />
		<tag k="no-barnehage:nsrid" v="1015587" />
		<tag k="operator" v="Karmøy kommune" />
		<tag k="operator:type" v="public" />
		<tag k="start_date" v="1997-01-01" />
	</node>
	<node id="-3758" lat="59.3542" lon="5.2817">
		<tag k="amenity" v="kindergarten" />
		<tag k="capacity" v="64" />
		<tag k="contact:email" v="avaldsnes.barnehage@karmoy.kommune.no" />
		<tag k="max_age" v="5" />
		<tag k="min_age" v="1" />
		<tag k="name" v="Avaldsnes barnehage" />
		<tag k="no-barnehage:nsrid" v="1013751" />
		<tag k="operator" v="Karmøy kommune" />
		<tag k="operator:type" v="public" />
		<tag k="start_date" v="1989-01-01" />
	</node>
</osm>
