<?xml version="1.0" encoding="UTF-8"?>
<osm generator="osmapis" version="0.6">
	<node id="-1648" lat="60.6747" lon="10.8133">
		<tag k="amenity" v="kindergarten" />
		<tag k="capacity" v="31" />
		<tag k="max_age" v="5" />
		<tag k="min_age" v="1" />
		<tag k="name" v="Vilberg barnehage" />
		<tag k="no-barnehage:nsrid" v="1017962" />
		<tag k="operator" v="Østre Toten kommune" />
		<tag k="operator:type" v="public" />
	</node>
	<node id="-1647" lat="60.67467" lon="10.81325">
		<tag k="amenity" v="kindergarten" />
		<tag k="capacity" v="19" />
		<tag k="max_age" v="5" />
		<tag k="min_age" v="1" />
		<tag k="name" v="Steinerbarnehagen Lena" />
		<tag k="no-barnehage:nsrid" v="1019793" />
		<tag k="operator" v="Steinerbarnehagen" />
		<tag k="operator:type" v="private" />
	</node>
	<node id="-1646" lat="60.6514" lon="10.9248">
		<tag k="amenity" v="kindergarten" />
		<tag k="capacity" v="44" />
		<tag k="max_age" v="5" />
		<tag k="min_age" v="1" />
		<tag k="name" v="Oliviabakken barnehage" />
		<tag k="no-barnehage:nsrid" v="1017960" />
		<tag k="operator" v="Østre Toten kommune" />
		<tag k="operator:type" v="public" />
	</node>
	<node id="-1645" lat="60.67467" lon="10.81325">
		<tag k="amenity" v="kindergarten" />
		<tag k="capacity" v="92" />
		<tag k="max_age" v="5" />
		<tag k="min_age" v="1" />
		<tag k="name" v="Lena FUS barnehage" />
		<tag k="no-barnehage:nsrid" v="1022366" />
		<tag k="operator" v="Lena Fus barnehage AS" />
		<tag k="operator:type" v="private" />
	</node>
	<node id="-1644" lat="60.6502" lon="10.7455">
		<tag k="amenity" v="kindergarten" />
		<tag k="capacity" v="71" />
		<tag k="max_age" v="5" />
		<tag k="min_age" v="1" />
		<tag k="name" v="Kolbu barnehage" />
		<tag k="no-barnehage:nsrid" v="1014140" />
		<tag k="operator" v="Østre Toten kommune" />
		<tag k="operator:type" v="public" />
	</node>
	<node id="-1643" lat="60.7195" lon="10.8324">
		<tag k="amenity" v="kindergarten" />
		<tag k="capacity" v="86" />
		<tag k="max_age" v="5" />
		<tag k="min_age" v="1" />
		<tag k="name" v="Kapp barnehage" />
		<tag k="no-barnehage:nsrid" v="1017961" />
		<tag k="operator" v="Østre Toten kommune" />
		<tag k="operator:type" v="public" />
	</node>
	<node id="-1642" lat="60.6931" lon="10.8464">
		<tag k="amenity" v="kindergarten" />
		<tag k="capacity" v="69" />
		<tag k="max_age" v="5" />
		<tag k="min_age" v="1" />
		<tag k="name" v="Hoffsvangen barnehage" />
		<tag k="no-barnehage:nsrid" v="1017336" />
		<tag k="operator" v="Østre Toten kommune" />
		<tag k="operator:type" v="public" />
	</node>
	<node id="-1641" lat="60.6341" lon="11.07992">
		<tag k="amenity" v="kindergarten" />
		<tag k="capacity" v="43" />
		<tag k="max_age" v="5" />
		<tag k="min_age" v="1" />
		<tag k="name" v="Fredsvoll barnehage" />
		<tag k="no-barnehage:nsrid" v="1019876" />
		<tag k="operator" v="Fredsvoll barnehage Sa" />
		<tag k="operator:type" v="private" />
	</node>
	<node id="-1640" lat="60.59703" lon="10.71886">
		<tag k="amenity" v="kindergarten" />
		<tag k="capacity" v="53" />
		<tag k="contact:website" v="http://bonderudbakken.barnehage.no/" />
		<tag k="max_age" v="5" />
		<tag k="min_age" v="1" />
		<tag k="name" v="Bonderudbakken gårdsbarnehage" />
		<tag k="no-barnehage:nsrid" v="1021686" />
		<tag k="operator" v="Bonderudbakken Gårdsbarnehage AS" />
		<tag k="operator:type" v="private" />
	</node>
</osm>
