<?xml version="1.0" encoding="UTF-8"?>
<osm generator="osmapis" version="0.6">
	<node id="-2106" lat="60.6747" lon="10.8133">
		<tag k="amenity" v="kindergarten" />
		<tag k="capacity" v="35" />
		<tag k="max_age" v="5" />
		<tag k="min_age" v="1" />
		<tag k="name" v="Vilberg barnehage" />
		<tag k="no-barnehage:nsrid" v="1017962" />
		<tag k="operator" v="Østre Toten kommune" />
		<tag k="operator:type" v="public" />
		<tag k="start_date" v="1988-04-01" />
	</node>
	<node id="-2105" lat="60.7195" lon="10.8324">
		<tag k="amenity" v="kindergarten" />
		<tag k="capacity" v="82" />
		<tag k="max_age" v="5" />
		<tag k="min_age" v="1" />
		<tag k="name" v="Undesløs barnehage" />
		<tag k="no-barnehage:nsrid" v="1017961" />
		<tag k="operator" v="Østre Toten kommune" />
		<tag k="operator:type" v="public" />
		<tag k="start_date" v="1988-04-01" />
	</node>
	<node id="-2104" lat="60.67467" lon="10.81325">
		<tag k="amenity" v="kindergarten" />
		<tag k="capacity" v="18" />
		<tag k="contact:phone" v="61161568" />
		<tag k="max_age" v="5" />
		<tag k="min_age" v="1" />
		<tag k="name" v="Steinerbarnehagen Lena" />
		<tag k="no-barnehage:nsrid" v="1019793" />
		<tag k="operator" v="Steinerbarnehagen" />
		<tag k="operator:type" v="private" />
		<tag k="start_date" v="1989-01-01" />
	</node>
	<node id="-2103" lat="60.6514" lon="10.9248">
		<tag k="amenity" v="kindergarten" />
		<tag k="capacity" v="45" />
		<tag k="max_age" v="5" />
		<tag k="min_age" v="1" />
		<tag k="name" v="Oliviabakken barnehage" />
		<tag k="no-barnehage:nsrid" v="1017960" />
		<tag k="operator" v="Østre Toten kommune" />
		<tag k="operator:type" v="public" />
		<tag k="start_date" v="1988-04-01" />
	</node>
	<node id="-2102" lat="60.74703" lon="10.74935">
		<tag k="amenity" v="kindergarten" />
		<tag k="capacity" v="42" />
		<tag k="max_age" v="5" />
		<tag k="min_age" v="1" />
		<tag k="name" v="Nordli barnehage" />
		<tag k="no-barnehage:nsrid" v="1017959" />
		<tag k="operator" v="Østre Toten kommune" />
		<tag k="operator:type" v="public" />
		<tag k="start_date" v="1988-04-01" />
	</node>
	<node id="-2101" lat="60.67467" lon="10.81325">
		<tag k="amenity" v="kindergarten" />
		<tag k="capacity" v="79" />
		<tag k="max_age" v="5" />
		<tag k="min_age" v="1" />
		<tag k="name" v="Lena Fus barnehage AS" />
		<tag k="no-barnehage:nsrid" v="1022366" />
		<tag k="operator" v="Lena Fus barnehage AS" />
		<tag k="operator:type" v="private" />
		<tag k="start_date" v="2013-04-04" />
	</node>
	<node id="-2100" lat="60.6502" lon="10.7455">
		<tag k="amenity" v="kindergarten" />
		<tag k="capacity" v="64" />
		<tag k="max_age" v="5" />
		<tag k="min_age" v="1" />
		<tag k="name" v="Kolbu barnehage" />
		<tag k="no-barnehage:nsrid" v="1014140" />
		<tag k="operator" v="Østre Toten kommune" />
		<tag k="operator:type" v="public" />
		<tag k="start_date" v="2010-08-01" />
	</node>
	<node id="-2099" lat="60.6931" lon="10.8464">
		<tag k="amenity" v="kindergarten" />
		<tag k="capacity" v="70" />
		<tag k="max_age" v="5" />
		<tag k="min_age" v="1" />
		<tag k="name" v="Hoffsvangen barnehage" />
		<tag k="no-barnehage:nsrid" v="1017336" />
		<tag k="operator" v="Østre Toten kommune" />
		<tag k="operator:type" v="public" />
		<tag k="start_date" v="1976-12-24" />
	</node>
	<node id="-2098" lat="60.6341" lon="11.07992">
		<tag k="amenity" v="kindergarten" />
		<tag k="capacity" v="43" />
		<tag k="contact:email" v="kari.hveem@ostre-toten.kommune.no" />
		<tag k="contact:phone" v="61 16 48 95" />
		<tag k="max_age" v="5" />
		<tag k="min_age" v="1" />
		<tag k="name" v="Fredsvoll barnehage Sa" />
		<tag k="no-barnehage:nsrid" v="1019876" />
		<tag k="operator" v="Fredsvoll barnehage Sa" />
		<tag k="operator:type" v="private" />
		<tag k="start_date" v="1989-01-01" />
	</node>
	<node id="-2097" lat="60.65254" lon="10.93559">
		<tag k="amenity" v="kindergarten" />
		<tag k="capacity" v="83" />
		<tag k="contact:phone" v="95251787" />
		<tag k="max_age" v="5" />
		<tag k="min_age" v="1" />
		<tag k="name" v="Eventyråsen barnehage AS" />
		<tag k="no-barnehage:nsrid" v="1021562" />
		<tag k="operator" v="Eventyråsen barnehage AS" />
		<tag k="operator:type" v="private" />
		<tag k="start_date" v="2006-12-12" />
	</node>
	<node id="-2096" lat="60.59703" lon="10.71886">
		<tag k="amenity" v="kindergarten" />
		<tag k="capacity" v="62" />
		<tag k="contact:email" v="barnehagen@bonderudbakken.no" />
		<tag k="contact:phone" v="61 16 70 58" />
		<tag k="max_age" v="5" />
		<tag k="min_age" v="1" />
		<tag k="name" v="Bonderudbakken Gårdsbarnehage AS" />
		<tag k="no-barnehage:nsrid" v="1021686" />
		<tag k="operator" v="Bonderudbakken Gårdsbarnehage AS" />
		<tag k="operator:type" v="private" />
		<tag k="start_date" v="1995-08-14" />
	</node>
	<node id="-2095" lat="60.71949" lon="10.83243">
		<tag k="amenity" v="kindergarten" />
		<tag k="capacity" v="58" />
		<tag k="contact:email" v="nihcrm@frisurf.no" />
		<tag k="contact:phone" v="61 16 24 30" />
		<tag k="contact:website" v="http://www.bjornsgaard.bhg.no" />
		<tag k="max_age" v="5" />
		<tag k="min_age" v="1" />
		<tag k="name" v="Bjørnsgård barnehage" />
		<tag k="no-barnehage:nsrid" v="1020722" />
		<tag k="operator" v="Bjørnsgård barnehage Sa" />
		<tag k="operator:type" v="private" />
		<tag k="start_date" v="2000-09-26" />
	</node>
</osm>
