<?xml version="1.0" encoding="UTF-8"?>
<osm generator="osmapis" version="0.6">
	<node id="-5622" lat="67.0495" lon="13.7589">
		<tag k="amenity" v="kindergarten" />
		<tag k="capacity" v="10" />
		<tag k="contact:email" v="olston@gildeskal.kommune.no" />
		<tag k="contact:phone" v="+47 75760900" />
		<tag k="max_age" v="5" />
		<tag k="min_age" v="1" />
		<tag k="name" v="Sørarnøy Skole og barnehage Avd Barnehage" />
		<tag k="no-barnehage:nsrid" v="1012971" />
		<tag k="operator" v="Gildeskål kommune" />
		<tag k="operator:type" v="public" />
		<tag k="start_date" v="2004-01-01" />
	</node>
	<node id="-5621" lat="66.9628" lon="13.8084">
		<tag k="amenity" v="kindergarten" />
		<tag k="capacity" v="6" />
		<tag k="contact:email" v="miktro@gildeskal.kommune.no" />
		<tag k="contact:phone" v="+47 75 76 09 10" />
		<tag k="max_age" v="5" />
		<tag k="min_age" v="1" />
		<tag k="name" v="Storvik Oppvekstsenter Avd Barnehage" />
		<tag k="no-barnehage:nsrid" v="1016135" />
		<tag k="operator" v="Gildeskål kommune" />
		<tag k="operator:type" v="public" />
		<tag k="start_date" v="1989-01-01" />
	</node>
	<node id="-5620" lat="67.07417" lon="14.14639">
		<tag k="amenity" v="kindergarten" />
		<tag k="capacity" v="10" />
		<tag k="contact:email" v="kalast@gildeskal.kommune.no" />
		<tag k="contact:phone" v="+47 75758622" />
		<tag k="max_age" v="5" />
		<tag k="min_age" v="1" />
		<tag k="name" v="Sandhornøy barnehage" />
		<tag k="no-barnehage:nsrid" v="1025352" />
		<tag k="operator" v="Gildeskål kommune" />
		<tag k="operator:type" v="public" />
		<tag k="start_date" v="1989-01-01" />
	</node>
	<node id="-5619" lat="67.1128" lon="14.3075">
		<tag k="amenity" v="kindergarten" />
		<tag k="capacity" v="19" />
		<tag k="contact:email" v="eggsve@gildeskal.kommune.no" />
		<tag k="contact:phone" v="+47 75760850" />
		<tag k="max_age" v="5" />
		<tag k="min_age" v="1" />
		<tag k="name" v="Nygårdsjøen Oppvekstsenter Avd Barnehage" />
		<tag k="no-barnehage:nsrid" v="1016136" />
		<tag k="operator" v="Gildeskål kommune" />
		<tag k="operator:type" v="public" />
		<tag k="start_date" v="1989-01-02" />
	</node>
	<node id="-5618" lat="67.0319" lon="14.0281">
		<tag k="amenity" v="kindergarten" />
		<tag k="capacity" v="46" />
		<tag k="contact:email" v="hanisa@gildeskal.kommune.no" />
		<tag k="contact:phone" v="+47 75757620" />
		<tag k="max_age" v="5" />
		<tag k="min_age" v="1" />
		<tag k="name" v="Inndyr barnehage" />
		<tag k="no-barnehage:nsrid" v="1015465" />
		<tag k="operator" v="Gildeskål kommune" />
		<tag k="operator:type" v="public" />
		<tag k="start_date" v="1991-09-26" />
	</node>
</osm>
