<?xml version="1.0" encoding="UTF-8"?>
<osm generator="osmapis" version="0.6">
	<node id="-1890" lat="61.7583" lon="11.9598">
		<tag k="amenity" v="kindergarten" />
		<tag k="capacity" v="12" />
		<tag k="contact:email" v="wkh@engerdal.kommune.no" />
		<tag k="contact:phone" v="+47 99100605" />
		<tag k="doNotImportAddress" v="Østlia Nord 12 2440 ENGERDAL" />
		<tag k="max_age" v="5" />
		<tag k="min_age" v="1" />
		<tag k="name" v="Engerdal barnehage" />
		<tag k="no-barnehage:nsrid" v="1017595" />
		<tag k="operator" v="Engerdal kommune" />
		<tag k="operator:type" v="public" />
	</node>
	<node id="-1889" lat="61.8901" lon="12.029">
		<tag k="amenity" v="kindergarten" />
		<tag k="capacity" v="27" />
		<tag k="contact:email" v="berit.sorkmo@engerdal.kommune.no" />
		<tag k="contact:phone" v="+47 62459600" />
		<tag k="doNotImportAddress" v=" 2443 DREVSJØ" />
		<tag k="max_age" v="5" />
		<tag k="min_age" v="1" />
		<tag k="name" v="Drevsjø barnehage" />
		<tag k="no-barnehage:nsrid" v="1017594" />
		<tag k="operator" v="Engerdal kommune" />
		<tag k="operator:type" v="public" />
	</node>
</osm>
