<?xml version="1.0" encoding="UTF-8"?>
<osm generator="osmapis" version="0.6">
	<node id="-5323" lat="63.6082" lon="11.0518">
		<tag k="amenity" v="kindergarten" />
		<tag k="capacity" v="22" />
		<tag k="contact:email" v="bsu@levanger.kommune.no" />
		<tag k="contact:phone" v="+47 74053999" />
		<tag k="max_age" v="5" />
		<tag k="min_age" v="1" />
		<tag k="name" v="Åsen barnehage" />
		<tag k="no-barnehage:nsrid" v="1018271" />
		<tag k="operator" v="Levanger kommune" />
		<tag k="operator:type" v="public" />
		<tag k="start_date" v="1989-01-01" />
	</node>
	<node id="-5322" lat="63.8004" lon="11.1332">
		<tag k="amenity" v="kindergarten" />
		<tag k="capacity" v="33" />
		<tag k="contact:email" v="sissel.skjorstad@levanger.kommune.no" />
		<tag k="contact:phone" v="+47 74089066" />
		<tag k="max_age" v="5" />
		<tag k="min_age" v="1" />
		<tag k="name" v="Ytterøy barnehage" />
		<tag k="no-barnehage:nsrid" v="1015551" />
		<tag k="operator" v="Levanger kommune" />
		<tag k="operator:type" v="public" />
		<tag k="start_date" v="1982-01-01" />
	</node>
	<node id="-5321" lat="63.74066" lon="11.25155">
		<tag k="amenity" v="kindergarten" />
		<tag k="capacity" v="29" />
		<tag k="contact:email" v="othodesen@vko.no" />
		<tag k="max_age" v="5" />
		<tag k="min_age" v="1" />
		<tag k="name" v="Vårtun Kristne Oppvekstsenter - barnehage Sa" />
		<tag k="no-barnehage:nsrid" v="1021380" />
		<tag k="operator" v="Vårtun Kristne Oppvekstsenter - barnehage Sa" />
		<tag k="operator:type" v="private" />
		<tag k="start_date" v="2006-01-01" />
	</node>
	<node id="-5320" lat="63.7464" lon="11.2803">
		<tag k="amenity" v="kindergarten" />
		<tag k="capacity" v="44" />
		<tag k="contact:email" v="wefa@levanger.kommune.no" />
		<tag k="contact:phone" v="+47 74 05 34 70" />
		<tag k="max_age" v="5" />
		<tag k="min_age" v="1" />
		<tag k="name" v="Staup Natur og Aktivitetsbarrnehage Nesheim Os" />
		<tag k="no-barnehage:nsrid" v="1017258" />
		<tag k="operator" v="Levanger kommune" />
		<tag k="operator:type" v="public" />
		<tag k="start_date" v="2006-07-31" />
	</node>
	<node id="-5319" lat="63.7011" lon="11.1869">
		<tag k="amenity" v="kindergarten" />
		<tag k="capacity" v="45" />
		<tag k="contact:email" v="barnehagen@skognmbhg.no" />
		<tag k="contact:phone" v="+47 074095480" />
		<tag k="max_age" v="5" />
		<tag k="min_age" v="1" />
		<tag k="name" v="Skogn Menighetspleie barnehage" />
		<tag k="no-barnehage:nsrid" v="1025346" />
		<tag k="operator" v="Marisko-Stiftelsen Alstadhaug Menighetsbarnehager" />
		<tag k="operator:type" v="private" />
		<tag k="start_date" v="1971-12-29" />
	</node>
	<node id="-5318" lat="63.74295" lon="11.28934">
		<tag k="amenity" v="kindergarten" />
		<tag k="capacity" v="85" />
		<tag k="contact:email" v="DL.ruffen@kanvas.no" />
		<tag k="contact:phone" v="+47 46970007" />
		<tag k="max_age" v="5" />
		<tag k="min_age" v="1" />
		<tag k="name" v="Ruffen Kanvas-Barnehage" />
		<tag k="no-barnehage:nsrid" v="1021680" />
		<tag k="operator" v="Stiftelsen Kanvas" />
		<tag k="operator:type" v="private" />
		<tag k="start_date" v="1989-01-02" />
	</node>
	<node id="-5317" lat="63.70111" lon="11.18688">
		<tag k="amenity" v="kindergarten" />
		<tag k="capacity" v="36" />
		<tag k="contact:email" v="PURKTROA@ONLINE.NO" />
		<tag k="contact:phone" v="+47 74 09 51 60" />
		<tag k="contact:website" v="http://www.purktroa.no" />
		<tag k="max_age" v="5" />
		<tag k="min_age" v="1" />
		<tag k="name" v="Purktrøa Gårdsbarnehage Sa" />
		<tag k="no-barnehage:nsrid" v="1021054" />
		<tag k="operator" v="Purktrøa Gårdsbarnehage Sa" />
		<tag k="operator:type" v="private" />
		<tag k="start_date" v="2004-05-19" />
	</node>
	<node id="-5316" lat="63.7278" lon="11.4508">
		<tag k="amenity" v="kindergarten" />
		<tag k="capacity" v="11" />
		<tag k="contact:email" v="bsu@levanger.kommune.no" />
		<tag k="max_age" v="5" />
		<tag k="min_age" v="1" />
		<tag k="name" v="Okkenhaug barnehage" />
		<tag k="no-barnehage:nsrid" v="1015609" />
		<tag k="operator" v="Levanger kommune" />
		<tag k="operator:type" v="public" />
		<tag k="start_date" v="1997-03-01" />
	</node>
	<node id="-5315" lat="63.7482" lon="11.293">
		<tag k="amenity" v="kindergarten" />
		<tag k="capacity" v="18" />
		<tag k="contact:email" v="Inger.Skjerve.Langdal@studentinord.no" />
		<tag k="contact:phone" v="+47 74 08 40 25" />
		<tag k="max_age" v="5" />
		<tag k="min_age" v="1" />
		<tag k="name" v="Nord Studentsamskipnad Avd Trimia barnehage" />
		<tag k="no-barnehage:nsrid" v="1015995" />
		<tag k="operator" v="Nord Studentsamskipnad" />
		<tag k="operator:type" v="private" />
		<tag k="start_date" v="1992-01-01" />
	</node>
	<node id="-5314" lat="63.7507" lon="11.3212">
		<tag k="amenity" v="kindergarten" />
		<tag k="capacity" v="26" />
		<tag k="contact:email" v="Inger.Skjerve.Langdal@studentinord.no" />
		<tag k="contact:phone" v="+47 74 08 79 77" />
		<tag k="max_age" v="5" />
		<tag k="min_age" v="1" />
		<tag k="name" v="Nord Studentsamskipnad Avd Røstad barnehage" />
		<tag k="no-barnehage:nsrid" v="1014022" />
		<tag k="operator" v="Nord Studentsamskipnad" />
		<tag k="operator:type" v="private" />
		<tag k="start_date" v="2008-08-01" />
	</node>
	<node id="-5313" lat="63.6276" lon="11.37021">
		<tag k="amenity" v="kindergarten" />
		<tag k="capacity" v="11" />
		<tag k="contact:email" v="kathrine.k.haugen@ntebb.no" />
		<tag k="contact:phone" v="+47 74 01 76 75" />
		<tag k="max_age" v="5" />
		<tag k="min_age" v="1" />
		<tag k="name" v="Mølnå barnehage" />
		<tag k="no-barnehage:nsrid" v="1021347" />
		<tag k="operator" v="Kathrine Keiserås Haugen" />
		<tag k="operator:type" v="private" />
		<tag k="start_date" v="2005-12-01" />
	</node>
	<node id="-5312" lat="63.74636" lon="11.30049">
		<tag k="amenity" v="kindergarten" />
		<tag k="capacity" v="30" />
		<tag k="contact:email" v="post@munkebybarnehage.no" />
		<tag k="contact:phone" v="+47 74 08 31 90" />
		<tag k="contact:website" v="http://www.munkebybarnehage.no" />
		<tag k="max_age" v="5" />
		<tag k="min_age" v="1" />
		<tag k="name" v="Munkeby Gård- og Naturbarnehage Sa" />
		<tag k="no-barnehage:nsrid" v="1021662" />
		<tag k="operator" v="Munkeby Gård- og Naturbarnehage Sa" />
		<tag k="operator:type" v="private" />
		<tag k="start_date" v="2007-06-16" />
	</node>
	<node id="-5311" lat="63.74808" lon="11.37268">
		<tag k="amenity" v="kindergarten" />
		<tag k="capacity" v="16" />
		<tag k="contact:email" v="mulegaardsbhg@barnehage.no" />
		<tag k="max_age" v="5" />
		<tag k="min_age" v="1" />
		<tag k="name" v="Mule Gårdsbarnehage Marit Kvam" />
		<tag k="no-barnehage:nsrid" v="1020351" />
		<tag k="operator" v="Mule Gårdsbarnehage Marit Kvam" />
		<tag k="operator:type" v="private" />
		<tag k="start_date" v="1996-08-31" />
	</node>
	<node id="-5309" lat="63.7276" lon="11.2892">
		<tag k="amenity" v="kindergarten" />
		<tag k="capacity" v="76" />
		<tag k="contact:email" v="vera.larsen@levanger.kommune.no" />
		<tag k="max_age" v="5" />
		<tag k="min_age" v="1" />
		<tag k="name" v="Momarka barnehage" />
		<tag k="no-barnehage:nsrid" v="1013938" />
		<tag k="operator" v="Levanger kommune" />
		<tag k="operator:type" v="public" />
		<tag k="start_date" v="1990-01-01" />
	</node>
	<node id="-5307" lat="63.70111" lon="11.18688">
		<tag k="amenity" v="kindergarten" />
		<tag k="capacity" v="32" />
		<tag k="contact:email" v="post@kaarstuabarnehage.no" />
		<tag k="contact:phone" v="+47 74 08 19 09" />
		<tag k="max_age" v="5" />
		<tag k="min_age" v="1" />
		<tag k="name" v="Kårstua barnehage AS" />
		<tag k="no-barnehage:nsrid" v="1021428" />
		<tag k="operator" v="Kårstua barnehage AS" />
		<tag k="operator:type" v="private" />
		<tag k="start_date" v="2006-04-01" />
	</node>
	<node id="-5306" lat="63.75161" lon="11.26142">
		<tag k="amenity" v="kindergarten" />
		<tag k="capacity" v="27" />
		<tag k="contact:email" v="l-maehla@online.no" />
		<tag k="contact:phone" v="+47 074096170" />
		<tag k="max_age" v="5" />
		<tag k="min_age" v="1" />
		<tag k="name" v="Kosekroken barnehage i L Mæla" />
		<tag k="no-barnehage:nsrid" v="1020250" />
		<tag k="operator" v="Kosekroken barnehage i L Mæla" />
		<tag k="operator:type" v="private" />
		<tag k="start_date" v="1994-08-01" />
	</node>
	<node id="-5305" lat="63.72099" lon="11.27515">
		<tag k="amenity" v="kindergarten" />
		<tag k="capacity" v="16" />
		<tag k="contact:email" v="wen-mo2@hogbergetbarnehage.no" />
		<tag k="contact:phone" v="+47 95932122" />
		<tag k="max_age" v="5" />
		<tag k="min_age" v="1" />
		<tag k="name" v="Høgberget barnehage AS" />
		<tag k="no-barnehage:nsrid" v="1021218" />
		<tag k="operator" v="Høgberget barnehage AS" />
		<tag k="operator:type" v="private" />
		<tag k="start_date" v="2005-04-21" />
	</node>
	<node id="-5304" lat="63.70392" lon="11.18456">
		<tag k="amenity" v="kindergarten" />
		<tag k="capacity" v="27" />
		<tag k="contact:email" v="monika@hompetitten.com" />
		<tag k="contact:phone" v="+47 74 08 05 00" />
		<tag k="max_age" v="5" />
		<tag k="min_age" v="1" />
		<tag k="name" v="Hompetitten barnehage AS" />
		<tag k="no-barnehage:nsrid" v="1020923" />
		<tag k="operator" v="Hompetitten barnehage AS" />
		<tag k="operator:type" v="private" />
		<tag k="start_date" v="2003-06-03" />
	</node>
	<node id="-5303" lat="63.74593" lon="11.32015">
		<tag k="amenity" v="kindergarten" />
		<tag k="capacity" v="27" />
		<tag k="contact:email" v="hegle@barnehage.no" />
		<tag k="contact:phone" v="+47 74 08 43 43" />
		<tag k="contact:website" v="http://www.hegle.barnehage.no" />
		<tag k="max_age" v="5" />
		<tag k="min_age" v="1" />
		<tag k="name" v="Hegle barnehage" />
		<tag k="no-barnehage:nsrid" v="1019928" />
		<tag k="operator" v="Hegle barnehage" />
		<tag k="operator:type" v="private" />
		<tag k="start_date" v="1990-08-01" />
	</node>
	<node id="-5302" lat="63.746" lon="11.3226">
		<tag k="amenity" v="kindergarten" />
		<tag k="capacity" v="48" />
		<tag k="contact:email" v="mlv@levanger.kommune.no" />
		<tag k="max_age" v="5" />
		<tag k="min_age" v="1" />
		<tag k="name" v="Frol barnehage" />
		<tag k="no-barnehage:nsrid" v="1014950" />
		<tag k="operator" v="Levanger kommune" />
		<tag k="operator:type" v="public" />
		<tag k="start_date" v="1996-04-01" />
	</node>
	<node id="-5301" lat="63.7522" lon="11.2635">
		<tag k="amenity" v="kindergarten" />
		<tag k="capacity" v="101" />
		<tag k="contact:email" v="ida@farmenbarnehage.no" />
		<tag k="contact:phone" v="+47 74 08 00 40" />
		<tag k="max_age" v="5" />
		<tag k="min_age" v="1" />
		<tag k="name" v="Farmen Menighetsbarnehage" />
		<tag k="no-barnehage:nsrid" v="1016194" />
		<tag k="operator" v="Marisko-Stiftelsen Alstadhaug Menighetsbarnehager" />
		<tag k="operator:type" v="private" />
		<tag k="start_date" v="1982-01-01" />
	</node>
	<node id="-5300" lat="63.75593" lon="11.27404">
		<tag k="amenity" v="kindergarten" />
		<tag k="capacity" v="77" />
		<tag k="contact:email" v="styrer@gjemble.espira.no" />
		<tag k="contact:phone" v="+47 52 84 50 20" />
		<tag k="contact:website" v="http://www.espira.no" />
		<tag k="max_age" v="5" />
		<tag k="min_age" v="1" />
		<tag k="name" v="Espira Gjemble barnehage" />
		<tag k="no-barnehage:nsrid" v="1020704" />
		<tag k="operator" v="Espira Gjemble AS" />
		<tag k="operator:type" v="private" />
		<tag k="start_date" v="2001-02-01" />
	</node>
	<node id="-5299" lat="63.6987" lon="11.0408">
		<tag k="amenity" v="kindergarten" />
		<tag k="capacity" v="40" />
		<tag k="contact:email" v="hsj@levanger.kommune.no" />
		<tag k="max_age" v="5" />
		<tag k="min_age" v="1" />
		<tag k="name" v="Ekne barnehage" />
		<tag k="no-barnehage:nsrid" v="1017394" />
		<tag k="operator" v="Levanger kommune" />
		<tag k="operator:type" v="public" />
		<tag k="start_date" v="1978-08-18" />
	</node>
	<node id="-5298" lat="63.75141" lon="11.32311">
		<tag k="amenity" v="kindergarten" />
		<tag k="contact:email" v="dagali@barnehage.no" />
		<tag k="contact:phone" v="+47 74082340" />
		<tag k="max_age" v="5" />
		<tag k="min_age" v="1" />
		<tag k="name" v="Dagali barnehage" />
		<tag k="no-barnehage:nsrid" v="1019518" />
		<tag k="operator" v="Dagali barnehage" />
		<tag k="operator:type" v="private" />
		<tag k="start_date" v="1976-12-24" />
	</node>
	<node id="-5297" lat="63.74795" lon="11.32027">
		<tag k="amenity" v="kindergarten" />
		<tag k="capacity" v="70" />
		<tag k="contact:email" v="casmus@online.no" />
		<tag k="contact:phone" v="+47 74 08 26 80" />
		<tag k="max_age" v="5" />
		<tag k="min_age" v="1" />
		<tag k="name" v="Casa Musica barnehage Ans" />
		<tag k="no-barnehage:nsrid" v="1020776" />
		<tag k="operator" v="Casa Musica barnehage AS" />
		<tag k="operator:type" v="private" />
		<tag k="start_date" v="2000-08-15" />
	</node>
	<node id="-5296" lat="63.61129" lon="11.04848">
		<tag k="amenity" v="kindergarten" />
		<tag k="capacity" v="65" />
		<tag k="contact:email" v="post@brusebarnehage.no" />
		<tag k="contact:phone" v="+47 74 05 65 51" />
		<tag k="contact:website" v="http://bruse.barnehage.no" />
		<tag k="max_age" v="5" />
		<tag k="min_age" v="1" />
		<tag k="name" v="Bruse barnehage Sa" />
		<tag k="no-barnehage:nsrid" v="1019741" />
		<tag k="operator" v="Bruse barnehage Sa" />
		<tag k="operator:type" v="private" />
		<tag k="start_date" v="1989-01-02" />
	</node>
	<node id="-5295" lat="63.74636" lon="11.30049">
		<tag k="amenity" v="kindergarten" />
		<tag k="capacity" v="35" />
		<tag k="contact:email" v="POST@BARNASMOA.COM" />
		<tag k="max_age" v="5" />
		<tag k="min_age" v="1" />
		<tag k="name" v="Barnas Moa AS" />
		<tag k="no-barnehage:nsrid" v="1022439" />
		<tag k="operator" v="Barnas Moa AS" />
		<tag k="operator:type" v="private" />
		<tag k="start_date" v="2002-04-01" />
	</node>
	<node id="-5293" lat="63.74726" lon="11.33219">
		<tag k="amenity" v="kindergarten" />
		<tag k="capacity" v="39" />
		<tag k="contact:phone" v="+47 74 05 60 90" />
		<tag k="max_age" v="5" />
		<tag k="min_age" v="1" />
		<tag k="name" v="Abra Cadabra barnehage" />
		<tag k="no-barnehage:nsrid" v="1021399" />
		<tag k="operator" v="Abra Cadabra barnehage AS" />
		<tag k="operator:type" v="private" />
		<tag k="start_date" v="2006-02-28" />
	</node>
</osm>
