<?xml version="1.0" encoding="UTF-8"?>
<osm version="0.6" generator="osmapis">
	<node lat="58.45356" lon="5.96702" id="-691">
		<tag k="ADDRESS" v="Uførfjellveien 35, 4374 EGERSUND" />
		<tag k="amenity" v="kindergarten" />
		<tag k="capacity" v="58" />
		<tag k="contact:website" v="http://www.eigeroy-barnehage.no" />
		<tag k="max_age" v="5" />
		<tag k="min_age" v="1" />
		<tag k="name" v="Eigerøy barnehage" />
		<tag k="no-barnehage:nsrid" v="987913592" />
		<tag k="operator" v="Eigerøy barnehage SA" />
		<tag k="operator:type" v="private" />
	</node>
	<node lat="58.46898" lon="6.00527" id="-692">
		<tag k="ADDRESS" v="Langevannsveien 160, 4373 EGERSUND" />
		<tag k="amenity" v="kindergarten" />
		<tag k="capacity" v="39" />
		<tag k="max_age" v="5" />
		<tag k="min_age" v="1" />
		<tag k="name" v="Grøne Bråden barnehage" />
		<tag k="no-barnehage:nsrid" v="983817025" />
		<tag k="operator" v="Eigersund kommune" />
		<tag k="operator:type" v="public" />
	</node>
	<node lat="58.53328" lon="6.13225" id="-693">
		<tag k="ADDRESS" v="Eftelandsveien 15, 4376 HELLELAND" />
		<tag k="amenity" v="kindergarten" />
		<tag k="capacity" v="43" />
		<tag k="max_age" v="5" />
		<tag k="min_age" v="1" />
		<tag k="name" v="Helleland FUS barnehage" />
		<tag k="no-barnehage:nsrid" v="994614371" />
		<tag k="operator" v="Helleland Fus barnehage AS" />
		<tag k="operator:type" v="private" />
	</node>
	<node lat="58.48152" lon="5.88926" id="-694">
		<tag k="ADDRESS" v="Tueveien 2, 4375 HELLVIK" />
		<tag k="amenity" v="kindergarten" />
		<tag k="capacity" v="74" />
		<tag k="max_age" v="5" />
		<tag k="min_age" v="1" />
		<tag k="name" v="Hellvik barnehage" />
		<tag k="no-barnehage:nsrid" v="973459015" />
		<tag k="operator" v="Eigersund kommune" />
		<tag k="operator:type" v="public" />
	</node>
	<node lat="58.42192" lon="6.0077" id="-695">
		<tag k="ADDRESS" v="Hestnesveien 255, 4372 EGERSUND" />
		<tag k="amenity" v="kindergarten" />
		<tag k="capacity" v="27" />
		<tag k="max_age" v="5" />
		<tag k="min_age" v="1" />
		<tag k="name" v="Hestnes FUS barnehage" />
		<tag k="no-barnehage:nsrid" v="991875441" />
		<tag k="operator" v="Hestnes Fus barnehage AS" />
		<tag k="operator:type" v="private" />
	</node>
	<node lat="58.44754" lon="5.97613" id="-696">
		<tag k="ADDRESS" v="Skøyteveien 2, 4374 EGERSUND" />
		<tag k="amenity" v="kindergarten" />
		<tag k="capacity" v="33" />
		<tag k="max_age" v="5" />
		<tag k="min_age" v="1" />
		<tag k="name" v="Jernhagen barnehage" />
		<tag k="no-barnehage:nsrid" v="973502018" />
		<tag k="operator" v="Eigersund kommune" />
		<tag k="operator:type" v="public" />
	</node>
	<node lat="58.43319" lon="5.99702" id="-697">
		<tag k="ADDRESS" v="Baglerveien 10, 4371 EGERSUND" />
		<tag k="amenity" v="kindergarten" />
		<tag k="capacity" v="59" />
		<tag k="max_age" v="5" />
		<tag k="min_age" v="1" />
		<tag k="name" v="Kiellandskogen FUS barnehage" />
		<tag k="no-barnehage:nsrid" v="990472386" />
		<tag k="operator" v="Kiellandskogen Fus barnehage AS" />
		<tag k="operator:type" v="private" />
	</node>
	<node lat="58.43026" lon="6.00566" id="-698">
		<tag k="ADDRESS" v="Myllarsbakken 1, 4372 EGERSUND" />
		<tag k="amenity" v="kindergarten" />
		<tag k="capacity" v="44" />
		<tag k="contact:website" v="http://www.lykkeliten.com" />
		<tag k="max_age" v="5" />
		<tag k="min_age" v="1" />
		<tag k="name" v="Lykkeliten foreldrelagsbarnehage" />
		<tag k="no-barnehage:nsrid" v="983491251" />
		<tag k="operator" v="Lykkeliten SA" />
		<tag k="operator:type" v="private" />
	</node>
	<node lat="58.46276" lon="6.01084" id="-699">
		<tag k="ADDRESS" v="Sjukehusveien 1, 4373 EGERSUND" />
		<tag k="amenity" v="kindergarten" />
		<tag k="capacity" v="38" />
		<tag k="contact:website" v="http://www.raketten.no" />
		<tag k="max_age" v="5" />
		<tag k="min_age" v="1" />
		<tag k="name" v="Raketten barnehage" />
		<tag k="no-barnehage:nsrid" v="973589032" />
		<tag k="operator" v="Raketten barnehage SA" />
		<tag k="operator:type" v="private" />
	</node>
	<node lat="58.4532" lon="5.9662" id="-700">
		<tag k="ADDRESS" v="Uførfjellveien 37, 4374 EGERSUND" />
		<tag k="amenity" v="kindergarten" />
		<tag k="capacity" v="55" />
		<tag k="max_age" v="5" />
		<tag k="min_age" v="1" />
		<tag k="name" v="Robåten FUS barnehage" />
		<tag k="no-barnehage:nsrid" v="989304879" />
		<tag k="operator" v="Robåten Fus barnehage AS" />
		<tag k="operator:type" v="private" />
	</node>
	<node lat="58.43755" lon="5.99963" id="-701">
		<tag k="ADDRESS" v="Nonsfjellveien 55, 4371 EGERSUND" />
		<tag k="amenity" v="kindergarten" />
		<tag k="capacity" v="49" />
		<tag k="max_age" v="5" />
		<tag k="min_age" v="1" />
		<tag k="name" v="Rundevoll barnehage" />
		<tag k="no-barnehage:nsrid" v="975308073" />
		<tag k="operator" v="Eigersund kommune" />
		<tag k="operator:type" v="public" />
	</node>
	<node lat="58.46066" lon="5.99207" id="-702">
		<tag k="ADDRESS" v="Gamle Eigerøyveien 34, 4373 EGERSUND" />
		<tag k="amenity" v="kindergarten" />
		<tag k="capacity" v="85" />
		<tag k="contact:website" v="http://www.skattekisten-kulturbarnehage.no" />
		<tag k="max_age" v="5" />
		<tag k="min_age" v="1" />
		<tag k="name" v="Skattekisten kulturbarnehage" />
		<tag k="no-barnehage:nsrid" v="992589817" />
		<tag k="operator" v="Skattekisten kulturbarnehage AS" />
		<tag k="operator:type" v="private" />
	</node>
	<node lat="58.47184" lon="6.02379" id="-703">
		<tag k="ADDRESS" v="Sølvhagen 12, 4373 EGERSUND" />
		<tag k="amenity" v="kindergarten" />
		<tag k="capacity" v="78" />
		<tag k="max_age" v="5" />
		<tag k="min_age" v="1" />
		<tag k="name" v="Slettebø barnehage" />
		<tag k="no-barnehage:nsrid" v="979150172" />
		<tag k="operator" v="Eigersund kommune" />
		<tag k="operator:type" v="public" />
	</node>
	<node lat="58.45033" lon="5.99815" id="-704">
		<tag k="ADDRESS" v="Parkveien 1, 4370 EGERSUND" />
		<tag k="amenity" v="kindergarten" />
		<tag k="name" v="Tusenbeinet åpen barnehage" />
		<tag k="no-barnehage:nsrid" v="975323420" />
		<tag k="operator" v="Eigersund kommune" />
		<tag k="operator:type" v="public" />
	</node>
	<node lat="58.43188" lon="5.99857" id="-705">
		<tag k="ADDRESS" v="Vikingveien 5, 4371 EGERSUND" />
		<tag k="amenity" v="kindergarten" />
		<tag k="capacity" v="47" />
		<tag k="max_age" v="5" />
		<tag k="min_age" v="1" />
		<tag k="name" v="Varden barnehage" />
		<tag k="no-barnehage:nsrid" v="973465716" />
		<tag k="operator" v="Varden barnehage SA" />
		<tag k="operator:type" v="private" />
	</node>
</osm>
