<?xml version="1.0" encoding="UTF-8"?>
<osm generator="osmapis" version="0.6">
	<node id="-3306" lat="58.4504" lon="5.99865">
		<tag k="amenity" v="kindergarten" />
		<tag k="contact:email" v="tusenbeinetaabh@eigersund.kommune.no" />
		<tag k="name" v="Tusenbeinet Åpen barnehage" />
		<tag k="no-barnehage:nsrid" v="1014720" />
		<tag k="operator" v="Eigersund kommune" />
		<tag k="operator:type" v="public" />
		<tag k="start_date" v="1992-01-01" />
	</node>
	<node id="-3305" lat="58.4762" lon="6.02657">
		<tag k="amenity" v="kindergarten" />
		<tag k="capacity" v="77" />
		<tag k="contact:email" v="Sletteboebh@eigersund.kommune.no" />
		<tag k="max_age" v="5" />
		<tag k="min_age" v="1" />
		<tag k="name" v="Slettebø barnehage" />
		<tag k="no-barnehage:nsrid" v="1015003" />
		<tag k="operator" v="Eigersund kommune" />
		<tag k="operator:type" v="public" />
		<tag k="start_date" v="1994-08-01" />
	</node>
	<node id="-3304" lat="58.43188" lon="5.998566">
		<tag k="amenity" v="kindergarten" />
		<tag k="capacity" v="48" />
		<tag k="contact:email" v="vardbarn@frisurf.no" />
		<tag k="contact:phone" v="044911000" />
		<tag k="max_age" v="5" />
		<tag k="min_age" v="1" />
		<tag k="name" v="Samvirkeforetaket Varden Andelsbarnehage Sa" />
		<tag k="no-barnehage:nsrid" v="1019778" />
		<tag k="operator" v="Samvirkeforetaket Varden Andelsbarnehage Sa" />
		<tag k="operator:type" v="private" />
		<tag k="start_date" v="1989-01-01" />
	</node>
	<node id="-3303" lat="58.4375" lon="6.00008">
		<tag k="amenity" v="kindergarten" />
		<tag k="capacity" v="29" />
		<tag k="contact:email" v="rundevollbh@eigersund.kommune.no" />
		<tag k="max_age" v="5" />
		<tag k="min_age" v="1" />
		<tag k="name" v="Rundevoll barnehage" />
		<tag k="no-barnehage:nsrid" v="1018081" />
		<tag k="operator" v="Eigersund kommune" />
		<tag k="operator:type" v="public" />
		<tag k="start_date" v="1989-01-01" />
	</node>
	<node id="-3302" lat="58.43026" lon="6.005667">
		<tag k="amenity" v="kindergarten" />
		<tag k="capacity" v="72" />
		<tag k="contact:email" v="post@lykkeliten.com" />
		<tag k="contact:phone" v="51 46 54 11" />
		<tag k="contact:website" v="http://www.lykkeliten.com" />
		<tag k="max_age" v="5" />
		<tag k="min_age" v="1" />
		<tag k="name" v="Lykkeliten Foreldrelagsbarnehage" />
		<tag k="no-barnehage:nsrid" v="1020730" />
		<tag k="operator" v="Lykkeliten Sa" />
		<tag k="operator:type" v="private" />
		<tag k="start_date" v="2001-06-26" />
	</node>
	<node id="-3301" lat="58.44754" lon="5.976134">
		<tag k="amenity" v="kindergarten" />
		<tag k="capacity" v="37" />
		<tag k="contact:email" v="post@jernhagen.no" />
		<tag k="max_age" v="5" />
		<tag k="min_age" v="1" />
		<tag k="name" v="Jernhagen" />
		<tag k="no-barnehage:nsrid" v="1020082" />
		<tag k="operator" v="Stiftelsen Jernhagen barnehage" />
		<tag k="operator:type" v="private" />
		<tag k="start_date" v="1992-01-01" />
	</node>
	<node id="-3300" lat="58.4482" lon="5.99919">
		<tag k="amenity" v="kindergarten" />
		<tag k="capacity" v="22" />
		<tag k="contact:email" v="husaboebh@eigersund.kommune.no" />
		<tag k="max_age" v="5" />
		<tag k="min_age" v="1" />
		<tag k="name" v="Husabø barnehage" />
		<tag k="no-barnehage:nsrid" v="1014884" />
		<tag k="operator" v="Eigersund kommune" />
		<tag k="operator:type" v="public" />
		<tag k="start_date" v="1989-01-02" />
	</node>
	<node id="-3299" lat="58.4815" lon="5.88927">
		<tag k="amenity" v="kindergarten" />
		<tag k="capacity" v="55" />
		<tag k="contact:email" v="hellvikbh@eigersund.kommune.no" />
		<tag k="contact:phone" v="51493739" />
		<tag k="max_age" v="5" />
		<tag k="min_age" v="1" />
		<tag k="name" v="Hellvik barnehage" />
		<tag k="no-barnehage:nsrid" v="1015579" />
		<tag k="operator" v="Eigersund kommune" />
		<tag k="operator:type" v="public" />
		<tag k="start_date" v="1989-01-02" />
	</node>
	<node id="-3298" lat="58.469" lon="6.00527">
		<tag k="amenity" v="kindergarten" />
		<tag k="capacity" v="50" />
		<tag k="contact:email" v="irene.saeveland.rasmussen@eigersund.kommune.no" />
		<tag k="max_age" v="5" />
		<tag k="min_age" v="1" />
		<tag k="name" v="Grøne Bråden barnehage" />
		<tag k="no-barnehage:nsrid" v="1016318" />
		<tag k="operator" v="Eigersund kommune" />
		<tag k="operator:type" v="public" />
		<tag k="start_date" v="2001-08-15" />
	</node>
	<node id="-3297" lat="58.46276" lon="6.010831">
		<tag k="amenity" v="kindergarten" />
		<tag k="capacity" v="35" />
		<tag k="contact:email" v="post@raketten.no" />
		<tag k="contact:phone" v="51 49 34 70" />
		<tag k="contact:website" v="http://www.raketten.no" />
		<tag k="max_age" v="5" />
		<tag k="min_age" v="1" />
		<tag k="name" v="Andelslaget Raketten barnehage Sa" />
		<tag k="no-barnehage:nsrid" v="1019812" />
		<tag k="operator" v="Andelslaget Raketten barnehage Sa" />
		<tag k="operator:type" v="private" />
		<tag k="start_date" v="1989-01-01" />
	</node>
</osm>
