<?xml version="1.0" encoding="UTF-8"?>
<osm generator="osmapis" version="0.6">
	<node id="-4631" lat="62.4666" lon="6.81882">
		<tag k="amenity" v="kindergarten" />
		<tag k="capacity" v="63" />
		<tag k="contact:phone" v="70 27 10 20" />
		<tag k="max_age" v="5" />
		<tag k="min_age" v="1" />
		<tag k="name" v="Årøyhaugen barnehage" />
		<tag k="no-barnehage:nsrid" v="1013900" />
		<tag k="operator" v="Ørskog kommune" />
		<tag k="operator:type" v="public" />
		<tag k="start_date" v="1990-01-01" />
	</node>
	<node id="-4630" lat="62.4666" lon="6.81882">
		<tag k="amenity" v="kindergarten" />
		<tag k="capacity" v="23" />
		<tag k="max_age" v="5" />
		<tag k="min_age" v="1" />
		<tag k="name" v="Vaksvik barnehage" />
		<tag k="no-barnehage:nsrid" v="1014737" />
		<tag k="operator" v="Ørskog kommune" />
		<tag k="operator:type" v="public" />
		<tag k="start_date" v="1992-01-01" />
	</node>
	<node id="-4629" lat="62.48333" lon="6.8504">
		<tag k="amenity" v="kindergarten" />
		<tag k="capacity" v="46" />
		<tag k="max_age" v="5" />
		<tag k="min_age" v="1" />
		<tag k="name" v="Lande Fus barnehage AS" />
		<tag k="no-barnehage:nsrid" v="1022297" />
		<tag k="operator" v="Lande Fus barnehage AS" />
		<tag k="operator:type" v="private" />
		<tag k="start_date" v="2012-05-23" />
	</node>
</osm>
