<?xml version="1.0" encoding="UTF-8"?>
<osm version="0.6" generator="osmapis">
	<node lat="62.35616" lon="5.96068" id="-1266">
		<tag k="ADDRESS" v="Skogvegen 7, 6060 HAREID" />
		<tag k="amenity" v="kindergarten" />
		<tag k="capacity" v="63" />
		<tag k="max_age" v="5" />
		<tag k="min_age" v="1" />
		<tag k="name" v="Bigset barnehage" />
		<tag k="no-barnehage:nsrid" v="975323676" />
		<tag k="operator" v="Hareid kommune" />
		<tag k="operator:type" v="public" />
	</node>
	<node lat="0.0" lon="0.0" id="-1267">
		<tag k="ADDRESS" v="Teigene, 6060 HAREID" />
		<tag k="amenity" v="kindergarten" />
		<tag k="capacity" v="25" />
		<tag k="max_age" v="5" />
		<tag k="min_age" v="1" />
		<tag k="name" v="Hareid barnehage" />
		<tag k="no-barnehage:nsrid" v="975296083" />
		<tag k="operator" v="Hareid kommune" />
		<tag k="operator:type" v="public" />
	</node>
	<node lat="62.37089" lon="6.01068" id="-1268">
		<tag k="ADDRESS" v="Grova 40, 6060 HAREID" />
		<tag k="amenity" v="kindergarten" />
		<tag k="capacity" v="134" />
		<tag k="contact:website" v="http://www.gnistbarnehager.no" />
		<tag k="max_age" v="5" />
		<tag k="min_age" v="1" />
		<tag k="name" v="Norlandia Holstad barnehage" />
		<tag k="no-barnehage:nsrid" v="889548452" />
		<tag k="operator" v="Norlandia Holstad barnehage AS" />
		<tag k="operator:type" v="private" />
	</node>
	<node lat="62.36357" lon="6.0343" id="-1269">
		<tag k="ADDRESS" v="Plassane 7, 6060 HAREID" />
		<tag k="amenity" v="kindergarten" />
		<tag k="capacity" v="63" />
		<tag k="max_age" v="5" />
		<tag k="min_age" v="1" />
		<tag k="name" v="Syverplassen barnehage" />
		<tag k="no-barnehage:nsrid" v="980943488" />
		<tag k="operator" v="Hareid kommune" />
		<tag k="operator:type" v="public" />
	</node>
</osm>
