<?xml version="1.0" encoding="UTF-8"?>
<osm generator="osmapis" version="0.6">
	<node id="-4621" lat="62.3636" lon="6.03431">
		<tag k="amenity" v="kindergarten" />
		<tag k="capacity" v="54" />
		<tag k="contact:email" v="syverplassen@hareid.kommune.no" />
		<tag k="max_age" v="5" />
		<tag k="min_age" v="1" />
		<tag k="name" v="Syverplassen barnehage" />
		<tag k="no-barnehage:nsrid" v="1015759" />
		<tag k="operator" v="Hareid kommune" />
		<tag k="operator:type" v="public" />
		<tag k="start_date" v="1999-07-01" />
	</node>
	<node id="-4620" lat="62.3741" lon="6.02716">
		<tag k="amenity" v="kindergarten" />
		<tag k="capacity" v="25" />
		<tag k="contact:email" v="berit.liaset@hareid.kommune.no" />
		<tag k="max_age" v="5" />
		<tag k="min_age" v="1" />
		<tag k="name" v="Hareid barnehage" />
		<tag k="no-barnehage:nsrid" v="1017372" />
		<tag k="operator" v="Hareid kommune" />
		<tag k="operator:type" v="public" />
		<tag k="start_date" v="1976-01-01" />
	</node>
	<node id="-4619" lat="62.37089" lon="6.010673">
		<tag k="amenity" v="kindergarten" />
		<tag k="capacity" v="169" />
		<tag k="contact:email" v="leder.holstad@gnistbarnehager.no" />
		<tag k="contact:phone" v="+47 40 00 65 96" />
		<tag k="contact:website" v="http://www.gnistbarnehager.no" />
		<tag k="max_age" v="5" />
		<tag k="min_age" v="1" />
		<tag k="name" v="Gnist Barnehager Holstad AS" />
		<tag k="no-barnehage:nsrid" v="1021401" />
		<tag k="operator" v="Gnist Barnehager Holstad AS" />
		<tag k="operator:type" v="private" />
		<tag k="start_date" v="2006-02-07" />
	</node>
	<node id="-4618" lat="62.3714" lon="6.02636">
		<tag k="amenity" v="kindergarten" />
		<tag k="capacity" v="53" />
		<tag k="contact:email" v="randi.kvammen@hareid.kommune.no" />
		<tag k="max_age" v="5" />
		<tag k="min_age" v="1" />
		<tag k="name" v="Bigset barnehage" />
		<tag k="no-barnehage:nsrid" v="1014731" />
		<tag k="operator" v="Hareid kommune" />
		<tag k="operator:type" v="public" />
		<tag k="start_date" v="1992-01-01" />
	</node>
</osm>
