<?xml version="1.0" encoding="UTF-8"?>
<osm generator="osmapis" version="0.6">
	<node id="-3101" lat="60.89211" lon="10.93096">
		<tag k="ADDRESS" v="Fagerlundvegen 39B, 2383 BRUMUNDDAL" />
		<tag k="amenity" v="kindergarten" />
		<tag k="capacity" v="100" />
		<tag k="max_age" v="5" />
		<tag k="min_age" v="1" />
		<tag k="name" v="Bakkehaugen barnehage" />
		<tag k="no-barnehage:nsrid" v="992953403" />
		<tag k="operator" v="Ringsaker kommune" />
		<tag k="operator:type" v="public" />
	</node>
	<node id="-3102" lat="60.89141" lon="10.92881">
		<tag k="ADDRESS" v="Bekkevegen 54, 2383 BRUMUNDDAL" />
		<tag k="amenity" v="kindergarten" />
		<tag k="capacity" v="71" />
		<tag k="max_age" v="5" />
		<tag k="min_age" v="1" />
		<tag k="name" v="Bjørkebo barnehage Al" />
		<tag k="no-barnehage:nsrid" v="972286427" />
		<tag k="operator" v="Bjørkebo barnehage Sa" />
		<tag k="operator:type" v="private" />
	</node>
	<node id="-3103" lat="60.94282" lon="10.97882">
		<tag k="ADDRESS" v="Brumundvegen 229, 2386 BRUMUNDDAL" />
		<tag k="amenity" v="kindergarten" />
		<tag k="capacity" v="21" />
		<tag k="contact:website" v="http://brumund.barnehage.no" />
		<tag k="max_age" v="5" />
		<tag k="min_age" v="1" />
		<tag k="name" v="Brumund barnehage" />
		<tag k="no-barnehage:nsrid" v="986701419" />
		<tag k="operator" v="Brumund oppvekstsenter SA" />
		<tag k="operator:type" v="private" />
	</node>
	<node id="-3104" lat="0.0" lon="0.0">
		<tag k="ADDRESS" v="Mausetvegen 10, 2382 BRUMUNDDAL" />
		<tag k="amenity" v="kindergarten" />
		<tag k="name" v="Brumunddal, Moelv og Nes åpen barnehage" />
		<tag k="no-barnehage:nsrid" v="986951016" />
		<tag k="operator" v="Ringsaker kommune" />
		<tag k="operator:type" v="public" />
	</node>
	<node id="-3105" lat="61.02932" lon="10.55415">
		<tag k="ADDRESS" v="Mælumsvegen 7, 2372 BRØTTUM" />
		<tag k="amenity" v="kindergarten" />
		<tag k="capacity" v="35" />
		<tag k="max_age" v="5" />
		<tag k="min_age" v="1" />
		<tag k="name" v="Brøttum barnehage" />
		<tag k="no-barnehage:nsrid" v="975267911" />
		<tag k="operator" v="Ringsaker kommune" />
		<tag k="operator:type" v="public" />
	</node>
	<node id="-3106" lat="60.88223" lon="10.9542">
		<tag k="ADDRESS" v="Kirkevegen 99, 2388 BRUMUNDDAL" />
		<tag k="amenity" v="kindergarten" />
		<tag k="capacity" v="62" />
		<tag k="max_age" v="5" />
		<tag k="min_age" v="1" />
		<tag k="name" v="Buttekvern barnehage" />
		<tag k="no-barnehage:nsrid" v="975302229" />
		<tag k="operator" v="Ringsaker kommune" />
		<tag k="operator:type" v="public" />
	</node>
	<node id="-3107" lat="60.97284" lon="10.77625">
		<tag k="ADDRESS" v="Åsmarkvegen 735, 2364 NÆROSET" />
		<tag k="amenity" v="kindergarten" />
		<tag k="capacity" v="25" />
		<tag k="max_age" v="5" />
		<tag k="min_age" v="1" />
		<tag k="name" v="Fagernes barnehage" />
		<tag k="no-barnehage:nsrid" v="975266729" />
		<tag k="operator" v="Ringsaker kommune" />
		<tag k="operator:type" v="public" />
	</node>
	<node id="-3108" lat="60.93961" lon="10.71567">
		<tag k="ADDRESS" v="Bassengvegen 23, 2390 MOELV" />
		<tag k="amenity" v="kindergarten" />
		<tag k="capacity" v="50" />
		<tag k="max_age" v="5" />
		<tag k="min_age" v="1" />
		<tag k="name" v="Fossen barnehage" />
		<tag k="no-barnehage:nsrid" v="975302237" />
		<tag k="operator" v="Ringsaker kommune" />
		<tag k="operator:type" v="public" />
	</node>
	<node id="-3110" lat="60.87465" lon="10.95619">
		<tag k="ADDRESS" v="Fredheimvegen 3, 2380 BRUMUNDDAL" />
		<tag k="amenity" v="kindergarten" />
		<tag k="capacity" v="42" />
		<tag k="max_age" v="5" />
		<tag k="min_age" v="1" />
		<tag k="name" v="Fredheimvegen barnehage" />
		<tag k="no-barnehage:nsrid" v="975302245" />
		<tag k="operator" v="Ringsaker kommune" />
		<tag k="operator:type" v="public" />
	</node>
	<node id="-3111" lat="60.85427" lon="11.0171">
		<tag k="ADDRESS" v="Kvalslykkja 9, 2320 FURNES" />
		<tag k="amenity" v="kindergarten" />
		<tag k="capacity" v="28" />
		<tag k="max_age" v="5" />
		<tag k="min_age" v="1" />
		<tag k="name" v="Furnes barnehage" />
		<tag k="no-barnehage:nsrid" v="975302253" />
		<tag k="operator" v="Ringsaker kommune" />
		<tag k="operator:type" v="public" />
	</node>
	<node id="-3112" lat="60.86872" lon="10.77595">
		<tag k="ADDRESS" v="Brennerivegen 3, 2355 GAUPEN" />
		<tag k="amenity" v="kindergarten" />
		<tag k="capacity" v="28" />
		<tag k="max_age" v="5" />
		<tag k="min_age" v="1" />
		<tag k="name" v="Gaupen barnehage" />
		<tag k="no-barnehage:nsrid" v="973474871" />
		<tag k="operator" v="Gaupen barnehage AS" />
		<tag k="operator:type" v="private" />
	</node>
	<node id="-3113" lat="60.89926" lon="10.95832">
		<tag k="ADDRESS" v="Børkesvevegen 71, 2386 BRUMUNDDAL" />
		<tag k="amenity" v="kindergarten" />
		<tag k="capacity" v="55" />
		<tag k="max_age" v="5" />
		<tag k="min_age" v="1" />
		<tag k="name" v="Hempa barnehage" />
		<tag k="no-barnehage:nsrid" v="975302261" />
		<tag k="operator" v="Ringsaker kommune" />
		<tag k="operator:type" v="public" />
	</node>
	<node id="-3115" lat="60.89769" lon="10.92735">
		<tag k="ADDRESS" v="Ånnerudvegen 35, 2385 BRUMUNDDAL" />
		<tag k="amenity" v="kindergarten" />
		<tag k="capacity" v="18" />
		<tag k="max_age" v="5" />
		<tag k="min_age" v="1" />
		<tag k="name" v="Kjerringhaugen Steinerbarnehage" />
		<tag k="no-barnehage:nsrid" v="984619588" />
		<tag k="operator" v="Kjerringhaugen Steinerbarnehage" />
		<tag k="operator:type" v="private" />
	</node>
	<node id="-3116" lat="60.93134" lon="10.69764">
		<tag k="ADDRESS" v="Storgata 100A, 2390 MOELV" />
		<tag k="amenity" v="kindergarten" />
		<tag k="capacity" v="52" />
		<tag k="max_age" v="5" />
		<tag k="min_age" v="1" />
		<tag k="name" v="Kremmerhuset barnehage" />
		<tag k="no-barnehage:nsrid" v="972346489" />
		<tag k="operator" v="Kremmerhuset barnehage SA" />
		<tag k="operator:type" v="private" />
	</node>
	<node id="-3117" lat="60.87141" lon="11.03852">
		<tag k="ADDRESS" v="Engebretvegen 2, 2320 FURNES" />
		<tag k="amenity" v="kindergarten" />
		<tag k="capacity" v="15" />
		<tag k="max_age" v="5" />
		<tag k="min_age" v="1" />
		<tag k="name" v="Kylstad barnehage" />
		<tag k="no-barnehage:nsrid" v="975320642" />
		<tag k="operator" v="Ringsaker kommune" />
		<tag k="operator:type" v="public" />
	</node>
	<node id="-3118" lat="61.07189" lon="10.62836">
		<tag k="ADDRESS" v="Hagatunvegen 2, 2616 LISMARKA" />
		<tag k="amenity" v="kindergarten" />
		<tag k="capacity" v="23" />
		<tag k="max_age" v="5" />
		<tag k="min_age" v="1" />
		<tag k="name" v="Lismarka barnehage" />
		<tag k="no-barnehage:nsrid" v="975302288" />
		<tag k="operator" v="Ringsaker kommune" />
		<tag k="operator:type" v="public" />
	</node>
	<node id="-3119" lat="60.84942" lon="11.05809">
		<tag k="ADDRESS" v="Gålåsvegen 68A, 2320 FURNES" />
		<tag k="amenity" v="kindergarten" />
		<tag k="capacity" v="108" />
		<tag k="max_age" v="5" />
		<tag k="min_age" v="1" />
		<tag k="name" v="Marihøna gårds- og friluftsbarnehage" />
		<tag k="no-barnehage:nsrid" v="918394192" />
		<tag k="operator" v="Marihøna Gårds- og friluftsbarnehage AS" />
		<tag k="operator:type" v="private" />
	</node>
	<node id="-3120" lat="61.10577" lon="10.69436">
		<tag k="ADDRESS" v="Fjellnærvegen 1a, 2610 MESNALI" />
		<tag k="amenity" v="kindergarten" />
		<tag k="capacity" v="28" />
		<tag k="max_age" v="5" />
		<tag k="min_age" v="1" />
		<tag k="name" v="Mesnali barnehage Al" />
		<tag k="no-barnehage:nsrid" v="973489550" />
		<tag k="operator" v="Mesnali barnehage Sa" />
		<tag k="operator:type" v="private" />
	</node>
	<node id="-3121" lat="60.93155" lon="10.70193">
		<tag k="ADDRESS" v="Bergvegen 6, 2390 MOELV" />
		<tag k="amenity" v="kindergarten" />
		<tag k="capacity" v="54" />
		<tag k="max_age" v="5" />
		<tag k="min_age" v="1" />
		<tag k="name" v="Moelv barnehage" />
		<tag k="no-barnehage:nsrid" v="975295206" />
		<tag k="operator" v="Ringsaker kommune" />
		<tag k="operator:type" v="public" />
	</node>
	<node id="-3122" lat="61.03247" lon="10.54485">
		<tag k="ADDRESS" v="Mælumslykkja 22, 2372 BRØTTUM" />
		<tag k="amenity" v="kindergarten" />
		<tag k="capacity" v="23" />
		<tag k="max_age" v="5" />
		<tag k="min_age" v="1" />
		<tag k="name" v="Mæhlumslykkja barnehage" />
		<tag k="no-barnehage:nsrid" v="972285617" />
		<tag k="operator" v="Mælumslykkja barnehage SA" />
		<tag k="operator:type" v="private" />
	</node>
	<node id="-3123" lat="60.80231" lon="10.84702">
		<tag k="ADDRESS" v="Bergsmeierivegen 6, 2353 STAVSJØ" />
		<tag k="amenity" v="kindergarten" />
		<tag k="capacity" v="129" />
		<tag k="max_age" v="5" />
		<tag k="min_age" v="1" />
		<tag k="name" v="Nes barnehage" />
		<tag k="no-barnehage:nsrid" v="996001253" />
		<tag k="operator" v="Ringsaker kommune" />
		<tag k="operator:type" v="public" />
	</node>
	<node id="-3124" lat="60.99276" lon="10.67536">
		<tag k="ADDRESS" v="Nordheimvegen 207, 2372 BRØTTUM" />
		<tag k="amenity" v="kindergarten" />
		<tag k="capacity" v="22" />
		<tag k="contact:website" v="http://www.nordheimfriluft.barnehage.no" />
		<tag k="max_age" v="5" />
		<tag k="min_age" v="1" />
		<tag k="name" v="Nordheim friluftsbarnehage" />
		<tag k="no-barnehage:nsrid" v="982267595" />
		<tag k="operator" v="Nordheim Friluftsbarnehage Sa" />
		<tag k="operator:type" v="private" />
	</node>
	<node id="-3126" lat="60.82135" lon="11.05675">
		<tag k="ADDRESS" v="Kårtorpvegen 21, 2320 FURNES" />
		<tag k="amenity" v="kindergarten" />
		<tag k="capacity" v="70" />
		<tag k="max_age" v="5" />
		<tag k="min_age" v="1" />
		<tag k="name" v="Simenstua barnehage" />
		<tag k="no-barnehage:nsrid" v="998199948" />
		<tag k="operator" v="Ringsaker kommune" />
		<tag k="operator:type" v="public" />
	</node>
	<node id="-3127" lat="60.82511" lon="11.05816">
		<tag k="ADDRESS" v="Stensvevegen 15, 2320 FURNES" />
		<tag k="amenity" v="kindergarten" />
		<tag k="capacity" v="46" />
		<tag k="contact:website" v="http://www.stavsberg.barnehage.no" />
		<tag k="max_age" v="5" />
		<tag k="min_age" v="1" />
		<tag k="name" v="Stavsberg barnehage" />
		<tag k="no-barnehage:nsrid" v="975264009" />
		<tag k="operator" v="Stavsberg barnehage SA" />
		<tag k="operator:type" v="private" />
	</node>
	<node id="-3129" lat="60.93956" lon="10.70837">
		<tag k="ADDRESS" v="Elgtråkket 12, 2390 MOELV" />
		<tag k="amenity" v="kindergarten" />
		<tag k="capacity" v="67" />
		<tag k="max_age" v="5" />
		<tag k="min_age" v="1" />
		<tag k="name" v="Stiftelsen Borgen barnehage" />
		<tag k="no-barnehage:nsrid" v="973469630" />
		<tag k="operator" v="Stiftelsen Borgen barnehage" />
		<tag k="operator:type" v="private" />
	</node>
	<node id="-3130" lat="60.88741" lon="10.93865">
		<tag k="ADDRESS" v="Skolevegen 7, 2383 BRUMUNDDAL" />
		<tag k="amenity" v="kindergarten" />
		<tag k="capacity" v="15" />
		<tag k="max_age" v="5" />
		<tag k="min_age" v="1" />
		<tag k="name" v="Tunet barnehage" />
		<tag k="no-barnehage:nsrid" v="984786948" />
		<tag k="operator" v="Tunet barnehage AS" />
		<tag k="operator:type" v="private" />
	</node>
	<node id="-3131" lat="60.89666" lon="10.94296">
		<tag k="ADDRESS" v="Viulvegen 28, 2385 BRUMUNDDAL" />
		<tag k="amenity" v="kindergarten" />
		<tag k="capacity" v="53" />
		<tag k="max_age" v="5" />
		<tag k="min_age" v="1" />
		<tag k="name" v="Tømmerli barnehage" />
		<tag k="no-barnehage:nsrid" v="987415959" />
		<tag k="operator" v="Ringsaker kommune" />
		<tag k="operator:type" v="public" />
	</node>
	<node id="-3132" lat="60.91941" lon="10.90553">
		<tag k="ADDRESS" v="Flesakervegen 2, 2385 BRUMUNDDAL" />
		<tag k="amenity" v="kindergarten" />
		<tag k="capacity" v="68" />
		<tag k="contact:website" v="http://www.veldre.barnehage.no" />
		<tag k="max_age" v="5" />
		<tag k="min_age" v="1" />
		<tag k="name" v="Veldre barnehage" />
		<tag k="no-barnehage:nsrid" v="973494635" />
		<tag k="operator" v="Veldre barnehage Sa" />
		<tag k="operator:type" v="private" />
	</node>
	<node id="-3133" lat="60.88838" lon="10.9363">
		<tag k="ADDRESS" v="Bakkehaugvegen 4, 2383 BRUMUNDDAL" />
		<tag k="amenity" v="kindergarten" />
		<tag k="capacity" v="28" />
		<tag k="max_age" v="5" />
		<tag k="min_age" v="1" />
		<tag k="name" v="Vesleparken barnehage" />
		<tag k="no-barnehage:nsrid" v="975302318" />
		<tag k="operator" v="Ringsaker kommune" />
		<tag k="operator:type" v="public" />
	</node>
	<node id="-3134" lat="60.88965" lon="10.95271">
		<tag k="ADDRESS" v="Ankervegen 2, 2387 BRUMUNDDAL" />
		<tag k="amenity" v="kindergarten" />
		<tag k="capacity" v="157" />
		<tag k="max_age" v="5" />
		<tag k="min_age" v="1" />
		<tag k="name" v="Øverkvern FUS barnehage" />
		<tag k="no-barnehage:nsrid" v="894400862" />
		<tag k="operator" v="Øverkvern Fus barnehage AS" />
		<tag k="operator:type" v="private" />
	</node>
	<node id="-3135" lat="60.78177" lon="10.93886">
		<tag k="ADDRESS" v="Bryggevegen 242, 2350 NES PÅ HEDMARKEN" />
		<tag k="amenity" v="kindergarten" />
		<tag k="capacity" v="30" />
		<tag k="max_age" v="5" />
		<tag k="min_age" v="1" />
		<tag k="name" v="Årengen barnehage" />
		<tag k="no-barnehage:nsrid" v="995965747" />
		<tag k="operator" v="Årengen barnehage AS" />
		<tag k="operator:type" v="private" />
	</node>
	<node id="-3136" lat="61.02678" lon="10.75389">
		<tag k="ADDRESS" v="Kauserudvegen 1, 2365 ÅSMARKA" />
		<tag k="amenity" v="kindergarten" />
		<tag k="capacity" v="13" />
		<tag k="max_age" v="5" />
		<tag k="min_age" v="1" />
		<tag k="name" v="Åsen barnehage" />
		<tag k="no-barnehage:nsrid" v="993098396" />
		<tag k="operator" v="Ringsaker kommune" />
		<tag k="operator:type" v="public" />
	</node>
</osm>
