<?xml version="1.0" encoding="UTF-8"?>
<osm generator="osmapis" version="0.6">
	<node id="-3110" lat="60.86811" lon="10.87051">
		<tag k="ADDRESS" v="Rørsvegen 319, 2384 BRUMUNDDAL" />
		<tag k="amenity" v="kindergarten" />
		<tag k="capacity" v="11" />
		<tag k="max_age" v="5" />
		<tag k="min_age" v="1" />
		<tag k="name" v="Fredbo familiebarnehage" />
		<tag k="no-barnehage:nsrid" v="992779373" />
		<tag k="operator" v="Helle Skjellerud Kløvimo" />
		<tag k="operator:type" v="private" />
	</node>
	<node id="-3115" lat="61.01581" lon="10.7915">
		<tag k="ADDRESS" v="Fjellvegen 49, 2365 ÅSMARKA" />
		<tag k="amenity" v="kindergarten" />
		<tag k="capacity" v="9" />
		<tag k="max_age" v="5" />
		<tag k="min_age" v="1" />
		<tag k="name" v="Kjeldbakken familiebarnehage" />
		<tag k="no-barnehage:nsrid" v="973719025" />
		<tag k="operator" v="Britt Eriksen" />
		<tag k="operator:type" v="private" />
	</node>
	<node id="-3126" lat="60.84605" lon="11.04562">
		<tag k="ADDRESS" v="Lyksetvegen 15, 2320 FURNES" />
		<tag k="amenity" v="kindergarten" />
		<tag k="capacity" v="4" />
		<tag k="max_age" v="2" />
		<tag k="min_age" v="1" />
		<tag k="name" v="Nydal familiebarnehage" />
		<tag k="no-barnehage:nsrid" v="982286603" />
		<tag k="operator" v="Hege Lund-Asphaug" />
		<tag k="operator:type" v="private" />
	</node>
	<node id="-3129" lat="60.91697" lon="10.70855">
		<tag k="ADDRESS" v="Storgata 171, 2390 MOELV" />
		<tag k="amenity" v="kindergarten" />
		<tag k="capacity" v="5" />
		<tag k="max_age" v="5" />
		<tag k="min_age" v="1" />
		<tag k="name" v="Stensbak familiebarnehage" />
		<tag k="no-barnehage:nsrid" v="992753153" />
		<tag k="operator" v="Hanna S Skaaren-Fystro" />
		<tag k="operator:type" v="private" />
	</node>
</osm>
