<?xml version="1.0" encoding="UTF-8"?>
<osm generator="osmapis" version="0.6">
	<node id="-3269" lat="61.81388" lon="9.27913">
		<tag k="ADDRESS" v="Skulevegen 4, 2682 LALM" />
		<tag k="amenity" v="kindergarten" />
		<tag k="capacity" v="21" />
		<tag k="max_age" v="5" />
		<tag k="min_age" v="1" />
		<tag k="name" v="Lalm barnehage" />
		<tag k="no-barnehage:nsrid" v="975303357" />
		<tag k="operator" v="Vågå kommune" />
		<tag k="operator:type" v="public" />
	</node>
	<node id="-3270" lat="61.87249" lon="9.09911">
		<tag k="ADDRESS" v="Vågåvegen 57, 2680 VÅGÅ" />
		<tag k="amenity" v="kindergarten" />
		<tag k="capacity" v="54" />
		<tag k="max_age" v="5" />
		<tag k="min_age" v="1" />
		<tag k="name" v="Søre Grindstugu barnehage" />
		<tag k="no-barnehage:nsrid" v="975303381" />
		<tag k="operator" v="Vågå kommune" />
		<tag k="operator:type" v="public" />
	</node>
	<node id="-3271" lat="0.0" lon="0.0">
		<tag k="ADDRESS" v="Uppå Strond, 2680 VÅGÅ" />
		<tag k="amenity" v="kindergarten" />
		<tag k="capacity" v="17" />
		<tag k="max_age" v="5" />
		<tag k="min_age" v="1" />
		<tag k="name" v="Trudelutten barnehage" />
		<tag k="no-barnehage:nsrid" v="894236752" />
		<tag k="operator" v="Trudelutten barnehage AS" />
		<tag k="operator:type" v="private" />
	</node>
	<node id="-3272" lat="0.0" lon="0.0">
		<tag k="ADDRESS" v="Klones Gard, 2680 VÅGÅ" />
		<tag k="amenity" v="kindergarten" />
		<tag k="capacity" v="31" />
		<tag k="contact:website" v="http://www.tytingen.no" />
		<tag k="max_age" v="5" />
		<tag k="min_age" v="1" />
		<tag k="name" v="Tytingen Gards- og naturbarnehage" />
		<tag k="no-barnehage:nsrid" v="991604863" />
		<tag k="operator" v="Tytingen Gards- og Naturbarnehage AS" />
		<tag k="operator:type" v="private" />
	</node>
</osm>
