<?xml version="1.0" encoding="UTF-8"?>
<osm generator="osmapis" version="0.6">
	<node id="-3012" lat="63.77515" lon="11.73761">
		<tag k="ADDRESS" v="Vukusletta 1, 7660 VUKU" />
		<tag k="amenity" v="kindergarten" />
		<tag k="capacity" v="37" />
		<tag k="max_age" v="5" />
		<tag k="min_age" v="1" />
		<tag k="name" v="Vuku barnehage" />
		<tag k="no-barnehage:nsrid" v="1018274" />
		<tag k="operator" v="Verdal kommune" />
		<tag k="operator:type" v="public" />
	</node>
	<node id="-3011" lat="63.76236" lon="11.61489">
		<tag k="ADDRESS" v="Barlivegen 2, 7657 VERDAL" />
		<tag k="amenity" v="kindergarten" />
		<tag k="capacity" v="18" />
		<tag k="max_age" v="5" />
		<tag k="min_age" v="1" />
		<tag k="name" v="Ness barnehage" />
		<tag k="no-barnehage:nsrid" v="1018272" />
		<tag k="operator" v="Verdal kommune" />
		<tag k="operator:type" v="public" />
	</node>
	<node id="-3010" lat="63.77669" lon="11.63786">
		<tag k="ADDRESS" v="Landfallvegen 30, 7656 VERDAL" />
		<tag k="amenity" v="kindergarten" />
		<tag k="capacity" v="19" />
		<tag k="contact:website" v="http://www.melakollen-barnehage.no" />
		<tag k="max_age" v="5" />
		<tag k="min_age" v="1" />
		<tag k="name" v="Melakollen barnehage" />
		<tag k="no-barnehage:nsrid" v="1020251" />
		<tag k="operator" v="Melakollen barnehage Sa" />
		<tag k="operator:type" v="private" />
	</node>
	<node id="-3009" lat="63.78907" lon="11.46858">
		<tag k="ADDRESS" v="Gamlevegen 7, 7653 VERDAL" />
		<tag k="amenity" v="kindergarten" />
		<tag k="max_age" v="5" />
		<tag k="min_age" v="1" />
		<tag k="name" v="Askeladden barnehage" />
		<tag k="no-barnehage:nsrid" v="1019630" />
		<tag k="operator" v="Askeladden barnehage" />
		<tag k="operator:type" v="private" />
	</node>
</osm>
