<?xml version="1.0" encoding="UTF-8"?>
<osm version="0.6" generator="osmapis">
	<node lat="63.28796" lon="9.08521" id="-4979">
		<tag k="ADDRESS" v="Prinsengata 8, 7200 KYRKSÆTERØRA" />
		<tag k="amenity" v="kindergarten" />
		<tag k="capacity" v="34" />
		<tag k="max_age" v="5" />
		<tag k="min_age" v="1" />
		<tag k="name" v="Bakkely barnehage" />
		<tag k="no-barnehage:nsrid" v="974020750" />
		<tag k="operator" v="Heim kommune" />
		<tag k="operator:type" v="public" />
	</node>
	<node lat="63.3041" lon="9.08144" id="-4980">
		<tag k="ADDRESS" v="Skograndveien 36, 7200 KYRKSÆTERØRA" />
		<tag k="amenity" v="kindergarten" />
		<tag k="capacity" v="40" />
		<tag k="max_age" v="5" />
		<tag k="min_age" v="1" />
		<tag k="name" v="Grøtnes barnehage" />
		<tag k="no-barnehage:nsrid" v="975321053" />
		<tag k="operator" v="Heim kommune" />
		<tag k="operator:type" v="public" />
	</node>
	<node lat="0.0" lon="0.0" id="-4981">
		<tag k="ADDRESS" v="Blåbærveien 1, 7200 KYRKSÆTERØRA" />
		<tag k="amenity" v="kindergarten" />
		<tag k="capacity" v="33" />
		<tag k="contact:website" v="http://www.haugatun.barnehage.no" />
		<tag k="max_age" v="5" />
		<tag k="min_age" v="1" />
		<tag k="name" v="Haugatun barnehage" />
		<tag k="no-barnehage:nsrid" v="873459492" />
		<tag k="operator" v="Haugatun barnehage SA" />
		<tag k="operator:type" v="private" />
	</node>
	<node lat="63.292" lon="9.06379" id="-4982">
		<tag k="ADDRESS" v="Stølan 15, 7200 KYRKSÆTERØRA" />
		<tag k="amenity" v="kindergarten" />
		<tag k="capacity" v="53" />
		<tag k="max_age" v="5" />
		<tag k="min_age" v="1" />
		<tag k="name" v="Labbetuss barnehage" />
		<tag k="no-barnehage:nsrid" v="973470140" />
		<tag k="operator" v="Labbetuss barnehage SA" />
		<tag k="operator:type" v="private" />
	</node>
	<node lat="63.11766" lon="8.31248" id="-4983">
		<tag k="ADDRESS" v="Trøavegen 18, 6683 VÅGLAND" />
		<tag k="amenity" v="kindergarten" />
		<tag k="capacity" v="34" />
		<tag k="max_age" v="5" />
		<tag k="min_age" v="1" />
		<tag k="name" v="Liabø barnehage" />
		<tag k="no-barnehage:nsrid" v="974017598" />
		<tag k="operator" v="Heim kommune" />
		<tag k="operator:type" v="public" />
	</node>
	<node lat="63.39442" lon="8.98357" id="-4984">
		<tag k="ADDRESS" v="Hellandsjøveien 1411, 7206 HELLANDSJØEN" />
		<tag k="amenity" v="kindergarten" />
		<tag k="capacity" v="18" />
		<tag k="max_age" v="5" />
		<tag k="min_age" v="1" />
		<tag k="name" v="Svanem barnehage" />
		<tag k="no-barnehage:nsrid" v="975311163" />
		<tag k="operator" v="Heim kommune" />
		<tag k="operator:type" v="public" />
	</node>
	<node lat="63.12086" lon="8.5771" id="-4985">
		<tag k="ADDRESS" v="Arntrøvegen 19, 6687 VALSØYFJORD" />
		<tag k="amenity" v="kindergarten" />
		<tag k="capacity" v="12" />
		<tag k="max_age" v="5" />
		<tag k="min_age" v="1" />
		<tag k="name" v="Valsøyfjord barnehage" />
		<tag k="no-barnehage:nsrid" v="975314715" />
		<tag k="operator" v="Heim kommune" />
		<tag k="operator:type" v="public" />
	</node>
	<node lat="63.35118" lon="9.27675" id="-4986">
		<tag k="ADDRESS" v="Vennadalsveien 10, 7207 YTRE SNILLFJORD" />
		<tag k="amenity" v="kindergarten" />
		<tag k="capacity" v="6" />
		<tag k="max_age" v="5" />
		<tag k="min_age" v="1" />
		<tag k="name" v="Ven barnehage" />
		<tag k="no-barnehage:nsrid" v="975325431" />
		<tag k="operator" v="Heim kommune" />
		<tag k="operator:type" v="public" />
	</node>
	<node lat="63.20984" lon="9.00213" id="-4987">
		<tag k="ADDRESS" v="Russerveien 11, 7203 VINJEØRA" />
		<tag k="amenity" v="kindergarten" />
		<tag k="capacity" v="8" />
		<tag k="max_age" v="5" />
		<tag k="min_age" v="1" />
		<tag k="name" v="Vinje barnehage" />
		<tag k="no-barnehage:nsrid" v="975311171" />
		<tag k="operator" v="Heim kommune" />
		<tag k="operator:type" v="public" />
	</node>
</osm>
