<?xml version="1.0" encoding="UTF-8"?>
<osm generator="osmapis" version="0.6">
	<node id="-5397" lat="63.8608" lon="11.1548">
		<tag k="amenity" v="kindergarten" />
		<tag k="capacity" v="24" />
		<tag k="contact:email" v="Hanne.Tanem.Hemnes@inderoy.kommune.no" />
		<tag k="max_age" v="5" />
		<tag k="min_age" v="1" />
		<tag k="name" v="Utøy barnehage" />
		<tag k="no-barnehage:nsrid" v="1013939" />
		<tag k="operator" v="Inderøy kommune" />
		<tag k="operator:type" v="public" />
		<tag k="start_date" v="1990-01-01" />
	</node>
	<node id="-5396" lat="63.8779" lon="11.2335">
		<tag k="amenity" v="kindergarten" />
		<tag k="capacity" v="47" />
		<tag k="contact:email" v="bodil.myhr@inderoy.kommune.no" />
		<tag k="max_age" v="5" />
		<tag k="min_age" v="1" />
		<tag k="name" v="Sandvollan barnehage" />
		<tag k="no-barnehage:nsrid" v="1013903" />
		<tag k="operator" v="Inderøy kommune" />
		<tag k="operator:type" v="public" />
		<tag k="start_date" v="1989-01-01" />
	</node>
	<node id="-5395" lat="63.8785" lon="11.291">
		<tag k="amenity" v="kindergarten" />
		<tag k="capacity" v="71" />
		<tag k="contact:email" v="anne.helen.kristensen@inderoy.kommune.no" />
		<tag k="max_age" v="5" />
		<tag k="min_age" v="1" />
		<tag k="name" v="Sakshaug barnehage" />
		<tag k="no-barnehage:nsrid" v="1016123" />
		<tag k="operator" v="Inderøy kommune" />
		<tag k="operator:type" v="public" />
		<tag k="start_date" v="1976-01-01" />
	</node>
	<node id="-5394" lat="63.8623" lon="11.3922">
		<tag k="amenity" v="kindergarten" />
		<tag k="capacity" v="50" />
		<tag k="contact:email" v="eva.gun.tromsdal@inderoy.kommune.no" />
		<tag k="max_age" v="5" />
		<tag k="min_age" v="1" />
		<tag k="name" v="Røra barnehage" />
		<tag k="no-barnehage:nsrid" v="1018277" />
		<tag k="operator" v="Inderøy kommune" />
		<tag k="operator:type" v="public" />
		<tag k="start_date" v="1989-01-01" />
	</node>
	<node id="-5393" lat="63.8177" lon="11.0058">
		<tag k="amenity" v="kindergarten" />
		<tag k="capacity" v="23" />
		<tag k="contact:email" v="toril.alstad.damas@inderoy.kommune.no" />
		<tag k="contact:phone" v="+47 74060909" />
		<tag k="max_age" v="5" />
		<tag k="min_age" v="1" />
		<tag k="name" v="Mosvik barnehage" />
		<tag k="no-barnehage:nsrid" v="1016121" />
		<tag k="operator" v="Inderøy kommune" />
		<tag k="operator:type" v="public" />
		<tag k="start_date" v="1976-12-24" />
	</node>
	<node id="-5391" lat="63.8967" lon="11.1864">
		<tag k="amenity" v="kindergarten" />
		<tag k="capacity" v="27" />
		<tag k="contact:email" v="olaug.marie.wold.vang@inderoy.kommune.no" />
		<tag k="max_age" v="5" />
		<tag k="min_age" v="1" />
		<tag k="name" v="Lyngstad barnehage" />
		<tag k="no-barnehage:nsrid" v="1014748" />
		<tag k="operator" v="Inderøy kommune" />
		<tag k="operator:type" v="public" />
		<tag k="start_date" v="1989-01-02" />
	</node>
	<node id="-5390" lat="63.87424" lon="11.29204">
		<tag k="amenity" v="kindergarten" />
		<tag k="capacity" v="43" />
		<tag k="contact:email" v="kribelin@online.no" />
		<tag k="contact:phone" v="+47 74 15 49 81" />
		<tag k="max_age" v="5" />
		<tag k="min_age" v="1" />
		<tag k="name" v="Kribelin barnehage AS" />
		<tag k="no-barnehage:nsrid" v="1021426" />
		<tag k="operator" v="Kribelin barnehage AS" />
		<tag k="operator:type" v="private" />
		<tag k="start_date" v="2003-01-01" />
	</node>
	<node id="-5388" lat="63.90004" lon="11.3047">
		<tag k="amenity" v="kindergarten" />
		<tag k="capacity" v="19" />
		<tag k="contact:email" v="eventyrskogen.nbhg@gmail.com" />
		<tag k="max_age" v="5" />
		<tag k="min_age" v="1" />
		<tag k="name" v="Eventyrskogen Naturbarnehage AS" />
		<tag k="no-barnehage:nsrid" v="1021816" />
		<tag k="operator" v="Eventyrskogen Naturbarnehage AS" />
		<tag k="operator:type" v="private" />
		<tag k="start_date" v="2006-03-07" />
	</node>
	<node id="-5387" lat="63.8479" lon="11.39383">
		<tag k="amenity" v="kindergarten" />
		<tag k="capacity" v="22" />
		<tag k="contact:email" v="hilde.bomo@taraldsen-regnskap.no" />
		<tag k="contact:phone" v="+47 91578211" />
		<tag k="max_age" v="5" />
		<tag k="min_age" v="1" />
		<tag k="name" v="Elvebakken barnehage AS" />
		<tag k="no-barnehage:nsrid" v="1022071" />
		<tag k="operator" v="Elvebakken barnehage AS" />
		<tag k="operator:type" v="private" />
		<tag k="start_date" v="2009-01-01" />
	</node>
</osm>
