<?xml version="1.0" encoding="UTF-8"?>
<osm version="0.6" generator="osmapis">
	<node lat="59.99323" lon="11.10827" id="-2168">
		<tag k="ADDRESS" v="Branderudveien 91, 2015 LEIRSUND" />
		<tag k="amenity" v="kindergarten" />
		<tag k="capacity" v="62" />
		<tag k="max_age" v="5" />
		<tag k="min_age" v="1" />
		<tag k="name" v="Asak Kommunal barnehage" />
		<tag k="no-barnehage:nsrid" v="973608770" />
		<tag k="operator" v="Lillestrøm kommune" />
		<tag k="operator:type" v="public" />
	</node>
	<node lat="59.99078" lon="11.3717" id="-2169">
		<tag k="ADDRESS" v="Skåningsrudveien 30, 1925 BLAKER" />
		<tag k="amenity" v="kindergarten" />
		<tag k="capacity" v="57" />
		<tag k="max_age" v="5" />
		<tag k="min_age" v="1" />
		<tag k="name" v="Blaker barnehage" />
		<tag k="no-barnehage:nsrid" v="975301818" />
		<tag k="operator" v="Lillestrøm kommune" />
		<tag k="operator:type" v="public" />
	</node>
	<node lat="0.0" lon="0.0" id="-2170">
		<tag k="ADDRESS" v="Strømsveien 14 B, 1467 STRØMMEN" />
		<tag k="amenity" v="kindergarten" />
		<tag k="capacity" v="76" />
		<tag k="max_age" v="5" />
		<tag k="min_age" v="1" />
		<tag k="name" v="Breidablikk kommunale barnehage" />
		<tag k="no-barnehage:nsrid" v="973609009" />
		<tag k="operator" v="Lillestrøm kommune" />
		<tag k="operator:type" v="public" />
	</node>
	<node lat="60.0237" lon="11.09973" id="-2171">
		<tag k="ADDRESS" v="Brusletta 11, 2016 FROGNER" />
		<tag k="amenity" v="kindergarten" />
		<tag k="capacity" v="66" />
		<tag k="contact:website" v="http://www.bruslettabarnehage.no" />
		<tag k="max_age" v="5" />
		<tag k="min_age" v="1" />
		<tag k="name" v="Brusletta barnehage" />
		<tag k="no-barnehage:nsrid" v="984168160" />
		<tag k="operator" v="Brusletta barnehage SA" />
		<tag k="operator:type" v="private" />
	</node>
	<node lat="59.99681" lon="11.01966" id="-2172">
		<tag k="ADDRESS" v="Hattemakerlia 2, 2019 SKEDSMOKORSET" />
		<tag k="amenity" v="kindergarten" />
		<tag k="capacity" v="81" />
		<tag k="contact:website" v="http://fus.no/branastoppen" />
		<tag k="max_age" v="5" />
		<tag k="min_age" v="1" />
		<tag k="name" v="Brånåstoppen FUS barnehage" />
		<tag k="no-barnehage:nsrid" v="984255012" />
		<tag k="operator" v="Brånåstoppen Fus barnehage AS" />
		<tag k="operator:type" v="private" />
	</node>
	<node lat="59.95359" lon="11.00074" id="-2173">
		<tag k="ADDRESS" v="Bråteveien 59, 1465 STRØMMEN" />
		<tag k="amenity" v="kindergarten" />
		<tag k="capacity" v="129" />
		<tag k="max_age" v="5" />
		<tag k="min_age" v="1" />
		<tag k="name" v="Bråtejordet barnehage" />
		<tag k="no-barnehage:nsrid" v="991542221" />
		<tag k="operator" v="Lillestrøm kommune" />
		<tag k="operator:type" v="public" />
	</node>
	<node lat="60.00103" lon="11.31717" id="-2174">
		<tag k="ADDRESS" v="Toreidveien 23, 1925 BLAKER" />
		<tag k="amenity" v="kindergarten" />
		<tag k="capacity" v="72" />
		<tag k="contact:website" v="http://camembertn.kanvas.no/" />
		<tag k="max_age" v="5" />
		<tag k="min_age" v="1" />
		<tag k="name" v="Camembert'n Kanvas-barnehage" />
		<tag k="no-barnehage:nsrid" v="992301872" />
		<tag k="operator" v="Stiftelsen Kanvas" />
		<tag k="operator:type" v="private" />
	</node>
	<node lat="59.87473" lon="11.22036" id="-2175">
		<tag k="ADDRESS" v="Dalheimveien 9, 1903 GAN" />
		<tag k="amenity" v="kindergarten" />
		<tag k="capacity" v="59" />
		<tag k="max_age" v="5" />
		<tag k="min_age" v="1" />
		<tag k="name" v="Dalen barnehage" />
		<tag k="no-barnehage:nsrid" v="917329583" />
		<tag k="operator" v="Lillestrøm kommune" />
		<tag k="operator:type" v="public" />
	</node>
	<node lat="59.97683" lon="11.03469" id="-2177">
		<tag k="ADDRESS" v="Elvengveien 14, 2007 KJELLER" />
		<tag k="amenity" v="kindergarten" />
		<tag k="capacity" v="135" />
		<tag k="contact:website" v="http://espira.no/barnehage/espira-kunnskapsbyen/" />
		<tag k="max_age" v="5" />
		<tag k="min_age" v="1" />
		<tag k="name" v="Espira Kunnskapsbyen barnehage" />
		<tag k="no-barnehage:nsrid" v="977066026" />
		<tag k="operator" v="Espira Kunnskapsbyen AS" />
		<tag k="operator:type" v="private" />
	</node>
	<node lat="59.93068" lon="11.16631" id="-2178">
		<tag k="ADDRESS" v="Faldalsveien 20, 1900 FETSUND" />
		<tag k="amenity" v="kindergarten" />
		<tag k="capacity" v="66" />
		<tag k="contact:website" v="http://www.fetsund.barnehage.no" />
		<tag k="max_age" v="5" />
		<tag k="min_age" v="1" />
		<tag k="name" v="Fetsund barnehage" />
		<tag k="no-barnehage:nsrid" v="980507300" />
		<tag k="operator" v="Fetsund barnehage SA" />
		<tag k="operator:type" v="private" />
	</node>
	<node lat="60.03102" lon="11.06592" id="-2179">
		<tag k="ADDRESS" v="Fjellboveien 77, 2016 FROGNER" />
		<tag k="amenity" v="kindergarten" />
		<tag k="capacity" v="44" />
		<tag k="max_age" v="5" />
		<tag k="min_age" v="1" />
		<tag k="name" v="Fjellboveien barnehage" />
		<tag k="no-barnehage:nsrid" v="880992082" />
		<tag k="operator" v="Lillestrøm kommune" />
		<tag k="operator:type" v="public" />
	</node>
	<node lat="60.02404" lon="11.10958" id="-2180">
		<tag k="ADDRESS" v="Frognerveien 42, 2016 FROGNER" />
		<tag k="amenity" v="kindergarten" />
		<tag k="capacity" v="49" />
		<tag k="max_age" v="5" />
		<tag k="min_age" v="1" />
		<tag k="name" v="Frogner barnehage" />
		<tag k="no-barnehage:nsrid" v="975301826" />
		<tag k="operator" v="Lillestrøm kommune" />
		<tag k="operator:type" v="public" />
	</node>
	<node lat="59.94248" lon="11.15283" id="-2181">
		<tag k="ADDRESS" v="Garderåsveien 202, 1900 FETSUND" />
		<tag k="amenity" v="kindergarten" />
		<tag k="capacity" v="53" />
		<tag k="max_age" v="5" />
		<tag k="min_age" v="1" />
		<tag k="name" v="Garderåsen barnehage" />
		<tag k="no-barnehage:nsrid" v="873606002" />
		<tag k="operator" v="Lillestrøm kommune" />
		<tag k="operator:type" v="public" />
	</node>
	<node lat="59.94508" lon="11.01737" id="-2182">
		<tag k="ADDRESS" v="Hagaveien 21, 1467 STRØMMEN" />
		<tag k="amenity" v="kindergarten" />
		<tag k="capacity" v="54" />
		<tag k="max_age" v="5" />
		<tag k="min_age" v="1" />
		<tag k="name" v="Hagan barnehage" />
		<tag k="no-barnehage:nsrid" v="974555824" />
		<tag k="operator" v="Lillestrøm kommune" />
		<tag k="operator:type" v="public" />
	</node>
	<node lat="59.98732" lon="11.03946" id="-2184">
		<tag k="ADDRESS" v="Prost Stabels vei 438, 2019 SKEDSMOKORSET" />
		<tag k="amenity" v="kindergarten" />
		<tag k="capacity" v="61" />
		<tag k="contact:website" v="http://holthagen.barnehage.no" />
		<tag k="max_age" v="5" />
		<tag k="min_age" v="1" />
		<tag k="name" v="Holthagen barnehage" />
		<tag k="no-barnehage:nsrid" v="973484532" />
		<tag k="operator" v="Holthagen barnehage SA" />
		<tag k="operator:type" v="private" />
	</node>
	<node lat="60.02243" lon="11.11526" id="-2185">
		<tag k="ADDRESS" v="Frogneralleen 1, 2016 FROGNER" />
		<tag k="amenity" v="kindergarten" />
		<tag k="capacity" v="32" />
		<tag k="contact:website" v="http://hoppensprett.no" />
		<tag k="max_age" v="5" />
		<tag k="min_age" v="1" />
		<tag k="name" v="Hoppensprett Frogner aktivitetsbarnehage" />
		<tag k="no-barnehage:nsrid" v="991679529" />
		<tag k="operator" v="Hoppensprett AS" />
		<tag k="operator:type" v="private" />
	</node>
	<node lat="59.98455" lon="11.23377" id="-2186">
		<tag k="ADDRESS" v="Parkveien 10, 1920 SØRUMSAND" />
		<tag k="amenity" v="kindergarten" />
		<tag k="capacity" v="89" />
		<tag k="max_age" v="5" />
		<tag k="min_age" v="1" />
		<tag k="name" v="Idrettsparken barnehage" />
		<tag k="no-barnehage:nsrid" v="975295680" />
		<tag k="operator" v="Lillestrøm kommune" />
		<tag k="operator:type" v="public" />
	</node>
	<node lat="59.96808" lon="11.0553" id="-2189">
		<tag k="ADDRESS" v="Sildreveien 4, 2007 KJELLER" />
		<tag k="amenity" v="kindergarten" />
		<tag k="capacity" v="131" />
		<tag k="max_age" v="5" />
		<tag k="min_age" v="1" />
		<tag k="name" v="Kjeller barnehage" />
		<tag k="no-barnehage:nsrid" v="974555832" />
		<tag k="operator" v="Lillestrøm kommune" />
		<tag k="operator:type" v="public" />
	</node>
	<node lat="60.00603" lon="11.03392" id="-2191">
		<tag k="ADDRESS" v="Korshagen 6, 2020 SKEDSMOKORSET" />
		<tag k="amenity" v="kindergarten" />
		<tag k="capacity" v="74" />
		<tag k="max_age" v="5" />
		<tag k="min_age" v="1" />
		<tag k="name" v="Korshagen kommunale barnehage" />
		<tag k="no-barnehage:nsrid" v="974555840" />
		<tag k="operator" v="Lillestrøm kommune" />
		<tag k="operator:type" v="public" />
	</node>
	<node lat="59.98411" lon="10.98308" id="-2192">
		<tag k="ADDRESS" v="Kragerudveien 35, 2013 SKJETTEN" />
		<tag k="amenity" v="kindergarten" />
		<tag k="capacity" v="63" />
		<tag k="contact:website" v="http://kragerud.barnehage.no/" />
		<tag k="max_age" v="5" />
		<tag k="min_age" v="1" />
		<tag k="name" v="Kragerud barnehage" />
		<tag k="no-barnehage:nsrid" v="991552758" />
		<tag k="operator" v="Kragerud barnehage AS" />
		<tag k="operator:type" v="private" />
	</node>
	<node lat="59.92161" lon="11.18059" id="-2193">
		<tag k="ADDRESS" v="Kringenveien 1, 1900 FETSUND" />
		<tag k="amenity" v="kindergarten" />
		<tag k="contact:website" v="http://www.facebook.com/groups/145831165523968/" />
		<tag k="name" v="Kringen åpen barnehage Møteplass for Små og Store" />
		<tag k="no-barnehage:nsrid" v="983436536" />
		<tag k="operator" v="Fetsund Kfuk-Kfum" />
		<tag k="operator:type" v="private" />
	</node>
	<node lat="59.97262" lon="10.97374" id="-2194">
		<tag k="ADDRESS" v="Karterudgata 1, 2013 SKJETTEN" />
		<tag k="amenity" v="kindergarten" />
		<tag k="capacity" v="34" />
		<tag k="contact:website" v="http://lahaug.no" />
		<tag k="max_age" v="5" />
		<tag k="min_age" v="1" />
		<tag k="name" v="Lahaug gårds- og naturbarnehage" />
		<tag k="no-barnehage:nsrid" v="984723628" />
		<tag k="operator" v="Lahaug Gårds- og naturbarnehage AS" />
		<tag k="operator:type" v="private" />
	</node>
	<node lat="59.95044" lon="11.07471" id="-2196">
		<tag k="ADDRESS" v="Isakveien 38, 2004 LILLESTRØM" />
		<tag k="amenity" v="kindergarten" />
		<tag k="capacity" v="82" />
		<tag k="contact:website" v="http://fus.no/lillehagen" />
		<tag k="max_age" v="5" />
		<tag k="min_age" v="1" />
		<tag k="name" v="Lillehagen FUS barnehage" />
		<tag k="no-barnehage:nsrid" v="984403569" />
		<tag k="operator" v="Lillehagen Fus barnehage AS" />
		<tag k="operator:type" v="private" />
	</node>
	<node lat="59.95389" lon="11.06298" id="-2197">
		<tag k="ADDRESS" v="Leiv Eirikssons gate 7, 2004 LILLESTRØM" />
		<tag k="amenity" v="kindergarten" />
		<tag k="capacity" v="99" />
		<tag k="contact:website" v="http://www.lillestrom.kommune.no/barnehage/barnehagene-i-lillestrom/lillestrom-barnehage/" />
		<tag k="max_age" v="5" />
		<tag k="min_age" v="1" />
		<tag k="name" v="Lillestrøm barnehage" />
		<tag k="no-barnehage:nsrid" v="973608851" />
		<tag k="operator" v="Lillestrøm kommune" />
		<tag k="operator:type" v="public" />
	</node>
	<node lat="59.97267" lon="10.99392" id="-2198">
		<tag k="ADDRESS" v="Landskronaveien 271, 2013 SKJETTEN" />
		<tag k="amenity" v="kindergarten" />
		<tag k="capacity" v="138" />
		<tag k="max_age" v="5" />
		<tag k="min_age" v="1" />
		<tag k="name" v="Linbråten barnehage" />
		<tag k="no-barnehage:nsrid" v="992366389" />
		<tag k="operator" v="Lillestrøm kommune" />
		<tag k="operator:type" v="public" />
	</node>
	<node lat="60.03928" lon="11.12625" id="-2199">
		<tag k="ADDRESS" v="Farexveien 6, 2016 FROGNER" />
		<tag k="amenity" v="kindergarten" />
		<tag k="capacity" v="65" />
		<tag k="max_age" v="5" />
		<tag k="min_age" v="1" />
		<tag k="name" v="Lindeberg FUS barnehage" />
		<tag k="no-barnehage:nsrid" v="889639482" />
		<tag k="operator" v="Lindeberg Fus barnehage AS" />
		<tag k="operator:type" v="private" />
	</node>
	<node lat="60.0101" lon="11.1499" id="-2200">
		<tag k="ADDRESS" v="Lunderåsveien 15, 2016 FROGNER" />
		<tag k="amenity" v="kindergarten" />
		<tag k="capacity" v="75" />
		<tag k="contact:website" v="http://fus.no/lunderasen" />
		<tag k="max_age" v="5" />
		<tag k="min_age" v="1" />
		<tag k="name" v="Lunderåsen FUS barnehage" />
		<tag k="no-barnehage:nsrid" v="888017852" />
		<tag k="operator" v="Lunderåsen Fus barnehage AS" />
		<tag k="operator:type" v="private" />
	</node>
	<node lat="59.92134" lon="11.16414" id="-2201">
		<tag k="ADDRESS" v="Kirkeveien 93, 1900 FETSUND" />
		<tag k="amenity" v="kindergarten" />
		<tag k="capacity" v="144" />
		<tag k="contact:website" v="http://laringsverkstedet.no/barnehage/ostersund-idrettsbarnehage" />
		<tag k="max_age" v="5" />
		<tag k="min_age" v="1" />
		<tag k="name" v="Læringsverkstedet Østersund idrettsbarnehage" />
		<tag k="no-barnehage:nsrid" v="973606018" />
		<tag k="operator" v="Læringsverkstedet Østersund idrettsbarnehage AS" />
		<tag k="operator:type" v="private" />
	</node>
	<node lat="59.95901" lon="10.99497" id="-2202">
		<tag k="ADDRESS" v="Hellaveien 3, 2013 SKJETTEN" />
		<tag k="amenity" v="kindergarten" />
		<tag k="capacity" v="90" />
		<tag k="contact:website" v="http://fus.no/lovehjerte" />
		<tag k="max_age" v="5" />
		<tag k="min_age" v="1" />
		<tag k="name" v="Løvehjerte FUS barnehage" />
		<tag k="no-barnehage:nsrid" v="884815452" />
		<tag k="operator" v="Løvehjerte Fus barnehage AS" />
		<tag k="operator:type" v="private" />
	</node>
	<node lat="59.97251" lon="10.99759" id="-2203">
		<tag k="ADDRESS" v="Landskronaveien 336, 2013 SKJETTEN" />
		<tag k="amenity" v="kindergarten" />
		<tag k="capacity" v="68" />
		<tag k="max_age" v="5" />
		<tag k="min_age" v="1" />
		<tag k="name" v="Melby barnehage" />
		<tag k="no-barnehage:nsrid" v="973608800" />
		<tag k="operator" v="Lillestrøm kommune" />
		<tag k="operator:type" v="public" />
	</node>
	<node lat="59.96204" lon="11.0526" id="-2204">
		<tag k="ADDRESS" v="Odalsgata 11, 2003 LILLESTRØM" />
		<tag k="amenity" v="kindergarten" />
		<tag k="capacity" v="54" />
		<tag k="max_age" v="5" />
		<tag k="min_age" v="1" />
		<tag k="name" v="Måsan barnehage" />
		<tag k="no-barnehage:nsrid" v="973608843" />
		<tag k="operator" v="Lillestrøm kommune" />
		<tag k="operator:type" v="public" />
	</node>
	<node lat="59.92447" lon="11.13913" id="-2205">
		<tag k="ADDRESS" v="Pålsebakken 3C, 1900 FETSUND" />
		<tag k="amenity" v="kindergarten" />
		<tag k="capacity" v="60" />
		<tag k="contact:website" v="http://www.nerdrumshagen.barnehage.no" />
		<tag k="max_age" v="5" />
		<tag k="min_age" v="1" />
		<tag k="name" v="Nerdrumshagen barnehage" />
		<tag k="no-barnehage:nsrid" v="991042148" />
		<tag k="operator" v="Nerdrumshagen barnehage AS" />
		<tag k="operator:type" v="private" />
	</node>
	<node lat="59.95134" lon="11.01385" id="-2206">
		<tag k="ADDRESS" v="Bernt Ankers vei 9, 2010 STRØMMEN" />
		<tag k="amenity" v="kindergarten" />
		<tag k="capacity" v="27" />
		<tag k="contact:website" v="http://noahsarkas.no" />
		<tag k="max_age" v="5" />
		<tag k="min_age" v="1" />
		<tag k="name" v="Noahs Ark barnehage" />
		<tag k="no-barnehage:nsrid" v="920560504" />
		<tag k="operator" v="Noahs Ark barnehage AS" />
		<tag k="operator:type" v="private" />
	</node>
	<node lat="60.02293" lon="11.21561" id="-2207">
		<tag k="ADDRESS" v="Nylandveien 17, 1923 SØRUM" />
		<tag k="amenity" v="kindergarten" />
		<tag k="capacity" v="69" />
		<tag k="max_age" v="5" />
		<tag k="min_age" v="1" />
		<tag k="name" v="Nordli barnehage" />
		<tag k="no-barnehage:nsrid" v="975295699" />
		<tag k="operator" v="Lillestrøm kommune" />
		<tag k="operator:type" v="public" />
	</node>
	<node lat="59.96004" lon="11.03037" id="-2208">
		<tag k="ADDRESS" v="K.M. Nordangers vei 32, 2003 LILLESTRØM" />
		<tag k="amenity" v="kindergarten" />
		<tag k="capacity" v="68" />
		<tag k="contact:website" v="http://furulund.norlandiabarnehagene.no" />
		<tag k="max_age" v="5" />
		<tag k="min_age" v="1" />
		<tag k="name" v="Norlandia Furulund barnehage" />
		<tag k="no-barnehage:nsrid" v="984914598" />
		<tag k="operator" v="Norlandia Furulund barnehage AS" />
		<tag k="operator:type" v="private" />
	</node>
	<node lat="59.99402" lon="11.03837" id="-2209">
		<tag k="ADDRESS" v="Vestvollveien 31, 2019 SKEDSMOKORSET" />
		<tag k="amenity" v="kindergarten" />
		<tag k="capacity" v="108" />
		<tag k="contact:website" v="http://www.norlandiabarnehagene.no/sten-taerud" />
		<tag k="max_age" v="5" />
		<tag k="min_age" v="1" />
		<tag k="name" v="Norlandia Sten-tærud barnehage" />
		<tag k="no-barnehage:nsrid" v="989012037" />
		<tag k="operator" v="Norlandia Sten-Tærud barnehage AS" />
		<tag k="operator:type" v="private" />
	</node>
	<node lat="59.98074" lon="11.23448" id="-2210">
		<tag k="ADDRESS" v="Magnus Sørlis vei 2, 1920 SØRUMSAND" />
		<tag k="amenity" v="kindergarten" />
		<tag k="capacity" v="111" />
		<tag k="contact:website" v="http://sorumsand.norlandiabarnehagene.no" />
		<tag k="max_age" v="5" />
		<tag k="min_age" v="1" />
		<tag k="name" v="Norlandia Sørumsand barnehage" />
		<tag k="no-barnehage:nsrid" v="989012088" />
		<tag k="operator" v="Norlandia Sørumsand barnehage AS" />
		<tag k="operator:type" v="private" />
	</node>
	<node lat="60.02901" lon="11.07544" id="-2211">
		<tag k="ADDRESS" v="Åskammen 5, 2016 FROGNER" />
		<tag k="amenity" v="kindergarten" />
		<tag k="capacity" v="102" />
		<tag k="contact:website" v="http://vardefjellet.norlandiabarnehagene.no/" />
		<tag k="max_age" v="5" />
		<tag k="min_age" v="1" />
		<tag k="name" v="Norlandia Vardefjellet kulturbarnehage" />
		<tag k="no-barnehage:nsrid" v="893017992" />
		<tag k="operator" v="Norlandia Vardefjellet barnehage AS" />
		<tag k="operator:type" v="private" />
	</node>
	<node lat="59.964" lon="11.04579" id="-2212">
		<tag k="ADDRESS" v="Vestbygata 57, 2003 LILLESTRØM" />
		<tag k="amenity" v="kindergarten" />
		<tag k="capacity" v="24" />
		<tag k="contact:website" v="http://www.lillestrom.kommune.no/barnehage/barnehagene-i-lillestrom/paviljongene-barnehage/" />
		<tag k="max_age" v="5" />
		<tag k="min_age" v="1" />
		<tag k="name" v="Paviljongene barnehage" />
		<tag k="no-barnehage:nsrid" v="931174568" />
		<tag k="operator" v="Lillestrøm kommune" />
		<tag k="operator:type" v="public" />
	</node>
	<node lat="59.92501" lon="11.20293" id="-2213">
		<tag k="ADDRESS" v="Åserudveien 1, 1900 FETSUND" />
		<tag k="amenity" v="kindergarten" />
		<tag k="capacity" v="86" />
		<tag k="max_age" v="5" />
		<tag k="min_age" v="1" />
		<tag k="name" v="Ramstadskogen barnehage" />
		<tag k="no-barnehage:nsrid" v="991262865" />
		<tag k="operator" v="Lillestrøm kommune" />
		<tag k="operator:type" v="public" />
	</node>
	<node lat="59.97792" lon="11.04104" id="-2214">
		<tag k="ADDRESS" v="Trygve Haavelmos vei 10, 2007 KJELLER" />
		<tag k="amenity" v="kindergarten" />
		<tag k="capacity" v="191" />
		<tag k="max_age" v="5" />
		<tag k="min_age" v="1" />
		<tag k="name" v="Riisløkka barnehage" />
		<tag k="no-barnehage:nsrid" v="988529036" />
		<tag k="operator" v="Lillestrøm kommune" />
		<tag k="operator:type" v="public" />
	</node>
	<node lat="59.99566" lon="11.02325" id="-2215">
		<tag k="ADDRESS" v="Brånåsveien 10, 2019 SKEDSMOKORSET" />
		<tag k="amenity" v="kindergarten" />
		<tag k="capacity" v="54" />
		<tag k="contact:website" v="http://romerikebarnehage.no" />
		<tag k="max_age" v="5" />
		<tag k="min_age" v="1" />
		<tag k="name" v="Romerike barnehage - Solhaug" />
		<tag k="no-barnehage:nsrid" v="979586701" />
		<tag k="operator" v="Romerike barnehage - Solhaug AS" />
		<tag k="operator:type" v="private" />
	</node>
	<node lat="60.02013" lon="11.04979" id="-2216">
		<tag k="ADDRESS" v="Vardeveien 166, 2020 SKEDSMOKORSET" />
		<tag k="amenity" v="kindergarten" />
		<tag k="capacity" v="52" />
		<tag k="contact:website" v="http://www.romerikebarnehage.no/" />
		<tag k="max_age" v="5" />
		<tag k="min_age" v="1" />
		<tag k="name" v="Romerike barnehage - Varden" />
		<tag k="no-barnehage:nsrid" v="876503212" />
		<tag k="operator" v="Romerike barnehage - Varden AS" />
		<tag k="operator:type" v="private" />
	</node>
	<node lat="59.94702" lon="10.99972" id="-2218">
		<tag k="ADDRESS" v="Fjellhammerveien 13, 2010 STRØMMEN" />
		<tag k="amenity" v="kindergarten" />
		<tag k="capacity" v="183" />
		<tag k="max_age" v="5" />
		<tag k="min_age" v="1" />
		<tag k="name" v="Sagelva barnehage" />
		<tag k="no-barnehage:nsrid" v="992763809" />
		<tag k="operator" v="Lillestrøm kommune" />
		<tag k="operator:type" v="public" />
	</node>
	<node lat="59.97776" lon="11.24681" id="-2219">
		<tag k="ADDRESS" v="Orderudveien 20, 1920 SØRUMSAND" />
		<tag k="amenity" v="kindergarten" />
		<tag k="capacity" v="51" />
		<tag k="contact:website" v="http://fus.no/sennerud" />
		<tag k="max_age" v="5" />
		<tag k="min_age" v="1" />
		<tag k="name" v="Sennerud FUS barnehage" />
		<tag k="no-barnehage:nsrid" v="973484060" />
		<tag k="operator" v="Sennerud Fus barnehage AS" />
		<tag k="operator:type" v="private" />
	</node>
	<node lat="59.96776" lon="11.24572" id="-2221">
		<tag k="ADDRESS" v="Fuglekongestien 2, 1920 SØRUMSAND" />
		<tag k="amenity" v="kindergarten" />
		<tag k="capacity" v="68" />
		<tag k="contact:website" v="http://www.skogkanten.no" />
		<tag k="max_age" v="5" />
		<tag k="min_age" v="1" />
		<tag k="name" v="Skogkanten barnehage" />
		<tag k="no-barnehage:nsrid" v="983835988" />
		<tag k="operator" v="Skogkanten barnehage SA" />
		<tag k="operator:type" v="private" />
	</node>
	<node lat="59.99894" lon="11.02068" id="-2222">
		<tag k="ADDRESS" v="Skolsegglia 3, 2019 SKEDSMOKORSET" />
		<tag k="amenity" v="kindergarten" />
		<tag k="capacity" v="84" />
		<tag k="max_age" v="5" />
		<tag k="min_age" v="1" />
		<tag k="name" v="Skolsegglia FUS barnehage" />
		<tag k="no-barnehage:nsrid" v="988180866" />
		<tag k="operator" v="Skolsegglia Fus barnehage AS" />
		<tag k="operator:type" v="private" />
	</node>
	<node lat="59.93671" lon="11.15251" id="-2223">
		<tag k="ADDRESS" v="Ilebråtan 26, 1900 FETSUND" />
		<tag k="amenity" v="kindergarten" />
		<tag k="capacity" v="70" />
		<tag k="contact:website" v="http://www.sommerly.no" />
		<tag k="max_age" v="5" />
		<tag k="min_age" v="1" />
		<tag k="name" v="Sommerly barnehage" />
		<tag k="no-barnehage:nsrid" v="972333123" />
		<tag k="operator" v="Sommerly barnehage SA" />
		<tag k="operator:type" v="private" />
	</node>
	<node lat="60.02261" lon="11.06175" id="-2224">
		<tag k="ADDRESS" v="Åsheimveien 39, 2016 FROGNER" />
		<tag k="amenity" v="kindergarten" />
		<tag k="capacity" v="50" />
		<tag k="contact:website" v="http://sorknes.barnehage.no/" />
		<tag k="max_age" v="5" />
		<tag k="min_age" v="1" />
		<tag k="name" v="Sorknes barnehage" />
		<tag k="no-barnehage:nsrid" v="973480855" />
		<tag k="operator" v="Sorknes barnehage SA" />
		<tag k="operator:type" v="private" />
	</node>
	<node lat="59.94942" lon="11.01727" id="-2225">
		<tag k="ADDRESS" v="Stalsberggata 34, 2010 STRØMMEN" />
		<tag k="amenity" v="kindergarten" />
		<tag k="capacity" v="87" />
		<tag k="contact:website" v="http://www.lillestrom.kommune.no/barnehage/barnehagene-i-lillestrom/strommen-barnehage/" />
		<tag k="max_age" v="5" />
		<tag k="min_age" v="1" />
		<tag k="name" v="Strømmen kommunale barnehage" />
		<tag k="no-barnehage:nsrid" v="974555859" />
		<tag k="operator" v="Lillestrøm kommune" />
		<tag k="operator:type" v="public" />
	</node>
	<node lat="59.95865" lon="11.04692" id="-2226">
		<tag k="ADDRESS" v="Skedsmogata 16, 2000 LILLESTRØM" />
		<tag k="amenity" v="kindergarten" />
		<tag k="capacity" v="15" />
		<tag k="contact:website" v="http://solepytten.barnehageside.no" />
		<tag k="max_age" v="5" />
		<tag k="min_age" v="1" />
		<tag k="name" v="Sølepytten barnehage" />
		<tag k="no-barnehage:nsrid" v="983759823" />
		<tag k="operator" v="Sølepytten barnehage AS" />
		<tag k="operator:type" v="private" />
	</node>
	<node lat="59.94312" lon="11.13149" id="-2227">
		<tag k="ADDRESS" v="Engaveien 8, 2000 LILLESTRØM" />
		<tag k="amenity" v="kindergarten" />
		<tag k="capacity" v="127" />
		<tag k="contact:website" v="http://www.lillestrom.kommune.no/barnehage/barnehagene-i-lillestrom/tienbraten-barnehage/" />
		<tag k="max_age" v="5" />
		<tag k="min_age" v="1" />
		<tag k="name" v="Tienbråten ressursbarnehage" />
		<tag k="no-barnehage:nsrid" v="915482481" />
		<tag k="operator" v="Lillestrøm kommune" />
		<tag k="operator:type" v="public" />
	</node>
	<node lat="59.98477" lon="11.03463" id="-2228">
		<tag k="ADDRESS" v="Lensmann Haaversens vei 205, 2019 SKEDSMOKORSET" />
		<tag k="amenity" v="kindergarten" />
		<tag k="capacity" v="64" />
		<tag k="contact:website" v="http://toppenbhg.no" />
		<tag k="max_age" v="5" />
		<tag k="min_age" v="1" />
		<tag k="name" v="Toppen barnehage" />
		<tag k="no-barnehage:nsrid" v="972215481" />
		<tag k="operator" v="Skedsmo barnehager SA" />
		<tag k="operator:type" v="private" />
	</node>
	<node lat="60.00821" lon="11.01589" id="-2229">
		<tag k="ADDRESS" v="Tæruddalen 6, 2020 SKEDSMOKORSET" />
		<tag k="amenity" v="kindergarten" />
		<tag k="capacity" v="41" />
		<tag k="max_age" v="5" />
		<tag k="min_age" v="1" />
		<tag k="name" v="Tæruddalen barnehage" />
		<tag k="no-barnehage:nsrid" v="973608746" />
		<tag k="operator" v="Lillestrøm kommune" />
		<tag k="operator:type" v="public" />
	</node>
	<node lat="59.97057" lon="10.99607" id="-2230">
		<tag k="ADDRESS" v="Landskronaveien 154, 2013 SKJETTEN" />
		<tag k="amenity" v="kindergarten" />
		<tag k="capacity" v="52" />
		<tag k="max_age" v="5" />
		<tag k="min_age" v="1" />
		<tag k="name" v="Uglebakken barnehage" />
		<tag k="no-barnehage:nsrid" v="973608835" />
		<tag k="operator" v="Lillestrøm kommune" />
		<tag k="operator:type" v="public" />
	</node>
	<node lat="60.01218" lon="11.04725" id="-2231">
		<tag k="ADDRESS" v="Lurudveien 4, 2020 SKEDSMOKORSET" />
		<tag k="amenity" v="kindergarten" />
		<tag k="capacity" v="72" />
		<tag k="contact:website" v="http://www.lillestrom.kommune.no/barnehage/" />
		<tag k="max_age" v="5" />
		<tag k="min_age" v="1" />
		<tag k="name" v="Vardeåsen barnehage" />
		<tag k="no-barnehage:nsrid" v="980470865" />
		<tag k="operator" v="Lillestrøm kommune" />
		<tag k="operator:type" v="public" />
	</node>
	<node lat="59.96407" lon="11.04685" id="-2232">
		<tag k="ADDRESS" v="Vestbygata 57A, 2003 LILLESTRØM" />
		<tag k="amenity" v="kindergarten" />
		<tag k="capacity" v="179" />
		<tag k="max_age" v="5" />
		<tag k="min_age" v="1" />
		<tag k="name" v="Volla barnehage" />
		<tag k="no-barnehage:nsrid" v="973608797" />
		<tag k="operator" v="Lillestrøm kommune" />
		<tag k="operator:type" v="public" />
	</node>
	<node lat="59.98455" lon="11.23377" id="-2233">
		<tag k="ADDRESS" v="Parkveien 10, 1920 SØRUMSAND" />
		<tag k="amenity" v="kindergarten" />
		<tag k="name" v="Åpen barnehage" />
		<tag k="no-barnehage:nsrid" v="914479770" />
		<tag k="operator" v="Lillestrøm kommune" />
		<tag k="operator:type" v="public" />
	</node>
	<node lat="59.95472" lon="11.04612" id="-2234">
		<tag k="ADDRESS" v="Kirkegata 3, 2000 LILLESTRØM" />
		<tag k="amenity" v="kindergarten" />
		<tag k="name" v="Åpen barnehage Normisjon Lillestrøm" />
		<tag k="no-barnehage:nsrid" v="987636254" />
		<tag k="operator" v="Åpen barnehage Normisjon Lillestrøm AS" />
		<tag k="operator:type" v="private" />
	</node>
	<node lat="60.01196" lon="11.03425" id="-2235">
		<tag k="ADDRESS" v="Åsenhagen 36, 2020 SKEDSMOKORSET" />
		<tag k="amenity" v="kindergarten" />
		<tag k="capacity" v="48" />
		<tag k="max_age" v="5" />
		<tag k="min_age" v="1" />
		<tag k="name" v="Åsenhagen barnehage" />
		<tag k="no-barnehage:nsrid" v="973608827" />
		<tag k="operator" v="Lillestrøm kommune" />
		<tag k="operator:type" v="public" />
	</node>
</osm>
