<?xml version="1.0" encoding="UTF-8"?>
<osm generator="osmapis" version="0.6">
	<node id="-278" lat="59.65045" lon="10.82985">
		<tag k="amenity" v="kindergarten" />
		<tag k="capacity" v="31" />
		<tag k="contact:website" v="http://www.knertenbarnehage.no" />
		<tag k="max_age" v="5" />
		<tag k="min_age" v="1" />
		<tag k="name" v="Stiftelsen Knerten barnehage" />
		<tag k="no-barnehage:nsrid" v="1019978" />
		<tag k="operator" v="Stiftelsen Knerten barnehage" />
		<tag k="operator:type" v="private" />
	</node>
	<node id="-277" lat="59.66718" lon="10.78209">
		<tag k="amenity" v="kindergarten" />
		<tag k="capacity" v="39" />
		<tag k="contact:website" v="http://www.kaja.barnehage.no" />
		<tag k="max_age" v="5" />
		<tag k="min_age" v="1" />
		<tag k="name" v="Stiftelsen Kaja barnehage" />
		<tag k="no-barnehage:nsrid" v="1020545" />
		<tag k="operator" v="Stiftelsen Kaja barnehage" />
		<tag k="operator:type" v="private" />
	</node>
	<node id="-276" lat="59.7171" lon="10.7893">
		<tag k="amenity" v="kindergarten" />
		<tag k="capacity" v="143" />
		<tag k="max_age" v="5" />
		<tag k="min_age" v="1" />
		<tag k="name" v="Solbergtunet barnehage" />
		<tag k="no-barnehage:nsrid" v="1014171" />
		<tag k="operator" v="Ås kommune" />
		<tag k="operator:type" v="public" />
	</node>
	<node id="-275" lat="59.74342" lon="10.76725">
		<tag k="amenity" v="kindergarten" />
		<tag k="capacity" v="58" />
		<tag k="contact:website" v="http://www.sjoskogen.no" />
		<tag k="max_age" v="5" />
		<tag k="min_age" v="1" />
		<tag k="name" v="Sjøskogen foreldrelagsbarnehage" />
		<tag k="no-barnehage:nsrid" v="1020278" />
		<tag k="operator" v="Sjøskogen barnehage Sa" />
		<tag k="operator:type" v="private" />
	</node>
	<node id="-274" lat="59.6552" lon="10.7876">
		<tag k="amenity" v="kindergarten" />
		<tag k="capacity" v="33" />
		<tag k="max_age" v="5" />
		<tag k="min_age" v="1" />
		<tag k="name" v="Sagaskogen barnehage avd. Sagalund" />
		<tag k="no-barnehage:nsrid" v="1012875" />
		<tag k="operator" v="Ås kommune" />
		<tag k="operator:type" v="public" />
	</node>
	<node id="-273" lat="59.6678" lon="10.8071">
		<tag k="amenity" v="kindergarten" />
		<tag k="capacity" v="36" />
		<tag k="max_age" v="5" />
		<tag k="min_age" v="1" />
		<tag k="name" v="Sagaskogen barnehage avd. Rustadskogen" />
		<tag k="no-barnehage:nsrid" v="1012874" />
		<tag k="operator" v="Ås kommune" />
		<tag k="operator:type" v="public" />
	</node>
	<node id="-272" lat="59.66211" lon="10.81694">
		<tag k="amenity" v="kindergarten" />
		<tag k="capacity" v="58" />
		<tag k="contact:website" v="http://rustadporten.no" />
		<tag k="max_age" v="5" />
		<tag k="min_age" v="1" />
		<tag k="name" v="Rustadporten barnehage" />
		<tag k="no-barnehage:nsrid" v="1020556" />
		<tag k="operator" v="Rustadporten barnehage Sa" />
		<tag k="operator:type" v="private" />
	</node>
	<node id="-270" lat="59.73259" lon="10.75137">
		<tag k="amenity" v="kindergarten" />
		<tag k="capacity" v="61" />
		<tag k="max_age" v="5" />
		<tag k="min_age" v="1" />
		<tag k="name" v="Orrestien barnehage" />
		<tag k="no-barnehage:nsrid" v="1021989" />
		<tag k="operator" v="Orrestien barnehage AS" />
		<tag k="operator:type" v="private" />
	</node>
	<node id="-269" lat="59.65245" lon="10.79276">
		<tag k="amenity" v="kindergarten" />
		<tag k="capacity" v="53" />
		<tag k="max_age" v="5" />
		<tag k="min_age" v="1" />
		<tag k="name" v="Moerlia barnehage" />
		<tag k="no-barnehage:nsrid" v="1021186" />
		<tag k="operator" v="Moerlia barnehage Sa" />
		<tag k="operator:type" v="private" />
	</node>
	<node id="-268" lat="59.74608" lon="10.72895">
		<tag k="amenity" v="kindergarten" />
		<tag k="capacity" v="39" />
		<tag k="contact:website" v="http://www.lovstad.barnehage.no" />
		<tag k="max_age" v="5" />
		<tag k="min_age" v="1" />
		<tag k="name" v="Løvstad naturbarnehage" />
		<tag k="no-barnehage:nsrid" v="1021150" />
		<tag k="operator" v="Løvstad Naturbarnehage Sa" />
		<tag k="operator:type" v="private" />
	</node>
	<node id="-267" lat="59.63295" lon="10.85044">
		<tag k="amenity" v="kindergarten" />
		<tag k="capacity" v="10" />
		<tag k="contact:website" v="http://www.kroer.barnehageside.no" />
		<tag k="max_age" v="5" />
		<tag k="min_age" v="1" />
		<tag k="name" v="Kroerbarnehagen" />
		<tag k="no-barnehage:nsrid" v="1022321" />
		<tag k="operator" v="Kroerbarnehagen Da" />
		<tag k="operator:type" v="private" />
	</node>
	<node id="-266" lat="59.6852" lon="10.81103">
		<tag k="amenity" v="kindergarten" />
		<tag k="capacity" v="52" />
		<tag k="contact:website" v="http://www.hautussasteinbarnehage.no" />
		<tag k="max_age" v="5" />
		<tag k="min_age" v="1" />
		<tag k="name" v="Haugtussa Steinerbarnehage" />
		<tag k="no-barnehage:nsrid" v="1021438" />
		<tag k="operator" v="Stiftelsen Steinerbarnehagene i Ås" />
		<tag k="operator:type" v="private" />
	</node>
	<node id="-265" lat="59.6687" lon="10.7806">
		<tag k="amenity" v="kindergarten" />
		<tag k="capacity" v="71" />
		<tag k="max_age" v="5" />
		<tag k="min_age" v="1" />
		<tag k="name" v="Frydenhaug barnehage" />
		<tag k="no-barnehage:nsrid" v="1012873" />
		<tag k="operator" v="Ås kommune" />
		<tag k="operator:type" v="public" />
	</node>
	<node id="-264" lat="59.66301" lon="10.80631">
		<tag k="amenity" v="kindergarten" />
		<tag k="capacity" v="44" />
		<tag k="contact:website" v="http://www.dysterliabarnehage.no" />
		<tag k="max_age" v="5" />
		<tag k="min_age" v="1" />
		<tag k="name" v="Dysterlia barnehage" />
		<tag k="no-barnehage:nsrid" v="1020314" />
		<tag k="operator" v="Dysterlia barnehage Sa" />
		<tag k="operator:type" v="private" />
	</node>
</osm>
