<?xml version="1.0" encoding="UTF-8"?>
<osm generator="osmapis" version="0.6">
	<node id="-320" lat="59.7171" lon="10.7893">
		<tag k="amenity" v="kindergarten" />
		<tag k="capacity" v="156" />
		<tag k="contact:email" v="Cecilie.kolstad@as.kommune.no" />
		<tag k="max_age" v="5" />
		<tag k="min_age" v="1" />
		<tag k="name" v="Solbergtunet barnehage" />
		<tag k="no-barnehage:nsrid" v="1014171" />
		<tag k="operator" v="Ås kommune" />
		<tag k="operator:type" v="public" />
		<tag k="start_date" v="2010-08-01" />
	</node>
	<node id="-319" lat="59.74342" lon="10.76725">
		<tag k="amenity" v="kindergarten" />
		<tag k="capacity" v="56" />
		<tag k="contact:email" v="eli@sjoskogen.no" />
		<tag k="contact:website" v="http://www.sjoskogen.no" />
		<tag k="max_age" v="5" />
		<tag k="min_age" v="1" />
		<tag k="name" v="Sjøskogen Foreldrelagsbarnehage Da" />
		<tag k="no-barnehage:nsrid" v="1020278" />
		<tag k="operator" v="Sjøskogen Foreldrelagsbarnehage Sa" />
		<tag k="operator:type" v="private" />
		<tag k="start_date" v="1996-08-01" />
	</node>
	<node id="-318" lat="59.6552" lon="10.7876">
		<tag k="amenity" v="kindergarten" />
		<tag k="capacity" v="37" />
		<tag k="contact:email" v="jeanette.schou@as.kommune.no" />
		<tag k="contact:phone" v="64 96 26 90" />
		<tag k="max_age" v="5" />
		<tag k="min_age" v="1" />
		<tag k="name" v="Sagaskogen barnehage Avd Sagalund" />
		<tag k="no-barnehage:nsrid" v="1012875" />
		<tag k="operator" v="Ås kommune" />
		<tag k="operator:type" v="public" />
		<tag k="start_date" v="1978-01-11" />
	</node>
	<node id="-317" lat="59.6678" lon="10.8071">
		<tag k="amenity" v="kindergarten" />
		<tag k="capacity" v="38" />
		<tag k="contact:email" v="jeanette.schou@as.kommune.no" />
		<tag k="contact:phone" v="64 96 26 81" />
		<tag k="max_age" v="5" />
		<tag k="min_age" v="1" />
		<tag k="name" v="Sagaskogen barnehage Avd Rustadskogen" />
		<tag k="no-barnehage:nsrid" v="1012874" />
		<tag k="operator" v="Ås kommune" />
		<tag k="operator:type" v="public" />
		<tag k="start_date" v="1978-01-26" />
	</node>
	<node id="-316" lat="59.66211" lon="10.81694">
		<tag k="amenity" v="kindergarten" />
		<tag k="capacity" v="52" />
		<tag k="contact:email" v="hildes@rustadporten.no" />
		<tag k="contact:phone" v="64 94 41 40" />
		<tag k="max_age" v="5" />
		<tag k="min_age" v="1" />
		<tag k="name" v="Rustadporten barnehage Sa" />
		<tag k="no-barnehage:nsrid" v="1020556" />
		<tag k="operator" v="Rustadporten barnehage Sa" />
		<tag k="operator:type" v="private" />
		<tag k="start_date" v="1999-08-01" />
	</node>
	<node id="-314" lat="59.73259" lon="10.75137">
		<tag k="amenity" v="kindergarten" />
		<tag k="capacity" v="62" />
		<tag k="contact:email" v="orresti@online.no" />
		<tag k="contact:phone" v="64 97 73 36" />
		<tag k="max_age" v="5" />
		<tag k="min_age" v="1" />
		<tag k="name" v="Orrestien barnehage AS" />
		<tag k="no-barnehage:nsrid" v="1021989" />
		<tag k="operator" v="Orrestien barnehage AS" />
		<tag k="operator:type" v="private" />
		<tag k="start_date" v="1999-08-01" />
	</node>
	<node id="-313" lat="59.65245" lon="10.79276">
		<tag k="amenity" v="kindergarten" />
		<tag k="capacity" v="55" />
		<tag k="contact:email" v="karin.moerlia@barnehage.no" />
		<tag k="contact:phone" v="64 96 15 00" />
		<tag k="max_age" v="5" />
		<tag k="min_age" v="1" />
		<tag k="name" v="Moerlia barnehage Sa" />
		<tag k="no-barnehage:nsrid" v="1021186" />
		<tag k="operator" v="Moerlia barnehage Sa" />
		<tag k="operator:type" v="private" />
		<tag k="start_date" v="2004-11-10" />
	</node>
	<node id="-312" lat="59.74608" lon="10.72895">
		<tag k="amenity" v="kindergarten" />
		<tag k="capacity" v="45" />
		<tag k="contact:email" v="post@lovstadnaturbarnehage.no" />
		<tag k="contact:phone" v="64 94 53 25" />
		<tag k="contact:website" v="http://www.lovstad.barnehageside.no" />
		<tag k="max_age" v="5" />
		<tag k="min_age" v="1" />
		<tag k="name" v="Løvstad Naturbarnehage Sa" />
		<tag k="no-barnehage:nsrid" v="1021150" />
		<tag k="operator" v="Løvstad Naturbarnehage Sa" />
		<tag k="operator:type" v="private" />
		<tag k="start_date" v="2004-09-23" />
	</node>
	<node id="-311" lat="59.63295" lon="10.85044">
		<tag k="amenity" v="kindergarten" />
		<tag k="capacity" v="21" />
		<tag k="contact:email" v="kontor@lesteberg-gard.no" />
		<tag k="contact:phone" v="48 08 08 41" />
		<tag k="contact:website" v="http://www.kroer.barnehageside.no" />
		<tag k="max_age" v="5" />
		<tag k="min_age" v="1" />
		<tag k="name" v="Kroerbarnehagen Da" />
		<tag k="no-barnehage:nsrid" v="1022321" />
		<tag k="operator" v="Kroerbarnehagen Da" />
		<tag k="operator:type" v="private" />
		<tag k="start_date" v="2012-01-01" />
	</node>
	<node id="-310" lat="59.6852" lon="10.81103">
		<tag k="amenity" v="kindergarten" />
		<tag k="capacity" v="49" />
		<tag k="contact:email" v="haugtussa@steinerbarnehage.no" />
		<tag k="max_age" v="5" />
		<tag k="min_age" v="1" />
		<tag k="name" v="Haugtussa Steinerbarnehage" />
		<tag k="no-barnehage:nsrid" v="1021438" />
		<tag k="operator" v="Stiftelsen Steinerbarnehagene i Ås" />
		<tag k="operator:type" v="private" />
		<tag k="start_date" v="1990-09-01" />
	</node>
	<node id="-309" lat="59.6687" lon="10.7806">
		<tag k="amenity" v="kindergarten" />
		<tag k="capacity" v="90" />
		<tag k="contact:email" v="linda.hovden@as.kommune.no" />
		<tag k="contact:phone" v="64 96 26 60" />
		<tag k="max_age" v="5" />
		<tag k="min_age" v="1" />
		<tag k="name" v="Frydenhaug barnehage" />
		<tag k="no-barnehage:nsrid" v="1012873" />
		<tag k="operator" v="Ås kommune" />
		<tag k="operator:type" v="public" />
		<tag k="start_date" v="1989-01-02" />
	</node>
	<node id="-308" lat="59.66301" lon="10.80631">
		<tag k="amenity" v="kindergarten" />
		<tag k="capacity" v="41" />
		<tag k="contact:email" v="post@dysterliabarnehage.no" />
		<tag k="contact:phone" v="22941114" />
		<tag k="contact:website" v="http://www.dysterliabarnehage.no" />
		<tag k="max_age" v="5" />
		<tag k="min_age" v="1" />
		<tag k="name" v="Dysterlia barnehage Sa" />
		<tag k="no-barnehage:nsrid" v="1020314" />
		<tag k="operator" v="Dysterlia barnehage Sa" />
		<tag k="operator:type" v="private" />
		<tag k="start_date" v="1976-12-24" />
	</node>
	<node id="-328" lat="59.66785" lon="10.76222">
		<tag k="amenity" v="kindergarten" />
		<tag k="capacity" v="43" />
		<tag k="contact:email" v="akebakke@barnehage.no" />
		<tag k="contact:phone" v="48 44 92 55" />
		<tag k="contact:website" v="http://akebakke.barnehage.no/" />
		<tag k="max_age" v="5" />
		<tag k="min_age" v="1" />
		<tag k="name" v="Åkebakke barnehage stiftelsen" />
		<tag k="no-barnehage:nsrid" v="1020025" />
		<tag k="operator" v="Stiftelsen Åkebakke barnehage" />
		<tag k="operator:type" v="private" />
		<tag k="start_date" v="1991-09-02" />
	</node>
	<node id="-327" lat="59.7425" lon="10.7773">
		<tag k="amenity" v="kindergarten" />
		<tag k="capacity" v="91" />
		<tag k="contact:email" v="solveig.kvarum@as.kommune.no" />
		<tag k="contact:phone" v="64 96 42 90" />
		<tag k="max_age" v="5" />
		<tag k="min_age" v="1" />
		<tag k="name" v="Vinterbro barnehage" />
		<tag k="no-barnehage:nsrid" v="1017260" />
		<tag k="operator" v="Ås kommune" />
		<tag k="operator:type" v="public" />
		<tag k="start_date" v="2006-08-01" />
	</node>
	<node id="-326" lat="59.6556" lon="10.7925">
		<tag k="amenity" v="kindergarten" />
		<tag k="capacity" v="72" />
		<tag k="contact:email" v="ulrika.oterholm@as.kommune.no" />
		<tag k="max_age" v="5" />
		<tag k="min_age" v="1" />
		<tag k="name" v="Tunveien barnehage" />
		<tag k="no-barnehage:nsrid" v="1018509" />
		<tag k="operator" v="Ås kommune" />
		<tag k="operator:type" v="public" />
		<tag k="start_date" v="2008-10-01" />
	</node>
	<node id="-325" lat="59.7352" lon="10.7581">
		<tag k="amenity" v="kindergarten" />
		<tag k="capacity" v="39" />
		<tag k="contact:email" v="mette.langaard@as.kommune.no" />
		<tag k="contact:phone" v="64 96 27 11" />
		<tag k="max_age" v="5" />
		<tag k="min_age" v="1" />
		<tag k="name" v="Togrenda barnehage" />
		<tag k="no-barnehage:nsrid" v="1012876" />
		<tag k="operator" v="Ås kommune" />
		<tag k="operator:type" v="public" />
		<tag k="start_date" v="1984-01-01" />
	</node>
	<node id="-324" lat="59.71867" lon="10.80636">
		<tag k="amenity" v="kindergarten" />
		<tag k="capacity" v="40" />
		<tag k="contact:email" v="tamburbakken@barnehage.no" />
		<tag k="contact:phone" v="64946545" />
		<tag k="max_age" v="5" />
		<tag k="min_age" v="1" />
		<tag k="name" v="Tamburbakken barnehage" />
		<tag k="no-barnehage:nsrid" v="1020045" />
		<tag k="operator" v="Tamburbakken barnehage" />
		<tag k="operator:type" v="private" />
		<tag k="start_date" v="1992-08-01" />
	</node>
	<node id="-323" lat="59.6628" lon="10.7859">
		<tag k="amenity" v="kindergarten" />
		<tag k="capacity" v="117" />
		<tag k="contact:email" v="ulrika.oterholm@as.kommune.no" />
		<tag k="contact:phone" v="64 96 27 00" />
		<tag k="max_age" v="5" />
		<tag k="min_age" v="1" />
		<tag k="name" v="Søråsteigen barnehage" />
		<tag k="no-barnehage:nsrid" v="1012872" />
		<tag k="operator" v="Ås kommune" />
		<tag k="operator:type" v="public" />
		<tag k="start_date" v="1976-01-01" />
	</node>
	<node id="-322" lat="59.65045" lon="10.82985">
		<tag k="amenity" v="kindergarten" />
		<tag k="capacity" v="33" />
		<tag k="contact:email" v="post@knerten-bhg.no" />
		<tag k="contact:phone" v="064931010" />
		<tag k="contact:website" v="http://www.knertenbarnehage.no" />
		<tag k="max_age" v="5" />
		<tag k="min_age" v="1" />
		<tag k="name" v="Stiftelsen Knerten barnehage" />
		<tag k="no-barnehage:nsrid" v="1019978" />
		<tag k="operator" v="Stiftelsen Knerten barnehage" />
		<tag k="operator:type" v="private" />
		<tag k="start_date" v="1992-01-01" />
	</node>
	<node id="-321" lat="59.66718" lon="10.78209">
		<tag k="amenity" v="kindergarten" />
		<tag k="capacity" v="38" />
		<tag k="contact:email" v="kajabh@online.no" />
		<tag k="contact:phone" v="64 94 05 16" />
		<tag k="contact:website" v="http://www.kaja.barnehage.no" />
		<tag k="max_age" v="5" />
		<tag k="min_age" v="1" />
		<tag k="name" v="Stiftelsen Kaja barnehage" />
		<tag k="no-barnehage:nsrid" v="1020545" />
		<tag k="operator" v="Stiftelsen Kaja barnehage" />
		<tag k="operator:type" v="private" />
		<tag k="start_date" v="1998-01-27" />
	</node>
</osm>
