<?xml version="1.0" encoding="UTF-8"?>
<osm version="0.6" generator="osmapis">
	<node lat="59.35183" lon="10.86929" id="-2065">
		<tag k="ADDRESS" v="Skråtorpveien 2C, 1640 RÅDE" />
		<tag k="amenity" v="kindergarten" />
		<tag k="capacity" v="37" />
		<tag k="max_age" v="5" />
		<tag k="min_age" v="1" />
		<tag k="name" v="Furuly barnehage Råde" />
		<tag k="no-barnehage:nsrid" v="973382586" />
		<tag k="operator" v="Furuly barnehage Råde AS" />
		<tag k="operator:type" v="private" />
	</node>
	<node lat="59.29775" lon="10.76671" id="-2066">
		<tag k="ADDRESS" v="Saltnesveien 309, 1642 SALTNES" />
		<tag k="amenity" v="kindergarten" />
		<tag k="capacity" v="42" />
		<tag k="contact:website" v="http://laringsverkstedet.no/barnehage/mattisgarden" />
		<tag k="max_age" v="5" />
		<tag k="min_age" v="1" />
		<tag k="name" v="Læringsverkstedet Mattisgården naturbarnehage" />
		<tag k="no-barnehage:nsrid" v="976651472" />
		<tag k="operator" v="Læringsverkstedet Mattisgården naturbarnehage AS" />
		<tag k="operator:type" v="private" />
	</node>
	<node lat="59.34599" lon="10.93919" id="-2067">
		<tag k="ADDRESS" v="Granittveien 9, 1640 RÅDE" />
		<tag k="amenity" v="kindergarten" />
		<tag k="capacity" v="62" />
		<tag k="max_age" v="5" />
		<tag k="min_age" v="1" />
		<tag k="name" v="Missingmyr barnehage" />
		<tag k="no-barnehage:nsrid" v="991080724" />
		<tag k="operator" v="Missingmyr barnehage AS" />
		<tag k="operator:type" v="private" />
	</node>
	<node lat="59.29909" lon="10.77641" id="-2068">
		<tag k="ADDRESS" v="Andersrødveien 8B, 1642 SALTNES" />
		<tag k="amenity" v="kindergarten" />
		<tag k="capacity" v="83" />
		<tag k="max_age" v="5" />
		<tag k="min_age" v="1" />
		<tag k="name" v="Naturbarna Kollen naturbarnehage" />
		<tag k="no-barnehage:nsrid" v="986769595" />
		<tag k="operator" v="Naturbarna AS" />
		<tag k="operator:type" v="private" />
	</node>
	<node lat="59.34748" lon="10.89339" id="-2069">
		<tag k="ADDRESS" v="Sarpsborgveien 75, 1640 RÅDE" />
		<tag k="amenity" v="kindergarten" />
		<tag k="capacity" v="82" />
		<tag k="max_age" v="5" />
		<tag k="min_age" v="1" />
		<tag k="name" v="Råde kommune Klokkergården barnehage" />
		<tag k="no-barnehage:nsrid" v="975301516" />
		<tag k="operator" v="Råde kommune" />
		<tag k="operator:type" v="public" />
	</node>
	<node lat="59.29824" lon="10.76893" id="-2070">
		<tag k="ADDRESS" v="Andersrødveien 1, 1642 SALTNES" />
		<tag k="amenity" v="kindergarten" />
		<tag k="capacity" v="43" />
		<tag k="max_age" v="5" />
		<tag k="min_age" v="1" />
		<tag k="name" v="Råde kommune Saltnes barnehage" />
		<tag k="no-barnehage:nsrid" v="975301524" />
		<tag k="operator" v="Råde kommune" />
		<tag k="operator:type" v="public" />
	</node>
	<node lat="59.33901" lon="10.80542" id="-2071">
		<tag k="ADDRESS" v="Tesalaveien 68, 1643 RÅDE" />
		<tag k="amenity" v="kindergarten" />
		<tag k="capacity" v="44" />
		<tag k="max_age" v="5" />
		<tag k="min_age" v="1" />
		<tag k="name" v="Små Spirer gårdsbarnehage" />
		<tag k="no-barnehage:nsrid" v="989662678" />
		<tag k="operator" v="Små Spirer gårdsbarnehage AS" />
		<tag k="operator:type" v="private" />
	</node>
</osm>
