<?xml version="1.0" encoding="UTF-8"?>
<osm version="0.6" generator="osmapis">
	<node lat="61.88765" lon="12.02971" id="-3074">
		<tag k="ADDRESS" v="Hyttveien 76, 2443 DREVSJØ" />
		<tag k="amenity" v="kindergarten" />
		<tag k="capacity" v="28" />
		<tag k="max_age" v="5" />
		<tag k="min_age" v="1" />
		<tag k="name" v="Drevsjø barnehage" />
		<tag k="no-barnehage:nsrid" v="975302830" />
		<tag k="operator" v="Engerdal kommune" />
		<tag k="operator:type" v="public" />
	</node>
	<node lat="61.75854" lon="11.96357" id="-3075">
		<tag k="ADDRESS" v="Østlia nord 12, 2440 ENGERDAL" />
		<tag k="amenity" v="kindergarten" />
		<tag k="capacity" v="15" />
		<tag k="contact:website" v="http://www.engerdal.kommune.no/tjenester/barnehage-og-skole/barnehage/barnehagene-i-engerdal/engerd" />
		<tag k="max_age" v="5" />
		<tag k="min_age" v="1" />
		<tag k="name" v="Engerdal barnehage" />
		<tag k="no-barnehage:nsrid" v="975302849" />
		<tag k="operator" v="Engerdal kommune" />
		<tag k="operator:type" v="public" />
	</node>
</osm>
