<?xml version="1.0" encoding="UTF-8"?>
<osm generator="osmapis" version="0.6">
	<node id="-1816" lat="60.46983" lon="11.63143">
		<tag k="amenity" v="kindergarten" />
		<tag k="capacity" v="29" />
		<tag k="contact:email" v="ragnhild.bunes@edu.nord-odal.kommune.no" />
		<tag k="contact:phone" v="+47 62 97 69 20" />
		<tag k="contact:website" v="http://www.nord-odal.kommune.no/category17451.html" />
		<tag k="max_age" v="5" />
		<tag k="min_age" v="1" />
		<tag k="name" v="Knapper barnehage" />
		<tag k="no-barnehage:nsrid" v="1017575" />
		<tag k="operator" v="Nord-Odal kommune" />
		<tag k="operator:type" v="public" />
		<tag k="start_date" v="2008-12-01" />
	</node>
	<node id="-1819" lat="60.39306" lon="11.54382">
		<tag k="amenity" v="kindergarten" />
		<tag k="capacity" v="78" />
		<tag k="contact:email" v="astrid.sutterud@edu.nord-odal.kommune.no" />
		<tag k="contact:phone" v="+47 62 97 82 60" />
		<tag k="contact:website" v="http://www.nord-odal.kommune.no/category17457.html" />
		<tag k="max_age" v="5" />
		<tag k="min_age" v="1" />
		<tag k="name" v="Sand barnehage" />
		<tag k="no-barnehage:nsrid" v="1015812" />
		<tag k="operator" v="Nord-Odal kommune" />
		<tag k="operator:type" v="public" />
		<tag k="start_date" v="2008-12-01" />
	</node>
	<node id="-1818" lat="60.3903" lon="11.5373">
		<tag k="amenity" v="kindergarten" />
		<tag k="capacity" v="34" />
		<tag k="contact:email" v="ragnhild.bunes@edu.nord-odal.kommune.no" />
		<tag k="contact:phone" v="+47 62 97 14 84" />
		<tag k="contact:website" v="http://www.nord-odal.kommune.no/category17455.html" />
		<tag k="max_age" v="5" />
		<tag k="min_age" v="1" />
		<tag k="name" v="MÃ¸llerbakken barnehage" />
		<tag k="no-barnehage:nsrid" v="1017577" />
		<tag k="operator" v="Nord-Odal kommune" />
		<tag k="operator:type" v="public" />
		<tag k="start_date" v="2008-12-01" />
	</node>
	<node id="-1817" lat="60.4275" lon="11.6379">
		<tag k="amenity" v="kindergarten" />
		<tag k="capacity" v="40" />
		<tag k="contact:email" v="lise.berg@edu.nord-odal.kommune.no" />
		<tag k="contact:phone" v="+47 62 97 42 44" />
		<tag k="contact:website" v="http://www.nord-odal.kommune.no/category17453.html" />
		<tag k="max_age" v="5" />
		<tag k="min_age" v="1" />
		<tag k="name" v="Mo barnehage" />
		<tag k="no-barnehage:nsrid" v="1017576" />
		<tag k="operator" v="Nord-Odal kommune" />
		<tag k="operator:type" v="public" />
		<tag k="start_date" v="2008-12-01" />
	</node>
</osm>
