<?xml version="1.0" encoding="UTF-8"?>
<osm generator="osmapis" version="0.6">
	<node id="-1912" lat="60.4275" lon="11.6379">
		<tag k="amenity" v="kindergarten" />
		<tag k="capacity" v="56" />
		<tag k="contact:email" v="lberg@nord-odal.kommune.no" />
		<tag k="contact:phone" v="62 97 42 44" />
		<tag k="max_age" v="5" />
		<tag k="min_age" v="1" />
		<tag k="name" v="Mo barnehage" />
		<tag k="no-barnehage:nsrid" v="1017576" />
		<tag k="operator" v="Nord-Odal kommune" />
		<tag k="operator:type" v="public" />
		<tag k="start_date" v="1988-04-01" />
	</node>
	<node id="-1911" lat="60.4693" lon="11.622">
		<tag k="amenity" v="kindergarten" />
		<tag k="capacity" v="37" />
		<tag k="contact:email" v="rbunes@nord-odal.kommune.no" />
		<tag k="contact:phone" v="62 97 69 20" />
		<tag k="max_age" v="5" />
		<tag k="min_age" v="1" />
		<tag k="name" v="Knapper barnehage" />
		<tag k="no-barnehage:nsrid" v="1017575" />
		<tag k="operator" v="Nord-Odal kommune" />
		<tag k="operator:type" v="public" />
		<tag k="start_date" v="1988-04-01" />
	</node>
	<node id="-1914" lat="60.3792" lon="11.5381">
		<tag k="amenity" v="kindergarten" />
		<tag k="capacity" v="82" />
		<tag k="contact:email" v="asutterud@nord-odal.kommune.no" />
		<tag k="contact:phone" v="62 97 82 60" />
		<tag k="max_age" v="5" />
		<tag k="min_age" v="1" />
		<tag k="name" v="Sand barnehage" />
		<tag k="no-barnehage:nsrid" v="1015812" />
		<tag k="operator" v="Nord-Odal kommune" />
		<tag k="operator:type" v="public" />
		<tag k="start_date" v="2000-01-01" />
	</node>
	<node id="-1913" lat="60.3903" lon="11.5373">
		<tag k="amenity" v="kindergarten" />
		<tag k="capacity" v="35" />
		<tag k="contact:email" v="rbunes@nord-odal.kommune.no" />
		<tag k="contact:phone" v="62 97 14 84" />
		<tag k="max_age" v="5" />
		<tag k="min_age" v="1" />
		<tag k="name" v="MÃ¸llerbakken barnehage" />
		<tag k="no-barnehage:nsrid" v="1017577" />
		<tag k="operator" v="Nord-Odal kommune" />
		<tag k="operator:type" v="public" />
		<tag k="start_date" v="1988-04-01" />
	</node>
</osm>
