<?xml version="1.0" encoding="UTF-8"?>
<osm generator="osmapis" version="0.6">
	<node id="-4360" lat="61.0187" lon="5.46162">
		<tag k="amenity" v="kindergarten" />
		<tag k="capacity" v="32" />
		<tag k="contact:email" v="bodil.bjorlo.takle@gulen.kommune.no" />
		<tag k="max_age" v="5" />
		<tag k="min_age" v="1" />
		<tag k="name" v="Brekke barnehage" />
		<tag k="no-barnehage:nsrid" v="1018137" />
		<tag k="operator" v="Gulen kommune" />
		<tag k="operator:type" v="public" />
		<tag k="start_date" v="1989-01-01" />
	</node>
	<node id="-4363" lat="60.9814" lon="5.07365">
		<tag k="amenity" v="kindergarten" />
		<tag k="capacity" v="35" />
		<tag k="contact:email" v="ann-norunn.leknes@gulen.kommune.no" />
		<tag k="max_age" v="5" />
		<tag k="min_age" v="1" />
		<tag k="name" v="Eivindvik barnehage" />
		<tag k="no-barnehage:nsrid" v="1018138" />
		<tag k="operator" v="Gulen kommune" />
		<tag k="operator:type" v="public" />
		<tag k="start_date" v="1989-01-01" />
	</node>
	<node id="-4362" lat="60.9328" lon="5.13556">
		<tag k="amenity" v="kindergarten" />
		<tag k="capacity" v="34" />
		<tag k="contact:email" v="janne.neverdal@gulen.kommune.no" />
		<tag k="max_age" v="5" />
		<tag k="min_age" v="1" />
		<tag k="name" v="DalsÃ¸yra barnehage" />
		<tag k="no-barnehage:nsrid" v="1012512" />
		<tag k="operator" v="Gulen kommune" />
		<tag k="operator:type" v="public" />
		<tag k="start_date" v="1989-01-01" />
	</node>
	<node id="-4361" lat="60.8959" lon="4.86627">
		<tag k="amenity" v="kindergarten" />
		<tag k="capacity" v="16" />
		<tag k="contact:email" v="helge.pedersen@gulen.kommune.no" />
		<tag k="max_age" v="5" />
		<tag k="min_age" v="1" />
		<tag k="name" v="Byrknes barnehage" />
		<tag k="no-barnehage:nsrid" v="1014894" />
		<tag k="operator" v="Gulen kommune" />
		<tag k="operator:type" v="public" />
		<tag k="start_date" v="1989-01-02" />
	</node>
</osm>
