<?xml version="1.0" encoding="UTF-8"?>
<osm generator="osmapis" version="0.6">
	<node id="-4989" lat="63.8605" lon="9.74952">
		<tag k="amenity" v="kindergarten" />
		<tag k="capacity" v="36" />
		<tag k="contact:email" v="ann.kristin.thunsor@bjugn.kommune.no" />
		<tag k="contact:phone" v="+47 72527814" />
		<tag k="max_age" v="5" />
		<tag k="min_age" v="1" />
		<tag k="name" v="Solkysten barnehage Avd Sandnes" />
		<tag k="no-barnehage:nsrid" v="1018234" />
		<tag k="operator" v="Bjugn kommune" />
		<tag k="operator:type" v="public" />
		<tag k="start_date" v="1989-01-01" />
	</node>
	<node id="-4988" lat="63.8838" lon="9.86458">
		<tag k="amenity" v="kindergarten" />
		<tag k="capacity" v="28" />
		<tag k="contact:email" v="ann.kristin.thunsor@bjugn.kommune.no" />
		<tag k="contact:phone" v="+47 72529450" />
		<tag k="max_age" v="5" />
		<tag k="min_age" v="1" />
		<tag k="name" v="Solkysten barnehage Avd Lysøysund" />
		<tag k="no-barnehage:nsrid" v="1025483" />
		<tag k="operator" v="Bjugn kommune" />
		<tag k="operator:type" v="public" />
		<tag k="start_date" v="1989-01-02" />
	</node>
	<node id="-4987" lat="63.7489" lon="9.71887">
		<tag k="amenity" v="kindergarten" />
		<tag k="capacity" v="54" />
		<tag k="contact:email" v="kontor@laringsverkstedet.no" />
		<tag k="max_age" v="5" />
		<tag k="min_age" v="1" />
		<tag k="name" v="Læringsverkstedet barnehage Avd Ervika" />
		<tag k="no-barnehage:nsrid" v="1015102" />
		<tag k="operator" v="Læringsverkstedet AS" />
		<tag k="operator:type" v="private" />
		<tag k="start_date" v="2012-05-01" />
	</node>
	<node id="-4986" lat="63.7675" lon="9.81525">
		<tag k="amenity" v="kindergarten" />
		<tag k="capacity" v="57" />
		<tag k="contact:email" v="gry.sandvik@bjugn.kommune.no" />
		<tag k="contact:phone" v="+47 72519428" />
		<tag k="max_age" v="5" />
		<tag k="min_age" v="1" />
		<tag k="name" v="Lyngrabben barnehage" />
		<tag k="no-barnehage:nsrid" v="1016923" />
		<tag k="operator" v="Bjugn kommune" />
		<tag k="operator:type" v="public" />
		<tag k="start_date" v="1965-12-31" />
	</node>
	<node id="-4985" lat="63.7803" lon="9.96841">
		<tag k="amenity" v="kindergarten" />
		<tag k="capacity" v="94" />
		<tag k="contact:email" v="hege.hovd@bjugn.kommune.no" />
		<tag k="contact:phone" v="+47 72519630" />
		<tag k="max_age" v="5" />
		<tag k="min_age" v="1" />
		<tag k="name" v="Bekkfaret barnehage" />
		<tag k="no-barnehage:nsrid" v="1013580" />
		<tag k="operator" v="Bjugn kommune" />
		<tag k="operator:type" v="public" />
		<tag k="start_date" v="2013-08-01" />
	</node>
</osm>
