<?xml version="1.0" encoding="UTF-8"?>
<osm version="0.6" generator="osmapis">
	<node lat="0.0" lon="0.0" id="-4662">
		<tag k="ADDRESS" v=", 6789 LOEN" />
		<tag k="amenity" v="kindergarten" />
		<tag k="capacity" v="36" />
		<tag k="max_age" v="5" />
		<tag k="min_age" v="1" />
		<tag k="name" v="Loen barnehage" />
		<tag k="no-barnehage:nsrid" v="977057736" />
		<tag k="operator" v="Stryn kommune" />
		<tag k="operator:type" v="public" />
	</node>
	<node lat="0.0" lon="0.0" id="-4663">
		<tag k="ADDRESS" v=", 6795 BLAKSÃ†TER" />
		<tag k="amenity" v="kindergarten" />
		<tag k="capacity" v="13" />
		<tag k="max_age" v="5" />
		<tag k="min_age" v="1" />
		<tag k="name" v="Nordsida barnehage" />
		<tag k="no-barnehage:nsrid" v="973383523" />
		<tag k="operator" v="Stryn kommune" />
		<tag k="operator:type" v="public" />
	</node>
	<node lat="0.0" lon="0.0" id="-4664">
		<tag k="ADDRESS" v=", 6788 OLDEN" />
		<tag k="amenity" v="kindergarten" />
		<tag k="capacity" v="48" />
		<tag k="max_age" v="5" />
		<tag k="min_age" v="1" />
		<tag k="name" v="Olden barnehage" />
		<tag k="no-barnehage:nsrid" v="973357484" />
		<tag k="operator" v="Stryn kommune" />
		<tag k="operator:type" v="public" />
	</node>
	<node lat="0.0" lon="0.0" id="-4665">
		<tag k="ADDRESS" v=", 6798 HJELLEDALEN" />
		<tag k="amenity" v="kindergarten" />
		<tag k="capacity" v="19" />
		<tag k="max_age" v="5" />
		<tag k="min_age" v="1" />
		<tag k="name" v="Oppstryn barnehage" />
		<tag k="no-barnehage:nsrid" v="975178706" />
		<tag k="operator" v="Stryn kommune" />
		<tag k="operator:type" v="public" />
	</node>
	<node lat="0.0" lon="0.0" id="-4666">
		<tag k="ADDRESS" v="Bakkesvadet, 6796 HOPLAND" />
		<tag k="amenity" v="kindergarten" />
		<tag k="capacity" v="6" />
		<tag k="max_age" v="5" />
		<tag k="min_age" v="1" />
		<tag k="name" v="Rand barnehage" />
		<tag k="no-barnehage:nsrid" v="983179738" />
		<tag k="operator" v="Stryn kommune" />
		<tag k="operator:type" v="public" />
	</node>
	<node lat="61.90585" lon="6.71349" id="-4667">
		<tag k="ADDRESS" v="Vikavegen 2, 6783 STRYN" />
		<tag k="amenity" v="kindergarten" />
		<tag k="capacity" v="44" />
		<tag k="max_age" v="5" />
		<tag k="min_age" v="1" />
		<tag k="name" v="Stryn bedriftsbarnehage" />
		<tag k="no-barnehage:nsrid" v="972291188" />
		<tag k="operator" v="Stryn bedriftsbarnehage AS" />
		<tag k="operator:type" v="private" />
	</node>
	<node lat="61.90627" lon="6.72147" id="-4668">
		<tag k="ADDRESS" v="Myrane 21, 6783 STRYN" />
		<tag k="amenity" v="kindergarten" />
		<tag k="capacity" v="97" />
		<tag k="max_age" v="5" />
		<tag k="min_age" v="1" />
		<tag k="name" v="Tonning barnehage" />
		<tag k="no-barnehage:nsrid" v="975310094" />
		<tag k="operator" v="Stryn kommune" />
		<tag k="operator:type" v="public" />
	</node>
	<node lat="61.90496" lon="6.69741" id="-4669">
		<tag k="ADDRESS" v="Vikalida 9, 6783 STRYN" />
		<tag k="amenity" v="kindergarten" />
		<tag k="capacity" v="68" />
		<tag k="max_age" v="5" />
		<tag k="min_age" v="1" />
		<tag k="name" v="Vikalida barnehage" />
		<tag k="no-barnehage:nsrid" v="991440968" />
		<tag k="operator" v="Stryn kommune" />
		<tag k="operator:type" v="public" />
	</node>
	<node lat="0.0" lon="0.0" id="-4670">
		<tag k="ADDRESS" v=", 6797 UTVIK" />
		<tag k="amenity" v="kindergarten" />
		<tag k="capacity" v="29" />
		<tag k="max_age" v="5" />
		<tag k="min_age" v="1" />
		<tag k="name" v="Vikane barnehage avd. Utvik" />
		<tag k="no-barnehage:nsrid" v="987761636" />
		<tag k="operator" v="Stryn kommune" />
		<tag k="operator:type" v="public" />
	</node>
</osm>
