<?xml version="1.0" encoding="UTF-8"?>
<osm generator="osmapis" version="0.6">
	<node id="-2040" lat="60.803" lon="10.645">
		<tag k="amenity" v="kindergarten" />
		<tag k="capacity" v="8" />
		<tag k="contact:email" v="bodil.engen@gjovik.kommune.no" />
		<tag k="max_age" v="5" />
		<tag k="min_age" v="1" />
		<tag k="name" v="Øverby barnehage" />
		<tag k="no-barnehage:nsrid" v="1013565" />
		<tag k="operator" v="Gjøvik kommune" />
		<tag k="operator:type" v="public" />
		<tag k="start_date" v="2013-06-01" />
	</node>
	<node id="-2039" lat="60.7614" lon="10.69709">
		<tag k="amenity" v="kindergarten" />
		<tag k="capacity" v="27" />
		<tag k="contact:email" v="barnehage@ostbygard.no" />
		<tag k="contact:phone" v="61 17 70 74" />
		<tag k="max_age" v="5" />
		<tag k="min_age" v="1" />
		<tag k="name" v="Østby Gårdsbarnehage Da" />
		<tag k="no-barnehage:nsrid" v="1020974" />
		<tag k="operator" v="Østby Gårdsbarnehage Da" />
		<tag k="operator:type" v="private" />
		<tag k="start_date" v="2003-08-28" />
	</node>
	<node id="-2038" lat="60.7725" lon="10.6909">
		<tag k="amenity" v="kindergarten" />
		<tag k="capacity" v="56" />
		<tag k="contact:email" v="wenke.kleppe@gjovik.kommune.no" />
		<tag k="max_age" v="5" />
		<tag k="min_age" v="1" />
		<tag k="name" v="Vindingstad barnehage" />
		<tag k="no-barnehage:nsrid" v="1017606" />
		<tag k="operator" v="Gjøvik kommune" />
		<tag k="operator:type" v="public" />
		<tag k="start_date" v="1988-04-01" />
	</node>
	<node id="-2037" lat="60.781" lon="10.697">
		<tag k="amenity" v="kindergarten" />
		<tag k="capacity" v="23" />
		<tag k="contact:email" v="toril.kristiansen@musikkfolkehogskolen.no" />
		<tag k="contact:phone" v="61 13 15 20" />
		<tag k="max_age" v="5" />
		<tag k="min_age" v="1" />
		<tag k="name" v="Viken barnehage" />
		<tag k="no-barnehage:nsrid" v="1017766" />
		<tag k="operator" v="Musikkfolkehøgskolen Viken" />
		<tag k="operator:type" v="private" />
		<tag k="start_date" v="2006-01-01" />
	</node>
	<node id="-2036" lat="60.79782" lon="10.68427">
		<tag k="amenity" v="kindergarten" />
		<tag k="capacity" v="29" />
		<tag k="contact:email" v="trine@rcas.no" />
		<tag k="contact:phone" v="61174667" />
		<tag k="max_age" v="5" />
		<tag k="min_age" v="1" />
		<tag k="name" v="Trollhaugen barnehage" />
		<tag k="no-barnehage:nsrid" v="1019631" />
		<tag k="operator" v="Trollhaugen Barnehagestiftelse" />
		<tag k="operator:type" v="private" />
		<tag k="start_date" v="1982-01-01" />
	</node>
	<node id="-2035" lat="60.7708" lon="10.7045">
		<tag k="amenity" v="kindergarten" />
		<tag k="capacity" v="71" />
		<tag k="contact:email" v="arnfinn.kleven@topro.no" />
		<tag k="max_age" v="5" />
		<tag k="min_age" v="1" />
		<tag k="name" v="Topro Bondelia barnehage" />
		<tag k="no-barnehage:nsrid" v="1014019" />
		<tag k="operator" v="Topro AS" />
		<tag k="operator:type" v="private" />
		<tag k="start_date" v="2008-08-01" />
	</node>
	<node id="-2034" lat="60.7893" lon="10.6883">
		<tag k="amenity" v="kindergarten" />
		<tag k="capacity" v="95" />
		<tag k="contact:email" v="elisabeth.henriksveen@gjovik.kommune.no" />
		<tag k="contact:phone" v="61 18 99 30" />
		<tag k="contact:website" v="http://www.tongjordet.bhg.gjovik.no" />
		<tag k="max_age" v="5" />
		<tag k="min_age" v="1" />
		<tag k="name" v="Tongjordet barnehage" />
		<tag k="no-barnehage:nsrid" v="1016647" />
		<tag k="operator" v="Gjøvik kommune" />
		<tag k="operator:type" v="public" />
		<tag k="start_date" v="1989-01-02" />
	</node>
	<node id="-2033" lat="60.788" lon="10.6804">
		<tag k="amenity" v="kindergarten" />
		<tag k="capacity" v="37" />
		<tag k="contact:email" v="soppbarnehage.gjovik@sopp.no" />
		<tag k="contact:phone" v="55104" />
		<tag k="max_age" v="5" />
		<tag k="min_age" v="1" />
		<tag k="name" v="Studentsamskipnaden i Gjøvik, Ålesund og Trondheim Sopp barnehage Gjøvik" />
		<tag k="no-barnehage:nsrid" v="1015500" />
		<tag k="operator" v="Studentsamskipnaden i Gjøvik, Ålesund og Trondheim" />
		<tag k="operator:type" v="private" />
		<tag k="start_date" v="1991-01-01" />
	</node>
	<node id="-2032" lat="60.8051" lon="10.6754">
		<tag k="amenity" v="kindergarten" />
		<tag k="capacity" v="17" />
		<tag k="contact:email" v="post@solaasstua.no" />
		<tag k="contact:phone" v="61170420" />
		<tag k="max_age" v="5" />
		<tag k="min_age" v="1" />
		<tag k="name" v="Solåsstua barnehage" />
		<tag k="no-barnehage:nsrid" v="1025318" />
		<tag k="operator" v="Vardal Sanitetsforening" />
		<tag k="operator:type" v="private" />
		<tag k="start_date" v="1989-01-01" />
	</node>
	<node id="-2031" lat="60.8769" lon="10.40287">
		<tag k="amenity" v="kindergarten" />
		<tag k="capacity" v="74" />
		<tag k="contact:email" v="merethe.hoffsbakken@gmail.com" />
		<tag k="contact:phone" v="61 18 71 79" />
		<tag k="max_age" v="5" />
		<tag k="min_age" v="1" />
		<tag k="name" v="Skonnordtjernet barnehage AS" />
		<tag k="no-barnehage:nsrid" v="1021607" />
		<tag k="operator" v="Skonnordtjernet barnehage AS" />
		<tag k="operator:type" v="private" />
		<tag k="start_date" v="2006-12-18" />
	</node>
	<node id="-2030" lat="60.93963" lon="10.62135">
		<tag k="amenity" v="kindergarten" />
		<tag k="capacity" v="35" />
		<tag k="contact:email" v="osnugger@online.no" />
		<tag k="contact:phone" v="611-75614" />
		<tag k="max_age" v="5" />
		<tag k="min_age" v="1" />
		<tag k="name" v="Nordby Gård og barnehage" />
		<tag k="no-barnehage:nsrid" v="1020383" />
		<tag k="operator" v="Øystein Snuggerud" />
		<tag k="operator:type" v="private" />
		<tag k="start_date" v="1995-08-11" />
	</node>
	<node id="-2029" lat="60.82285" lon="10.66457">
		<tag k="amenity" v="kindergarten" />
		<tag k="capacity" v="77" />
		<tag k="contact:email" v="monsbhg@online.no" />
		<tag k="contact:phone" v="61 13 09 80" />
		<tag k="max_age" v="5" />
		<tag k="min_age" v="1" />
		<tag k="name" v="Monssveen barnehage Sa" />
		<tag k="no-barnehage:nsrid" v="1020907" />
		<tag k="operator" v="Monssveen barnehage Sa" />
		<tag k="operator:type" v="private" />
		<tag k="start_date" v="2003-03-25" />
	</node>
	<node id="-2028" lat="60.78563" lon="10.64691">
		<tag k="amenity" v="kindergarten" />
		<tag k="capacity" v="39" />
		<tag k="contact:email" v="misjonshuset.bhg@nlmbhg.no" />
		<tag k="contact:phone" v="61 17 42 30" />
		<tag k="max_age" v="5" />
		<tag k="min_age" v="1" />
		<tag k="name" v="Misjonshusets barnehage" />
		<tag k="no-barnehage:nsrid" v="1021264" />
		<tag k="operator" v="Misjonshusets barnehage" />
		<tag k="operator:type" v="private" />
		<tag k="start_date" v="1982-01-01" />
	</node>
	<node id="-2027" lat="60.7937" lon="10.6291">
		<tag k="amenity" v="kindergarten" />
		<tag k="capacity" v="59" />
		<tag k="contact:email" v="karianne.myhre@gjovik.kommune.no" />
		<tag k="max_age" v="5" />
		<tag k="min_age" v="1" />
		<tag k="name" v="Marka barnehage" />
		<tag k="no-barnehage:nsrid" v="1013949" />
		<tag k="operator" v="Gjøvik kommune" />
		<tag k="operator:type" v="public" />
		<tag k="start_date" v="1990-01-01" />
	</node>
	<node id="-2026" lat="60.77427" lon="10.67283">
		<tag k="amenity" v="kindergarten" />
		<tag k="capacity" v="52" />
		<tag k="contact:email" v="marihoena@barnehage.no" />
		<tag k="contact:phone" v="61 14 68 50" />
		<tag k="max_age" v="5" />
		<tag k="min_age" v="1" />
		<tag k="name" v="Marihøna barnehage Sa" />
		<tag k="no-barnehage:nsrid" v="1020021" />
		<tag k="operator" v="Marihøna barnehage Sa" />
		<tag k="operator:type" v="private" />
		<tag k="start_date" v="1990-12-12" />
	</node>
	<node id="-2025" lat="60.8047" lon="10.6787">
		<tag k="amenity" v="kindergarten" />
		<tag k="capacity" v="86" />
		<tag k="contact:email" v="sidsel.martinsen@gjovik.kommune.no" />
		<tag k="max_age" v="5" />
		<tag k="min_age" v="1" />
		<tag k="name" v="Lissomskogen barnehage" />
		<tag k="no-barnehage:nsrid" v="1017208" />
		<tag k="operator" v="Gjøvik kommune" />
		<tag k="operator:type" v="public" />
		<tag k="start_date" v="2006-08-01" />
	</node>
	<node id="-2024" lat="60.7739" lon="10.667">
		<tag k="amenity" v="kindergarten" />
		<tag k="capacity" v="59" />
		<tag k="contact:email" v="anna-karin.narten@gjovik.kommune.no" />
		<tag k="contact:phone" v="61 13 76 00" />
		<tag k="max_age" v="5" />
		<tag k="min_age" v="1" />
		<tag k="name" v="Kvartsvegen barnehage" />
		<tag k="no-barnehage:nsrid" v="1016976" />
		<tag k="operator" v="Gjøvik kommune" />
		<tag k="operator:type" v="public" />
		<tag k="start_date" v="2005-08-08" />
	</node>
	<node id="-2023" lat="60.7999" lon="10.6724">
		<tag k="amenity" v="kindergarten" />
		<tag k="capacity" v="55" />
		<tag k="contact:email" v="kristin.sviund@gjovik.kommune.no" />
		<tag k="max_age" v="5" />
		<tag k="min_age" v="1" />
		<tag k="name" v="Kråkjordet barnehage" />
		<tag k="no-barnehage:nsrid" v="1017604" />
		<tag k="operator" v="Gjøvik kommune" />
		<tag k="operator:type" v="public" />
		<tag k="start_date" v="1988-04-01" />
	</node>
	<node id="-2022" lat="60.7767" lon="10.6768">
		<tag k="amenity" v="kindergarten" />
		<tag k="capacity" v="60" />
		<tag k="contact:email" v="magni.bekkelund@gjovik.kommune.no" />
		<tag k="max_age" v="5" />
		<tag k="min_age" v="1" />
		<tag k="name" v="Kopperud barnehage" />
		<tag k="no-barnehage:nsrid" v="1025503" />
		<tag k="operator" v="Gjøvik kommune" />
		<tag k="operator:type" v="public" />
		<tag k="start_date" v="1988-04-01" />
	</node>
	<node id="-2021" lat="60.7879" lon="10.63739">
		<tag k="amenity" v="kindergarten" />
		<tag k="capacity" v="49" />
		<tag k="contact:email" v="post@huskestua.no" />
		<tag k="contact:phone" v="61 13 00 70" />
		<tag k="contact:website" v="http://huskestuabhg.barnehage.no/" />
		<tag k="max_age" v="5" />
		<tag k="min_age" v="1" />
		<tag k="name" v="Huskestua barnehage" />
		<tag k="no-barnehage:nsrid" v="1019966" />
		<tag k="operator" v="Huskestua barnehage Hunndalen Sa" />
		<tag k="operator:type" v="private" />
		<tag k="start_date" v="1991-01-01" />
	</node>
	<node id="-2020" lat="60.7948" lon="10.6688">
		<tag k="amenity" v="kindergarten" />
		<tag k="capacity" v="48" />
		<tag k="contact:email" v="karina.brende@gjovik.kommune.no" />
		<tag k="max_age" v="5" />
		<tag k="min_age" v="1" />
		<tag k="name" v="Hunnshovde barnehage" />
		<tag k="no-barnehage:nsrid" v="1017603" />
		<tag k="operator" v="Gjøvik kommune" />
		<tag k="operator:type" v="public" />
		<tag k="start_date" v="1988-04-01" />
	</node>
	<node id="-2019" lat="60.79137" lon="10.66948">
		<tag k="amenity" v="kindergarten" />
		<tag k="capacity" v="54" />
		<tag k="contact:email" v="100meter@online.no" />
		<tag k="contact:phone" v="61 13 22 60" />
		<tag k="contact:website" v="http://www.hundremeterskogen.barnehageside.no" />
		<tag k="max_age" v="5" />
		<tag k="min_age" v="1" />
		<tag k="name" v="Hundremeterskogen barnehage" />
		<tag k="no-barnehage:nsrid" v="1020727" />
		<tag k="operator" v="Hundremeterskogen barnehage Gjøvik Sa" />
		<tag k="operator:type" v="private" />
		<tag k="start_date" v="2001-12-31" />
	</node>
	<node id="-2018" lat="60.7963" lon="10.6856">
		<tag k="amenity" v="kindergarten" />
		<tag k="capacity" v="51" />
		<tag k="contact:email" v="gunn.ryland@gjovik.kommune.no" />
		<tag k="contact:phone" v="61 18 74 40" />
		<tag k="max_age" v="5" />
		<tag k="min_age" v="1" />
		<tag k="name" v="Gjøvik barnehage" />
		<tag k="no-barnehage:nsrid" v="1025501" />
		<tag k="operator" v="Gjøvik kommune" />
		<tag k="operator:type" v="public" />
		<tag k="start_date" v="1988-04-01" />
	</node>
	<node id="-2017" lat="60.78791" lon="10.69843">
		<tag k="amenity" v="kindergarten" />
		<tag k="capacity" v="59" />
		<tag k="contact:email" v="fredvika@steinerbarnehage.no" />
		<tag k="max_age" v="5" />
		<tag k="min_age" v="1" />
		<tag k="name" v="Fredvika barnehage" />
		<tag k="no-barnehage:nsrid" v="1021627" />
		<tag k="operator" v="Stiftelsen Fredvika Steinerbarnehage" />
		<tag k="operator:type" v="private" />
		<tag k="start_date" v="1996-08-01" />
	</node>
	<node id="-2016" lat="60.7737" lon="10.6695">
		<tag k="amenity" v="kindergarten" />
		<tag k="capacity" v="40" />
		<tag k="contact:email" v="en669@kirken.no" />
		<tag k="max_age" v="5" />
		<tag k="min_age" v="1" />
		<tag k="name" v="Engehaugen Menighetsbarnehage" />
		<tag k="no-barnehage:nsrid" v="1015571" />
		<tag k="operator" v="Gjøvik Kirkelige Fellesråd" />
		<tag k="operator:type" v="private" />
		<tag k="start_date" v="1989-01-02" />
	</node>
	<node id="-2015" lat="60.80481" lon="10.64833">
		<tag k="amenity" v="kindergarten" />
		<tag k="capacity" v="15" />
		<tag k="contact:email" v="l-fystro@frisurf.no" />
		<tag k="contact:phone" v="61 17 68 75" />
		<tag k="max_age" v="5" />
		<tag k="min_age" v="1" />
		<tag k="name" v="Eik Naturbarnehage" />
		<tag k="no-barnehage:nsrid" v="1021490" />
		<tag k="operator" v="Liv Dorthea Skaaren-Fystro" />
		<tag k="operator:type" v="private" />
		<tag k="start_date" v="2006-08-15" />
	</node>
	<node id="-2014" lat="60.95056" lon="10.62558">
		<tag k="amenity" v="kindergarten" />
		<tag k="capacity" v="91" />
		<tag k="contact:email" v="dl.diseth@bhg.no" />
		<tag k="contact:phone" v="61 17 93 90" />
		<tag k="max_age" v="5" />
		<tag k="min_age" v="1" />
		<tag k="name" v="Diseth Fus barnehage AS" />
		<tag k="no-barnehage:nsrid" v="1021590" />
		<tag k="operator" v="Diseth Fus barnehage AS" />
		<tag k="operator:type" v="private" />
		<tag k="start_date" v="2006-12-18" />
	</node>
	<node id="-2013" lat="60.7957" lon="10.7">
		<tag k="amenity" v="kindergarten" />
		<tag k="capacity" v="22" />
		<tag k="contact:email" v="bodil.engen@gjovik.kommune.no" />
		<tag k="max_age" v="2" />
		<tag k="min_age" v="1" />
		<tag k="name" v="Båthavna barnehage" />
		<tag k="no-barnehage:nsrid" v="1017207" />
		<tag k="operator" v="Gjøvik kommune" />
		<tag k="operator:type" v="public" />
		<tag k="start_date" v="2006-08-01" />
	</node>
	<node id="-2012" lat="60.80004" lon="10.5963">
		<tag k="amenity" v="kindergarten" />
		<tag k="capacity" v="65" />
		<tag k="contact:email" v="dl.bybrua@bhg.no" />
		<tag k="max_age" v="5" />
		<tag k="min_age" v="1" />
		<tag k="name" v="Bybrua Fus barnehage AS" />
		<tag k="no-barnehage:nsrid" v="1022032" />
		<tag k="operator" v="Bybrua Fus barnehage AS" />
		<tag k="operator:type" v="private" />
		<tag k="start_date" v="2010-12-31" />
	</node>
	<node id="-2011" lat="60.9621" lon="10.6045">
		<tag k="amenity" v="kindergarten" />
		<tag k="capacity" v="62" />
		<tag k="contact:email" v="kjersti.bo@gjovik.kommune.no" />
		<tag k="max_age" v="5" />
		<tag k="min_age" v="1" />
		<tag k="name" v="Biri barnehage" />
		<tag k="no-barnehage:nsrid" v="1017602" />
		<tag k="operator" v="Gjøvik kommune" />
		<tag k="operator:type" v="public" />
		<tag k="start_date" v="1988-04-01" />
	</node>
</osm>
