<?xml version="1.0" encoding="UTF-8"?>
<osm generator="osmapis" version="0.6">
	<node id="-5264" lat="59.2278" lon="10.332">
		<tag k="amenity" v="kindergarten" />
		<tag k="capacity" v="39" />
		<tag k="contact:email" v="Anne.Marie.Lilleas@sandefjord.kommune.no" />
		<tag k="contact:phone" v="+47 33 29 56 50" />
		<tag k="contact:website" v="http://www.sandefjord.kommune.no" />
		<tag k="max_age" v="5" />
		<tag k="min_age" v="1" />
		<tag k="name" v="Trekanten barnehage" />
		<tag k="no-barnehage:nsrid" v="1018029" />
		<tag k="operator" v="Sandefjord kommune" />
		<tag k="operator:type" v="public" />
		<tag k="start_date" v="1989-01-01" />
	</node>
	<node id="-5263" lat="64.224" lon="13.8327">
		<tag k="amenity" v="kindergarten" />
		<tag k="capacity" v="36" />
		<tag k="contact:email" v="agnes.hanssen@lierne.kommune.no" />
		<tag k="contact:phone" v="+47 74 34 35 70" />
		<tag k="max_age" v="5" />
		<tag k="min_age" v="1" />
		<tag k="name" v="SÃ¸rli barnehage" />
		<tag k="no-barnehage:nsrid" v="1016618" />
		<tag k="operator" v="Lierne kommune" />
		<tag k="operator:type" v="public" />
		<tag k="start_date" v="1989-01-02" />
	</node>
	<node id="-5262" lat="64.4719" lon="13.6139">
		<tag k="amenity" v="kindergarten" />
		<tag k="capacity" v="23" />
		<tag k="contact:email" v="jannike.hildrum@lierne.kommune.no" />
		<tag k="contact:phone" v="+47 74 34 34 91" />
		<tag k="max_age" v="5" />
		<tag k="min_age" v="1" />
		<tag k="name" v="Sandvika barnehage" />
		<tag k="no-barnehage:nsrid" v="1016617" />
		<tag k="operator" v="Lierne kommune" />
		<tag k="operator:type" v="public" />
		<tag k="start_date" v="1989-01-02" />
	</node>
</osm>
