<?xml version="1.0" encoding="UTF-8"?>
<osm generator="osmapis" version="0.6">
	<node id="-4496" lat="59.82522" lon="5.352022">
		<tag k="amenity" v="kindergarten" />
		<tag k="capacity" v="12" />
		<tag k="contact:email" v="gunntovebre@gmail.com" />
		<tag k="contact:phone" v="+47 54 39 97 59" />
		<tag k="doNotImportAddress" v="Dåfjord 5410 SAGVÅG" />
		<tag k="max_age" v="5" />
		<tag k="min_age" v="1" />
		<tag k="name" v="Dåfjorden barnehage" />
		<tag k="no-barnehage:nsrid" v="1022375" />
		<tag k="operator" v="Dåfjorden barnehage AS" />
		<tag k="operator:type" v="private" />
	</node>
	<node id="-4500" lat="59.93727" lon="5.335875">
		<tag k="amenity" v="kindergarten" />
		<tag k="capacity" v="14" />
		<tag k="contact:email" v="arskogba@gmail.com" />
		<tag k="contact:phone" v="+47 53 49 72 41" />
		<tag k="doNotImportAddress" v="Årskog 5418 FITJAR" />
		<tag k="max_age" v="5" />
		<tag k="min_age" v="1" />
		<tag k="name" v="Årskog barnehage" />
		<tag k="no-barnehage:nsrid" v="1019776" />
		<tag k="operator" v="Årskog barnehage Sa" />
		<tag k="operator:type" v="private" />
	</node>
	<node id="-4499" lat="59.87242" lon="5.35276">
		<tag k="amenity" v="kindergarten" />
		<tag k="capacity" v="38" />
		<tag k="contact:email" v="dl.fjellheim@bhg.no" />
		<tag k="contact:phone" v="+47 91692699" />
		<tag k="contact:website" v="http://fjellheim.bhg.no" />
		<tag k="doNotImportAddress" v="Årbø 5419 FITJAR" />
		<tag k="max_age" v="5" />
		<tag k="min_age" v="1" />
		<tag k="name" v="Fjellheim FUS friluftsbarnehage" />
		<tag k="no-barnehage:nsrid" v="1022360" />
		<tag k="operator" v="Fjellheim Fus Friluftsbarnehage AS" />
		<tag k="operator:type" v="private" />
	</node>
	<node id="-4498" lat="59.9185" lon="5.31923">
		<tag k="amenity" v="kindergarten" />
		<tag k="capacity" v="36" />
		<tag k="contact:email" v="fitjarstolane@fitjar.kommune.no" />
		<tag k="contact:phone" v="+47 53458635" />
		<tag k="doNotImportAddress" v=" 5419 FITJAR" />
		<tag k="max_age" v="5" />
		<tag k="min_age" v="1" />
		<tag k="name" v="Fitjarstølane barnehage" />
		<tag k="no-barnehage:nsrid" v="1012745" />
		<tag k="operator" v="Fitjar kommune" />
		<tag k="operator:type" v="public" />
	</node>
	<node id="-4497" lat="59.92342" lon="5.327167">
		<tag k="amenity" v="kindergarten" />
		<tag k="capacity" v="62" />
		<tag k="contact:email" v="bakken.barnehage@haugnett.no" />
		<tag k="contact:phone" v="+47 53 22 26 00" />
		<tag k="doNotImportAddress" v="Varhaugsvegen 2 5419 FITJAR" />
		<tag k="max_age" v="5" />
		<tag k="min_age" v="1" />
		<tag k="name" v="Fitjar soknerådsbarnehage Stifting" />
		<tag k="no-barnehage:nsrid" v="1021323" />
		<tag k="operator" v="Fitjar Soknerådsbarnehage Stifting" />
		<tag k="operator:type" v="private" />
	</node>
</osm>
