<?xml version="1.0" encoding="UTF-8"?>
<osm generator="osmapis" version="0.6">
	<node id="-1894" lat="61.7803" lon="10.4008">
		<tag k="amenity" v="kindergarten" />
		<tag k="capacity" v="6" />
		<tag k="contact:email" v="bsa@stor-elvdal.kommune.no" />
		<tag k="contact:phone" v="+47 47 45 86 22" />
		<tag k="doNotImportAddress" v="Rondeveien 711 2477 SOLLIA" />
		<tag k="max_age" v="5" />
		<tag k="min_age" v="1" />
		<tag k="name" v="Sollia barnehage" />
		<tag k="no-barnehage:nsrid" v="1017592" />
		<tag k="operator" v="Stor-Elvdal kommune" />
		<tag k="operator:type" v="public" />
	</node>
	<node id="-1893" lat="61.57471" lon="11.04058">
		<tag k="amenity" v="kindergarten" />
		<tag k="capacity" v="25" />
		<tag k="contact:email" v="barnehagen@stor-elvdal.kirken.no" />
		<tag k="contact:phone" v="+47 62 46 09 49" />
		<tag k="doNotImportAddress" v="Industriveien 2480 KOPPANG" />
		<tag k="max_age" v="5" />
		<tag k="min_age" v="1" />
		<tag k="name" v="Menighetens barnehage" />
		<tag k="no-barnehage:nsrid" v="1019575" />
		<tag k="operator" v="Menighetens barnehage" />
		<tag k="operator:type" v="private" />
	</node>
	<node id="-1892" lat="61.5673" lon="11.0636">
		<tag k="amenity" v="kindergarten" />
		<tag k="capacity" v="46" />
		<tag k="contact:email" v="bsa@stor-elvdal.kommune.no" />
		<tag k="contact:phone" v="+47 62 46 24 12" />
		<tag k="doNotImportAddress" v="Skoleveien 50 2480 KOPPANG" />
		<tag k="max_age" v="5" />
		<tag k="min_age" v="1" />
		<tag k="name" v="Koppang barnehage" />
		<tag k="no-barnehage:nsrid" v="1012877" />
		<tag k="operator" v="Stor-Elvdal kommune" />
		<tag k="operator:type" v="public" />
	</node>
</osm>
