<?xml version="1.0" encoding="UTF-8"?>
<osm generator="osmapis" version="0.6">
	<node id="-1960" lat="61.5673" lon="11.0636">
		<tag k="amenity" v="kindergarten" />
		<tag k="capacity" v="50" />
		<tag k="contact:email" v="bsa@stor-elvdal.kommune.no" />
		<tag k="contact:phone" v="+47 62 46 24 12" />
		<tag k="max_age" v="5" />
		<tag k="min_age" v="1" />
		<tag k="name" v="Koppang barnehage" />
		<tag k="no-barnehage:nsrid" v="1012877" />
		<tag k="operator" v="Stor-Elvdal kommune" />
		<tag k="operator:type" v="public" />
		<tag k="start_date" v="1976-01-01" />
	</node>
	<node id="-1962" lat="61.7803" lon="10.4008">
		<tag k="amenity" v="kindergarten" />
		<tag k="capacity" v="8" />
		<tag k="contact:email" v="bsa@stor-elvdal.kommune.no" />
		<tag k="contact:phone" v="+47 47 45 86 22" />
		<tag k="max_age" v="5" />
		<tag k="min_age" v="1" />
		<tag k="name" v="Sollia barnehage" />
		<tag k="no-barnehage:nsrid" v="1017592" />
		<tag k="operator" v="Stor-Elvdal kommune" />
		<tag k="operator:type" v="public" />
		<tag k="start_date" v="1988-04-01" />
	</node>
	<node id="-1961" lat="61.57471" lon="11.04058">
		<tag k="amenity" v="kindergarten" />
		<tag k="capacity" v="24" />
		<tag k="contact:email" v="barnehagen@stor-elvdal.kirken.no" />
		<tag k="contact:phone" v="+47 62 46 09 49" />
		<tag k="max_age" v="5" />
		<tag k="min_age" v="1" />
		<tag k="name" v="Menighetens barnehage" />
		<tag k="no-barnehage:nsrid" v="1019575" />
		<tag k="operator" v="Menighetens barnehage" />
		<tag k="operator:type" v="private" />
		<tag k="start_date" v="1979-02-14" />
	</node>
</osm>
