<?xml version="1.0" encoding="UTF-8"?>
<osm generator="osmapis" version="0.6">
	<node id="-384" lat="59.77109" lon="10.69927">
		<tag k="amenity" v="kindergarten" />
		<tag k="capacity" v="10" />
		<tag k="contact:email" v="areelin@haslerud.net" />
		<tag k="contact:phone" v="+47 66 96 03 36" />
		<tag k="max_age" v="5" />
		<tag k="min_age" v="1" />
		<tag k="name" v="Haslerud Natur familiebarnehage Are Dammann" />
		<tag k="no-barnehage:nsrid" v="1021461" />
		<tag k="operator" v="Haslerud Natur Familiebarnehage Are Dammann" />
		<tag k="operator:type" v="private" />
	</node>
	<node id="-383" lat="59.82692" lon="10.68767">
		<tag k="amenity" v="kindergarten" />
		<tag k="capacity" v="8" />
		<tag k="contact:email" v="synnove@hagebagen.no" />
		<tag k="contact:phone" v="+47 932 85 178" />
		<tag k="max_age" v="2" />
		<tag k="min_age" v="1" />
		<tag k="name" v="Hagebagen familiebarnehage Synnøve Fylling" />
		<tag k="no-barnehage:nsrid" v="1022053" />
		<tag k="operator" v="Hagebagen Familiebarnehage Synnøve Fylling" />
		<tag k="operator:type" v="private" />
	</node>
	<node id="-375" lat="59.83494" lon="10.68622">
		<tag k="amenity" v="kindergarten" />
		<tag k="capacity" v="8" />
		<tag k="contact:email" v="annerustad@gmail.com" />
		<tag k="contact:phone" v="+47 932 01 666" />
		<tag k="max_age" v="2" />
		<tag k="min_age" v="1" />
		<tag k="name" v="Balderblom Anne Kristin Rustad" />
		<tag k="no-barnehage:nsrid" v="1021546" />
		<tag k="operator" v="Balderblom Anne Kristin Rustad" />
		<tag k="operator:type" v="private" />
	</node>
	<node id="-391" lat="59.84263" lon="10.67894">
		<tag k="amenity" v="kindergarten" />
		<tag k="capacity" v="4" />
		<tag k="contact:email" v="hege.heggen@gmail.com" />
		<tag k="contact:phone" v="+47 66 91 50 85" />
		<tag k="max_age" v="2" />
		<tag k="min_age" v="1" />
		<tag k="name" v="Mosseliten familiebarnehage Hege Frøyland" />
		<tag k="no-barnehage:nsrid" v="1021555" />
		<tag k="operator" v="Mosseliten Familiebarnehage Hege Frøyland" />
		<tag k="operator:type" v="private" />
	</node>
	<node id="-388" lat="59.82557" lon="10.68758">
		<tag k="amenity" v="kindergarten" />
		<tag k="capacity" v="8" />
		<tag k="contact:email" v="trollskogenbarnehage@online.no" />
		<tag k="max_age" v="2" />
		<tag k="min_age" v="1" />
		<tag k="name" v="Hind Herred" />
		<tag k="no-barnehage:nsrid" v="1026444" />
		<tag k="operator" v="Hind Herred AS" />
		<tag k="operator:type" v="private" />
	</node>
	<node id="-387" lat="59.82954" lon="10.68474">
		<tag k="amenity" v="kindergarten" />
		<tag k="capacity" v="4" />
		<tag k="contact:email" v="lena_moland@hotmail.com" />
		<tag k="contact:phone" v="+47 66 91 44 91" />
		<tag k="max_age" v="2" />
		<tag k="min_age" v="1" />
		<tag k="name" v="Hestehoven familiebarnehage" />
		<tag k="no-barnehage:nsrid" v="1020931" />
		<tag k="operator" v="Lena Susanne Moland Hestehoven Familiebarnehage" />
		<tag k="operator:type" v="private" />
	</node>
</osm>
