<?xml version="1.0" encoding="UTF-8"?>
<osm generator="osmapis" version="0.6">
	<node id="-316" lat="59.8346" lon="10.64">
		<tag k="amenity" v="kindergarten" />
		<tag k="capacity" v="48" />
		<tag k="max_age" v="5" />
		<tag k="min_age" v="1" />
		<tag k="name" v="Sunnhagen barnehage" />
		<tag k="no-barnehage:nsrid" v="1017530" />
		<tag k="operator" v="Nesodden kommune" />
		<tag k="operator:type" v="public" />
	</node>
	<node id="-315" lat="59.85699" lon="10.67289">
		<tag k="amenity" v="kindergarten" />
		<tag k="capacity" v="72" />
		<tag k="max_age" v="5" />
		<tag k="min_age" v="1" />
		<tag k="name" v="Solsikken Steinerbarnehage" />
		<tag k="no-barnehage:nsrid" v="1021155" />
		<tag k="operator" v="Stiftelsen Solsikken Steinerbarne- Hage" />
		<tag k="operator:type" v="private" />
	</node>
	<node id="-314" lat="59.83122" lon="10.68435">
		<tag k="amenity" v="kindergarten" />
		<tag k="capacity" v="14" />
		<tag k="max_age" v="5" />
		<tag k="min_age" v="1" />
		<tag k="name" v="Sletta barnehage" />
		<tag k="no-barnehage:nsrid" v="1020046" />
		<tag k="operator" v="Sletta barnehage AS" />
		<tag k="operator:type" v="private" />
	</node>
	<node id="-313" lat="59.79638" lon="10.61998">
		<tag k="amenity" v="kindergarten" />
		<tag k="capacity" v="21" />
		<tag k="contact:website" v="http://www.salamanderskogen.barnehage.no" />
		<tag k="max_age" v="5" />
		<tag k="min_age" v="1" />
		<tag k="name" v="Salamanderskogen barnehage" />
		<tag k="no-barnehage:nsrid" v="1020360" />
		<tag k="operator" v="Salamanderskogen barnehage Sa" />
		<tag k="operator:type" v="private" />
	</node>
	<node id="-312" lat="59.8595" lon="10.6614">
		<tag k="amenity" v="kindergarten" />
		<tag k="capacity" v="65" />
		<tag k="max_age" v="5" />
		<tag k="min_age" v="1" />
		<tag k="name" v="Oksval barnehage" />
		<tag k="no-barnehage:nsrid" v="1025495" />
		<tag k="operator" v="Nesodden kommune" />
		<tag k="operator:type" v="public" />
	</node>
	<node id="-311" lat="59.8269" lon="10.6877">
		<tag k="amenity" v="kindergarten" />
		<tag k="capacity" v="95" />
		<tag k="max_age" v="5" />
		<tag k="min_age" v="1" />
		<tag k="name" v="Munkestien barnehage" />
		<tag k="no-barnehage:nsrid" v="1015649" />
		<tag k="operator" v="Nesodden kommune" />
		<tag k="operator:type" v="public" />
	</node>
	<node id="-309" lat="59.8516" lon="10.67107">
		<tag k="amenity" v="kindergarten" />
		<tag k="capacity" v="46" />
		<tag k="max_age" v="5" />
		<tag k="min_age" v="1" />
		<tag k="name" v="Læringsverkstedet Blåbærstien barnehage" />
		<tag k="no-barnehage:nsrid" v="1021901" />
		<tag k="operator" v="Læringsverkstedet Blåbærstien barnehage AS" />
		<tag k="operator:type" v="private" />
	</node>
	<node id="-308" lat="59.74527" lon="10.60296">
		<tag k="amenity" v="kindergarten" />
		<tag k="capacity" v="18" />
		<tag k="max_age" v="5" />
		<tag k="min_age" v="1" />
		<tag k="name" v="Lilleengen familiebarnehage" />
		<tag k="no-barnehage:nsrid" v="1020817" />
		<tag k="operator" v="Lilleengen Naturbarnehage Else Marie Fossbråten Wennersgaard" />
		<tag k="operator:type" v="private" />
	</node>
	<node id="-307" lat="59.8529" lon="10.6647">
		<tag k="amenity" v="kindergarten" />
		<tag k="capacity" v="124" />
		<tag k="max_age" v="5" />
		<tag k="min_age" v="1" />
		<tag k="name" v="Kongleveien barnehage" />
		<tag k="no-barnehage:nsrid" v="1017529" />
		<tag k="operator" v="Nesodden kommune" />
		<tag k="operator:type" v="public" />
	</node>
	<node id="-304" lat="59.83412" lon="10.68958">
		<tag k="amenity" v="kindergarten" />
		<tag k="capacity" v="30" />
		<tag k="contact:website" v="http://www.hellvikbarnehage.no" />
		<tag k="max_age" v="5" />
		<tag k="min_age" v="1" />
		<tag k="name" v="Hellvik barnehage, Hakkespettlia" />
		<tag k="no-barnehage:nsrid" v="1019715" />
		<tag k="operator" v="Hellvik Barnehage, Hakkespettlia Sa" />
		<tag k="operator:type" v="private" />
	</node>
	<node id="-303" lat="59.8462" lon="10.671">
		<tag k="amenity" v="kindergarten" />
		<tag k="capacity" v="150" />
		<tag k="max_age" v="5" />
		<tag k="min_age" v="1" />
		<tag k="name" v="Heia barnehage" />
		<tag k="no-barnehage:nsrid" v="1015112" />
		<tag k="operator" v="Nesodden kommune" />
		<tag k="operator:type" v="public" />
	</node>
	<node id="-301" lat="59.83066" lon="10.68494">
		<tag k="amenity" v="kindergarten" />
		<tag k="capacity" v="59" />
		<tag k="contact:website" v="http://www.fjordvangen.no" />
		<tag k="max_age" v="5" />
		<tag k="min_age" v="1" />
		<tag k="name" v="Fjordvangen barnehage" />
		<tag k="no-barnehage:nsrid" v="1020770" />
		<tag k="operator" v="Fjordvangen barnehage Sa" />
		<tag k="operator:type" v="private" />
	</node>
	<node id="-300" lat="59.7357" lon="10.6048">
		<tag k="amenity" v="kindergarten" />
		<tag k="capacity" v="95" />
		<tag k="max_age" v="5" />
		<tag k="min_age" v="1" />
		<tag k="name" v="Fagerstrand barnehage" />
		<tag k="no-barnehage:nsrid" v="1017528" />
		<tag k="operator" v="Nesodden kommune" />
		<tag k="operator:type" v="public" />
	</node>
	<node id="-299" lat="59.74171" lon="10.59388">
		<tag k="amenity" v="kindergarten" />
		<tag k="capacity" v="69" />
		<tag k="contact:website" v="http://www.fagerskog.bhg.no" />
		<tag k="max_age" v="5" />
		<tag k="min_age" v="1" />
		<tag k="name" v="Fager Skog FUS barnehage" />
		<tag k="no-barnehage:nsrid" v="1021312" />
		<tag k="operator" v="Fager Skog Fus barnehage AS" />
		<tag k="operator:type" v="private" />
	</node>
	<node id="-298" lat="59.796" lon="10.6236">
		<tag k="amenity" v="kindergarten" />
		<tag k="capacity" v="43" />
		<tag k="contact:website" v="http://www.nesodden.kommune.no/barn-unge/barnehager/kommunale-barnehager/eplehagen-barnehage/" />
		<tag k="max_age" v="5" />
		<tag k="min_age" v="1" />
		<tag k="name" v="Eplehagen barnehage" />
		<tag k="no-barnehage:nsrid" v="1014302" />
		<tag k="operator" v="Nesodden kommune" />
		<tag k="operator:type" v="public" />
	</node>
	<node id="-297" lat="59.80643" lon="10.62562">
		<tag k="amenity" v="kindergarten" />
		<tag k="capacity" v="32" />
		<tag k="contact:website" v="http://www.ellingstad.barnehage.no" />
		<tag k="max_age" v="5" />
		<tag k="min_age" v="1" />
		<tag k="name" v="Ellingstad barnehage" />
		<tag k="no-barnehage:nsrid" v="1020255" />
		<tag k="operator" v="Ellingstad barnehage AS" />
		<tag k="operator:type" v="private" />
	</node>
	<node id="-296" lat="59.8299" lon="10.6431">
		<tag k="amenity" v="kindergarten" />
		<tag k="capacity" v="34" />
		<tag k="max_age" v="5" />
		<tag k="min_age" v="1" />
		<tag k="name" v="Bjørnemyr barnehage" />
		<tag k="no-barnehage:nsrid" v="1017527" />
		<tag k="operator" v="Nesodden kommune" />
		<tag k="operator:type" v="public" />
	</node>
	<node id="-295" lat="59.86553" lon="10.6594">
		<tag k="amenity" v="kindergarten" />
		<tag k="capacity" v="17" />
		<tag k="max_age" v="5" />
		<tag k="min_age" v="1" />
		<tag k="name" v="Bergerkollektivet barnehage" />
		<tag k="no-barnehage:nsrid" v="1019675" />
		<tag k="operator" v="Bergerkollektivet barnehage" />
		<tag k="operator:type" v="private" />
	</node>
	<node id="-294" lat="59.79288" lon="10.63728">
		<tag k="amenity" v="kindergarten" />
		<tag k="capacity" v="27" />
		<tag k="max_age" v="5" />
		<tag k="min_age" v="1" />
		<tag k="name" v="Aurora Steinerbarnehage" />
		<tag k="no-barnehage:nsrid" v="1020366" />
		<tag k="operator" v="Aurora Steinerbarnehage Bjørg Lobben Røed" />
		<tag k="operator:type" v="private" />
	</node>
	<node id="-293" lat="59.86553" lon="10.6594">
		<tag k="amenity" v="kindergarten" />
		<tag k="capacity" v="15" />
		<tag k="max_age" v="5" />
		<tag k="min_age" v="1" />
		<tag k="name" v="Askeladden barnehage" />
		<tag k="no-barnehage:nsrid" v="1020365" />
		<tag k="operator" v="Askeladden barnehage" />
		<tag k="operator:type" v="private" />
	</node>
	<node id="-292" lat="59.83132" lon="10.64126">
		<tag k="amenity" v="kindergarten" />
		<tag k="capacity" v="12" />
		<tag k="contact:website" v="http://www.alvern.barnehage.no" />
		<tag k="max_age" v="5" />
		<tag k="min_age" v="1" />
		<tag k="name" v="Alværn barnehage" />
		<tag k="no-barnehage:nsrid" v="1019674" />
		<tag k="operator" v="Alværn barnehage Sa" />
		<tag k="operator:type" v="private" />
	</node>
</osm>
