<?xml version="1.0" encoding="UTF-8"?>
<osm generator="osmapis" version="0.6">
	<node id="-418" lat="59.738" lon="10.5949">
		<tag k="amenity" v="kindergarten" />
		<tag k="name" v="Åpen barnehage Fagerstrand" />
		<tag k="no-barnehage:nsrid" v="1017008" />
		<tag k="operator" v="Nesodden Frivilligsentral" />
		<tag k="operator:type" v="private" />
		<tag k="start_date" v="2005-10-10" />
	</node>
	<node id="-417" lat="59.8655" lon="10.6594">
		<tag k="amenity" v="kindergarten" />
		<tag k="name" v="Åpen barnehage Berger" />
		<tag k="no-barnehage:nsrid" v="1013042" />
		<tag k="operator" v="Nesodden Frivilligsentral" />
		<tag k="operator:type" v="private" />
		<tag k="start_date" v="2003-03-01" />
	</node>
	<node id="-416" lat="59.8235" lon="10.633">
		<tag k="amenity" v="kindergarten" />
		<tag k="capacity" v="43" />
		<tag k="max_age" v="5" />
		<tag k="min_age" v="1" />
		<tag k="name" v="Vestsiden barnehage" />
		<tag k="no-barnehage:nsrid" v="1013808" />
		<tag k="operator" v="Nesodden kommune" />
		<tag k="operator:type" v="public" />
		<tag k="start_date" v="1989-01-02" />
	</node>
	<node id="-415" lat="59.8346" lon="10.64">
		<tag k="amenity" v="kindergarten" />
		<tag k="capacity" v="59" />
		<tag k="max_age" v="5" />
		<tag k="min_age" v="1" />
		<tag k="name" v="Sunnhagen barnehage" />
		<tag k="no-barnehage:nsrid" v="1017530" />
		<tag k="operator" v="Nesodden kommune" />
		<tag k="operator:type" v="public" />
		<tag k="start_date" v="1988-04-01" />
	</node>
	<node id="-414" lat="59.8516" lon="10.67107">
		<tag k="amenity" v="kindergarten" />
		<tag k="capacity" v="47" />
		<tag k="contact:phone" v="66 91 30 96" />
		<tag k="contact:website" v="http://www.startgropa.no" />
		<tag k="max_age" v="5" />
		<tag k="min_age" v="1" />
		<tag k="name" v="Startgropa barnehage AS" />
		<tag k="no-barnehage:nsrid" v="1021901" />
		<tag k="operator" v="Startgropa barnehage AS" />
		<tag k="operator:type" v="private" />
		<tag k="start_date" v="2005-08-09" />
	</node>
	<node id="-413" lat="59.85699" lon="10.67289">
		<tag k="amenity" v="kindergarten" />
		<tag k="capacity" v="54" />
		<tag k="contact:email" v="solsikken@combitel.no" />
		<tag k="contact:phone" v="66 91 24 53" />
		<tag k="max_age" v="5" />
		<tag k="min_age" v="1" />
		<tag k="name" v="Solsikken Steinerbarnehage" />
		<tag k="no-barnehage:nsrid" v="1021155" />
		<tag k="operator" v="Stiftelsen Solsikken Steinerbarne- Hage" />
		<tag k="operator:type" v="private" />
		<tag k="start_date" v="1988-01-01" />
	</node>
	<node id="-412" lat="59.83122" lon="10.68435">
		<tag k="amenity" v="kindergarten" />
		<tag k="capacity" v="13" />
		<tag k="contact:phone" v="66 91 02 55" />
		<tag k="max_age" v="5" />
		<tag k="min_age" v="1" />
		<tag k="name" v="Sletta barnehage AS" />
		<tag k="no-barnehage:nsrid" v="1020046" />
		<tag k="operator" v="Sletta barnehage AS" />
		<tag k="operator:type" v="private" />
		<tag k="start_date" v="1992-08-01" />
	</node>
	<node id="-411" lat="59.79638" lon="10.61998">
		<tag k="amenity" v="kindergarten" />
		<tag k="capacity" v="20" />
		<tag k="contact:website" v="http://www.salamanderskogen.barnehage.no" />
		<tag k="max_age" v="5" />
		<tag k="min_age" v="1" />
		<tag k="name" v="Salamanderskogen barnehage Sa" />
		<tag k="no-barnehage:nsrid" v="1020360" />
		<tag k="operator" v="Salamanderskogen barnehage Sa" />
		<tag k="operator:type" v="private" />
		<tag k="start_date" v="1995-03-12" />
	</node>
	<node id="-410" lat="59.8595" lon="10.6614">
		<tag k="amenity" v="kindergarten" />
		<tag k="capacity" v="61" />
		<tag k="max_age" v="5" />
		<tag k="min_age" v="1" />
		<tag k="name" v="Oksval barnehage" />
		<tag k="no-barnehage:nsrid" v="1025495" />
		<tag k="operator" v="Nesodden kommune" />
		<tag k="operator:type" v="public" />
		<tag k="start_date" v="1988-04-01" />
	</node>
	<node id="-408" lat="59.8269" lon="10.6877">
		<tag k="amenity" v="kindergarten" />
		<tag k="capacity" v="45" />
		<tag k="max_age" v="5" />
		<tag k="min_age" v="1" />
		<tag k="name" v="Munkestien barnehage" />
		<tag k="no-barnehage:nsrid" v="1015649" />
		<tag k="operator" v="Nesodden kommune" />
		<tag k="operator:type" v="public" />
		<tag k="start_date" v="1998-05-07" />
	</node>
	<node id="-405" lat="59.8529" lon="10.6647">
		<tag k="amenity" v="kindergarten" />
		<tag k="capacity" v="133" />
		<tag k="max_age" v="5" />
		<tag k="min_age" v="1" />
		<tag k="name" v="Kongleveien barnehage" />
		<tag k="no-barnehage:nsrid" v="1017529" />
		<tag k="operator" v="Nesodden kommune" />
		<tag k="operator:type" v="public" />
		<tag k="start_date" v="1988-04-01" />
	</node>
	<node id="-401" lat="59.83412" lon="10.68958">
		<tag k="amenity" v="kindergarten" />
		<tag k="capacity" v="27" />
		<tag k="contact:email" v="post@hellvikbarnehage.no" />
		<tag k="contact:phone" v="66 96 08 24" />
		<tag k="contact:website" v="http://www.hellvikbarnehage.no" />
		<tag k="max_age" v="5" />
		<tag k="min_age" v="1" />
		<tag k="name" v="Hellvik Barnehage, Hakkespettlia Sa" />
		<tag k="no-barnehage:nsrid" v="1019715" />
		<tag k="operator" v="Hellvik Barnehage, Hakkespettlia Sa" />
		<tag k="operator:type" v="private" />
		<tag k="start_date" v="1988-04-01" />
	</node>
	<node id="-400" lat="59.8462" lon="10.671">
		<tag k="amenity" v="kindergarten" />
		<tag k="capacity" v="153" />
		<tag k="max_age" v="5" />
		<tag k="min_age" v="1" />
		<tag k="name" v="Heia barnehage" />
		<tag k="no-barnehage:nsrid" v="1015112" />
		<tag k="operator" v="Nesodden kommune" />
		<tag k="operator:type" v="public" />
		<tag k="start_date" v="2012-08-01" />
	</node>
	<node id="-397" lat="59.83066" lon="10.68494">
		<tag k="amenity" v="kindergarten" />
		<tag k="capacity" v="62" />
		<tag k="contact:email" v="fj-barn@online.no" />
		<tag k="contact:phone" v="66 96 32 04" />
		<tag k="contact:website" v="http://www.fjordvangen.no" />
		<tag k="max_age" v="5" />
		<tag k="min_age" v="1" />
		<tag k="name" v="Fjordvangen barnehage" />
		<tag k="no-barnehage:nsrid" v="1020770" />
		<tag k="operator" v="Fjordvangen barnehage Sa" />
		<tag k="operator:type" v="private" />
		<tag k="start_date" v="2002-08-01" />
	</node>
	<node id="-396" lat="59.796" lon="10.6236">
		<tag k="amenity" v="kindergarten" />
		<tag k="capacity" v="27" />
		<tag k="max_age" v="5" />
		<tag k="min_age" v="1" />
		<tag k="name" v="Fjellveien barnehage" />
		<tag k="no-barnehage:nsrid" v="1014302" />
		<tag k="operator" v="Nesodden kommune" />
		<tag k="operator:type" v="public" />
		<tag k="start_date" v="2011-08-01" />
	</node>
	<node id="-395" lat="59.7357" lon="10.6048">
		<tag k="amenity" v="kindergarten" />
		<tag k="capacity" v="86" />
		<tag k="max_age" v="5" />
		<tag k="min_age" v="1" />
		<tag k="name" v="Fagerstrand barnehage" />
		<tag k="no-barnehage:nsrid" v="1017528" />
		<tag k="operator" v="Nesodden kommune" />
		<tag k="operator:type" v="public" />
		<tag k="start_date" v="1988-04-01" />
	</node>
	<node id="-394" lat="59.74171" lon="10.59388">
		<tag k="amenity" v="kindergarten" />
		<tag k="capacity" v="64" />
		<tag k="contact:email" v="dl.fagerskog@bhg.no" />
		<tag k="contact:phone" v="66 96 25 55" />
		<tag k="contact:website" v="http://www.fagerskog.bhg.no" />
		<tag k="max_age" v="5" />
		<tag k="min_age" v="1" />
		<tag k="name" v="Fager Skog Fus barnehage AS" />
		<tag k="no-barnehage:nsrid" v="1021312" />
		<tag k="operator" v="Fager Skog Fus barnehage AS" />
		<tag k="operator:type" v="private" />
		<tag k="start_date" v="2005-09-15" />
	</node>
	<node id="-393" lat="59.80643" lon="10.62562">
		<tag k="amenity" v="kindergarten" />
		<tag k="capacity" v="34" />
		<tag k="contact:phone" v="066910692" />
		<tag k="max_age" v="5" />
		<tag k="min_age" v="1" />
		<tag k="name" v="Ellingstad barnehage AS" />
		<tag k="no-barnehage:nsrid" v="1020255" />
		<tag k="operator" v="Ellingstad barnehage AS" />
		<tag k="operator:type" v="private" />
		<tag k="start_date" v="1994-09-03" />
	</node>
	<node id="-392" lat="59.8299" lon="10.6431">
		<tag k="amenity" v="kindergarten" />
		<tag k="capacity" v="24" />
		<tag k="max_age" v="5" />
		<tag k="min_age" v="1" />
		<tag k="name" v="Bjørnemyr barnehage" />
		<tag k="no-barnehage:nsrid" v="1017527" />
		<tag k="operator" v="Nesodden kommune" />
		<tag k="operator:type" v="public" />
		<tag k="start_date" v="1988-04-01" />
	</node>
	<node id="-391" lat="59.86553" lon="10.6594">
		<tag k="amenity" v="kindergarten" />
		<tag k="capacity" v="18" />
		<tag k="max_age" v="5" />
		<tag k="min_age" v="3" />
		<tag k="name" v="Bergerkollektivet barnehage" />
		<tag k="no-barnehage:nsrid" v="1019675" />
		<tag k="operator" v="Bergerkollektivet barnehage" />
		<tag k="operator:type" v="private" />
		<tag k="start_date" v="1989-01-02" />
	</node>
	<node id="-389" lat="59.79288" lon="10.63728">
		<tag k="amenity" v="kindergarten" />
		<tag k="capacity" v="24" />
		<tag k="contact:phone" v="66 96 10 57" />
		<tag k="max_age" v="5" />
		<tag k="min_age" v="1" />
		<tag k="name" v="Aurora Steinerbarnehage" />
		<tag k="no-barnehage:nsrid" v="1020366" />
		<tag k="operator" v="Aurora Steinerbarnehage Bjørg Lobben Røed" />
		<tag k="operator:type" v="private" />
		<tag k="start_date" v="1991-01-01" />
	</node>
	<node id="-388" lat="59.86553" lon="10.6594">
		<tag k="amenity" v="kindergarten" />
		<tag k="capacity" v="17" />
		<tag k="contact:email" v="askeladden.nesodden@gmail.com" />
		<tag k="contact:phone" v="66960435" />
		<tag k="max_age" v="5" />
		<tag k="min_age" v="1" />
		<tag k="name" v="Askeladden barnehage" />
		<tag k="no-barnehage:nsrid" v="1020365" />
		<tag k="operator" v="Askeladden barnehage" />
		<tag k="operator:type" v="private" />
		<tag k="start_date" v="1995-02-22" />
	</node>
	<node id="-387" lat="59.83132" lon="10.64126">
		<tag k="amenity" v="kindergarten" />
		<tag k="capacity" v="13" />
		<tag k="contact:phone" v="66 91 53 35" />
		<tag k="contact:website" v="http://www.alvern.barnehage.no" />
		<tag k="max_age" v="5" />
		<tag k="min_age" v="1" />
		<tag k="name" v="Alværn barnehage Sa" />
		<tag k="no-barnehage:nsrid" v="1019674" />
		<tag k="operator" v="Alværn barnehage Sa" />
		<tag k="operator:type" v="private" />
		<tag k="start_date" v="1989-01-02" />
	</node>
</osm>
