<?xml version="1.0" encoding="UTF-8"?>
<osm generator="osmapis" version="0.6">
	<node id="-407" lat="59.84263" lon="10.67894">
		<tag k="amenity" v="kindergarten" />
		<tag k="capacity" v="4" />
		<tag k="contact:email" v="hege.heggen@gmail.com" />
		<tag k="contact:phone" v="+47 66 91 50 85" />
		<tag k="max_age" v="2" />
		<tag k="min_age" v="1" />
		<tag k="name" v="Mosseliten Familiebarnehage Hege Frøyland" />
		<tag k="no-barnehage:nsrid" v="1021555" />
		<tag k="operator" v="Mosseliten Familiebarnehage Hege Frøyland" />
		<tag k="operator:type" v="private" />
		<tag k="start_date" v="2007-01-02" />
	</node>
	<node id="-406" lat="59.74527" lon="10.60296">
		<tag k="amenity" v="kindergarten" />
		<tag k="capacity" v="9" />
		<tag k="contact:email" v="lilleengen@barnehage.no" />
		<tag k="contact:phone" v="+47 66 91 91 30" />
		<tag k="max_age" v="5" />
		<tag k="min_age" v="1" />
		<tag k="name" v="Lilleengen Familiebarnehage Avd Gneisveien" />
		<tag k="no-barnehage:nsrid" v="1020817" />
		<tag k="operator" v="Lilleengen Natur og Familiebarnehage Else Marie Fossbråten Wennersgaard" />
		<tag k="operator:type" v="private" />
		<tag k="start_date" v="2002-08-01" />
	</node>
	<node id="-404" lat="59.83543" lon="10.68671">
		<tag k="amenity" v="kindergarten" />
		<tag k="capacity" v="4" />
		<tag k="contact:email" v="audun.moen@getmail.no" />
		<tag k="contact:phone" v="+47 66 91 84 33" />
		<tag k="max_age" v="2" />
		<tag k="min_age" v="1" />
		<tag k="name" v="Knerten Familiebarnehage 2 Audun Moen" />
		<tag k="no-barnehage:nsrid" v="1021651" />
		<tag k="operator" v="Knerten Familiebarnehage 2 Audun Moen" />
		<tag k="operator:type" v="private" />
		<tag k="start_date" v="2007-08-06" />
	</node>
	<node id="-403" lat="59.83543" lon="10.68671">
		<tag k="amenity" v="kindergarten" />
		<tag k="capacity" v="4" />
		<tag k="contact:email" v="celundin@online.no" />
		<tag k="contact:phone" v="+47 99427879" />
		<tag k="max_age" v="2" />
		<tag k="min_age" v="1" />
		<tag k="name" v="Knerten Familiebarnehage" />
		<tag k="no-barnehage:nsrid" v="1021073" />
		<tag k="operator" v="Knerten Familiebarnehage1 Cecilie Lundin Moen" />
		<tag k="operator:type" v="private" />
		<tag k="start_date" v="2004-08-01" />
	</node>
	<node id="-402" lat="59.82954" lon="10.68474">
		<tag k="amenity" v="kindergarten" />
		<tag k="capacity" v="4" />
		<tag k="contact:email" v="lena_moland@hotmail.com" />
		<tag k="contact:phone" v="+47 66 91 44 91" />
		<tag k="max_age" v="2" />
		<tag k="min_age" v="1" />
		<tag k="name" v="Hestehoven Familiebarnehage" />
		<tag k="no-barnehage:nsrid" v="1020931" />
		<tag k="operator" v="Lena Susanne Moland Hestehoven Familiebarnehage" />
		<tag k="operator:type" v="private" />
		<tag k="start_date" v="2003-06-24" />
	</node>
	<node id="-399" lat="59.77109" lon="10.69927">
		<tag k="amenity" v="kindergarten" />
		<tag k="capacity" v="9" />
		<tag k="contact:email" v="areelin@haslerud.net" />
		<tag k="contact:phone" v="+47 66 96 03 36" />
		<tag k="max_age" v="5" />
		<tag k="min_age" v="1" />
		<tag k="name" v="Haslerud Natur Familiebarnehage Are Dammann" />
		<tag k="no-barnehage:nsrid" v="1021461" />
		<tag k="operator" v="Haslerud Natur Familiebarnehage Are Dammann" />
		<tag k="operator:type" v="private" />
		<tag k="start_date" v="2006-06-01" />
	</node>
	<node id="-398" lat="59.82692" lon="10.68767">
		<tag k="amenity" v="kindergarten" />
		<tag k="capacity" v="8" />
		<tag k="contact:email" v="synnove@hagebagen.no" />
		<tag k="contact:phone" v="+47 932 85 178" />
		<tag k="max_age" v="2" />
		<tag k="min_age" v="1" />
		<tag k="name" v="Hagebagen Familiebarnehage Synnøve Fylling" />
		<tag k="no-barnehage:nsrid" v="1022053" />
		<tag k="operator" v="Hagebagen Familiebarnehage Synnøve Fylling" />
		<tag k="operator:type" v="private" />
		<tag k="start_date" v="2010-06-01" />
	</node>
	<node id="-390" lat="59.83494" lon="10.68622">
		<tag k="amenity" v="kindergarten" />
		<tag k="capacity" v="8" />
		<tag k="contact:email" v="annerustad@gmail.com" />
		<tag k="contact:phone" v="+47 932 01 666" />
		<tag k="max_age" v="2" />
		<tag k="min_age" v="1" />
		<tag k="name" v="Balderblom Anne Kristin Rustad" />
		<tag k="no-barnehage:nsrid" v="1021546" />
		<tag k="operator" v="Balderblom Anne Kristin Rustad" />
		<tag k="operator:type" v="private" />
		<tag k="start_date" v="2007-01-01" />
	</node>
</osm>
