<?xml version="1.0" encoding="UTF-8"?>
<osm generator="osmapis" version="0.6">
	<node id="-3318" lat="60.01196" lon="11.03425">
		<tag k="ADDRESS" v="Åsenhagen 36, 2020 SKEDSMOKORSET" />
		<tag k="amenity" v="kindergarten" />
		<tag k="capacity" v="48" />
		<tag k="max_age" v="5" />
		<tag k="min_age" v="1" />
		<tag k="name" v="Åsenhagen barnehage" />
		<tag k="no-barnehage:nsrid" v="1016007" />
		<tag k="operator" v="Lillestrøm kommune" />
		<tag k="operator:type" v="public" />
	</node>
	<node id="-3317" lat="59.95472" lon="11.04612">
		<tag k="ADDRESS" v="Kirkegata 3, 2000 LILLESTRØM" />
		<tag k="amenity" v="kindergarten" />
		<tag k="name" v="Åpen barnehage Normisjon Lillestrøm" />
		<tag k="no-barnehage:nsrid" v="1013140" />
		<tag k="operator" v="Åpen barnehage Normisjon Lillestrøm AS" />
		<tag k="operator:type" v="private" />
	</node>
	<node id="-3316" lat="59.98455" lon="11.23377">
		<tag k="ADDRESS" v="Parkveien 10, 1920 SØRUMSAND" />
		<tag k="amenity" v="kindergarten" />
		<tag k="name" v="Åpen barnehage" />
		<tag k="no-barnehage:nsrid" v="1025539" />
		<tag k="operator" v="Lillestrøm kommune" />
		<tag k="operator:type" v="public" />
	</node>
	<node id="-3315" lat="59.9644" lon="11.04556">
		<tag k="ADDRESS" v="Vestbygata 57, 2003 LILLESTRØM" />
		<tag k="amenity" v="kindergarten" />
		<tag k="capacity" v="130" />
		<tag k="max_age" v="5" />
		<tag k="min_age" v="1" />
		<tag k="name" v="Volla barnehage" />
		<tag k="no-barnehage:nsrid" v="1016005" />
		<tag k="operator" v="Lillestrøm kommune" />
		<tag k="operator:type" v="public" />
	</node>
	<node id="-3314" lat="60.01218" lon="11.04725">
		<tag k="ADDRESS" v="Lurudveien 4, 2020 SKEDSMOKORSET" />
		<tag k="amenity" v="kindergarten" />
		<tag k="capacity" v="74" />
		<tag k="contact:website" v="http://www.lillestrom.kommune.no/barnehage/" />
		<tag k="max_age" v="5" />
		<tag k="min_age" v="1" />
		<tag k="name" v="Vardeåsen barnehage" />
		<tag k="no-barnehage:nsrid" v="1015722" />
		<tag k="operator" v="Lillestrøm kommune" />
		<tag k="operator:type" v="public" />
	</node>
	<node id="-3313" lat="60.02013" lon="11.04979">
		<tag k="ADDRESS" v="Vardeveien 166, 2020 SKEDSMOKORSET" />
		<tag k="amenity" v="kindergarten" />
		<tag k="capacity" v="54" />
		<tag k="contact:website" v="http://romerike.barnehage.no/" />
		<tag k="max_age" v="5" />
		<tag k="min_age" v="1" />
		<tag k="name" v="Varden barnehage" />
		<tag k="no-barnehage:nsrid" v="1012581" />
		<tag k="operator" v="Romerike Barnehager Sa" />
		<tag k="operator:type" v="private" />
	</node>
	<node id="-3312" lat="59.97017" lon="11.00031">
		<tag k="ADDRESS" v="Tårnbyveien 201, 2013 SKJETTEN" />
		<tag k="amenity" v="kindergarten" />
		<tag k="capacity" v="18" />
		<tag k="max_age" v="5" />
		<tag k="min_age" v="1" />
		<tag k="name" v="Valstadtoppen korttidsbarnehage" />
		<tag k="no-barnehage:nsrid" v="1020637" />
		<tag k="operator" v="Valstadtoppen Korttidsbarnehage" />
		<tag k="operator:type" v="private" />
	</node>
	<node id="-3311" lat="59.97057" lon="10.99607">
		<tag k="ADDRESS" v="Landskronaveien 154, 2013 SKJETTEN" />
		<tag k="amenity" v="kindergarten" />
		<tag k="capacity" v="60" />
		<tag k="max_age" v="5" />
		<tag k="min_age" v="1" />
		<tag k="name" v="Uglebakken barnehage" />
		<tag k="no-barnehage:nsrid" v="1016008" />
		<tag k="operator" v="Lillestrøm kommune" />
		<tag k="operator:type" v="public" />
	</node>
	<node id="-3310" lat="60.00821" lon="11.01589">
		<tag k="ADDRESS" v="Tæruddalen 6, 2020 SKEDSMOKORSET" />
		<tag k="amenity" v="kindergarten" />
		<tag k="capacity" v="40" />
		<tag k="max_age" v="5" />
		<tag k="min_age" v="1" />
		<tag k="name" v="Tæruddalen barnehage" />
		<tag k="no-barnehage:nsrid" v="1016003" />
		<tag k="operator" v="Lillestrøm kommune" />
		<tag k="operator:type" v="public" />
	</node>
	<node id="-3309" lat="59.98477" lon="11.03463">
		<tag k="ADDRESS" v="Lensmann Haaversens Vei 205, 2019 SKEDSMOKORSET" />
		<tag k="amenity" v="kindergarten" />
		<tag k="capacity" v="69" />
		<tag k="contact:website" v="http://toppenbhg.no" />
		<tag k="max_age" v="5" />
		<tag k="min_age" v="1" />
		<tag k="name" v="Toppen barnehage" />
		<tag k="no-barnehage:nsrid" v="1019920" />
		<tag k="operator" v="Skedsmo Barnehager Sa" />
		<tag k="operator:type" v="private" />
	</node>
	<node id="-3308" lat="59.94312" lon="11.13149">
		<tag k="ADDRESS" v="Engaveien 8, 2000 LILLESTRØM" />
		<tag k="amenity" v="kindergarten" />
		<tag k="capacity" v="140" />
		<tag k="contact:website" v="http://www.lillestrom.kommune.no/barnehage/barnehagene-i-lillestrom/tienbraten-barnehage/" />
		<tag k="max_age" v="5" />
		<tag k="min_age" v="1" />
		<tag k="name" v="Tienbråten barnehage ressursbarnehage" />
		<tag k="no-barnehage:nsrid" v="1025973" />
		<tag k="operator" v="Lillestrøm kommune" />
		<tag k="operator:type" v="public" />
	</node>
	<node id="-3307" lat="59.94053" lon="11.00261">
		<tag k="ADDRESS" v="Strømsveien 16, 1467 STRØMMEN" />
		<tag k="amenity" v="kindergarten" />
		<tag k="contact:website" v="http://thetahealingnorge.no" />
		<tag k="name" v="Theta-koden Powell Wang" />
		<tag k="no-barnehage:nsrid" v="1021004" />
		<tag k="operator" v="Theta-Koden Powell Wang" />
		<tag k="operator:type" v="private" />
	</node>
	<node id="-3306" lat="59.95865" lon="11.04692">
		<tag k="ADDRESS" v="Skedsmogata 16, 2000 LILLESTRØM" />
		<tag k="amenity" v="kindergarten" />
		<tag k="capacity" v="18" />
		<tag k="contact:website" v="http://solepytten.barnehagesiden.no" />
		<tag k="max_age" v="5" />
		<tag k="min_age" v="1" />
		<tag k="name" v="Sølepytten barnehage" />
		<tag k="no-barnehage:nsrid" v="1020746" />
		<tag k="operator" v="Sølepytten barnehage AS" />
		<tag k="operator:type" v="private" />
	</node>
	<node id="-3304" lat="59.94942" lon="11.01727">
		<tag k="ADDRESS" v="Stalsberggata 34, 2010 STRØMMEN" />
		<tag k="amenity" v="kindergarten" />
		<tag k="capacity" v="93" />
		<tag k="max_age" v="5" />
		<tag k="min_age" v="1" />
		<tag k="name" v="Strømmmen kommunale barnehage" />
		<tag k="no-barnehage:nsrid" v="1012683" />
		<tag k="operator" v="Lillestrøm kommune" />
		<tag k="operator:type" v="public" />
	</node>
	<node id="-3302" lat="60.02261" lon="11.06175">
		<tag k="ADDRESS" v="Åsheimveien 39, 2016 FROGNER" />
		<tag k="amenity" v="kindergarten" />
		<tag k="capacity" v="54" />
		<tag k="max_age" v="5" />
		<tag k="min_age" v="1" />
		<tag k="name" v="Sorknes barnehage" />
		<tag k="no-barnehage:nsrid" v="1019890" />
		<tag k="operator" v="Sorknes barnehage Sa" />
		<tag k="operator:type" v="private" />
	</node>
	<node id="-3301" lat="59.93671" lon="11.15251">
		<tag k="ADDRESS" v="Ilebråtan 26, 1900 FETSUND" />
		<tag k="amenity" v="kindergarten" />
		<tag k="capacity" v="71" />
		<tag k="contact:website" v="http://www.sommerly.no" />
		<tag k="max_age" v="5" />
		<tag k="min_age" v="1" />
		<tag k="name" v="Sommerly barnehage" />
		<tag k="no-barnehage:nsrid" v="1020051" />
		<tag k="operator" v="Sommerly barnehage Sa" />
		<tag k="operator:type" v="private" />
	</node>
	<node id="-3300" lat="59.99566" lon="11.02325">
		<tag k="ADDRESS" v="Brånåsveien 10, 2019 SKEDSMOKORSET" />
		<tag k="amenity" v="kindergarten" />
		<tag k="capacity" v="57" />
		<tag k="contact:website" v="http://romerike.barnehage.no/" />
		<tag k="max_age" v="5" />
		<tag k="min_age" v="1" />
		<tag k="name" v="Solhaug barnehage" />
		<tag k="no-barnehage:nsrid" v="1015613" />
		<tag k="operator" v="Romerike Barnehager Sa" />
		<tag k="operator:type" v="private" />
	</node>
	<node id="-3299" lat="59.99894" lon="11.02068">
		<tag k="ADDRESS" v="Skolsegglia 3, 2019 SKEDSMOKORSET" />
		<tag k="amenity" v="kindergarten" />
		<tag k="capacity" v="84" />
		<tag k="max_age" v="5" />
		<tag k="min_age" v="1" />
		<tag k="name" v="Skolsegglia FUS barnehage" />
		<tag k="no-barnehage:nsrid" v="1021223" />
		<tag k="operator" v="Skolsegglia Fus barnehage AS" />
		<tag k="operator:type" v="private" />
	</node>
	<node id="-3298" lat="59.96776" lon="11.24572">
		<tag k="ADDRESS" v="Fuglekongestien 2, 1920 SØRUMSAND" />
		<tag k="amenity" v="kindergarten" />
		<tag k="capacity" v="68" />
		<tag k="contact:website" v="http://www.skogkanten.no" />
		<tag k="max_age" v="5" />
		<tag k="min_age" v="1" />
		<tag k="name" v="Skogkanten barnehage" />
		<tag k="no-barnehage:nsrid" v="1020751" />
		<tag k="operator" v="Skogkanten barnehage Sa" />
		<tag k="operator:type" v="private" />
	</node>
	<node id="-3295" lat="59.97776" lon="11.24681">
		<tag k="ADDRESS" v="Orderudveien 20, 1920 SØRUMSAND" />
		<tag k="amenity" v="kindergarten" />
		<tag k="capacity" v="53" />
		<tag k="contact:website" v="http://fus.no/sennerud" />
		<tag k="max_age" v="5" />
		<tag k="min_age" v="1" />
		<tag k="name" v="Sennerud FUS barnehage" />
		<tag k="no-barnehage:nsrid" v="1015954" />
		<tag k="operator" v="Sennerud Fus barnehage AS" />
		<tag k="operator:type" v="private" />
	</node>
	<node id="-3294" lat="59.94702" lon="11.00008">
		<tag k="ADDRESS" v="Fjellhammerveien 13, 2010 STRØMMEN" />
		<tag k="amenity" v="kindergarten" />
		<tag k="capacity" v="168" />
		<tag k="max_age" v="5" />
		<tag k="min_age" v="1" />
		<tag k="name" v="Sagelva barnehage" />
		<tag k="no-barnehage:nsrid" v="1018414" />
		<tag k="operator" v="Lillestrøm kommune" />
		<tag k="operator:type" v="public" />
	</node>
	<node id="-3292" lat="59.97792" lon="11.04104">
		<tag k="ADDRESS" v="Trygve Haavelmos Vei 10, 2007 KJELLER" />
		<tag k="amenity" v="kindergarten" />
		<tag k="capacity" v="200" />
		<tag k="max_age" v="5" />
		<tag k="min_age" v="1" />
		<tag k="name" v="Riisløkka barnehage" />
		<tag k="no-barnehage:nsrid" v="1016960" />
		<tag k="operator" v="Lillestrøm kommune" />
		<tag k="operator:type" v="public" />
	</node>
	<node id="-3291" lat="59.92501" lon="11.20293">
		<tag k="ADDRESS" v="Åserudveien 1, 1900 FETSUND" />
		<tag k="amenity" v="kindergarten" />
		<tag k="capacity" v="84" />
		<tag k="max_age" v="5" />
		<tag k="min_age" v="1" />
		<tag k="name" v="Ramstadskogen barnehage" />
		<tag k="no-barnehage:nsrid" v="1017765" />
		<tag k="operator" v="Lillestrøm kommune" />
		<tag k="operator:type" v="public" />
	</node>
	<node id="-3289" lat="59.88113" lon="11.23267">
		<tag k="ADDRESS" v="Ingebjørg Lykkens Vei 1, 1903 GAN" />
		<tag k="amenity" v="kindergarten" />
		<tag k="capacity" v="18" />
		<tag k="max_age" v="5" />
		<tag k="min_age" v="1" />
		<tag k="name" v="Nygård barnehage avd. Nygårdsveien" />
		<tag k="no-barnehage:nsrid" v="1017243" />
		<tag k="operator" v="Lillestrøm kommune" />
		<tag k="operator:type" v="public" />
	</node>
	<node id="-3288" lat="59.87677" lon="11.21851">
		<tag k="ADDRESS" v="Dalheimveien 55, 1903 GAN" />
		<tag k="amenity" v="kindergarten" />
		<tag k="capacity" v="14" />
		<tag k="max_age" v="5" />
		<tag k="min_age" v="3" />
		<tag k="name" v="Nygård barnehage avd. Dalen" />
		<tag k="no-barnehage:nsrid" v="2000015" />
		<tag k="operator" v="Lillestrøm kommune" />
		<tag k="operator:type" v="public" />
	</node>
	<node id="-3287" lat="60.02901" lon="11.07544">
		<tag k="ADDRESS" v="Åskammen 5, 2016 FROGNER" />
		<tag k="amenity" v="kindergarten" />
		<tag k="capacity" v="118" />
		<tag k="contact:website" v="http://vardefjellet.norlandiabarnehagene.no/" />
		<tag k="max_age" v="5" />
		<tag k="min_age" v="1" />
		<tag k="name" v="Norlandia Vardefjellet barnehage" />
		<tag k="no-barnehage:nsrid" v="1013455" />
		<tag k="operator" v="Norlandia Barnehagene AS" />
		<tag k="operator:type" v="private" />
	</node>
	<node id="-3286" lat="59.98074" lon="11.23448">
		<tag k="ADDRESS" v="Magnus Sørlis Vei 2, 1920 SØRUMSAND" />
		<tag k="amenity" v="kindergarten" />
		<tag k="capacity" v="114" />
		<tag k="contact:website" v="http://sorumsand.norlandiabarnehagene.no" />
		<tag k="max_age" v="5" />
		<tag k="min_age" v="1" />
		<tag k="name" v="Norlandia Sørumsand barnehage" />
		<tag k="no-barnehage:nsrid" v="1017050" />
		<tag k="operator" v="Norlandia Barnehagene AS" />
		<tag k="operator:type" v="private" />
	</node>
	<node id="-3285" lat="59.99402" lon="11.03837">
		<tag k="ADDRESS" v="Vestvollveien 31, 2019 SKEDSMOKORSET" />
		<tag k="amenity" v="kindergarten" />
		<tag k="capacity" v="100" />
		<tag k="max_age" v="5" />
		<tag k="min_age" v="1" />
		<tag k="name" v="Norlandia Sten-tærud barnehage" />
		<tag k="no-barnehage:nsrid" v="1017049" />
		<tag k="operator" v="Norlandia Barnehagene AS" />
		<tag k="operator:type" v="private" />
	</node>
	<node id="-3284" lat="59.96004" lon="11.03037">
		<tag k="ADDRESS" v="K.M. Nordangers Vei 32, 2003 LILLESTRØM" />
		<tag k="amenity" v="kindergarten" />
		<tag k="capacity" v="68" />
		<tag k="contact:website" v="http://furulund.norlandiabarnehagene.no" />
		<tag k="max_age" v="5" />
		<tag k="min_age" v="1" />
		<tag k="name" v="Norlandia Furulund barnehage" />
		<tag k="no-barnehage:nsrid" v="1016435" />
		<tag k="operator" v="Norlandia Barnehagene AS" />
		<tag k="operator:type" v="private" />
	</node>
	<node id="-3283" lat="60.02293" lon="11.21561">
		<tag k="ADDRESS" v="Nylandveien 17, 1923 SØRUM" />
		<tag k="amenity" v="kindergarten" />
		<tag k="capacity" v="83" />
		<tag k="max_age" v="5" />
		<tag k="min_age" v="1" />
		<tag k="name" v="Nordli barnehage" />
		<tag k="no-barnehage:nsrid" v="1017358" />
		<tag k="operator" v="Lillestrøm kommune" />
		<tag k="operator:type" v="public" />
	</node>
	<node id="-3282" lat="59.95134" lon="11.01385">
		<tag k="ADDRESS" v="Bernt Ankers Vei 9, 2010 STRØMMEN" />
		<tag k="amenity" v="kindergarten" />
		<tag k="capacity" v="27" />
		<tag k="max_age" v="5" />
		<tag k="min_age" v="1" />
		<tag k="name" v="Noahs Ark barnehage" />
		<tag k="no-barnehage:nsrid" v="2000241" />
		<tag k="operator" v="Noahs Ark barnehage AS" />
		<tag k="operator:type" v="private" />
	</node>
	<node id="-3281" lat="59.92447" lon="11.13913">
		<tag k="ADDRESS" v="Pålsebakken 3c, 1900 FETSUND" />
		<tag k="amenity" v="kindergarten" />
		<tag k="capacity" v="57" />
		<tag k="contact:website" v="http://www.nerdrumshagen.barnehage.no" />
		<tag k="max_age" v="5" />
		<tag k="min_age" v="1" />
		<tag k="name" v="Nerdrumshagen barnehage" />
		<tag k="no-barnehage:nsrid" v="1021616" />
		<tag k="operator" v="Nerdrumshagen barnehage AS" />
		<tag k="operator:type" v="private" />
	</node>
	<node id="-3280" lat="59.96204" lon="11.0526">
		<tag k="ADDRESS" v="Odalsgata 11, 2003 LILLESTRØM" />
		<tag k="amenity" v="kindergarten" />
		<tag k="capacity" v="54" />
		<tag k="max_age" v="5" />
		<tag k="min_age" v="1" />
		<tag k="name" v="Måsan barnehage" />
		<tag k="no-barnehage:nsrid" v="1016009" />
		<tag k="operator" v="Lillestrøm kommune" />
		<tag k="operator:type" v="public" />
	</node>
	<node id="-3279" lat="59.97251" lon="10.99759">
		<tag k="ADDRESS" v="Landskronaveien 336, 2013 SKJETTEN" />
		<tag k="amenity" v="kindergarten" />
		<tag k="capacity" v="70" />
		<tag k="max_age" v="5" />
		<tag k="min_age" v="1" />
		<tag k="name" v="Melby barnehage" />
		<tag k="no-barnehage:nsrid" v="1016006" />
		<tag k="operator" v="Lillestrøm kommune" />
		<tag k="operator:type" v="public" />
	</node>
	<node id="-3278" lat="59.95901" lon="10.99497">
		<tag k="ADDRESS" v="Hellaveien 3, 2013 SKJETTEN" />
		<tag k="amenity" v="kindergarten" />
		<tag k="capacity" v="89" />
		<tag k="contact:website" v="http://fus.no/lovehjerte" />
		<tag k="max_age" v="5" />
		<tag k="min_age" v="1" />
		<tag k="name" v="Løvehjerte FUS barnehage" />
		<tag k="no-barnehage:nsrid" v="1020792" />
		<tag k="operator" v="Løvehjerte Fus barnehage AS" />
		<tag k="operator:type" v="private" />
	</node>
	<node id="-3277" lat="59.92134" lon="11.16414">
		<tag k="ADDRESS" v="Kirkeveien 93, 1900 FETSUND" />
		<tag k="amenity" v="kindergarten" />
		<tag k="capacity" v="142" />
		<tag k="contact:website" v="http://laringsverkstedet.no/barnehage/ostersund" />
		<tag k="max_age" v="5" />
		<tag k="min_age" v="1" />
		<tag k="name" v="Læringsverkstedet barnehage avd. idrettsbarnehage Østersund" />
		<tag k="no-barnehage:nsrid" v="1016000" />
		<tag k="operator" v="Læringsverkstedet AS" />
		<tag k="operator:type" v="private" />
	</node>
	<node id="-3276" lat="60.0101" lon="11.1499">
		<tag k="ADDRESS" v="Lunderåsveien 15, 2016 FROGNER" />
		<tag k="amenity" v="kindergarten" />
		<tag k="capacity" v="80" />
		<tag k="max_age" v="5" />
		<tag k="min_age" v="1" />
		<tag k="name" v="Lunderåsen FUS barnehage" />
		<tag k="no-barnehage:nsrid" v="1021206" />
		<tag k="operator" v="Lunderåsen Fus barnehage AS" />
		<tag k="operator:type" v="private" />
	</node>
	<node id="-3275" lat="60.03928" lon="11.12625">
		<tag k="ADDRESS" v="Farexveien 6, 2016 FROGNER" />
		<tag k="amenity" v="kindergarten" />
		<tag k="capacity" v="74" />
		<tag k="max_age" v="5" />
		<tag k="min_age" v="1" />
		<tag k="name" v="Lindeberg FUS barnehage" />
		<tag k="no-barnehage:nsrid" v="1021418" />
		<tag k="operator" v="Lindeberg Fus barnehage AS" />
		<tag k="operator:type" v="private" />
	</node>
	<node id="-3274" lat="59.97267" lon="10.99392">
		<tag k="ADDRESS" v="Landskronaveien 271, 2013 SKJETTEN" />
		<tag k="amenity" v="kindergarten" />
		<tag k="capacity" v="163" />
		<tag k="max_age" v="5" />
		<tag k="min_age" v="1" />
		<tag k="name" v="Linbråten barnehage" />
		<tag k="no-barnehage:nsrid" v="1018347" />
		<tag k="operator" v="Lillestrøm kommune" />
		<tag k="operator:type" v="public" />
	</node>
	<node id="-3273" lat="59.95389" lon="11.06298">
		<tag k="ADDRESS" v="Leiv Eirikssons Gate 7, 2004 LILLESTRØM" />
		<tag k="amenity" v="kindergarten" />
		<tag k="capacity" v="99" />
		<tag k="contact:website" v="http://www.lillestrom.kommune.no/barnehage/barnehagene-i-lillestrom/lillestrom-barnehage/" />
		<tag k="max_age" v="5" />
		<tag k="min_age" v="1" />
		<tag k="name" v="Lillestrøm barnehage" />
		<tag k="no-barnehage:nsrid" v="1016010" />
		<tag k="operator" v="Lillestrøm kommune" />
		<tag k="operator:type" v="public" />
	</node>
	<node id="-3272" lat="59.95044" lon="11.07471">
		<tag k="ADDRESS" v="Isakveien 38, 2004 LILLESTRØM" />
		<tag k="amenity" v="kindergarten" />
		<tag k="capacity" v="82" />
		<tag k="contact:website" v="http://fus.no/lillehagen" />
		<tag k="max_age" v="5" />
		<tag k="min_age" v="1" />
		<tag k="name" v="Lillehagen FUS barnehage" />
		<tag k="no-barnehage:nsrid" v="1020791" />
		<tag k="operator" v="Lillehagen Fus barnehage AS" />
		<tag k="operator:type" v="private" />
	</node>
	<node id="-3271" lat="59.97807" lon="11.00875">
		<tag k="ADDRESS" v="Hvamsvingen 8, 2013 SKJETTEN" />
		<tag k="amenity" v="kindergarten" />
		<tag k="name" v="Lille Krabat familiebarnehage avd. Skjetten" />
		<tag k="no-barnehage:nsrid" v="1020549" />
		<tag k="operator" v="Lille Krabat Aina Lie" />
		<tag k="operator:type" v="private" />
	</node>
	<node id="-3270" lat="59.97271" lon="11.04695">
		<tag k="ADDRESS" v="Slettheimveien 9, 2007 KJELLER" />
		<tag k="amenity" v="kindergarten" />
		<tag k="name" v="Lille Krabat familiebarnehage avd. Skedsmo" />
		<tag k="no-barnehage:nsrid" v="1020548" />
		<tag k="operator" v="Lille Krabat Aina Lie" />
		<tag k="operator:type" v="private" />
	</node>
	<node id="-3268" lat="59.97491" lon="11.36042">
		<tag k="ADDRESS" v="Bjørknesveien 10, 1925 BLAKER" />
		<tag k="amenity" v="kindergarten" />
		<tag k="name" v="Lenkas Vikartjenester Lenka Jansen" />
		<tag k="no-barnehage:nsrid" v="1026472" />
		<tag k="operator" v="Lenkas Vikartjenester Lenka Jansen" />
		<tag k="operator:type" v="private" />
	</node>
	<node id="-3267" lat="59.97262" lon="10.97374">
		<tag k="ADDRESS" v="Karterudgata 1, 2013 SKJETTEN" />
		<tag k="amenity" v="kindergarten" />
		<tag k="capacity" v="28" />
		<tag k="contact:website" v="http://lahaug.barnehageside.no" />
		<tag k="max_age" v="5" />
		<tag k="min_age" v="1" />
		<tag k="name" v="Lahaug gårds- og naturbarnehage" />
		<tag k="no-barnehage:nsrid" v="1020828" />
		<tag k="operator" v="Lahaug Gårds- og Naturbarnehage AS" />
		<tag k="operator:type" v="private" />
	</node>
	<node id="-3266" lat="59.92161" lon="11.18059">
		<tag k="ADDRESS" v="Kringenveien 1, 1900 FETSUND" />
		<tag k="amenity" v="kindergarten" />
		<tag k="contact:website" v="http://www.facebook.com/groups/145831165523968/" />
		<tag k="name" v="Kringen åpen barnehage Møteplass for Små og Store" />
		<tag k="no-barnehage:nsrid" v="1020721" />
		<tag k="operator" v="Fetsund Kfuk-Kfum" />
		<tag k="operator:type" v="private" />
	</node>
	<node id="-3265" lat="59.98411" lon="10.98308">
		<tag k="ADDRESS" v="Kragerudveien 35, 2013 SKJETTEN" />
		<tag k="amenity" v="kindergarten" />
		<tag k="capacity" v="60" />
		<tag k="contact:website" v="http://www.kragerud-barnehage.no" />
		<tag k="max_age" v="5" />
		<tag k="min_age" v="1" />
		<tag k="name" v="Kragerud barnehage" />
		<tag k="no-barnehage:nsrid" v="1021696" />
		<tag k="operator" v="Kragerud barnehage AS" />
		<tag k="operator:type" v="private" />
	</node>
	<node id="-3264" lat="60.00603" lon="11.03392">
		<tag k="ADDRESS" v="Korshagen 6, 2020 SKEDSMOKORSET" />
		<tag k="amenity" v="kindergarten" />
		<tag k="capacity" v="74" />
		<tag k="max_age" v="5" />
		<tag k="min_age" v="1" />
		<tag k="name" v="Korshagen kommunale barnehage" />
		<tag k="no-barnehage:nsrid" v="1012682" />
		<tag k="operator" v="Lillestrøm kommune" />
		<tag k="operator:type" v="public" />
	</node>
	<node id="-3262" lat="59.94157" lon="11.01452">
		<tag k="ADDRESS" v="Gamle Strømsvei 13, 1467 STRØMMEN" />
		<tag k="amenity" v="kindergarten" />
		<tag k="name" v="Kløverenga Pedagogiske Veiledningstjenester" />
		<tag k="no-barnehage:nsrid" v="1020494" />
		<tag k="operator" v="Kløverenga Pedagogiske Veiledningstjenester Berit Ingrid Nygård" />
		<tag k="operator:type" v="private" />
	</node>
	<node id="-3261" lat="59.96808" lon="11.0553">
		<tag k="ADDRESS" v="Sildreveien 4, 2007 KJELLER" />
		<tag k="amenity" v="kindergarten" />
		<tag k="capacity" v="147" />
		<tag k="max_age" v="5" />
		<tag k="min_age" v="1" />
		<tag k="name" v="Kjeller barnehage" />
		<tag k="no-barnehage:nsrid" v="1012681" />
		<tag k="operator" v="Lillestrøm kommune" />
		<tag k="operator:type" v="public" />
	</node>
	<node id="-3258" lat="59.98455" lon="11.23377">
		<tag k="ADDRESS" v="Parkveien 10, 1920 SØRUMSAND" />
		<tag k="amenity" v="kindergarten" />
		<tag k="capacity" v="107" />
		<tag k="max_age" v="5" />
		<tag k="min_age" v="1" />
		<tag k="name" v="Idrettsparken barnehage" />
		<tag k="no-barnehage:nsrid" v="1017357" />
		<tag k="operator" v="Lillestrøm kommune" />
		<tag k="operator:type" v="public" />
	</node>
	<node id="-3257" lat="60.02243" lon="11.11526">
		<tag k="ADDRESS" v="Frogneralleen 1, 2016 FROGNER" />
		<tag k="amenity" v="kindergarten" />
		<tag k="capacity" v="33" />
		<tag k="contact:website" v="http://hoppensprett.no" />
		<tag k="max_age" v="5" />
		<tag k="min_age" v="1" />
		<tag k="name" v="Hoppensprett avd. Sørum" />
		<tag k="no-barnehage:nsrid" v="1021710" />
		<tag k="operator" v="Hoppensprett AS" />
		<tag k="operator:type" v="private" />
	</node>
	<node id="-3256" lat="59.98732" lon="11.03946">
		<tag k="ADDRESS" v="Prost Stabels Vei 438, 2019 SKEDSMOKORSET" />
		<tag k="amenity" v="kindergarten" />
		<tag k="capacity" v="61" />
		<tag k="contact:website" v="http://holthagen.barnehage.no" />
		<tag k="max_age" v="5" />
		<tag k="min_age" v="1" />
		<tag k="name" v="Holthagen barnehage" />
		<tag k="no-barnehage:nsrid" v="1019923" />
		<tag k="operator" v="Holthagen barnehage Sa" />
		<tag k="operator:type" v="private" />
	</node>
	<node id="-3254" lat="59.94508" lon="11.01737">
		<tag k="ADDRESS" v="Hagaveien 21, 1467 STRØMMEN" />
		<tag k="amenity" v="kindergarten" />
		<tag k="capacity" v="54" />
		<tag k="max_age" v="5" />
		<tag k="min_age" v="1" />
		<tag k="name" v="Hagan barnehage" />
		<tag k="no-barnehage:nsrid" v="1012680" />
		<tag k="operator" v="Lillestrøm kommune" />
		<tag k="operator:type" v="public" />
	</node>
	<node id="-3253" lat="59.94248" lon="11.15283">
		<tag k="ADDRESS" v="Garderåsveien 202, 1900 FETSUND" />
		<tag k="amenity" v="kindergarten" />
		<tag k="capacity" v="55" />
		<tag k="max_age" v="5" />
		<tag k="min_age" v="1" />
		<tag k="name" v="Garderåsen barnehage" />
		<tag k="no-barnehage:nsrid" v="1025320" />
		<tag k="operator" v="Lillestrøm kommune" />
		<tag k="operator:type" v="public" />
	</node>
	<node id="-3252" lat="60.02404" lon="11.10958">
		<tag k="ADDRESS" v="Frognerveien 42, 2016 FROGNER" />
		<tag k="amenity" v="kindergarten" />
		<tag k="capacity" v="63" />
		<tag k="max_age" v="5" />
		<tag k="min_age" v="1" />
		<tag k="name" v="Frogner barnehage" />
		<tag k="no-barnehage:nsrid" v="1017532" />
		<tag k="operator" v="Lillestrøm kommune" />
		<tag k="operator:type" v="public" />
	</node>
	<node id="-3251" lat="59.9919" lon="11.3754">
		<tag k="ADDRESS" v="Fjukveien 170, 1925 BLAKER" />
		<tag k="amenity" v="kindergarten" />
		<tag k="capacity" v="58" />
		<tag k="max_age" v="5" />
		<tag k="min_age" v="1" />
		<tag k="name" v="Fjuk barnehage" />
		<tag k="no-barnehage:nsrid" v="1017531" />
		<tag k="operator" v="Lillestrøm kommune" />
		<tag k="operator:type" v="public" />
	</node>
	<node id="-3250" lat="60.03102" lon="11.06592">
		<tag k="ADDRESS" v="Fjellboveien 77, 2016 FROGNER" />
		<tag k="amenity" v="kindergarten" />
		<tag k="capacity" v="84" />
		<tag k="max_age" v="5" />
		<tag k="min_age" v="1" />
		<tag k="name" v="Fjellboveien barnehage" />
		<tag k="no-barnehage:nsrid" v="1021895" />
		<tag k="operator" v="Lillestrøm kommune" />
		<tag k="operator:type" v="public" />
	</node>
	<node id="-3249" lat="59.93068" lon="11.16631">
		<tag k="ADDRESS" v="Faldalsveien 20, 1900 FETSUND" />
		<tag k="amenity" v="kindergarten" />
		<tag k="capacity" v="64" />
		<tag k="contact:website" v="http://www.fetsund.barnehage.no" />
		<tag k="max_age" v="5" />
		<tag k="min_age" v="1" />
		<tag k="name" v="Fetsund barnehage" />
		<tag k="no-barnehage:nsrid" v="1020558" />
		<tag k="operator" v="Fetsund barnehage Sa" />
		<tag k="operator:type" v="private" />
	</node>
	<node id="-3248" lat="59.97683" lon="11.03469">
		<tag k="ADDRESS" v="Elvengveien 14, 2007 KJELLER" />
		<tag k="amenity" v="kindergarten" />
		<tag k="capacity" v="135" />
		<tag k="contact:website" v="http://kunnskapsbyen.espira.no/" />
		<tag k="max_age" v="5" />
		<tag k="min_age" v="1" />
		<tag k="name" v="Espira Kunnskapsbyen barnehage" />
		<tag k="no-barnehage:nsrid" v="1020394" />
		<tag k="operator" v="Espira Barnehager AS" />
		<tag k="operator:type" v="private" />
	</node>
	<node id="-3246" lat="60.00103" lon="11.31717">
		<tag k="ADDRESS" v="Toreidveien 23, 1925 BLAKER" />
		<tag k="amenity" v="kindergarten" />
		<tag k="capacity" v="73" />
		<tag k="contact:website" v="http://camembertn.kanvas.no/" />
		<tag k="max_age" v="5" />
		<tag k="min_age" v="1" />
		<tag k="name" v="Camembert'n Kanvas-barnehage" />
		<tag k="no-barnehage:nsrid" v="1018336" />
		<tag k="operator" v="Stiftelsen Kanvas" />
		<tag k="operator:type" v="private" />
	</node>
	<node id="-3245" lat="59.95359" lon="11.00074">
		<tag k="ADDRESS" v="Bråteveien 59, 1465 STRØMMEN" />
		<tag k="amenity" v="kindergarten" />
		<tag k="capacity" v="129" />
		<tag k="max_age" v="5" />
		<tag k="min_age" v="1" />
		<tag k="name" v="Bråtejordet barnehage" />
		<tag k="no-barnehage:nsrid" v="1017854" />
		<tag k="operator" v="Lillestrøm kommune" />
		<tag k="operator:type" v="public" />
	</node>
	<node id="-3244" lat="59.99681" lon="11.01966">
		<tag k="ADDRESS" v="Hattemakerlia 2, 2019 SKEDSMOKORSET" />
		<tag k="amenity" v="kindergarten" />
		<tag k="capacity" v="84" />
		<tag k="max_age" v="5" />
		<tag k="min_age" v="1" />
		<tag k="name" v="Brånåstoppen FUS barnehage" />
		<tag k="no-barnehage:nsrid" v="1020782" />
		<tag k="operator" v="Brånåstoppen Fus barnehage AS" />
		<tag k="operator:type" v="private" />
	</node>
	<node id="-3243" lat="60.0237" lon="11.09973">
		<tag k="ADDRESS" v="Brusletta 11, 2016 FROGNER" />
		<tag k="amenity" v="kindergarten" />
		<tag k="capacity" v="65" />
		<tag k="contact:website" v="http://www.bruslettabarnehage.no" />
		<tag k="max_age" v="5" />
		<tag k="min_age" v="1" />
		<tag k="name" v="Brusletta barnehage" />
		<tag k="no-barnehage:nsrid" v="1020769" />
		<tag k="operator" v="Brusletta barnehage Sa" />
		<tag k="operator:type" v="private" />
	</node>
	<node id="-3242" lat="59.96543" lon="10.9953">
		<tag k="ADDRESS" v="Bråteveien 134, 2013 SKJETTEN" />
		<tag k="amenity" v="kindergarten" />
		<tag k="capacity" v="71" />
		<tag k="max_age" v="5" />
		<tag k="min_age" v="1" />
		<tag k="name" v="Breidablikk kommunale barnehage" />
		<tag k="no-barnehage:nsrid" v="1016011" />
		<tag k="operator" v="Lillestrøm kommune" />
		<tag k="operator:type" v="public" />
	</node>
	<node id="-3240" lat="60.02445" lon="11.06747">
		<tag k="ADDRESS" v="Åsheimveien 3, 2016 FROGNER" />
		<tag k="amenity" v="kindergarten" />
		<tag k="max_age" v="5" />
		<tag k="min_age" v="3" />
		<tag k="name" v="Askeladden familiebarnehage" />
		<tag k="no-barnehage:nsrid" v="1020290" />
		<tag k="operator" v="Askeladden Familiebarnehage Berit Thoresen" />
		<tag k="operator:type" v="private" />
	</node>
	<node id="-3239" lat="59.99323" lon="11.10827">
		<tag k="ADDRESS" v="Branderudveien 91, 2015 LEIRSUND" />
		<tag k="amenity" v="kindergarten" />
		<tag k="capacity" v="77" />
		<tag k="max_age" v="5" />
		<tag k="min_age" v="1" />
		<tag k="name" v="Asak Kommunal barnehage" />
		<tag k="no-barnehage:nsrid" v="1016004" />
		<tag k="operator" v="Lillestrøm kommune" />
		<tag k="operator:type" v="public" />
	</node>
</osm>
