<?xml version="1.0" encoding="UTF-8"?>
<osm generator="osmapis" version="0.6">
	<node id="-3040" lat="59.95678" lon="11.01885">
		<tag k="ADDRESS" v="Strømsveien 144b, 1466 STRØMMEN" />
		<tag k="amenity" v="kindergarten" />
		<tag k="capacity" v="4" />
		<tag k="max_age" v="2" />
		<tag k="min_age" v="1" />
		<tag k="name" v="Svanen familie barnehage Mahnaz Hosseini" />
		<tag k="no-barnehage:nsrid" v="1020349" />
		<tag k="operator" v="Svanen Familie barnehage Mahnaz Hosseini" />
		<tag k="operator:type" v="private" />
	</node>
	<node id="-3006" lat="59.97128" lon="11.05426">
		<tag k="ADDRESS" v="Bregneveien 26, 2007 KJELLER" />
		<tag k="amenity" v="kindergarten" />
		<tag k="capacity" v="8" />
		<tag k="max_age" v="2" />
		<tag k="min_age" v="1" />
		<tag k="name" v="Lille Krabat familiebarnehage avd. Kjeller" />
		<tag k="no-barnehage:nsrid" v="1015745" />
		<tag k="operator" v="Lille Krabat Aina Lie" />
		<tag k="operator:type" v="private" />
	</node>
	<node id="-3001" lat="59.95792" lon="11.06381">
		<tag k="ADDRESS" v="Jølsengata 19, 2004 LILLESTRØM" />
		<tag k="amenity" v="kindergarten" />
		<tag k="capacity" v="4" />
		<tag k="contact:website" v="http://www.facebook.com/search/top/?q=mariannes%20knerten%20familiebarnehage" />
		<tag k="max_age" v="2" />
		<tag k="min_age" v="1" />
		<tag k="name" v="Knerten familiebarnehage" />
		<tag k="no-barnehage:nsrid" v="1020822" />
		<tag k="operator" v="Knerten Familiebarnehage Marianne Worren" />
		<tag k="operator:type" v="private" />
	</node>
	<node id="-3032" lat="60.02565" lon="11.06659">
		<tag k="ADDRESS" v="Skarstubben 11, 2016 FROGNER" />
		<tag k="amenity" v="kindergarten" />
		<tag k="capacity" v="3" />
		<tag k="contact:website" v="http://www.yourvismawebsite.com/skarstubben-familiebarnehage" />
		<tag k="max_age" v="2" />
		<tag k="min_age" v="1" />
		<tag k="name" v="Skarstubben familiebarnehage Ann-charlott Slaaen" />
		<tag k="no-barnehage:nsrid" v="1020508" />
		<tag k="operator" v="Skarstubben Familiebarnehage Ann-Charlott Slaaen" />
		<tag k="operator:type" v="private" />
	</node>
	<node id="-2999" lat="59.96647" lon="11.05588">
		<tag k="ADDRESS" v="Åråsveien 20d, 2007 KJELLER" />
		<tag k="amenity" v="kindergarten" />
		<tag k="capacity" v="4" />
		<tag k="contact:website" v="http://Kanuttenbhg.no" />
		<tag k="max_age" v="2" />
		<tag k="min_age" v="1" />
		<tag k="name" v="Kanutten familiebarnehage Bremnes" />
		<tag k="no-barnehage:nsrid" v="1020303" />
		<tag k="operator" v="Kanutten Familiebarnehage May-Liss Peggy Bremnes" />
		<tag k="operator:type" v="private" />
	</node>
	<node id="-2998" lat="59.93615" lon="11.34702">
		<tag k="ADDRESS" v="Vigernesveien 151, 1925 BLAKER" />
		<tag k="amenity" v="kindergarten" />
		<tag k="capacity" v="10" />
		<tag k="max_age" v="5" />
		<tag k="min_age" v="1" />
		<tag k="name" v="Jensrud gårdsbarnehage" />
		<tag k="no-barnehage:nsrid" v="1020485" />
		<tag k="operator" v="Jensrud Gårdsbarnehage" />
		<tag k="operator:type" v="private" />
	</node>
	<node id="-3028" lat="59.96748" lon="10.99677">
		<tag k="ADDRESS" v="Glostrupveien 13, 2013 SKJETTEN" />
		<tag k="amenity" v="kindergarten" />
		<tag k="capacity" v="4" />
		<tag k="max_age" v="2" />
		<tag k="min_age" v="1" />
		<tag k="name" v="Rosenknoppen familiebarnehage" />
		<tag k="no-barnehage:nsrid" v="1020652" />
		<tag k="operator" v="Hundremeterskogen Familiebarnehage, avd Rosenknoppen, Mette Helen Haugen Johnsen" />
		<tag k="operator:type" v="private" />
	</node>
	<node id="-3038" lat="59.95658" lon="11.02328">
		<tag k="ADDRESS" v="Kroken 16, 1466 STRØMMEN" />
		<tag k="amenity" v="kindergarten" />
		<tag k="capacity" v="4" />
		<tag k="max_age" v="2" />
		<tag k="min_age" v="1" />
		<tag k="name" v="Stalsberg familiebarnehage Tott" />
		<tag k="no-barnehage:nsrid" v="1021325" />
		<tag k="operator" v="Stalsberg Fam. barnehage Avd. Tott Anne Karin Fredheim" />
		<tag k="operator:type" v="private" />
	</node>
	<node id="-2994" lat="59.95402" lon="10.98457">
		<tag k="ADDRESS" v="Hellaveien 71, 2013 SKJETTEN" />
		<tag k="amenity" v="kindergarten" />
		<tag k="capacity" v="4" />
		<tag k="contact:website" v="http://www.borgersen.biz" />
		<tag k="max_age" v="2" />
		<tag k="min_age" v="1" />
		<tag k="name" v="Hakkebakkeskogen familiebarnehage Elisabeth Borgersen" />
		<tag k="no-barnehage:nsrid" v="1021313" />
		<tag k="operator" v="Hakkebakkeskogen Familiebarnehage Elisabeth Borgersen" />
		<tag k="operator:type" v="private" />
	</node>
	<node id="-3025" lat="59.94157" lon="11.01452">
		<tag k="ADDRESS" v="Gamle Strømsvei 13, 1467 STRØMMEN" />
		<tag k="amenity" v="kindergarten" />
		<tag k="capacity" v="10" />
		<tag k="max_age" v="5" />
		<tag k="min_age" v="1" />
		<tag k="name" v="Portveien familiebarnehage" />
		<tag k="no-barnehage:nsrid" v="1020844" />
		<tag k="operator" v="Portveien Familiebarnehage AS" />
		<tag k="operator:type" v="private" />
	</node>
	<node id="-2986" lat="59.93874" lon="11.2128">
		<tag k="ADDRESS" v="Varsjøveien 38, 1900 FETSUND" />
		<tag k="amenity" v="kindergarten" />
		<tag k="capacity" v="6" />
		<tag k="max_age" v="2" />
		<tag k="min_age" v="1" />
		<tag k="name" v="Engebakken familiebarnehage" />
		<tag k="no-barnehage:nsrid" v="1020852" />
		<tag k="operator" v="Engebakken Familiebarnehage Da" />
		<tag k="operator:type" v="private" />
	</node>
	<node id="-3031" lat="59.95733" lon="10.9922">
		<tag k="ADDRESS" v="Hellaveien 21b, 2013 SKJETTEN" />
		<tag k="amenity" v="kindergarten" />
		<tag k="capacity" v="4" />
		<tag k="max_age" v="2" />
		<tag k="min_age" v="1" />
		<tag k="name" v="Sesam familiebarnehage avd. Pelikan Naziha Nouri" />
		<tag k="no-barnehage:nsrid" v="1021171" />
		<tag k="operator" v="Sesam Familiebarnehage Avd. Pelikan Naziha Nouri" />
		<tag k="operator:type" v="private" />
	</node>
	<node id="-2980" lat="59.95958" lon="10.98948">
		<tag k="ADDRESS" v="Skjettenveien 106b, 2013 SKJETTEN" />
		<tag k="amenity" v="kindergarten" />
		<tag k="capacity" v="10" />
		<tag k="max_age" v="5" />
		<tag k="min_age" v="1" />
		<tag k="name" v="Bitteliten familiebarnehage Trine Dahl" />
		<tag k="no-barnehage:nsrid" v="1020760" />
		<tag k="operator" v="Bitteliten Familiebarnehage Trine Dahl" />
		<tag k="operator:type" v="private" />
	</node>
	<node id="-2978" lat="60.01653" lon="11.1528">
		<tag k="ADDRESS" v="Birkelyveien 5a, 2016 FROGNER" />
		<tag k="amenity" v="kindergarten" />
		<tag k="capacity" v="9" />
		<tag k="max_age" v="5" />
		<tag k="min_age" v="1" />
		<tag k="name" v="100-meterskogen" />
		<tag k="no-barnehage:nsrid" v="1021123" />
		<tag k="operator" v="Hundremeterskogen Familiebarnehage Borgaard" />
		<tag k="operator:type" v="private" />
	</node>
</osm>
