<?xml version="1.0" encoding="UTF-8"?>
<osm generator="osmapis" version="0.6">
	<node id="-1365" lat="0.0" lon="0.0">
		<tag k="ADDRESS" v=", 6644 BÆVERFJORD" />
		<tag k="amenity" v="kindergarten" />
		<tag k="capacity" v="10" />
		<tag k="max_age" v="5" />
		<tag k="min_age" v="1" />
		<tag k="name" v="Bøfjorden og Bæverfjord oppvekstsenter avd. Bæverfjord barnehage" />
		<tag k="no-barnehage:nsrid" v="975310795" />
		<tag k="operator" v="Surnadal kommune" />
		<tag k="operator:type" v="public" />
	</node>
	<node id="-1366" lat="0.0" lon="0.0">
		<tag k="ADDRESS" v=", 6643 BØFJORDEN" />
		<tag k="amenity" v="kindergarten" />
		<tag k="capacity" v="14" />
		<tag k="max_age" v="5" />
		<tag k="min_age" v="1" />
		<tag k="name" v="Bøfjorden og Bæverfjord oppvekstsenter avd. Bøfjorden barnehage" />
		<tag k="no-barnehage:nsrid" v="975310809" />
		<tag k="operator" v="Surnadal kommune" />
		<tag k="operator:type" v="public" />
	</node>
	<node id="-1367" lat="62.97732" lon="8.72534">
		<tag k="ADDRESS" v="Bårdshaugvegen 25, 6650 SURNADAL" />
		<tag k="amenity" v="kindergarten" />
		<tag k="capacity" v="43" />
		<tag k="max_age" v="5" />
		<tag k="min_age" v="1" />
		<tag k="name" v="Bårdshaugen barnehage" />
		<tag k="no-barnehage:nsrid" v="972179760" />
		<tag k="operator" v="Bårdshaugen barnehage AS" />
		<tag k="operator:type" v="private" />
	</node>
	<node id="-1368" lat="62.96494" lon="8.69855">
		<tag k="ADDRESS" v="Midtvegen 11, 6652 SURNADAL" />
		<tag k="amenity" v="kindergarten" />
		<tag k="capacity" v="61" />
		<tag k="max_age" v="5" />
		<tag k="min_age" v="1" />
		<tag k="name" v="Midtigrenda barnehage" />
		<tag k="no-barnehage:nsrid" v="975310825" />
		<tag k="operator" v="Surnadal kommune" />
		<tag k="operator:type" v="public" />
	</node>
	<node id="-1369" lat="0.0" lon="0.0">
		<tag k="ADDRESS" v=", 6655 VINDØLA" />
		<tag k="amenity" v="kindergarten" />
		<tag k="capacity" v="26" />
		<tag k="max_age" v="5" />
		<tag k="min_age" v="1" />
		<tag k="name" v="Mo oppvekstsenter avd. barnehage" />
		<tag k="no-barnehage:nsrid" v="973459317" />
		<tag k="operator" v="Surnadal kommune" />
		<tag k="operator:type" v="public" />
	</node>
	<node id="-1370" lat="0.0" lon="0.0">
		<tag k="ADDRESS" v=", 6645 TODALEN" />
		<tag k="amenity" v="kindergarten" />
		<tag k="capacity" v="6" />
		<tag k="max_age" v="5" />
		<tag k="min_age" v="1" />
		<tag k="name" v="Todalen og Stangvik oppvekstsenter avd. Todalen barnehage" />
		<tag k="no-barnehage:nsrid" v="975310833" />
		<tag k="operator" v="Surnadal kommune" />
		<tag k="operator:type" v="public" />
	</node>
	<node id="-1371" lat="0.0" lon="0.0">
		<tag k="ADDRESS" v=", 6640 KVANNE" />
		<tag k="amenity" v="kindergarten" />
		<tag k="capacity" v="27" />
		<tag k="max_age" v="5" />
		<tag k="min_age" v="1" />
		<tag k="name" v="Todalen og Stangvik oppvekstsenter avd. Stangvik barnehage" />
		<tag k="no-barnehage:nsrid" v="975310817" />
		<tag k="operator" v="Surnadal kommune" />
		<tag k="operator:type" v="public" />
	</node>
	<node id="-1372" lat="0.0" lon="0.0">
		<tag k="ADDRESS" v=", 6650 SURNADAL" />
		<tag k="amenity" v="kindergarten" />
		<tag k="capacity" v="36" />
		<tag k="max_age" v="5" />
		<tag k="min_age" v="1" />
		<tag k="name" v="Øye og Skei barnehage avd. Skei" />
		<tag k="no-barnehage:nsrid" v="975296091" />
		<tag k="operator" v="Surnadal kommune" />
		<tag k="operator:type" v="public" />
	</node>
	<node id="-1373" lat="0.0" lon="0.0">
		<tag k="ADDRESS" v=", 6650 SURNADAL" />
		<tag k="amenity" v="kindergarten" />
		<tag k="capacity" v="48" />
		<tag k="max_age" v="5" />
		<tag k="min_age" v="1" />
		<tag k="name" v="Øye og Skei barnehage avd. Øye" />
		<tag k="no-barnehage:nsrid" v="882522202" />
		<tag k="operator" v="Surnadal kommune" />
		<tag k="operator:type" v="public" />
	</node>
</osm>
