<?xml version="1.0" encoding="UTF-8"?>
<osm generator="osmapis" version="0.6">
	<node id="-4464" lat="62.974" lon="8.72472">
		<tag k="amenity" v="kindergarten" />
		<tag k="capacity" v="56" />
		<tag k="contact:email" v="kenneth.bergstad@surnadal.kommune.no" />
		<tag k="contact:phone" v="71 66 07 93" />
		<tag k="max_age" v="5" />
		<tag k="min_age" v="1" />
		<tag k="name" v="Øye og Skei barnehage Avd. Øye" />
		<tag k="no-barnehage:nsrid" v="1013290" />
		<tag k="operator" v="Surnadal kommune" />
		<tag k="operator:type" v="public" />
		<tag k="start_date" v="1999-08-01" />
	</node>
	<node id="-4463" lat="62.974" lon="8.72472">
		<tag k="amenity" v="kindergarten" />
		<tag k="capacity" v="29" />
		<tag k="contact:email" v="ingveig.nordvik@surnadal.kommune.no" />
		<tag k="contact:phone" v="71 66 17 06" />
		<tag k="max_age" v="5" />
		<tag k="min_age" v="1" />
		<tag k="name" v="Øye og Skei barnehage Avd. Skei" />
		<tag k="no-barnehage:nsrid" v="1017373" />
		<tag k="operator" v="Surnadal kommune" />
		<tag k="operator:type" v="public" />
		<tag k="start_date" v="1976-01-01" />
	</node>
	<node id="-4462" lat="62.8169" lon="8.6931">
		<tag k="amenity" v="kindergarten" />
		<tag k="capacity" v="16" />
		<tag k="contact:email" v="jorunn.nordvik@surnadal.kommune.no" />
		<tag k="contact:phone" v="71 66 39 88" />
		<tag k="max_age" v="5" />
		<tag k="min_age" v="1" />
		<tag k="name" v="Todalen og Stangvik Oppvekstsenter Avd Todalen Barnehage" />
		<tag k="no-barnehage:nsrid" v="1018208" />
		<tag k="operator" v="Surnadal kommune" />
		<tag k="operator:type" v="public" />
		<tag k="start_date" v="1989-01-01" />
	</node>
	<node id="-4461" lat="62.8962" lon="8.52833">
		<tag k="amenity" v="kindergarten" />
		<tag k="capacity" v="36" />
		<tag k="contact:email" v="gro.kvammen.saeter@surnadal.kommune.no" />
		<tag k="contact:phone" v="71 66 35 22" />
		<tag k="max_age" v="5" />
		<tag k="min_age" v="1" />
		<tag k="name" v="Todalen og Stangvik Oppvekstsenter Avd Stangvik Barnehage" />
		<tag k="no-barnehage:nsrid" v="1018206" />
		<tag k="operator" v="Surnadal kommune" />
		<tag k="operator:type" v="public" />
		<tag k="start_date" v="1989-01-01" />
	</node>
	<node id="-4460" lat="62.9898" lon="8.93515">
		<tag k="amenity" v="kindergarten" />
		<tag k="capacity" v="20" />
		<tag k="contact:phone" v="71 65 77 15" />
		<tag k="max_age" v="5" />
		<tag k="min_age" v="1" />
		<tag k="name" v="Mo Oppvekstsenter Avd Barnehage" />
		<tag k="no-barnehage:nsrid" v="1015920" />
		<tag k="operator" v="Surnadal kommune" />
		<tag k="operator:type" v="public" />
		<tag k="start_date" v="1988-01-02" />
	</node>
	<node id="-4459" lat="62.974" lon="8.72472">
		<tag k="amenity" v="kindergarten" />
		<tag k="capacity" v="46" />
		<tag k="contact:email" v="signe.lill.aasland@surnadal.kommune.no" />
		<tag k="contact:phone" v="71 66 05 12" />
		<tag k="max_age" v="5" />
		<tag k="min_age" v="1" />
		<tag k="name" v="Midtigrenda barnehage" />
		<tag k="no-barnehage:nsrid" v="1018207" />
		<tag k="operator" v="Surnadal kommune" />
		<tag k="operator:type" v="public" />
		<tag k="start_date" v="1989-01-01" />
	</node>
	<node id="-4458" lat="62.97732" lon="8.725344">
		<tag k="amenity" v="kindergarten" />
		<tag k="capacity" v="43" />
		<tag k="contact:email" v="baabarne@online.no" />
		<tag k="contact:phone" v="95 76 78 73" />
		<tag k="max_age" v="5" />
		<tag k="min_age" v="1" />
		<tag k="name" v="Bårdshaugen barnehage AS" />
		<tag k="no-barnehage:nsrid" v="1020107" />
		<tag k="operator" v="Bårdshaugen barnehage AS" />
		<tag k="operator:type" v="private" />
		<tag k="start_date" v="1989-01-02" />
	</node>
	<node id="-4457" lat="63.0122" lon="8.35365">
		<tag k="amenity" v="kindergarten" />
		<tag k="capacity" v="12" />
		<tag k="contact:email" v="gunnhild.skjerdal@surnadal.kommune.no" />
		<tag k="contact:phone" v="71 66 29 83" />
		<tag k="max_age" v="5" />
		<tag k="min_age" v="1" />
		<tag k="name" v="Bøfjorden og Bæverfjord Oppvekstsenter Avd Bøfjorden Barnehage" />
		<tag k="no-barnehage:nsrid" v="1018205" />
		<tag k="operator" v="Surnadal kommune" />
		<tag k="operator:type" v="public" />
		<tag k="start_date" v="1989-01-01" />
	</node>
	<node id="-4456" lat="63.0246" lon="8.59131">
		<tag k="amenity" v="kindergarten" />
		<tag k="capacity" v="9" />
		<tag k="contact:email" v="gerd.saeterbo@surnadal.kommune.no" />
		<tag k="contact:phone" v="71 65 97 77" />
		<tag k="max_age" v="5" />
		<tag k="min_age" v="1" />
		<tag k="name" v="Bøfjorden og Bæverfjord Oppvekstsenter Avd Bæverfjord Barnehage" />
		<tag k="no-barnehage:nsrid" v="1018204" />
		<tag k="operator" v="Surnadal kommune" />
		<tag k="operator:type" v="public" />
		<tag k="start_date" v="1989-01-01" />
	</node>
</osm>
