<?xml version="1.0" encoding="UTF-8"?>
<osm generator="osmapis" version="0.6">
	<node id="-3663" lat="58.8795" lon="5.6662">
		<tag k="amenity" v="kindergarten" />
		<tag k="capacity" v="34" />
		<tag k="contact:email" v="oygarden.barnehage@sola.kommune.no" />
		<tag k="contact:phone" v="51 64 18 15" />
		<tag k="max_age" v="5" />
		<tag k="min_age" v="1" />
		<tag k="name" v="Øygarden barnehage" />
		<tag k="no-barnehage:nsrid" v="1015584" />
		<tag k="operator" v="Sola kommune" />
		<tag k="operator:type" v="public" />
		<tag k="start_date" v="1997-09-01" />
	</node>
	<node id="-3662" lat="58.8825" lon="5.62718">
		<tag k="amenity" v="kindergarten" />
		<tag k="capacity" v="100" />
		<tag k="max_age" v="5" />
		<tag k="min_age" v="1" />
		<tag k="name" v="Tjodmarka barnehage" />
		<tag k="no-barnehage:nsrid" v="1015180" />
		<tag k="operator" v="A2 Holding AS" />
		<tag k="operator:type" v="private" />
		<tag k="start_date" v="2011-08-15" />
	</node>
	<node id="-3661" lat="58.8434" lon="5.59989">
		<tag k="amenity" v="kindergarten" />
		<tag k="capacity" v="79" />
		<tag k="contact:email" v="tjelta.barnehage@sola.kommune.no" />
		<tag k="contact:phone" v="51 64 18 14" />
		<tag k="max_age" v="5" />
		<tag k="min_age" v="1" />
		<tag k="name" v="Tjelta barnehage" />
		<tag k="no-barnehage:nsrid" v="1012800" />
		<tag k="operator" v="Sola kommune" />
		<tag k="operator:type" v="public" />
		<tag k="start_date" v="1989-01-01" />
	</node>
	<node id="-3660" lat="58.89186" lon="5.669893">
		<tag k="amenity" v="kindergarten" />
		<tag k="capacity" v="180" />
		<tag k="contact:email" v="post@tchnorway.no" />
		<tag k="contact:phone" v="47 77 70 55" />
		<tag k="contact:website" v="http://www.tchnorway.no" />
		<tag k="max_age" v="5" />
		<tag k="min_age" v="1" />
		<tag k="name" v="The Childrens House barnehage" />
		<tag k="no-barnehage:nsrid" v="1019733" />
		<tag k="operator" v="The Childrens House" />
		<tag k="operator:type" v="private" />
		<tag k="start_date" v="1989-01-02" />
	</node>
	<node id="-3659" lat="58.9352" lon="5.60323">
		<tag k="amenity" v="kindergarten" />
		<tag k="capacity" v="44" />
		<tag k="contact:phone" v="51 71 96 72" />
		<tag k="max_age" v="5" />
		<tag k="min_age" v="1" />
		<tag k="name" v="Tananger Menighetsbarnehage" />
		<tag k="no-barnehage:nsrid" v="1015981" />
		<tag k="operator" v="Tananger Sokn" />
		<tag k="operator:type" v="private" />
		<tag k="start_date" v="1995-02-23" />
	</node>
	<node id="-3658" lat="58.9388" lon="5.58603">
		<tag k="amenity" v="kindergarten" />
		<tag k="capacity" v="27" />
		<tag k="contact:email" v="tananger.barnehage@sola.kommune.no" />
		<tag k="contact:phone" v="51 64 18 13" />
		<tag k="max_age" v="5" />
		<tag k="min_age" v="1" />
		<tag k="name" v="Tananger barnehage" />
		<tag k="no-barnehage:nsrid" v="1012793" />
		<tag k="operator" v="Sola kommune" />
		<tag k="operator:type" v="public" />
		<tag k="start_date" v="1976-01-01" />
	</node>
	<node id="-3657" lat="58.9124" lon="5.67713">
		<tag k="amenity" v="kindergarten" />
		<tag k="name" v="Sørnes Åpen barnehage" />
		<tag k="no-barnehage:nsrid" v="1013162" />
		<tag k="operator" v="Sørnes Sokn" />
		<tag k="operator:type" v="private" />
		<tag k="start_date" v="2004-09-13" />
	</node>
	<node id="-3656" lat="58.9124" lon="5.67713">
		<tag k="amenity" v="kindergarten" />
		<tag k="capacity" v="57" />
		<tag k="contact:email" v="sornes.barnehage@sola.kommune.no" />
		<tag k="contact:phone" v="51 64 18 12" />
		<tag k="contact:website" v="http://www.minbarnehage.no/sornesbhg" />
		<tag k="max_age" v="5" />
		<tag k="min_age" v="1" />
		<tag k="name" v="Sørnes barnehage" />
		<tag k="no-barnehage:nsrid" v="1012795" />
		<tag k="operator" v="Sola kommune" />
		<tag k="operator:type" v="public" />
		<tag k="start_date" v="1978-11-08" />
	</node>
	<node id="-3655" lat="58.9005" lon="5.61614">
		<tag k="amenity" v="kindergarten" />
		<tag k="capacity" v="63" />
		<tag k="contact:email" v="somme.barnehage@sola.kommune.no" />
		<tag k="contact:phone" v="51 64 18 11" />
		<tag k="max_age" v="5" />
		<tag k="min_age" v="1" />
		<tag k="name" v="Sømme barnehage" />
		<tag k="no-barnehage:nsrid" v="1012799" />
		<tag k="operator" v="Sola kommune" />
		<tag k="operator:type" v="public" />
		<tag k="start_date" v="1989-01-01" />
	</node>
	<node id="-3654" lat="58.9314" lon="5.69985">
		<tag k="amenity" v="kindergarten" />
		<tag k="capacity" v="89" />
		<tag k="contact:phone" v="04 87405" />
		<tag k="max_age" v="5" />
		<tag k="min_age" v="1" />
		<tag k="name" v="Studentasamskipnaden i Stavanger Sis barnehage" />
		<tag k="no-barnehage:nsrid" v="1015503" />
		<tag k="operator" v="Studentsamskipnaden i Stavanger" />
		<tag k="operator:type" v="private" />
		<tag k="start_date" v="1992-01-01" />
	</node>
	<node id="-3653" lat="58.88794" lon="5.65818">
		<tag k="amenity" v="kindergarten" />
		<tag k="capacity" v="80" />
		<tag k="contact:email" v="brev@tryggebarnehager.no" />
		<tag k="max_age" v="5" />
		<tag k="min_age" v="1" />
		<tag k="name" v="Stemvegen Fus barnehage AS" />
		<tag k="no-barnehage:nsrid" v="1021559" />
		<tag k="operator" v="Stemvegen Fus barnehage AS" />
		<tag k="operator:type" v="private" />
		<tag k="start_date" v="2006-12-01" />
	</node>
	<node id="-3652" lat="58.89201" lon="5.668857">
		<tag k="amenity" v="kindergarten" />
		<tag k="capacity" v="49" />
		<tag k="contact:email" v="solaba@online.no" />
		<tag k="contact:phone" v="51650885" />
		<tag k="contact:website" v="http://www.sola-barnehage.no" />
		<tag k="max_age" v="5" />
		<tag k="min_age" v="1" />
		<tag k="name" v="Sola barnehage" />
		<tag k="no-barnehage:nsrid" v="1020342" />
		<tag k="operator" v="Sola barnehage Sa" />
		<tag k="operator:type" v="private" />
		<tag k="start_date" v="1990-09-01" />
	</node>
	<node id="-3651" lat="58.9251" lon="5.60942">
		<tag k="amenity" v="kindergarten" />
		<tag k="capacity" v="63" />
		<tag k="contact:email" v="snode.barnehage@sola.kommune.no" />
		<tag k="contact:phone" v="51 64 18 08" />
		<tag k="max_age" v="5" />
		<tag k="min_age" v="1" />
		<tag k="name" v="Snøde barnehage" />
		<tag k="no-barnehage:nsrid" v="1025364" />
		<tag k="operator" v="Sola kommune" />
		<tag k="operator:type" v="public" />
		<tag k="start_date" v="1989-01-01" />
	</node>
	<node id="-3650" lat="58.8942" lon="5.66014">
		<tag k="amenity" v="kindergarten" />
		<tag k="capacity" v="47" />
		<tag k="max_age" v="5" />
		<tag k="min_age" v="1" />
		<tag k="name" v="Skjalgstova barnehage" />
		<tag k="no-barnehage:nsrid" v="1018485" />
		<tag k="operator" v="Sola kommune" />
		<tag k="operator:type" v="public" />
		<tag k="start_date" v="2008-10-01" />
	</node>
	<node id="-3649" lat="58.87928" lon="5.670031">
		<tag k="amenity" v="kindergarten" />
		<tag k="capacity" v="76" />
		<tag k="contact:email" v="post@skadberg-barnehage.no" />
		<tag k="contact:phone" v="51 32 53 55" />
		<tag k="contact:website" v="http://www.skadberg-barnehage.no" />
		<tag k="max_age" v="5" />
		<tag k="min_age" v="1" />
		<tag k="name" v="Skadberg barnehage Sa" />
		<tag k="no-barnehage:nsrid" v="1021202" />
		<tag k="operator" v="Skadberg barnehage Sa" />
		<tag k="operator:type" v="private" />
		<tag k="start_date" v="2005-01-27" />
	</node>
	<node id="-3648" lat="58.891" lon="5.64774">
		<tag k="amenity" v="kindergarten" />
		<tag k="capacity" v="52" />
		<tag k="contact:email" v="sande.barnehage@sola.kommune.no" />
		<tag k="contact:phone" v="51 64 18 07" />
		<tag k="max_age" v="5" />
		<tag k="min_age" v="1" />
		<tag k="name" v="Sande barnehage" />
		<tag k="no-barnehage:nsrid" v="1012794" />
		<tag k="operator" v="Sola kommune" />
		<tag k="operator:type" v="public" />
		<tag k="start_date" v="1976-01-01" />
	</node>
	<node id="-3647" lat="58.9049" lon="5.66451">
		<tag k="amenity" v="kindergarten" />
		<tag k="capacity" v="58" />
		<tag k="contact:email" v="royneberg.barnehage@sola.kommune.no" />
		<tag k="contact:phone" v="51 64 18 06" />
		<tag k="max_age" v="5" />
		<tag k="min_age" v="1" />
		<tag k="name" v="Røyneberg barnehage" />
		<tag k="no-barnehage:nsrid" v="1012801" />
		<tag k="operator" v="Sola kommune" />
		<tag k="operator:type" v="public" />
		<tag k="start_date" v="1989-01-01" />
	</node>
	<node id="-3646" lat="58.93908" lon="5.594527">
		<tag k="amenity" v="kindergarten" />
		<tag k="capacity" v="42" />
		<tag k="contact:email" v="rodamyr.barneh@hesbynett.no" />
		<tag k="contact:phone" v="51 69 78 55" />
		<tag k="contact:website" v="http://www.rodamyrbarnehage.com" />
		<tag k="max_age" v="5" />
		<tag k="min_age" v="1" />
		<tag k="name" v="Rodamyr barnehage Sa" />
		<tag k="no-barnehage:nsrid" v="1020458" />
		<tag k="operator" v="Rodamyr barnehage Sa" />
		<tag k="operator:type" v="private" />
		<tag k="start_date" v="1994-07-29" />
	</node>
	<node id="-3645" lat="58.9366" lon="5.57276">
		<tag k="amenity" v="kindergarten" />
		<tag k="capacity" v="41" />
		<tag k="contact:email" v="risnes.barnehage@sola.kommune.no" />
		<tag k="contact:phone" v="51 64 18 05" />
		<tag k="max_age" v="5" />
		<tag k="min_age" v="1" />
		<tag k="name" v="Risnes barnehage" />
		<tag k="no-barnehage:nsrid" v="1012798" />
		<tag k="operator" v="Sola kommune" />
		<tag k="operator:type" v="public" />
		<tag k="start_date" v="1989-01-01" />
	</node>
	<node id="-3644" lat="58.93338" lon="5.698452">
		<tag k="amenity" v="kindergarten" />
		<tag k="capacity" v="14" />
		<tag k="contact:email" v="ingerlise.strand@halliburton.com" />
		<tag k="contact:phone" v="51 65 64 91" />
		<tag k="contact:website" v="http://novvegen.barnehage.no" />
		<tag k="max_age" v="2" />
		<tag k="min_age" v="1" />
		<tag k="name" v="Novvegen barnehage AS" />
		<tag k="no-barnehage:nsrid" v="1022294" />
		<tag k="operator" v="Novvegen barnehage AS" />
		<tag k="operator:type" v="private" />
		<tag k="start_date" v="2006-09-01" />
	</node>
	<node id="-3642" lat="58.89293" lon="5.66007">
		<tag k="amenity" v="kindergarten" />
		<tag k="capacity" v="97" />
		<tag k="contact:phone" v="51 65 17 16" />
		<tag k="max_age" v="5" />
		<tag k="min_age" v="1" />
		<tag k="name" v="Kornberget barnehage" />
		<tag k="no-barnehage:nsrid" v="1020130" />
		<tag k="operator" v="Kornberget barnehage Sa" />
		<tag k="operator:type" v="private" />
		<tag k="start_date" v="1994-08-30" />
	</node>
	<node id="-3641" lat="58.89" lon="5.65857">
		<tag k="amenity" v="kindergarten" />
		<tag k="name" v="Jubelgjengen barnehage" />
		<tag k="no-barnehage:nsrid" v="1016564" />
		<tag k="operator" v="Sola Sokn" />
		<tag k="operator:type" v="private" />
		<tag k="start_date" v="2003-02-01" />
	</node>
	<node id="-3640" lat="58.85132" lon="5.577369">
		<tag k="amenity" v="kindergarten" />
		<tag k="capacity" v="106" />
		<tag k="contact:phone" v="40 00 62 90" />
		<tag k="contact:website" v="http://www.halandsmarka.barnehage.no" />
		<tag k="max_age" v="5" />
		<tag k="min_age" v="1" />
		<tag k="name" v="Hålandsmarkå barnehage Sa" />
		<tag k="no-barnehage:nsrid" v="1021189" />
		<tag k="operator" v="Hålandsmarkå barnehage Sa" />
		<tag k="operator:type" v="private" />
		<tag k="start_date" v="2005-01-25" />
	</node>
	<node id="-3639" lat="58.8388" lon="5.60668">
		<tag k="amenity" v="kindergarten" />
		<tag k="capacity" v="54" />
		<tag k="contact:phone" v="51 29 17 51" />
		<tag k="max_age" v="5" />
		<tag k="min_age" v="1" />
		<tag k="name" v="Høgeholen barnehage" />
		<tag k="no-barnehage:nsrid" v="1014059" />
		<tag k="operator" v="Sola kommune" />
		<tag k="operator:type" v="public" />
		<tag k="start_date" v="2009-08-10" />
	</node>
	<node id="-3638" lat="58.9376" lon="5.57942">
		<tag k="amenity" v="kindergarten" />
		<tag k="capacity" v="92" />
		<tag k="contact:email" v="havnealleen.barnehage@sola.kommune.no" />
		<tag k="contact:phone" v="51 64 18 10" />
		<tag k="max_age" v="5" />
		<tag k="min_age" v="1" />
		<tag k="name" v="Havnealleen barnehage" />
		<tag k="no-barnehage:nsrid" v="1012796" />
		<tag k="operator" v="Sola kommune" />
		<tag k="operator:type" v="public" />
		<tag k="start_date" v="1989-01-01" />
	</node>
	<node id="-3637" lat="58.9007" lon="5.614347">
		<tag k="amenity" v="kindergarten" />
		<tag k="capacity" v="42" />
		<tag k="contact:phone" v="51 71 52 10" />
		<tag k="max_age" v="5" />
		<tag k="min_age" v="1" />
		<tag k="name" v="Hammaren" />
		<tag k="no-barnehage:nsrid" v="1019803" />
		<tag k="operator" v="Hammaren barnehage" />
		<tag k="operator:type" v="private" />
		<tag k="start_date" v="1989-01-01" />
	</node>
	<node id="-3636" lat="58.9308" lon="5.69483">
		<tag k="amenity" v="kindergarten" />
		<tag k="capacity" v="64" />
		<tag k="contact:email" v="grannes.barnehage@sola.kommune.no" />
		<tag k="contact:phone" v="51 69 23 10" />
		<tag k="max_age" v="5" />
		<tag k="min_age" v="1" />
		<tag k="name" v="Grannes barnehage" />
		<tag k="no-barnehage:nsrid" v="1012797" />
		<tag k="operator" v="Sola kommune" />
		<tag k="operator:type" v="public" />
		<tag k="start_date" v="1989-01-01" />
	</node>
	<node id="-3635" lat="58.88244" lon="5.670166">
		<tag k="amenity" v="kindergarten" />
		<tag k="capacity" v="56" />
		<tag k="contact:email" v="even-bhg@lyse.net" />
		<tag k="contact:phone" v="51 64 05 55" />
		<tag k="contact:website" v="http://www.eventyrberget.no" />
		<tag k="max_age" v="5" />
		<tag k="min_age" v="1" />
		<tag k="name" v="Eventyrberget Foreldrelagsbarnehage Sa" />
		<tag k="no-barnehage:nsrid" v="1020699" />
		<tag k="operator" v="Eventyrberget Foreldrelagsbarnehage Sa" />
		<tag k="operator:type" v="private" />
		<tag k="start_date" v="2001-08-30" />
	</node>
	<node id="-3634" lat="58.93184" lon="5.595904">
		<tag k="amenity" v="kindergarten" />
		<tag k="capacity" v="47" />
		<tag k="contact:email" v="therese.abrahamsen@conocophillips.com" />
		<tag k="contact:phone" v="52 02 15 25" />
		<tag k="max_age" v="5" />
		<tag k="min_age" v="1" />
		<tag k="name" v="Ekofisk Junior barnehage" />
		<tag k="no-barnehage:nsrid" v="1019783" />
		<tag k="operator" v="Stiftelsen Ekofisk Junior" />
		<tag k="operator:type" v="private" />
		<tag k="start_date" v="1989-01-01" />
	</node>
	<node id="-3633" lat="58.8818" lon="5.68056">
		<tag k="amenity" v="kindergarten" />
		<tag k="capacity" v="54" />
		<tag k="max_age" v="5" />
		<tag k="min_age" v="1" />
		<tag k="name" v="Eikeberget barnehage" />
		<tag k="no-barnehage:nsrid" v="1017846" />
		<tag k="operator" v="Sola kommune" />
		<tag k="operator:type" v="public" />
		<tag k="start_date" v="2007-08-15" />
	</node>
	<node id="-3632" lat="58.8838" lon="5.65592">
		<tag k="amenity" v="kindergarten" />
		<tag k="capacity" v="49" />
		<tag k="contact:email" v="dravhaug.barnehage@sola.kommune.no" />
		<tag k="contact:phone" v="51 64 18 00" />
		<tag k="max_age" v="5" />
		<tag k="min_age" v="1" />
		<tag k="name" v="Dravhaug barnehage" />
		<tag k="no-barnehage:nsrid" v="1012802" />
		<tag k="operator" v="Sola kommune" />
		<tag k="operator:type" v="public" />
		<tag k="start_date" v="1989-04-01" />
	</node>
	<node id="-3631" lat="58.88855" lon="5.652865">
		<tag k="amenity" v="kindergarten" />
		<tag k="capacity" v="75" />
		<tag k="contact:phone" v="51 71 90 70" />
		<tag k="contact:website" v="http://www.solahagenbarnehage.no" />
		<tag k="max_age" v="5" />
		<tag k="min_age" v="1" />
		<tag k="name" v="Akasia Solahagen barnehage AS" />
		<tag k="no-barnehage:nsrid" v="1022055" />
		<tag k="operator" v="Akasia Solahagen barnehage AS" />
		<tag k="operator:type" v="private" />
		<tag k="start_date" v="2010-04-15" />
	</node>
</osm>
