<?xml version="1.0" encoding="UTF-8"?>
<osm generator="osmapis" version="0.6">
	<node id="-5353" lat="68.79575" lon="16.50978">
		<tag k="ADDRESS" v="Bjørnebåsen 4, 9406 HARSTAD" />
		<tag k="amenity" v="kindergarten" />
		<tag k="capacity" v="48" />
		<tag k="max_age" v="5" />
		<tag k="min_age" v="1" />
		<tag k="name" v="Bjørnebåsen barnehage" />
		<tag k="no-barnehage:nsrid" v="873919892" />
		<tag k="operator" v="Bjørnebåsen barnehage Sa" />
		<tag k="operator:type" v="private" />
	</node>
	<node id="-5354" lat="68.78216" lon="16.5174">
		<tag k="ADDRESS" v="Dalsletta 2, 9407 HARSTAD" />
		<tag k="amenity" v="kindergarten" />
		<tag k="capacity" v="46" />
		<tag k="contact:website" v="http://dalsletta.barnehage.no" />
		<tag k="max_age" v="5" />
		<tag k="min_age" v="1" />
		<tag k="name" v="Dalsletta barnehage" />
		<tag k="no-barnehage:nsrid" v="972280801" />
		<tag k="operator" v="Dalsletta barnehage Sa" />
		<tag k="operator:type" v="private" />
	</node>
	<node id="-5356" lat="68.79887" lon="16.54045">
		<tag k="ADDRESS" v="Hans Egedes gate 12, 9405 HARSTAD" />
		<tag k="amenity" v="kindergarten" />
		<tag k="name" v="Familiens Hus" />
		<tag k="no-barnehage:nsrid" v="919978856" />
		<tag k="operator" v="Harstad kommune / Hársttáid Suohkan" />
		<tag k="operator:type" v="public" />
	</node>
	<node id="-5357" lat="0.0" lon="0.0">
		<tag k="ADDRESS" v=", 9420 LUNDENES" />
		<tag k="amenity" v="kindergarten" />
		<tag k="capacity" v="19" />
		<tag k="max_age" v="5" />
		<tag k="min_age" v="1" />
		<tag k="name" v="Finnvika barnehage" />
		<tag k="no-barnehage:nsrid" v="974055619" />
		<tag k="operator" v="Harstad kommune / Hársttáid Suohkan" />
		<tag k="operator:type" v="public" />
	</node>
	<node id="-5358" lat="68.78013" lon="16.57748">
		<tag k="ADDRESS" v="Kapellveien 2, 9409 HARSTAD" />
		<tag k="amenity" v="kindergarten" />
		<tag k="capacity" v="109" />
		<tag k="max_age" v="5" />
		<tag k="min_age" v="1" />
		<tag k="name" v="Furuberget FUS aktivitetsbarnehage" />
		<tag k="no-barnehage:nsrid" v="819510822" />
		<tag k="operator" v="Furuberget Fus aktivitetsbarnehage AS" />
		<tag k="operator:type" v="private" />
	</node>
	<node id="-5359" lat="68.78584" lon="16.56152">
		<tag k="ADDRESS" v="Gangsåsveien 8, 9408 HARSTAD" />
		<tag k="amenity" v="kindergarten" />
		<tag k="capacity" v="114" />
		<tag k="max_age" v="5" />
		<tag k="min_age" v="1" />
		<tag k="name" v="Gangsåstoppen barnehager avd. Byggeklossen" />
		<tag k="no-barnehage:nsrid" v="991606521" />
		<tag k="operator" v="Harstad kommune / Hársttáid Suohkan" />
		<tag k="operator:type" v="public" />
	</node>
	<node id="-5360" lat="68.77854" lon="16.54592">
		<tag k="ADDRESS" v="Grønnebakkan 20, 9408 HARSTAD" />
		<tag k="amenity" v="kindergarten" />
		<tag k="capacity" v="54" />
		<tag k="contact:website" v="http://www.gronnebakkan.barnehage.no" />
		<tag k="max_age" v="5" />
		<tag k="min_age" v="1" />
		<tag k="name" v="Grønnebakkan andelsbarnehage" />
		<tag k="no-barnehage:nsrid" v="975782409" />
		<tag k="operator" v="Grønnebakkan andelsbarnehage SA" />
		<tag k="operator:type" v="private" />
	</node>
	<node id="-5361" lat="68.79506" lon="16.52654">
		<tag k="ADDRESS" v="Gullhaugen alle 14, 9406 HARSTAD" />
		<tag k="amenity" v="kindergarten" />
		<tag k="capacity" v="60" />
		<tag k="max_age" v="5" />
		<tag k="min_age" v="1" />
		<tag k="name" v="Heggen barnehager avd. Gullhaugen" />
		<tag k="no-barnehage:nsrid" v="914301521" />
		<tag k="operator" v="Harstad kommune / Hársttáid Suohkan" />
		<tag k="operator:type" v="public" />
	</node>
	<node id="-5362" lat="68.78918" lon="16.52633">
		<tag k="ADDRESS" v="Marcus Pedersens vei 23, 9406 HARSTAD" />
		<tag k="amenity" v="kindergarten" />
		<tag k="capacity" v="27" />
		<tag k="max_age" v="5" />
		<tag k="min_age" v="1" />
		<tag k="name" v="Heggen barnehager avd. Sletta" />
		<tag k="no-barnehage:nsrid" v="974627086" />
		<tag k="operator" v="Harstad kommune / Hársttáid Suohkan" />
		<tag k="operator:type" v="public" />
	</node>
	<node id="-5363" lat="68.78123" lon="16.51667">
		<tag k="ADDRESS" v="Dalsletta 5, 9407 HARSTAD" />
		<tag k="amenity" v="kindergarten" />
		<tag k="capacity" v="57" />
		<tag k="max_age" v="5" />
		<tag k="min_age" v="1" />
		<tag k="name" v="Heggen barnehager avd. Blåbærdalen" />
		<tag k="no-barnehage:nsrid" v="989158090" />
		<tag k="operator" v="Harstad kommune / Hársttáid Suohkan" />
		<tag k="operator:type" v="public" />
	</node>
	<node id="-5364" lat="68.78869" lon="16.51838">
		<tag k="ADDRESS" v="Fagerliveien 24, 9406 HARSTAD" />
		<tag k="amenity" v="kindergarten" />
		<tag k="capacity" v="58" />
		<tag k="max_age" v="5" />
		<tag k="min_age" v="1" />
		<tag k="name" v="Heggen barnehager avd. Utsikten" />
		<tag k="no-barnehage:nsrid" v="915830110" />
		<tag k="operator" v="Harstad kommune / Hársttáid Suohkan" />
		<tag k="operator:type" v="public" />
	</node>
	<node id="-5365" lat="68.75175" lon="16.55665">
		<tag k="ADDRESS" v="Sildreveien 35, 9414 HARSTAD" />
		<tag k="amenity" v="kindergarten" />
		<tag k="capacity" v="69" />
		<tag k="max_age" v="5" />
		<tag k="min_age" v="1" />
		<tag k="name" v="Holtet barnehage" />
		<tag k="no-barnehage:nsrid" v="972418722" />
		<tag k="operator" v="Holtet barnehage Sa" />
		<tag k="operator:type" v="private" />
	</node>
	<node id="-5366" lat="68.83583" lon="16.34501">
		<tag k="ADDRESS" v="Kasfjord, 9402 HARSTAD" />
		<tag k="amenity" v="kindergarten" />
		<tag k="capacity" v="24" />
		<tag k="max_age" v="5" />
		<tag k="min_age" v="1" />
		<tag k="name" v="Kasfjord montessoribarnehage" />
		<tag k="no-barnehage:nsrid" v="985695636" />
		<tag k="operator" v="Elgen Factory AS" />
		<tag k="operator:type" v="private" />
	</node>
	<node id="-5367" lat="68.77818" lon="16.57078">
		<tag k="ADDRESS" v="Fredlyveien 17, 9411 HARSTAD" />
		<tag k="amenity" v="kindergarten" />
		<tag k="capacity" v="42" />
		<tag k="contact:website" v="http://www.laringsverkstedet.no" />
		<tag k="max_age" v="5" />
		<tag k="min_age" v="1" />
		<tag k="name" v="Læringsverkstedet barnehage avd. Kanebo" />
		<tag k="no-barnehage:nsrid" v="973712705" />
		<tag k="operator" v="Læringsverkstedet AS" />
		<tag k="operator:type" v="private" />
	</node>
	<node id="-5368" lat="68.82236" lon="16.48328">
		<tag k="ADDRESS" v="Ervik, 9402 HARSTAD" />
		<tag k="amenity" v="kindergarten" />
		<tag k="capacity" v="32" />
		<tag k="max_age" v="5" />
		<tag k="min_age" v="1" />
		<tag k="name" v="Læringsverkstedet barnehage avd. Bygdestua" />
		<tag k="no-barnehage:nsrid" v="974287137" />
		<tag k="operator" v="Læringsverkstedet AS" />
		<tag k="operator:type" v="private" />
	</node>
	<node id="-5369" lat="68.71414" lon="16.49789">
		<tag k="ADDRESS" v="Kilkamveien 103, 9415 HARSTAD" />
		<tag k="amenity" v="kindergarten" />
		<tag k="capacity" v="40" />
		<tag k="max_age" v="5" />
		<tag k="min_age" v="1" />
		<tag k="name" v="Læringsverkstedet barnehage avd. Løvåsen" />
		<tag k="no-barnehage:nsrid" v="996311783" />
		<tag k="operator" v="Læringsverkstedet AS" />
		<tag k="operator:type" v="private" />
	</node>
	<node id="-5371" lat="68.81257" lon="16.54527">
		<tag k="ADDRESS" v="Hagebyveien 65, 9404 HARSTAD" />
		<tag k="amenity" v="kindergarten" />
		<tag k="capacity" v="40" />
		<tag k="max_age" v="5" />
		<tag k="min_age" v="1" />
		<tag k="name" v="Nordhusan barnehager avd. Hagebyen" />
		<tag k="no-barnehage:nsrid" v="974627000" />
		<tag k="operator" v="Harstad kommune / Hársttáid Suohkan" />
		<tag k="operator:type" v="public" />
	</node>
	<node id="-5372" lat="68.80306" lon="16.53709">
		<tag k="ADDRESS" v="Bjarne Erlingsøns gate 31, 9405 HARSTAD" />
		<tag k="amenity" v="kindergarten" />
		<tag k="capacity" v="41" />
		<tag k="max_age" v="5" />
		<tag k="min_age" v="1" />
		<tag k="name" v="Nordhusan barnehager avd. Barnely" />
		<tag k="no-barnehage:nsrid" v="974627019" />
		<tag k="operator" v="Harstad kommune / Hársttáid Suohkan" />
		<tag k="operator:type" v="public" />
	</node>
	<node id="-5373" lat="68.81438" lon="16.50792">
		<tag k="ADDRESS" v="Skarpsnobakken 11, 9403 HARSTAD" />
		<tag k="amenity" v="kindergarten" />
		<tag k="capacity" v="27" />
		<tag k="max_age" v="5" />
		<tag k="min_age" v="1" />
		<tag k="name" v="Nordhusan barnehager avd. Bergseng" />
		<tag k="no-barnehage:nsrid" v="974627078" />
		<tag k="operator" v="Harstad kommune / Hársttáid Suohkan" />
		<tag k="operator:type" v="public" />
	</node>
	<node id="-5374" lat="68.82236" lon="16.48328">
		<tag k="ADDRESS" v="Ervik, 9402 HARSTAD" />
		<tag k="amenity" v="kindergarten" />
		<tag k="capacity" v="26" />
		<tag k="max_age" v="5" />
		<tag k="min_age" v="1" />
		<tag k="name" v="Nordhusan barnehager avd. Ervik" />
		<tag k="no-barnehage:nsrid" v="915751946" />
		<tag k="operator" v="Harstad kommune / Hársttáid Suohkan" />
		<tag k="operator:type" v="public" />
	</node>
	<node id="-5375" lat="68.81577" lon="16.50806">
		<tag k="ADDRESS" v="Gamle Ridevei 8, 9403 HARSTAD" />
		<tag k="amenity" v="kindergarten" />
		<tag k="capacity" v="60" />
		<tag k="max_age" v="5" />
		<tag k="min_age" v="1" />
		<tag k="name" v="Nordhusan barnehager avd. Froskedammen" />
		<tag k="no-barnehage:nsrid" v="992071435" />
		<tag k="operator" v="Harstad kommune / Hársttáid Suohkan" />
		<tag k="operator:type" v="public" />
	</node>
	<node id="-5377" lat="0.0" lon="0.0">
		<tag k="ADDRESS" v="Fauskevåg, 9419 SØRVIK" />
		<tag k="amenity" v="kindergarten" />
		<tag k="capacity" v="28" />
		<tag k="max_age" v="5" />
		<tag k="min_age" v="1" />
		<tag k="name" v="Sørhusan barnehager avd. Fauskevåg" />
		<tag k="no-barnehage:nsrid" v="993176087" />
		<tag k="operator" v="Harstad kommune / Hársttáid Suohkan" />
		<tag k="operator:type" v="public" />
	</node>
	<node id="-5378" lat="68.76039" lon="16.55122">
		<tag k="ADDRESS" v="Mølnholtet 29, 9414 HARSTAD" />
		<tag k="amenity" v="kindergarten" />
		<tag k="capacity" v="36" />
		<tag k="max_age" v="5" />
		<tag k="min_age" v="1" />
		<tag k="name" v="Sørhusan barnehager avd. Medkila" />
		<tag k="no-barnehage:nsrid" v="974627159" />
		<tag k="operator" v="Harstad kommune / Hársttáid Suohkan" />
		<tag k="operator:type" v="public" />
	</node>
	<node id="-5379" lat="68.7462" lon="16.55459">
		<tag k="ADDRESS" v="Jetthågen 1, 9415 HARSTAD" />
		<tag k="amenity" v="kindergarten" />
		<tag k="capacity" v="27" />
		<tag k="max_age" v="5" />
		<tag k="min_age" v="1" />
		<tag k="name" v="Sørhusan barnehager avd. Breivika" />
		<tag k="no-barnehage:nsrid" v="874627062" />
		<tag k="operator" v="Harstad kommune / Hársttáid Suohkan" />
		<tag k="operator:type" v="public" />
	</node>
	<node id="-5380" lat="0.0" lon="0.0">
		<tag k="ADDRESS" v="Gausvik, 9430 SANDTORG" />
		<tag k="amenity" v="kindergarten" />
		<tag k="capacity" v="9" />
		<tag k="max_age" v="5" />
		<tag k="min_age" v="1" />
		<tag k="name" v="Sørhusan barnehager avd. Gausvik" />
		<tag k="no-barnehage:nsrid" v="974627116" />
		<tag k="operator" v="Harstad kommune / Hársttáid Suohkan" />
		<tag k="operator:type" v="public" />
	</node>
	<node id="-5381" lat="68.75848" lon="16.54473">
		<tag k="ADDRESS" v="Høgholtet 37, 9414 HARSTAD" />
		<tag k="amenity" v="kindergarten" />
		<tag k="capacity" v="56" />
		<tag k="max_age" v="5" />
		<tag k="min_age" v="1" />
		<tag k="name" v="Sørhusan barnehager avd. Høgholtet" />
		<tag k="no-barnehage:nsrid" v="989158147" />
		<tag k="operator" v="Harstad kommune / Hársttáid Suohkan" />
		<tag k="operator:type" v="public" />
	</node>
	<node id="-5382" lat="68.81865" lon="16.55606">
		<tag k="ADDRESS" v="Trondenesveien 110, 9404 HARSTAD" />
		<tag k="amenity" v="kindergarten" />
		<tag k="capacity" v="13" />
		<tag k="max_age" v="5" />
		<tag k="min_age" v="1" />
		<tag k="name" v="Trondarnes musikkbarnehage" />
		<tag k="no-barnehage:nsrid" v="975184137" />
		<tag k="operator" v="Stiftelsen Harstad folkehøgskole" />
		<tag k="operator:type" v="private" />
	</node>
</osm>
