<?xml version="1.0" encoding="UTF-8"?>
<osm generator="osmapis" version="0.6">
	<node id="-4818" lat="60.1172" lon="6.5604">
		<tag k="ADDRESS" v="Langåkervegen 1, 5770 TYSSEDAL" />
		<tag k="amenity" v="kindergarten" />
		<tag k="capacity" v="26" />
		<tag k="contact:website" v="http://tyssedal.barnehage.odda.no" />
		<tag k="max_age" v="5" />
		<tag k="min_age" v="1" />
		<tag k="name" v="Tyssedal barnehage" />
		<tag k="no-barnehage:nsrid" v="1018112" />
		<tag k="operator" v="Odda kommune" />
		<tag k="operator:type" v="public" />
	</node>
	<node id="-4817" lat="0.0" lon="0.0">
		<tag k="ADDRESS" v=", 5763 SKARE" />
		<tag k="amenity" v="kindergarten" />
		<tag k="capacity" v="26" />
		<tag k="contact:website" v="http://skare.barnehage.odda.no" />
		<tag k="max_age" v="5" />
		<tag k="min_age" v="1" />
		<tag k="name" v="Skare barnehage" />
		<tag k="no-barnehage:nsrid" v="1012509" />
		<tag k="operator" v="Odda kommune" />
		<tag k="operator:type" v="public" />
	</node>
	<node id="-4816" lat="59.83178" lon="6.81342">
		<tag k="ADDRESS" v="Seimsvegen 3, 5760 RØLDAL" />
		<tag k="amenity" v="kindergarten" />
		<tag k="capacity" v="16" />
		<tag k="contact:website" v="http://roldal.barnehage.odda.no" />
		<tag k="max_age" v="5" />
		<tag k="min_age" v="1" />
		<tag k="name" v="Røldal barnehage" />
		<tag k="no-barnehage:nsrid" v="1018111" />
		<tag k="operator" v="Odda kommune" />
		<tag k="operator:type" v="public" />
	</node>
	<node id="-4815" lat="60.05555" lon="6.54751">
		<tag k="ADDRESS" v="Rabben 1, 5750 ODDA" />
		<tag k="amenity" v="kindergarten" />
		<tag k="capacity" v="73" />
		<tag k="contact:website" v="http://rabben.barnehage.odda.no" />
		<tag k="max_age" v="5" />
		<tag k="min_age" v="1" />
		<tag k="name" v="Rabben barnehage" />
		<tag k="no-barnehage:nsrid" v="1018110" />
		<tag k="operator" v="Odda kommune" />
		<tag k="operator:type" v="public" />
	</node>
	<node id="-4814" lat="60.06781" lon="6.54166">
		<tag k="ADDRESS" v="Opheimsgata, 5750 ODDA" />
		<tag k="amenity" v="kindergarten" />
		<tag k="capacity" v="48" />
		<tag k="contact:website" v="http://hestavoll.barnehage.odda.no" />
		<tag k="max_age" v="5" />
		<tag k="min_age" v="1" />
		<tag k="name" v="Hestavoll barnehage" />
		<tag k="no-barnehage:nsrid" v="1012508" />
		<tag k="operator" v="Odda kommune" />
		<tag k="operator:type" v="public" />
	</node>
	<node id="-4813" lat="60.09666" lon="6.52715">
		<tag k="ADDRESS" v="Eitrheim, 5750 ODDA" />
		<tag k="amenity" v="kindergarten" />
		<tag k="capacity" v="50" />
		<tag k="contact:website" v="http://eitrheimsvagen.barnehage.odda.no" />
		<tag k="max_age" v="5" />
		<tag k="min_age" v="1" />
		<tag k="name" v="Eitrheimsvågen barnehage" />
		<tag k="no-barnehage:nsrid" v="1016091" />
		<tag k="operator" v="Odda kommune" />
		<tag k="operator:type" v="public" />
	</node>
	<node id="-4812" lat="60.05306" lon="6.536">
		<tag k="ADDRESS" v="Eidesåsen, 5750 ODDA" />
		<tag k="amenity" v="kindergarten" />
		<tag k="capacity" v="27" />
		<tag k="contact:website" v="http://eidesasen.barnehage.odda.no" />
		<tag k="max_age" v="5" />
		<tag k="min_age" v="1" />
		<tag k="name" v="Eidesåsen barnehage" />
		<tag k="no-barnehage:nsrid" v="1014689" />
		<tag k="operator" v="Odda kommune" />
		<tag k="operator:type" v="public" />
	</node>
</osm>
