<?xml version="1.0" encoding="UTF-8"?>
<osm generator="osmapis" version="0.6">
	<node id="-5246" lat="64.2224" lon="11.2214">
		<tag k="amenity" v="kindergarten" />
		<tag k="capacity" v="56" />
		<tag k="contact:email" v="liv.damas@namdalseid.kommune.no" />
		<tag k="contact:phone" v="+47 74278172" />
		<tag k="max_age" v="5" />
		<tag k="min_age" v="1" />
		<tag k="name" v="Vangstunet barnehage" />
		<tag k="no-barnehage:nsrid" v="1016122" />
		<tag k="operator" v="Namdalseid kommune" />
		<tag k="operator:type" v="public" />
		<tag k="start_date" v="1989-01-02" />
	</node>
	<node id="-5245" lat="64.4945" lon="11.1463">
		<tag k="amenity" v="kindergarten" />
		<tag k="capacity" v="13" />
		<tag k="contact:email" v="liv.damas@namdalseid.kommune.no" />
		<tag k="contact:phone" v="+47 74279363" />
		<tag k="max_age" v="5" />
		<tag k="min_age" v="1" />
		<tag k="name" v="Stjerten barnehage" />
		<tag k="no-barnehage:nsrid" v="1012529" />
		<tag k="operator" v="Namdalseid kommune" />
		<tag k="operator:type" v="public" />
		<tag k="start_date" v="1989-01-01" />
	</node>
</osm>
