<?xml version="1.0" encoding="UTF-8"?>
<osm generator="osmapis" version="0.6">
	<node id="-2375" lat="60.04473" lon="9.635143">
		<tag k="amenity" v="kindergarten" />
		<tag k="capacity" v="41" />
		<tag k="contact:email" v="post@prestfossbarnehage.no" />
		<tag k="max_age" v="5" />
		<tag k="min_age" v="1" />
		<tag k="name" v="Prestfoss barnehage" />
		<tag k="no-barnehage:nsrid" v="1019613" />
		<tag k="operator" v="Prestfoss barnehage" />
		<tag k="operator:type" v="private" />
		<tag k="start_date" v="1972-12-25" />
	</node>
	<node id="-2374" lat="60.04473" lon="9.635143">
		<tag k="amenity" v="kindergarten" />
		<tag k="capacity" v="53" />
		<tag k="contact:email" v="post@nerstadbarnehage.no" />
		<tag k="contact:phone" v="32715457" />
		<tag k="max_age" v="5" />
		<tag k="min_age" v="1" />
		<tag k="name" v="Nerstad barnehage" />
		<tag k="no-barnehage:nsrid" v="1019612" />
		<tag k="operator" v="Nerstad barnehage" />
		<tag k="operator:type" v="private" />
		<tag k="start_date" v="1972-12-25" />
	</node>
	<node id="-2373" lat="60.14095" lon="9.434604">
		<tag k="amenity" v="kindergarten" />
		<tag k="capacity" v="19" />
		<tag k="contact:email" v="post@engerbarnehage.no" />
		<tag k="contact:phone" v="32 71 25 90" />
		<tag k="max_age" v="5" />
		<tag k="min_age" v="1" />
		<tag k="name" v="Enger barnehage" />
		<tag k="no-barnehage:nsrid" v="1020400" />
		<tag k="operator" v="Enger barnehage" />
		<tag k="operator:type" v="private" />
		<tag k="start_date" v="1989-01-02" />
	</node>
	<node id="-2372" lat="60.23822" lon="9.360769">
		<tag k="amenity" v="kindergarten" />
		<tag k="capacity" v="26" />
		<tag k="contact:email" v="post@eggedalbarnehage.no" />
		<tag k="contact:phone" v="32 71 46 00" />
		<tag k="max_age" v="5" />
		<tag k="min_age" v="1" />
		<tag k="name" v="Eggedal barnehage" />
		<tag k="no-barnehage:nsrid" v="1019700" />
		<tag k="operator" v="Eggedal barnehage" />
		<tag k="operator:type" v="private" />
		<tag k="start_date" v="1989-01-02" />
	</node>
	<node id="-2371" lat="60.04473" lon="9.635143">
		<tag k="amenity" v="kindergarten" />
		<tag k="capacity" v="9" />
		<tag k="contact:email" v="post@baasheimbarnehage.no" />
		<tag k="max_age" v="5" />
		<tag k="min_age" v="1" />
		<tag k="name" v="Båsheim barnehage" />
		<tag k="no-barnehage:nsrid" v="1020406" />
		<tag k="operator" v="Båsheim barnehage" />
		<tag k="operator:type" v="private" />
		<tag k="start_date" v="1989-01-02" />
	</node>
</osm>
