<?xml version="1.0" encoding="UTF-8"?>
<osm generator="osmapis" version="0.6">
	<node id="-5478" lat="63.46568" lon="8.01977">
		<tag k="ADDRESS" v="Skagaveien 27, 6570 SMØLA" />
		<tag k="amenity" v="kindergarten" />
		<tag k="capacity" v="13" />
		<tag k="max_age" v="5" />
		<tag k="min_age" v="1" />
		<tag k="name" v="Veiholmen barnehage" />
		<tag k="no-barnehage:nsrid" v="1018209" />
		<tag k="operator" v="Smøla kommune" />
		<tag k="operator:type" v="public" />
	</node>
	<node id="-5477" lat="0.0" lon="0.0">
		<tag k="ADDRESS" v=", 6570 SMØLA" />
		<tag k="amenity" v="kindergarten" />
		<tag k="contact:website" v="http://www.smola.kommune.no" />
		<tag k="name" v="Smøla barnehage" />
		<tag k="no-barnehage:nsrid" v="1019602" />
		<tag k="operator" v="Smøla kommune" />
		<tag k="operator:type" v="public" />
	</node>
	<node id="-5476" lat="63.36866" lon="8.14132">
		<tag k="ADDRESS" v="Nyjordsveien 1385, 6570 SMØLA" />
		<tag k="amenity" v="kindergarten" />
		<tag k="capacity" v="15" />
		<tag k="max_age" v="5" />
		<tag k="min_age" v="1" />
		<tag k="name" v="Nordsmøla barnehage" />
		<tag k="no-barnehage:nsrid" v="1016111" />
		<tag k="operator" v="Smøla kommune" />
		<tag k="operator:type" v="public" />
	</node>
	<node id="-5475" lat="63.32764" lon="8.05246">
		<tag k="ADDRESS" v="Trettnesveien 8, 6570 SMØLA" />
		<tag k="amenity" v="kindergarten" />
		<tag k="capacity" v="13" />
		<tag k="max_age" v="5" />
		<tag k="min_age" v="1" />
		<tag k="name" v="Innsmøla barnehage" />
		<tag k="no-barnehage:nsrid" v="1012522" />
		<tag k="operator" v="Smøla kommune" />
		<tag k="operator:type" v="public" />
	</node>
	<node id="-5474" lat="63.42505" lon="7.9193">
		<tag k="ADDRESS" v="Vestsideveien 2575, 6570 SMØLA" />
		<tag k="amenity" v="kindergarten" />
		<tag k="capacity" v="24" />
		<tag k="max_age" v="5" />
		<tag k="min_age" v="1" />
		<tag k="name" v="Brattvær barnehage" />
		<tag k="no-barnehage:nsrid" v="1017465" />
		<tag k="operator" v="Smøla kommune" />
		<tag k="operator:type" v="public" />
	</node>
</osm>
