<?xml version="1.0" encoding="UTF-8"?>
<osm generator="osmapis" version="0.6">
	<node id="-4680" lat="63.5191" lon="7.95263">
		<tag k="amenity" v="kindergarten" />
		<tag k="capacity" v="18" />
		<tag k="contact:email" v="laila.hopshaug@smola.kommune.no" />
		<tag k="contact:phone" v="+47 71 54 21 49" />
		<tag k="max_age" v="5" />
		<tag k="min_age" v="1" />
		<tag k="name" v="Veidholmen barnehage" />
		<tag k="no-barnehage:nsrid" v="1018209" />
		<tag k="operator" v="Smøla kommune" />
		<tag k="operator:type" v="public" />
		<tag k="start_date" v="1989-01-01" />
	</node>
	<node id="-4679" lat="63.3866" lon="8.00688">
		<tag k="amenity" v="kindergarten" />
		<tag k="capacity" v="23" />
		<tag k="contact:email" v="laila.hopshaug@smola.kommune.no" />
		<tag k="contact:phone" v="+47 71 54 02 73" />
		<tag k="max_age" v="5" />
		<tag k="min_age" v="1" />
		<tag k="name" v="Nordsmøla barnehage" />
		<tag k="no-barnehage:nsrid" v="1016111" />
		<tag k="operator" v="Smøla kommune" />
		<tag k="operator:type" v="public" />
		<tag k="start_date" v="1979-01-25" />
	</node>
	<node id="-4678" lat="63.3275" lon="8.05256">
		<tag k="amenity" v="kindergarten" />
		<tag k="capacity" v="26" />
		<tag k="contact:email" v="laila.hopshaug@smola.kommune.no" />
		<tag k="contact:phone" v="+47 71 54 12 81" />
		<tag k="max_age" v="5" />
		<tag k="min_age" v="1" />
		<tag k="name" v="Innsmøla barnehage" />
		<tag k="no-barnehage:nsrid" v="1012522" />
		<tag k="operator" v="Smøla kommune" />
		<tag k="operator:type" v="public" />
		<tag k="start_date" v="1989-01-01" />
	</node>
	<node id="-4677" lat="63.4275" lon="7.85033">
		<tag k="amenity" v="kindergarten" />
		<tag k="capacity" v="17" />
		<tag k="contact:email" v="laila.hopshaug@smola.kommune.no" />
		<tag k="contact:phone" v="+47 71 54 32 49" />
		<tag k="max_age" v="5" />
		<tag k="min_age" v="1" />
		<tag k="name" v="Brattvær barnehage" />
		<tag k="no-barnehage:nsrid" v="1017465" />
		<tag k="operator" v="Smøla kommune" />
		<tag k="operator:type" v="public" />
		<tag k="start_date" v="1982-01-01" />
	</node>
</osm>
