<?xml version="1.0" encoding="UTF-8"?>
<osm generator="osmapis" version="0.6">
	<node id="-3573" lat="63.30748" lon="10.42671">
		<tag k="ADDRESS" v="Nybrottsvegen 4, 7549 TANEM" />
		<tag k="amenity" v="kindergarten" />
		<tag k="capacity" v="50" />
		<tag k="max_age" v="5" />
		<tag k="min_age" v="1" />
		<tag k="name" v="Tanem barnehage" />
		<tag k="no-barnehage:nsrid" v="1018255" />
		<tag k="operator" v="Klæbu kommune" />
		<tag k="operator:type" v="public" />
	</node>
	<node id="-3572" lat="63.30032" lon="10.48896">
		<tag k="ADDRESS" v="Hallsetvegen 8, 7540 KLÆBU" />
		<tag k="amenity" v="kindergarten" />
		<tag k="capacity" v="46" />
		<tag k="max_age" v="5" />
		<tag k="min_age" v="1" />
		<tag k="name" v="Sletten barnehage avd. Rød og Blå" />
		<tag k="no-barnehage:nsrid" v="1017667" />
		<tag k="operator" v="Klæbu kommune" />
		<tag k="operator:type" v="public" />
	</node>
	<node id="-3571" lat="63.29943" lon="10.48846">
		<tag k="ADDRESS" v="Hallsetvegen 6, 7540 KLÆBU" />
		<tag k="amenity" v="kindergarten" />
		<tag k="name" v="Sletten barnehage avd. Grindvollen" />
		<tag k="no-barnehage:nsrid" v="1014741" />
		<tag k="operator" v="Klæbu kommune" />
		<tag k="operator:type" v="public" />
	</node>
	<node id="-3570" lat="63.30228" lon="10.48361">
		<tag k="ADDRESS" v="Rydlandvegen 6, 7540 KLÆBU" />
		<tag k="amenity" v="kindergarten" />
		<tag k="capacity" v="30" />
		<tag k="max_age" v="5" />
		<tag k="min_age" v="1" />
		<tag k="name" v="Sletten barnehage avd. Rydland" />
		<tag k="no-barnehage:nsrid" v="1012526" />
		<tag k="operator" v="Klæbu kommune" />
		<tag k="operator:type" v="public" />
	</node>
	<node id="-3569" lat="63.30186" lon="10.46337">
		<tag k="ADDRESS" v="Lauvåsvegen 4, 7540 KLÆBU" />
		<tag k="amenity" v="kindergarten" />
		<tag k="capacity" v="67" />
		<tag k="max_age" v="5" />
		<tag k="min_age" v="1" />
		<tag k="name" v="Knærten FUS friluftsbarnehage" />
		<tag k="no-barnehage:nsrid" v="1021993" />
		<tag k="operator" v="Knærten Fus Friluftsbarnehage AS" />
		<tag k="operator:type" v="private" />
	</node>
	<node id="-3568" lat="63.3036" lon="10.48656">
		<tag k="ADDRESS" v="Langelandvegen 9, 7540 KLÆBU" />
		<tag k="amenity" v="kindergarten" />
		<tag k="capacity" v="44" />
		<tag k="contact:website" v="http://www.klæbubarnehage.no" />
		<tag k="max_age" v="5" />
		<tag k="min_age" v="1" />
		<tag k="name" v="Klæbu barnehage" />
		<tag k="no-barnehage:nsrid" v="1015001" />
		<tag k="operator" v="Klæbu barnehage AS" />
		<tag k="operator:type" v="private" />
	</node>
	<node id="-3566" lat="63.29972" lon="10.47807">
		<tag k="ADDRESS" v="Hesteskoen 6, 7540 KLÆBU" />
		<tag k="amenity" v="kindergarten" />
		<tag k="capacity" v="51" />
		<tag k="max_age" v="5" />
		<tag k="min_age" v="1" />
		<tag k="name" v="Hesteskoen barnehage" />
		<tag k="no-barnehage:nsrid" v="1018520" />
		<tag k="operator" v="Klæbu kommune" />
		<tag k="operator:type" v="public" />
	</node>
	<node id="-3565" lat="63.30754" lon="10.43436">
		<tag k="ADDRESS" v="Brannåsvegen 8, 7549 TANEM" />
		<tag k="amenity" v="kindergarten" />
		<tag k="capacity" v="59" />
		<tag k="max_age" v="5" />
		<tag k="min_age" v="1" />
		<tag k="name" v="Brannåsen barnehage" />
		<tag k="no-barnehage:nsrid" v="1018254" />
		<tag k="operator" v="Klæbu kommune" />
		<tag k="operator:type" v="public" />
	</node>
</osm>
