<?xml version="1.0" encoding="UTF-8"?>
<osm generator="osmapis" version="0.6">
	<node id="-274" lat="59.37791" lon="10.76214">
		<tag k="amenity" v="kindergarten" />
		<tag k="name" v="Thorvaldsen Eva Lisbeth" />
		<tag k="no-barnehage:nsrid" v="2000088" />
		<tag k="operator" v="Thorvaldsen Eva Lisbeth" />
		<tag k="operator:type" v="private" />
		<tag k="start_date" v="2015-01-01" />
	</node>
	<node id="-273" lat="59.4226" lon="10.6931">
		<tag k="amenity" v="kindergarten" />
		<tag k="capacity" v="41" />
		<tag k="contact:email" v="cathrine.hansen@rygge.kommune.no" />
		<tag k="max_age" v="5" />
		<tag k="min_age" v="1" />
		<tag k="name" v="Solliskogen barnehage" />
		<tag k="no-barnehage:nsrid" v="1017520" />
		<tag k="operator" v="Rygge kommune" />
		<tag k="operator:type" v="public" />
		<tag k="start_date" v="1988-04-01" />
	</node>
	<node id="-272" lat="59.38905" lon="10.68427">
		<tag k="amenity" v="kindergarten" />
		<tag k="capacity" v="80" />
		<tag k="contact:email" v="royne@smedhusaasen.no" />
		<tag k="contact:phone" v="+47 69 23 59 42" />
		<tag k="contact:website" v="http://www.smedhusasen.barnehageside.no" />
		<tag k="max_age" v="5" />
		<tag k="min_age" v="1" />
		<tag k="name" v="Smedhusåsen barnehage Sa" />
		<tag k="no-barnehage:nsrid" v="1020540" />
		<tag k="operator" v="Smedhusåsen barnehage Sa" />
		<tag k="operator:type" v="private" />
		<tag k="start_date" v="1998-10-26" />
	</node>
	<node id="-271" lat="59.4199" lon="10.6927">
		<tag k="amenity" v="kindergarten" />
		<tag k="contact:email" v="ase.melkeraaen@rygge.kommune.no" />
		<tag k="contact:phone" v="+47 69 70 85 58" />
		<tag k="name" v="Rygge kommune Åpen barnehage" />
		<tag k="no-barnehage:nsrid" v="1014136" />
		<tag k="operator" v="Rygge kommune" />
		<tag k="operator:type" v="public" />
		<tag k="start_date" v="2009-09-01" />
	</node>
	<node id="-270" lat="59.4209" lon="10.6894">
		<tag k="amenity" v="kindergarten" />
		<tag k="capacity" v="104" />
		<tag k="contact:email" v="cathrine.hansen@rygge.kommune.no" />
		<tag k="max_age" v="5" />
		<tag k="min_age" v="1" />
		<tag k="name" v="Rygge Kommunale barnehage" />
		<tag k="no-barnehage:nsrid" v="1017521" />
		<tag k="operator" v="Rygge kommune" />
		<tag k="operator:type" v="public" />
		<tag k="start_date" v="1988-04-01" />
	</node>
	<node id="-269" lat="59.3321" lon="10.6717">
		<tag k="amenity" v="kindergarten" />
		<tag k="capacity" v="80" />
		<tag k="contact:email" v="kontor@laringsverkstedet.no" />
		<tag k="contact:phone" v="+47 69 26 45 05" />
		<tag k="max_age" v="5" />
		<tag k="min_age" v="1" />
		<tag k="name" v="Læringsverkstedet barnehage Avd Støtvigenga" />
		<tag k="no-barnehage:nsrid" v="1016347" />
		<tag k="operator" v="Eg Barnehagedrift AS" />
		<tag k="operator:type" v="private" />
		<tag k="start_date" v="2002-08-01" />
	</node>
	<node id="-268" lat="59.3833" lon="10.7457">
		<tag k="amenity" v="kindergarten" />
		<tag k="capacity" v="57" />
		<tag k="contact:email" v="kontor@laringsverkstedet.no" />
		<tag k="contact:phone" v="+47 69 26 03 30" />
		<tag k="max_age" v="5" />
		<tag k="min_age" v="1" />
		<tag k="name" v="Læringsverkstedet barnehage Avd Halmstad" />
		<tag k="no-barnehage:nsrid" v="1016320" />
		<tag k="operator" v="Eg Barnehagedrift AS" />
		<tag k="operator:type" v="private" />
		<tag k="start_date" v="2002-12-31" />
	</node>
	<node id="-267" lat="59.41055" lon="10.6982">
		<tag k="amenity" v="kindergarten" />
		<tag k="capacity" v="67" />
		<tag k="contact:email" v="kontor@laringsverkstedet.no" />
		<tag k="contact:phone" v="+47 69 26 04 54" />
		<tag k="max_age" v="5" />
		<tag k="min_age" v="1" />
		<tag k="name" v="Heimdalenga barnehage" />
		<tag k="no-barnehage:nsrid" v="1020799" />
		<tag k="operator" v="Læringsverkstedet Heimdalenga AS" />
		<tag k="operator:type" v="private" />
		<tag k="start_date" v="2002-07-01" />
	</node>
	<node id="-266" lat="59.41408" lon="10.68149">
		<tag k="amenity" v="kindergarten" />
		<tag k="capacity" v="84" />
		<tag k="contact:email" v="dl.gubbeskogen@bhg.no" />
		<tag k="max_age" v="5" />
		<tag k="min_age" v="1" />
		<tag k="name" v="Gubbeskogen Fus barnehage AS" />
		<tag k="no-barnehage:nsrid" v="1021311" />
		<tag k="operator" v="Gubbeskogen Fus barnehage AS" />
		<tag k="operator:type" v="private" />
		<tag k="start_date" v="2005-09-16" />
	</node>
	<node id="-265" lat="59.3754" lon="10.76127">
		<tag k="amenity" v="kindergarten" />
		<tag k="capacity" v="42" />
		<tag k="contact:email" v="post@fasanveien-barnehage.no" />
		<tag k="max_age" v="5" />
		<tag k="min_age" v="1" />
		<tag k="name" v="Fasanveien barnehage AS" />
		<tag k="no-barnehage:nsrid" v="1021138" />
		<tag k="operator" v="Fasanveien barnehage AS" />
		<tag k="operator:type" v="private" />
		<tag k="start_date" v="2004-10-04" />
	</node>
	<node id="-264" lat="59.41484" lon="10.67391">
		<tag k="amenity" v="kindergarten" />
		<tag k="capacity" v="73" />
		<tag k="contact:email" v="tone@ekholt-barnehage.no" />
		<tag k="contact:phone" v="+47 69 26 29 37" />
		<tag k="max_age" v="5" />
		<tag k="min_age" v="1" />
		<tag k="name" v="Ekholt barnehage Sa" />
		<tag k="no-barnehage:nsrid" v="1020536" />
		<tag k="operator" v="Ekholt barnehage Sa" />
		<tag k="operator:type" v="private" />
		<tag k="start_date" v="1999-06-01" />
	</node>
	<node id="-263" lat="59.40734" lon="10.69175">
		<tag k="amenity" v="kindergarten" />
		<tag k="capacity" v="79" />
		<tag k="contact:email" v="adm@bredsandkrokenbhg.no" />
		<tag k="contact:phone" v="+47 69 26 41 30" />
		<tag k="max_age" v="5" />
		<tag k="min_age" v="1" />
		<tag k="name" v="Bredsandkroken barnehage" />
		<tag k="no-barnehage:nsrid" v="1020454" />
		<tag k="operator" v="Stiftelsen barnehage Rygge" />
		<tag k="operator:type" v="private" />
		<tag k="start_date" v="1990-07-01" />
	</node>
</osm>
