<?xml version="1.0" encoding="UTF-8"?>
<osm version="0.6" generator="osmapis">
	<node lat="58.42315" lon="7.40772" id="-3926">
		<tag k="ADDRESS" v="Hårtveitshei 55, 4529 BYREMO" />
		<tag k="amenity" v="kindergarten" />
		<tag k="capacity" v="41" />
		<tag k="max_age" v="5" />
		<tag k="min_age" v="1" />
		<tag k="name" v="Byremo barnehage" />
		<tag k="no-barnehage:nsrid" v="975307875" />
		<tag k="operator" v="Lyngdal kommune" />
		<tag k="operator:type" v="public" />
	</node>
	<node lat="58.13676" lon="7.072" id="-3927">
		<tag k="ADDRESS" v="Stasjonsgata 30, 4580 LYNGDAL" />
		<tag k="amenity" v="kindergarten" />
		<tag k="capacity" v="57" />
		<tag k="contact:website" v="http://www.filadelfiabhg.no" />
		<tag k="max_age" v="5" />
		<tag k="min_age" v="1" />
		<tag k="name" v="Filadelfia barnehage" />
		<tag k="no-barnehage:nsrid" v="975044661" />
		<tag k="operator" v="Filadelfia barnehage AS" />
		<tag k="operator:type" v="private" />
	</node>
	<node lat="0.0" lon="0.0" id="-3928">
		<tag k="ADDRESS" v="Alleen, 4580 LYNGDAL" />
		<tag k="amenity" v="kindergarten" />
		<tag k="name" v="Frikirken åpen barnehage" />
		<tag k="no-barnehage:nsrid" v="996281051" />
		<tag k="operator" v="Frikirken Lyngdal Menighet" />
		<tag k="operator:type" v="private" />
	</node>
	<node lat="58.11267" lon="6.94556" id="-3929">
		<tag k="ADDRESS" v="Vågeveien 6, 4580 LYNGDAL" />
		<tag k="amenity" v="kindergarten" />
		<tag k="capacity" v="11" />
		<tag k="max_age" v="5" />
		<tag k="min_age" v="1" />
		<tag k="name" v="Kollevoll barnehage" />
		<tag k="no-barnehage:nsrid" v="973458906" />
		<tag k="operator" v="Kollevoll barnehage SA" />
		<tag k="operator:type" v="private" />
	</node>
	<node lat="58.29998" lon="7.36185" id="-3930">
		<tag k="ADDRESS" v="Idrettsveien 14, 4525 KONSMO" />
		<tag k="amenity" v="kindergarten" />
		<tag k="capacity" v="45" />
		<tag k="max_age" v="5" />
		<tag k="min_age" v="1" />
		<tag k="name" v="Konsmo barnehage" />
		<tag k="no-barnehage:nsrid" v="975307883" />
		<tag k="operator" v="Lyngdal kommune" />
		<tag k="operator:type" v="public" />
	</node>
	<node lat="58.12838" lon="7.04734" id="-3931">
		<tag k="ADDRESS" v="Gamle Myrvei 1, 4580 LYNGDAL" />
		<tag k="amenity" v="kindergarten" />
		<tag k="capacity" v="84" />
		<tag k="max_age" v="5" />
		<tag k="min_age" v="1" />
		<tag k="name" v="Lyngtua barnehage" />
		<tag k="no-barnehage:nsrid" v="875307932" />
		<tag k="operator" v="Lyngdal kommune" />
		<tag k="operator:type" v="public" />
	</node>
	<node lat="58.1572" lon="7.08516" id="-3932">
		<tag k="ADDRESS" v="Flekkefjordveien 36, 4580 LYNGDAL" />
		<tag k="amenity" v="kindergarten" />
		<tag k="capacity" v="19" />
		<tag k="max_age" v="5" />
		<tag k="min_age" v="1" />
		<tag k="name" v="Læringsverkstedet Eplehagen barnehage" />
		<tag k="no-barnehage:nsrid" v="986691987" />
		<tag k="operator" v="Læringsverkstedet Eplehagen barnehage AS" />
		<tag k="operator:type" v="private" />
	</node>
	<node lat="58.14451" lon="7.05613" id="-3933">
		<tag k="ADDRESS" v="Strandeveien 5, 4580 LYNGDAL" />
		<tag k="amenity" v="kindergarten" />
		<tag k="capacity" v="88" />
		<tag k="contact:website" v="http://laringsverkstedet.no/barnehage/bergeheim" />
		<tag k="max_age" v="5" />
		<tag k="min_age" v="1" />
		<tag k="name" v="Læringsverkstedet Faråna barnehage" />
		<tag k="no-barnehage:nsrid" v="995788292" />
		<tag k="operator" v="Læringsverkstedet Faråna barnehage AS" />
		<tag k="operator:type" v="private" />
	</node>
	<node lat="58.15522" lon="7.10495" id="-3934">
		<tag k="ADDRESS" v="Hagehølveien 10, 4580 LYNGDAL" />
		<tag k="amenity" v="kindergarten" />
		<tag k="capacity" v="56" />
		<tag k="contact:website" v="http://laringsverkstedet.no/barnehage/rom" />
		<tag k="max_age" v="5" />
		<tag k="min_age" v="1" />
		<tag k="name" v="Læringsverkstedet Rom barnehage" />
		<tag k="no-barnehage:nsrid" v="987791047" />
		<tag k="operator" v="Læringsverkstedet Rom barnehage AS" />
		<tag k="operator:type" v="private" />
	</node>
	<node lat="58.24271" lon="7.18565" id="-3935">
		<tag k="ADDRESS" v="Kvåstunet 19, 4588 KVÅS" />
		<tag k="amenity" v="kindergarten" />
		<tag k="capacity" v="21" />
		<tag k="max_age" v="5" />
		<tag k="min_age" v="1" />
		<tag k="name" v="Preg barnehager Kvås" />
		<tag k="no-barnehage:nsrid" v="975183556" />
		<tag k="operator" v="Nlm-Barnehage Kvås AS" />
		<tag k="operator:type" v="private" />
	</node>
	<node lat="58.15076" lon="7.09115" id="-3936">
		<tag k="ADDRESS" v="Nygårdsveien 2, 4580 LYNGDAL" />
		<tag k="amenity" v="kindergarten" />
		<tag k="capacity" v="119" />
		<tag k="max_age" v="5" />
		<tag k="min_age" v="1" />
		<tag k="name" v="Nygård barnehage" />
		<tag k="no-barnehage:nsrid" v="975307921" />
		<tag k="operator" v="Lyngdal kommune" />
		<tag k="operator:type" v="public" />
	</node>
	<node lat="58.14102" lon="7.06105" id="-3937">
		<tag k="ADDRESS" v="Måkeveien 3, 4580 LYNGDAL" />
		<tag k="amenity" v="kindergarten" />
		<tag k="capacity" v="9" />
		<tag k="max_age" v="5" />
		<tag k="min_age" v="1" />
		<tag k="name" v="Sangfuglen barnehage" />
		<tag k="no-barnehage:nsrid" v="973502263" />
		<tag k="operator" v="Sangfuglen barnehage R Limmesand" />
		<tag k="operator:type" v="private" />
	</node>
</osm>
