<?xml version="1.0" encoding="UTF-8"?>
<osm generator="osmapis" version="0.6">
	<node id="-119" lat="59.35123" lon="11.18359">
		<tag k="amenity" v="kindergarten" />
		<tag k="capacity" v="28" />
		<tag k="contact:website" v="http://www.sarpsborg.com/varteigbarnehage" />
		<tag k="max_age" v="5" />
		<tag k="min_age" v="1" />
		<tag k="name" v="Varteig barnehage" />
		<tag k="no-barnehage:nsrid" v="1017864" />
		<tag k="operator" v="Sarpsborg kommune" />
		<tag k="operator:type" v="public" />
	</node>
	<node id="-118" lat="59.28815" lon="11.09163">
		<tag k="amenity" v="kindergarten" />
		<tag k="capacity" v="63" />
		<tag k="contact:website" v="http://www.sarpsborg.com/barn-og-skole/barnehage/valaskjold-barnehage/#/" />
		<tag k="max_age" v="5" />
		<tag k="min_age" v="1" />
		<tag k="name" v="Valaskjold barnehage" />
		<tag k="no-barnehage:nsrid" v="1017355" />
		<tag k="operator" v="Sarpsborg kommune" />
		<tag k="operator:type" v="public" />
	</node>
	<node id="-117" lat="59.27726" lon="11.03611">
		<tag k="amenity" v="kindergarten" />
		<tag k="capacity" v="71" />
		<tag k="contact:website" v="http://tyrihansbhg.no" />
		<tag k="max_age" v="5" />
		<tag k="min_age" v="1" />
		<tag k="name" v="Tyrihans barnehage" />
		<tag k="no-barnehage:nsrid" v="1020221" />
		<tag k="operator" v="Tyrihans barnehage Sa" />
		<tag k="operator:type" v="private" />
	</node>
	<node id="-116" lat="0.0" lon="0.0">
		<tag k="amenity" v="kindergarten" />
		<tag k="capacity" v="27" />
		<tag k="contact:website" v="http://barnehagenett.no" />
		<tag k="max_age" v="5" />
		<tag k="min_age" v="1" />
		<tag k="name" v="Tveterhytta barnehage" />
		<tag k="no-barnehage:nsrid" v="1017035" />
		<tag k="operator" v="Borg Barnehager AS" />
		<tag k="operator:type" v="private" />
	</node>
	<node id="-115" lat="59.27598" lon="11.05243">
		<tag k="amenity" v="kindergarten" />
		<tag k="capacity" v="54" />
		<tag k="contact:website" v="http://tuneskipet.no" />
		<tag k="max_age" v="5" />
		<tag k="min_age" v="1" />
		<tag k="name" v="Tuneskipet barnehage" />
		<tag k="no-barnehage:nsrid" v="1019985" />
		<tag k="operator" v="Tuneskipet barnehage Sa" />
		<tag k="operator:type" v="private" />
	</node>
	<node id="-114" lat="59.28429" lon="11.05104">
		<tag k="amenity" v="kindergarten" />
		<tag k="capacity" v="89" />
		<tag k="max_age" v="5" />
		<tag k="min_age" v="1" />
		<tag k="name" v="Tubus idrettsbarnehage" />
		<tag k="no-barnehage:nsrid" v="1015445" />
		<tag k="operator" v="Borg Barnehager AS" />
		<tag k="operator:type" v="private" />
	</node>
	<node id="-112" lat="59.2732" lon="11.04403">
		<tag k="amenity" v="kindergarten" />
		<tag k="capacity" v="106" />
		<tag k="contact:website" v="http://www.sarpsborg.com/barn-og-skole/barnehage/tindlund-barnehage/" />
		<tag k="max_age" v="5" />
		<tag k="min_age" v="1" />
		<tag k="name" v="Tindlund barnehage Reggio Emilia-inspirert naturgruppe" />
		<tag k="no-barnehage:nsrid" v="1017354" />
		<tag k="operator" v="Sarpsborg kommune" />
		<tag k="operator:type" v="public" />
	</node>
	<node id="-111" lat="59.29506" lon="11.11269">
		<tag k="amenity" v="kindergarten" />
		<tag k="capacity" v="121" />
		<tag k="contact:website" v="http://www.barnehagenett.no/public/storeper-barnehage/" />
		<tag k="max_age" v="5" />
		<tag k="min_age" v="1" />
		<tag k="name" v="Storeper barnehage" />
		<tag k="no-barnehage:nsrid" v="1014205" />
		<tag k="operator" v="Borg Barnehager AS" />
		<tag k="operator:type" v="private" />
	</node>
	<node id="-110" lat="59.21691" lon="11.19317">
		<tag k="amenity" v="kindergarten" />
		<tag k="capacity" v="62" />
		<tag k="contact:website" v="http://www.sarpsborg.com/stasjonsbyenbarnehage" />
		<tag k="max_age" v="5" />
		<tag k="min_age" v="1" />
		<tag k="name" v="Stasjonsbyen barnehage" />
		<tag k="no-barnehage:nsrid" v="1013930" />
		<tag k="operator" v="Sarpsborg kommune" />
		<tag k="operator:type" v="public" />
	</node>
	<node id="-109" lat="59.2777" lon="11.1137">
		<tag k="amenity" v="kindergarten" />
		<tag k="capacity" v="104" />
		<tag k="contact:website" v="http://www.sarpsborg.com/barn-og-skole/barnehage/st.olavsbarnehage/#/" />
		<tag k="max_age" v="5" />
		<tag k="min_age" v="1" />
		<tag k="name" v="St Olavs barnehage" />
		<tag k="no-barnehage:nsrid" v="1017508" />
		<tag k="operator" v="Sarpsborg kommune" />
		<tag k="operator:type" v="public" />
	</node>
	<node id="-108" lat="59.29802" lon="11.21548">
		<tag k="amenity" v="kindergarten" />
		<tag k="capacity" v="65" />
		<tag k="max_age" v="5" />
		<tag k="min_age" v="1" />
		<tag k="name" v="Soltun gårdsbarnehage" />
		<tag k="no-barnehage:nsrid" v="1021766" />
		<tag k="operator" v="Soltun Gårdsbarnehage AS" />
		<tag k="operator:type" v="private" />
	</node>
	<node id="-107" lat="59.27989" lon="11.08786">
		<tag k="amenity" v="kindergarten" />
		<tag k="capacity" v="83" />
		<tag k="contact:website" v="http://www.snarveienbarnehage.no" />
		<tag k="max_age" v="5" />
		<tag k="min_age" v="1" />
		<tag k="name" v="Snarveien FUS barnehage" />
		<tag k="no-barnehage:nsrid" v="1021131" />
		<tag k="operator" v="Snarveien Fus barnehage AS" />
		<tag k="operator:type" v="private" />
	</node>
	<node id="-105" lat="59.26437" lon="11.1428">
		<tag k="amenity" v="kindergarten" />
		<tag k="capacity" v="108" />
		<tag k="contact:website" v="http://www.skogro.no" />
		<tag k="max_age" v="5" />
		<tag k="min_age" v="1" />
		<tag k="name" v="Skogro barnehage" />
		<tag k="no-barnehage:nsrid" v="1020993" />
		<tag k="operator" v="Skogro barnehage AS" />
		<tag k="operator:type" v="private" />
	</node>
	<node id="-104" lat="59.29913" lon="11.11159">
		<tag k="amenity" v="kindergarten" />
		<tag k="capacity" v="104" />
		<tag k="contact:website" v="http://www.sarpsborg.com/barn-og-skole/barnehage/sarpsborgmarkabarnehage/" />
		<tag k="max_age" v="5" />
		<tag k="min_age" v="1" />
		<tag k="name" v="Sarpsborgmarka barnehage Reggio Emilia-inspirert naturgruppe" />
		<tag k="no-barnehage:nsrid" v="1017367" />
		<tag k="operator" v="Sarpsborg kommune" />
		<tag k="operator:type" v="public" />
	</node>
	<node id="-103" lat="59.24673" lon="11.18262">
		<tag k="amenity" v="kindergarten" />
		<tag k="capacity" v="98" />
		<tag k="contact:website" v="http://www.sarpsborg.com/barn-og-skole/barnehage/sandbakken-barnehage/" />
		<tag k="max_age" v="5" />
		<tag k="min_age" v="1" />
		<tag k="name" v="Sandbakken barnehage Reggio Emilia-inspirert naturgruppe" />
		<tag k="no-barnehage:nsrid" v="1014002" />
		<tag k="operator" v="Sarpsborg kommune" />
		<tag k="operator:type" v="public" />
	</node>
	<node id="-99" lat="59.2726" lon="11.17257">
		<tag k="amenity" v="kindergarten" />
		<tag k="capacity" v="52" />
		<tag k="contact:website" v="http://nygardshaugen.no" />
		<tag k="max_age" v="5" />
		<tag k="min_age" v="1" />
		<tag k="name" v="Nygårdshaugen barnehage" />
		<tag k="no-barnehage:nsrid" v="1019929" />
		<tag k="operator" v="Nygårdshaugen barnehage Sa" />
		<tag k="operator:type" v="private" />
	</node>
	<node id="-98" lat="59.20198" lon="11.20336">
		<tag k="amenity" v="kindergarten" />
		<tag k="capacity" v="38" />
		<tag k="contact:website" v="http://lokkebhg.no" />
		<tag k="max_age" v="5" />
		<tag k="min_age" v="1" />
		<tag k="name" v="Løkke barnehage" />
		<tag k="no-barnehage:nsrid" v="1019647" />
		<tag k="operator" v="Løkke barnehage Sa" />
		<tag k="operator:type" v="private" />
	</node>
	<node id="-97" lat="59.27585" lon="11.04202">
		<tag k="amenity" v="kindergarten" />
		<tag k="capacity" v="69" />
		<tag k="contact:website" v="http://laringsverkstedet.no/" />
		<tag k="max_age" v="5" />
		<tag k="min_age" v="1" />
		<tag k="name" v="Læringsverkstedet barnehage avd. Hinkenhopp" />
		<tag k="no-barnehage:nsrid" v="1013013" />
		<tag k="operator" v="Læringsverkstedet AS" />
		<tag k="operator:type" v="private" />
	</node>
	<node id="-96" lat="59.29364" lon="11.07757">
		<tag k="amenity" v="kindergarten" />
		<tag k="capacity" v="165" />
		<tag k="max_age" v="5" />
		<tag k="min_age" v="1" />
		<tag k="name" v="Læringsverkstedet barnehage avd. Store Tune gård barnehage" />
		<tag k="no-barnehage:nsrid" v="1021389" />
		<tag k="operator" v="Læringsverkstedet AS" />
		<tag k="operator:type" v="private" />
	</node>
	<node id="-95" lat="59.27908" lon="11.19266">
		<tag k="amenity" v="kindergarten" />
		<tag k="capacity" v="92" />
		<tag k="max_age" v="5" />
		<tag k="min_age" v="1" />
		<tag k="name" v="Læringsverkstedet barnehage avd. Kløvningsten" />
		<tag k="no-barnehage:nsrid" v="1012976" />
		<tag k="operator" v="Læringsverkstedet AS" />
		<tag k="operator:type" v="private" />
	</node>
	<node id="-94" lat="59.16497" lon="11.14306">
		<tag k="amenity" v="kindergarten" />
		<tag k="capacity" v="30" />
		<tag k="max_age" v="5" />
		<tag k="min_age" v="1" />
		<tag k="name" v="Læringsverkstedet barnehage avd. Ullerøy" />
		<tag k="no-barnehage:nsrid" v="1016769" />
		<tag k="operator" v="Læringsverkstedet AS" />
		<tag k="operator:type" v="private" />
	</node>
	<node id="-93" lat="59.27746" lon="11.11894">
		<tag k="amenity" v="kindergarten" />
		<tag k="capacity" v="25" />
		<tag k="contact:website" v="http://laringsverkstedet.no/barnehage/bamsebo" />
		<tag k="max_age" v="5" />
		<tag k="min_age" v="1" />
		<tag k="name" v="Læringsverkstedet barnehage avd. Bamsebo" />
		<tag k="no-barnehage:nsrid" v="1019772" />
		<tag k="operator" v="Læringsverkstedet AS" />
		<tag k="operator:type" v="private" />
	</node>
	<node id="-92" lat="59.26682" lon="11.03249">
		<tag k="amenity" v="kindergarten" />
		<tag k="capacity" v="60" />
		<tag k="contact:website" v="http://laringsverkstedet.no/greaker" />
		<tag k="max_age" v="5" />
		<tag k="min_age" v="1" />
		<tag k="name" v="Læringsverkstedet barnehage avd. Doremi Greåker" />
		<tag k="no-barnehage:nsrid" v="1012601" />
		<tag k="operator" v="Læringsverkstedet AS" />
		<tag k="operator:type" v="private" />
	</node>
	<node id="-91" lat="59.2935" lon="11.0967">
		<tag k="amenity" v="kindergarten" />
		<tag k="capacity" v="66" />
		<tag k="contact:website" v="http://www.aadalenbarnehager.no" />
		<tag k="max_age" v="5" />
		<tag k="min_age" v="1" />
		<tag k="name" v="Lande gård barnehage" />
		<tag k="no-barnehage:nsrid" v="1013483" />
		<tag k="operator" v="Lande Gård barnehage AS" />
		<tag k="operator:type" v="private" />
	</node>
	<node id="-90" lat="59.27929" lon="11.11663">
		<tag k="amenity" v="kindergarten" />
		<tag k="capacity" v="68" />
		<tag k="max_age" v="5" />
		<tag k="min_age" v="1" />
		<tag k="name" v="Kulås barnehage" />
		<tag k="no-barnehage:nsrid" v="1017036" />
		<tag k="operator" v="Borg Barnehager AS" />
		<tag k="operator:type" v="private" />
	</node>
	<node id="-89" lat="59.31806" lon="11.16222">
		<tag k="amenity" v="kindergarten" />
		<tag k="capacity" v="40" />
		<tag k="max_age" v="5" />
		<tag k="min_age" v="1" />
		<tag k="name" v="Hasle barnehage" />
		<tag k="no-barnehage:nsrid" v="1019623" />
		<tag k="operator" v="Hasle Menighetssenter" />
		<tag k="operator:type" v="private" />
	</node>
	<node id="-88" lat="59.27072" lon="11.0593">
		<tag k="amenity" v="kindergarten" />
		<tag k="capacity" v="104" />
		<tag k="max_age" v="5" />
		<tag k="min_age" v="1" />
		<tag k="name" v="Hannestad barnehage" />
		<tag k="no-barnehage:nsrid" v="1018467" />
		<tag k="operator" v="Borg Barnehager AS" />
		<tag k="operator:type" v="private" />
	</node>
	<node id="-87" lat="59.29673" lon="11.15266">
		<tag k="amenity" v="kindergarten" />
		<tag k="capacity" v="97" />
		<tag k="contact:website" v="http://www.sarpsborg.com/hafslundsoybarnehage" />
		<tag k="max_age" v="5" />
		<tag k="min_age" v="1" />
		<tag k="name" v="Hafslundsøy barnehage" />
		<tag k="no-barnehage:nsrid" v="1017494" />
		<tag k="operator" v="Sarpsborg kommune" />
		<tag k="operator:type" v="public" />
	</node>
	<node id="-86" lat="59.27952" lon="11.10006">
		<tag k="amenity" v="kindergarten" />
		<tag k="capacity" v="64" />
		<tag k="max_age" v="5" />
		<tag k="min_age" v="1" />
		<tag k="name" v="Grotterødløkka" />
		<tag k="no-barnehage:nsrid" v="1021248" />
		<tag k="operator" v="Grotterødløkka AS" />
		<tag k="operator:type" v="private" />
	</node>
	<node id="-85" lat="59.28736" lon="11.11471">
		<tag k="amenity" v="kindergarten" />
		<tag k="capacity" v="67" />
		<tag k="contact:website" v="http://www.sarpsborg.com/barn-og-skole/barnehage/fritznerbakken-barnehage/#/" />
		<tag k="max_age" v="5" />
		<tag k="min_age" v="1" />
		<tag k="name" v="Fritznerbakken barnehage" />
		<tag k="no-barnehage:nsrid" v="1017507" />
		<tag k="operator" v="Sarpsborg kommune" />
		<tag k="operator:type" v="public" />
	</node>
	<node id="-84" lat="59.2559" lon="11.18079">
		<tag k="amenity" v="kindergarten" />
		<tag k="capacity" v="44" />
		<tag k="contact:website" v="http://www.sarpsborg.com/barn-og-skole/barnehage/fosbylokka-barnehage/" />
		<tag k="max_age" v="5" />
		<tag k="min_age" v="1" />
		<tag k="name" v="Fosbyløkka barnehage" />
		<tag k="no-barnehage:nsrid" v="1017513" />
		<tag k="operator" v="Sarpsborg kommune" />
		<tag k="operator:type" v="public" />
	</node>
	<node id="-83" lat="59.26665" lon="11.18456">
		<tag k="amenity" v="kindergarten" />
		<tag k="capacity" v="55" />
		<tag k="max_age" v="5" />
		<tag k="min_age" v="1" />
		<tag k="name" v="Fjelldal barnehage" />
		<tag k="no-barnehage:nsrid" v="1021697" />
		<tag k="operator" v="Fjelldal barnehage AS" />
		<tag k="operator:type" v="private" />
	</node>
	<node id="-82" lat="59.26514" lon="11.15997">
		<tag k="amenity" v="kindergarten" />
		<tag k="capacity" v="63" />
		<tag k="max_age" v="5" />
		<tag k="min_age" v="1" />
		<tag k="name" v="Borgen barnehage" />
		<tag k="no-barnehage:nsrid" v="1015548" />
		<tag k="operator" v="Borg Barnehager AS" />
		<tag k="operator:type" v="private" />
	</node>
	<node id="-81" lat="59.27299" lon="11.0897">
		<tag k="amenity" v="kindergarten" />
		<tag k="capacity" v="27" />
		<tag k="contact:website" v="http://bikuben.barnehageside.no" />
		<tag k="max_age" v="5" />
		<tag k="min_age" v="1" />
		<tag k="name" v="Bikuben barnehage" />
		<tag k="no-barnehage:nsrid" v="1022436" />
		<tag k="operator" v="Bikuben barnehage AS" />
		<tag k="operator:type" v="private" />
	</node>
	<node id="-80" lat="59.31033" lon="11.12251">
		<tag k="amenity" v="kindergarten" />
		<tag k="capacity" v="52" />
		<tag k="contact:website" v="http://bergsvingen.no" />
		<tag k="max_age" v="5" />
		<tag k="min_age" v="1" />
		<tag k="name" v="Bergsvingen barnehage" />
		<tag k="no-barnehage:nsrid" v="1019971" />
		<tag k="operator" v="Bergsvingen barnehage Sa" />
		<tag k="operator:type" v="private" />
	</node>
	<node id="-79" lat="59.2743" lon="11.1909">
		<tag k="amenity" v="kindergarten" />
		<tag k="name" v="Bekketroll familiebarnehage" />
		<tag k="no-barnehage:nsrid" v="1022310" />
		<tag k="operator" v="Ellen Marie Bekkevold" />
		<tag k="operator:type" v="private" />
	</node>
	<node id="-78" lat="59.26834" lon="11.14473">
		<tag k="amenity" v="kindergarten" />
		<tag k="capacity" v="80" />
		<tag k="max_age" v="5" />
		<tag k="min_age" v="1" />
		<tag k="name" v="Baneveien barnehage avd. Baneveien" />
		<tag k="no-barnehage:nsrid" v="1021767" />
		<tag k="operator" v="Baneveien barnehage AS" />
		<tag k="operator:type" v="private" />
	</node>
	<node id="-77" lat="59.26839" lon="11.15172">
		<tag k="amenity" v="kindergarten" />
		<tag k="capacity" v="34" />
		<tag k="max_age" v="5" />
		<tag k="min_age" v="1" />
		<tag k="name" v="Baneveien barnehage avd. Mobakken" />
		<tag k="no-barnehage:nsrid" v="1025948" />
		<tag k="operator" v="Baneveien barnehage AS" />
		<tag k="operator:type" v="private" />
	</node>
	<node id="-76" lat="59.2791" lon="11.08497">
		<tag k="amenity" v="kindergarten" />
		<tag k="capacity" v="79" />
		<tag k="max_age" v="5" />
		<tag k="min_age" v="1" />
		<tag k="name" v="Askeladden barnehage Borg avd. Albert Moeskausvei 23/25" />
		<tag k="no-barnehage:nsrid" v="1021225" />
		<tag k="operator" v="Askeladden barnehage Borg AS" />
		<tag k="operator:type" v="private" />
	</node>
	<node id="-71" lat="59.28714" lon="11.11164">
		<tag k="amenity" v="kindergarten" />
		<tag k="capacity" v="39" />
		<tag k="max_age" v="5" />
		<tag k="min_age" v="1" />
		<tag k="name" v="Askeladden barnehage Borg avd. Færdersgate" />
		<tag k="no-barnehage:nsrid" v="1025490" />
		<tag k="operator" v="Askeladden barnehage Borg AS" />
		<tag k="operator:type" v="private" />
	</node>
</osm>
