<?xml version="1.0" encoding="UTF-8"?>
<osm generator="osmapis" version="0.6">
	<node id="-118" lat="59.3512" lon="11.1836">
		<tag k="amenity" v="kindergarten" />
		<tag k="capacity" v="26" />
		<tag k="contact:email" v="marita.halaas@sarpsborg.com" />
		<tag k="max_age" v="5" />
		<tag k="min_age" v="1" />
		<tag k="name" v="Varteig barnehage" />
		<tag k="no-barnehage:nsrid" v="1017864" />
		<tag k="operator" v="Sarpsborg kommune" />
		<tag k="operator:type" v="public" />
		<tag k="start_date" v="2007-01-01" />
	</node>
	<node id="-117" lat="59.2882" lon="11.0916">
		<tag k="amenity" v="kindergarten" />
		<tag k="capacity" v="60" />
		<tag k="contact:email" v="anders-grydeland.ek@sarpsborg.com" />
		<tag k="max_age" v="5" />
		<tag k="min_age" v="1" />
		<tag k="name" v="Valaskjold barnehage" />
		<tag k="no-barnehage:nsrid" v="1017355" />
		<tag k="operator" v="Sarpsborg kommune" />
		<tag k="operator:type" v="public" />
		<tag k="start_date" v="1976-01-01" />
	</node>
	<node id="-116" lat="59.27712" lon="11.03547">
		<tag k="amenity" v="kindergarten" />
		<tag k="capacity" v="70" />
		<tag k="contact:email" v="tyrihansbhg@gmail.com" />
		<tag k="contact:phone" v="+47 69 13 91 10" />
		<tag k="contact:website" v="http://tyrihansbhg.no" />
		<tag k="max_age" v="5" />
		<tag k="min_age" v="1" />
		<tag k="name" v="Tyrihans barnehage" />
		<tag k="no-barnehage:nsrid" v="1020221" />
		<tag k="operator" v="Tyrihans barnehage Sa" />
		<tag k="operator:type" v="private" />
		<tag k="start_date" v="1991-05-06" />
	</node>
	<node id="-115" lat="59.2457" lon="11.2133">
		<tag k="amenity" v="kindergarten" />
		<tag k="capacity" v="28" />
		<tag k="contact:email" v="lena@barnehagenett.no" />
		<tag k="max_age" v="5" />
		<tag k="min_age" v="1" />
		<tag k="name" v="Tveterhytta barnehage" />
		<tag k="no-barnehage:nsrid" v="1017035" />
		<tag k="operator" v="Borg Barnehager AS" />
		<tag k="operator:type" v="private" />
		<tag k="start_date" v="2004-11-30" />
	</node>
	<node id="-114" lat="59.27598" lon="11.05244">
		<tag k="amenity" v="kindergarten" />
		<tag k="capacity" v="52" />
		<tag k="contact:email" v="tuneskipet@barnehage.no" />
		<tag k="contact:phone" v="+47 69 14 51 85" />
		<tag k="contact:website" v="http://tuneskipet.no" />
		<tag k="max_age" v="5" />
		<tag k="min_age" v="1" />
		<tag k="name" v="Tuneskipet barnehage" />
		<tag k="no-barnehage:nsrid" v="1019985" />
		<tag k="operator" v="Tuneskipet barnehage Sa" />
		<tag k="operator:type" v="private" />
		<tag k="start_date" v="1992-01-01" />
	</node>
	<node id="-113" lat="59.2843" lon="11.051">
		<tag k="amenity" v="kindergarten" />
		<tag k="capacity" v="90" />
		<tag k="contact:email" v="merete@barnehagenett.no" />
		<tag k="contact:phone" v="+47 69 10 45 80" />
		<tag k="max_age" v="5" />
		<tag k="min_age" v="1" />
		<tag k="name" v="Tubus Idrettsbarnehage" />
		<tag k="no-barnehage:nsrid" v="1015445" />
		<tag k="operator" v="Borg Barnehager AS" />
		<tag k="operator:type" v="private" />
		<tag k="start_date" v="1990-08-01" />
	</node>
	<node id="-111" lat="59.2732" lon="11.0447">
		<tag k="amenity" v="kindergarten" />
		<tag k="capacity" v="106" />
		<tag k="contact:email" v="marit.samuelsen@sarpsborg.com" />
		<tag k="max_age" v="5" />
		<tag k="min_age" v="1" />
		<tag k="name" v="Tindlund barnehage" />
		<tag k="no-barnehage:nsrid" v="1017354" />
		<tag k="operator" v="Sarpsborg kommune" />
		<tag k="operator:type" v="public" />
		<tag k="start_date" v="1976-01-01" />
	</node>
	<node id="-110" lat="59.2951" lon="11.1127">
		<tag k="amenity" v="kindergarten" />
		<tag k="capacity" v="121" />
		<tag k="contact:email" v="linda@barnehagenett.no" />
		<tag k="contact:website" v="http://www.barnehagenett.no/public/storeper-barnehage/" />
		<tag k="max_age" v="5" />
		<tag k="min_age" v="1" />
		<tag k="name" v="Storeper barnehage" />
		<tag k="no-barnehage:nsrid" v="1014205" />
		<tag k="operator" v="Borg Barnehager AS" />
		<tag k="operator:type" v="private" />
		<tag k="start_date" v="2010-07-01" />
	</node>
	<node id="-109" lat="59.29364" lon="11.07758">
		<tag k="amenity" v="kindergarten" />
		<tag k="capacity" v="164" />
		<tag k="contact:email" v="storetunegaard@laringsverkstedet.no" />
		<tag k="contact:phone" v="+47 69879900" />
		<tag k="contact:website" v="http://www.laringsverkstedet.no/store-tune-gard-barnehage-as" />
		<tag k="max_age" v="5" />
		<tag k="min_age" v="1" />
		<tag k="name" v="Store Tune Gård barnehage AS" />
		<tag k="no-barnehage:nsrid" v="1021389" />
		<tag k="operator" v="Store Tune Gård barnehage AS" />
		<tag k="operator:type" v="private" />
		<tag k="start_date" v="2006-02-08" />
	</node>
	<node id="-108" lat="59.2097" lon="11.1976">
		<tag k="amenity" v="kindergarten" />
		<tag k="capacity" v="36" />
		<tag k="contact:email" v="marita.halaas@sarpsborg.com" />
		<tag k="max_age" v="5" />
		<tag k="min_age" v="1" />
		<tag k="name" v="Stasjonsbyen barnehage" />
		<tag k="no-barnehage:nsrid" v="1013930" />
		<tag k="operator" v="Sarpsborg kommune" />
		<tag k="operator:type" v="public" />
		<tag k="start_date" v="1990-01-01" />
	</node>
	<node id="-107" lat="59.2813" lon="11.1048">
		<tag k="amenity" v="kindergarten" />
		<tag k="capacity" v="25" />
		<tag k="contact:email" v="angy@sarpsborg.com" />
		<tag k="max_age" v="5" />
		<tag k="min_age" v="1" />
		<tag k="name" v="St Olavs barnehage" />
		<tag k="no-barnehage:nsrid" v="1017508" />
		<tag k="operator" v="Sarpsborg kommune" />
		<tag k="operator:type" v="public" />
		<tag k="start_date" v="1988-04-01" />
	</node>
	<node id="-106" lat="59.29802" lon="11.21549">
		<tag k="amenity" v="kindergarten" />
		<tag k="capacity" v="65" />
		<tag k="contact:email" v="post@soltunbhg.no" />
		<tag k="max_age" v="5" />
		<tag k="min_age" v="1" />
		<tag k="name" v="Soltun Gårdsbarnehage AS" />
		<tag k="no-barnehage:nsrid" v="1021766" />
		<tag k="operator" v="Soltun Gårdsbarnehage AS" />
		<tag k="operator:type" v="private" />
		<tag k="start_date" v="1997-07-31" />
	</node>
	<node id="-105" lat="59.27989" lon="11.08786">
		<tag k="amenity" v="kindergarten" />
		<tag k="capacity" v="88" />
		<tag k="contact:email" v="dl.snarveien@bhg.no" />
		<tag k="contact:phone" v="+47 69 15 50 90" />
		<tag k="contact:website" v="http://www.snarveienbarnehage.no" />
		<tag k="max_age" v="5" />
		<tag k="min_age" v="1" />
		<tag k="name" v="Snarveien Fus barnehage AS" />
		<tag k="no-barnehage:nsrid" v="1021131" />
		<tag k="operator" v="Snarveien Fus barnehage AS" />
		<tag k="operator:type" v="private" />
		<tag k="start_date" v="2004-09-24" />
	</node>
	<node id="-103" lat="59.26326" lon="11.14281">
		<tag k="amenity" v="kindergarten" />
		<tag k="capacity" v="106" />
		<tag k="contact:email" v="skogro@skogro.no" />
		<tag k="max_age" v="5" />
		<tag k="min_age" v="1" />
		<tag k="name" v="Skogro barnehage" />
		<tag k="no-barnehage:nsrid" v="1020993" />
		<tag k="operator" v="Skogro barnehage AS" />
		<tag k="operator:type" v="private" />
		<tag k="start_date" v="2013-09-01" />
	</node>
	<node id="-102" lat="59.2479" lon="11.1801">
		<tag k="amenity" v="kindergarten" />
		<tag k="capacity" v="99" />
		<tag k="contact:email" v="kaha@sarpsborg.com" />
		<tag k="max_age" v="5" />
		<tag k="min_age" v="1" />
		<tag k="name" v="Sandbakken barnehage" />
		<tag k="no-barnehage:nsrid" v="1014002" />
		<tag k="operator" v="Sarpsborg kommune" />
		<tag k="operator:type" v="public" />
		<tag k="start_date" v="2009-08-01" />
	</node>
	<node id="-99" lat="59.2991" lon="11.1116">
		<tag k="amenity" v="kindergarten" />
		<tag k="capacity" v="58" />
		<tag k="contact:email" v="insi@sarpsborg.com" />
		<tag k="contact:phone" v="+47 69125926" />
		<tag k="max_age" v="5" />
		<tag k="min_age" v="1" />
		<tag k="name" v="Per Gyntveien barnehage" />
		<tag k="no-barnehage:nsrid" v="1017515" />
		<tag k="operator" v="Sarpsborg kommune" />
		<tag k="operator:type" v="public" />
		<tag k="start_date" v="1988-04-01" />
	</node>
	<node id="-97" lat="59.2726" lon="11.17256">
		<tag k="amenity" v="kindergarten" />
		<tag k="capacity" v="53" />
		<tag k="contact:email" v="post@nygardshaugen.no" />
		<tag k="contact:phone" v="+47 69 16 44 10" />
		<tag k="contact:website" v="http://nygardshaugen.no" />
		<tag k="max_age" v="5" />
		<tag k="min_age" v="1" />
		<tag k="name" v="Nygårdshaugen barnehage Sa" />
		<tag k="no-barnehage:nsrid" v="1019929" />
		<tag k="operator" v="Nygårdshaugen barnehage Sa" />
		<tag k="operator:type" v="private" />
		<tag k="start_date" v="1990-01-01" />
	</node>
	<node id="-96" lat="59.21147" lon="11.19029">
		<tag k="amenity" v="kindergarten" />
		<tag k="capacity" v="39" />
		<tag k="contact:email" v="monica@lokkebhg.no" />
		<tag k="contact:phone" v="+47 069161141" />
		<tag k="contact:website" v="http://lokke.barnehageside.no" />
		<tag k="max_age" v="5" />
		<tag k="min_age" v="1" />
		<tag k="name" v="Løkke barnehage Sa" />
		<tag k="no-barnehage:nsrid" v="1019647" />
		<tag k="operator" v="Løkke barnehage Sa" />
		<tag k="operator:type" v="private" />
		<tag k="start_date" v="1988-01-01" />
	</node>
	<node id="-95" lat="59.165" lon="11.1431">
		<tag k="amenity" v="kindergarten" />
		<tag k="capacity" v="31" />
		<tag k="contact:email" v="ulleroy@laringsverkstedet.no" />
		<tag k="contact:phone" v="+47 98872477" />
		<tag k="max_age" v="5" />
		<tag k="min_age" v="1" />
		<tag k="name" v="Læringsverkstedet barnehage Avd Ullerøy" />
		<tag k="no-barnehage:nsrid" v="1016769" />
		<tag k="operator" v="Læringsverkstedet AS" />
		<tag k="operator:type" v="private" />
		<tag k="start_date" v="1995-08-11" />
	</node>
	<node id="-94" lat="59.2791" lon="11.1927">
		<tag k="amenity" v="kindergarten" />
		<tag k="capacity" v="97" />
		<tag k="contact:email" v="bhg.kloevningsten@laringsverkstedet.no" />
		<tag k="max_age" v="5" />
		<tag k="min_age" v="1" />
		<tag k="name" v="Læringsverkstedet barnehage Avd Kløvningsten" />
		<tag k="no-barnehage:nsrid" v="1012976" />
		<tag k="operator" v="Læringsverkstedet AS" />
		<tag k="operator:type" v="private" />
		<tag k="start_date" v="2004-01-13" />
	</node>
	<node id="-93" lat="59.2754" lon="11.0425">
		<tag k="amenity" v="kindergarten" />
		<tag k="capacity" v="71" />
		<tag k="contact:email" v="kontor@laringsverkstedet.no" />
		<tag k="max_age" v="5" />
		<tag k="min_age" v="1" />
		<tag k="name" v="Læringsverkstedet barnehage Avd Hinkenhopp" />
		<tag k="no-barnehage:nsrid" v="1013013" />
		<tag k="operator" v="Læringsverkstedet AS" />
		<tag k="operator:type" v="private" />
		<tag k="start_date" v="2004-05-05" />
	</node>
	<node id="-92" lat="59.2668" lon="11.0325">
		<tag k="amenity" v="kindergarten" />
		<tag k="capacity" v="59" />
		<tag k="contact:email" v="greaker@laringsverkstedet.no" />
		<tag k="contact:phone" v="+47 37 07 15 41" />
		<tag k="contact:website" v="http://laringsverkstedet.no/greaker" />
		<tag k="max_age" v="5" />
		<tag k="min_age" v="1" />
		<tag k="name" v="Læringsverkstedet barnehage Avd Doremi Greåker" />
		<tag k="no-barnehage:nsrid" v="1012601" />
		<tag k="operator" v="Læringsverkstedet AS" />
		<tag k="operator:type" v="private" />
		<tag k="start_date" v="1998-04-01" />
	</node>
	<node id="-91" lat="59.27746" lon="11.11895">
		<tag k="amenity" v="kindergarten" />
		<tag k="capacity" v="24" />
		<tag k="contact:email" v="bamsebo@laringsverkstedet.no" />
		<tag k="contact:phone" v="+47 37071513" />
		<tag k="contact:website" v="http://laringsverkstedet.no/bamsebo" />
		<tag k="max_age" v="5" />
		<tag k="min_age" v="1" />
		<tag k="name" v="Læringsverkstedet barnehage Avd Bamsebo" />
		<tag k="no-barnehage:nsrid" v="1019772" />
		<tag k="operator" v="Læringsverkstedet AS" />
		<tag k="operator:type" v="private" />
		<tag k="start_date" v="1989-01-01" />
	</node>
	<node id="-90" lat="59.2931" lon="11.0957">
		<tag k="amenity" v="kindergarten" />
		<tag k="capacity" v="66" />
		<tag k="contact:email" v="therese@aadalenbarnehager.no" />
		<tag k="contact:phone" v="+47 948 85 680" />
		<tag k="contact:website" v="http://www.aadalenbarnehager.no" />
		<tag k="max_age" v="5" />
		<tag k="min_age" v="1" />
		<tag k="name" v="Lande Gård barnehage" />
		<tag k="no-barnehage:nsrid" v="1013483" />
		<tag k="operator" v="Ådalen Barnehager AS" />
		<tag k="operator:type" v="private" />
		<tag k="start_date" v="2010-01-01" />
	</node>
	<node id="-89" lat="59.2999" lon="11.1115">
		<tag k="amenity" v="kindergarten" />
		<tag k="capacity" v="59" />
		<tag k="contact:email" v="karin.olsen@sarpsborg.com" />
		<tag k="max_age" v="5" />
		<tag k="min_age" v="1" />
		<tag k="name" v="Kurland barnehage" />
		<tag k="no-barnehage:nsrid" v="1017367" />
		<tag k="operator" v="Sarpsborg kommune" />
		<tag k="operator:type" v="public" />
		<tag k="start_date" v="1976-01-01" />
	</node>
	<node id="-88" lat="59.2793" lon="11.1166">
		<tag k="amenity" v="kindergarten" />
		<tag k="capacity" v="68" />
		<tag k="contact:email" v="vegar@barnehagenett.no" />
		<tag k="contact:phone" v="+47 69149400" />
		<tag k="max_age" v="5" />
		<tag k="min_age" v="1" />
		<tag k="name" v="Kulås barnehage" />
		<tag k="no-barnehage:nsrid" v="1017036" />
		<tag k="operator" v="Borg Barnehager AS" />
		<tag k="operator:type" v="private" />
		<tag k="start_date" v="2005-07-29" />
	</node>
	<node id="-86" lat="59.31806" lon="11.16222">
		<tag k="amenity" v="kindergarten" />
		<tag k="capacity" v="39" />
		<tag k="contact:email" v="styrer@hasle-barnehage.no" />
		<tag k="contact:phone" v="+47 69 13 12 33" />
		<tag k="max_age" v="5" />
		<tag k="min_age" v="1" />
		<tag k="name" v="Hasle barnehage" />
		<tag k="no-barnehage:nsrid" v="1019623" />
		<tag k="operator" v="Hasle Menighetssenter" />
		<tag k="operator:type" v="private" />
		<tag k="start_date" v="1982-01-01" />
	</node>
	<node id="-85" lat="59.2707" lon="11.0593">
		<tag k="amenity" v="kindergarten" />
		<tag k="capacity" v="104" />
		<tag k="contact:email" v="linnca@barnehagenett.no" />
		<tag k="contact:phone" v="+47 97778161" />
		<tag k="max_age" v="5" />
		<tag k="min_age" v="1" />
		<tag k="name" v="Hannestad barnehage" />
		<tag k="no-barnehage:nsrid" v="1018467" />
		<tag k="operator" v="Borg Barnehager AS" />
		<tag k="operator:type" v="private" />
		<tag k="start_date" v="2008-08-25" />
	</node>
	<node id="-84" lat="59.2968" lon="11.1526">
		<tag k="amenity" v="kindergarten" />
		<tag k="capacity" v="96" />
		<tag k="contact:email" v="tove-beate.larsen@sarpsborg.com" />
		<tag k="max_age" v="5" />
		<tag k="min_age" v="1" />
		<tag k="name" v="Hafslundsøy barnehage" />
		<tag k="no-barnehage:nsrid" v="1017494" />
		<tag k="operator" v="Sarpsborg kommune" />
		<tag k="operator:type" v="public" />
		<tag k="start_date" v="1988-01-01" />
	</node>
	<node id="-83" lat="59.27952" lon="11.10006">
		<tag k="amenity" v="kindergarten" />
		<tag k="capacity" v="66" />
		<tag k="contact:email" v="migras@migras.no" />
		<tag k="contact:phone" v="+47 69 16 10 55" />
		<tag k="max_age" v="5" />
		<tag k="min_age" v="1" />
		<tag k="name" v="Grotterødløkka AS" />
		<tag k="no-barnehage:nsrid" v="1021248" />
		<tag k="operator" v="Grotterødløkka AS" />
		<tag k="operator:type" v="private" />
		<tag k="start_date" v="2005-05-12" />
	</node>
	<node id="-82" lat="59.2874" lon="11.1147">
		<tag k="amenity" v="kindergarten" />
		<tag k="capacity" v="77" />
		<tag k="contact:email" v="lars-thomas.flekkum@sarpsborg.com" />
		<tag k="max_age" v="5" />
		<tag k="min_age" v="1" />
		<tag k="name" v="Fritznerbakken barnehage" />
		<tag k="no-barnehage:nsrid" v="1017507" />
		<tag k="operator" v="Sarpsborg kommune" />
		<tag k="operator:type" v="public" />
		<tag k="start_date" v="1988-04-01" />
	</node>
	<node id="-81" lat="59.2559" lon="11.1808">
		<tag k="amenity" v="kindergarten" />
		<tag k="capacity" v="43" />
		<tag k="contact:email" v="ahei@sarpsborg.com" />
		<tag k="max_age" v="5" />
		<tag k="min_age" v="1" />
		<tag k="name" v="Fosbyløkka barnehage" />
		<tag k="no-barnehage:nsrid" v="1017513" />
		<tag k="operator" v="Sarpsborg kommune" />
		<tag k="operator:type" v="public" />
		<tag k="start_date" v="1988-04-01" />
	</node>
	<node id="-80" lat="59.26664" lon="11.18456">
		<tag k="amenity" v="kindergarten" />
		<tag k="capacity" v="53" />
		<tag k="contact:email" v="bente@barnehagenett.no" />
		<tag k="contact:phone" v="+47 69 16 62 70" />
		<tag k="max_age" v="5" />
		<tag k="min_age" v="1" />
		<tag k="name" v="Fjelldal barnehage AS" />
		<tag k="no-barnehage:nsrid" v="1021697" />
		<tag k="operator" v="Fjelldal barnehage AS" />
		<tag k="operator:type" v="private" />
		<tag k="start_date" v="1993-02-01" />
	</node>
	<node id="-79" lat="59.2651" lon="11.16">
		<tag k="amenity" v="kindergarten" />
		<tag k="capacity" v="62" />
		<tag k="contact:email" v="petter@barnehagenett.no" />
		<tag k="max_age" v="5" />
		<tag k="min_age" v="1" />
		<tag k="name" v="Borgen barnehage" />
		<tag k="no-barnehage:nsrid" v="1015548" />
		<tag k="operator" v="Borg Barnehager AS" />
		<tag k="operator:type" v="private" />
		<tag k="start_date" v="1982-01-01" />
	</node>
	<node id="-78" lat="59.27299" lon="11.0897">
		<tag k="amenity" v="kindergarten" />
		<tag k="capacity" v="26" />
		<tag k="contact:email" v="anettemat@hotmail.com" />
		<tag k="contact:phone" v="+47 69 15 52 10" />
		<tag k="max_age" v="5" />
		<tag k="min_age" v="1" />
		<tag k="name" v="Bikuben barnehage AS" />
		<tag k="no-barnehage:nsrid" v="1022436" />
		<tag k="operator" v="Bikuben barnehage AS" />
		<tag k="operator:type" v="private" />
		<tag k="start_date" v="2004-08-16" />
	</node>
	<node id="-77" lat="59.31033" lon="11.12251">
		<tag k="amenity" v="kindergarten" />
		<tag k="capacity" v="49" />
		<tag k="contact:email" v="mail@bergsvingen.no" />
		<tag k="contact:phone" v="+47 69120770" />
		<tag k="max_age" v="5" />
		<tag k="min_age" v="1" />
		<tag k="name" v="Bergsvingen barnehage" />
		<tag k="no-barnehage:nsrid" v="1019971" />
		<tag k="operator" v="Bergsvingen barnehage Sa" />
		<tag k="operator:type" v="private" />
		<tag k="start_date" v="1991-01-01" />
	</node>
	<node id="-76" lat="59.27433" lon="11.13251">
		<tag k="amenity" v="kindergarten" />
		<tag k="capacity" v="29" />
		<tag k="contact:email" v="annkarinreiersen@hotmail.com" />
		<tag k="max_age" v="5" />
		<tag k="min_age" v="1" />
		<tag k="name" v="Baneveien barnehage Avd Mobakken" />
		<tag k="no-barnehage:nsrid" v="1025948" />
		<tag k="operator" v="Baneveien barnehage AS" />
		<tag k="operator:type" v="private" />
		<tag k="start_date" v="2015-05-01" />
	</node>
	<node id="-75" lat="59.26706" lon="11.14546">
		<tag k="amenity" v="kindergarten" />
		<tag k="capacity" v="78" />
		<tag k="contact:email" v="post@baneveienbarnehage.no" />
		<tag k="max_age" v="5" />
		<tag k="min_age" v="1" />
		<tag k="name" v="Baneveien barnehage Avd Baneveien" />
		<tag k="no-barnehage:nsrid" v="1021767" />
		<tag k="operator" v="Baneveien barnehage AS" />
		<tag k="operator:type" v="private" />
		<tag k="start_date" v="2008-01-31" />
	</node>
	<node id="-73" lat="59.27952" lon="11.10006">
		<tag k="amenity" v="kindergarten" />
		<tag k="capacity" v="78" />
		<tag k="contact:email" v="migras@migras.no" />
		<tag k="max_age" v="5" />
		<tag k="min_age" v="1" />
		<tag k="name" v="Askeladden barnehage Borg AS Avd Storgata" />
		<tag k="no-barnehage:nsrid" v="1021225" />
		<tag k="operator" v="Askeladden barnehage Borg AS" />
		<tag k="operator:type" v="private" />
		<tag k="start_date" v="1995-02-22" />
	</node>
	<node id="-70" lat="59.28714" lon="11.11164">
		<tag k="amenity" v="kindergarten" />
		<tag k="capacity" v="37" />
		<tag k="contact:email" v="migras@migras.no" />
		<tag k="max_age" v="5" />
		<tag k="min_age" v="1" />
		<tag k="name" v="Askeladden barnehage Borg AS Avd Færdersgate" />
		<tag k="no-barnehage:nsrid" v="1025490" />
		<tag k="operator" v="Askeladden barnehage Borg AS" />
		<tag k="operator:type" v="private" />
		<tag k="start_date" v="1996-09-25" />
	</node>
</osm>
