<?xml version="1.0" encoding="UTF-8"?>
<osm generator="osmapis" version="0.6">
	<node id="-91" lat="59.26589" lon="11.04628">
		<tag k="amenity" v="kindergarten" />
		<tag k="capacity" v="8" />
		<tag k="contact:email" v="knut@sagatoppen.no" />
		<tag k="contact:phone" v="93 21 68 81" />
		<tag k="max_age" v="2" />
		<tag k="min_age" v="1" />
		<tag k="name" v="Knut Sjøvold Familiebarnehage" />
		<tag k="no-barnehage:nsrid" v="1021460" />
		<tag k="operator" v="Sagatoppen Familiebarnehage Knut-Richard Sjøvold" />
		<tag k="operator:type" v="private" />
		<tag k="start_date" v="2004-04-24" />
	</node>
	<node id="-90" lat="59.30066" lon="11.14931">
		<tag k="amenity" v="kindergarten" />
		<tag k="capacity" v="6" />
		<tag k="contact:email" v="lealarsen@yahoo.no" />
		<tag k="contact:phone" v="451 77 474" />
		<tag k="max_age" v="5" />
		<tag k="min_age" v="1" />
		<tag k="name" v="Kløverengen Familiebarnehage Hafslundsøy Lea Larsen" />
		<tag k="no-barnehage:nsrid" v="1022185" />
		<tag k="operator" v="Kløverengen Familiebarnehage Hafslundsøy Lea Larsen" />
		<tag k="operator:type" v="private" />
		<tag k="start_date" v="2011-05-01" />
	</node>
	<node id="-89" lat="59.25799" lon="11.16722">
		<tag k="amenity" v="kindergarten" />
		<tag k="capacity" v="4" />
		<tag k="contact:email" v="hellejofamiliebarnehage@hotmail.com" />
		<tag k="contact:phone" v="69 16 47 19" />
		<tag k="max_age" v="2" />
		<tag k="min_age" v="1" />
		<tag k="name" v="Hellejo Familiebarnehage Anne Helle Haugan" />
		<tag k="no-barnehage:nsrid" v="1021689" />
		<tag k="operator" v="Hellejo Familiebarnehage Anne Helle Haugan" />
		<tag k="operator:type" v="private" />
		<tag k="start_date" v="2007-07-23" />
	</node>
	<node id="-112" lat="59.27852" lon="11.09733">
		<tag k="amenity" v="kindergarten" />
		<tag k="capacity" v="8" />
		<tag k="contact:email" v="torsbekk@start.no" />
		<tag k="max_age" v="2" />
		<tag k="min_age" v="1" />
		<tag k="name" v="Torsbekkdalen Familiebarnehage" />
		<tag k="no-barnehage:nsrid" v="1020802" />
		<tag k="operator" v="Bente Tømmerholt" />
		<tag k="operator:type" v="private" />
		<tag k="start_date" v="2002-05-27" />
	</node>
	<node id="-104" lat="59.21471" lon="11.08565">
		<tag k="amenity" v="kindergarten" />
		<tag k="capacity" v="13" />
		<tag k="contact:email" v="wilhaan@online.no" />
		<tag k="contact:phone" v="990 01 826" />
		<tag k="max_age" v="5" />
		<tag k="min_age" v="1" />
		<tag k="name" v="Picasso Familiebarnehage Irene Håndlykken" />
		<tag k="no-barnehage:nsrid" v="1022422" />
		<tag k="operator" v="Picasso Familiebarnehage Irene Håndlykken" />
		<tag k="operator:type" v="private" />
		<tag k="start_date" v="2013-09-26" />
	</node>
	<node id="-75" lat="59.26616" lon="11.0368">
		<tag k="amenity" v="kindergarten" />
		<tag k="capacity" v="9" />
		<tag k="contact:email" v="migras@migras.no" />
		<tag k="max_age" v="5" />
		<tag k="min_age" v="1" />
		<tag k="name" v="Askeladden barnehage Borg AS Avd Trollskogen" />
		<tag k="no-barnehage:nsrid" v="1025492" />
		<tag k="operator" v="Askeladden barnehage Borg AS" />
		<tag k="operator:type" v="private" />
		<tag k="start_date" v="1995-10-01" />
	</node>
	<node id="-73" lat="59.2812" lon="11.12423">
		<tag k="amenity" v="kindergarten" />
		<tag k="capacity" v="10" />
		<tag k="contact:email" v="migras@migras.no" />
		<tag k="max_age" v="5" />
		<tag k="min_age" v="1" />
		<tag k="name" v="Askeladden barnehage Borg AS Avd Skjærungen" />
		<tag k="no-barnehage:nsrid" v="1025457" />
		<tag k="operator" v="Askeladden barnehage Borg AS" />
		<tag k="operator:type" v="private" />
		<tag k="start_date" v="1993-08-01" />
	</node>
	<node id="-72" lat="59.2061" lon="11.19215">
		<tag k="amenity" v="kindergarten" />
		<tag k="capacity" v="9" />
		<tag k="contact:email" v="migras@migras.no" />
		<tag k="max_age" v="5" />
		<tag k="min_age" v="1" />
		<tag k="name" v="Askeladden barnehage Borg AS Avd Reveenka" />
		<tag k="no-barnehage:nsrid" v="1025609" />
		<tag k="operator" v="Askeladden barnehage Borg AS" />
		<tag k="operator:type" v="private" />
		<tag k="start_date" v="2010-05-01" />
	</node>
	<node id="-70" lat="59.28787" lon="11.11651">
		<tag k="amenity" v="kindergarten" />
		<tag k="capacity" v="10" />
		<tag k="contact:email" v="migras@migras.no" />
		<tag k="max_age" v="5" />
		<tag k="min_age" v="1" />
		<tag k="name" v="Askeladden barnehage Borg AS Avd Eikeskogen" />
		<tag k="no-barnehage:nsrid" v="1025491" />
		<tag k="operator" v="Askeladden barnehage Borg AS" />
		<tag k="operator:type" v="private" />
		<tag k="start_date" v="1995-03-01" />
	</node>
	<node id="-102" lat="59.21471" lon="11.08565">
		<tag k="amenity" v="kindergarten" />
		<tag k="capacity" v="12" />
		<tag k="contact:email" v="wilhaan@online.no" />
		<tag k="contact:phone" v="99001826" />
		<tag k="max_age" v="5" />
		<tag k="min_age" v="1" />
		<tag k="name" v="Paletten Familiebarnehage" />
		<tag k="no-barnehage:nsrid" v="1021370" />
		<tag k="operator" v="Irene Håndlykken Paletten" />
		<tag k="operator:type" v="private" />
		<tag k="start_date" v="2006-01-01" />
	</node>
	<node id="-107" lat="59.25515" lon="11.12897">
		<tag k="amenity" v="kindergarten" />
		<tag k="capacity" v="8" />
		<tag k="contact:email" v="skogro@skogro.no" />
		<tag k="max_age" v="2" />
		<tag k="min_age" v="1" />
		<tag k="name" v="Skogro Familiebarnehage" />
		<tag k="no-barnehage:nsrid" v="1025456" />
		<tag k="operator" v="Skogro barnehage AS" />
		<tag k="operator:type" v="private" />
		<tag k="start_date" v="2014-08-01" />
	</node>
</osm>
