<?xml version="1.0" encoding="UTF-8"?>
<osm generator="osmapis" version="0.6">
	<node id="-2191" lat="61.088" lon="8.98141">
		<tag k="amenity" v="kindergarten" />
		<tag k="capacity" v="44" />
		<tag k="contact:email" v="monica.seternes@vestre-slidre.kommune.no" />
		<tag k="contact:phone" v="61 34 30 91" />
		<tag k="max_age" v="5" />
		<tag k="min_age" v="1" />
		<tag k="name" v="Slidre barnehage" />
		<tag k="no-barnehage:nsrid" v="1017356" />
		<tag k="operator" v="Vestre Slidre kommune" />
		<tag k="operator:type" v="public" />
		<tag k="start_date" v="1977-10-01" />
	</node>
	<node id="-2190" lat="61.0333" lon="9.05624">
		<tag k="amenity" v="kindergarten" />
		<tag k="capacity" v="41" />
		<tag k="contact:email" v="gunn.britt.haugrud@vestre-slidre.kommune.no" />
		<tag k="contact:phone" v="61 34 41 96" />
		<tag k="max_age" v="5" />
		<tag k="min_age" v="1" />
		<tag k="name" v="RÃ¸n Naturbarnehage" />
		<tag k="no-barnehage:nsrid" v="1016023" />
		<tag k="operator" v="Vestre Slidre kommune" />
		<tag k="operator:type" v="public" />
		<tag k="start_date" v="1976-01-01" />
	</node>
</osm>
