<?xml version="1.0" encoding="UTF-8"?>
<osm generator="osmapis" version="0.6">
	<node id="-5175" lat="63.43891" lon="10.604">
		<tag k="amenity" v="kindergarten" />
		<tag k="capacity" v="10" />
		<tag k="contact:email" v="heidialeksandersen@gmail.com" />
		<tag k="contact:phone" v="+47 92427200" />
		<tag k="max_age" v="5" />
		<tag k="min_age" v="1" />
		<tag k="name" v="Solregn Familiebarnehage AS" />
		<tag k="no-barnehage:nsrid" v="1022330" />
		<tag k="operator" v="Solregn Familiebarnehage AS" />
		<tag k="operator:type" v="private" />
		<tag k="start_date" v="2005-06-10" />
	</node>
	<node id="-5165" lat="63.43395" lon="10.59636">
		<tag k="amenity" v="kindergarten" />
		<tag k="capacity" v="10" />
		<tag k="contact:email" v="kari_jjohannessen@hotmail.com" />
		<tag k="contact:phone" v="+47 73976754" />
		<tag k="max_age" v="5" />
		<tag k="min_age" v="1" />
		<tag k="name" v="Brattbakken barnehage" />
		<tag k="no-barnehage:nsrid" v="1019818" />
		<tag k="operator" v="Brattbakken Familiebarnehage Sa" />
		<tag k="operator:type" v="private" />
		<tag k="start_date" v="1989-01-02" />
	</node>
	<node id="-5178" lat="63.43727" lon="10.62657">
		<tag k="amenity" v="kindergarten" />
		<tag k="capacity" v="10" />
		<tag k="contact:email" v="akwedoe@yahoo.no" />
		<tag k="contact:phone" v="+47 73 97 97 80" />
		<tag k="max_age" v="5" />
		<tag k="min_age" v="1" />
		<tag k="name" v="Torphytta Familiebarnehage Da" />
		<tag k="no-barnehage:nsrid" v="1020581" />
		<tag k="operator" v="Torphytta Familiebarnehage Da" />
		<tag k="operator:type" v="private" />
		<tag k="start_date" v="1999-08-02" />
	</node>
	<node id="-5170" lat="63.44012" lon="10.60317">
		<tag k="amenity" v="kindergarten" />
		<tag k="capacity" v="9" />
		<tag k="contact:email" v="steini@ntebb.no" />
		<tag k="contact:phone" v="+47 73 97 77 71" />
		<tag k="max_age" v="5" />
		<tag k="min_age" v="1" />
		<tag k="name" v="Mumitrollet Fam barnehage Hilde Frogset" />
		<tag k="no-barnehage:nsrid" v="1021012" />
		<tag k="operator" v="Mumitrollet Fam barnehage Hilde Frogset" />
		<tag k="operator:type" v="private" />
		<tag k="start_date" v="2004-03-01" />
	</node>
	<node id="-5179" lat="63.43306" lon="10.59604">
		<tag k="amenity" v="kindergarten" />
		<tag k="capacity" v="8" />
		<tag k="contact:email" v="utsikten.familiebarnehage@yahoo.no" />
		<tag k="contact:phone" v="+47 73 97 88 87" />
		<tag k="max_age" v="5" />
		<tag k="min_age" v="1" />
		<tag k="name" v="Utsikten Familiebarnehage Borghild Lucie Vikhammermo" />
		<tag k="no-barnehage:nsrid" v="1020510" />
		<tag k="operator" v="Utsikten Familiebarnehage Borghild Lucie Vikhammermo" />
		<tag k="operator:type" v="private" />
		<tag k="start_date" v="1998-08-03" />
	</node>
</osm>
