<?xml version="1.0" encoding="UTF-8"?>
<osm generator="osmapis" version="0.6">
	<node id="-5085" lat="63.4345" lon="10.6371">
		<tag k="amenity" v="kindergarten" />
		<tag k="capacity" v="51" />
		<tag k="contact:email" v="turid.janne@malvik.kommune.no" />
		<tag k="contact:phone" v="+47 73 97 71 88" />
		<tag k="max_age" v="5" />
		<tag k="min_age" v="1" />
		<tag k="name" v="Vikhammeråsen barnehage" />
		<tag k="no-barnehage:nsrid" v="1018258" />
		<tag k="operator" v="Malvik kommune" />
		<tag k="operator:type" v="public" />
		<tag k="start_date" v="1989-01-01" />
	</node>
	<node id="-5084" lat="63.4373" lon="10.6266">
		<tag k="amenity" v="kindergarten" />
		<tag k="capacity" v="27" />
		<tag k="contact:email" v="merete.bye@malvik.kommune.no" />
		<tag k="contact:phone" v="+47 73 97 35 74" />
		<tag k="max_age" v="5" />
		<tag k="min_age" v="1" />
		<tag k="name" v="Vikhammer Vestre barnehage" />
		<tag k="no-barnehage:nsrid" v="1012610" />
		<tag k="operator" v="Malvik kommune" />
		<tag k="operator:type" v="public" />
		<tag k="start_date" v="1999-01-01" />
	</node>
	<node id="-5083" lat="63.4108" lon="10.7942">
		<tag k="amenity" v="kindergarten" />
		<tag k="capacity" v="86" />
		<tag k="contact:email" v="tove.skjei@malvik.kommune.no" />
		<tag k="contact:phone" v="+47 73 97 32 40" />
		<tag k="max_age" v="5" />
		<tag k="min_age" v="1" />
		<tag k="name" v="Vidhaugen barnehage" />
		<tag k="no-barnehage:nsrid" v="1015121" />
		<tag k="operator" v="Malvik kommune" />
		<tag k="operator:type" v="public" />
		<tag k="start_date" v="2012-08-01" />
	</node>
	<node id="-5080" lat="63.42195" lon="10.74975">
		<tag k="amenity" v="kindergarten" />
		<tag k="capacity" v="65" />
		<tag k="contact:email" v="frodemon@barnehage.no" />
		<tag k="contact:phone" v="+47 73 97 31 90" />
		<tag k="max_age" v="5" />
		<tag k="min_age" v="1" />
		<tag k="name" v="Sveberg barnehage Sa" />
		<tag k="no-barnehage:nsrid" v="1020803" />
		<tag k="operator" v="Sveberg barnehage Sa" />
		<tag k="operator:type" v="private" />
		<tag k="start_date" v="2002-05-29" />
	</node>
	<node id="-5079" lat="63.4298" lon="10.7305">
		<tag k="amenity" v="kindergarten" />
		<tag k="capacity" v="64" />
		<tag k="contact:email" v="mona.valli@malvik.kommune.no" />
		<tag k="contact:phone" v="+47 73 97 30 60" />
		<tag k="max_age" v="5" />
		<tag k="min_age" v="1" />
		<tag k="name" v="Solstrand barnehage" />
		<tag k="no-barnehage:nsrid" v="1014949" />
		<tag k="operator" v="Malvik kommune" />
		<tag k="operator:type" v="public" />
		<tag k="start_date" v="1994-08-01" />
	</node>
	<node id="-5077" lat="63.439" lon="10.59073">
		<tag k="amenity" v="kindergarten" />
		<tag k="capacity" v="78" />
		<tag k="contact:email" v="dl.sjolyst@bhg.no" />
		<tag k="max_age" v="5" />
		<tag k="min_age" v="1" />
		<tag k="name" v="Sjølyst Fus barnehage AS" />
		<tag k="no-barnehage:nsrid" v="1021322" />
		<tag k="operator" v="Sjølyst Fus barnehage AS" />
		<tag k="operator:type" v="private" />
		<tag k="start_date" v="2005-10-10" />
	</node>
	<node id="-5076" lat="63.4108" lon="10.7942">
		<tag k="amenity" v="kindergarten" />
		<tag k="capacity" v="98" />
		<tag k="contact:email" v="tove.rolseth@malvik.kommune.no" />
		<tag k="contact:phone" v="+47 73 97 04 66" />
		<tag k="max_age" v="5" />
		<tag k="min_age" v="1" />
		<tag k="name" v="Sandfjæra barnehage" />
		<tag k="no-barnehage:nsrid" v="1018256" />
		<tag k="operator" v="Malvik kommune" />
		<tag k="operator:type" v="public" />
		<tag k="start_date" v="1989-01-01" />
	</node>
	<node id="-5075" lat="63.4335" lon="10.5992">
		<tag k="amenity" v="kindergarten" />
		<tag k="capacity" v="104" />
		<tag k="contact:email" v="siv-astrid.wikhammer@malvik.kommune.no" />
		<tag k="contact:phone" v="+47 73 97 68 60" />
		<tag k="max_age" v="5" />
		<tag k="min_age" v="1" />
		<tag k="name" v="Saksvik barnehage" />
		<tag k="no-barnehage:nsrid" v="1018257" />
		<tag k="operator" v="Malvik kommune" />
		<tag k="operator:type" v="public" />
		<tag k="start_date" v="1989-01-01" />
	</node>
	<node id="-5074" lat="63.4328" lon="10.6375">
		<tag k="amenity" v="kindergarten" />
		<tag k="capacity" v="75" />
		<tag k="contact:email" v="else-mette.rostad@malvik.kommune.no" />
		<tag k="max_age" v="5" />
		<tag k="min_age" v="1" />
		<tag k="name" v="Planetringen barnehage" />
		<tag k="no-barnehage:nsrid" v="1015884" />
		<tag k="operator" v="Malvik kommune" />
		<tag k="operator:type" v="public" />
		<tag k="start_date" v="2000-10-01" />
	</node>
	<node id="-5073" lat="63.43049" lon="10.40741">
		<tag k="amenity" v="kindergarten" />
		<tag k="capacity" v="89" />
		<tag k="contact:email" v="mette@muruvikbhg.no" />
		<tag k="contact:phone" v="+47 72 56 37 37" />
		<tag k="max_age" v="5" />
		<tag k="min_age" v="1" />
		<tag k="name" v="Muruvik barnehage AS" />
		<tag k="no-barnehage:nsrid" v="1022076" />
		<tag k="operator" v="Muruvik barnehage AS" />
		<tag k="operator:type" v="private" />
		<tag k="start_date" v="2010-06-08" />
	</node>
	<node id="-5071" lat="63.41462" lon="10.8151">
		<tag k="amenity" v="kindergarten" />
		<tag k="capacity" v="43" />
		<tag k="contact:email" v="korntroberget@barnehage.no" />
		<tag k="contact:phone" v="+47 73 97 77 29" />
		<tag k="max_age" v="5" />
		<tag k="min_age" v="1" />
		<tag k="name" v="Korntrøberget barnehage AS" />
		<tag k="no-barnehage:nsrid" v="1021799" />
		<tag k="operator" v="Korntrøberget barnehage AS" />
		<tag k="operator:type" v="private" />
		<tag k="start_date" v="2006-10-11" />
	</node>
</osm>
