<?xml version="1.0" encoding="UTF-8"?>
<osm generator="osmapis" version="0.6">
	<node id="-768" lat="60.2315" lon="11.5186">
		<tag k="amenity" v="kindergarten" />
		<tag k="capacity" v="40" />
		<tag k="max_age" v="5" />
		<tag k="min_age" v="1" />
		<tag k="name" v="Skogbygda barnehage" />
		<tag k="no-barnehage:nsrid" v="1015916" />
		<tag k="operator" v="Nes kommune" />
		<tag k="operator:type" v="public" />
	</node>
	<node id="-767" lat="60.1244" lon="11.3431">
		<tag k="amenity" v="kindergarten" />
		<tag k="capacity" v="93" />
		<tag k="max_age" v="5" />
		<tag k="min_age" v="1" />
		<tag k="name" v="Neskollen Tellusvegen barnehage" />
		<tag k="no-barnehage:nsrid" v="1013101" />
		<tag k="operator" v="Norlandia Barnehagene AS" />
		<tag k="operator:type" v="private" />
	</node>
	<node id="-766" lat="60.1263" lon="11.3416">
		<tag k="amenity" v="kindergarten" />
		<tag k="capacity" v="119" />
		<tag k="max_age" v="5" />
		<tag k="min_age" v="1" />
		<tag k="name" v="Neskollen Melkevegen barnehage" />
		<tag k="no-barnehage:nsrid" v="1013029" />
		<tag k="operator" v="Norlandia Barnehagene AS" />
		<tag k="operator:type" v="private" />
	</node>
	<node id="-765" lat="60.1282" lon="11.4768">
		<tag k="amenity" v="kindergarten" />
		<tag k="name" v="Nes kommune familiens Hus åpen barnehage" />
		<tag k="no-barnehage:nsrid" v="1016966" />
		<tag k="operator" v="Nes kommune" />
		<tag k="operator:type" v="public" />
	</node>
	<node id="-764" lat="60.0918" lon="11.3608">
		<tag k="amenity" v="kindergarten" />
		<tag k="capacity" v="74" />
		<tag k="contact:website" v="http://www.laringsverkstedet.no/barnehage/neskollen" />
		<tag k="max_age" v="5" />
		<tag k="min_age" v="1" />
		<tag k="name" v="Læringsverkstedet barnehage avd. Øvre Neskollen" />
		<tag k="no-barnehage:nsrid" v="2000145" />
		<tag k="operator" v="Læringsverkstedet AS" />
		<tag k="operator:type" v="private" />
	</node>
	<node id="-763" lat="60.11929" lon="11.47395">
		<tag k="amenity" v="kindergarten" />
		<tag k="capacity" v="56" />
		<tag k="contact:website" v="http://www.laringsverkstedet.no/barnehage/husmo" />
		<tag k="max_age" v="5" />
		<tag k="min_age" v="1" />
		<tag k="name" v="Læringsverkstedet barnehage avd. Husmo" />
		<tag k="no-barnehage:nsrid" v="1020309" />
		<tag k="operator" v="Læringsverkstedet AS" />
		<tag k="operator:type" v="private" />
	</node>
	<node id="-762" lat="60.0335" lon="11.3556">
		<tag k="amenity" v="kindergarten" />
		<tag k="capacity" v="53" />
		<tag k="contact:website" v="http://www.laringsverkstedet.no/haga" />
		<tag k="max_age" v="5" />
		<tag k="min_age" v="1" />
		<tag k="name" v="Læringsverkstedet barnehage avd. Haga" />
		<tag k="no-barnehage:nsrid" v="1015576" />
		<tag k="operator" v="Læringsverkstedet AS" />
		<tag k="operator:type" v="private" />
	</node>
	<node id="-761" lat="60.0559" lon="11.3834">
		<tag k="amenity" v="kindergarten" />
		<tag k="capacity" v="48" />
		<tag k="max_age" v="5" />
		<tag k="min_age" v="1" />
		<tag k="name" v="Korsdalen barnehage avd. Hagadalen" />
		<tag k="no-barnehage:nsrid" v="1017761" />
		<tag k="operator" v="Korsdalen barnehage Sa" />
		<tag k="operator:type" v="private" />
	</node>
	<node id="-760" lat="60.0362" lon="11.3682">
		<tag k="amenity" v="kindergarten" />
		<tag k="capacity" v="80" />
		<tag k="max_age" v="5" />
		<tag k="min_age" v="1" />
		<tag k="name" v="Korsdalen barnehage avd. grendehusvegen" />
		<tag k="no-barnehage:nsrid" v="1015980" />
		<tag k="operator" v="Korsdalen barnehage Sa" />
		<tag k="operator:type" v="private" />
	</node>
	<node id="-759" lat="60.0881" lon="11.4802">
		<tag k="amenity" v="kindergarten" />
		<tag k="capacity" v="95" />
		<tag k="max_age" v="5" />
		<tag k="min_age" v="1" />
		<tag k="name" v="Hoppensprett Fjellfoten" />
		<tag k="no-barnehage:nsrid" v="1017545" />
		<tag k="operator" v="Hoppensprett Nes AS" />
		<tag k="operator:type" v="private" />
	</node>
	<node id="-758" lat="60.2128" lon="11.3354">
		<tag k="amenity" v="kindergarten" />
		<tag k="capacity" v="50" />
		<tag k="max_age" v="5" />
		<tag k="min_age" v="1" />
		<tag k="name" v="Hoppensprett Brårud" />
		<tag k="no-barnehage:nsrid" v="1013499" />
		<tag k="operator" v="Hoppensprett Nes AS" />
		<tag k="operator:type" v="private" />
	</node>
	<node id="-757" lat="60.17928" lon="11.51421">
		<tag k="amenity" v="kindergarten" />
		<tag k="capacity" v="90" />
		<tag k="contact:website" v="http://www.espira.no" />
		<tag k="max_age" v="5" />
		<tag k="min_age" v="1" />
		<tag k="name" v="Espira Opaker barnehage" />
		<tag k="no-barnehage:nsrid" v="1021756" />
		<tag k="operator" v="Espira Opaker AS" />
		<tag k="operator:type" v="private" />
	</node>
	<node id="-756" lat="60.12105" lon="11.46634">
		<tag k="amenity" v="kindergarten" />
		<tag k="capacity" v="104" />
		<tag k="contact:website" v="http://www.espira.no" />
		<tag k="max_age" v="5" />
		<tag k="min_age" v="1" />
		<tag k="name" v="Espira Kløverenga barnehage" />
		<tag k="no-barnehage:nsrid" v="1021215" />
		<tag k="operator" v="Espira Kløverenga AS" />
		<tag k="operator:type" v="private" />
	</node>
	<node id="-755" lat="60.226" lon="11.38135">
		<tag k="amenity" v="kindergarten" />
		<tag k="capacity" v="69" />
		<tag k="contact:website" v="http://www.espira.no" />
		<tag k="max_age" v="5" />
		<tag k="min_age" v="1" />
		<tag k="name" v="Espira Fenstad barnehage" />
		<tag k="no-barnehage:nsrid" v="1021172" />
		<tag k="operator" v="Espira Fenstad AS" />
		<tag k="operator:type" v="private" />
	</node>
	<node id="-754" lat="60.0368" lon="11.3676">
		<tag k="amenity" v="kindergarten" />
		<tag k="capacity" v="56" />
		<tag k="max_age" v="5" />
		<tag k="min_age" v="1" />
		<tag k="name" v="Auli barnehage" />
		<tag k="no-barnehage:nsrid" v="1013782" />
		<tag k="operator" v="Nes kommune" />
		<tag k="operator:type" v="public" />
	</node>
</osm>
