<?xml version="1.0" encoding="UTF-8"?>
<osm generator="osmapis" version="0.6">
	<node id="-992" lat="60.10844" lon="11.37049">
		<tag k="amenity" v="kindergarten" />
		<tag k="capacity" v="47" />
		<tag k="contact:email" v="tomterasen@barnehage.no" />
		<tag k="contact:phone" v="63 90 89 41" />
		<tag k="contact:website" v="http://tomterasen.barnehage.no" />
		<tag k="max_age" v="5" />
		<tag k="min_age" v="1" />
		<tag k="name" v="Tomteråsen barnehage Sa" />
		<tag k="no-barnehage:nsrid" v="1020489" />
		<tag k="operator" v="Tomteråsen barnehage Sa" />
		<tag k="operator:type" v="private" />
		<tag k="start_date" v="1997-08-31" />
	</node>
	<node id="-991" lat="60.1194" lon="11.4822">
		<tag k="amenity" v="kindergarten" />
		<tag k="capacity" v="69" />
		<tag k="max_age" v="5" />
		<tag k="min_age" v="1" />
		<tag k="name" v="Svarverud barnehage" />
		<tag k="no-barnehage:nsrid" v="1017364" />
		<tag k="operator" v="Nes kommune" />
		<tag k="operator:type" v="public" />
		<tag k="start_date" v="1977-08-01" />
	</node>
	<node id="-990" lat="60.2315" lon="11.5186">
		<tag k="amenity" v="kindergarten" />
		<tag k="capacity" v="44" />
		<tag k="max_age" v="5" />
		<tag k="min_age" v="1" />
		<tag k="name" v="Skogbygda barnehage" />
		<tag k="no-barnehage:nsrid" v="1015916" />
		<tag k="operator" v="Nes kommune" />
		<tag k="operator:type" v="public" />
		<tag k="start_date" v="2001-01-01" />
	</node>
	<node id="-989" lat="60.1263" lon="11.3416">
		<tag k="amenity" v="kindergarten" />
		<tag k="capacity" v="127" />
		<tag k="max_age" v="5" />
		<tag k="min_age" v="1" />
		<tag k="name" v="Neskollen Melkevegen barnehage" />
		<tag k="no-barnehage:nsrid" v="1013029" />
		<tag k="operator" v="Norlandia Barnehagene AS" />
		<tag k="operator:type" v="private" />
		<tag k="start_date" v="2004-07-26" />
	</node>
	<node id="-988" lat="60.1282" lon="11.4768">
		<tag k="amenity" v="kindergarten" />
		<tag k="name" v="Nes kommune Familiens Hus Åpen Barnehage" />
		<tag k="no-barnehage:nsrid" v="1016966" />
		<tag k="operator" v="Nes kommune" />
		<tag k="operator:type" v="public" />
		<tag k="start_date" v="2005-08-01" />
	</node>
	<node id="-987" lat="60.0335" lon="11.3556">
		<tag k="amenity" v="kindergarten" />
		<tag k="capacity" v="38" />
		<tag k="max_age" v="5" />
		<tag k="min_age" v="1" />
		<tag k="name" v="Læringsverkstedet barnehage Avd Haga" />
		<tag k="no-barnehage:nsrid" v="1015576" />
		<tag k="operator" v="Læringsverkstedet AS" />
		<tag k="operator:type" v="private" />
		<tag k="start_date" v="1989-01-02" />
	</node>
	<node id="-986" lat="60.0362" lon="11.3682">
		<tag k="amenity" v="kindergarten" />
		<tag k="capacity" v="66" />
		<tag k="contact:phone" v="63 90 65 80" />
		<tag k="max_age" v="5" />
		<tag k="min_age" v="1" />
		<tag k="name" v="Korsdalen barnehage avd Grendehusvegen" />
		<tag k="no-barnehage:nsrid" v="1015980" />
		<tag k="operator" v="Korsdalen barnehage Sa" />
		<tag k="operator:type" v="private" />
		<tag k="start_date" v="1993-08-01" />
	</node>
	<node id="-985" lat="60.0559" lon="11.3834">
		<tag k="amenity" v="kindergarten" />
		<tag k="capacity" v="32" />
		<tag k="max_age" v="5" />
		<tag k="min_age" v="1" />
		<tag k="name" v="Korsdalen barnehage Avdeling Hagadalen" />
		<tag k="no-barnehage:nsrid" v="1017761" />
		<tag k="operator" v="Korsdalen barnehage Sa" />
		<tag k="operator:type" v="private" />
		<tag k="start_date" v="2007-01-01" />
	</node>
	<node id="-984" lat="60.11929" lon="11.47395">
		<tag k="amenity" v="kindergarten" />
		<tag k="capacity" v="48" />
		<tag k="contact:email" v="husmo@barnehage.no" />
		<tag k="contact:phone" v="63 91 00 95" />
		<tag k="contact:website" v="http://www.husmobarnehage.no" />
		<tag k="max_age" v="5" />
		<tag k="min_age" v="1" />
		<tag k="name" v="Husmo barnehage Sa" />
		<tag k="no-barnehage:nsrid" v="1020309" />
		<tag k="operator" v="Husmo barnehage Sa" />
		<tag k="operator:type" v="private" />
		<tag k="start_date" v="1995-02-22" />
	</node>
	<node id="-983" lat="60.0881" lon="11.4802">
		<tag k="amenity" v="kindergarten" />
		<tag k="capacity" v="69" />
		<tag k="max_age" v="5" />
		<tag k="min_age" v="1" />
		<tag k="name" v="Hoppensprett Fjellfoten" />
		<tag k="no-barnehage:nsrid" v="1017545" />
		<tag k="operator" v="Hoppensprett Nes AS" />
		<tag k="operator:type" v="private" />
		<tag k="start_date" v="1988-04-01" />
	</node>
	<node id="-982" lat="60.2128" lon="11.3354">
		<tag k="amenity" v="kindergarten" />
		<tag k="capacity" v="60" />
		<tag k="max_age" v="5" />
		<tag k="min_age" v="1" />
		<tag k="name" v="Hoppensprett Brårud" />
		<tag k="no-barnehage:nsrid" v="1013499" />
		<tag k="operator" v="Hoppensprett Nes AS" />
		<tag k="operator:type" v="private" />
		<tag k="start_date" v="2010-09-08" />
	</node>
	<node id="-981" lat="60.17928" lon="11.51421">
		<tag k="amenity" v="kindergarten" />
		<tag k="capacity" v="95" />
		<tag k="contact:email" v="post@espira.no" />
		<tag k="contact:phone" v="52 84 50 20" />
		<tag k="contact:website" v="http://www.espira.no" />
		<tag k="max_age" v="5" />
		<tag k="min_age" v="1" />
		<tag k="name" v="Espira Opaker barnehage" />
		<tag k="no-barnehage:nsrid" v="1021756" />
		<tag k="operator" v="Espira Opaker AS" />
		<tag k="operator:type" v="private" />
		<tag k="start_date" v="2008-01-22" />
	</node>
	<node id="-980" lat="60.12105" lon="11.46634">
		<tag k="amenity" v="kindergarten" />
		<tag k="capacity" v="103" />
		<tag k="contact:email" v="post@espira.no" />
		<tag k="contact:phone" v="52845020" />
		<tag k="contact:website" v="http://www.espira.no" />
		<tag k="max_age" v="5" />
		<tag k="min_age" v="1" />
		<tag k="name" v="Espira Kløverenga barnehage" />
		<tag k="no-barnehage:nsrid" v="1021215" />
		<tag k="operator" v="Espira Kløverenga AS" />
		<tag k="operator:type" v="private" />
		<tag k="start_date" v="2005-04-14" />
	</node>
	<node id="-979" lat="60.226" lon="11.38135">
		<tag k="amenity" v="kindergarten" />
		<tag k="capacity" v="66" />
		<tag k="contact:email" v="post@espira.no" />
		<tag k="contact:phone" v="52 84 50 20" />
		<tag k="contact:website" v="http://www.espira.no" />
		<tag k="max_age" v="5" />
		<tag k="min_age" v="1" />
		<tag k="name" v="Espira Furuholmen barnehage" />
		<tag k="no-barnehage:nsrid" v="1021172" />
		<tag k="operator" v="Espira Furuholmen AS" />
		<tag k="operator:type" v="private" />
		<tag k="start_date" v="2005-01-28" />
	</node>
	<node id="-978" lat="60.0368" lon="11.3676">
		<tag k="amenity" v="kindergarten" />
		<tag k="capacity" v="58" />
		<tag k="max_age" v="5" />
		<tag k="min_age" v="1" />
		<tag k="name" v="Auli barnehage" />
		<tag k="no-barnehage:nsrid" v="1013782" />
		<tag k="operator" v="Nes kommune" />
		<tag k="operator:type" v="public" />
		<tag k="start_date" v="1989-01-02" />
	</node>
	<node id="-995" lat="60.15879" lon="11.41739">
		<tag k="amenity" v="kindergarten" />
		<tag k="capacity" v="63" />
		<tag k="contact:email" v="vormsund@barnehage.no" />
		<tag k="contact:phone" v="63 90 28 44" />
		<tag k="contact:website" v="http://vormsund.barnehage.no" />
		<tag k="max_age" v="5" />
		<tag k="min_age" v="1" />
		<tag k="name" v="Vormsund barnehage Sa" />
		<tag k="no-barnehage:nsrid" v="1020171" />
		<tag k="operator" v="Vormsund barnehage Sa" />
		<tag k="operator:type" v="private" />
		<tag k="start_date" v="1992-09-18" />
	</node>
	<node id="-994" lat="60.1244" lon="11.3431">
		<tag k="amenity" v="kindergarten" />
		<tag k="capacity" v="107" />
		<tag k="max_age" v="5" />
		<tag k="min_age" v="1" />
		<tag k="name" v="Vifo Neskollen barnehage Tellusveien" />
		<tag k="no-barnehage:nsrid" v="1013101" />
		<tag k="operator" v="Norlandia Barnehagene AS" />
		<tag k="operator:type" v="private" />
		<tag k="start_date" v="2004-08-09" />
	</node>
	<node id="-993" lat="60.1088" lon="11.36794">
		<tag k="amenity" v="kindergarten" />
		<tag k="capacity" v="12" />
		<tag k="contact:email" v="udnesnaturbarnehage@gmail.com" />
		<tag k="contact:phone" v="63905214" />
		<tag k="contact:website" v="http://www.udnesnaturbarnehage.no" />
		<tag k="max_age" v="5" />
		<tag k="min_age" v="1" />
		<tag k="name" v="Udnes Naturbarnehage AS" />
		<tag k="no-barnehage:nsrid" v="1019570" />
		<tag k="operator" v="Udnes Naturbarnehage AS" />
		<tag k="operator:type" v="private" />
		<tag k="start_date" v="1978-12-01" />
	</node>
</osm>
