<?xml version="1.0" encoding="UTF-8"?>
<osm generator="osmapis" version="0.6">
	<node id="-3747" lat="0.0" lon="0.0">
		<tag k="ADDRESS" v="Bakhusvegen 1, 3660 RJUKAN" />
		<tag k="amenity" v="kindergarten" />
		<tag k="capacity" v="31" />
		<tag k="max_age" v="5" />
		<tag k="min_age" v="1" />
		<tag k="name" v="Dale Bakhus barnehage" />
		<tag k="no-barnehage:nsrid" v="974548453" />
		<tag k="operator" v="Tinn kommune" />
		<tag k="operator:type" v="public" />
	</node>
	<node id="-3748" lat="59.9943" lon="8.81974">
		<tag k="ADDRESS" v="Moåsen 8, 3650 TINN AUSTBYGD" />
		<tag k="amenity" v="kindergarten" />
		<tag k="capacity" v="30" />
		<tag k="contact:website" v="http://www.minbarnehage.no/furuheim" />
		<tag k="max_age" v="5" />
		<tag k="min_age" v="1" />
		<tag k="name" v="Furuheim barnehage" />
		<tag k="no-barnehage:nsrid" v="974548437" />
		<tag k="operator" v="Tinn kommune" />
		<tag k="operator:type" v="public" />
	</node>
	<node id="-3749" lat="0.0" lon="0.0">
		<tag k="ADDRESS" v="Hovin skole, 3652 HOVIN I TELEMARK" />
		<tag k="amenity" v="kindergarten" />
		<tag k="capacity" v="10" />
		<tag k="max_age" v="5" />
		<tag k="min_age" v="1" />
		<tag k="name" v="Hovin barnehage" />
		<tag k="no-barnehage:nsrid" v="976825713" />
		<tag k="operator" v="Tinn kommune" />
		<tag k="operator:type" v="public" />
	</node>
	<node id="-3750" lat="59.88" lon="8.62111">
		<tag k="ADDRESS" v="Sam Eydes gate 191, 3660 RJUKAN" />
		<tag k="amenity" v="kindergarten" />
		<tag k="capacity" v="48" />
		<tag k="max_age" v="5" />
		<tag k="min_age" v="1" />
		<tag k="name" v="Skibakkesletta barnehage" />
		<tag k="no-barnehage:nsrid" v="974548445" />
		<tag k="operator" v="Tinn kommune" />
		<tag k="operator:type" v="public" />
	</node>
	<node id="-3751" lat="59.9877" lon="8.73969">
		<tag k="ADDRESS" v="Sandven 27, 3656 ATRÅ" />
		<tag k="amenity" v="kindergarten" />
		<tag k="capacity" v="40" />
		<tag k="max_age" v="5" />
		<tag k="min_age" v="1" />
		<tag k="name" v="Vesletun barnehage" />
		<tag k="no-barnehage:nsrid" v="973476203" />
		<tag k="operator" v="Vesletun barnehage" />
		<tag k="operator:type" v="private" />
	</node>
	<node id="-3752" lat="59.88107" lon="8.6515">
		<tag k="ADDRESS" v="Tinngata 127, 3660 RJUKAN" />
		<tag k="amenity" v="kindergarten" />
		<tag k="capacity" v="37" />
		<tag k="max_age" v="5" />
		<tag k="min_age" v="1" />
		<tag k="name" v="Øverland barnehage" />
		<tag k="no-barnehage:nsrid" v="974548461" />
		<tag k="operator" v="Tinn kommune" />
		<tag k="operator:type" v="public" />
	</node>
</osm>
