<?xml version="1.0" encoding="UTF-8"?>
<osm generator="osmapis" version="0.6">
	<node id="-2050" lat="61.8377" lon="8.56842">
		<tag k="amenity" v="kindergarten" />
		<tag k="capacity" v="69" />
		<tag k="contact:email" v="ragnhild.vestad@lom.kommune.no" />
		<tag k="contact:phone" v="61 21 72 50" />
		<tag k="contact:website" v="http://www.loar.barnehage.no" />
		<tag k="max_age" v="5" />
		<tag k="min_age" v="1" />
		<tag k="name" v="Loar barnehage" />
		<tag k="no-barnehage:nsrid" v="1017611" />
		<tag k="operator" v="Lom kommune" />
		<tag k="operator:type" v="public" />
		<tag k="start_date" v="1988-04-01" />
	</node>
	<node id="-2049" lat="61.8459" lon="8.82812">
		<tag k="amenity" v="kindergarten" />
		<tag k="capacity" v="34" />
		<tag k="contact:email" v="siv.kari.aanstad.garmo@lom.kommune.no" />
		<tag k="contact:phone" v="92 88 67 86" />
		<tag k="contact:website" v="http://www.garmo.oppvekstsenter.no" />
		<tag k="max_age" v="5" />
		<tag k="min_age" v="1" />
		<tag k="name" v="Garmo barnehage" />
		<tag k="no-barnehage:nsrid" v="1017610" />
		<tag k="operator" v="Lom kommune" />
		<tag k="operator:type" v="public" />
		<tag k="start_date" v="1988-04-01" />
	</node>
</osm>
