<?xml version="1.0" encoding="UTF-8"?>
<osm version="0.6" generator="osmapis">
	<node lat="0.0" lon="0.0" id="-1516">
		<tag k="ADDRESS" v=", 8890 LEIRFJORD" />
		<tag k="amenity" v="kindergarten" />
		<tag k="capacity" v="22" />
		<tag k="max_age" v="5" />
		<tag k="min_age" v="1" />
		<tag k="name" v="Leines barnehage" />
		<tag k="no-barnehage:nsrid" v="997298918" />
		<tag k="operator" v="Leirfjord kommune" />
		<tag k="operator:type" v="public" />
	</node>
	<node lat="66.06084" lon="12.93004" id="-1517">
		<tag k="ADDRESS" v="TÃ¸mmervikveien 19, 8890 LEIRFJORD" />
		<tag k="amenity" v="kindergarten" />
		<tag k="capacity" v="88" />
		<tag k="max_age" v="5" />
		<tag k="min_age" v="1" />
		<tag k="name" v="Leland barnehage" />
		<tag k="no-barnehage:nsrid" v="875312502" />
		<tag k="operator" v="Leirfjord kommune" />
		<tag k="operator:type" v="public" />
	</node>
	<node lat="66.03119" lon="12.95292" id="-1518">
		<tag k="ADDRESS" v="Ottingsveien 10, 8890 LEIRFJORD" />
		<tag k="amenity" v="kindergarten" />
		<tag k="capacity" v="11" />
		<tag k="max_age" v="5" />
		<tag k="min_age" v="1" />
		<tag k="name" v="Tverlandet oppvekstsenter avd. barnehage" />
		<tag k="no-barnehage:nsrid" v="973503006" />
		<tag k="operator" v="Leirfjord kommune" />
		<tag k="operator:type" v="public" />
	</node>
	<node lat="66.06449" lon="12.7545" id="-1519">
		<tag k="ADDRESS" v="Fagervikveien 139, 8890 LEIRFJORD" />
		<tag k="amenity" v="kindergarten" />
		<tag k="capacity" v="7" />
		<tag k="max_age" v="5" />
		<tag k="min_age" v="1" />
		<tag k="name" v="Ulvang oppvekstsenter avd. barnehage" />
		<tag k="no-barnehage:nsrid" v="975312569" />
		<tag k="operator" v="Leirfjord kommune" />
		<tag k="operator:type" v="public" />
	</node>
</osm>
