<?xml version="1.0" encoding="UTF-8"?>
<osm generator="osmapis" version="0.6">
	<node id="-5528" lat="66.065" lon="12.9461">
		<tag k="amenity" v="kindergarten" />
		<tag k="capacity" v="92" />
		<tag k="contact:email" v="beate.tommervik@leirfjord.kommune.no" />
		<tag k="contact:phone" v="+47 75074165" />
		<tag k="max_age" v="5" />
		<tag k="min_age" v="1" />
		<tag k="name" v="Leland barnehage" />
		<tag k="no-barnehage:nsrid" v="1012532" />
		<tag k="operator" v="Leirfjord kommune" />
		<tag k="operator:type" v="public" />
		<tag k="start_date" v="1989-01-01" />
	</node>
	<node id="-5527" lat="66.065" lon="12.9461">
		<tag k="amenity" v="kindergarten" />
		<tag k="capacity" v="40" />
		<tag k="contact:email" v="airin.levang@leirfjord.kommune.no" />
		<tag k="contact:phone" v="+47 75 07 41 70" />
		<tag k="max_age" v="5" />
		<tag k="min_age" v="1" />
		<tag k="name" v="Leines barnehage" />
		<tag k="no-barnehage:nsrid" v="1015027" />
		<tag k="operator" v="Leirfjord kommune" />
		<tag k="operator:type" v="public" />
		<tag k="start_date" v="2011-08-01" />
	</node>
	<node id="-5530" lat="66.065" lon="12.9461">
		<tag k="amenity" v="kindergarten" />
		<tag k="capacity" v="12" />
		<tag k="contact:email" v="ulvang.oppvekstsenter@leirfjord.kommune.no" />
		<tag k="contact:phone" v="+47 75074130" />
		<tag k="max_age" v="5" />
		<tag k="min_age" v="1" />
		<tag k="name" v="Ulvang Oppvekstsenter Avd barnehage" />
		<tag k="no-barnehage:nsrid" v="1013658" />
		<tag k="operator" v="Leirfjord kommune" />
		<tag k="operator:type" v="public" />
		<tag k="start_date" v="1989-01-01" />
	</node>
	<node id="-5529" lat="66.0384" lon="12.9545">
		<tag k="amenity" v="kindergarten" />
		<tag k="capacity" v="11" />
		<tag k="contact:email" v="alice.jensen@leirfjord.kommune.no" />
		<tag k="contact:phone" v="+47 75049615" />
		<tag k="max_age" v="5" />
		<tag k="min_age" v="1" />
		<tag k="name" v="Tverlandet Oppvekstsenter Avd barnehage" />
		<tag k="no-barnehage:nsrid" v="1015974" />
		<tag k="operator" v="Leirfjord kommune" />
		<tag k="operator:type" v="public" />
		<tag k="start_date" v="1992-08-01" />
	</node>
</osm>
