<?xml version="1.0" encoding="UTF-8"?>
<osm version="0.6" generator="osmapis">
	<node lat="69.09216" lon="18.58258" id="-5186">
		<tag k="ADDRESS" v="Fagerlidal 393, 9325 BARDUFOSS" />
		<tag k="amenity" v="kindergarten" />
		<tag k="capacity" v="76" />
		<tag k="max_age" v="5" />
		<tag k="min_age" v="1" />
		<tag k="name" v="Andslimoen barnehage" />
		<tag k="no-barnehage:nsrid" v="975315436" />
		<tag k="operator" v="Målselv kommune" />
		<tag k="operator:type" v="public" />
	</node>
	<node lat="69.02799" lon="19.29708" id="-5187">
		<tag k="ADDRESS" v="Takvassveien 46, 9334 ØVERBYGD" />
		<tag k="amenity" v="kindergarten" />
		<tag k="capacity" v="26" />
		<tag k="max_age" v="5" />
		<tag k="min_age" v="1" />
		<tag k="name" v="Bjørkeng oppvekstsenter avd. barnehage" />
		<tag k="no-barnehage:nsrid" v="988487465" />
		<tag k="operator" v="Målselv kommune" />
		<tag k="operator:type" v="public" />
	</node>
	<node lat="69.04175" lon="18.50359" id="-5188">
		<tag k="ADDRESS" v="Liveien 15, 9325 BARDUFOSS" />
		<tag k="amenity" v="kindergarten" />
		<tag k="capacity" v="74" />
		<tag k="max_age" v="5" />
		<tag k="min_age" v="1" />
		<tag k="name" v="Heggelia/noraførr barnehage" />
		<tag k="no-barnehage:nsrid" v="975318176" />
		<tag k="operator" v="Målselv kommune" />
		<tag k="operator:type" v="public" />
	</node>
	<node lat="69.21389" lon="18.46114" id="-5189">
		<tag k="ADDRESS" v="Skjellbekkveien 18, 9322 KARLSTAD" />
		<tag k="amenity" v="kindergarten" />
		<tag k="capacity" v="20" />
		<tag k="max_age" v="5" />
		<tag k="min_age" v="1" />
		<tag k="name" v="Karlstad oppvekstsenter avd. barnehage" />
		<tag k="no-barnehage:nsrid" v="975324281" />
		<tag k="operator" v="Målselv kommune" />
		<tag k="operator:type" v="public" />
	</node>
	<node lat="69.0225" lon="18.85331" id="-5190">
		<tag k="ADDRESS" v="Mellombygdveien 1842, 9336 RUNDHAUG" />
		<tag k="amenity" v="kindergarten" />
		<tag k="capacity" v="26" />
		<tag k="contact:website" v="http://minskole.no/bakkehaug" />
		<tag k="max_age" v="5" />
		<tag k="min_age" v="1" />
		<tag k="name" v="Mellembygd kultur og oppvekstsenter avd. barnehage" />
		<tag k="no-barnehage:nsrid" v="975268071" />
		<tag k="operator" v="Målselv kommune" />
		<tag k="operator:type" v="public" />
	</node>
	<node lat="69.14836" lon="18.59107" id="-5191">
		<tag k="ADDRESS" v="Lisbeth Bardonsens vei 2, 9321 MOEN" />
		<tag k="amenity" v="kindergarten" />
		<tag k="capacity" v="63" />
		<tag k="max_age" v="5" />
		<tag k="min_age" v="1" />
		<tag k="name" v="Olsborg barnehage" />
		<tag k="no-barnehage:nsrid" v="875313622" />
		<tag k="operator" v="Målselv kommune" />
		<tag k="operator:type" v="public" />
	</node>
</osm>
