<?xml version="1.0" encoding="UTF-8"?>
<osm generator="osmapis" version="0.6">
	<node id="-3688" lat="58.2144" lon="7.51347">
		<tag k="amenity" v="kindergarten" />
		<tag k="capacity" v="27" />
		<tag k="contact:email" v="trine.ruud@marnardal.kommune.no" />
		<tag k="max_age" v="5" />
		<tag k="min_age" v="1" />
		<tag k="name" v="Laudal oppvekstsenter avd. barnehagehage" />
		<tag k="no-barnehage:nsrid" v="1018070" />
		<tag k="operator" v="Marnardal kommune" />
		<tag k="operator:type" v="public" />
	</node>
	<node id="-3687" lat="58.2144" lon="7.51347">
		<tag k="amenity" v="kindergarten" />
		<tag k="capacity" v="69" />
		<tag k="contact:email" v="marilyn.larsen@marnardal.kommune.no" />
		<tag k="max_age" v="5" />
		<tag k="min_age" v="1" />
		<tag k="name" v="Heddeland barnehage" />
		<tag k="no-barnehage:nsrid" v="1012968" />
		<tag k="operator" v="Marnardal kommune" />
		<tag k="operator:type" v="public" />
	</node>
	<node id="-3686" lat="58.3849" lon="7.5277">
		<tag k="amenity" v="kindergarten" />
		<tag k="capacity" v="26" />
		<tag k="contact:email" v="marina.grimestad@marnardal.kommune.no" />
		<tag k="max_age" v="5" />
		<tag k="min_age" v="1" />
		<tag k="name" v="Bjelland oppvekstsenter avd. barnehagehage" />
		<tag k="no-barnehage:nsrid" v="1018069" />
		<tag k="operator" v="Marnardal kommune" />
		<tag k="operator:type" v="public" />
	</node>
</osm>
