<?xml version="1.0" encoding="UTF-8"?>
<osm generator="osmapis" version="0.6">
	<node id="-3336" lat="58.2144" lon="7.51347">
		<tag k="amenity" v="kindergarten" />
		<tag k="capacity" v="79" />
		<tag k="max_age" v="5" />
		<tag k="min_age" v="1" />
		<tag k="name" v="Heddeland barnehage" />
		<tag k="no-barnehage:nsrid" v="1012968" />
		<tag k="operator" v="Marnardal kommune" />
		<tag k="operator:type" v="public" />
		<tag k="start_date" v="2003-12-23" />
	</node>
	<node id="-3335" lat="58.3849" lon="7.5277">
		<tag k="amenity" v="kindergarten" />
		<tag k="capacity" v="30" />
		<tag k="max_age" v="5" />
		<tag k="min_age" v="1" />
		<tag k="name" v="Bjelland Oppvekstsenter Avd Barnehage" />
		<tag k="no-barnehage:nsrid" v="1018069" />
		<tag k="operator" v="Marnardal kommune" />
		<tag k="operator:type" v="public" />
		<tag k="start_date" v="1989-01-01" />
	</node>
	<node id="-3337" lat="58.2144" lon="7.51347">
		<tag k="amenity" v="kindergarten" />
		<tag k="capacity" v="35" />
		<tag k="max_age" v="5" />
		<tag k="min_age" v="1" />
		<tag k="name" v="Laudal Oppvekstsenter Avd Barnehage" />
		<tag k="no-barnehage:nsrid" v="1018070" />
		<tag k="operator" v="Marnardal kommune" />
		<tag k="operator:type" v="public" />
		<tag k="start_date" v="1989-01-01" />
	</node>
</osm>
