<?xml version="1.0" encoding="UTF-8"?>
<osm generator="osmapis" version="0.6">
	<node id="-251" lat="59.2982" lon="10.7689">
		<tag k="amenity" v="kindergarten" />
		<tag k="capacity" v="39" />
		<tag k="max_age" v="5" />
		<tag k="min_age" v="1" />
		<tag k="name" v="Saltnes barnehage" />
		<tag k="no-barnehage:nsrid" v="1017519" />
		<tag k="operator" v="Råde kommune" />
		<tag k="operator:type" v="public" />
	</node>
	<node id="-250" lat="59.2886" lon="10.7516">
		<tag k="amenity" v="kindergarten" />
		<tag k="capacity" v="58" />
		<tag k="max_age" v="5" />
		<tag k="min_age" v="1" />
		<tag k="name" v="Naturbarna avd. Grenda barnehage" />
		<tag k="no-barnehage:nsrid" v="1013001" />
		<tag k="operator" v="Naturbarna AS" />
		<tag k="operator:type" v="private" />
	</node>
	<node id="-249" lat="59.34599" lon="10.93919">
		<tag k="amenity" v="kindergarten" />
		<tag k="capacity" v="67" />
		<tag k="max_age" v="5" />
		<tag k="min_age" v="1" />
		<tag k="name" v="Missingmyr barnehage" />
		<tag k="no-barnehage:nsrid" v="1021618" />
		<tag k="operator" v="Missingmyr barnehage AS" />
		<tag k="operator:type" v="private" />
	</node>
	<node id="-248" lat="59.2977" lon="10.7667">
		<tag k="amenity" v="kindergarten" />
		<tag k="capacity" v="42" />
		<tag k="contact:website" v="http://laringsverkstedet.no/barnehage/mattisgarden" />
		<tag k="max_age" v="5" />
		<tag k="min_age" v="1" />
		<tag k="name" v="Læringsverkstedet barnehage avd. Mattisgården" />
		<tag k="no-barnehage:nsrid" v="1014877" />
		<tag k="operator" v="Læringsverkstedet AS" />
		<tag k="operator:type" v="private" />
	</node>
	<node id="-247" lat="59.3482" lon="10.8952">
		<tag k="amenity" v="kindergarten" />
		<tag k="capacity" v="96" />
		<tag k="max_age" v="5" />
		<tag k="min_age" v="1" />
		<tag k="name" v="Klokkergården barnehage" />
		<tag k="no-barnehage:nsrid" v="1017518" />
		<tag k="operator" v="Råde kommune" />
		<tag k="operator:type" v="public" />
	</node>
	<node id="-246" lat="59.35225" lon="10.86411">
		<tag k="amenity" v="kindergarten" />
		<tag k="capacity" v="47" />
		<tag k="contact:website" v="http://www.småspirer.no" />
		<tag k="max_age" v="5" />
		<tag k="min_age" v="1" />
		<tag k="name" v="Katrine Langgård" />
		<tag k="no-barnehage:nsrid" v="1020753" />
		<tag k="operator" v="Katrine Langgård" />
		<tag k="operator:type" v="private" />
	</node>
	<node id="-245" lat="59.35144" lon="10.86876">
		<tag k="amenity" v="kindergarten" />
		<tag k="capacity" v="35" />
		<tag k="max_age" v="5" />
		<tag k="min_age" v="1" />
		<tag k="name" v="Furuly barnehage" />
		<tag k="no-barnehage:nsrid" v="1020523" />
		<tag k="operator" v="Råde Bygdekvinnelag" />
		<tag k="operator:type" v="private" />
	</node>
</osm>
