<?xml version="1.0" encoding="UTF-8"?>
<osm version="0.6" generator="osmapis">
	<node lat="59.77612" lon="10.49338" id="-2092">
		<tag k="ADDRESS" v="Furulia 3A, 3470 SLEMMESTAD" />
		<tag k="amenity" v="kindergarten" />
		<tag k="capacity" v="10" />
		<tag k="contact:website" v="http://ja-riis.wix.com/furuliafamiliebhg" />
		<tag k="max_age" v="5" />
		<tag k="min_age" v="1" />
		<tag k="name" v="Furulia familiebarnehage" />
		<tag k="no-barnehage:nsrid" v="984614381" />
		<tag k="operator" v="Furulia familiebarnehage Ruud" />
		<tag k="operator:type" v="private" />
	</node>
	<node lat="59.77639" lon="10.41346" id="-2097">
		<tag k="ADDRESS" v="Hallenåsen terrasse 41, 1389 HEGGEDAL" />
		<tag k="amenity" v="kindergarten" />
		<tag k="capacity" v="5" />
		<tag k="contact:website" v="http://www.hallenasenfamiliebarnehage.com/" />
		<tag k="max_age" v="5" />
		<tag k="min_age" v="1" />
		<tag k="name" v="Hallenåsen familiebarnehage Marit Regine Kinserdal" />
		<tag k="no-barnehage:nsrid" v="917487669" />
		<tag k="operator" v="Hallenåsen familiebarnehage Marit Regine Kinserdal" />
		<tag k="operator:type" v="private" />
	</node>
	<node lat="59.67031" lon="10.53287" id="-2153">
		<tag k="ADDRESS" v="Falkeveien 25, 3475 SÆTRE" />
		<tag k="amenity" v="kindergarten" />
		<tag k="capacity" v="8" />
		<tag k="contact:website" v="http://utsikt1.no" />
		<tag k="max_age" v="2" />
		<tag k="min_age" v="1" />
		<tag k="name" v="Utsikt1 familiebarnehage" />
		<tag k="no-barnehage:nsrid" v="992232196" />
		<tag k="operator" v="Rigmor Børve familiebarnehage" />
		<tag k="operator:type" v="private" />
	</node>
	<node lat="59.79919" lon="10.48606" id="-2159">
		<tag k="ADDRESS" v="Råengveien 3A, 1390 VOLLEN" />
		<tag k="amenity" v="kindergarten" />
		<tag k="capacity" v="4" />
		<tag k="max_age" v="2" />
		<tag k="min_age" v="1" />
		<tag k="name" v="Vollen familiebarnehage" />
		<tag k="no-barnehage:nsrid" v="995079151" />
		<tag k="operator" v="Vollen familiebarnehage Linda Cecilie Elverum Keyn" />
		<tag k="operator:type" v="private" />
	</node>
</osm>
