<?xml version="1.0" encoding="UTF-8"?>
<osm version="0.6" generator="osmapis">
	<node lat="59.74958" lon="10.39914" id="-2076">
		<tag k="ADDRESS" v="Godheimveien 26, 3440 RØYKEN" />
		<tag k="amenity" v="kindergarten" />
		<tag k="capacity" v="34" />
		<tag k="contact:website" v="http://www.100-meterskogenbhg.no" />
		<tag k="max_age" v="5" />
		<tag k="min_age" v="1" />
		<tag k="name" v="100-meterskogen barnehage" />
		<tag k="no-barnehage:nsrid" v="990733481" />
		<tag k="operator" v="100-Meterskogen barnehage AS" />
		<tag k="operator:type" v="private" />
	</node>
	<node lat="59.81092" lon="10.44778" id="-2077">
		<tag k="ADDRESS" v="Bukkemyrveien 3, 1386 ASKER" />
		<tag k="amenity" v="kindergarten" />
		<tag k="capacity" v="48" />
		<tag k="contact:website" v="http://www.barnashus.com" />
		<tag k="max_age" v="5" />
		<tag k="min_age" v="1" />
		<tag k="name" v="As Barnas Hus Gullhella" />
		<tag k="no-barnehage:nsrid" v="972734675" />
		<tag k="operator" v="As Barnas Hus Gullhella" />
		<tag k="operator:type" v="private" />
	</node>
	<node lat="59.63394" lon="10.49595" id="-2078">
		<tag k="ADDRESS" v="Åsheimveien 12B, 3490 KLOKKARSTUA" />
		<tag k="amenity" v="kindergarten" />
		<tag k="capacity" v="47" />
		<tag k="contact:website" v="http://www.askeladdensteinerbarnehage.no" />
		<tag k="max_age" v="5" />
		<tag k="min_age" v="1" />
		<tag k="name" v="Askeladden Steinerbarnehage" />
		<tag k="no-barnehage:nsrid" v="974631962" />
		<tag k="operator" v="Stiftelsen Askeladden steinerbarnehage" />
		<tag k="operator:type" v="private" />
	</node>
	<node lat="59.87014" lon="10.51835" id="-2079">
		<tag k="ADDRESS" v="Rosenkrantz vei 39, 1397 NESØYA" />
		<tag k="amenity" v="kindergarten" />
		<tag k="capacity" v="40" />
		<tag k="contact:website" v="http://www.bikuben-barnehage.no" />
		<tag k="max_age" v="5" />
		<tag k="min_age" v="1" />
		<tag k="name" v="Bikuben barnehage" />
		<tag k="no-barnehage:nsrid" v="972734284" />
		<tag k="operator" v="Nesøya Kvinne- og Familielag" />
		<tag k="operator:type" v="private" />
	</node>
	<node lat="59.87431" lon="10.47099" id="-2080">
		<tag k="ADDRESS" v="Billingstadveien 60, 1396 BILLINGSTAD" />
		<tag k="amenity" v="kindergarten" />
		<tag k="capacity" v="82" />
		<tag k="max_age" v="5" />
		<tag k="min_age" v="1" />
		<tag k="name" v="Billingstad barnehage" />
		<tag k="no-barnehage:nsrid" v="979669933" />
		<tag k="operator" v="Billingstad barnehage SA" />
		<tag k="operator:type" v="private" />
	</node>
	<node lat="59.74209" lon="10.36646" id="-2081">
		<tag k="ADDRESS" v="Bitehagen 10B, 3440 RØYKEN" />
		<tag k="amenity" v="kindergarten" />
		<tag k="capacity" v="49" />
		<tag k="contact:website" v="http://www.bitehagenbarnehage.no" />
		<tag k="max_age" v="5" />
		<tag k="min_age" v="1" />
		<tag k="name" v="Bitehagen barnehage" />
		<tag k="no-barnehage:nsrid" v="981146891" />
		<tag k="operator" v="Bitehagen barnehage SA" />
		<tag k="operator:type" v="private" />
	</node>
	<node lat="59.79262" lon="10.48302" id="-2082">
		<tag k="ADDRESS" v="Høymyrmarka 9, 1391 VOLLEN" />
		<tag k="amenity" v="kindergarten" />
		<tag k="capacity" v="67" />
		<tag k="contact:website" v="http://bjerkas.barnehage.no" />
		<tag k="max_age" v="5" />
		<tag k="min_age" v="1" />
		<tag k="name" v="Bjerkås barnehage" />
		<tag k="no-barnehage:nsrid" v="973484672" />
		<tag k="operator" v="Stiftelsen Bjerkås barnehage" />
		<tag k="operator:type" v="private" />
	</node>
	<node lat="59.83048" lon="10.45362" id="-2083">
		<tag k="ADDRESS" v="Bleikerfaret 14, 1387 ASKER" />
		<tag k="amenity" v="kindergarten" />
		<tag k="capacity" v="94" />
		<tag k="contact:website" v="http://www.asker.kommune.no" />
		<tag k="max_age" v="5" />
		<tag k="min_age" v="1" />
		<tag k="name" v="Bleikerfaret barnehage" />
		<tag k="no-barnehage:nsrid" v="918318054" />
		<tag k="operator" v="Asker kommune" />
		<tag k="operator:type" v="public" />
	</node>
	<node lat="59.8226" lon="10.4376" id="-2084">
		<tag k="ADDRESS" v="Idunns vei 3, 1386 ASKER" />
		<tag k="amenity" v="kindergarten" />
		<tag k="capacity" v="12" />
		<tag k="contact:website" v="http://www.asker.kommune.no" />
		<tag k="max_age" v="2" />
		<tag k="min_age" v="1" />
		<tag k="name" v="Bondi barnehage" />
		<tag k="no-barnehage:nsrid" v="988060429" />
		<tag k="operator" v="Asker kommune" />
		<tag k="operator:type" v="public" />
	</node>
	<node lat="59.82582" lon="10.41354" id="-2085">
		<tag k="ADDRESS" v="Vardefaret 38, 1388 BORGEN" />
		<tag k="amenity" v="kindergarten" />
		<tag k="capacity" v="60" />
		<tag k="contact:website" v="http://www.asker.kommune.no/barnehage/barnehagene/borgen-barnehage/" />
		<tag k="max_age" v="5" />
		<tag k="min_age" v="1" />
		<tag k="name" v="Borgen barnehage" />
		<tag k="no-barnehage:nsrid" v="974578603" />
		<tag k="operator" v="Asker kommune" />
		<tag k="operator:type" v="public" />
	</node>
	<node lat="59.82312" lon="10.41811" id="-2086">
		<tag k="ADDRESS" v="Finkefaret 1, 1388 BORGEN" />
		<tag k="amenity" v="kindergarten" />
		<tag k="capacity" v="48" />
		<tag k="contact:website" v="http://www.borgenskogbarnehage.no" />
		<tag k="max_age" v="5" />
		<tag k="min_age" v="1" />
		<tag k="name" v="Borgen Skog barnehage" />
		<tag k="no-barnehage:nsrid" v="973513974" />
		<tag k="operator" v="Borgen Skog barnehage" />
		<tag k="operator:type" v="private" />
	</node>
	<node lat="59.82395" lon="10.39036" id="-2087">
		<tag k="ADDRESS" v="Brendsrudtoppen 29B, 1385 ASKER" />
		<tag k="amenity" v="kindergarten" />
		<tag k="capacity" v="48" />
		<tag k="max_age" v="5" />
		<tag k="min_age" v="1" />
		<tag k="name" v="Brendsrud barnehage" />
		<tag k="no-barnehage:nsrid" v="974578719" />
		<tag k="operator" v="Asker kommune" />
		<tag k="operator:type" v="public" />
	</node>
	<node lat="59.83468" lon="10.4544" id="-2088">
		<tag k="ADDRESS" v="Haldensvingen 61, 1387 ASKER" />
		<tag k="amenity" v="kindergarten" />
		<tag k="capacity" v="68" />
		<tag k="contact:website" v="http://bastadmyra.no" />
		<tag k="max_age" v="5" />
		<tag k="min_age" v="1" />
		<tag k="name" v="Båstadmyra barnehage" />
		<tag k="no-barnehage:nsrid" v="875365002" />
		<tag k="operator" v="Båstadmyra barnehage SA" />
		<tag k="operator:type" v="private" />
	</node>
	<node lat="59.72731" lon="10.32643" id="-2089">
		<tag k="ADDRESS" v="Brøholtveien 79, 3430 SPIKKESTAD" />
		<tag k="amenity" v="kindergarten" />
		<tag k="capacity" v="43" />
		<tag k="contact:website" v="http://carpediem.barnehage.no/" />
		<tag k="max_age" v="5" />
		<tag k="min_age" v="1" />
		<tag k="name" v="Carpe Diem barnehage" />
		<tag k="no-barnehage:nsrid" v="994597655" />
		<tag k="operator" v="Carpe Diem barnehage AS" />
		<tag k="operator:type" v="private" />
	</node>
	<node lat="59.54099" lon="10.55154" id="-2090">
		<tag k="ADDRESS" v="Vestre Strandvei 22, 3482 TOFTE" />
		<tag k="amenity" v="kindergarten" />
		<tag k="capacity" v="41" />
		<tag k="contact:website" v="http://www.asker.kommune.no/barnehage/barnehagene/doktorgarden-barnehage/" />
		<tag k="max_age" v="5" />
		<tag k="min_age" v="1" />
		<tag k="name" v="Doktorgården barnehage" />
		<tag k="no-barnehage:nsrid" v="875306642" />
		<tag k="operator" v="Asker kommune" />
		<tag k="operator:type" v="public" />
	</node>
	<node lat="59.8127" lon="10.36356" id="-2091">
		<tag k="ADDRESS" v="Nordvannslia 29, 1385 ASKER" />
		<tag k="amenity" v="kindergarten" />
		<tag k="capacity" v="27" />
		<tag k="contact:website" v="http://www.kirken.no/nb-NO/fellesrad/askerfellesrad/menigheter/engelsrud-barnehage/" />
		<tag k="max_age" v="5" />
		<tag k="min_age" v="1" />
		<tag k="name" v="Engelsrud barnehage" />
		<tag k="no-barnehage:nsrid" v="975266702" />
		<tag k="operator" v="Asker Kirkelige Fellesråd" />
		<tag k="operator:type" v="private" />
	</node>
	<node lat="59.81983" lon="10.46825" id="-2092">
		<tag k="ADDRESS" v="Strandveien 57, 1392 VETTRE" />
		<tag k="amenity" v="kindergarten" />
		<tag k="capacity" v="92" />
		<tag k="contact:website" v="http://blakstad.espira.no/" />
		<tag k="max_age" v="5" />
		<tag k="min_age" v="1" />
		<tag k="name" v="Espira Blakstad barnehage" />
		<tag k="no-barnehage:nsrid" v="988250007" />
		<tag k="operator" v="Espira Blakstad AS" />
		<tag k="operator:type" v="private" />
	</node>
	<node lat="59.81285" lon="10.44157" id="-2093">
		<tag k="ADDRESS" v="Korpefaret 3, 1386 ASKER" />
		<tag k="amenity" v="kindergarten" />
		<tag k="capacity" v="96" />
		<tag k="contact:website" v="http://www.espira.no" />
		<tag k="max_age" v="5" />
		<tag k="min_age" v="1" />
		<tag k="name" v="Espira Gullhella barnehage" />
		<tag k="no-barnehage:nsrid" v="985488568" />
		<tag k="operator" v="Espira Gullhella AS" />
		<tag k="operator:type" v="private" />
	</node>
	<node lat="59.71294" lon="10.51168" id="-2094">
		<tag k="ADDRESS" v="Kjøyafaret 54, 3474 ÅROS" />
		<tag k="amenity" v="kindergarten" />
		<tag k="capacity" v="67" />
		<tag k="contact:website" v="http://espira.no/barnehage/espira-arosfjellet/" />
		<tag k="max_age" v="5" />
		<tag k="min_age" v="1" />
		<tag k="name" v="Espira Årosfjellet barnehage" />
		<tag k="no-barnehage:nsrid" v="924115912" />
		<tag k="operator" v="Espira Årosfjellet AS" />
		<tag k="operator:type" v="private" />
	</node>
	<node lat="59.84174" lon="10.42117" id="-2095">
		<tag k="ADDRESS" v="Nedre Frydendal 88, 1384 ASKER" />
		<tag k="amenity" v="kindergarten" />
		<tag k="capacity" v="59" />
		<tag k="contact:website" v="http://frydendal.barnehage.no" />
		<tag k="max_age" v="5" />
		<tag k="min_age" v="1" />
		<tag k="name" v="Frydendal barnehage" />
		<tag k="no-barnehage:nsrid" v="973485237" />
		<tag k="operator" v="Stiftelsen Frydendal barnehage" />
		<tag k="operator:type" v="private" />
	</node>
	<node lat="59.83485" lon="10.42143" id="-2097">
		<tag k="ADDRESS" v="Øvre Askerhagen 8B, 1383 ASKER" />
		<tag k="amenity" v="kindergarten" />
		<tag k="capacity" v="30" />
		<tag k="max_age" v="5" />
		<tag k="min_age" v="1" />
		<tag k="name" v="Furulybarnehageas" />
		<tag k="no-barnehage:nsrid" v="873456442" />
		<tag k="operator" v="Furuly Bhg AS" />
		<tag k="operator:type" v="private" />
	</node>
	<node lat="59.85144" lon="10.4228" id="-2098">
		<tag k="ADDRESS" v="Semsveien 139, 1384 ASKER" />
		<tag k="amenity" v="kindergarten" />
		<tag k="capacity" v="34" />
		<tag k="max_age" v="5" />
		<tag k="min_age" v="1" />
		<tag k="name" v="Føyka barnehage Gamle Drammensvei" />
		<tag k="no-barnehage:nsrid" v="874578592" />
		<tag k="operator" v="Asker kommune" />
		<tag k="operator:type" v="public" />
	</node>
	<node lat="59.82861" lon="10.40274" id="-2099">
		<tag k="ADDRESS" v="Ånnerudveien 11, 1383 ASKER" />
		<tag k="amenity" v="kindergarten" />
		<tag k="capacity" v="38" />
		<tag k="max_age" v="5" />
		<tag k="min_age" v="1" />
		<tag k="name" v="Føyka barnehage Ånnerudveien" />
		<tag k="no-barnehage:nsrid" v="973352091" />
		<tag k="operator" v="Asker kommune" />
		<tag k="operator:type" v="public" />
	</node>
	<node lat="59.56142" lon="10.58129" id="-2100">
		<tag k="ADDRESS" v="Jordet 1, 3480 FILTVET" />
		<tag k="amenity" v="kindergarten" />
		<tag k="capacity" v="35" />
		<tag k="contact:website" v="http://www.asker.kommune.no" />
		<tag k="max_age" v="5" />
		<tag k="min_age" v="1" />
		<tag k="name" v="Gulspurven barnehage" />
		<tag k="no-barnehage:nsrid" v="975320235" />
		<tag k="operator" v="Asker kommune" />
		<tag k="operator:type" v="public" />
	</node>
	<node lat="59.84679" lon="10.41877" id="-2102">
		<tag k="ADDRESS" v="Hanevoldveien 9B, 1384 ASKER" />
		<tag k="amenity" v="kindergarten" />
		<tag k="capacity" v="54" />
		<tag k="contact:website" v="http://www.hanevold.barnehage.no" />
		<tag k="max_age" v="5" />
		<tag k="min_age" v="1" />
		<tag k="name" v="Hanevold Barnegård" />
		<tag k="no-barnehage:nsrid" v="992862807" />
		<tag k="operator" v="Hanevold Barnegård AS" />
		<tag k="operator:type" v="private" />
	</node>
	<node lat="59.85272" lon="10.46718" id="-2103">
		<tag k="ADDRESS" v="Greverudveien 8C, 1395 HVALSTAD" />
		<tag k="amenity" v="kindergarten" />
		<tag k="capacity" v="14" />
		<tag k="max_age" v="2" />
		<tag k="min_age" v="1" />
		<tag k="name" v="Haugtussa barnehage" />
		<tag k="no-barnehage:nsrid" v="915127207" />
		<tag k="operator" v="Asker kommune" />
		<tag k="operator:type" v="public" />
	</node>
	<node lat="59.78114" lon="10.44596" id="-2104">
		<tag k="ADDRESS" v="Heggedalskogen 60, 1389 HEGGEDAL" />
		<tag k="amenity" v="kindergarten" />
		<tag k="capacity" v="14" />
		<tag k="contact:website" v="http://www.asker.kommune.no/barnehage/barnehagene/heggedalskogen-barnehage/" />
		<tag k="max_age" v="5" />
		<tag k="min_age" v="3" />
		<tag k="name" v="Heggedalskogen barnehage Friluft" />
		<tag k="no-barnehage:nsrid" v="915126960" />
		<tag k="operator" v="Asker kommune" />
		<tag k="operator:type" v="public" />
	</node>
	<node lat="59.78314" lon="10.44644" id="-2105">
		<tag k="ADDRESS" v="Heggedalskogen 8, 1389 HEGGEDAL" />
		<tag k="amenity" v="kindergarten" />
		<tag k="capacity" v="44" />
		<tag k="contact:website" v="http://www.asker.kommune.no/barnehage/barnehagene/heggedalskogen-barnehage/" />
		<tag k="max_age" v="5" />
		<tag k="min_age" v="1" />
		<tag k="name" v="Heggedalskogen barnehage Heggedalskogen" />
		<tag k="no-barnehage:nsrid" v="974578670" />
		<tag k="operator" v="Asker kommune" />
		<tag k="operator:type" v="public" />
	</node>
	<node lat="59.74727" lon="10.4018" id="-2106">
		<tag k="ADDRESS" v="Heggumhøgda 3, 3440 RØYKEN" />
		<tag k="amenity" v="kindergarten" />
		<tag k="capacity" v="41" />
		<tag k="contact:website" v="http://www.heggumbarnehage.no" />
		<tag k="max_age" v="5" />
		<tag k="min_age" v="1" />
		<tag k="name" v="Heggum barnehage" />
		<tag k="no-barnehage:nsrid" v="980503275" />
		<tag k="operator" v="Heggum barnehage AS" />
		<tag k="operator:type" v="private" />
	</node>
	<node lat="59.74248" lon="10.34166" id="-2107">
		<tag k="ADDRESS" v="Helledamsveien 31, 3430 SPIKKESTAD" />
		<tag k="amenity" v="kindergarten" />
		<tag k="capacity" v="26" />
		<tag k="max_age" v="5" />
		<tag k="min_age" v="1" />
		<tag k="name" v="Helledammen FUS barnehage" />
		<tag k="no-barnehage:nsrid" v="989662031" />
		<tag k="operator" v="Helledammen Fus barnehage AS" />
		<tag k="operator:type" v="private" />
	</node>
	<node lat="59.86581" lon="10.48455" id="-2108">
		<tag k="ADDRESS" v="Torstadveien 1, 1396 BILLINGSTAD" />
		<tag k="amenity" v="kindergarten" />
		<tag k="capacity" v="73" />
		<tag k="contact:website" v="http://julie.helena.kuiters@asker.kommune.no" />
		<tag k="max_age" v="5" />
		<tag k="min_age" v="1" />
		<tag k="name" v="Holmen barnehage" />
		<tag k="no-barnehage:nsrid" v="974578611" />
		<tag k="operator" v="Asker kommune" />
		<tag k="operator:type" v="public" />
	</node>
	<node lat="59.87209" lon="10.48909" id="-2109">
		<tag k="ADDRESS" v="Nesbruveien 55A, 1396 BILLINGSTAD" />
		<tag k="amenity" v="kindergarten" />
		<tag k="capacity" v="16" />
		<tag k="contact:website" v="http://www.kirken.no/nb-NO/fellesrad/askerfellesrad/menigheter/holmentoppen-barnehage/" />
		<tag k="max_age" v="5" />
		<tag k="min_age" v="1" />
		<tag k="name" v="Holmentoppen barnehage" />
		<tag k="no-barnehage:nsrid" v="873349352" />
		<tag k="operator" v="Asker Kirkelige Fellesråd" />
		<tag k="operator:type" v="private" />
	</node>
	<node lat="59.84396" lon="10.48648" id="-2110">
		<tag k="ADDRESS" v="Hvalsveien 35, 1394 NESBRU" />
		<tag k="amenity" v="kindergarten" />
		<tag k="capacity" v="98" />
		<tag k="contact:website" v="http://hvalgard.no" />
		<tag k="max_age" v="5" />
		<tag k="min_age" v="1" />
		<tag k="name" v="Hval gård barnehage Hvalsveien" />
		<tag k="no-barnehage:nsrid" v="974578735" />
		<tag k="operator" v="Asker kommune" />
		<tag k="operator:type" v="public" />
	</node>
	<node lat="59.86117" lon="10.46696" id="-2111">
		<tag k="ADDRESS" v="Hvalstadveien 21, 1395 HVALSTAD" />
		<tag k="amenity" v="kindergarten" />
		<tag k="capacity" v="75" />
		<tag k="max_age" v="5" />
		<tag k="min_age" v="1" />
		<tag k="name" v="Hvalstad barnehage" />
		<tag k="no-barnehage:nsrid" v="980339610" />
		<tag k="operator" v="Asker kommune" />
		<tag k="operator:type" v="public" />
	</node>
	<node lat="59.71708" lon="10.37403" id="-2112">
		<tag k="ADDRESS" v="Bakkekroken 12, 3442 HYGGEN" />
		<tag k="amenity" v="kindergarten" />
		<tag k="capacity" v="32" />
		<tag k="contact:website" v="http://www.asker.kommune.no/" />
		<tag k="max_age" v="5" />
		<tag k="min_age" v="1" />
		<tag k="name" v="Hyggen barnehage" />
		<tag k="no-barnehage:nsrid" v="989102702" />
		<tag k="operator" v="Asker kommune" />
		<tag k="operator:type" v="public" />
	</node>
	<node lat="59.54854" lon="10.48512" id="-2113">
		<tag k="ADDRESS" v="Aaslyveien 4, 3483 KANA" />
		<tag k="amenity" v="kindergarten" />
		<tag k="capacity" v="52" />
		<tag k="max_age" v="5" />
		<tag k="min_age" v="1" />
		<tag k="name" v="Kana barnehage" />
		<tag k="no-barnehage:nsrid" v="973483625" />
		<tag k="operator" v="Stiftelsen Kana" />
		<tag k="operator:type" v="private" />
	</node>
	<node lat="59.78348" lon="10.4332" id="-2114">
		<tag k="ADDRESS" v="Vikingjordet 5, 1389 HEGGEDAL" />
		<tag k="amenity" v="kindergarten" />
		<tag k="capacity" v="95" />
		<tag k="contact:website" v="http://www.asker.kommune.no/barnehage/barnehagene/kistefossdammen-barnehage/" />
		<tag k="max_age" v="5" />
		<tag k="min_age" v="1" />
		<tag k="name" v="Kistefossdammen barnehage" />
		<tag k="no-barnehage:nsrid" v="918352651" />
		<tag k="operator" v="Asker kommune" />
		<tag k="operator:type" v="public" />
	</node>
	<node lat="59.75288" lon="10.39679" id="-2115">
		<tag k="ADDRESS" v="Heggveien 40, 3440 RØYKEN" />
		<tag k="amenity" v="kindergarten" />
		<tag k="capacity" v="53" />
		<tag k="max_age" v="5" />
		<tag k="min_age" v="1" />
		<tag k="name" v="Kjekstadmarka Kanvas-barnehage" />
		<tag k="no-barnehage:nsrid" v="983878032" />
		<tag k="operator" v="Stiftelsen Kanvas" />
		<tag k="operator:type" v="private" />
	</node>
	<node lat="59.60958" lon="10.45098" id="-2116">
		<tag k="ADDRESS" v="Knivsfjellveien 4, 3490 KLOKKARSTUA" />
		<tag k="amenity" v="kindergarten" />
		<tag k="capacity" v="35" />
		<tag k="contact:website" v="http://www.asker.kommune.no/" />
		<tag k="max_age" v="5" />
		<tag k="min_age" v="1" />
		<tag k="name" v="Klokkarstua barnehage" />
		<tag k="no-barnehage:nsrid" v="975306631" />
		<tag k="operator" v="Asker kommune" />
		<tag k="operator:type" v="public" />
	</node>
	<node lat="59.86089" lon="10.50245" id="-2117">
		<tag k="ADDRESS" v="Nesbukta 19, 1394 NESBRU" />
		<tag k="amenity" v="kindergarten" />
		<tag k="capacity" v="70" />
		<tag k="contact:website" v="http://www.asker.kommune.no/barnehage/barnehagene/landoya-barnehage/" />
		<tag k="max_age" v="5" />
		<tag k="min_age" v="1" />
		<tag k="name" v="Landøya barnehage" />
		<tag k="no-barnehage:nsrid" v="984280254" />
		<tag k="operator" v="Asker kommune" />
		<tag k="operator:type" v="public" />
	</node>
	<node lat="59.83944" lon="10.44588" id="-2118">
		<tag k="ADDRESS" v="Eikeveien 62, 1384 ASKER" />
		<tag k="amenity" v="kindergarten" />
		<tag k="capacity" v="29" />
		<tag k="max_age" v="5" />
		<tag k="min_age" v="1" />
		<tag k="name" v="Leikestua barnehage" />
		<tag k="no-barnehage:nsrid" v="973632574" />
		<tag k="operator" v="Stiftelsen Barnas Asker" />
		<tag k="operator:type" v="private" />
	</node>
	<node lat="59.87617" lon="10.4851" id="-2119">
		<tag k="ADDRESS" v="Bekkeveien 1, 1396 BILLINGSTAD" />
		<tag k="amenity" v="kindergarten" />
		<tag k="capacity" v="78" />
		<tag k="max_age" v="5" />
		<tag k="min_age" v="1" />
		<tag k="name" v="Læringsverkstedet Bekkeveien barnehage" />
		<tag k="no-barnehage:nsrid" v="996222055" />
		<tag k="operator" v="Læringsverkstedet Bekkeveien barnehage AS" />
		<tag k="operator:type" v="private" />
	</node>
	<node lat="59.85024" lon="10.46861" id="-2120">
		<tag k="ADDRESS" v="Bjørndalsveien 9, 1395 HVALSTAD" />
		<tag k="amenity" v="kindergarten" />
		<tag k="capacity" v="80" />
		<tag k="max_age" v="5" />
		<tag k="min_age" v="1" />
		<tag k="name" v="Læringsverkstedet Bjørndalen barnehage" />
		<tag k="no-barnehage:nsrid" v="896450832" />
		<tag k="operator" v="Læringsverkstedet Bjørndalen barnehage AS" />
		<tag k="operator:type" v="private" />
	</node>
	<node lat="59.82546" lon="10.45238" id="-2121">
		<tag k="ADDRESS" v="Langenga 62, 1386 ASKER" />
		<tag k="amenity" v="kindergarten" />
		<tag k="capacity" v="105" />
		<tag k="contact:website" v="http://laringsverkstedet.no/barnehage/velodromen-idrettsbarnehage" />
		<tag k="max_age" v="5" />
		<tag k="min_age" v="1" />
		<tag k="name" v="Læringsverkstedet Velodromen idrettsbarnehage" />
		<tag k="no-barnehage:nsrid" v="925810649" />
		<tag k="operator" v="Læringsverkstedet Velodromen idrettsbarnehage AS" />
		<tag k="operator:type" v="private" />
	</node>
	<node lat="59.86927" lon="10.48145" id="-2122">
		<tag k="ADDRESS" v="Bergerveien 17, 1396 BILLINGSTAD" />
		<tag k="amenity" v="kindergarten" />
		<tag k="capacity" v="145" />
		<tag k="contact:website" v="http://laringsverkstedet.no/barnehage/l%C3%A6ringsverkstedet-vestre-billingstad-natur" />
		<tag k="max_age" v="5" />
		<tag k="min_age" v="1" />
		<tag k="name" v="Læringsverkstedet Vestre Billingstad naturbarnehage" />
		<tag k="no-barnehage:nsrid" v="928527263" />
		<tag k="operator" v="Læringsverkstedet Vestre Billingstad naturbarnehage AS" />
		<tag k="operator:type" v="private" />
	</node>
	<node lat="59.86868" lon="10.49215" id="-2123">
		<tag k="ADDRESS" v="Nesbruveien 70, 1394 NESBRU" />
		<tag k="amenity" v="kindergarten" />
		<tag k="capacity" v="111" />
		<tag k="contact:website" v="http://mellomnes.bhg.no/" />
		<tag k="max_age" v="5" />
		<tag k="min_age" v="1" />
		<tag k="name" v="Mellom-nes FUS barnehage" />
		<tag k="no-barnehage:nsrid" v="993891231" />
		<tag k="operator" v="Mellom-Nes Fus barnehage AS" />
		<tag k="operator:type" v="private" />
	</node>
	<node lat="59.73765" lon="10.40279" id="-2124">
		<tag k="ADDRESS" v="Nils Slottos vei 5, 3440 RØYKEN" />
		<tag k="amenity" v="kindergarten" />
		<tag k="capacity" v="50" />
		<tag k="contact:website" v="http://midtbygda.kanvas.no/#hjem" />
		<tag k="max_age" v="5" />
		<tag k="min_age" v="1" />
		<tag k="name" v="Midtbygda Kanvas-barnehage" />
		<tag k="no-barnehage:nsrid" v="875375822" />
		<tag k="operator" v="Stiftelsen Kanvas" />
		<tag k="operator:type" v="private" />
	</node>
	<node lat="59.77241" lon="10.49096" id="-2125">
		<tag k="ADDRESS" v="Nyveien 39, 3470 SLEMMESTAD" />
		<tag k="amenity" v="kindergarten" />
		<tag k="capacity" v="93" />
		<tag k="max_age" v="5" />
		<tag k="min_age" v="1" />
		<tag k="name" v="Morbergtoppen FUS barnehage" />
		<tag k="no-barnehage:nsrid" v="988615862" />
		<tag k="operator" v="Morbergtoppen Fus barnehage AS" />
		<tag k="operator:type" v="private" />
	</node>
	<node lat="59.82756" lon="10.45148" id="-2126">
		<tag k="ADDRESS" v="Morellveien 52, 1387 ASKER" />
		<tag k="amenity" v="kindergarten" />
		<tag k="capacity" v="72" />
		<tag k="contact:website" v="http://www.asker.kommune.no" />
		<tag k="max_age" v="5" />
		<tag k="min_age" v="1" />
		<tag k="name" v="Morellveien barnehage" />
		<tag k="no-barnehage:nsrid" v="974578654" />
		<tag k="operator" v="Asker kommune" />
		<tag k="operator:type" v="public" />
	</node>
	<node lat="59.85507" lon="10.42496" id="-2127">
		<tag k="ADDRESS" v="Semsveien 152, 1384 ASKER" />
		<tag k="amenity" v="kindergarten" />
		<tag k="capacity" v="25" />
		<tag k="contact:website" v="http://www.nakuhelbarnehagen.no" />
		<tag k="max_age" v="5" />
		<tag k="min_age" v="1" />
		<tag k="name" v="Nakuhel friluftsbarnehage" />
		<tag k="no-barnehage:nsrid" v="891191162" />
		<tag k="operator" v="Nakuhel friluftsbarnehage SA" />
		<tag k="operator:type" v="private" />
	</node>
	<node lat="0.0" lon="0.0" id="-2128">
		<tag k="ADDRESS" v="Håkavikveien 9, 1390 VOLLEN" />
		<tag k="amenity" v="kindergarten" />
		<tag k="capacity" v="50" />
		<tag k="contact:website" v="http://www.nansentunet.com" />
		<tag k="max_age" v="5" />
		<tag k="min_age" v="1" />
		<tag k="name" v="Nansentunet musikkbarnehage" />
		<tag k="no-barnehage:nsrid" v="983592066" />
		<tag k="operator" v="Nansentunet musikkbarnehage SA" />
		<tag k="operator:type" v="private" />
	</node>
	<node lat="59.82323" lon="10.44728" id="-2129">
		<tag k="ADDRESS" v="Ridderkleiva 49, 1386 ASKER" />
		<tag k="amenity" v="kindergarten" />
		<tag k="capacity" v="72" />
		<tag k="contact:website" v="http://nbbh.barnehage.no" />
		<tag k="max_age" v="5" />
		<tag k="min_age" v="1" />
		<tag k="name" v="Nedre Bleiker Barnehus" />
		<tag k="no-barnehage:nsrid" v="973382373" />
		<tag k="operator" v="Stiftelsen Nedre Bleiker Barnehus" />
		<tag k="operator:type" v="private" />
	</node>
	<node lat="59.72845" lon="10.51233" id="-2130">
		<tag k="ADDRESS" v="Høvikskogen 2, 3477 BÅTSTØ" />
		<tag k="amenity" v="kindergarten" />
		<tag k="capacity" v="67" />
		<tag k="contact:website" v="http://www.fus.no/nedrehovik" />
		<tag k="max_age" v="5" />
		<tag k="min_age" v="1" />
		<tag k="name" v="Nedre Høvik FUS barnehage" />
		<tag k="no-barnehage:nsrid" v="990011540" />
		<tag k="operator" v="Nedre Høvik Fus barnehage AS" />
		<tag k="operator:type" v="private" />
	</node>
	<node lat="59.85955" lon="10.48987" id="-2131">
		<tag k="ADDRESS" v="Langkroken 13, 1394 NESBRU" />
		<tag k="amenity" v="kindergarten" />
		<tag k="capacity" v="42" />
		<tag k="contact:website" v="http://nesbru.barnehage.no/" />
		<tag k="max_age" v="5" />
		<tag k="min_age" v="1" />
		<tag k="name" v="Nesbru barnehage" />
		<tag k="no-barnehage:nsrid" v="973382349" />
		<tag k="operator" v="Nesbru Kvinne- og Familielag" />
		<tag k="operator:type" v="private" />
	</node>
	<node lat="59.86954" lon="10.51477" id="-2132">
		<tag k="ADDRESS" v="Vestre vei 3, 1397 NESØYA" />
		<tag k="amenity" v="kindergarten" />
		<tag k="capacity" v="46" />
		<tag k="contact:website" v="http://www.asker.kommune.no/barnehage/barnehagene/nesoya-barnehage/" />
		<tag k="max_age" v="5" />
		<tag k="min_age" v="1" />
		<tag k="name" v="Nesøya barnehage" />
		<tag k="no-barnehage:nsrid" v="974578727" />
		<tag k="operator" v="Asker kommune" />
		<tag k="operator:type" v="public" />
	</node>
	<node lat="59.81305" lon="10.4291" id="-2133">
		<tag k="ADDRESS" v="Trettestykket 39, 1388 BORGEN" />
		<tag k="amenity" v="kindergarten" />
		<tag k="capacity" v="45" />
		<tag k="max_age" v="5" />
		<tag k="min_age" v="1" />
		<tag k="name" v="Norlandia Lilleborgen barnehage" />
		<tag k="no-barnehage:nsrid" v="973500988" />
		<tag k="operator" v="Norlandia Lilleborgen barnehage AS" />
		<tag k="operator:type" v="private" />
	</node>
	<node lat="59.80359" lon="10.47507" id="-2134">
		<tag k="ADDRESS" v="Vollenmarka 31, 1390 VOLLEN" />
		<tag k="amenity" v="kindergarten" />
		<tag k="capacity" v="89" />
		<tag k="contact:website" v="http://nilsemarka.norlandiabarnehagene.no" />
		<tag k="max_age" v="5" />
		<tag k="min_age" v="1" />
		<tag k="name" v="Norlandia Nilsemarka barnehage" />
		<tag k="no-barnehage:nsrid" v="993017914" />
		<tag k="operator" v="Norlandia Nilsemarka barnehage AS" />
		<tag k="operator:type" v="private" />
	</node>
	<node lat="59.76076" lon="10.49749" id="-2135">
		<tag k="ADDRESS" v="Sundbyveien 5, 3478 NÆRSNES" />
		<tag k="amenity" v="kindergarten" />
		<tag k="capacity" v="18" />
		<tag k="max_age" v="5" />
		<tag k="min_age" v="1" />
		<tag k="name" v="Nærsnes barnehage" />
		<tag k="no-barnehage:nsrid" v="974203243" />
		<tag k="operator" v="Nærsnes barnehage SA" />
		<tag k="operator:type" v="private" />
	</node>
	<node lat="59.75443" lon="10.50183" id="-2136">
		<tag k="ADDRESS" v="Sokkabekkveien 1, 3478 NÆRSNES" />
		<tag k="amenity" v="kindergarten" />
		<tag k="capacity" v="79" />
		<tag k="contact:website" v="http://www.kystbarnehagen.no" />
		<tag k="max_age" v="5" />
		<tag k="min_age" v="1" />
		<tag k="name" v="Nærsnes kystbarnehage" />
		<tag k="no-barnehage:nsrid" v="974203235" />
		<tag k="operator" v="Nærsnes kystbarnehage AS" />
		<tag k="operator:type" v="private" />
	</node>
	<node lat="59.75012" lon="10.33739" id="-2137">
		<tag k="ADDRESS" v="Kunnskapsveien 44, 3430 SPIKKESTAD" />
		<tag k="amenity" v="kindergarten" />
		<tag k="capacity" v="77" />
		<tag k="max_age" v="5" />
		<tag k="min_age" v="1" />
		<tag k="name" v="Paletten Kanvas-barnehage" />
		<tag k="no-barnehage:nsrid" v="991019790" />
		<tag k="operator" v="Stiftelsen Kanvas" />
		<tag k="operator:type" v="private" />
	</node>
	<node lat="59.86201" lon="10.49529" id="-2138">
		<tag k="ADDRESS" v="Nesvangen 4, 1394 NESBRU" />
		<tag k="amenity" v="kindergarten" />
		<tag k="capacity" v="47" />
		<tag k="contact:website" v="http://regnbuen.steinerbarnehage.no" />
		<tag k="max_age" v="5" />
		<tag k="min_age" v="1" />
		<tag k="name" v="Regnbuen Steinerbarnehage" />
		<tag k="no-barnehage:nsrid" v="974185431" />
		<tag k="operator" v="Stiftelsen Regnbuen steinerbarnehage" />
		<tag k="operator:type" v="private" />
	</node>
	<node lat="59.85868" lon="10.46087" id="-2139">
		<tag k="ADDRESS" v="Hvalstadlia 3, 1395 HVALSTAD" />
		<tag k="amenity" v="kindergarten" />
		<tag k="capacity" v="47" />
		<tag k="contact:website" v="http://www.steinerbarnehagene.asker.no" />
		<tag k="max_age" v="5" />
		<tag k="min_age" v="1" />
		<tag k="name" v="Rudolf steinerbarnehagen i Asker" />
		<tag k="no-barnehage:nsrid" v="973464809" />
		<tag k="operator" v="Stiftelsen Rudolf Steinerbarnehagen i Asker" />
		<tag k="operator:type" v="private" />
	</node>
	<node lat="59.74582" lon="10.39324" id="-2140">
		<tag k="ADDRESS" v="Løkenveien 1, 3440 RØYKEN" />
		<tag k="amenity" v="kindergarten" />
		<tag k="capacity" v="42" />
		<tag k="contact:website" v="http://www.asker.kommune.no/" />
		<tag k="max_age" v="5" />
		<tag k="min_age" v="1" />
		<tag k="name" v="Røyken barnehage" />
		<tag k="no-barnehage:nsrid" v="973746901" />
		<tag k="operator" v="Asker kommune" />
		<tag k="operator:type" v="public" />
	</node>
	<node lat="59.85185" lon="10.42292" id="-2141">
		<tag k="ADDRESS" v="Semsveien 137, 1384 ASKER" />
		<tag k="amenity" v="kindergarten" />
		<tag k="capacity" v="48" />
		<tag k="contact:website" v="http://sembarnehage.no" />
		<tag k="max_age" v="5" />
		<tag k="min_age" v="1" />
		<tag k="name" v="Sem barnehage" />
		<tag k="no-barnehage:nsrid" v="972164143" />
		<tag k="operator" v="Sem barnehage SA" />
		<tag k="operator:type" v="private" />
	</node>
	<node lat="59.77929" lon="10.48865" id="-2142">
		<tag k="ADDRESS" v="Boligveien 22, 3470 SLEMMESTAD" />
		<tag k="amenity" v="kindergarten" />
		<tag k="capacity" v="60" />
		<tag k="contact:website" v="http://www.asker.kommune.no/barnehage/barnehagene/slemmestad-barnehage/" />
		<tag k="max_age" v="5" />
		<tag k="min_age" v="1" />
		<tag k="name" v="Slemmestad barnehage" />
		<tag k="no-barnehage:nsrid" v="974559137" />
		<tag k="operator" v="Asker kommune" />
		<tag k="operator:type" v="public" />
	</node>
	<node lat="59.66694" lon="10.53174" id="-2143">
		<tag k="ADDRESS" v="Stampeleina 2, 3475 SÆTRE" />
		<tag k="amenity" v="kindergarten" />
		<tag k="capacity" v="78" />
		<tag k="contact:website" v="http://www.asker.kommune.no/barnehage/barnehagene/slingrebekken-barnehage/" />
		<tag k="max_age" v="5" />
		<tag k="min_age" v="1" />
		<tag k="name" v="Slingrebekken barnehage" />
		<tag k="no-barnehage:nsrid" v="975295494" />
		<tag k="operator" v="Asker kommune" />
		<tag k="operator:type" v="public" />
	</node>
	<node lat="0.0" lon="0.0" id="-2144">
		<tag k="ADDRESS" v="Kirkeveien 100, 1384 ASKER" />
		<tag k="amenity" v="kindergarten" />
		<tag k="capacity" v="112" />
		<tag k="max_age" v="5" />
		<tag k="min_age" v="1" />
		<tag k="name" v="Solgården barnehage" />
		<tag k="no-barnehage:nsrid" v="974578700" />
		<tag k="operator" v="Asker kommune" />
		<tag k="operator:type" v="public" />
	</node>
	<node lat="59.85926" lon="10.46035" id="-2145">
		<tag k="ADDRESS" v="Solstadveien 77, 1395 HVALSTAD" />
		<tag k="amenity" v="kindergarten" />
		<tag k="capacity" v="53" />
		<tag k="max_age" v="5" />
		<tag k="min_age" v="1" />
		<tag k="name" v="Solstad barnehage" />
		<tag k="no-barnehage:nsrid" v="974578662" />
		<tag k="operator" v="Asker kommune" />
		<tag k="operator:type" v="public" />
	</node>
	<node lat="59.74575" lon="10.33695" id="-2146">
		<tag k="ADDRESS" v="Teglverksveien 8, 3430 SPIKKESTAD" />
		<tag k="amenity" v="kindergarten" />
		<tag k="capacity" v="57" />
		<tag k="max_age" v="5" />
		<tag k="min_age" v="1" />
		<tag k="name" v="Spikkestad Kanvas-barnehage" />
		<tag k="no-barnehage:nsrid" v="974195240" />
		<tag k="operator" v="Stiftelsen Kanvas" />
		<tag k="operator:type" v="private" />
	</node>
	<node lat="59.70931" lon="10.50724" id="-2147">
		<tag k="ADDRESS" v="Hurumveien 42, 3474 ÅROS" />
		<tag k="amenity" v="kindergarten" />
		<tag k="capacity" v="27" />
		<tag k="contact:website" v="http://www.itryggehender.no" />
		<tag k="max_age" v="5" />
		<tag k="min_age" v="1" />
		<tag k="name" v="Spiren barnehage" />
		<tag k="no-barnehage:nsrid" v="987013354" />
		<tag k="operator" v="I Trygge Hender AS" />
		<tag k="operator:type" v="private" />
	</node>
	<node lat="59.85906" lon="10.46062" id="-2148">
		<tag k="ADDRESS" v="Solstadveien 79, 1395 HVALSTAD" />
		<tag k="amenity" v="kindergarten" />
		<tag k="capacity" v="19" />
		<tag k="max_age" v="5" />
		<tag k="min_age" v="1" />
		<tag k="name" v="Stiftelsen Tertitten barnehage" />
		<tag k="no-barnehage:nsrid" v="974146592" />
		<tag k="operator" v="Stiftelsen Tertitten barnehage" />
		<tag k="operator:type" v="private" />
	</node>
	<node lat="0.0" lon="0.0" id="-2149">
		<tag k="ADDRESS" v="Vollenveien 34, 1390 VOLLEN" />
		<tag k="amenity" v="kindergarten" />
		<tag k="capacity" v="82" />
		<tag k="contact:website" v="http://www.vollenmontessori.no" />
		<tag k="max_age" v="5" />
		<tag k="min_age" v="1" />
		<tag k="name" v="Stiftelsen Vollen montessoribarnehage" />
		<tag k="no-barnehage:nsrid" v="991746358" />
		<tag k="operator" v="Stiftelsen Vollen montessoribarnehage" />
		<tag k="operator:type" v="private" />
	</node>
	<node lat="59.79997" lon="10.3717" id="-2150">
		<tag k="ADDRESS" v="Verkensveien 22, 1385 ASKER" />
		<tag k="amenity" v="kindergarten" />
		<tag k="capacity" v="58" />
		<tag k="max_age" v="5" />
		<tag k="min_age" v="1" />
		<tag k="name" v="Stinaløkka Kanvas-barnehage" />
		<tag k="no-barnehage:nsrid" v="980125637" />
		<tag k="operator" v="Stiftelsen Kanvas" />
		<tag k="operator:type" v="private" />
	</node>
	<node lat="59.76116" lon="10.45346" id="-2151">
		<tag k="ADDRESS" v="Tors vei 182, 3472 BØDALEN" />
		<tag k="amenity" v="kindergarten" />
		<tag k="capacity" v="60" />
		<tag k="contact:website" v="http://www.asker.kommune.no/barnehage/barnehagene/sydskogen-barnehage/" />
		<tag k="max_age" v="5" />
		<tag k="min_age" v="1" />
		<tag k="name" v="Sydskogen barnehage" />
		<tag k="no-barnehage:nsrid" v="873746882" />
		<tag k="operator" v="Asker kommune" />
		<tag k="operator:type" v="public" />
	</node>
	<node lat="0.0" lon="0.0" id="-2152">
		<tag k="ADDRESS" v="Søndre Borgen 16, 1388 BORGEN" />
		<tag k="amenity" v="kindergarten" />
		<tag k="capacity" v="59" />
		<tag k="max_age" v="5" />
		<tag k="min_age" v="1" />
		<tag k="name" v="Søndre Borgen barnehage" />
		<tag k="no-barnehage:nsrid" v="974578638" />
		<tag k="operator" v="Asker kommune" />
		<tag k="operator:type" v="public" />
	</node>
	<node lat="59.78732" lon="10.47099" id="-2153">
		<tag k="ADDRESS" v="Torpmarka 156, 1389 HEGGEDAL" />
		<tag k="amenity" v="kindergarten" />
		<tag k="capacity" v="55" />
		<tag k="contact:website" v="http://torp.hoymyr.barnehage.no" />
		<tag k="max_age" v="5" />
		<tag k="min_age" v="1" />
		<tag k="name" v="Torp Høymyr barnehage" />
		<tag k="no-barnehage:nsrid" v="976097327" />
		<tag k="operator" v="Torp Høymyr barnehage SA" />
		<tag k="operator:type" v="private" />
	</node>
	<node lat="59.76114" lon="10.47794" id="-2154">
		<tag k="ADDRESS" v="Østskogveien 40, 3470 SLEMMESTAD" />
		<tag k="amenity" v="kindergarten" />
		<tag k="capacity" v="62" />
		<tag k="contact:website" v="http://torvbraten.kanvas.no/" />
		<tag k="max_age" v="5" />
		<tag k="min_age" v="1" />
		<tag k="name" v="Torvbråten Kanvas-barnehage" />
		<tag k="no-barnehage:nsrid" v="973596683" />
		<tag k="operator" v="Stiftelsen Kanvas" />
		<tag k="operator:type" v="private" />
	</node>
	<node lat="59.82283" lon="10.38548" id="-2155">
		<tag k="ADDRESS" v="Brendsrudtoppen 60, 1385 ASKER" />
		<tag k="amenity" v="kindergarten" />
		<tag k="capacity" v="61" />
		<tag k="contact:website" v="http://staging.frelsesarmeen.no/barn-og-unge/frelsesarmeens-barnehager" />
		<tag k="max_age" v="5" />
		<tag k="min_age" v="1" />
		<tag k="name" v="Trollstua, Frelsesarmeens barnehage i Asker" />
		<tag k="no-barnehage:nsrid" v="873111992" />
		<tag k="operator" v="Trollstua, Frelsesarmeens barnehage i Asker AS" />
		<tag k="operator:type" v="private" />
	</node>
	<node lat="59.77807" lon="10.49023" id="-2156">
		<tag k="ADDRESS" v="Kirkealleen 114, 3470 SLEMMESTAD" />
		<tag k="amenity" v="kindergarten" />
		<tag k="capacity" v="82" />
		<tag k="contact:website" v="http://utforskeren.kanvas.no" />
		<tag k="max_age" v="5" />
		<tag k="min_age" v="1" />
		<tag k="name" v="Utforskeren Kanvas-barnehage" />
		<tag k="no-barnehage:nsrid" v="994264303" />
		<tag k="operator" v="Stiftelsen Kanvas" />
		<tag k="operator:type" v="private" />
	</node>
	<node lat="59.8196" lon="10.38258" id="-2158">
		<tag k="ADDRESS" v="Slottsberget 6, 1385 ASKER" />
		<tag k="amenity" v="kindergarten" />
		<tag k="capacity" v="60" />
		<tag k="contact:website" v="http://www.vardba.no" />
		<tag k="max_age" v="5" />
		<tag k="min_age" v="1" />
		<tag k="name" v="Vardåsen barnehage" />
		<tag k="no-barnehage:nsrid" v="981205502" />
		<tag k="operator" v="Vardåsen barnehage SA" />
		<tag k="operator:type" v="private" />
	</node>
	<node lat="59.86525" lon="10.49107" id="-2159">
		<tag k="ADDRESS" v="Årengveien 1B, 1394 NESBRU" />
		<tag k="amenity" v="kindergarten" />
		<tag k="capacity" v="28" />
		<tag k="max_age" v="5" />
		<tag k="min_age" v="1" />
		<tag k="name" v="Vekstbarnehagen" />
		<tag k="no-barnehage:nsrid" v="972207713" />
		<tag k="operator" v="Vekstbarnehagen AS" />
		<tag k="operator:type" v="private" />
	</node>
	<node lat="59.86256" lon="10.52552" id="-2160">
		<tag k="ADDRESS" v="Søndre vei 12, 1397 NESØYA" />
		<tag k="amenity" v="kindergarten" />
		<tag k="capacity" v="132" />
		<tag k="contact:website" v="http://www.asker.kommune.no/vendlabarnehage" />
		<tag k="max_age" v="5" />
		<tag k="min_age" v="1" />
		<tag k="name" v="Vendla barnehage" />
		<tag k="no-barnehage:nsrid" v="991458476" />
		<tag k="operator" v="Asker kommune" />
		<tag k="operator:type" v="public" />
	</node>
	<node lat="59.78291" lon="10.43214" id="-2161">
		<tag k="ADDRESS" v="Åmotåsen 1, 1389 HEGGEDAL" />
		<tag k="amenity" v="kindergarten" />
		<tag k="capacity" v="72" />
		<tag k="contact:website" v="http://www.asker.kommune.no/barnehage/barnehagene/vikingjordet-barnehage/" />
		<tag k="max_age" v="5" />
		<tag k="min_age" v="1" />
		<tag k="name" v="Vikingjordet barnehage Åmotåsen" />
		<tag k="no-barnehage:nsrid" v="974578743" />
		<tag k="operator" v="Asker kommune" />
		<tag k="operator:type" v="public" />
	</node>
	<node lat="59.79213" lon="10.44928" id="-2162">
		<tag k="ADDRESS" v="Øvre Gjellum vei 4, 1389 HEGGEDAL" />
		<tag k="amenity" v="kindergarten" />
		<tag k="capacity" v="12" />
		<tag k="contact:website" v="http://www.asker.kommune.no/barnehage/barnehagene/vikingjordet-barnehage/avdeling-idrett/" />
		<tag k="max_age" v="5" />
		<tag k="min_age" v="3" />
		<tag k="name" v="Vikingjordet barnehage Idrettsavdeling" />
		<tag k="no-barnehage:nsrid" v="915127479" />
		<tag k="operator" v="Asker kommune" />
		<tag k="operator:type" v="public" />
	</node>
	<node lat="59.7877" lon="10.49321" id="-2164">
		<tag k="ADDRESS" v="Eternitveien 27, 3470 SLEMMESTAD" />
		<tag k="amenity" v="kindergarten" />
		<tag k="capacity" v="37" />
		<tag k="contact:website" v="http://www.vollen-kystkulturbhg.no" />
		<tag k="max_age" v="5" />
		<tag k="min_age" v="1" />
		<tag k="name" v="Vollen kystkulturbarnehage" />
		<tag k="no-barnehage:nsrid" v="976006739" />
		<tag k="operator" v="Vollen kystkulturbarnehage AS" />
		<tag k="operator:type" v="private" />
	</node>
	<node lat="59.65857" lon="10.579" id="-2165">
		<tag k="ADDRESS" v="Storsandveien 5B, 3475 SÆTRE" />
		<tag k="amenity" v="kindergarten" />
		<tag k="capacity" v="94" />
		<tag k="contact:website" v="http://www.odegarden.norlandiabarnehagene.no" />
		<tag k="max_age" v="5" />
		<tag k="min_age" v="1" />
		<tag k="name" v="Ødegården barnehagedrift" />
		<tag k="no-barnehage:nsrid" v="996709019" />
		<tag k="operator" v="Ødegården Barnehagedrift AS" />
		<tag k="operator:type" v="private" />
	</node>
	<node lat="59.81264" lon="10.46381" id="-2166">
		<tag k="ADDRESS" v="Gudolf Blakstads vei 40, 1392 VETTRE" />
		<tag k="amenity" v="kindergarten" />
		<tag k="capacity" v="18" />
		<tag k="contact:website" v="http://www.kirken.no/nb-NO/fellesrad/askerfellesrad/menigheter/ostenstad-menighetsbarnehage/" />
		<tag k="max_age" v="5" />
		<tag k="min_age" v="1" />
		<tag k="name" v="Østenstad menighetsbarnehage" />
		<tag k="no-barnehage:nsrid" v="973456466" />
		<tag k="operator" v="Asker Kirkelige Fellesråd" />
		<tag k="operator:type" v="private" />
	</node>
	<node lat="59.81539" lon="10.42895" id="-2167">
		<tag k="ADDRESS" v="Østhellinga 21, 1388 BORGEN" />
		<tag k="amenity" v="kindergarten" />
		<tag k="capacity" v="47" />
		<tag k="max_age" v="5" />
		<tag k="min_age" v="1" />
		<tag k="name" v="Østhellinga barnehage" />
		<tag k="no-barnehage:nsrid" v="874578622" />
		<tag k="operator" v="Asker kommune" />
		<tag k="operator:type" v="public" />
	</node>
	<node lat="59.82155" lon="10.45636" id="-2168">
		<tag k="ADDRESS" v="Åbyfaret 201, 1392 VETTRE" />
		<tag k="amenity" v="kindergarten" />
		<tag k="capacity" v="72" />
		<tag k="contact:website" v="http://www.asker.kommune.no" />
		<tag k="max_age" v="5" />
		<tag k="min_age" v="1" />
		<tag k="name" v="Åby barnehage" />
		<tag k="no-barnehage:nsrid" v="973601849" />
		<tag k="operator" v="Asker kommune" />
		<tag k="operator:type" v="public" />
	</node>
	<node lat="59.83024" lon="10.4052" id="-2169">
		<tag k="ADDRESS" v="Gamle Drammensvei 308, 1383 ASKER" />
		<tag k="amenity" v="kindergarten" />
		<tag k="capacity" v="29" />
		<tag k="contact:website" v="http://www.annerudbarnehus.no" />
		<tag k="max_age" v="5" />
		<tag k="min_age" v="1" />
		<tag k="name" v="Ånnerud Barnehus" />
		<tag k="no-barnehage:nsrid" v="973353942" />
		<tag k="operator" v="Ånnerud Barnehus SA" />
		<tag k="operator:type" v="private" />
	</node>
	<node lat="59.83205" lon="10.40945" id="-2170">
		<tag k="ADDRESS" v="Ånnerudtoppen 2, 1383 ASKER" />
		<tag k="amenity" v="kindergarten" />
		<tag k="capacity" v="80" />
		<tag k="contact:website" v="http://www.annerudtoppen.no" />
		<tag k="max_age" v="5" />
		<tag k="min_age" v="1" />
		<tag k="name" v="Ånnerudtoppen barnehage" />
		<tag k="no-barnehage:nsrid" v="981988779" />
		<tag k="operator" v="Ånnerudtoppen barnehage SA" />
		<tag k="operator:type" v="private" />
	</node>
	<node lat="59.8232" lon="10.42704" id="-2171">
		<tag k="ADDRESS" v="Borgenveien 100, 1388 BORGEN" />
		<tag k="amenity" v="kindergarten" />
		<tag k="name" v="Åpen barnehage Borgen" />
		<tag k="no-barnehage:nsrid" v="933907686" />
		<tag k="operator" v="Asker kommune" />
		<tag k="operator:type" v="public" />
	</node>
	<node lat="59.74533" lon="10.41412" id="-2172">
		<tag k="ADDRESS" v="Vangsfjellveien 1, 3440 RØYKEN" />
		<tag k="amenity" v="kindergarten" />
		<tag k="contact:website" v="http://www.asker.kommune.no" />
		<tag k="name" v="Åpen barnehage Midtbygda" />
		<tag k="no-barnehage:nsrid" v="929423488" />
		<tag k="operator" v="Asker kommune" />
		<tag k="operator:type" v="public" />
	</node>
</osm>
