<?xml version="1.0" encoding="UTF-8"?>
<osm generator="osmapis" version="0.6">
	<node id="-2120" lat="61.25892" lon="10.43024">
		<tag k="amenity" v="kindergarten" />
		<tag k="capacity" v="52" />
		<tag k="contact:email" v="hagasletta@barnehage.no" />
		<tag k="contact:phone" v="61 27 82 97" />
		<tag k="max_age" v="5" />
		<tag k="min_age" v="1" />
		<tag k="name" v="Hågåsletta barnehage" />
		<tag k="no-barnehage:nsrid" v="1019576" />
		<tag k="operator" v="Hågåsletta barnehage" />
		<tag k="operator:type" v="private" />
		<tag k="start_date" v="1979-01-30" />
	</node>
	<node id="-2119" lat="61.24117" lon="10.44473">
		<tag k="amenity" v="kindergarten" />
		<tag k="capacity" v="30" />
		<tag k="contact:email" v="granrudmoen@hotmail.com" />
		<tag k="contact:phone" v="61 27 80 69" />
		<tag k="max_age" v="5" />
		<tag k="min_age" v="1" />
		<tag k="name" v="Granrudmoen barnehage Al" />
		<tag k="no-barnehage:nsrid" v="1020081" />
		<tag k="operator" v="Granrudmoen barnehage Sa" />
		<tag k="operator:type" v="private" />
		<tag k="start_date" v="1988-04-01" />
	</node>
	<node id="-2118" lat="61.28753" lon="10.25628">
		<tag k="amenity" v="kindergarten" />
		<tag k="capacity" v="22" />
		<tag k="contact:email" v="dulven@barnehage.no" />
		<tag k="contact:phone" v="61276299" />
		<tag k="contact:website" v="http://www.dulvenbarnehage.no" />
		<tag k="max_age" v="5" />
		<tag k="min_age" v="1" />
		<tag k="name" v="Dulven barnehage" />
		<tag k="no-barnehage:nsrid" v="1020004" />
		<tag k="operator" v="Dulven Friluftsbarnehage Sa" />
		<tag k="operator:type" v="private" />
		<tag k="start_date" v="1991-07-01" />
	</node>
	<node id="-2122" lat="61.2634" lon="10.4298">
		<tag k="amenity" v="kindergarten" />
		<tag k="capacity" v="70" />
		<tag k="contact:email" v="anne.margrethe.hallum@oyer.kommune.no" />
		<tag k="contact:phone" v="61 27 89 04" />
		<tag k="max_age" v="5" />
		<tag k="min_age" v="1" />
		<tag k="name" v="Vidarheim barnehage" />
		<tag k="no-barnehage:nsrid" v="1013860" />
		<tag k="operator" v="Øyer kommune" />
		<tag k="operator:type" v="public" />
		<tag k="start_date" v="1989-01-02" />
	</node>
	<node id="-2121" lat="61.3154" lon="10.3072">
		<tag k="amenity" v="kindergarten" />
		<tag k="capacity" v="54" />
		<tag k="contact:email" v="birgitte.moe@oyer.kommune.no" />
		<tag k="contact:phone" v="61 05 62 90" />
		<tag k="max_age" v="5" />
		<tag k="min_age" v="1" />
		<tag k="name" v="Mosjordet barnehage" />
		<tag k="no-barnehage:nsrid" v="1017954" />
		<tag k="operator" v="Øyer kommune" />
		<tag k="operator:type" v="public" />
		<tag k="start_date" v="1988-04-01" />
	</node>
</osm>
