<?xml version="1.0" encoding="UTF-8"?>
<osm generator="osmapis" version="0.6">
	<node id="-3496" lat="64.18802" lon="10.42136">
		<tag k="amenity" v="kindergarten" />
		<tag k="capacity" v="16" />
		<tag k="contact:website" v="http://www.roan.kommune.no/" />
		<tag k="max_age" v="5" />
		<tag k="min_age" v="1" />
		<tag k="name" v="Brandsfjord barnehage" />
		<tag k="no-barnehage:nsrid" v="1015869" />
		<tag k="operator" v="Roan kommune" />
		<tag k="operator:type" v="public" />
	</node>
	<node id="-3498" lat="0.0" lon="0.0">
		<tag k="amenity" v="kindergarten" />
		<tag k="capacity" v="9" />
		<tag k="max_age" v="5" />
		<tag k="min_age" v="1" />
		<tag k="name" v="Vik-bessaker barnehage" />
		<tag k="no-barnehage:nsrid" v="1015868" />
		<tag k="operator" v="Roan kommune" />
		<tag k="operator:type" v="public" />
	</node>
	<node id="-3497" lat="0.0" lon="0.0">
		<tag k="amenity" v="kindergarten" />
		<tag k="capacity" v="17" />
		<tag k="max_age" v="5" />
		<tag k="min_age" v="1" />
		<tag k="name" v="Tusseladden barnehage" />
		<tag k="no-barnehage:nsrid" v="1016115" />
		<tag k="operator" v="Roan kommune" />
		<tag k="operator:type" v="public" />
	</node>
</osm>
