<?xml version="1.0" encoding="UTF-8"?>
<osm version="0.6" generator="osmapis">
	<node lat="0.0" lon="0.0" id="-4560">
		<tag k="ADDRESS" v=", 6895 FEIOS" />
		<tag k="amenity" v="kindergarten" />
		<tag k="capacity" v="17" />
		<tag k="max_age" v="5" />
		<tag k="min_age" v="1" />
		<tag k="name" v="Feios barnehage" />
		<tag k="no-barnehage:nsrid" v="981098641" />
		<tag k="operator" v="Vik kommune" />
		<tag k="operator:type" v="public" />
	</node>
	<node lat="0.0" lon="0.0" id="-4561">
		<tag k="ADDRESS" v=", 6896 FRESVIK" />
		<tag k="amenity" v="kindergarten" />
		<tag k="capacity" v="11" />
		<tag k="max_age" v="5" />
		<tag k="min_age" v="1" />
		<tag k="name" v="Fresvik barnehage" />
		<tag k="no-barnehage:nsrid" v="981098692" />
		<tag k="operator" v="Vik kommune" />
		<tag k="operator:type" v="public" />
	</node>
	<node lat="0.0" lon="0.0" id="-4562">
		<tag k="ADDRESS" v="Framfjord, 6893 VIK I SOGN" />
		<tag k="amenity" v="kindergarten" />
		<tag k="capacity" v="3" />
		<tag k="max_age" v="5" />
		<tag k="min_age" v="1" />
		<tag k="name" v="Valsvik barnehage" />
		<tag k="no-barnehage:nsrid" v="982748054" />
		<tag k="operator" v="Vik kommune" />
		<tag k="operator:type" v="public" />
	</node>
	<node lat="0.0" lon="0.0" id="-4563">
		<tag k="ADDRESS" v=", 6893 VIK I SOGN" />
		<tag k="amenity" v="kindergarten" />
		<tag k="capacity" v="84" />
		<tag k="max_age" v="5" />
		<tag k="min_age" v="1" />
		<tag k="name" v="Vik barnehage" />
		<tag k="no-barnehage:nsrid" v="975295338" />
		<tag k="operator" v="Vik kommune" />
		<tag k="operator:type" v="public" />
	</node>
</osm>
