<?xml version="1.0" encoding="UTF-8"?>
<osm generator="osmapis" version="0.6">
	<node id="-3968" lat="63.7272" lon="9.6901">
		<tag k="amenity" v="kindergarten" />
		<tag k="capacity" v="39" />
		<tag k="contact:website" v="http://www.orland.kommune.no" />
		<tag k="doNotImportAddress" v="Ottersboveien 50 7140 OPPHAUG" />
		<tag k="max_age" v="5" />
		<tag k="min_age" v="1" />
		<tag k="name" v="Borgen barnehage" />
		<tag k="no-barnehage:nsrid" v="1014686" />
		<tag k="operator" v="Ørland kommune" />
		<tag k="operator:type" v="public" />
	</node>
	<node id="-3972" lat="63.68491" lon="9.652637">
		<tag k="amenity" v="kindergarten" />
		<tag k="capacity" v="22" />
		<tag k="contact:website" v="http://www.solblomsten.barnehage.no" />
		<tag k="doNotImportAddress" v="Skolegata 15 7130 BREKSTAD" />
		<tag k="max_age" v="5" />
		<tag k="min_age" v="1" />
		<tag k="name" v="Solblomsten Steinerbarnehage" />
		<tag k="no-barnehage:nsrid" v="1021480" />
		<tag k="operator" v="Stiftelsen Steinerbarnehagen på Fosen" />
		<tag k="operator:type" v="private" />
	</node>
	<node id="-3971" lat="63.6884" lon="9.663109">
		<tag k="amenity" v="kindergarten" />
		<tag k="capacity" v="28" />
		<tag k="doNotImportAddress" v="Flatnesveien 265 7130 BREKSTAD" />
		<tag k="max_age" v="5" />
		<tag k="min_age" v="1" />
		<tag k="name" v="Marihøna musikk og friluftsbarnehage" />
		<tag k="no-barnehage:nsrid" v="1021660" />
		<tag k="operator" v="Marihøna Musikk- og Friluftsbarnehage Ann-Elisabeth Svines Hustad" />
		<tag k="operator:type" v="private" />
	</node>
	<node id="-3970" lat="63.72522" lon="9.686926">
		<tag k="amenity" v="kindergarten" />
		<tag k="capacity" v="51" />
		<tag k="doNotImportAddress" v="Fru Ingers Vei 433 7140 OPPHAUG" />
		<tag k="max_age" v="5" />
		<tag k="min_age" v="1" />
		<tag k="name" v="Læringsverkstedet Opphaug natur og gårdsbarnehage" />
		<tag k="no-barnehage:nsrid" v="1021425" />
		<tag k="operator" v="Læringsverkstedet Opphaug Natur og Gårdsbarnehage AS" />
		<tag k="operator:type" v="private" />
	</node>
	<node id="-3969" lat="63.6884" lon="9.66311">
		<tag k="amenity" v="kindergarten" />
		<tag k="capacity" v="136" />
		<tag k="doNotImportAddress" v=" 7130 BREKSTAD" />
		<tag k="max_age" v="5" />
		<tag k="min_age" v="1" />
		<tag k="name" v="Futura barnehage" />
		<tag k="no-barnehage:nsrid" v="1016113" />
		<tag k="operator" v="Ørland kommune" />
		<tag k="operator:type" v="public" />
	</node>
</osm>
