<?xml version="1.0" encoding="UTF-8"?>
<osm generator="osmapis" version="0.6">
	<node id="-6048" lat="69.4702" lon="25.5225">
		<tag k="amenity" v="kindergarten" />
		<tag k="capacity" v="28" />
		<tag k="contact:email" v="guolban@karasjok.kommune.no" />
		<tag k="contact:phone" v="+47 78468090" />
		<tag k="max_age" v="5" />
		<tag k="min_age" v="1" />
		<tag k="name" v="Guolban Manaidgardi" />
		<tag k="no-barnehage:nsrid" v="1016169" />
		<tag k="operator" v="Karasjoga Gielda / Karasjok kommune" />
		<tag k="operator:type" v="public" />
		<tag k="start_date" v="1976-01-01" />
	</node>
	<node id="-6047" lat="69.47187" lon="25.51116">
		<tag k="amenity" v="kindergarten" />
		<tag k="capacity" v="16" />
		<tag k="contact:email" v="badjembr@gmail.com" />
		<tag k="contact:phone" v="+47 78 46 73 20" />
		<tag k="max_age" v="5" />
		<tag k="min_age" v="1" />
		<tag k="name" v="Badjem치n치id Beaiveruoktu Sa" />
		<tag k="no-barnehage:nsrid" v="1020110" />
		<tag k="operator" v="Badjem치n치id Beaiveruoktu Sa" />
		<tag k="operator:type" v="private" />
		<tag k="start_date" v="1992-08-01" />
	</node>
	<node id="-6049" lat="69.4594" lon="25.5137">
		<tag k="amenity" v="kindergarten" />
		<tag k="capacity" v="53" />
		<tag k="contact:email" v="lattosluohka@karasjok.kommune.no" />
		<tag k="contact:phone" v="+47 78467382" />
		<tag k="max_age" v="5" />
		<tag k="min_age" v="1" />
		<tag k="name" v="Lattosluohka Manaidgardi" />
		<tag k="no-barnehage:nsrid" v="1014764" />
		<tag k="operator" v="Karasjoga Gielda / Karasjok kommune" />
		<tag k="operator:type" v="public" />
		<tag k="start_date" v="1992-08-01" />
	</node>
</osm>
