<?xml version="1.0" encoding="UTF-8"?>
<osm generator="osmapis" version="0.6">
	<node id="-3068" lat="58.03047" lon="7.45157">
		<tag k="ADDRESS" v="Myrteigen 3, 4514 MANDAL" />
		<tag k="amenity" v="kindergarten" />
		<tag k="capacity" v="17" />
		<tag k="max_age" v="5" />
		<tag k="min_age" v="1" />
		<tag k="name" v="Myrteigen barnehage" />
		<tag k="no-barnehage:nsrid" v="1019837" />
		<tag k="operator" v="Myrteigen barnehage" />
		<tag k="operator:type" v="private" />
	</node>
	<node id="-3067" lat="58.03693" lon="7.46404">
		<tag k="ADDRESS" v="Legatveien 1, 4517 MANDAL" />
		<tag k="amenity" v="kindergarten" />
		<tag k="capacity" v="15" />
		<tag k="max_age" v="5" />
		<tag k="min_age" v="1" />
		<tag k="name" v="Hurlumhei barnehage" />
		<tag k="no-barnehage:nsrid" v="1019957" />
		<tag k="operator" v="Hurlumhei barnehage Sa" />
		<tag k="operator:type" v="private" />
	</node>
	<node id="-3066" lat="58.04347" lon="7.60003">
		<tag k="ADDRESS" v="Tregdeveien 1280, 4516 MANDAL" />
		<tag k="amenity" v="kindergarten" />
		<tag k="capacity" v="14" />
		<tag k="contact:website" v="http://framsteg.barnehage.no" />
		<tag k="max_age" v="5" />
		<tag k="min_age" v="1" />
		<tag k="name" v="Framsteg Ul barnehage" />
		<tag k="no-barnehage:nsrid" v="1019725" />
		<tag k="operator" v="Framsteg Ungdomslag - Harkmark Naturbarnehage" />
		<tag k="operator:type" v="private" />
	</node>
</osm>
