<?xml version="1.0" encoding="UTF-8"?>
<osm generator="osmapis" version="0.6">
	<node id="-3263" lat="58.10157" lon="7.536877">
		<tag k="amenity" v="kindergarten" />
		<tag k="capacity" v="12" />
		<tag k="contact:email" v="kulturvugga@hotmail.com" />
		<tag k="max_age" v="5" />
		<tag k="min_age" v="1" />
		<tag k="name" v="Kulturvugga, Holum Familiebarnehage Da" />
		<tag k="no-barnehage:nsrid" v="1021797" />
		<tag k="operator" v="Kulturvugga, Holum Familiebarnehage Da" />
		<tag k="operator:type" v="private" />
		<tag k="start_date" v="2008-08-01" />
	</node>
	<node id="-3261" lat="58.02784" lon="7.435908">
		<tag k="amenity" v="kindergarten" />
		<tag k="capacity" v="12" />
		<tag k="contact:phone" v="38 26 01 82" />
		<tag k="max_age" v="5" />
		<tag k="min_age" v="1" />
		<tag k="name" v="Furulunden Familiebarnehage" />
		<tag k="no-barnehage:nsrid" v="1021080" />
		<tag k="operator" v="Furulunden Familie-Barnehage Da" />
		<tag k="operator:type" v="private" />
		<tag k="start_date" v="2003-08-01" />
	</node>
	<node id="-3275" lat="58.02695" lon="7.445496">
		<tag k="amenity" v="kindergarten" />
		<tag k="capacity" v="10" />
		<tag k="max_age" v="5" />
		<tag k="min_age" v="1" />
		<tag k="name" v="Vestnes Familiebarnehage AS" />
		<tag k="no-barnehage:nsrid" v="1021628" />
		<tag k="operator" v="Vestnes Familiebarnehage AS" />
		<tag k="operator:type" v="private" />
		<tag k="start_date" v="1996-01-01" />
	</node>
	<node id="-3258" lat="58.03552" lon="7.452143">
		<tag k="amenity" v="kindergarten" />
		<tag k="capacity" v="6" />
		<tag k="contact:phone" v="38264991" />
		<tag k="max_age" v="5" />
		<tag k="min_age" v="1" />
		<tag k="name" v="Fløyheia Familiebarnehage" />
		<tag k="no-barnehage:nsrid" v="1020161" />
		<tag k="operator" v="Fløyheia Familiebarnehage Grete Ljungqvist" />
		<tag k="operator:type" v="private" />
		<tag k="start_date" v="1992-03-01" />
	</node>
	<node id="-3273" lat="58.0344" lon="7.467544">
		<tag k="amenity" v="kindergarten" />
		<tag k="capacity" v="11" />
		<tag k="contact:phone" v="38 26 18 62" />
		<tag k="max_age" v="5" />
		<tag k="min_age" v="1" />
		<tag k="name" v="Solbakken Familiebarnehage V/ragnhild Elise Rasmussen" />
		<tag k="no-barnehage:nsrid" v="1020187" />
		<tag k="operator" v="Solbakken Familiebarnehage V/ragnhild Elise Rasmussen" />
		<tag k="operator:type" v="private" />
		<tag k="start_date" v="1993-08-01" />
	</node>
</osm>
