<?xml version="1.0" encoding="UTF-8"?>
<osm version="0.6" generator="osmapis">
	<node lat="0.0" lon="0.0" id="-2785">
		<tag k="ADDRESS" v="Holteveien 301, 3330 SKOTSELV" />
		<tag k="amenity" v="kindergarten" />
		<tag k="capacity" v="19" />
		<tag k="max_age" v="5" />
		<tag k="min_age" v="1" />
		<tag k="name" v="Bingen barnehage" />
		<tag k="no-barnehage:nsrid" v="973457179" />
		<tag k="operator" v="Bingen barnehage AS" />
		<tag k="operator:type" v="private" />
	</node>
	<node lat="59.76549" lon="9.93291" id="-2786">
		<tag k="ADDRESS" v="Drammensveien 180, 3300 HOKKSUND" />
		<tag k="amenity" v="kindergarten" />
		<tag k="capacity" v="76" />
		<tag k="contact:website" v="http://www.espira.no" />
		<tag k="max_age" v="5" />
		<tag k="min_age" v="1" />
		<tag k="name" v="Espira Knerten barnehage" />
		<tag k="no-barnehage:nsrid" v="973383159" />
		<tag k="operator" v="Espira Knerten AS" />
		<tag k="operator:type" v="private" />
	</node>
	<node lat="59.78311" lon="9.92768" id="-2787">
		<tag k="ADDRESS" v="Lauvtjernveien 62, 3303 HOKKSUND" />
		<tag k="amenity" v="kindergarten" />
		<tag k="capacity" v="88" />
		<tag k="contact:website" v="http://harakollen.bhg.no/" />
		<tag k="max_age" v="5" />
		<tag k="min_age" v="1" />
		<tag k="name" v="Harakollen FUS aktivitetsbarnehage" />
		<tag k="no-barnehage:nsrid" v="918091068" />
		<tag k="operator" v="Harakollen Fus aktivitetsbarnehage AS" />
		<tag k="operator:type" v="private" />
	</node>
	<node lat="59.77758" lon="9.91663" id="-2788">
		<tag k="ADDRESS" v="Ringeriksveien 11, 3303 HOKKSUND" />
		<tag k="amenity" v="kindergarten" />
		<tag k="capacity" v="88" />
		<tag k="max_age" v="5" />
		<tag k="min_age" v="1" />
		<tag k="name" v="Lerberg kommunale barnehage" />
		<tag k="no-barnehage:nsrid" v="975306585" />
		<tag k="operator" v="Øvre Eiker kommune" />
		<tag k="operator:type" v="public" />
	</node>
	<node lat="59.7689" lon="9.85399" id="-2790">
		<tag k="ADDRESS" v="Rørenveien 191, 3302 HOKKSUND" />
		<tag k="amenity" v="kindergarten" />
		<tag k="capacity" v="37" />
		<tag k="contact:website" v="http://laringsverkstedet.no/barnehage/rorensletta/kontakt" />
		<tag k="max_age" v="5" />
		<tag k="min_age" v="1" />
		<tag k="name" v="Læringsverkstedet Rørensletta Solkollen barnehage" />
		<tag k="no-barnehage:nsrid" v="988772569" />
		<tag k="operator" v="Læringsverkstedet Rørensletta Solkollen barnehage AS" />
		<tag k="operator:type" v="private" />
	</node>
	<node lat="59.7718" lon="9.9047" id="-2791">
		<tag k="ADDRESS" v="Strømshauggata 6, 3300 HOKKSUND" />
		<tag k="amenity" v="kindergarten" />
		<tag k="capacity" v="41" />
		<tag k="contact:website" v="http://laringsverkstedet.no/barnehage/sundbakken" />
		<tag k="max_age" v="5" />
		<tag k="min_age" v="1" />
		<tag k="name" v="Læringsverkstedet Sundbakken Solkollen barnehage" />
		<tag k="no-barnehage:nsrid" v="974181053" />
		<tag k="operator" v="Læringsverkstedet Sundbakken Solkollen barnehage AS" />
		<tag k="operator:type" v="private" />
	</node>
	<node lat="59.76381" lon="9.90714" id="-2792">
		<tag k="ADDRESS" v="Prof. Hans Strøms vei 12, 3300 HOKKSUND" />
		<tag k="amenity" v="kindergarten" />
		<tag k="capacity" v="46" />
		<tag k="contact:website" v="http://www.maurtua-hokksund.barnehage.no/" />
		<tag k="max_age" v="5" />
		<tag k="min_age" v="1" />
		<tag k="name" v="Maurtua barnehage" />
		<tag k="no-barnehage:nsrid" v="973457187" />
		<tag k="operator" v="Stiftelsen Maurtua barnehage" />
		<tag k="operator:type" v="private" />
	</node>
	<node lat="59.72946" lon="9.88723" id="-2793">
		<tag k="ADDRESS" v="Fredfossgata 41, 3320 VESTFOSSEN" />
		<tag k="amenity" v="kindergarten" />
		<tag k="capacity" v="62" />
		<tag k="contact:website" v="http://www.mollefossen.no" />
		<tag k="max_age" v="5" />
		<tag k="min_age" v="1" />
		<tag k="name" v="Møllefossen barnehage" />
		<tag k="no-barnehage:nsrid" v="989625489" />
		<tag k="operator" v="Møllefossen barnehage AS" />
		<tag k="operator:type" v="private" />
	</node>
	<node lat="0.0" lon="0.0" id="-2794">
		<tag k="ADDRESS" v="Fredfoss, 3320 VESTFOSSEN" />
		<tag k="amenity" v="kindergarten" />
		<tag k="contact:website" v="http://www.mollefossen.no" />
		<tag k="name" v="Møllefossen åpen barnehage" />
		<tag k="no-barnehage:nsrid" v="914931762" />
		<tag k="operator" v="Møllefossen åpen barnehage AS" />
		<tag k="operator:type" v="private" />
	</node>
	<node lat="0.0" lon="0.0" id="-2795">
		<tag k="ADDRESS" v="Bjørnefaret 7, 3320 VESTFOSSEN" />
		<tag k="amenity" v="kindergarten" />
		<tag k="capacity" v="115" />
		<tag k="max_age" v="5" />
		<tag k="min_age" v="1" />
		<tag k="name" v="Ormåsen barnehage" />
		<tag k="no-barnehage:nsrid" v="975322823" />
		<tag k="operator" v="Øvre Eiker kommune" />
		<tag k="operator:type" v="public" />
	</node>
	<node lat="59.73443" lon="9.89081" id="-2796">
		<tag k="ADDRESS" v="Røkebergveien 59, 3320 VESTFOSSEN" />
		<tag k="amenity" v="kindergarten" />
		<tag k="capacity" v="60" />
		<tag k="contact:website" v="http://www.rokebergbarnehage.no/" />
		<tag k="max_age" v="5" />
		<tag k="min_age" v="1" />
		<tag k="name" v="Røkeberg kultur- og naturbarnehage" />
		<tag k="no-barnehage:nsrid" v="987785411" />
		<tag k="operator" v="Røkeberg Kultur- og naturbarnehage SA" />
		<tag k="operator:type" v="private" />
	</node>
	<node lat="59.77282" lon="9.87479" id="-2797">
		<tag k="ADDRESS" v="Smetten 29, 3302 HOKKSUND" />
		<tag k="amenity" v="kindergarten" />
		<tag k="capacity" v="88" />
		<tag k="max_age" v="5" />
		<tag k="min_age" v="1" />
		<tag k="name" v="Røren kommunale barnehage" />
		<tag k="no-barnehage:nsrid" v="975306607" />
		<tag k="operator" v="Øvre Eiker kommune" />
		<tag k="operator:type" v="public" />
	</node>
	<node lat="59.73013" lon="9.85829" id="-2798">
		<tag k="ADDRESS" v="Smellhauggata 36, 3320 VESTFOSSEN" />
		<tag k="amenity" v="kindergarten" />
		<tag k="capacity" v="63" />
		<tag k="max_age" v="5" />
		<tag k="min_age" v="1" />
		<tag k="name" v="Smellhaugen barnehage" />
		<tag k="no-barnehage:nsrid" v="975306615" />
		<tag k="operator" v="Øvre Eiker kommune" />
		<tag k="operator:type" v="public" />
	</node>
	<node lat="0.0" lon="0.0" id="-2799">
		<tag k="ADDRESS" v="Bingsveien, 3330 SKOTSELV" />
		<tag k="amenity" v="kindergarten" />
		<tag k="capacity" v="62" />
		<tag k="contact:website" v="http://ovre-eiker.kommune.no/skole-barnehage/barnehage/solbakken-barnehage" />
		<tag k="max_age" v="5" />
		<tag k="min_age" v="1" />
		<tag k="name" v="Solbakken barnehage" />
		<tag k="no-barnehage:nsrid" v="975183297" />
		<tag k="operator" v="Øvre Eiker kommune" />
		<tag k="operator:type" v="public" />
	</node>
	<node lat="59.76626" lon="9.92502" id="-2800">
		<tag k="ADDRESS" v="Lyngveien 34, 3300 HOKKSUND" />
		<tag k="amenity" v="kindergarten" />
		<tag k="capacity" v="91" />
		<tag k="contact:website" v="http://www.lyngstua.no" />
		<tag k="max_age" v="5" />
		<tag k="min_age" v="1" />
		<tag k="name" v="Stiftelsen Lyngstua barnehage" />
		<tag k="no-barnehage:nsrid" v="973494589" />
		<tag k="operator" v="Stiftelsen Lyngstua barnehage" />
		<tag k="operator:type" v="private" />
	</node>
	<node lat="59.69895" lon="9.7974" id="-2801">
		<tag k="ADDRESS" v="Nyveien 12, 3322 FISKUM" />
		<tag k="amenity" v="kindergarten" />
		<tag k="capacity" v="71" />
		<tag k="contact:website" v="http://trollstua-barnehage.no" />
		<tag k="max_age" v="5" />
		<tag k="min_age" v="1" />
		<tag k="name" v="Trollstua barnehage" />
		<tag k="no-barnehage:nsrid" v="973457225" />
		<tag k="operator" v="Trollstua barnehage SA" />
		<tag k="operator:type" v="private" />
	</node>
</osm>
