<?xml version="1.0" encoding="UTF-8"?>
<osm version="0.6" generator="osmapis">
	<node lat="70.05206" lon="24.94821" id="-5322">
		<tag k="ADDRESS" v="Helsetunveien 5, 9700 LAKSELV" />
		<tag k="amenity" v="kindergarten" />
		<tag k="capacity" v="9" />
		<tag k="max_age" v="5" />
		<tag k="min_age" v="1" />
		<tag k="name" v="Ajanas barnehage" />
		<tag k="no-barnehage:nsrid" v="975314170" />
		<tag k="operator" v="Porsanger kommune" />
		<tag k="operator:type" v="public" />
	</node>
	<node lat="0.0" lon="0.0" id="-5323">
		<tag k="ADDRESS" v=", 9710 INDRE BILLEFJORD" />
		<tag k="amenity" v="kindergarten" />
		<tag k="capacity" v="8" />
		<tag k="max_age" v="5" />
		<tag k="min_age" v="1" />
		<tag k="name" v="Billefjord Sjøsamiske oppvekstsenter avd. Billefjord barnehage" />
		<tag k="no-barnehage:nsrid" v="975314189" />
		<tag k="operator" v="Porsanger kommune" />
		<tag k="operator:type" v="public" />
	</node>
	<node lat="70.06088" lon="24.93999" id="-5324">
		<tag k="ADDRESS" v="Elveringen 1, 9700 LAKSELV" />
		<tag k="amenity" v="kindergarten" />
		<tag k="capacity" v="58" />
		<tag k="max_age" v="5" />
		<tag k="min_age" v="1" />
		<tag k="name" v="Bærtua barnehage" />
		<tag k="no-barnehage:nsrid" v="872290702" />
		<tag k="operator" v="Saarela barnehage AS" />
		<tag k="operator:type" v="private" />
	</node>
	<node lat="70.31515" lon="25.56742" id="-5325">
		<tag k="ADDRESS" v="Svartkollveien 12, 9716 BØRSELV" />
		<tag k="amenity" v="kindergarten" />
		<tag k="capacity" v="4" />
		<tag k="contact:website" v="http://www.porsanger.kommune.no" />
		<tag k="max_age" v="5" />
		<tag k="min_age" v="1" />
		<tag k="name" v="Børselv oppvekstsenter avd. Børselv barnehage" />
		<tag k="no-barnehage:nsrid" v="928687112" />
		<tag k="operator" v="Porsanger kommune" />
		<tag k="operator:type" v="public" />
	</node>
	<node lat="70.05252" lon="24.9401" id="-5326">
		<tag k="ADDRESS" v="Heggeveien 7, 9700 LAKSELV" />
		<tag k="amenity" v="kindergarten" />
		<tag k="capacity" v="26" />
		<tag k="max_age" v="5" />
		<tag k="min_age" v="1" />
		<tag k="name" v="Fagertun barnehage" />
		<tag k="no-barnehage:nsrid" v="972157236" />
		<tag k="operator" v="Porsanger bedriftsbarnehage AS" />
		<tag k="operator:type" v="private" />
	</node>
	<node lat="0.0" lon="0.0" id="-5327">
		<tag k="ADDRESS" v="KIRKEVEIEN, 9700 LAKSELV" />
		<tag k="amenity" v="kindergarten" />
		<tag k="capacity" v="27" />
		<tag k="max_age" v="5" />
		<tag k="min_age" v="1" />
		<tag k="name" v="Lakselv barnehage" />
		<tag k="no-barnehage:nsrid" v="975314200" />
		<tag k="operator" v="Porsanger kommune" />
		<tag k="operator:type" v="public" />
	</node>
	<node lat="0.0" lon="0.0" id="-5328">
		<tag k="ADDRESS" v="c/o Brennelv Bygdehus, 9700 LAKSELV" />
		<tag k="amenity" v="kindergarten" />
		<tag k="capacity" v="20" />
		<tag k="contact:website" v="http://www.naturbarnehagen.info" />
		<tag k="max_age" v="5" />
		<tag k="min_age" v="1" />
		<tag k="name" v="Østerbotn naturbarnehage" />
		<tag k="no-barnehage:nsrid" v="989414186" />
		<tag k="operator" v="Østerbotn naturbarnehage AS" />
		<tag k="operator:type" v="private" />
	</node>
</osm>
