<?xml version="1.0" encoding="UTF-8"?>
<osm generator="osmapis" version="0.6">
	<node id="-4181" lat="61.0894" lon="6.58508">
		<tag k="amenity" v="kindergarten" />
		<tag k="capacity" v="87" />
		<tag k="contact:email" v="aud.bell.hove@vik.kommune.no" />
		<tag k="contact:phone" v="+47 57 69 63 00" />
		<tag k="max_age" v="5" />
		<tag k="min_age" v="1" />
		<tag k="name" v="Vik barnehage" />
		<tag k="no-barnehage:nsrid" v="1017340" />
		<tag k="operator" v="Vik kommune" />
		<tag k="operator:type" v="public" />
		<tag k="start_date" v="1976-01-01" />
	</node>
	<node id="-4180" lat="61.1749" lon="6.63767">
		<tag k="amenity" v="kindergarten" />
		<tag k="capacity" v="10" />
		<tag k="contact:email" v="vangsnes@skulaneivik.no" />
		<tag k="contact:phone" v="+47 57 69 63 30" />
		<tag k="max_age" v="5" />
		<tag k="min_age" v="1" />
		<tag k="name" v="Vangsnes barnehage" />
		<tag k="no-barnehage:nsrid" v="1018142" />
		<tag k="operator" v="Vik kommune" />
		<tag k="operator:type" v="public" />
		<tag k="start_date" v="1989-01-01" />
	</node>
	<node id="-4179" lat="61.0105" lon="6.40364">
		<tag k="amenity" v="kindergarten" />
		<tag k="capacity" v="4" />
		<tag k="contact:email" v="valsvik@skulaneivik.no" />
		<tag k="contact:phone" v="+47 57 69 63 22" />
		<tag k="max_age" v="5" />
		<tag k="min_age" v="1" />
		<tag k="name" v="Valsvik barnehage" />
		<tag k="no-barnehage:nsrid" v="1015894" />
		<tag k="operator" v="Vik kommune" />
		<tag k="operator:type" v="public" />
		<tag k="start_date" v="2000-01-01" />
	</node>
	<node id="-4178" lat="61.0726" lon="6.93459">
		<tag k="amenity" v="kindergarten" />
		<tag k="capacity" v="7" />
		<tag k="contact:email" v="kirsten.botun@vik.kommune.no" />
		<tag k="contact:phone" v="+47 57 69 83 61" />
		<tag k="max_age" v="5" />
		<tag k="min_age" v="1" />
		<tag k="name" v="Fresvik barnehage" />
		<tag k="no-barnehage:nsrid" v="1015774" />
		<tag k="operator" v="Vik kommune" />
		<tag k="operator:type" v="public" />
		<tag k="start_date" v="1989-01-01" />
	</node>
	<node id="-4177" lat="61.1483" lon="6.75391">
		<tag k="amenity" v="kindergarten" />
		<tag k="capacity" v="13" />
		<tag k="contact:email" v="jarle.christensen@vik.kommune.no" />
		<tag k="contact:phone" v="+47 57 69 63 41" />
		<tag k="max_age" v="5" />
		<tag k="min_age" v="1" />
		<tag k="name" v="Feios barnehage" />
		<tag k="no-barnehage:nsrid" v="1015773" />
		<tag k="operator" v="Vik kommune" />
		<tag k="operator:type" v="public" />
		<tag k="start_date" v="1990-01-01" />
	</node>
</osm>
