<?xml version="1.0" encoding="UTF-8"?>
<osm generator="osmapis" version="0.6">
	<node id="-690" lat="59.8309" lon="11.7207">
		<tag k="amenity" v="kindergarten" />
		<tag k="capacity" v="35" />
		<tag k="doNotImportAddress" v="Mosebyveien 4 1954 SETSKOG" />
		<tag k="max_age" v="5" />
		<tag k="min_age" v="1" />
		<tag k="name" v="Setskog oppvekstsenter avd. barnehage" />
		<tag k="no-barnehage:nsrid" v="1015997" />
		<tag k="operator" v="Aurskog-Høland kommune" />
		<tag k="operator:type" v="public" />
	</node>
	<node id="-689" lat="59.71957" lon="11.45552">
		<tag k="amenity" v="kindergarten" />
		<tag k="capacity" v="32" />
		<tag k="doNotImportAddress" v="Nyveien 1894 1970 HEMNES" />
		<tag k="max_age" v="5" />
		<tag k="min_age" v="1" />
		<tag k="name" v="Plommehagen barnehage Kolstad" />
		<tag k="no-barnehage:nsrid" v="1021424" />
		<tag k="operator" v="Plommehagen barnehage Kolstad" />
		<tag k="operator:type" v="private" />
	</node>
	<node id="-688" lat="59.9282" lon="11.47169">
		<tag k="amenity" v="kindergarten" />
		<tag k="capacity" v="64" />
		<tag k="doNotImportAddress" v="Kråkhaugveien 6 1930 AURSKOG" />
		<tag k="max_age" v="5" />
		<tag k="min_age" v="1" />
		<tag k="name" v="Ole Brumm barnehage Aurskog" />
		<tag k="no-barnehage:nsrid" v="1020793" />
		<tag k="operator" v="Ole Brumm barnehage Aurskog AS" />
		<tag k="operator:type" v="private" />
	</node>
	<node id="-687" lat="59.7974" lon="11.4635">
		<tag k="amenity" v="kindergarten" />
		<tag k="capacity" v="25" />
		<tag k="doNotImportAddress" v="Nedre Tallakvei 1 1960 LØKEN" />
		<tag k="max_age" v="5" />
		<tag k="min_age" v="1" />
		<tag k="name" v="Løken barnehage avd. Bjørkely" />
		<tag k="no-barnehage:nsrid" v="1017943" />
		<tag k="operator" v="Aurskog-Høland kommune" />
		<tag k="operator:type" v="public" />
	</node>
	<node id="-686" lat="59.797" lon="11.4718">
		<tag k="amenity" v="kindergarten" />
		<tag k="capacity" v="47" />
		<tag k="doNotImportAddress" v="Gruslinna 1 1960 LØKEN" />
		<tag k="max_age" v="5" />
		<tag k="min_age" v="1" />
		<tag k="name" v="Løken barnehage avd. Gruslinna" />
		<tag k="no-barnehage:nsrid" v="1015998" />
		<tag k="operator" v="Aurskog-Høland kommune" />
		<tag k="operator:type" v="public" />
	</node>
	<node id="-685" lat="59.79676" lon="11.46061">
		<tag k="amenity" v="kindergarten" />
		<tag k="capacity" v="46" />
		<tag k="doNotImportAddress" v="Opplunderveien 30 1960 LØKEN" />
		<tag k="max_age" v="5" />
		<tag k="min_age" v="1" />
		<tag k="name" v="Lundebygrenda barnehage" />
		<tag k="no-barnehage:nsrid" v="1021332" />
		<tag k="operator" v="Lundebygrenda barnehage AS" />
		<tag k="operator:type" v="private" />
	</node>
	<node id="-684" lat="59.8848" lon="11.5694">
		<tag k="amenity" v="kindergarten" />
		<tag k="capacity" v="15" />
		<tag k="doNotImportAddress" v="Haneborgveien 62 1940 BJØRKELANGEN" />
		<tag k="max_age" v="5" />
		<tag k="min_age" v="1" />
		<tag k="name" v="Kjelle gårdsbarnehage" />
		<tag k="no-barnehage:nsrid" v="1014009" />
		<tag k="operator" v="Akershus fylkeskommune" />
	</node>
	<node id="-683" lat="59.8093" lon="11.3899">
		<tag k="amenity" v="kindergarten" />
		<tag k="capacity" v="41" />
		<tag k="doNotImportAddress" v="Mosserudveien 8 A 1960 LØKEN" />
		<tag k="max_age" v="5" />
		<tag k="min_age" v="1" />
		<tag k="name" v="Hofmoen barnehage" />
		<tag k="no-barnehage:nsrid" v="1015573" />
		<tag k="operator" v="Løken Sokn" />
		<tag k="operator:type" v="private" />
	</node>
	<node id="-682" lat="59.9224" lon="11.4859">
		<tag k="amenity" v="kindergarten" />
		<tag k="capacity" v="74" />
		<tag k="doNotImportAddress" v="Maren Stagrims Vei 2a 1930 AURSKOG" />
		<tag k="max_age" v="5" />
		<tag k="min_age" v="1" />
		<tag k="name" v="Flatbyjordet barnehage" />
		<tag k="no-barnehage:nsrid" v="1017942" />
		<tag k="operator" v="Aurskog-Høland kommune" />
		<tag k="operator:type" v="public" />
	</node>
	<node id="-681" lat="59.8785" lon="11.587">
		<tag k="amenity" v="kindergarten" />
		<tag k="capacity" v="114" />
		<tag k="doNotImportAddress" v="Ileflaen 2 1940 BJØRKELANGEN" />
		<tag k="max_age" v="5" />
		<tag k="min_age" v="1" />
		<tag k="name" v="Festningsåsen barnehage" />
		<tag k="no-barnehage:nsrid" v="1017872" />
		<tag k="operator" v="Aurskog-Høland kommune" />
		<tag k="operator:type" v="public" />
	</node>
	<node id="-680" lat="59.93022" lon="11.44053">
		<tag k="amenity" v="kindergarten" />
		<tag k="capacity" v="72" />
		<tag k="doNotImportAddress" v="Aurveien 37 1930 AURSKOG" />
		<tag k="max_age" v="5" />
		<tag k="min_age" v="1" />
		<tag k="name" v="Epletunet barnehage" />
		<tag k="no-barnehage:nsrid" v="1020773" />
		<tag k="operator" v="Epletunet barnehage AS" />
		<tag k="operator:type" v="private" />
	</node>
	<node id="-679" lat="59.93118" lon="11.38439">
		<tag k="amenity" v="kindergarten" />
		<tag k="capacity" v="58" />
		<tag k="doNotImportAddress" v="Ekeberg 1930 AURSKOG" />
		<tag k="max_age" v="5" />
		<tag k="min_age" v="1" />
		<tag k="name" v="Ekeberg barnehage Lena Margrethe Fåberg" />
		<tag k="no-barnehage:nsrid" v="1020264" />
		<tag k="operator" v="Ekeberg barnehage Lena Margrethe Fåberg" />
		<tag k="operator:type" v="private" />
	</node>
	<node id="-678" lat="59.8822" lon="11.548">
		<tag k="amenity" v="kindergarten" />
		<tag k="capacity" v="53" />
		<tag k="doNotImportAddress" v="Dalhaugveien 29b 1940 BJØRKELANGEN" />
		<tag k="max_age" v="5" />
		<tag k="min_age" v="1" />
		<tag k="name" v="Burholtoppen barnehage" />
		<tag k="no-barnehage:nsrid" v="1012792" />
		<tag k="operator" v="Aurskog-Høland kommune" />
		<tag k="operator:type" v="public" />
	</node>
	<node id="-677" lat="59.7205" lon="11.4598">
		<tag k="amenity" v="kindergarten" />
		<tag k="capacity" v="60" />
		<tag k="doNotImportAddress" v="Bråtebakken 2 1970 HEMNES" />
		<tag k="max_age" v="5" />
		<tag k="min_age" v="1" />
		<tag k="name" v="Bråtebakken barnehage" />
		<tag k="no-barnehage:nsrid" v="1012791" />
		<tag k="operator" v="Aurskog-Høland kommune" />
		<tag k="operator:type" v="public" />
	</node>
	<node id="-676" lat="59.92684" lon="11.46804">
		<tag k="amenity" v="kindergarten" />
		<tag k="capacity" v="34" />
		<tag k="doNotImportAddress" v="Øvre Killingmo Vei 27 1930 AURSKOG" />
		<tag k="max_age" v="5" />
		<tag k="min_age" v="1" />
		<tag k="name" v="Barnehagegården" />
		<tag k="no-barnehage:nsrid" v="1021790" />
		<tag k="operator" v="Barnehagegården AS" />
		<tag k="operator:type" v="private" />
	</node>
	<node id="-675" lat="59.9258" lon="11.446">
		<tag k="amenity" v="kindergarten" />
		<tag k="capacity" v="65" />
		<tag k="doNotImportAddress" v="Rugdeveien 8 1930 AURSKOG" />
		<tag k="max_age" v="5" />
		<tag k="min_age" v="1" />
		<tag k="name" v="Aursmoen barnehage" />
		<tag k="no-barnehage:nsrid" v="1012790" />
		<tag k="operator" v="Aurskog-Høland kommune" />
		<tag k="operator:type" v="public" />
	</node>
</osm>
