<?xml version="1.0" encoding="UTF-8"?>
<osm generator="osmapis" version="0.6">
	<node id="-726" lat="59.9282" lon="11.47169">
		<tag k="amenity" v="kindergarten" />
		<tag k="name" v="Svanhild Vormeland" />
		<tag k="no-barnehage:nsrid" v="1026595" />
		<tag k="operator" v="Svanhild Vormeland" />
		<tag k="operator:type" v="private" />
		<tag k="start_date" v="2015-11-01" />
	</node>
	<node id="-725" lat="59.8309" lon="11.7207">
		<tag k="amenity" v="kindergarten" />
		<tag k="capacity" v="37" />
		<tag k="contact:email" v="vigdis.aaserud@ahk.no" />
		<tag k="contact:phone" v="67 20 59 52" />
		<tag k="max_age" v="5" />
		<tag k="min_age" v="1" />
		<tag k="name" v="Setskog Oppvekstsenter Avd Barnehage" />
		<tag k="no-barnehage:nsrid" v="1015997" />
		<tag k="operator" v="Aurskog-Høland kommune" />
		<tag k="operator:type" v="public" />
		<tag k="start_date" v="1995-05-01" />
	</node>
	<node id="-724" lat="59.71957" lon="11.45552">
		<tag k="amenity" v="kindergarten" />
		<tag k="capacity" v="19" />
		<tag k="contact:email" v="plommeha@online.no" />
		<tag k="contact:phone" v="63 85 84 90" />
		<tag k="max_age" v="5" />
		<tag k="min_age" v="1" />
		<tag k="name" v="Plommehagen barnehage Kolstad" />
		<tag k="no-barnehage:nsrid" v="1021424" />
		<tag k="operator" v="Plommehagen barnehage Kolstad" />
		<tag k="operator:type" v="private" />
		<tag k="start_date" v="2006-03-01" />
	</node>
	<node id="-723" lat="59.9282" lon="11.47169">
		<tag k="amenity" v="kindergarten" />
		<tag k="capacity" v="66" />
		<tag k="contact:email" v="olebrumm@aurskog.no" />
		<tag k="contact:phone" v="63 86 30 04" />
		<tag k="max_age" v="5" />
		<tag k="min_age" v="1" />
		<tag k="name" v="Ole Brumm barnehage Aurskog AS" />
		<tag k="no-barnehage:nsrid" v="1020793" />
		<tag k="operator" v="Ole Brumm barnehage Aurskog AS" />
		<tag k="operator:type" v="private" />
		<tag k="start_date" v="1989-01-02" />
	</node>
	<node id="-722" lat="59.7974" lon="11.4635">
		<tag k="amenity" v="kindergarten" />
		<tag k="capacity" v="25" />
		<tag k="contact:email" v="bodil.bratberg@ahk.no" />
		<tag k="contact:phone" v="67 20 55 70" />
		<tag k="max_age" v="5" />
		<tag k="min_age" v="1" />
		<tag k="name" v="Løken barnehage Avdeling Bjørkely" />
		<tag k="no-barnehage:nsrid" v="1017943" />
		<tag k="operator" v="Aurskog-Høland kommune" />
		<tag k="operator:type" v="public" />
		<tag k="start_date" v="2007-01-01" />
	</node>
	<node id="-721" lat="59.797" lon="11.4718">
		<tag k="amenity" v="kindergarten" />
		<tag k="capacity" v="51" />
		<tag k="contact:email" v="bodil.bratberg@ahk.no" />
		<tag k="contact:phone" v="67 20 59 40" />
		<tag k="max_age" v="5" />
		<tag k="min_age" v="1" />
		<tag k="name" v="Løken barnehage Avd Gruslinna" />
		<tag k="no-barnehage:nsrid" v="1015998" />
		<tag k="operator" v="Aurskog-Høland kommune" />
		<tag k="operator:type" v="public" />
		<tag k="start_date" v="1976-01-01" />
	</node>
	<node id="-720" lat="59.79676" lon="11.46061">
		<tag k="amenity" v="kindergarten" />
		<tag k="capacity" v="46" />
		<tag k="contact:email" v="toveffager@gmail.com" />
		<tag k="contact:phone" v="63 86 58 14" />
		<tag k="max_age" v="5" />
		<tag k="min_age" v="1" />
		<tag k="name" v="Lundebygrenda barnehage" />
		<tag k="no-barnehage:nsrid" v="1021332" />
		<tag k="operator" v="Lundebygrenda barnehage AS" />
		<tag k="operator:type" v="private" />
		<tag k="start_date" v="2005-09-01" />
	</node>
	<node id="-719" lat="59.8848" lon="11.5694">
		<tag k="amenity" v="kindergarten" />
		<tag k="capacity" v="13" />
		<tag k="contact:email" v="mona.tornby@kjelle.vgs.no" />
		<tag k="max_age" v="5" />
		<tag k="min_age" v="1" />
		<tag k="name" v="Kjelle Gårdsbarnehage" />
		<tag k="no-barnehage:nsrid" v="1014009" />
		<tag k="operator" v="Akershus fylkeskommune" />
		<tag k="start_date" v="2009-01-01" />
	</node>
	<node id="-718" lat="59.88478" lon="11.56942">
		<tag k="amenity" v="kindergarten" />
		<tag k="capacity" v="21" />
		<tag k="contact:email" v="stho@online.no" />
		<tag k="max_age" v="5" />
		<tag k="min_age" v="1" />
		<tag k="name" v="Holestua AS" />
		<tag k="no-barnehage:nsrid" v="1022238" />
		<tag k="operator" v="Holestua AS" />
		<tag k="operator:type" v="private" />
		<tag k="start_date" v="2012-01-01" />
	</node>
	<node id="-717" lat="59.8093" lon="11.3899">
		<tag k="amenity" v="kindergarten" />
		<tag k="capacity" v="43" />
		<tag k="contact:email" v="styrer@hofmoen.no" />
		<tag k="contact:phone" v="63 85 19 02" />
		<tag k="max_age" v="5" />
		<tag k="min_age" v="1" />
		<tag k="name" v="Hofmoen barnehage" />
		<tag k="no-barnehage:nsrid" v="1015573" />
		<tag k="operator" v="Løken Sokn" />
		<tag k="operator:type" v="private" />
		<tag k="start_date" v="1989-01-02" />
	</node>
	<node id="-716" lat="59.9224" lon="11.4859">
		<tag k="amenity" v="kindergarten" />
		<tag k="capacity" v="75" />
		<tag k="contact:email" v="tone.vedahl.haugen@ahk.no" />
		<tag k="contact:phone" v="67 20 51 70" />
		<tag k="max_age" v="5" />
		<tag k="min_age" v="1" />
		<tag k="name" v="Flatbyjordet barnehage" />
		<tag k="no-barnehage:nsrid" v="1017942" />
		<tag k="operator" v="Aurskog-Høland kommune" />
		<tag k="operator:type" v="public" />
		<tag k="start_date" v="2007-01-01" />
	</node>
	<node id="-715" lat="59.8785" lon="11.587">
		<tag k="amenity" v="kindergarten" />
		<tag k="capacity" v="92" />
		<tag k="contact:email" v="mette.fjuk@ahk.no" />
		<tag k="contact:phone" v="67 20 59 30" />
		<tag k="max_age" v="5" />
		<tag k="min_age" v="1" />
		<tag k="name" v="Festningsåsen barnehage" />
		<tag k="no-barnehage:nsrid" v="1017872" />
		<tag k="operator" v="Aurskog-Høland kommune" />
		<tag k="operator:type" v="public" />
		<tag k="start_date" v="2007-07-30" />
	</node>
	<node id="-714" lat="59.92684" lon="11.46804">
		<tag k="amenity" v="kindergarten" />
		<tag k="capacity" v="69" />
		<tag k="contact:email" v="pedagog@epletunet.no" />
		<tag k="contact:phone" v="63 86 42 70" />
		<tag k="max_age" v="5" />
		<tag k="min_age" v="1" />
		<tag k="name" v="Epletunet barnehage AS" />
		<tag k="no-barnehage:nsrid" v="1020773" />
		<tag k="operator" v="Epletunet barnehage AS" />
		<tag k="operator:type" v="private" />
		<tag k="start_date" v="1995-11-01" />
	</node>
	<node id="-713" lat="59.93118" lon="11.38439">
		<tag k="amenity" v="kindergarten" />
		<tag k="capacity" v="48" />
		<tag k="contact:email" v="lena@ekebergbarnehage.no" />
		<tag k="contact:phone" v="63 86 23 80" />
		<tag k="max_age" v="5" />
		<tag k="min_age" v="1" />
		<tag k="name" v="Ekeberg barnehage Lena Margrethe Fåberg" />
		<tag k="no-barnehage:nsrid" v="1020264" />
		<tag k="operator" v="Ekeberg barnehage Lena Margrethe Fåberg" />
		<tag k="operator:type" v="private" />
		<tag k="start_date" v="1995-10-30" />
	</node>
	<node id="-712" lat="59.8822" lon="11.548">
		<tag k="amenity" v="kindergarten" />
		<tag k="capacity" v="60" />
		<tag k="contact:email" v="hilde.torre@ahk.no" />
		<tag k="contact:phone" v="67 20 59 34" />
		<tag k="max_age" v="5" />
		<tag k="min_age" v="1" />
		<tag k="name" v="Burholtoppen barnehage" />
		<tag k="no-barnehage:nsrid" v="1012792" />
		<tag k="operator" v="Aurskog-Høland kommune" />
		<tag k="operator:type" v="public" />
		<tag k="start_date" v="1992-08-01" />
	</node>
	<node id="-711" lat="59.7205" lon="11.4598">
		<tag k="amenity" v="kindergarten" />
		<tag k="capacity" v="62" />
		<tag k="contact:email" v="Anette.N.Krovel@ahk.no" />
		<tag k="contact:phone" v="67 20 59 85" />
		<tag k="max_age" v="5" />
		<tag k="min_age" v="1" />
		<tag k="name" v="Bråtebakken barnehage" />
		<tag k="no-barnehage:nsrid" v="1012791" />
		<tag k="operator" v="Aurskog-Høland kommune" />
		<tag k="operator:type" v="public" />
		<tag k="start_date" v="1988-04-01" />
	</node>
	<node id="-710" lat="59.92684" lon="11.46804">
		<tag k="amenity" v="kindergarten" />
		<tag k="capacity" v="35" />
		<tag k="contact:email" v="line@barnehagegarden.no" />
		<tag k="max_age" v="5" />
		<tag k="min_age" v="1" />
		<tag k="name" v="Barnehagegården AS" />
		<tag k="no-barnehage:nsrid" v="1021790" />
		<tag k="operator" v="Barnehagegården AS" />
		<tag k="operator:type" v="private" />
		<tag k="start_date" v="2008-02-25" />
	</node>
	<node id="-709" lat="59.9258" lon="11.446">
		<tag k="amenity" v="kindergarten" />
		<tag k="capacity" v="66" />
		<tag k="contact:email" v="heidi.gilje@ahk.no" />
		<tag k="contact:phone" v="67 20 59 20" />
		<tag k="max_age" v="5" />
		<tag k="min_age" v="1" />
		<tag k="name" v="Aursmoen barnehage" />
		<tag k="no-barnehage:nsrid" v="1012790" />
		<tag k="operator" v="Aurskog-Høland kommune" />
		<tag k="operator:type" v="public" />
		<tag k="start_date" v="1976-01-01" />
	</node>
</osm>
