<?xml version="1.0" encoding="UTF-8"?>
<osm generator="osmapis" version="0.6">
	<node id="-5248" lat="63.43999" lon="10.95191">
		<tag k="amenity" v="kindergarten" />
		<tag k="capacity" v="67" />
		<tag k="contact:email" v="tonsasen@online.no" />
		<tag k="contact:phone" v="932 95 449" />
		<tag k="contact:website" v="http://www.tonsasen-naturbarnhage.no" />
		<tag k="max_age" v="5" />
		<tag k="min_age" v="1" />
		<tag k="name" v="Tønsåsen Naturbarnehage AS" />
		<tag k="no-barnehage:nsrid" v="1021718" />
		<tag k="operator" v="Tønsåsen Naturbarnehage AS" />
		<tag k="operator:type" v="private" />
		<tag k="start_date" v="2007-08-26" />
	</node>
	<node id="-5247" lat="63.4831" lon="10.96">
		<tag k="amenity" v="kindergarten" />
		<tag k="capacity" v="39" />
		<tag k="contact:email" v="tussilago@getmail.no" />
		<tag k="contact:phone" v="74821440" />
		<tag k="max_age" v="5" />
		<tag k="min_age" v="1" />
		<tag k="name" v="Tussilago barnehage" />
		<tag k="no-barnehage:nsrid" v="1025319" />
		<tag k="operator" v="Stjørdal barnehage Sa" />
		<tag k="operator:type" v="private" />
		<tag k="start_date" v="1991-01-01" />
	</node>
	<node id="-5242" lat="63.4779" lon="10.9467">
		<tag k="amenity" v="kindergarten" />
		<tag k="capacity" v="76" />
		<tag k="contact:email" v="taraxacum@getmail.no" />
		<tag k="contact:phone" v="74 82 04 40" />
		<tag k="max_age" v="5" />
		<tag k="min_age" v="1" />
		<tag k="name" v="Taraxacum barnehage" />
		<tag k="no-barnehage:nsrid" v="1012948" />
		<tag k="operator" v="Stjørdal barnehage Sa" />
		<tag k="operator:type" v="private" />
		<tag k="start_date" v="2003-07-18" />
	</node>
	<node id="-5241" lat="63.47175" lon="10.93688">
		<tag k="amenity" v="kindergarten" />
		<tag k="capacity" v="45" />
		<tag k="contact:email" v="ast-vor@stjordal-menighetsbarnehage.no" />
		<tag k="contact:phone" v="74 82 55 27" />
		<tag k="max_age" v="5" />
		<tag k="min_age" v="1" />
		<tag k="name" v="Stjørdal Menighets barnehage" />
		<tag k="no-barnehage:nsrid" v="1019629" />
		<tag k="operator" v="Stjørdal Menighets barnehage" />
		<tag k="operator:type" v="private" />
		<tag k="start_date" v="1982-01-01" />
	</node>
	<node id="-5240" lat="63.46706" lon="10.92984">
		<tag k="amenity" v="kindergarten" />
		<tag k="capacity" v="17" />
		<tag k="contact:email" v="husmorhusetbarnehage@getmail.no" />
		<tag k="contact:phone" v="74 82 52 10" />
		<tag k="max_age" v="5" />
		<tag k="min_age" v="3" />
		<tag k="name" v="Stjørdal Kvinne-Og Familielags barnehage" />
		<tag k="no-barnehage:nsrid" v="1019826" />
		<tag k="operator" v="Stjørdal Kvinne &amp; Familielag" />
		<tag k="operator:type" v="private" />
		<tag k="start_date" v="1989-01-02" />
	</node>
	<node id="-5239" lat="63.4639" lon="11.1143">
		<tag k="amenity" v="kindergarten" />
		<tag k="capacity" v="32" />
		<tag k="contact:email" v="anders.westoo@stjordal.kommune.no" />
		<tag k="max_age" v="5" />
		<tag k="min_age" v="1" />
		<tag k="name" v="Skjelstadmark Oppvekstsenter Avd Skjelstadmark Barnehage" />
		<tag k="no-barnehage:nsrid" v="1018267" />
		<tag k="operator" v="Stjørdal kommune" />
		<tag k="operator:type" v="public" />
		<tag k="start_date" v="1989-01-01" />
	</node>
	<node id="-5238" lat="63.5099" lon="10.8267">
		<tag k="amenity" v="kindergarten" />
		<tag k="capacity" v="61" />
		<tag k="contact:email" v="wenche.soraunet@stjordal.kommune.no" />
		<tag k="max_age" v="5" />
		<tag k="min_age" v="1" />
		<tag k="name" v="Skatval barnehage" />
		<tag k="no-barnehage:nsrid" v="1018266" />
		<tag k="operator" v="Stjørdal kommune" />
		<tag k="operator:type" v="public" />
		<tag k="start_date" v="1989-01-01" />
	</node>
	<node id="-5237" lat="63.4736" lon="10.9346">
		<tag k="amenity" v="kindergarten" />
		<tag k="capacity" v="54" />
		<tag k="contact:email" v="tove.furunes@stjordal.kommune.no" />
		<tag k="max_age" v="5" />
		<tag k="min_age" v="1" />
		<tag k="name" v="Sandskogan barnehage" />
		<tag k="no-barnehage:nsrid" v="1014747" />
		<tag k="operator" v="Stjørdal kommune" />
		<tag k="operator:type" v="public" />
		<tag k="start_date" v="1992-01-01" />
	</node>
	<node id="-5236" lat="63.4678" lon="10.9176">
		<tag k="amenity" v="kindergarten" />
		<tag k="capacity" v="19" />
		<tag k="contact:email" v="kari.skulborstad@gmail.com" />
		<tag k="max_age" v="5" />
		<tag k="min_age" v="3" />
		<tag k="name" v="Sagatun barnehage Ans" />
		<tag k="no-barnehage:nsrid" v="1021274" />
		<tag k="operator" v="Sagatun barnehage Ans" />
		<tag k="operator:type" v="private" />
		<tag k="start_date" v="2005-07-01" />
	</node>
	<node id="-5234" lat="63.4711" lon="10.9197">
		<tag k="amenity" v="kindergarten" />
		<tag k="capacity" v="50" />
		<tag k="contact:email" v="solunn.almli@stjordal.kommune.no" />
		<tag k="max_age" v="5" />
		<tag k="min_age" v="1" />
		<tag k="name" v="Midtheim barnehage" />
		<tag k="no-barnehage:nsrid" v="1017374" />
		<tag k="operator" v="Stjørdal kommune" />
		<tag k="operator:type" v="public" />
		<tag k="start_date" v="1976-01-01" />
	</node>
	<node id="-5233" lat="63.4786" lon="10.9091">
		<tag k="amenity" v="kindergarten" />
		<tag k="capacity" v="54" />
		<tag k="contact:email" v="styrer@medbroen.no" />
		<tag k="max_age" v="5" />
		<tag k="min_age" v="1" />
		<tag k="name" v="Medbroen Gårdsbarnehage" />
		<tag k="no-barnehage:nsrid" v="1013519" />
		<tag k="operator" v="Medbroen Drift AS" />
		<tag k="operator:type" v="private" />
		<tag k="start_date" v="2011-08-01" />
	</node>
	<node id="-5232" lat="63.40368" lon="10.97612">
		<tag k="amenity" v="kindergarten" />
		<tag k="capacity" v="18" />
		<tag k="contact:email" v="post@maurtuabarnehage.com" />
		<tag k="max_age" v="5" />
		<tag k="min_age" v="3" />
		<tag k="name" v="Maurtua Bhg AS" />
		<tag k="no-barnehage:nsrid" v="1022393" />
		<tag k="operator" v="Maurtua Bhg AS" />
		<tag k="operator:type" v="private" />
		<tag k="start_date" v="2003-03-03" />
	</node>
	<node id="-5231" lat="63.4037" lon="10.9761">
		<tag k="amenity" v="kindergarten" />
		<tag k="capacity" v="82" />
		<tag k="contact:email" v="anita.kirknes@stjordal.kommune.no" />
		<tag k="max_age" v="5" />
		<tag k="min_age" v="1" />
		<tag k="name" v="Lånke barnehage" />
		<tag k="no-barnehage:nsrid" v="1017396" />
		<tag k="operator" v="Stjørdal kommune" />
		<tag k="operator:type" v="public" />
		<tag k="start_date" v="1978-10-31" />
	</node>
	<node id="-5227" lat="63.4825" lon="10.8888">
		<tag k="amenity" v="kindergarten" />
		<tag k="capacity" v="81" />
		<tag k="contact:email" v="jorid.braseth@stjordal.kommune.no" />
		<tag k="max_age" v="5" />
		<tag k="min_age" v="1" />
		<tag k="name" v="Kvislabakken barnehage" />
		<tag k="no-barnehage:nsrid" v="1014688" />
		<tag k="operator" v="Stjørdal kommune" />
		<tag k="operator:type" v="public" />
		<tag k="start_date" v="1991-01-01" />
	</node>
	<node id="-5226" lat="63.4832" lon="10.9616">
		<tag k="amenity" v="kindergarten" />
		<tag k="capacity" v="37" />
		<tag k="contact:email" v="aud.karin.bjornebole@stjordal.kommune.no" />
		<tag k="max_age" v="5" />
		<tag k="min_age" v="1" />
		<tag k="name" v="Husbymarka barnehage" />
		<tag k="no-barnehage:nsrid" v="1012527" />
		<tag k="operator" v="Stjørdal kommune" />
		<tag k="operator:type" v="public" />
		<tag k="start_date" v="1989-01-01" />
	</node>
	<node id="-5225" lat="63.4639" lon="11.1143">
		<tag k="amenity" v="kindergarten" />
		<tag k="capacity" v="81" />
		<tag k="contact:email" v="laila.skjei@stjordal.kommune.no" />
		<tag k="max_age" v="5" />
		<tag k="min_age" v="1" />
		<tag k="name" v="Hegra barnehage" />
		<tag k="no-barnehage:nsrid" v="1017480" />
		<tag k="operator" v="Stjørdal kommune" />
		<tag k="operator:type" v="public" />
		<tag k="start_date" v="1983-09-01" />
	</node>
	<node id="-5222" lat="62.57524" lon="11.38536">
		<tag k="amenity" v="kindergarten" />
		<tag k="capacity" v="70" />
		<tag k="contact:email" v="leder.husbyasen@gnistbarnehager.no" />
		<tag k="contact:phone" v="40 00 65 96" />
		<tag k="contact:website" v="http://www.gnistbarnehager.no" />
		<tag k="max_age" v="5" />
		<tag k="min_age" v="1" />
		<tag k="name" v="Gnist Barnehager Husbyåsen AS" />
		<tag k="no-barnehage:nsrid" v="1021873" />
		<tag k="operator" v="Gnist Barnehager Husbyåsen AS" />
		<tag k="operator:type" v="private" />
		<tag k="start_date" v="2008-09-23" />
	</node>
	<node id="-5221" lat="63.4678" lon="10.9176">
		<tag k="amenity" v="kindergarten" />
		<tag k="capacity" v="56" />
		<tag k="contact:email" v="gsprang@online.no" />
		<tag k="contact:phone" v="93010028" />
		<tag k="max_age" v="5" />
		<tag k="min_age" v="1" />
		<tag k="name" v="Geitspranget Naturbarnehage AS" />
		<tag k="no-barnehage:nsrid" v="1021603" />
		<tag k="operator" v="Geitspranget Naturbarnehage AS" />
		<tag k="operator:type" v="private" />
		<tag k="start_date" v="2002-03-01" />
	</node>
	<node id="-5220" lat="63.48223" lon="10.94466">
		<tag k="amenity" v="kindergarten" />
		<tag k="capacity" v="86" />
		<tag k="contact:email" v="trude@fosslibekken.no" />
		<tag k="contact:phone" v="72 56 37 37" />
		<tag k="contact:website" v="http://www.barnogbolig.no" />
		<tag k="max_age" v="5" />
		<tag k="min_age" v="1" />
		<tag k="name" v="Fosslibekken barnehage AS" />
		<tag k="no-barnehage:nsrid" v="1022110" />
		<tag k="operator" v="Fosslibekken barnehage AS" />
		<tag k="operator:type" v="private" />
		<tag k="start_date" v="2010-10-01" />
	</node>
	<node id="-5219" lat="63.4798" lon="10.9429">
		<tag k="amenity" v="kindergarten" />
		<tag k="capacity" v="60" />
		<tag k="contact:email" v="lisbeth.risvold@stjordal.kommune" />
		<tag k="max_age" v="5" />
		<tag k="min_age" v="1" />
		<tag k="name" v="Fosslia barnehage" />
		<tag k="no-barnehage:nsrid" v="1016524" />
		<tag k="operator" v="Stjørdal kommune" />
		<tag k="operator:type" v="public" />
		<tag k="start_date" v="2003-04-01" />
	</node>
	<node id="-5218" lat="63.4639" lon="11.1143">
		<tag k="amenity" v="kindergarten" />
		<tag k="capacity" v="22" />
		<tag k="contact:email" v="toril.irene.rodde@stjordal.kommune.no" />
		<tag k="max_age" v="5" />
		<tag k="min_age" v="1" />
		<tag k="name" v="Forradal Oppvekstsenter Avd Forradal Barnehage" />
		<tag k="no-barnehage:nsrid" v="1013936" />
		<tag k="operator" v="Stjørdal kommune" />
		<tag k="operator:type" v="public" />
		<tag k="start_date" v="1990-01-01" />
	</node>
	<node id="-5217" lat="63.4575" lon="11.3475">
		<tag k="amenity" v="kindergarten" />
		<tag k="capacity" v="10" />
		<tag k="contact:email" v="hege.pettersen.aarstein@stjordal.kommune.no" />
		<tag k="max_age" v="5" />
		<tag k="min_age" v="1" />
		<tag k="name" v="Flora Oppvekstsenter Avd Barnehage" />
		<tag k="no-barnehage:nsrid" v="1017375" />
		<tag k="operator" v="Stjørdal kommune" />
		<tag k="operator:type" v="public" />
		<tag k="start_date" v="1976-01-01" />
	</node>
	<node id="-5216" lat="63.511" lon="10.8165">
		<tag k="amenity" v="kindergarten" />
		<tag k="capacity" v="57" />
		<tag k="contact:email" v="barnehagen@fagerhaugoppvekst.no" />
		<tag k="max_age" v="5" />
		<tag k="min_age" v="1" />
		<tag k="name" v="Fagerhaug barnehage" />
		<tag k="no-barnehage:nsrid" v="1016408" />
		<tag k="operator" v="Stjørdal Misjonskirke" />
		<tag k="operator:type" v="private" />
		<tag k="start_date" v="2002-07-01" />
	</node>
	<node id="-5213" lat="63.39165" lon="11.06569">
		<tag k="amenity" v="kindergarten" />
		<tag k="capacity" v="29" />
		<tag k="contact:email" v="hege.bukkspranget@barnehage.no" />
		<tag k="contact:phone" v="930 69 642" />
		<tag k="max_age" v="5" />
		<tag k="min_age" v="1" />
		<tag k="name" v="Bukkspranget Gårdsbarnehage" />
		<tag k="no-barnehage:nsrid" v="1021540" />
		<tag k="operator" v="Hos Gården Skjei Søndre AS" />
		<tag k="operator:type" v="private" />
		<tag k="start_date" v="2006-10-20" />
	</node>
	<node id="-5211" lat="63.5274" lon="10.8266">
		<tag k="amenity" v="kindergarten" />
		<tag k="capacity" v="25" />
		<tag k="contact:email" v="barnehage@aglo.no" />
		<tag k="max_age" v="5" />
		<tag k="min_age" v="1" />
		<tag k="name" v="Aglo barnehage Solberget" />
		<tag k="no-barnehage:nsrid" v="1015685" />
		<tag k="operator" v="Aglo Opplæringssenter" />
		<tag k="operator:type" v="private" />
		<tag k="start_date" v="1997-09-01" />
	</node>
	<node id="-5210" lat="63.47264" lon="10.92275">
		<tag k="amenity" v="kindergarten" />
		<tag k="capacity" v="45" />
		<tag k="contact:email" v="gerd@aglo.no" />
		<tag k="max_age" v="5" />
		<tag k="min_age" v="1" />
		<tag k="name" v="Aglo barnehage Sentrum" />
		<tag k="no-barnehage:nsrid" v="1026309" />
		<tag k="operator" v="Aglo Opplæringssenter" />
		<tag k="operator:type" v="private" />
		<tag k="start_date" v="2009-08-10" />
	</node>
	<node id="-5209" lat="63.51008" lon="10.85214">
		<tag k="amenity" v="kindergarten" />
		<tag k="capacity" v="34" />
		<tag k="contact:email" v="gerd@aglo.no" />
		<tag k="max_age" v="5" />
		<tag k="min_age" v="1" />
		<tag k="name" v="Aglo barnehage Eventyrhuset" />
		<tag k="no-barnehage:nsrid" v="1026310" />
		<tag k="operator" v="Aglo Opplæringssenter" />
		<tag k="operator:type" v="private" />
		<tag k="start_date" v="2008-03-31" />
	</node>
</osm>
