<?xml version="1.0" encoding="UTF-8"?>
<osm generator="osmapis" version="0.6">
	<node id="-5280" lat="63.43882" lon="10.9041">
		<tag k="amenity" v="kindergarten" />
		<tag k="capacity" v="4" />
		<tag k="contact:email" v="mrsorensen77@hotmail.com" />
		<tag k="max_age" v="5" />
		<tag k="min_age" v="1" />
		<tag k="name" v="Toppen Familiebarnehage Avd Eiketoppen" />
		<tag k="no-barnehage:nsrid" v="1021459" />
		<tag k="operator" v="Toppen Familiebarnehage avd Eiketoppen V / Torkell Sørensen" />
		<tag k="operator:type" v="private" />
		<tag k="start_date" v="2010-01-01" />
	</node>
	<node id="-5283" lat="63.48188" lon="10.97334">
		<tag k="amenity" v="kindergarten" />
		<tag k="capacity" v="11" />
		<tag k="contact:email" v="trollskogen@borgso.net" />
		<tag k="contact:phone" v="+47 41552215" />
		<tag k="max_age" v="5" />
		<tag k="min_age" v="1" />
		<tag k="name" v="Trollskogen Familiebarnehage Avd Malmtrollet" />
		<tag k="no-barnehage:nsrid" v="1020701" />
		<tag k="operator" v="Margrethe Borgsø" />
		<tag k="operator:type" v="private" />
		<tag k="start_date" v="2006-01-01" />
	</node>
	<node id="-5272" lat="63.46393" lon="11.11427">
		<tag k="amenity" v="kindergarten" />
		<tag k="capacity" v="9" />
		<tag k="contact:email" v="mstavne@gmail.com" />
		<tag k="contact:phone" v="+47 74 82 87 79" />
		<tag k="max_age" v="5" />
		<tag k="min_age" v="1" />
		<tag k="name" v="Nasse Nøff Familiebarnehage AS Avd Nasse Nøff" />
		<tag k="no-barnehage:nsrid" v="1022265" />
		<tag k="operator" v="Nasse Nøff Familiebarnehage AS" />
		<tag k="operator:type" v="private" />
		<tag k="start_date" v="2006-12-13" />
	</node>
	<node id="-5267" lat="63.4808" lon="10.96806">
		<tag k="amenity" v="kindergarten" />
		<tag k="capacity" v="5" />
		<tag k="contact:email" v="ruthteigen@hotmail.com" />
		<tag k="contact:phone" v="+47 41 50 02 64" />
		<tag k="max_age" v="5" />
		<tag k="min_age" v="1" />
		<tag k="name" v="Lasseliten Familiebarnehage Avd Toppen" />
		<tag k="no-barnehage:nsrid" v="1020535" />
		<tag k="operator" v="Lasseliten Familiebarnehage avd Toppen Ruth Lund Teigen" />
		<tag k="operator:type" v="private" />
		<tag k="start_date" v="2009-01-01" />
	</node>
	<node id="-5266" lat="63.4678" lon="10.9176">
		<tag k="amenity" v="kindergarten" />
		<tag k="capacity" v="5" />
		<tag k="contact:email" v="annejorids@gmail.com" />
		<tag k="max_age" v="5" />
		<tag k="min_age" v="1" />
		<tag k="name" v="Lasseliten Familiebarnehage Avd Stubben" />
		<tag k="no-barnehage:nsrid" v="1020872" />
		<tag k="operator" v="Lasseliten Familiebarnehage Anne Jorid Skjervold" />
		<tag k="operator:type" v="private" />
		<tag k="start_date" v="2009-01-01" />
	</node>
	<node id="-5265" lat="63.48135" lon="10.96958">
		<tag k="amenity" v="kindergarten" />
		<tag k="capacity" v="5" />
		<tag k="contact:email" v="annsirikoen@gmail.com" />
		<tag k="contact:phone" v="+47 92 26 01 35" />
		<tag k="max_age" v="5" />
		<tag k="min_age" v="1" />
		<tag k="name" v="Lasseliten Familiebarnehage Avd Siritun" />
		<tag k="no-barnehage:nsrid" v="1020622" />
		<tag k="operator" v="Malmtunet Familiebarnehage avd Siritun Ann-Siri Koen" />
		<tag k="operator:type" v="private" />
		<tag k="start_date" v="2009-01-01" />
	</node>
	<node id="-5261" lat="63.47233" lon="10.91938">
		<tag k="amenity" v="kindergarten" />
		<tag k="capacity" v="5" />
		<tag k="contact:email" v="olagresseth@gmail.com" />
		<tag k="contact:phone" v="+47 74 82 83 27" />
		<tag k="max_age" v="5" />
		<tag k="min_age" v="1" />
		<tag k="name" v="Gresstoppen Familiebarnehage" />
		<tag k="no-barnehage:nsrid" v="1021742" />
		<tag k="operator" v="Gresstoppen Familiebarnehage Gresseth" />
		<tag k="operator:type" v="private" />
		<tag k="start_date" v="2008-01-01" />
	</node>
	<node id="-5260" lat="63.46393" lon="11.11427">
		<tag k="amenity" v="kindergarten" />
		<tag k="capacity" v="4" />
		<tag k="contact:email" v="rakel_aune@hotmail.com" />
		<tag k="contact:phone" v="+47 90066398" />
		<tag k="max_age" v="2" />
		<tag k="min_age" v="1" />
		<tag k="name" v="Gressethgrenda Familiebarnehage V/rakel Chr. Aune" />
		<tag k="no-barnehage:nsrid" v="1022246" />
		<tag k="operator" v="Gressethgrenda Familiebarnehage V/rakel Chr. Aune" />
		<tag k="operator:type" v="private" />
		<tag k="start_date" v="2012-01-02" />
	</node>
	<node id="-5281" lat="63.40368" lon="10.97612">
		<tag k="amenity" v="kindergarten" />
		<tag k="capacity" v="5" />
		<tag k="contact:email" v="anettbrands@hotmail.com" />
		<tag k="contact:phone" v="+47 74 82 82 01" />
		<tag k="max_age" v="5" />
		<tag k="min_age" v="1" />
		<tag k="name" v="Toppen Familiebarnehage Avd Furutoppen" />
		<tag k="no-barnehage:nsrid" v="1021270" />
		<tag k="operator" v="Anett Brandsæter" />
		<tag k="operator:type" v="private" />
		<tag k="start_date" v="2009-01-01" />
	</node>
	<node id="-5252" lat="63.4588" lon="10.9657">
		<tag k="amenity" v="kindergarten" />
		<tag k="capacity" v="4" />
		<tag k="contact:email" v="kari.skulborstad@gmail.com" />
		<tag k="contact:phone" v="+47 74 82 15 29" />
		<tag k="max_age" v="2" />
		<tag k="min_age" v="1" />
		<tag k="name" v="Eventyrskogen Familiebarnehage Avd. Hans og Grete" />
		<tag k="no-barnehage:nsrid" v="1020830" />
		<tag k="operator" v="Kari Skulbørstad" />
		<tag k="operator:type" v="private" />
		<tag k="start_date" v="2009-12-16" />
	</node>
	<node id="-5251" lat="63.48648" lon="10.96079">
		<tag k="amenity" v="kindergarten" />
		<tag k="capacity" v="6" />
		<tag k="contact:email" v="laila_hofstad@hotmail.no" />
		<tag k="max_age" v="5" />
		<tag k="min_age" v="1" />
		<tag k="name" v="Eventyrskogen Familiebarnehage Avd Askeladden" />
		<tag k="no-barnehage:nsrid" v="1020826" />
		<tag k="operator" v="Laila Hofstad" />
		<tag k="operator:type" v="private" />
		<tag k="start_date" v="2010-01-01" />
	</node>
	<node id="-5282" lat="63.48073" lon="10.96838">
		<tag k="amenity" v="kindergarten" />
		<tag k="capacity" v="5" />
		<tag k="contact:email" v="grantopp@online.no" />
		<tag k="max_age" v="5" />
		<tag k="min_age" v="1" />
		<tag k="name" v="Toppen Familiebarnehage Avd Grantoppen" />
		<tag k="no-barnehage:nsrid" v="1021269" />
		<tag k="operator" v="Ingebjørg Husby" />
		<tag k="operator:type" v="private" />
		<tag k="start_date" v="2010-01-01" />
	</node>
	<node id="-5249" lat="63.46946" lon="10.93787">
		<tag k="amenity" v="kindergarten" />
		<tag k="capacity" v="4" />
		<tag k="contact:email" v="nina.langberg@hotmail.com" />
		<tag k="contact:phone" v="+47 934 46 024" />
		<tag k="max_age" v="2" />
		<tag k="min_age" v="1" />
		<tag k="name" v="Brumm Familiebarnehage Langberg" />
		<tag k="no-barnehage:nsrid" v="1021506" />
		<tag k="operator" v="Brumm Familiebarnehage Langberg" />
		<tag k="operator:type" v="private" />
		<tag k="start_date" v="2006-08-28" />
	</node>
</osm>
