<?xml version="1.0" encoding="UTF-8"?>
<osm generator="osmapis" version="0.6">
	<node id="-976" lat="58.58859" lon="6.06909">
		<tag k="ADDRESS" v="Røyslandsdalen 45, 4387 BJERKREIM" />
		<tag k="amenity" v="kindergarten" />
		<tag k="capacity" v="69" />
		<tag k="max_age" v="5" />
		<tag k="min_age" v="1" />
		<tag k="name" v="Røysekatten barnehage" />
		<tag k="no-barnehage:nsrid" v="974623544" />
		<tag k="operator" v="Bjerkreim kommune" />
		<tag k="operator:type" v="public" />
	</node>
	<node id="-977" lat="58.63985" lon="6.09118">
		<tag k="ADDRESS" v="Pittervegen 6, 4389 VIKESÅ" />
		<tag k="amenity" v="kindergarten" />
		<tag k="capacity" v="24" />
		<tag k="contact:website" v="http://www.bjerkreim.kommune.no/skjeraberget/" />
		<tag k="max_age" v="5" />
		<tag k="min_age" v="1" />
		<tag k="name" v="Skjeraberget barnehage" />
		<tag k="no-barnehage:nsrid" v="980684598" />
		<tag k="operator" v="Bjerkreim kommune" />
		<tag k="operator:type" v="public" />
	</node>
	<node id="-978" lat="58.65684" lon="6.08747">
		<tag k="ADDRESS" v="Skjæveland, 4389 VIKESÅ" />
		<tag k="amenity" v="kindergarten" />
		<tag k="capacity" v="70" />
		<tag k="max_age" v="5" />
		<tag k="min_age" v="1" />
		<tag k="name" v="Storafjellet FUS barnehage" />
		<tag k="no-barnehage:nsrid" v="891634242" />
		<tag k="operator" v="Storafjellet Fus barnehage AS" />
		<tag k="operator:type" v="private" />
	</node>
</osm>
