<?xml version="1.0" encoding="UTF-8"?>
<osm generator="osmapis" version="0.6">
	<node id="-3576" lat="58.5889" lon="6.06889">
		<tag k="amenity" v="kindergarten" />
		<tag k="capacity" v="67" />
		<tag k="contact:email" v="valbjorg.soiland.haland@bjerkreim.kommune.no" />
		<tag k="contact:phone" v="+47 51 45 96 60" />
		<tag k="max_age" v="5" />
		<tag k="min_age" v="1" />
		<tag k="name" v="RÃ¸ysekatten barnehage" />
		<tag k="no-barnehage:nsrid" v="1016615" />
		<tag k="operator" v="Bjerkreim kommune" />
		<tag k="operator:type" v="public" />
		<tag k="start_date" v="1989-01-01" />
	</node>
	<node id="-3578" lat="58.6591" lon="6.093637">
		<tag k="amenity" v="kindergarten" />
		<tag k="capacity" v="81" />
		<tag k="contact:email" v="dl.storafjellet@bhg.no" />
		<tag k="contact:phone" v="+47 51 45 40 90" />
		<tag k="max_age" v="5" />
		<tag k="min_age" v="1" />
		<tag k="name" v="Storafjellet Fus barnehage AS" />
		<tag k="no-barnehage:nsrid" v="1021706" />
		<tag k="operator" v="Storafjellet Fus barnehage AS" />
		<tag k="operator:type" v="private" />
		<tag k="start_date" v="2007-07-17" />
	</node>
	<node id="-3577" lat="58.6376" lon="6.09135">
		<tag k="amenity" v="kindergarten" />
		<tag k="capacity" v="29" />
		<tag k="contact:email" v="mari.skjefras@bjerkreim.kommune.no" />
		<tag k="contact:phone" v="+47 51 45 93 40" />
		<tag k="contact:website" v="http://www.bjerkreim.kommune.no/skjeraberget/" />
		<tag k="max_age" v="5" />
		<tag k="min_age" v="1" />
		<tag k="name" v="Skjeraberget barnehage" />
		<tag k="no-barnehage:nsrid" v="1015735" />
		<tag k="operator" v="Bjerkreim kommune" />
		<tag k="operator:type" v="public" />
		<tag k="start_date" v="1999-01-01" />
	</node>
</osm>
