<?xml version="1.0" encoding="UTF-8"?>
<osm version="0.6" generator="osmapis">
	<node lat="70.99564" lon="25.98056" id="-5298">
		<tag k="ADDRESS" v="Skytterveien 16, 9750 HONNINGSVÅG" />
		<tag k="amenity" v="kindergarten" />
		<tag k="capacity" v="52" />
		<tag k="max_age" v="5" />
		<tag k="min_age" v="1" />
		<tag k="name" v="Nordkapp barnehage" />
		<tag k="no-barnehage:nsrid" v="975314138" />
		<tag k="operator" v="Nordkapp kommune" />
		<tag k="operator:type" v="public" />
	</node>
	<node lat="70.98488" lon="26.03143" id="-5299">
		<tag k="ADDRESS" v="Hovedveien 48, 9760 NORDVÅGEN" />
		<tag k="amenity" v="kindergarten" />
		<tag k="capacity" v="31" />
		<tag k="max_age" v="5" />
		<tag k="min_age" v="1" />
		<tag k="name" v="Nordvågen barnehage" />
		<tag k="no-barnehage:nsrid" v="975314146" />
		<tag k="operator" v="Nordkapp kommune" />
		<tag k="operator:type" v="public" />
	</node>
	<node lat="70.97781" lon="25.96682" id="-5300">
		<tag k="ADDRESS" v="Klubben 8, 9750 HONNINGSVÅG" />
		<tag k="amenity" v="kindergarten" />
		<tag k="capacity" v="25" />
		<tag k="max_age" v="5" />
		<tag k="min_age" v="1" />
		<tag k="name" v="Skårungen barnehage" />
		<tag k="no-barnehage:nsrid" v="975324435" />
		<tag k="operator" v="Nordkapp kommune" />
		<tag k="operator:type" v="public" />
	</node>
</osm>
