<?xml version="1.0" encoding="UTF-8"?>
<osm generator="osmapis" version="0.6">
	<node id="-4735" lat="62.29959" lon="7.26013">
		<tag k="ADDRESS" v="Olavsgata 20, 6210 VALLDAL" />
		<tag k="amenity" v="kindergarten" />
		<tag k="capacity" v="48" />
		<tag k="max_age" v="5" />
		<tag k="min_age" v="1" />
		<tag k="name" v="Syltebøen barnehage" />
		<tag k="no-barnehage:nsrid" v="1012699" />
		<tag k="operator" v="Fjord kommune" />
		<tag k="operator:type" v="public" />
	</node>
	<node id="-4734" lat="0.0" lon="0.0">
		<tag k="ADDRESS" v="Griggås, 6250 STORDAL" />
		<tag k="amenity" v="kindergarten" />
		<tag k="capacity" v="19" />
		<tag k="max_age" v="5" />
		<tag k="min_age" v="1" />
		<tag k="name" v="Stordal barnehage" />
		<tag k="no-barnehage:nsrid" v="1012943" />
		<tag k="operator" v="Fjord kommune" />
		<tag k="operator:type" v="public" />
	</node>
	<node id="-4733" lat="0.0" lon="0.0">
		<tag k="ADDRESS" v=", 6214 NORDDAL" />
		<tag k="amenity" v="kindergarten" />
		<tag k="capacity" v="14" />
		<tag k="max_age" v="5" />
		<tag k="min_age" v="1" />
		<tag k="name" v="Dalsbygda barnehage" />
		<tag k="no-barnehage:nsrid" v="1014779" />
		<tag k="operator" v="Fjord kommune" />
		<tag k="operator:type" v="public" />
	</node>
</osm>
