<?xml version="1.0" encoding="UTF-8"?>
<osm version="0.6" generator="osmapis">
	<node lat="60.03683" lon="11.36762" id="-2511">
		<tag k="ADDRESS" v="Grendehusvegen 1, 1929 AULI" />
		<tag k="amenity" v="kindergarten" />
		<tag k="capacity" v="60" />
		<tag k="max_age" v="5" />
		<tag k="min_age" v="1" />
		<tag k="name" v="Auli barnehage" />
		<tag k="no-barnehage:nsrid" v="975315371" />
		<tag k="operator" v="Nes kommune" />
		<tag k="operator:type" v="public" />
	</node>
	<node lat="60.11384" lon="11.46219" id="-2512">
		<tag k="ADDRESS" v="Evangjordet 2, 2150 ÅRNES" />
		<tag k="amenity" v="kindergarten" />
		<tag k="capacity" v="63" />
		<tag k="contact:website" v="http://Espira.no" />
		<tag k="max_age" v="5" />
		<tag k="min_age" v="1" />
		<tag k="name" v="Espira Evangtunet barnehage" />
		<tag k="no-barnehage:nsrid" v="922714134" />
		<tag k="operator" v="Espira Evangtunet AS" />
		<tag k="operator:type" v="private" />
	</node>
	<node lat="60.226" lon="11.38135" id="-2513">
		<tag k="ADDRESS" v="Grinderstubben 1, 2170 FENSTAD" />
		<tag k="amenity" v="kindergarten" />
		<tag k="capacity" v="70" />
		<tag k="contact:website" v="http://www.espira.no" />
		<tag k="max_age" v="5" />
		<tag k="min_age" v="1" />
		<tag k="name" v="Espira Fenstad barnehage" />
		<tag k="no-barnehage:nsrid" v="987806230" />
		<tag k="operator" v="Espira Fenstad AS" />
		<tag k="operator:type" v="private" />
	</node>
	<node lat="60.11796" lon="11.47775" id="-2514">
		<tag k="ADDRESS" v="Øvre Drognesveg 2, 2150 ÅRNES" />
		<tag k="amenity" v="kindergarten" />
		<tag k="capacity" v="93" />
		<tag k="contact:website" v="http://www.espira.no" />
		<tag k="max_age" v="5" />
		<tag k="min_age" v="1" />
		<tag k="name" v="Espira Kløverenga barnehage" />
		<tag k="no-barnehage:nsrid" v="988116246" />
		<tag k="operator" v="Espira Kløverenga AS" />
		<tag k="operator:type" v="private" />
	</node>
	<node lat="60.18036" lon="11.51543" id="-2515">
		<tag k="ADDRESS" v="Skolealleen 4, 2166 OPPAKER" />
		<tag k="amenity" v="kindergarten" />
		<tag k="capacity" v="74" />
		<tag k="contact:website" v="http://www.espira.no" />
		<tag k="max_age" v="5" />
		<tag k="min_age" v="1" />
		<tag k="name" v="Espira Opaker barnehage" />
		<tag k="no-barnehage:nsrid" v="992223162" />
		<tag k="operator" v="Espira Opaker AS" />
		<tag k="operator:type" v="private" />
	</node>
	<node lat="60.21257" lon="11.33203" id="-2516">
		<tag k="ADDRESS" v="Gunnerudberget 35, 2162 BRÅRUD" />
		<tag k="amenity" v="kindergarten" />
		<tag k="capacity" v="34" />
		<tag k="max_age" v="5" />
		<tag k="min_age" v="1" />
		<tag k="name" v="Hoppensprett Brårud" />
		<tag k="no-barnehage:nsrid" v="896210882" />
		<tag k="operator" v="Hoppensprett Nes AS" />
		<tag k="operator:type" v="private" />
	</node>
	<node lat="60.08848" lon="11.48051" id="-2517">
		<tag k="ADDRESS" v="Fjellfotvegen 58, 2150 ÅRNES" />
		<tag k="amenity" v="kindergarten" />
		<tag k="capacity" v="101" />
		<tag k="max_age" v="5" />
		<tag k="min_age" v="1" />
		<tag k="name" v="Hoppensprett Fjellfoten" />
		<tag k="no-barnehage:nsrid" v="975302083" />
		<tag k="operator" v="Hoppensprett Nes AS" />
		<tag k="operator:type" v="private" />
	</node>
	<node lat="60.03698" lon="11.36934" id="-2518">
		<tag k="ADDRESS" v="Grendehusvegen 2, 1929 AULI" />
		<tag k="amenity" v="kindergarten" />
		<tag k="capacity" v="84" />
		<tag k="max_age" v="5" />
		<tag k="min_age" v="1" />
		<tag k="name" v="Korsdalen barnehage avd. grendehusvegen" />
		<tag k="no-barnehage:nsrid" v="973514067" />
		<tag k="operator" v="Korsdalen barnehage SA" />
		<tag k="operator:type" v="private" />
	</node>
	<node lat="0.0" lon="0.0" id="-2519">
		<tag k="ADDRESS" v="Hagaplassen 1, 1929 AULI" />
		<tag k="amenity" v="kindergarten" />
		<tag k="capacity" v="34" />
		<tag k="max_age" v="5" />
		<tag k="min_age" v="1" />
		<tag k="name" v="Korsdalen barnehage avd. Hagadalen" />
		<tag k="no-barnehage:nsrid" v="991239022" />
		<tag k="operator" v="Korsdalen barnehage SA" />
		<tag k="operator:type" v="private" />
	</node>
	<node lat="60.05382" lon="11.37182" id="-2520">
		<tag k="ADDRESS" v="Stranda 7, 1929 AULI" />
		<tag k="amenity" v="kindergarten" />
		<tag k="capacity" v="52" />
		<tag k="contact:website" v="http://www.laringsverkstedet.no/haga" />
		<tag k="max_age" v="5" />
		<tag k="min_age" v="1" />
		<tag k="name" v="Læringsverkstedet Haga barnehage" />
		<tag k="no-barnehage:nsrid" v="973456989" />
		<tag k="operator" v="Læringsverkstedet Haga barnehage AS" />
		<tag k="operator:type" v="private" />
	</node>
	<node lat="60.12879" lon="11.47942" id="-2521">
		<tag k="ADDRESS" v="Leirvegen 23, 2150 ÅRNES" />
		<tag k="amenity" v="kindergarten" />
		<tag k="capacity" v="94" />
		<tag k="contact:website" v="http://laringsverkstedet.no/barnehage/runni" />
		<tag k="max_age" v="5" />
		<tag k="min_age" v="1" />
		<tag k="name" v="Læringsverkstedet Runni idrettsbarnehage" />
		<tag k="no-barnehage:nsrid" v="973683225" />
		<tag k="operator" v="Læringsverkstedet Runni idrettsbarnehage AS" />
		<tag k="operator:type" v="private" />
	</node>
	<node lat="60.11633" lon="11.34136" id="-2522">
		<tag k="ADDRESS" v="Sekstanten 25, 2165 HVAM" />
		<tag k="amenity" v="kindergarten" />
		<tag k="capacity" v="94" />
		<tag k="contact:website" v="http://www.laringsverkstedet.no/barnehage/neskollen" />
		<tag k="max_age" v="5" />
		<tag k="min_age" v="1" />
		<tag k="name" v="Læringsverkstedet Øvre Neskollen naturbarnehage" />
		<tag k="no-barnehage:nsrid" v="819294542" />
		<tag k="operator" v="Læringsverkstedet Øvre Neskollen naturbarnehage AS" />
		<tag k="operator:type" v="private" />
	</node>
	<node lat="60.12105" lon="11.46745" id="-2523">
		<tag k="ADDRESS" v="Seterstøavegen 2B, 2150 ÅRNES" />
		<tag k="amenity" v="kindergarten" />
		<tag k="name" v="Nes kommune åpen barnehage" />
		<tag k="no-barnehage:nsrid" v="988554626" />
		<tag k="operator" v="Nes kommune" />
		<tag k="operator:type" v="public" />
	</node>
	<node lat="60.12316" lon="11.47961" id="-2524">
		<tag k="ADDRESS" v="Kjuushagen 11, 2150 ÅRNES" />
		<tag k="amenity" v="kindergarten" />
		<tag k="capacity" v="102" />
		<tag k="max_age" v="5" />
		<tag k="min_age" v="1" />
		<tag k="name" v="Nes kommune Årnes kulturbarnehage" />
		<tag k="no-barnehage:nsrid" v="920219888" />
		<tag k="operator" v="Nes kommune" />
		<tag k="operator:type" v="public" />
	</node>
	<node lat="60.12464" lon="11.33846" id="-2525">
		<tag k="ADDRESS" v="Melkevegen 23, 2165 HVAM" />
		<tag k="amenity" v="kindergarten" />
		<tag k="capacity" v="83" />
		<tag k="contact:website" v="http://neskollen-melkevegen.norlandiabarnehagene.no/" />
		<tag k="max_age" v="5" />
		<tag k="min_age" v="1" />
		<tag k="name" v="Norlandia Neskollen Melkeveien barnehage" />
		<tag k="no-barnehage:nsrid" v="986911081" />
		<tag k="operator" v="Norlandia Neskollen Melkeveien barnehage AS" />
		<tag k="operator:type" v="private" />
	</node>
	<node lat="60.12559" lon="11.34134" id="-2526">
		<tag k="ADDRESS" v="Tellusvegen 2, 2165 HVAM" />
		<tag k="amenity" v="kindergarten" />
		<tag k="capacity" v="96" />
		<tag k="contact:website" v="http://neskollen-tellusvegen.norlandiabarnehagene.no/" />
		<tag k="max_age" v="5" />
		<tag k="min_age" v="1" />
		<tag k="name" v="Norlandia Neskollen Tellusvegen barnehage" />
		<tag k="no-barnehage:nsrid" v="987278595" />
		<tag k="operator" v="Norlandia Neskollen Tellusvegen barnehage AS" />
		<tag k="operator:type" v="private" />
	</node>
	<node lat="60.23146" lon="11.51859" id="-2527">
		<tag k="ADDRESS" v="Skograndvegen 13, 2164 SKOGBYGDA" />
		<tag k="amenity" v="kindergarten" />
		<tag k="capacity" v="42" />
		<tag k="max_age" v="5" />
		<tag k="min_age" v="1" />
		<tag k="name" v="Skogbygda barnehage" />
		<tag k="no-barnehage:nsrid" v="982978815" />
		<tag k="operator" v="Nes kommune" />
		<tag k="operator:type" v="public" />
	</node>
	<node lat="60.10844" lon="11.37048" id="-2528">
		<tag k="ADDRESS" v="Tomteråsvegen 10, 2165 HVAM" />
		<tag k="amenity" v="kindergarten" />
		<tag k="capacity" v="27" />
		<tag k="contact:website" v="http://tomterasen.barnehage.no" />
		<tag k="max_age" v="5" />
		<tag k="min_age" v="1" />
		<tag k="name" v="Tomteråsen barnehage" />
		<tag k="no-barnehage:nsrid" v="979428812" />
		<tag k="operator" v="Tomteråsen barnehage SA" />
		<tag k="operator:type" v="private" />
	</node>
	<node lat="60.09994" lon="11.36486" id="-2529">
		<tag k="ADDRESS" v="Hvamsmovegen 16, 2165 HVAM" />
		<tag k="amenity" v="kindergarten" />
		<tag k="capacity" v="47" />
		<tag k="contact:website" v="http://www.hoppensprett.no" />
		<tag k="max_age" v="5" />
		<tag k="min_age" v="1" />
		<tag k="name" v="Udnes naturbarnehage" />
		<tag k="no-barnehage:nsrid" v="973348973" />
		<tag k="operator" v="Udnes naturbarnehage AS" />
		<tag k="operator:type" v="private" />
	</node>
	<node lat="60.1588" lon="11.41738" id="-2530">
		<tag k="ADDRESS" v="Hovindvegen 10, 2160 VORMSUND" />
		<tag k="amenity" v="kindergarten" />
		<tag k="capacity" v="54" />
		<tag k="contact:website" v="http://vormsund.barnehage.no" />
		<tag k="max_age" v="5" />
		<tag k="min_age" v="1" />
		<tag k="name" v="Vormsund barnehage" />
		<tag k="no-barnehage:nsrid" v="972399450" />
		<tag k="operator" v="Vormsund barnehage SA" />
		<tag k="operator:type" v="private" />
	</node>
</osm>
