<?xml version="1.0" encoding="UTF-8"?>
<osm generator="osmapis" version="0.6">
	<node id="-632" lat="59.78842" lon="10.48111">
		<tag k="amenity" v="kindergarten" />
		<tag k="capacity" v="2" />
		<tag k="contact:website" v="http://www.hoymyrmarka.barnehageside.no" />
		<tag k="max_age" v="2" />
		<tag k="min_age" v="1" />
		<tag k="name" v="Høymyrmarka familiebarnehage" />
		<tag k="no-barnehage:nsrid" v="1021146" />
		<tag k="operator" v="Høymyrmarka Familiebarnehage Tone Karin Bjellvåg" />
		<tag k="operator:type" v="private" />
	</node>
	<node id="-622" lat="59.81314" lon="10.45219">
		<tag k="amenity" v="kindergarten" />
		<tag k="capacity" v="4" />
		<tag k="max_age" v="2" />
		<tag k="min_age" v="1" />
		<tag k="name" v="Gullhella familiebarnehage Kari Hofsmarken Reinhoff" />
		<tag k="no-barnehage:nsrid" v="1021575" />
		<tag k="operator" v="Gullhella Familiebarnehage V/kari Hofsmarken Reinhoff" />
		<tag k="operator:type" v="private" />
	</node>
	<node id="-665" lat="59.79919" lon="10.48606">
		<tag k="amenity" v="kindergarten" />
		<tag k="capacity" v="2" />
		<tag k="max_age" v="2" />
		<tag k="min_age" v="1" />
		<tag k="name" v="Vollen familiebarnehage" />
		<tag k="no-barnehage:nsrid" v="1021290" />
		<tag k="operator" v="Vollen Familiebarnehage Linda Cecilie Elverum Keyn" />
		<tag k="operator:type" v="private" />
	</node>
</osm>
