<?xml version="1.0" encoding="UTF-8"?>
<osm generator="osmapis" version="0.6">
	<node id="-512" lat="59.84679" lon="10.41876">
		<tag k="amenity" v="kindergarten" />
		<tag k="capacity" v="35" />
		<tag k="contact:website" v="http://www.hanevold.barnehage.no" />
		<tag k="max_age" v="5" />
		<tag k="min_age" v="1" />
		<tag k="name" v="Hanevold Barnegård" />
		<tag k="no-barnehage:nsrid" v="1021844" />
		<tag k="operator" v="Hanevold Barnegård AS" />
		<tag k="operator:type" v="private" />
	</node>
	<node id="-510" lat="59.82861" lon="10.40274">
		<tag k="amenity" v="kindergarten" />
		<tag k="capacity" v="40" />
		<tag k="max_age" v="5" />
		<tag k="min_age" v="1" />
		<tag k="name" v="Føyka barnehage Ånnerudveien" />
		<tag k="no-barnehage:nsrid" v="1020801" />
		<tag k="operator" v="Asker kommune" />
		<tag k="operator:type" v="public" />
	</node>
	<node id="-509" lat="59.83484" lon="10.42173">
		<tag k="amenity" v="kindergarten" />
		<tag k="capacity" v="31" />
		<tag k="max_age" v="5" />
		<tag k="min_age" v="1" />
		<tag k="name" v="Furuly barnehage" />
		<tag k="no-barnehage:nsrid" v="1019695" />
		<tag k="operator" v="Furuly barnehage Unni Jacobsen" />
		<tag k="operator:type" v="private" />
	</node>
	<node id="-508" lat="59.84174" lon="10.42117">
		<tag k="amenity" v="kindergarten" />
		<tag k="capacity" v="59" />
		<tag k="max_age" v="5" />
		<tag k="min_age" v="1" />
		<tag k="name" v="Frydendal barnehage" />
		<tag k="no-barnehage:nsrid" v="1019930" />
		<tag k="operator" v="Stiftelsen Frydendal barnehage" />
		<tag k="operator:type" v="private" />
	</node>
	<node id="-507" lat="59.8228" lon="10.3855">
		<tag k="amenity" v="kindergarten" />
		<tag k="capacity" v="68" />
		<tag k="contact:website" v="http://www.frelsesarmeen.no/no/vart_arbeid/barnehager/hoyre_kolonne/vare_tilbud/trollstua_barnehage/" />
		<tag k="max_age" v="5" />
		<tag k="min_age" v="1" />
		<tag k="name" v="Frelsesarmeens barnehager avd. Trollstua" />
		<tag k="no-barnehage:nsrid" v="1025300" />
		<tag k="operator" v="Frelsesarmeen" />
		<tag k="operator:type" v="private" />
	</node>
	<node id="-506" lat="59.81285" lon="10.44157">
		<tag k="amenity" v="kindergarten" />
		<tag k="capacity" v="110" />
		<tag k="contact:website" v="http://www.espira.no" />
		<tag k="max_age" v="5" />
		<tag k="min_age" v="1" />
		<tag k="name" v="Espira Gullhella barnehage" />
		<tag k="no-barnehage:nsrid" v="1020898" />
		<tag k="operator" v="Espira Gullhella AS" />
		<tag k="operator:type" v="private" />
	</node>
	<node id="-505" lat="59.81983" lon="10.46824">
		<tag k="amenity" v="kindergarten" />
		<tag k="capacity" v="96" />
		<tag k="contact:website" v="http://blakstad.espira.no/" />
		<tag k="max_age" v="5" />
		<tag k="min_age" v="1" />
		<tag k="name" v="Espira Blakstad barnehage" />
		<tag k="no-barnehage:nsrid" v="1022190" />
		<tag k="operator" v="Espira Blakstad AS" />
		<tag k="operator:type" v="private" />
	</node>
	<node id="-504" lat="59.8127" lon="10.3636">
		<tag k="amenity" v="kindergarten" />
		<tag k="capacity" v="27" />
		<tag k="max_age" v="5" />
		<tag k="min_age" v="1" />
		<tag k="name" v="Engelsrud barnehage" />
		<tag k="no-barnehage:nsrid" v="1016894" />
		<tag k="operator" v="Asker Kirkelige Fellesråd" />
		<tag k="operator:type" v="private" />
	</node>
	<node id="-503" lat="59.83469" lon="10.45439">
		<tag k="amenity" v="kindergarten" />
		<tag k="capacity" v="66" />
		<tag k="contact:website" v="http://bastadmyra.no" />
		<tag k="max_age" v="5" />
		<tag k="min_age" v="1" />
		<tag k="name" v="Båstadmyra barnehage" />
		<tag k="no-barnehage:nsrid" v="1020189" />
		<tag k="operator" v="Båstadmyra barnehage Sa" />
		<tag k="operator:type" v="private" />
	</node>
	<node id="-502" lat="59.824" lon="10.3904">
		<tag k="amenity" v="kindergarten" />
		<tag k="capacity" v="52" />
		<tag k="max_age" v="5" />
		<tag k="min_age" v="1" />
		<tag k="name" v="Brendsrud barnehage" />
		<tag k="no-barnehage:nsrid" v="1012762" />
		<tag k="operator" v="Asker kommune" />
		<tag k="operator:type" v="public" />
	</node>
	<node id="-501" lat="59.82312" lon="10.41812">
		<tag k="amenity" v="kindergarten" />
		<tag k="capacity" v="50" />
		<tag k="contact:website" v="http://www.borgenskogbarnehage.no" />
		<tag k="max_age" v="5" />
		<tag k="min_age" v="1" />
		<tag k="name" v="Borgen Skog barnehage" />
		<tag k="no-barnehage:nsrid" v="1020167" />
		<tag k="operator" v="Borgen Skog barnehage" />
		<tag k="operator:type" v="private" />
	</node>
	<node id="-500" lat="59.8258" lon="10.4135">
		<tag k="amenity" v="kindergarten" />
		<tag k="capacity" v="67" />
		<tag k="contact:website" v="http://borgen.com" />
		<tag k="max_age" v="5" />
		<tag k="min_age" v="1" />
		<tag k="name" v="Borgen barnehage" />
		<tag k="no-barnehage:nsrid" v="1012754" />
		<tag k="operator" v="Asker kommune" />
		<tag k="operator:type" v="public" />
	</node>
	<node id="-499" lat="59.8219" lon="10.4382">
		<tag k="amenity" v="kindergarten" />
		<tag k="capacity" v="10" />
		<tag k="contact:website" v="http://www.asker.kommune.no" />
		<tag k="max_age" v="2" />
		<tag k="min_age" v="1" />
		<tag k="name" v="Bondi barnehage" />
		<tag k="no-barnehage:nsrid" v="1013215" />
		<tag k="operator" v="Asker kommune" />
		<tag k="operator:type" v="public" />
	</node>
	<node id="-498" lat="59.87431" lon="10.47099">
		<tag k="amenity" v="kindergarten" />
		<tag k="capacity" v="82" />
		<tag k="max_age" v="5" />
		<tag k="min_age" v="1" />
		<tag k="name" v="Billingstad barnehage" />
		<tag k="no-barnehage:nsrid" v="1020500" />
		<tag k="operator" v="Billingstad barnehage Sa" />
		<tag k="operator:type" v="private" />
	</node>
	<node id="-497" lat="59.81092" lon="10.44778">
		<tag k="amenity" v="kindergarten" />
		<tag k="capacity" v="41" />
		<tag k="contact:website" v="http://www.barnashus.com" />
		<tag k="max_age" v="5" />
		<tag k="min_age" v="1" />
		<tag k="name" v="As Barnas Hus Gullhella" />
		<tag k="no-barnehage:nsrid" v="1019863" />
		<tag k="operator" v="As Barnas Hus Gullhella" />
		<tag k="operator:type" v="private" />
	</node>
	<node id="-544" lat="59.83109" lon="10.40907">
		<tag k="amenity" v="kindergarten" />
		<tag k="capacity" v="76" />
		<tag k="contact:website" v="http://www.annerudtoppen.no" />
		<tag k="max_age" v="5" />
		<tag k="min_age" v="1" />
		<tag k="name" v="Ånnerudtoppen barnehage" />
		<tag k="no-barnehage:nsrid" v="1020614" />
		<tag k="operator" v="Ånnerudtoppen barnehage Sa" />
		<tag k="operator:type" v="private" />
	</node>
	<node id="-543" lat="59.83024" lon="10.40521">
		<tag k="amenity" v="kindergarten" />
		<tag k="capacity" v="27" />
		<tag k="contact:website" v="http://www.annerudbarnehus.no" />
		<tag k="max_age" v="5" />
		<tag k="min_age" v="1" />
		<tag k="name" v="Ånnerud Barnehus" />
		<tag k="no-barnehage:nsrid" v="1019587" />
		<tag k="operator" v="Ånnerud Barnehus Sa" />
		<tag k="operator:type" v="private" />
	</node>
	<node id="-542" lat="59.8154" lon="10.429">
		<tag k="amenity" v="kindergarten" />
		<tag k="capacity" v="50" />
		<tag k="max_age" v="5" />
		<tag k="min_age" v="1" />
		<tag k="name" v="Østhellinga barnehage" />
		<tag k="no-barnehage:nsrid" v="1025361" />
		<tag k="operator" v="Asker kommune" />
		<tag k="operator:type" v="public" />
	</node>
	<node id="-541" lat="59.8126" lon="10.4638">
		<tag k="amenity" v="kindergarten" />
		<tag k="capacity" v="11" />
		<tag k="max_age" v="5" />
		<tag k="min_age" v="1" />
		<tag k="name" v="Østenstad menighetsbarnehage" />
		<tag k="no-barnehage:nsrid" v="1015572" />
		<tag k="operator" v="Asker Kirkelige Fellesråd" />
		<tag k="operator:type" v="private" />
	</node>
	<node id="-540" lat="59.7877" lon="10.49321">
		<tag k="amenity" v="kindergarten" />
		<tag k="capacity" v="39" />
		<tag k="contact:website" v="http://www.vollen-kystkulturbhg.no" />
		<tag k="max_age" v="5" />
		<tag k="min_age" v="1" />
		<tag k="name" v="Vollen kystkulturbarnehage" />
		<tag k="no-barnehage:nsrid" v="1022292" />
		<tag k="operator" v="Vollen Kystkulturbarnehage AS" />
		<tag k="operator:type" v="private" />
	</node>
	<node id="-538" lat="59.7829" lon="10.4321">
		<tag k="amenity" v="kindergarten" />
		<tag k="capacity" v="56" />
		<tag k="max_age" v="5" />
		<tag k="min_age" v="1" />
		<tag k="name" v="Vikingjordet barnehage Åmotåsen" />
		<tag k="no-barnehage:nsrid" v="1012765" />
		<tag k="operator" v="Asker kommune" />
		<tag k="operator:type" v="public" />
	</node>
	<node id="-537" lat="59.79212" lon="10.44929">
		<tag k="amenity" v="kindergarten" />
		<tag k="capacity" v="18" />
		<tag k="max_age" v="5" />
		<tag k="min_age" v="3" />
		<tag k="name" v="Vikingjordet barnehage Øvre Gjellumvei" />
		<tag k="no-barnehage:nsrid" v="1025802" />
		<tag k="operator" v="Asker kommune" />
		<tag k="operator:type" v="public" />
	</node>
	<node id="-536" lat="59.8201" lon="10.4713">
		<tag k="amenity" v="kindergarten" />
		<tag k="capacity" v="45" />
		<tag k="max_age" v="5" />
		<tag k="min_age" v="1" />
		<tag k="name" v="Vepsebolet barnehage" />
		<tag k="no-barnehage:nsrid" v="1016668" />
		<tag k="operator" v="Asker kommune" />
		<tag k="operator:type" v="public" />
	</node>
	<node id="-535" lat="59.8625" lon="10.5254">
		<tag k="amenity" v="kindergarten" />
		<tag k="capacity" v="152" />
		<tag k="contact:website" v="http://www.asker.kommune.no/vendlabarnehage" />
		<tag k="max_age" v="5" />
		<tag k="min_age" v="1" />
		<tag k="name" v="Vendla barnehage" />
		<tag k="no-barnehage:nsrid" v="1017835" />
		<tag k="operator" v="Asker kommune" />
		<tag k="operator:type" v="public" />
	</node>
	<node id="-534" lat="59.8196" lon="10.38258">
		<tag k="amenity" v="kindergarten" />
		<tag k="capacity" v="64" />
		<tag k="contact:website" v="http://www.vardba.no" />
		<tag k="max_age" v="5" />
		<tag k="min_age" v="1" />
		<tag k="name" v="Vardåsen barnehage" />
		<tag k="no-barnehage:nsrid" v="1020568" />
		<tag k="operator" v="Vardåsen barnehage Sa" />
		<tag k="operator:type" v="private" />
	</node>
	<node id="-533" lat="59.78732" lon="10.47098">
		<tag k="amenity" v="kindergarten" />
		<tag k="capacity" v="55" />
		<tag k="contact:website" v="http://torp.hoymyr.barnehage.no" />
		<tag k="max_age" v="5" />
		<tag k="min_age" v="1" />
		<tag k="name" v="Torp Høymyr barnehage" />
		<tag k="no-barnehage:nsrid" v="1020287" />
		<tag k="operator" v="Torp Høymyr barnehage Sa" />
		<tag k="operator:type" v="private" />
	</node>
	<node id="-532" lat="59.8268" lon="10.4249">
		<tag k="amenity" v="kindergarten" />
		<tag k="capacity" v="62" />
		<tag k="max_age" v="5" />
		<tag k="min_age" v="1" />
		<tag k="name" v="Søndre Borgen barnehage" />
		<tag k="no-barnehage:nsrid" v="1012756" />
		<tag k="operator" v="Asker kommune" />
		<tag k="operator:type" v="public" />
	</node>
	<node id="-531" lat="59.8" lon="10.3717">
		<tag k="amenity" v="kindergarten" />
		<tag k="capacity" v="58" />
		<tag k="max_age" v="5" />
		<tag k="min_age" v="1" />
		<tag k="name" v="Stinaløkka Kanvas-barnehage" />
		<tag k="no-barnehage:nsrid" v="1015688" />
		<tag k="operator" v="Stiftelsen Kanvas" />
		<tag k="operator:type" v="private" />
	</node>
	<node id="-530" lat="59.80526" lon="10.4767">
		<tag k="amenity" v="kindergarten" />
		<tag k="capacity" v="83" />
		<tag k="contact:website" v="http://www.vollenmontessori.no" />
		<tag k="max_age" v="5" />
		<tag k="min_age" v="1" />
		<tag k="name" v="Stiftelsen Vollen montessoribarnehage" />
		<tag k="no-barnehage:nsrid" v="1020816" />
		<tag k="operator" v="Stiftelsen Vollen Montessoribarnehage" />
		<tag k="operator:type" v="private" />
	</node>
	<node id="-529" lat="59.8593" lon="10.4604">
		<tag k="amenity" v="kindergarten" />
		<tag k="capacity" v="50" />
		<tag k="max_age" v="5" />
		<tag k="min_age" v="1" />
		<tag k="name" v="Solstad barnehage barnehage Med Barn i Alderen 1-5 År" />
		<tag k="no-barnehage:nsrid" v="1012759" />
		<tag k="operator" v="Asker kommune" />
		<tag k="operator:type" v="public" />
	</node>
	<node id="-528" lat="59.86201" lon="10.49529">
		<tag k="amenity" v="kindergarten" />
		<tag k="capacity" v="47" />
		<tag k="max_age" v="5" />
		<tag k="min_age" v="1" />
		<tag k="name" v="Regnbuen Steinerbarnehage" />
		<tag k="no-barnehage:nsrid" v="1020347" />
		<tag k="operator" v="Stiftelsen Regnbuen Steinerbarnehage" />
		<tag k="operator:type" v="private" />
	</node>
	<node id="-527" lat="59.8695" lon="10.5148">
		<tag k="amenity" v="kindergarten" />
		<tag k="capacity" v="48" />
		<tag k="max_age" v="5" />
		<tag k="min_age" v="1" />
		<tag k="name" v="Nesøya barnehage" />
		<tag k="no-barnehage:nsrid" v="1012763" />
		<tag k="operator" v="Asker kommune" />
		<tag k="operator:type" v="public" />
	</node>
	<node id="-526" lat="59.85955" lon="10.48986">
		<tag k="amenity" v="kindergarten" />
		<tag k="capacity" v="27" />
		<tag k="contact:website" v="http://nesbru.barnehage.no/" />
		<tag k="max_age" v="5" />
		<tag k="min_age" v="1" />
		<tag k="name" v="Nesbru barnehage" />
		<tag k="no-barnehage:nsrid" v="1019620" />
		<tag k="operator" v="Nesbru Kvinne- og Familielag" />
		<tag k="operator:type" v="private" />
	</node>
	<node id="-525" lat="59.82323" lon="10.44727">
		<tag k="amenity" v="kindergarten" />
		<tag k="capacity" v="76" />
		<tag k="contact:website" v="http://nbbh.barnehage.no" />
		<tag k="max_age" v="5" />
		<tag k="min_age" v="1" />
		<tag k="name" v="Nedre Bleiker Barnehus" />
		<tag k="no-barnehage:nsrid" v="1019622" />
		<tag k="operator" v="Stiftelsen Nedre Bleiker Barnehus" />
		<tag k="operator:type" v="private" />
	</node>
	<node id="-524" lat="59.8276" lon="10.4515">
		<tag k="amenity" v="kindergarten" />
		<tag k="capacity" v="70" />
		<tag k="contact:website" v="http://www.asker.kommune.no" />
		<tag k="max_age" v="5" />
		<tag k="min_age" v="1" />
		<tag k="name" v="Morellveien barnehage" />
		<tag k="no-barnehage:nsrid" v="1012758" />
		<tag k="operator" v="Asker kommune" />
		<tag k="operator:type" v="public" />
	</node>
	<node id="-523" lat="59.8668" lon="10.4907">
		<tag k="amenity" v="kindergarten" />
		<tag k="capacity" v="96" />
		<tag k="contact:website" v="http://mellomnes.bhg.no/" />
		<tag k="max_age" v="5" />
		<tag k="min_age" v="1" />
		<tag k="name" v="Mellom- Nes FUS barnehage" />
		<tag k="no-barnehage:nsrid" v="1021928" />
		<tag k="operator" v="Mellom- Nes Fus barnehage AS" />
		<tag k="operator:type" v="private" />
	</node>
	<node id="-522" lat="59.8767" lon="10.4859">
		<tag k="amenity" v="kindergarten" />
		<tag k="capacity" v="76" />
		<tag k="max_age" v="5" />
		<tag k="min_age" v="1" />
		<tag k="name" v="Læringsverkstedet barnehage avd. Billingstad" />
		<tag k="no-barnehage:nsrid" v="1014238" />
		<tag k="operator" v="Læringsverkstedet AS" />
		<tag k="operator:type" v="private" />
	</node>
	<node id="-521" lat="59.81304" lon="10.4291">
		<tag k="amenity" v="kindergarten" />
		<tag k="capacity" v="42" />
		<tag k="contact:website" v="http://www.lilleborgenbarnehage.no" />
		<tag k="max_age" v="5" />
		<tag k="min_age" v="1" />
		<tag k="name" v="Lilleborgen barnehage Trettestykket naturbarnehage" />
		<tag k="no-barnehage:nsrid" v="2000069" />
		<tag k="operator" v="Barnehageporten AS" />
		<tag k="operator:type" v="private" />
	</node>
	<node id="-520" lat="59.8247" lon="10.4246">
		<tag k="amenity" v="kindergarten" />
		<tag k="capacity" v="21" />
		<tag k="contact:website" v="http://www.lilleborgenbarnehage.no" />
		<tag k="max_age" v="5" />
		<tag k="min_age" v="1" />
		<tag k="name" v="Lilleborgen barnehage Jutemyrveien naturbarnehage" />
		<tag k="no-barnehage:nsrid" v="1015969" />
		<tag k="operator" v="Barnehageporten AS" />
		<tag k="operator:type" v="private" />
	</node>
	<node id="-519" lat="59.83944" lon="10.44588">
		<tag k="amenity" v="kindergarten" />
		<tag k="capacity" v="30" />
		<tag k="max_age" v="5" />
		<tag k="min_age" v="1" />
		<tag k="name" v="Leikestua barnehage" />
		<tag k="no-barnehage:nsrid" v="1020463" />
		<tag k="operator" v="Stiftelsen Barnas Asker" />
		<tag k="operator:type" v="private" />
	</node>
	<node id="-518" lat="59.8612" lon="10.467">
		<tag k="amenity" v="kindergarten" />
		<tag k="capacity" v="68" />
		<tag k="max_age" v="5" />
		<tag k="min_age" v="1" />
		<tag k="name" v="Hvalstad barnehage Hvalstadveien" />
		<tag k="no-barnehage:nsrid" v="1015706" />
		<tag k="operator" v="Asker kommune" />
		<tag k="operator:type" v="public" />
	</node>
	<node id="-517" lat="59.85272" lon="10.46718">
		<tag k="amenity" v="kindergarten" />
		<tag k="capacity" v="14" />
		<tag k="max_age" v="2" />
		<tag k="min_age" v="1" />
		<tag k="name" v="Haugtussa barnehage" />
		<tag k="no-barnehage:nsrid" v="1025800" />
		<tag k="operator" v="Asker kommune" />
		<tag k="operator:type" v="public" />
	</node>
	<node id="-516" lat="59.84861" lon="10.48329">
		<tag k="amenity" v="kindergarten" />
		<tag k="capacity" v="14" />
		<tag k="max_age" v="2" />
		<tag k="min_age" v="1" />
		<tag k="name" v="Hval gård barnehage Syverstadveien" />
		<tag k="no-barnehage:nsrid" v="1025798" />
		<tag k="operator" v="Asker kommune" />
		<tag k="operator:type" v="public" />
	</node>
	<node id="-515" lat="59.8723" lon="10.4906">
		<tag k="amenity" v="kindergarten" />
		<tag k="capacity" v="14" />
		<tag k="max_age" v="5" />
		<tag k="min_age" v="1" />
		<tag k="name" v="Holmentoppen barnehage" />
		<tag k="no-barnehage:nsrid" v="1025311" />
		<tag k="operator" v="Asker Kirkelige Fellesråd" />
		<tag k="operator:type" v="private" />
	</node>
	<node id="-514" lat="59.8658" lon="10.4845">
		<tag k="amenity" v="kindergarten" />
		<tag k="capacity" v="79" />
		<tag k="max_age" v="5" />
		<tag k="min_age" v="1" />
		<tag k="name" v="Holmen barnehage" />
		<tag k="no-barnehage:nsrid" v="1012755" />
		<tag k="operator" v="Asker kommune" />
		<tag k="operator:type" v="public" />
	</node>
	<node id="-513" lat="59.78114" lon="10.44596">
		<tag k="amenity" v="kindergarten" />
		<tag k="capacity" v="17" />
		<tag k="max_age" v="5" />
		<tag k="min_age" v="3" />
		<tag k="name" v="Heggedalskogen barnehage Friluft" />
		<tag k="no-barnehage:nsrid" v="1025799" />
		<tag k="operator" v="Asker kommune" />
		<tag k="operator:type" v="public" />
	</node>
</osm>
