<?xml version="1.0" encoding="UTF-8"?>
<osm generator="osmapis" version="0.6">
	<node id="-711" lat="59.83109" lon="10.40907">
		<tag k="amenity" v="kindergarten" />
		<tag k="capacity" v="76" />
		<tag k="contact:email" v="post@annerudtoppen.no" />
		<tag k="contact:phone" v="66 76 59 90" />
		<tag k="contact:website" v="http://www.annerudtoppen.no" />
		<tag k="max_age" v="5" />
		<tag k="min_age" v="1" />
		<tag k="name" v="Ånnerudtoppen barnehage Sa" />
		<tag k="no-barnehage:nsrid" v="1020614" />
		<tag k="operator" v="Ånnerudtoppen barnehage Sa" />
		<tag k="operator:type" v="private" />
		<tag k="start_date" v="2000-01-31" />
	</node>
	<node id="-710" lat="59.83024" lon="10.40521">
		<tag k="amenity" v="kindergarten" />
		<tag k="capacity" v="27" />
		<tag k="contact:phone" v="66 79 08 13" />
		<tag k="max_age" v="5" />
		<tag k="min_age" v="1" />
		<tag k="name" v="Ånnerud Barnehus Sa" />
		<tag k="no-barnehage:nsrid" v="1019587" />
		<tag k="operator" v="Ånnerud Barnehus Sa" />
		<tag k="operator:type" v="private" />
		<tag k="start_date" v="1979-05-22" />
	</node>
	<node id="-709" lat="59.8216" lon="10.4564">
		<tag k="amenity" v="kindergarten" />
		<tag k="capacity" v="77" />
		<tag k="contact:email" v="Risengasonen.barnehager@asker.kommune.no" />
		<tag k="contact:phone" v="40035266" />
		<tag k="max_age" v="5" />
		<tag k="min_age" v="1" />
		<tag k="name" v="Åby barnehage" />
		<tag k="no-barnehage:nsrid" v="1015996" />
		<tag k="operator" v="Asker kommune" />
		<tag k="operator:type" v="public" />
		<tag k="start_date" v="1990-01-01" />
	</node>
	<node id="-708" lat="59.8154" lon="10.429">
		<tag k="amenity" v="kindergarten" />
		<tag k="capacity" v="51" />
		<tag k="contact:email" v="Borgensonen.barnehager@asker.kommune.no" />
		<tag k="contact:phone" v="66908200" />
		<tag k="max_age" v="5" />
		<tag k="min_age" v="1" />
		<tag k="name" v="Østhellinga barnehage" />
		<tag k="no-barnehage:nsrid" v="1025361" />
		<tag k="operator" v="Asker kommune" />
		<tag k="operator:type" v="public" />
		<tag k="start_date" v="1978-11-20" />
	</node>
	<node id="-707" lat="59.8126" lon="10.4638">
		<tag k="amenity" v="kindergarten" />
		<tag k="capacity" v="13" />
		<tag k="contact:phone" v="66794624" />
		<tag k="max_age" v="5" />
		<tag k="min_age" v="1" />
		<tag k="name" v="Østenstad Kirkes barnehage" />
		<tag k="no-barnehage:nsrid" v="1015572" />
		<tag k="operator" v="Asker Kirkelige Fellesråd" />
		<tag k="operator:type" v="private" />
		<tag k="start_date" v="1989-01-02" />
	</node>
	<node id="-706" lat="59.7877" lon="10.49321">
		<tag k="amenity" v="kindergarten" />
		<tag k="capacity" v="43" />
		<tag k="contact:phone" v="66 79 80 70" />
		<tag k="max_age" v="5" />
		<tag k="min_age" v="1" />
		<tag k="name" v="Vollen Kystkulturbarnehage AS" />
		<tag k="no-barnehage:nsrid" v="1022292" />
		<tag k="operator" v="Vollen Kystkulturbarnehage AS" />
		<tag k="operator:type" v="private" />
		<tag k="start_date" v="1995-08-01" />
	</node>
	<node id="-704" lat="59.7829" lon="10.4321">
		<tag k="amenity" v="kindergarten" />
		<tag k="capacity" v="130" />
		<tag k="contact:email" v="Hovedgardensonen.barnehager@asker.kommune.no" />
		<tag k="contact:phone" v="66907100" />
		<tag k="max_age" v="5" />
		<tag k="min_age" v="1" />
		<tag k="name" v="Vikingjordet barnehage Åmotåsen" />
		<tag k="no-barnehage:nsrid" v="1012765" />
		<tag k="operator" v="Asker kommune" />
		<tag k="operator:type" v="public" />
		<tag k="start_date" v="1992-08-01" />
	</node>
	<node id="-703" lat="59.8201" lon="10.4713">
		<tag k="amenity" v="kindergarten" />
		<tag k="capacity" v="51" />
		<tag k="contact:email" v="Hval.Gard.og.Vepsebolet.barnehager@asker.kommune.no" />
		<tag k="contact:phone" v="95231233" />
		<tag k="max_age" v="5" />
		<tag k="min_age" v="1" />
		<tag k="name" v="Vepsebolet barnehage" />
		<tag k="no-barnehage:nsrid" v="1016668" />
		<tag k="operator" v="Asker kommune" />
		<tag k="operator:type" v="public" />
		<tag k="start_date" v="1992-07-01" />
	</node>
	<node id="-702" lat="59.8625" lon="10.5254">
		<tag k="amenity" v="kindergarten" />
		<tag k="capacity" v="162" />
		<tag k="contact:email" v="NesoyaogVendla.barnehager@asker.kommune.no" />
		<tag k="contact:phone" v="66774422" />
		<tag k="contact:website" v="http://www.asker.kommune.no/vendlabarnehage" />
		<tag k="max_age" v="5" />
		<tag k="min_age" v="1" />
		<tag k="name" v="Vendla barnehage" />
		<tag k="no-barnehage:nsrid" v="1017835" />
		<tag k="operator" v="Asker kommune" />
		<tag k="operator:type" v="public" />
		<tag k="start_date" v="2007-01-01" />
	</node>
	<node id="-701" lat="59.86525" lon="10.49108">
		<tag k="amenity" v="kindergarten" />
		<tag k="capacity" v="29" />
		<tag k="contact:phone" v="66981321" />
		<tag k="max_age" v="5" />
		<tag k="min_age" v="1" />
		<tag k="name" v="Vekstbarnehagen" />
		<tag k="no-barnehage:nsrid" v="1019895" />
		<tag k="operator" v="Vekstbarnehagen AS" />
		<tag k="operator:type" v="private" />
		<tag k="start_date" v="1990-04-01" />
	</node>
	<node id="-700" lat="59.8196" lon="10.38258">
		<tag k="amenity" v="kindergarten" />
		<tag k="capacity" v="65" />
		<tag k="contact:email" v="post@vardba.no" />
		<tag k="contact:phone" v="66 78 58 60" />
		<tag k="contact:website" v="http://www.vardba.no" />
		<tag k="max_age" v="5" />
		<tag k="min_age" v="1" />
		<tag k="name" v="Vardåsen barnehage Sa" />
		<tag k="no-barnehage:nsrid" v="1020568" />
		<tag k="operator" v="Vardåsen barnehage Sa" />
		<tag k="operator:type" v="private" />
		<tag k="start_date" v="2000-01-01" />
	</node>
	<node id="-699" lat="59.78732" lon="10.47098">
		<tag k="amenity" v="kindergarten" />
		<tag k="capacity" v="59" />
		<tag k="max_age" v="5" />
		<tag k="min_age" v="1" />
		<tag k="name" v="Torp Høymyr barnehage Sa" />
		<tag k="no-barnehage:nsrid" v="1020287" />
		<tag k="operator" v="Torp Høymyr barnehage Sa" />
		<tag k="operator:type" v="private" />
		<tag k="start_date" v="1996-08-31" />
	</node>
	<node id="-698" lat="59.8268" lon="10.4249">
		<tag k="amenity" v="kindergarten" />
		<tag k="capacity" v="54" />
		<tag k="max_age" v="5" />
		<tag k="min_age" v="1" />
		<tag k="name" v="Søndre Borgen barnehage" />
		<tag k="no-barnehage:nsrid" v="1012756" />
		<tag k="operator" v="Asker kommune" />
		<tag k="operator:type" v="public" />
		<tag k="start_date" v="1988-04-01" />
	</node>
	<node id="-697" lat="59.8" lon="10.3717">
		<tag k="amenity" v="kindergarten" />
		<tag k="capacity" v="64" />
		<tag k="max_age" v="5" />
		<tag k="min_age" v="1" />
		<tag k="name" v="Stinaløkka Kanvas-Barnehage" />
		<tag k="no-barnehage:nsrid" v="1015688" />
		<tag k="operator" v="Stiftelsen Kanvas" />
		<tag k="operator:type" v="private" />
		<tag k="start_date" v="1998-09-01" />
	</node>
	<node id="-696" lat="59.80526" lon="10.4767">
		<tag k="amenity" v="kindergarten" />
		<tag k="capacity" v="84" />
		<tag k="contact:email" v="rektor@vollenmontessore.no" />
		<tag k="contact:phone" v="66 98 71 20" />
		<tag k="contact:website" v="http://www.vollenmontessori.no" />
		<tag k="max_age" v="5" />
		<tag k="min_age" v="1" />
		<tag k="name" v="Stiftelsen Vollen Montessori- barnehage" />
		<tag k="no-barnehage:nsrid" v="1020816" />
		<tag k="operator" v="Stiftelsen Vollen Montessoribarnehage" />
		<tag k="operator:type" v="private" />
		<tag k="start_date" v="2006-01-01" />
	</node>
	<node id="-695" lat="59.85906" lon="10.46063">
		<tag k="amenity" v="kindergarten" />
		<tag k="capacity" v="18" />
		<tag k="contact:phone" v="66790746" />
		<tag k="max_age" v="5" />
		<tag k="min_age" v="1" />
		<tag k="name" v="Stiftelsen Tertitten barnehage" />
		<tag k="no-barnehage:nsrid" v="1022353" />
		<tag k="operator" v="Stiftelsen Tertitten barnehage" />
		<tag k="operator:type" v="private" />
		<tag k="start_date" v="1978-09-22" />
	</node>
	<node id="-693" lat="59.8593" lon="10.4604">
		<tag k="amenity" v="kindergarten" />
		<tag k="capacity" v="50" />
		<tag k="contact:email" v="Torstadsonen.barnehager@asker.kommune.no" />
		<tag k="contact:phone" v="66799060" />
		<tag k="max_age" v="5" />
		<tag k="min_age" v="1" />
		<tag k="name" v="Solstad barnehage" />
		<tag k="no-barnehage:nsrid" v="1012759" />
		<tag k="operator" v="Asker kommune" />
		<tag k="operator:type" v="public" />
		<tag k="start_date" v="1988-04-01" />
	</node>
	<node id="-692" lat="59.8496" lon="10.4483">
		<tag k="amenity" v="kindergarten" />
		<tag k="capacity" v="164" />
		<tag k="contact:email" v="Solvangsonen.barnehager@asker.kommune.no" />
		<tag k="contact:phone" v="66754050" />
		<tag k="max_age" v="5" />
		<tag k="min_age" v="1" />
		<tag k="name" v="Solgården barnehage Kirkeveien" />
		<tag k="no-barnehage:nsrid" v="1012761" />
		<tag k="operator" v="Asker kommune" />
		<tag k="operator:type" v="public" />
		<tag k="start_date" v="1988-04-01" />
	</node>
	<node id="-690" lat="59.85185" lon="10.42292">
		<tag k="amenity" v="kindergarten" />
		<tag k="capacity" v="39" />
		<tag k="contact:email" v="kontor@sembarnehage.no" />
		<tag k="contact:phone" v="66 90 13 02" />
		<tag k="contact:website" v="http://sembarnehage.no" />
		<tag k="max_age" v="5" />
		<tag k="min_age" v="1" />
		<tag k="name" v="Sem barnehage" />
		<tag k="no-barnehage:nsrid" v="1019770" />
		<tag k="operator" v="Sem barnehage Sa" />
		<tag k="operator:type" v="private" />
		<tag k="start_date" v="1989-01-01" />
	</node>
	<node id="-689" lat="59.85868" lon="10.46087">
		<tag k="amenity" v="kindergarten" />
		<tag k="capacity" v="48" />
		<tag k="contact:email" v="toneebs@broadpark.no" />
		<tag k="contact:phone" v="66902331" />
		<tag k="contact:website" v="http://www.steinerbarnehagene.asker.no" />
		<tag k="max_age" v="5" />
		<tag k="min_age" v="1" />
		<tag k="name" v="Rudolf Steinerbarnehagen i Asker" />
		<tag k="no-barnehage:nsrid" v="1019761" />
		<tag k="operator" v="Stiftelsen Rudolf Steinerbarnehagen i Asker" />
		<tag k="operator:type" v="private" />
		<tag k="start_date" v="1989-01-02" />
	</node>
	<node id="-688" lat="59.82848" lon="10.44041">
		<tag k="amenity" v="kindergarten" />
		<tag k="capacity" v="42" />
		<tag k="max_age" v="5" />
		<tag k="min_age" v="1" />
		<tag k="name" v="Risenga barnehage" />
		<tag k="no-barnehage:nsrid" v="1022146" />
		<tag k="operator" v="Risenga AS" />
		<tag k="operator:type" v="private" />
		<tag k="start_date" v="1999-07-26" />
	</node>
	<node id="-687" lat="59.86201" lon="10.49529">
		<tag k="amenity" v="kindergarten" />
		<tag k="capacity" v="44" />
		<tag k="contact:phone" v="66848207" />
		<tag k="max_age" v="5" />
		<tag k="min_age" v="1" />
		<tag k="name" v="Regnbuen Steinerbarnehage" />
		<tag k="no-barnehage:nsrid" v="1020347" />
		<tag k="operator" v="Stiftelsen Regnbuen Steinerbarnehage" />
		<tag k="operator:type" v="private" />
		<tag k="start_date" v="1989-01-02" />
	</node>
	<node id="-686" lat="59.8043" lon="10.4806">
		<tag k="amenity" v="kindergarten" />
		<tag k="capacity" v="83" />
		<tag k="max_age" v="5" />
		<tag k="min_age" v="1" />
		<tag k="name" v="Nilsemarka barnehage" />
		<tag k="no-barnehage:nsrid" v="1018479" />
		<tag k="operator" v="Norlandia Barnehagene Ii AS" />
		<tag k="operator:type" v="private" />
		<tag k="start_date" v="2008-09-11" />
	</node>
	<node id="-685" lat="59.8695" lon="10.5148">
		<tag k="amenity" v="kindergarten" />
		<tag k="capacity" v="48" />
		<tag k="max_age" v="5" />
		<tag k="min_age" v="1" />
		<tag k="name" v="Nesøya barnehage" />
		<tag k="no-barnehage:nsrid" v="1012763" />
		<tag k="operator" v="Asker kommune" />
		<tag k="operator:type" v="public" />
		<tag k="start_date" v="1988-04-01" />
	</node>
	<node id="-684" lat="59.85955" lon="10.48986">
		<tag k="amenity" v="kindergarten" />
		<tag k="capacity" v="27" />
		<tag k="contact:phone" v="66 84 79 24" />
		<tag k="max_age" v="5" />
		<tag k="min_age" v="1" />
		<tag k="name" v="Nesbru barnehage" />
		<tag k="no-barnehage:nsrid" v="1019620" />
		<tag k="operator" v="Nesbru Kvinne- og Familielag" />
		<tag k="operator:type" v="private" />
		<tag k="start_date" v="1982-01-01" />
	</node>
	<node id="-683" lat="59.82323" lon="10.44727">
		<tag k="amenity" v="kindergarten" />
		<tag k="capacity" v="77" />
		<tag k="contact:phone" v="66 76 69 50" />
		<tag k="max_age" v="5" />
		<tag k="min_age" v="1" />
		<tag k="name" v="Nedre Bleiker Barnehus" />
		<tag k="no-barnehage:nsrid" v="1019622" />
		<tag k="operator" v="Stiftelsen Nedre Bleiker Barnehus" />
		<tag k="operator:type" v="private" />
		<tag k="start_date" v="1982-01-01" />
	</node>
	<node id="-682" lat="59.8014" lon="10.49882">
		<tag k="amenity" v="kindergarten" />
		<tag k="capacity" v="50" />
		<tag k="contact:email" v="post@nansentunet.com" />
		<tag k="contact:phone" v="66 79 83 17" />
		<tag k="contact:website" v="http://www.nansentunet.com" />
		<tag k="max_age" v="5" />
		<tag k="min_age" v="1" />
		<tag k="name" v="Nansentunet Musikkbarnehage Sa" />
		<tag k="no-barnehage:nsrid" v="1020737" />
		<tag k="operator" v="Nansentunet Musikkbarnehage Sa" />
		<tag k="operator:type" v="private" />
		<tag k="start_date" v="2001-06-26" />
	</node>
	<node id="-681" lat="59.85143" lon="10.4228">
		<tag k="amenity" v="kindergarten" />
		<tag k="capacity" v="36" />
		<tag k="contact:email" v="post@nakuhelbarnehagen.no" />
		<tag k="contact:phone" v="66 90 19 11" />
		<tag k="contact:website" v="http://www.nakuhelbarnehagen.no" />
		<tag k="max_age" v="5" />
		<tag k="min_age" v="3" />
		<tag k="name" v="Nakuhel-Barnehagen Sa" />
		<tag k="no-barnehage:nsrid" v="1021638" />
		<tag k="operator" v="Nakuhel-Barnehagen Sa" />
		<tag k="operator:type" v="private" />
		<tag k="start_date" v="2007-04-28" />
	</node>
	<node id="-680" lat="59.8276" lon="10.4515">
		<tag k="amenity" v="kindergarten" />
		<tag k="capacity" v="76" />
		<tag k="contact:email" v="Risengasonen.barnehager@asker.kommune.no" />
		<tag k="contact:phone" v="66762370" />
		<tag k="max_age" v="5" />
		<tag k="min_age" v="1" />
		<tag k="name" v="Morellveien barnehage" />
		<tag k="no-barnehage:nsrid" v="1012758" />
		<tag k="operator" v="Asker kommune" />
		<tag k="operator:type" v="public" />
		<tag k="start_date" v="1988-04-01" />
	</node>
	<node id="-679" lat="59.8668" lon="10.4907">
		<tag k="amenity" v="kindergarten" />
		<tag k="capacity" v="88" />
		<tag k="max_age" v="5" />
		<tag k="min_age" v="1" />
		<tag k="name" v="Mellom- Nes Fus barnehage AS" />
		<tag k="no-barnehage:nsrid" v="1021928" />
		<tag k="operator" v="Mellom- Nes Fus barnehage AS" />
		<tag k="operator:type" v="private" />
		<tag k="start_date" v="2009-02-18" />
	</node>
	<node id="-678" lat="59.8502" lon="10.4685">
		<tag k="amenity" v="kindergarten" />
		<tag k="capacity" v="76" />
		<tag k="max_age" v="5" />
		<tag k="min_age" v="1" />
		<tag k="name" v="Læringsverkstedet barnehage Avd Bjørndalen" />
		<tag k="no-barnehage:nsrid" v="1013507" />
		<tag k="operator" v="Læringsverkstedet AS" />
		<tag k="operator:type" v="private" />
		<tag k="start_date" v="2011-08-01" />
	</node>
	<node id="-677" lat="59.8767" lon="10.4859">
		<tag k="amenity" v="kindergarten" />
		<tag k="capacity" v="18" />
		<tag k="max_age" v="5" />
		<tag k="min_age" v="3" />
		<tag k="name" v="Læringsverkstedet barnehage Avd Billingstad" />
		<tag k="no-barnehage:nsrid" v="1014238" />
		<tag k="operator" v="Læringsverkstedet AS" />
		<tag k="operator:type" v="private" />
		<tag k="start_date" v="2011-01-01" />
	</node>
	<node id="-675" lat="59.8247" lon="10.4246">
		<tag k="amenity" v="kindergarten" />
		<tag k="capacity" v="35" />
		<tag k="contact:email" v="lilleborgen@barnehagen.info" />
		<tag k="contact:phone" v="66906171" />
		<tag k="max_age" v="5" />
		<tag k="min_age" v="1" />
		<tag k="name" v="Lilleborgen barnehage" />
		<tag k="no-barnehage:nsrid" v="1015969" />
		<tag k="operator" v="Barnehageporten AS" />
		<tag k="operator:type" v="private" />
		<tag k="start_date" v="1992-08-01" />
	</node>
	<node id="-673" lat="59.8251" lon="10.4482">
		<tag k="amenity" v="kindergarten" />
		<tag k="capacity" v="50" />
		<tag k="contact:email" v="leikvoll.barnehage@asker.kommune.no" />
		<tag k="contact:phone" v="66 90 00 98" />
		<tag k="max_age" v="5" />
		<tag k="min_age" v="1" />
		<tag k="name" v="Leikvoll barnehage" />
		<tag k="no-barnehage:nsrid" v="1012757" />
		<tag k="operator" v="Asker kommune" />
		<tag k="operator:type" v="public" />
		<tag k="start_date" v="1978-11-20" />
	</node>
	<node id="-672" lat="59.83944" lon="10.44588">
		<tag k="amenity" v="kindergarten" />
		<tag k="capacity" v="31" />
		<tag k="contact:email" v="leikestua@bgnett.no" />
		<tag k="contact:phone" v="66 90 22 31" />
		<tag k="max_age" v="5" />
		<tag k="min_age" v="1" />
		<tag k="name" v="Leikestua barnehage" />
		<tag k="no-barnehage:nsrid" v="1020463" />
		<tag k="operator" v="Stiftelsen Barnas Asker" />
		<tag k="operator:type" v="private" />
		<tag k="start_date" v="1995-02-22" />
	</node>
	<node id="-671" lat="59.8609" lon="10.5025">
		<tag k="amenity" v="kindergarten" />
		<tag k="capacity" v="76" />
		<tag k="contact:email" v="Landoya.og.Holmen.barnehager@asker.kommune.no" />
		<tag k="contact:phone" v="66755090" />
		<tag k="max_age" v="5" />
		<tag k="min_age" v="1" />
		<tag k="name" v="Landøya barnehage" />
		<tag k="no-barnehage:nsrid" v="1016372" />
		<tag k="operator" v="Asker kommune" />
		<tag k="operator:type" v="public" />
		<tag k="start_date" v="2001-08-01" />
	</node>
	<node id="-669" lat="59.8612" lon="10.467">
		<tag k="amenity" v="kindergarten" />
		<tag k="capacity" v="89" />
		<tag k="contact:email" v="torstadsonen.barnehager@asker.kommune.no" />
		<tag k="contact:phone" v="66779780" />
		<tag k="max_age" v="5" />
		<tag k="min_age" v="1" />
		<tag k="name" v="Hvalstad barnehage Hvalstadveien" />
		<tag k="no-barnehage:nsrid" v="1015706" />
		<tag k="operator" v="Asker kommune" />
		<tag k="operator:type" v="public" />
		<tag k="start_date" v="1998-11-23" />
	</node>
	<node id="-668" lat="59.844" lon="10.4865">
		<tag k="amenity" v="kindergarten" />
		<tag k="capacity" v="112" />
		<tag k="contact:email" v="Hval.Gard.og.Vepsebolet.barnehager@asker.kommune.no" />
		<tag k="contact:phone" v="66851100" />
		<tag k="max_age" v="5" />
		<tag k="min_age" v="1" />
		<tag k="name" v="Hval Gård barnehage Hvalsveien" />
		<tag k="no-barnehage:nsrid" v="1012764" />
		<tag k="operator" v="Asker kommune" />
		<tag k="operator:type" v="public" />
		<tag k="start_date" v="1988-04-01" />
	</node>
	<node id="-667" lat="59.8723" lon="10.4906">
		<tag k="amenity" v="kindergarten" />
		<tag k="capacity" v="15" />
		<tag k="contact:phone" v="66 84 89 25" />
		<tag k="max_age" v="5" />
		<tag k="min_age" v="1" />
		<tag k="name" v="Holmentoppen barnehage" />
		<tag k="no-barnehage:nsrid" v="1025311" />
		<tag k="operator" v="Asker Kirkelige Fellesråd" />
		<tag k="operator:type" v="private" />
		<tag k="start_date" v="1978-12-07" />
	</node>
	<node id="-666" lat="59.8658" lon="10.4845">
		<tag k="amenity" v="kindergarten" />
		<tag k="capacity" v="78" />
		<tag k="max_age" v="5" />
		<tag k="min_age" v="1" />
		<tag k="name" v="Holmen barnehage" />
		<tag k="no-barnehage:nsrid" v="1012755" />
		<tag k="operator" v="Asker kommune" />
		<tag k="operator:type" v="public" />
		<tag k="start_date" v="1978-11-20" />
	</node>
	<node id="-665" lat="59.7831" lon="10.4464">
		<tag k="amenity" v="kindergarten" />
		<tag k="capacity" v="69" />
		<tag k="max_age" v="5" />
		<tag k="min_age" v="1" />
		<tag k="name" v="Heggedalskogen barnehage Heggedalskogen" />
		<tag k="no-barnehage:nsrid" v="1012760" />
		<tag k="operator" v="Asker kommune" />
		<tag k="operator:type" v="public" />
		<tag k="start_date" v="1988-04-01" />
	</node>
	<node id="-664" lat="59.84679" lon="10.41876">
		<tag k="amenity" v="kindergarten" />
		<tag k="capacity" v="27" />
		<tag k="contact:email" v="hanvold@barnahage.no" />
		<tag k="contact:phone" v="63 79 27 70" />
		<tag k="contact:website" v="http://hanevold.barnehage.no" />
		<tag k="max_age" v="5" />
		<tag k="min_age" v="1" />
		<tag k="name" v="Hanevold Barnegård AS" />
		<tag k="no-barnehage:nsrid" v="1021844" />
		<tag k="operator" v="Hanevold Barnegård AS" />
		<tag k="operator:type" v="private" />
		<tag k="start_date" v="2008-06-26" />
	</node>
	<node id="-661" lat="59.8355" lon="10.4245">
		<tag k="amenity" v="kindergarten" />
		<tag k="capacity" v="80" />
		<tag k="contact:email" v="Solvangsonen.barnehager@asker.kommune.no" />
		<tag k="contact:phone" v="66799810" />
		<tag k="max_age" v="5" />
		<tag k="min_age" v="1" />
		<tag k="name" v="Føyka barnehage Gamle Drammensvei" />
		<tag k="no-barnehage:nsrid" v="1025359" />
		<tag k="operator" v="Asker kommune" />
		<tag k="operator:type" v="public" />
		<tag k="start_date" v="1978-11-20" />
	</node>
	<node id="-660" lat="59.83484" lon="10.42173">
		<tag k="amenity" v="kindergarten" />
		<tag k="capacity" v="31" />
		<tag k="contact:phone" v="66794562" />
		<tag k="max_age" v="5" />
		<tag k="min_age" v="1" />
		<tag k="name" v="Furuly barnehage" />
		<tag k="no-barnehage:nsrid" v="1019695" />
		<tag k="operator" v="Furuly barnehage Unni Jacobsen" />
		<tag k="operator:type" v="private" />
		<tag k="start_date" v="1989-01-02" />
	</node>
	<node id="-659" lat="59.84174" lon="10.42117">
		<tag k="amenity" v="kindergarten" />
		<tag k="capacity" v="56" />
		<tag k="contact:email" v="frydbarn@online.no" />
		<tag k="contact:phone" v="66 90 45 62" />
		<tag k="max_age" v="5" />
		<tag k="min_age" v="1" />
		<tag k="name" v="Frydendal barnehage" />
		<tag k="no-barnehage:nsrid" v="1019930" />
		<tag k="operator" v="Stiftelsen Frydendal barnehage" />
		<tag k="operator:type" v="private" />
		<tag k="start_date" v="1990-01-01" />
	</node>
	<node id="-658" lat="59.8228" lon="10.3855">
		<tag k="amenity" v="kindergarten" />
		<tag k="capacity" v="68" />
		<tag k="contact:phone" v="66 78 74 86" />
		<tag k="max_age" v="5" />
		<tag k="min_age" v="1" />
		<tag k="name" v="Frelsesarmeens Barnehager Avd Trollstua" />
		<tag k="no-barnehage:nsrid" v="1025300" />
		<tag k="operator" v="Frelsesarmeen" />
		<tag k="operator:type" v="private" />
		<tag k="start_date" v="1971-12-29" />
	</node>
	<node id="-657" lat="59.81285" lon="10.44157">
		<tag k="amenity" v="kindergarten" />
		<tag k="capacity" v="109" />
		<tag k="contact:email" v="post@espira.no" />
		<tag k="contact:phone" v="52 84 50 20" />
		<tag k="contact:website" v="http://www.espira.no" />
		<tag k="max_age" v="5" />
		<tag k="min_age" v="1" />
		<tag k="name" v="Espira Gullhella barnehage" />
		<tag k="no-barnehage:nsrid" v="1020898" />
		<tag k="operator" v="Espira Gullhella AS" />
		<tag k="operator:type" v="private" />
		<tag k="start_date" v="2003-03-10" />
	</node>
	<node id="-656" lat="59.81983" lon="10.46824">
		<tag k="amenity" v="kindergarten" />
		<tag k="capacity" v="92" />
		<tag k="max_age" v="5" />
		<tag k="min_age" v="1" />
		<tag k="name" v="Espira Blakstad barnehage" />
		<tag k="no-barnehage:nsrid" v="1022190" />
		<tag k="operator" v="Espira Blakstad AS" />
		<tag k="operator:type" v="private" />
		<tag k="start_date" v="2005-05-01" />
	</node>
	<node id="-655" lat="59.8127" lon="10.3636">
		<tag k="amenity" v="kindergarten" />
		<tag k="capacity" v="24" />
		<tag k="max_age" v="5" />
		<tag k="min_age" v="1" />
		<tag k="name" v="Engelsrud barnehage" />
		<tag k="no-barnehage:nsrid" v="1016894" />
		<tag k="operator" v="Asker Kirkelige Fellesråd" />
		<tag k="operator:type" v="private" />
		<tag k="start_date" v="1989-01-02" />
	</node>
	<node id="-654" lat="59.83469" lon="10.45439">
		<tag k="amenity" v="kindergarten" />
		<tag k="capacity" v="67" />
		<tag k="contact:email" v="styrer@bastadmyra.no" />
		<tag k="contact:phone" v="66 78 97 70" />
		<tag k="contact:website" v="http://bastadmyra.no" />
		<tag k="max_age" v="5" />
		<tag k="min_age" v="1" />
		<tag k="name" v="Båstadmyra barnehage Sa" />
		<tag k="no-barnehage:nsrid" v="1020189" />
		<tag k="operator" v="Båstadmyra barnehage Sa" />
		<tag k="operator:type" v="private" />
		<tag k="start_date" v="1995-05-11" />
	</node>
	<node id="-653" lat="59.824" lon="10.3904">
		<tag k="amenity" v="kindergarten" />
		<tag k="capacity" v="51" />
		<tag k="max_age" v="5" />
		<tag k="min_age" v="1" />
		<tag k="name" v="Brendsrud barnehage" />
		<tag k="no-barnehage:nsrid" v="1012762" />
		<tag k="operator" v="Asker kommune" />
		<tag k="operator:type" v="public" />
		<tag k="start_date" v="1988-04-01" />
	</node>
	<node id="-652" lat="59.82312" lon="10.41812">
		<tag k="amenity" v="kindergarten" />
		<tag k="capacity" v="50" />
		<tag k="contact:email" v="bosba@online.no" />
		<tag k="contact:phone" v="66 76 11 60" />
		<tag k="contact:website" v="http://www.borgenskogbarnehage.no" />
		<tag k="max_age" v="5" />
		<tag k="min_age" v="1" />
		<tag k="name" v="Borgen Skog barnehage" />
		<tag k="no-barnehage:nsrid" v="1020167" />
		<tag k="operator" v="Borgen Skog barnehage" />
		<tag k="operator:type" v="private" />
		<tag k="start_date" v="1993-11-01" />
	</node>
	<node id="-651" lat="59.8258" lon="10.4135">
		<tag k="amenity" v="kindergarten" />
		<tag k="capacity" v="63" />
		<tag k="contact:email" v="borgen.barnehage@asker.kommune.no" />
		<tag k="contact:phone" v="66989370" />
		<tag k="contact:website" v="http://borgen.com" />
		<tag k="max_age" v="5" />
		<tag k="min_age" v="1" />
		<tag k="name" v="Borgen barnehage" />
		<tag k="no-barnehage:nsrid" v="1012754" />
		<tag k="operator" v="Asker kommune" />
		<tag k="operator:type" v="public" />
		<tag k="start_date" v="1995-05-01" />
	</node>
	<node id="-650" lat="59.8219" lon="10.4382">
		<tag k="amenity" v="kindergarten" />
		<tag k="capacity" v="12" />
		<tag k="contact:email" v="risengasonen.barnehager@asker.kommune.no" />
		<tag k="contact:phone" v="91130155" />
		<tag k="max_age" v="5" />
		<tag k="min_age" v="1" />
		<tag k="name" v="Bondi barnehage" />
		<tag k="no-barnehage:nsrid" v="1013215" />
		<tag k="operator" v="Asker kommune" />
		<tag k="operator:type" v="public" />
		<tag k="start_date" v="2005-01-03" />
	</node>
	<node id="-649" lat="59.79262" lon="10.48302">
		<tag k="amenity" v="kindergarten" />
		<tag k="capacity" v="65" />
		<tag k="contact:email" v="post@bjer-bhg.no" />
		<tag k="contact:phone" v="66 79 82 06" />
		<tag k="max_age" v="5" />
		<tag k="min_age" v="1" />
		<tag k="name" v="Bjerkås barnehage" />
		<tag k="no-barnehage:nsrid" v="1019925" />
		<tag k="operator" v="Stiftelsen Bjerkås barnehage" />
		<tag k="operator:type" v="private" />
		<tag k="start_date" v="1990-08-01" />
	</node>
	<node id="-648" lat="59.87431" lon="10.47099">
		<tag k="amenity" v="kindergarten" />
		<tag k="capacity" v="76" />
		<tag k="contact:phone" v="66 85 12 40" />
		<tag k="max_age" v="5" />
		<tag k="min_age" v="1" />
		<tag k="name" v="Billingstad barnehage Sa" />
		<tag k="no-barnehage:nsrid" v="1020500" />
		<tag k="operator" v="Billingstad barnehage Sa" />
		<tag k="operator:type" v="private" />
		<tag k="start_date" v="1998-03-04" />
	</node>
	<node id="-647" lat="59.87014" lon="10.51835">
		<tag k="amenity" v="kindergarten" />
		<tag k="capacity" v="43" />
		<tag k="contact:email" v="post@bikuben-barnehage.no" />
		<tag k="contact:phone" v="66 98 08 75" />
		<tag k="contact:website" v="http://www.bikuben-barnehage.no" />
		<tag k="max_age" v="5" />
		<tag k="min_age" v="1" />
		<tag k="name" v="Bikuben barnehage" />
		<tag k="no-barnehage:nsrid" v="1019621" />
		<tag k="operator" v="Nesøya Kvinne- og Familielag" />
		<tag k="operator:type" v="private" />
		<tag k="start_date" v="1989-02-01" />
	</node>
	<node id="-646" lat="59.83842" lon="10.43605">
		<tag k="amenity" v="kindergarten" />
		<tag k="capacity" v="12" />
		<tag k="contact:email" v="post@askergqrd.no" />
		<tag k="contact:phone" v="66 78 10 35" />
		<tag k="max_age" v="5" />
		<tag k="min_age" v="1" />
		<tag k="name" v="Asker Gård barnehage AS" />
		<tag k="no-barnehage:nsrid" v="1021705" />
		<tag k="operator" v="Asker Gård barnehage AS" />
		<tag k="operator:type" v="private" />
		<tag k="start_date" v="1989-01-02" />
	</node>
	<node id="-645" lat="59.81092" lon="10.44778">
		<tag k="amenity" v="kindergarten" />
		<tag k="capacity" v="45" />
		<tag k="contact:email" v="kontor@barnashus.com" />
		<tag k="contact:phone" v="66 76 14 40" />
		<tag k="contact:website" v="http://www.barnashus.com" />
		<tag k="max_age" v="5" />
		<tag k="min_age" v="1" />
		<tag k="name" v="As Barnas Hus Gullhella" />
		<tag k="no-barnehage:nsrid" v="1019863" />
		<tag k="operator" v="As Barnas Hus Gullhella" />
		<tag k="operator:type" v="private" />
		<tag k="start_date" v="1989-08-28" />
	</node>
</osm>
