<?xml version="1.0" encoding="UTF-8"?>
<osm generator="osmapis" version="0.6">
	<node id="-677" lat="59.81401" lon="10.45391">
		<tag k="amenity" v="kindergarten" />
		<tag k="capacity" v="3" />
		<tag k="contact:email" v="solveig@rovang.com" />
		<tag k="contact:phone" v="+47 66 90 68 64" />
		<tag k="max_age" v="5" />
		<tag k="min_age" v="1" />
		<tag k="name" v="Sommerfuglen Familiebarnehage Solveig Ebbesen Røvang" />
		<tag k="no-barnehage:nsrid" v="1022021" />
		<tag k="operator" v="Sommerfuglen Familiebarnehage Solveig Ebbesen Røvang" />
		<tag k="operator:type" v="private" />
		<tag k="start_date" v="2010-02-15" />
	</node>
	<node id="-658" lat="59.8344" lon="10.46721">
		<tag k="amenity" v="kindergarten" />
		<tag k="capacity" v="8" />
		<tag k="contact:email" v="lotusleela@gmail.com" />
		<tag k="contact:phone" v="+47 66 79 78 34" />
		<tag k="max_age" v="2" />
		<tag k="min_age" v="1" />
		<tag k="name" v="Lotus &amp; Leela Familiebarnehage Elianne Kemble-Clarkson" />
		<tag k="no-barnehage:nsrid" v="1022048" />
		<tag k="operator" v="Lotus &amp; Leela Familiebarnehage Elianne Kemble-Clarkson" />
		<tag k="operator:type" v="private" />
		<tag k="start_date" v="2010-04-01" />
	</node>
	<node id="-655" lat="59.8635" lon="10.49707">
		<tag k="amenity" v="kindergarten" />
		<tag k="capacity" v="4" />
		<tag k="contact:email" v="tin.kuusmik@gmail.com" />
		<tag k="max_age" v="2" />
		<tag k="min_age" v="1" />
		<tag k="name" v="Lille Sol Familiebarnehage Tiina Kuusmik" />
		<tag k="no-barnehage:nsrid" v="1022379" />
		<tag k="operator" v="Lille Sol Familiebarnehage Tiina Kuusmik" />
		<tag k="operator:type" v="private" />
		<tag k="start_date" v="2010-01-01" />
	</node>
	<node id="-690" lat="59.79919" lon="10.48606">
		<tag k="amenity" v="kindergarten" />
		<tag k="capacity" v="4" />
		<tag k="contact:email" v="davlo@online.no" />
		<tag k="contact:phone" v="+47 47230800" />
		<tag k="max_age" v="2" />
		<tag k="min_age" v="1" />
		<tag k="name" v="Vollen Familiebarnehage" />
		<tag k="no-barnehage:nsrid" v="1021290" />
		<tag k="operator" v="Vollen Familiebarnehage Linda Cecilie Elverum Keyn" />
		<tag k="operator:type" v="private" />
		<tag k="start_date" v="2009-01-01" />
	</node>
	<node id="-651" lat="59.78842" lon="10.48111">
		<tag k="amenity" v="kindergarten" />
		<tag k="capacity" v="4" />
		<tag k="contact:email" v="tone.bjellvag@gmail.com" />
		<tag k="contact:phone" v="+47 412 25 735" />
		<tag k="contact:website" v="http://www.hoymyrmarka.barnehageside.no" />
		<tag k="max_age" v="2" />
		<tag k="min_age" v="1" />
		<tag k="name" v="Høymyrmarka Familiebarnehage" />
		<tag k="no-barnehage:nsrid" v="1021146" />
		<tag k="operator" v="Høymyrmarka Familiebarnehage Tone Karin Bjellvåg" />
		<tag k="operator:type" v="private" />
		<tag k="start_date" v="2009-01-01" />
	</node>
	<node id="-641" lat="59.81314" lon="10.45219">
		<tag k="amenity" v="kindergarten" />
		<tag k="capacity" v="4" />
		<tag k="contact:email" v="ka-reinh@online.no" />
		<tag k="contact:phone" v="+47 66 79 50 95" />
		<tag k="max_age" v="2" />
		<tag k="min_age" v="1" />
		<tag k="name" v="Gullhella Familiebarnehage Kari Hofsmarken Reinhoff" />
		<tag k="no-barnehage:nsrid" v="1021575" />
		<tag k="operator" v="Gullhella Familiebarnehage V/kari Hofsmarken Reinhoff" />
		<tag k="operator:type" v="private" />
		<tag k="start_date" v="1992-08-01" />
	</node>
	<node id="-674" lat="59.87695" lon="10.47492">
		<tag k="amenity" v="kindergarten" />
		<tag k="capacity" v="3" />
		<tag k="contact:email" v="Merete.Waarli@asker.kommune.no" />
		<tag k="max_age" v="2" />
		<tag k="min_age" v="1" />
		<tag k="name" v="Solgården barnehage Dragonveien" />
		<tag k="no-barnehage:nsrid" v="1025801" />
		<tag k="operator" v="Asker kommune" />
		<tag k="operator:type" v="public" />
		<tag k="start_date" v="2015-01-01" />
	</node>
	<node id="-673" lat="59.82906" lon="10.41578">
		<tag k="amenity" v="kindergarten" />
		<tag k="capacity" v="4" />
		<tag k="contact:email" v="kujja1234@hotmail.com" />
		<tag k="contact:phone" v="+47 91684099" />
		<tag k="max_age" v="2" />
		<tag k="min_age" v="1" />
		<tag k="name" v="Snoopy Familie barnehage" />
		<tag k="no-barnehage:nsrid" v="1020648" />
		<tag k="operator" v="Snoopy Familie barnehage Manjit Kaur" />
		<tag k="operator:type" v="private" />
		<tag k="start_date" v="2009-01-01" />
	</node>
</osm>
