<?xml version="1.0" encoding="UTF-8"?>
<osm generator="osmapis" version="0.6">
	<node id="-2584" lat="0.0" lon="0.0">
		<tag k="ADDRESS" v="Stevningsmoen, 3623 LAMPELAND" />
		<tag k="amenity" v="kindergarten" />
		<tag k="capacity" v="47" />
		<tag k="max_age" v="5" />
		<tag k="min_age" v="1" />
		<tag k="name" v="Lampeland barnehage" />
		<tag k="no-barnehage:nsrid" v="1013796" />
		<tag k="operator" v="Flesberg kommune" />
		<tag k="operator:type" v="public" />
	</node>
	<node id="-2583" lat="0.0" lon="0.0">
		<tag k="ADDRESS" v=", 3620 FLESBERG" />
		<tag k="amenity" v="kindergarten" />
		<tag k="capacity" v="26" />
		<tag k="max_age" v="5" />
		<tag k="min_age" v="1" />
		<tag k="name" v="Furuflata barnehage" />
		<tag k="no-barnehage:nsrid" v="1013795" />
		<tag k="operator" v="Flesberg kommune" />
		<tag k="operator:type" v="public" />
	</node>
	<node id="-2582" lat="0.0" lon="0.0">
		<tag k="ADDRESS" v="Bergstugu, 3622 SVENE" />
		<tag k="amenity" v="kindergarten" />
		<tag k="name" v="Bergstugu familie barnehage" />
		<tag k="no-barnehage:nsrid" v="1020901" />
		<tag k="operator" v="Bergstugu Familie Barnehage Hilde Ingerine Thorsen Nilsen" />
		<tag k="operator:type" v="private" />
	</node>
	<node id="-2585" lat="0.0" lon="0.0">
		<tag k="ADDRESS" v=", 3622 SVENE" />
		<tag k="amenity" v="kindergarten" />
		<tag k="capacity" v="51" />
		<tag k="max_age" v="5" />
		<tag k="min_age" v="1" />
		<tag k="name" v="Svene barnehage" />
		<tag k="no-barnehage:nsrid" v="1018020" />
		<tag k="operator" v="Flesberg kommune" />
		<tag k="operator:type" v="public" />
	</node>
</osm>
