<?xml version="1.0" encoding="UTF-8"?>
<osm generator="osmapis" version="0.6">
	<node id="-3664" lat="58.1257" lon="7.84394">
		<tag k="amenity" v="kindergarten" />
		<tag k="capacity" v="63" />
		<tag k="doNotImportAddress" v="Birkenesvegen 62 4647 BRENNÅSEN" />
		<tag k="max_age" v="5" />
		<tag k="min_age" v="1" />
		<tag k="name" v="Birkelid barnehage" />
		<tag k="no-barnehage:nsrid" v="1015808" />
		<tag k="operator" v="Songdalen kommune" />
		<tag k="operator:type" v="public" />
	</node>
	<node id="-3670" lat="58.1675" lon="7.85769">
		<tag k="amenity" v="kindergarten" />
		<tag k="capacity" v="58" />
		<tag k="doNotImportAddress" v="Tunballveien 4645 NODELAND" />
		<tag k="max_age" v="5" />
		<tag k="min_age" v="1" />
		<tag k="name" v="Tunballen barnehage" />
		<tag k="no-barnehage:nsrid" v="1013800" />
		<tag k="operator" v="Songdalen kommune" />
		<tag k="operator:type" v="public" />
	</node>
	<node id="-3667" lat="58.317" lon="7.58481">
		<tag k="amenity" v="kindergarten" />
		<tag k="capacity" v="59" />
		<tag k="doNotImportAddress" v="Fjeldsgård 4646 FINSLAND" />
		<tag k="max_age" v="5" />
		<tag k="min_age" v="1" />
		<tag k="name" v="Finsland barnehage" />
		<tag k="no-barnehage:nsrid" v="1018066" />
		<tag k="operator" v="Songdalen kommune" />
		<tag k="operator:type" v="public" />
	</node>
	<node id="-3666" lat="58.1675" lon="7.85769">
		<tag k="amenity" v="kindergarten" />
		<tag k="capacity" v="101" />
		<tag k="doNotImportAddress" v="Tunballvegen 4 4645 NODELAND" />
		<tag k="max_age" v="5" />
		<tag k="min_age" v="1" />
		<tag k="name" v="Eventyrheia barnehage" />
		<tag k="no-barnehage:nsrid" v="1018068" />
		<tag k="operator" v="Songdalen kommune" />
		<tag k="operator:type" v="public" />
	</node>
	<node id="-3665" lat="58.1373" lon="7.84625">
		<tag k="amenity" v="kindergarten" />
		<tag k="capacity" v="74" />
		<tag k="doNotImportAddress" v="Birkenesvegen 26e 4647 BRENNÅSEN" />
		<tag k="max_age" v="5" />
		<tag k="min_age" v="1" />
		<tag k="name" v="Bjørnungen barnehage" />
		<tag k="no-barnehage:nsrid" v="1018067" />
		<tag k="operator" v="Songdalen kommune" />
		<tag k="operator:type" v="public" />
	</node>
</osm>
