<?xml version="1.0" encoding="UTF-8"?>
<osm generator="osmapis" version="0.6">
	<node id="-3280" lat="58.1675" lon="7.85769">
		<tag k="amenity" v="kindergarten" />
		<tag k="capacity" v="94" />
		<tag k="contact:email" v="monica.ommundsen@songdalen.kommune.no" />
		<tag k="contact:phone" v="+47 48143123" />
		<tag k="max_age" v="5" />
		<tag k="min_age" v="1" />
		<tag k="name" v="Eventyrheia barnehage" />
		<tag k="no-barnehage:nsrid" v="1018068" />
		<tag k="operator" v="Songdalen kommune" />
		<tag k="operator:type" v="public" />
		<tag k="start_date" v="1989-01-01" />
	</node>
	<node id="-3279" lat="58.1373" lon="7.84625">
		<tag k="amenity" v="kindergarten" />
		<tag k="capacity" v="73" />
		<tag k="contact:email" v="unni.olsen@songdalen.kommune.no" />
		<tag k="max_age" v="5" />
		<tag k="min_age" v="1" />
		<tag k="name" v="BjÃ¸rnungen barnehage" />
		<tag k="no-barnehage:nsrid" v="1018067" />
		<tag k="operator" v="Songdalen kommune" />
		<tag k="operator:type" v="public" />
		<tag k="start_date" v="1989-01-01" />
	</node>
	<node id="-3278" lat="58.1257" lon="7.84394">
		<tag k="amenity" v="kindergarten" />
		<tag k="capacity" v="65" />
		<tag k="contact:email" v="Nina.Katrine.Bentsen@songdalen.kommune.no" />
		<tag k="max_age" v="5" />
		<tag k="min_age" v="1" />
		<tag k="name" v="Birkelid barnehage" />
		<tag k="no-barnehage:nsrid" v="1015808" />
		<tag k="operator" v="Songdalen kommune" />
		<tag k="operator:type" v="public" />
		<tag k="start_date" v="1999-08-01" />
	</node>
	<node id="-3284" lat="58.1675" lon="7.85769">
		<tag k="amenity" v="kindergarten" />
		<tag k="capacity" v="64" />
		<tag k="contact:email" v="gry.eike@songdalen.kommune.no" />
		<tag k="max_age" v="5" />
		<tag k="min_age" v="1" />
		<tag k="name" v="Tunballen barnehage" />
		<tag k="no-barnehage:nsrid" v="1013800" />
		<tag k="operator" v="Songdalen kommune" />
		<tag k="operator:type" v="public" />
		<tag k="start_date" v="1989-01-02" />
	</node>
	<node id="-3281" lat="58.317" lon="7.58481">
		<tag k="amenity" v="kindergarten" />
		<tag k="capacity" v="56" />
		<tag k="contact:email" v="ragnhild.aasen.thomsen@songdalen.kommune.no" />
		<tag k="max_age" v="5" />
		<tag k="min_age" v="1" />
		<tag k="name" v="Finsland barnehage" />
		<tag k="no-barnehage:nsrid" v="1018066" />
		<tag k="operator" v="Songdalen kommune" />
		<tag k="operator:type" v="public" />
		<tag k="start_date" v="1989-01-01" />
	</node>
</osm>
