<?xml version="1.0" encoding="UTF-8"?>
<osm generator="osmapis" version="0.6">
	<node id="-2983" lat="0.0" lon="0.0">
		<tag k="ADDRESS" v="Tågvollan, 7340 OPPDAL" />
		<tag k="amenity" v="kindergarten" />
		<tag k="capacity" v="43" />
		<tag k="max_age" v="5" />
		<tag k="min_age" v="1" />
		<tag k="name" v="Tågvollan barnehage" />
		<tag k="no-barnehage:nsrid" v="1015509" />
		<tag k="operator" v="Oppdal Kristne Senter" />
		<tag k="operator:type" v="private" />
	</node>
	<node id="-2982" lat="0.0" lon="0.0">
		<tag k="ADDRESS" v="Rute 4, 7340 OPPDAL" />
		<tag k="amenity" v="kindergarten" />
		<tag k="capacity" v="16" />
		<tag k="contact:website" v="http://www.stolenprivate.barnehageside.no" />
		<tag k="max_age" v="5" />
		<tag k="min_age" v="1" />
		<tag k="name" v="Stølen private barnehage" />
		<tag k="no-barnehage:nsrid" v="1019657" />
		<tag k="operator" v="Stølen Private barnehage Sa" />
		<tag k="operator:type" v="private" />
	</node>
	<node id="-2981" lat="62.656" lon="9.88434">
		<tag k="ADDRESS" v="Fururingen 12, 7340 OPPDAL" />
		<tag k="amenity" v="kindergarten" />
		<tag k="capacity" v="21" />
		<tag k="contact:website" v="http://www.fagerhaug.barnehageside.no" />
		<tag k="max_age" v="5" />
		<tag k="min_age" v="1" />
		<tag k="name" v="Fagerhaug barnehage" />
		<tag k="no-barnehage:nsrid" v="1019736" />
		<tag k="operator" v="Fagerhaug barnehage Sa" />
		<tag k="operator:type" v="private" />
	</node>
	<node id="-2980" lat="62.53411" lon="9.61609">
		<tag k="ADDRESS" v="Eventyrstien 3b, 7345 DRIVA" />
		<tag k="amenity" v="kindergarten" />
		<tag k="capacity" v="24" />
		<tag k="max_age" v="5" />
		<tag k="min_age" v="1" />
		<tag k="name" v="Drivdalen barnehage" />
		<tag k="no-barnehage:nsrid" v="1019817" />
		<tag k="operator" v="Oppdal kommune" />
		<tag k="operator:type" v="public" />
	</node>
	<node id="-2979" lat="62.59759" lon="9.6915">
		<tag k="ADDRESS" v="Luvegen 5, 7340 OPPDAL" />
		<tag k="amenity" v="kindergarten" />
		<tag k="capacity" v="15" />
		<tag k="max_age" v="5" />
		<tag k="min_age" v="1" />
		<tag k="name" v="Bjerkehagen friluftsbarnehage" />
		<tag k="no-barnehage:nsrid" v="1020259" />
		<tag k="operator" v="Bjerkehagen Friluftsbarnehage Sa" />
		<tag k="operator:type" v="private" />
	</node>
</osm>
