<?xml version="1.0" encoding="UTF-8"?>
<osm generator="osmapis" version="0.6">
	<node id="-3007" lat="63.48308" lon="10.96001">
		<tag k="ADDRESS" v="Feltspatvegen 4, 7509 STJØRDAL" />
		<tag k="amenity" v="kindergarten" />
		<tag k="capacity" v="38" />
		<tag k="contact:website" v="http://tussilago.barnehage.no" />
		<tag k="max_age" v="5" />
		<tag k="min_age" v="1" />
		<tag k="name" v="Tussilago barnehage" />
		<tag k="no-barnehage:nsrid" v="1025319" />
		<tag k="operator" v="Stjørdal barnehage Sa" />
		<tag k="operator:type" v="private" />
	</node>
	<node id="-3005" lat="63.47175" lon="10.93689">
		<tag k="ADDRESS" v="Prost Fergstads Gate 1, 7505 STJØRDAL" />
		<tag k="amenity" v="kindergarten" />
		<tag k="capacity" v="43" />
		<tag k="max_age" v="5" />
		<tag k="min_age" v="1" />
		<tag k="name" v="Stjørdal menighets barnehage" />
		<tag k="no-barnehage:nsrid" v="1019629" />
		<tag k="operator" v="Stjørdal Menighets barnehage" />
		<tag k="operator:type" v="private" />
	</node>
	<node id="-3004" lat="0.0" lon="0.0">
		<tag k="ADDRESS" v=", 7517 HELL" />
		<tag k="amenity" v="kindergarten" />
		<tag k="capacity" v="83" />
		<tag k="max_age" v="5" />
		<tag k="min_age" v="1" />
		<tag k="name" v="Lånke barnehage" />
		<tag k="no-barnehage:nsrid" v="1017396" />
		<tag k="operator" v="Stjørdal kommune" />
		<tag k="operator:type" v="public" />
	</node>
	<node id="-3002" lat="0.0" lon="0.0">
		<tag k="ADDRESS" v="Fosslia, 7500 STJØRDAL" />
		<tag k="amenity" v="kindergarten" />
		<tag k="capacity" v="65" />
		<tag k="max_age" v="5" />
		<tag k="min_age" v="1" />
		<tag k="name" v="Fosslia barnehage" />
		<tag k="no-barnehage:nsrid" v="1016524" />
		<tag k="operator" v="Stjørdal kommune" />
		<tag k="operator:type" v="public" />
	</node>
	<node id="-3000" lat="63.52741" lon="10.82796">
		<tag k="ADDRESS" v="Solberget 19, 7510 SKATVAL" />
		<tag k="amenity" v="kindergarten" />
		<tag k="max_age" v="5" />
		<tag k="min_age" v="1" />
		<tag k="name" v="Aglo barnehage Solberget" />
		<tag k="no-barnehage:nsrid" v="1015685" />
		<tag k="operator" v="Aglo opplæringssenter" />
		<tag k="operator:type" v="private" />
	</node>
	<node id="-2999" lat="63.47268" lon="10.92274">
		<tag k="ADDRESS" v="Skolegata 24, 7504 STJØRDAL" />
		<tag k="amenity" v="kindergarten" />
		<tag k="capacity" v="44" />
		<tag k="max_age" v="5" />
		<tag k="min_age" v="1" />
		<tag k="name" v="Aglo barnehage Sentrum" />
		<tag k="no-barnehage:nsrid" v="1026309" />
		<tag k="operator" v="Aglo opplæringssenter" />
		<tag k="operator:type" v="private" />
	</node>
	<node id="-2998" lat="0.0" lon="0.0">
		<tag k="ADDRESS" v="Fløanveien 87, 7510 SKATVAL" />
		<tag k="amenity" v="kindergarten" />
		<tag k="capacity" v="30" />
		<tag k="max_age" v="5" />
		<tag k="min_age" v="1" />
		<tag k="name" v="Aglo barnehage Eventyrhuset" />
		<tag k="no-barnehage:nsrid" v="1026310" />
		<tag k="operator" v="Aglo opplæringssenter" />
		<tag k="operator:type" v="private" />
	</node>
</osm>
