<?xml version="1.0" encoding="UTF-8"?>
<osm generator="osmapis" version="0.6">
	<node id="-2791" lat="63.48135" lon="10.96958">
		<tag k="amenity" v="kindergarten" />
		<tag k="capacity" v="4" />
		<tag k="max_age" v="5" />
		<tag k="min_age" v="1" />
		<tag k="name" v="Lasseliten familiebarnehage Siritun" />
		<tag k="no-barnehage:nsrid" v="1020622" />
		<tag k="operator" v="Malmtunet Familiebarnehage avd Siritun Ann-Siri Koen" />
		<tag k="operator:type" v="private" />
	</node>
	<node id="-2782" lat="63.4588" lon="10.9657">
		<tag k="amenity" v="kindergarten" />
		<tag k="capacity" v="4" />
		<tag k="max_age" v="2" />
		<tag k="min_age" v="1" />
		<tag k="name" v="Eventyrskogen familiebarnehage Hans og Grete" />
		<tag k="no-barnehage:nsrid" v="1020830" />
		<tag k="operator" v="Kari Skulbørstad" />
		<tag k="operator:type" v="private" />
	</node>
	<node id="-2797" lat="63.46393" lon="11.11427">
		<tag k="amenity" v="kindergarten" />
		<tag k="capacity" v="6" />
		<tag k="max_age" v="2" />
		<tag k="min_age" v="1" />
		<tag k="name" v="Nasse Nøff familiebarnehage" />
		<tag k="no-barnehage:nsrid" v="1022265" />
		<tag k="operator" v="Nasse Nøff Familiebarnehage AS" />
		<tag k="operator:type" v="private" />
	</node>
	<node id="-2779" lat="63.46946" lon="10.93787">
		<tag k="amenity" v="kindergarten" />
		<tag k="capacity" v="4" />
		<tag k="max_age" v="2" />
		<tag k="min_age" v="1" />
		<tag k="name" v="Brumm familiebarnehage Langberg" />
		<tag k="no-barnehage:nsrid" v="1021506" />
		<tag k="operator" v="Brumm Familiebarnehage Langberg" />
		<tag k="operator:type" v="private" />
	</node>
	<node id="-2787" lat="63.47233" lon="10.91938">
		<tag k="amenity" v="kindergarten" />
		<tag k="capacity" v="5" />
		<tag k="max_age" v="5" />
		<tag k="min_age" v="1" />
		<tag k="name" v="Gresstoppen familiebarnehage" />
		<tag k="no-barnehage:nsrid" v="1021742" />
		<tag k="operator" v="Gresstoppen Familiebarnehage Gresseth" />
		<tag k="operator:type" v="private" />
	</node>
</osm>
