<?xml version="1.0" encoding="UTF-8"?>
<osm generator="osmapis" version="0.6">
	<node id="-2006" lat="62.34" lon="10.89423">
		<tag k="amenity" v="kindergarten" />
		<tag k="capacity" v="20" />
		<tag k="max_age" v="5" />
		<tag k="min_age" v="1" />
		<tag k="name" v="Øyan barnehage AS" />
		<tag k="no-barnehage:nsrid" v="1021299" />
		<tag k="operator" v="Øyan barnehage AS" />
		<tag k="operator:type" v="private" />
		<tag k="start_date" v="2005-07-15" />
	</node>
	<node id="-2005" lat="62.2714" lon="10.7719">
		<tag k="amenity" v="kindergarten" />
		<tag k="capacity" v="70" />
		<tag k="max_age" v="5" />
		<tag k="min_age" v="1" />
		<tag k="name" v="Tronstua barnehage" />
		<tag k="no-barnehage:nsrid" v="1012738" />
		<tag k="operator" v="Tynset kommune" />
		<tag k="operator:type" v="public" />
		<tag k="start_date" v="1990-01-01" />
	</node>
	<node id="-2004" lat="62.2708" lon="10.7885">
		<tag k="amenity" v="kindergarten" />
		<tag k="capacity" v="53" />
		<tag k="max_age" v="5" />
		<tag k="min_age" v="1" />
		<tag k="name" v="Skogstua barnehage" />
		<tag k="no-barnehage:nsrid" v="1012737" />
		<tag k="operator" v="Tynset kommune" />
		<tag k="operator:type" v="public" />
		<tag k="start_date" v="1976-01-01" />
	</node>
	<node id="-2003" lat="62.13334" lon="10.8">
		<tag k="amenity" v="kindergarten" />
		<tag k="capacity" v="13" />
		<tag k="contact:phone" v="62 48 61 75" />
		<tag k="max_age" v="5" />
		<tag k="min_age" v="1" />
		<tag k="name" v="Lekestua barnehage" />
		<tag k="no-barnehage:nsrid" v="1022429" />
		<tag k="operator" v="Lekestua barnehage" />
		<tag k="operator:type" v="private" />
		<tag k="start_date" v="2007-01-01" />
	</node>
	<node id="-2002" lat="62.5822" lon="10.2873">
		<tag k="amenity" v="kindergarten" />
		<tag k="capacity" v="25" />
		<tag k="max_age" v="5" />
		<tag k="min_age" v="1" />
		<tag k="name" v="Kvikne barnehage" />
		<tag k="no-barnehage:nsrid" v="1012736" />
		<tag k="operator" v="Tynset kommune" />
		<tag k="operator:type" v="public" />
		<tag k="start_date" v="1989-01-02" />
	</node>
	<node id="-2001" lat="62.2667" lon="10.7754">
		<tag k="amenity" v="kindergarten" />
		<tag k="capacity" v="60" />
		<tag k="max_age" v="5" />
		<tag k="min_age" v="1" />
		<tag k="name" v="Haverslia barnehage" />
		<tag k="no-barnehage:nsrid" v="1012735" />
		<tag k="operator" v="Tynset kommune" />
		<tag k="operator:type" v="public" />
		<tag k="start_date" v="1989-01-02" />
	</node>
	<node id="-2000" lat="62.2607" lon="10.6598">
		<tag k="amenity" v="kindergarten" />
		<tag k="capacity" v="33" />
		<tag k="max_age" v="5" />
		<tag k="min_age" v="1" />
		<tag k="name" v="Fåset Skole og barnehage Avd Barnehage" />
		<tag k="no-barnehage:nsrid" v="1025358" />
		<tag k="operator" v="Tynset kommune" />
		<tag k="operator:type" v="public" />
		<tag k="start_date" v="1990-03-01" />
	</node>
	<node id="-1999" lat="62.27124" lon="10.78889">
		<tag k="amenity" v="kindergarten" />
		<tag k="capacity" v="17" />
		<tag k="contact:phone" v="62481670" />
		<tag k="max_age" v="5" />
		<tag k="min_age" v="1" />
		<tag k="name" v="Furumoen barnehage" />
		<tag k="no-barnehage:nsrid" v="1021805" />
		<tag k="operator" v="Marisko-Stiftelsen Alstadhaug Menighetsbarnehager" />
		<tag k="operator:type" v="private" />
		<tag k="start_date" v="1988-04-01" />
	</node>
	<node id="-1998" lat="62.27593" lon="10.7824">
		<tag k="amenity" v="kindergarten" />
		<tag k="capacity" v="30" />
		<tag k="contact:email" v="eggenbarnehage@hotmail.com" />
		<tag k="max_age" v="5" />
		<tag k="min_age" v="1" />
		<tag k="name" v="Eggen barnehage Sa" />
		<tag k="no-barnehage:nsrid" v="1020497" />
		<tag k="operator" v="Eggen barnehage Sa" />
		<tag k="operator:type" v="private" />
		<tag k="start_date" v="1990-03-01" />
	</node>
</osm>
