<?xml version="1.0" encoding="UTF-8"?>
<osm generator="osmapis" version="0.6">
	<node id="-2982" lat="58.8414" lon="9.0919">
		<tag k="amenity" v="kindergarten" />
		<tag k="capacity" v="64" />
		<tag k="contact:email" v="lina.flaten@gjerstad.kommune.no" />
		<tag k="max_age" v="5" />
		<tag k="min_age" v="1" />
		<tag k="name" v="Visedal barnehage Avdeling RenstÃ¸l" />
		<tag k="no-barnehage:nsrid" v="1014922" />
		<tag k="operator" v="Gjerstad kommune" />
		<tag k="operator:type" v="public" />
		<tag k="start_date" v="1992-08-01" />
	</node>
	<node id="-2981" lat="58.8808" lon="9.01861">
		<tag k="amenity" v="kindergarten" />
		<tag k="capacity" v="39" />
		<tag k="contact:email" v="lina.flaten@gjerstad.kommune.no" />
		<tag k="max_age" v="5" />
		<tag k="min_age" v="1" />
		<tag k="name" v="Visedal barnehage Avdeling Alvheim" />
		<tag k="no-barnehage:nsrid" v="1018055" />
		<tag k="operator" v="Gjerstad kommune" />
		<tag k="operator:type" v="public" />
		<tag k="start_date" v="1989-01-01" />
	</node>
</osm>
