<?xml version="1.0" encoding="UTF-8"?>
<osm version="0.6" generator="osmapis">
	<node lat="63.76625" lon="9.82241" id="-4998">
		<tag k="ADDRESS" v="Arnfinn Astads vei 5, 7160 BJUGN" />
		<tag k="amenity" v="kindergarten" />
		<tag k="capacity" v="81" />
		<tag k="max_age" v="5" />
		<tag k="min_age" v="1" />
		<tag k="name" v="Bekkfaret barnehage" />
		<tag k="no-barnehage:nsrid" v="912168549" />
		<tag k="operator" v="Ørland kommune" />
		<tag k="operator:type" v="public" />
	</node>
	<node lat="63.70943" lon="9.76491" id="-4999">
		<tag k="ADDRESS" v="Ottersboveien 50, 7140 OPPHAUG" />
		<tag k="amenity" v="kindergarten" />
		<tag k="capacity" v="47" />
		<tag k="contact:website" v="http://www.orland.kommune.no" />
		<tag k="max_age" v="5" />
		<tag k="min_age" v="1" />
		<tag k="name" v="Borgen barnehage" />
		<tag k="no-barnehage:nsrid" v="975322130" />
		<tag k="operator" v="Ørland kommune" />
		<tag k="operator:type" v="public" />
	</node>
	<node lat="63.71347" lon="9.66834" id="-5000">
		<tag k="ADDRESS" v="Lerbern 35, 7130 BREKSTAD" />
		<tag k="amenity" v="kindergarten" />
		<tag k="capacity" v="117" />
		<tag k="max_age" v="5" />
		<tag k="min_age" v="1" />
		<tag k="name" v="Futura barnehage" />
		<tag k="no-barnehage:nsrid" v="974022222" />
		<tag k="operator" v="Ørland kommune" />
		<tag k="operator:type" v="public" />
	</node>
	<node lat="63.7718" lon="9.78808" id="-5001">
		<tag k="ADDRESS" v="Kottengsveien 50, 7160 BJUGN" />
		<tag k="amenity" v="kindergarten" />
		<tag k="capacity" v="69" />
		<tag k="max_age" v="5" />
		<tag k="min_age" v="1" />
		<tag k="name" v="Kosmos barnehage" />
		<tag k="no-barnehage:nsrid" v="975290859" />
		<tag k="operator" v="Ørland kommune" />
		<tag k="operator:type" v="public" />
	</node>
	<node lat="63.74903" lon="9.7181" id="-5002">
		<tag k="ADDRESS" v="Ervikveien 81, 7160 BJUGN" />
		<tag k="amenity" v="kindergarten" />
		<tag k="capacity" v="55" />
		<tag k="contact:website" v="http://laringsverkstedet.no/barnehage/ervika" />
		<tag k="max_age" v="5" />
		<tag k="min_age" v="1" />
		<tag k="name" v="Læringsverkstedet Ervika naturbarnehage" />
		<tag k="no-barnehage:nsrid" v="998310881" />
		<tag k="operator" v="Læringsverkstedet Ervika naturbarnehage AS" />
		<tag k="operator:type" v="private" />
	</node>
	<node lat="63.72523" lon="9.68692" id="-5003">
		<tag k="ADDRESS" v="Fru Ingers vei 433, 7140 OPPHAUG" />
		<tag k="amenity" v="kindergarten" />
		<tag k="capacity" v="65" />
		<tag k="max_age" v="5" />
		<tag k="min_age" v="1" />
		<tag k="name" v="Læringsverkstedet Opphaug naturbarnehage" />
		<tag k="no-barnehage:nsrid" v="989715593" />
		<tag k="operator" v="Læringsverkstedet Opphaug naturbarnehage AS" />
		<tag k="operator:type" v="private" />
	</node>
	<node lat="63.72282" lon="9.67554" id="-5004">
		<tag k="ADDRESS" v="Ryggaveien 30, 7140 OPPHAUG" />
		<tag k="amenity" v="kindergarten" />
		<tag k="capacity" v="28" />
		<tag k="contact:website" v="http://www.marihona.barnehageside.no" />
		<tag k="max_age" v="5" />
		<tag k="min_age" v="1" />
		<tag k="name" v="Marihøna musikk og friluftsbarnehage" />
		<tag k="no-barnehage:nsrid" v="991361057" />
		<tag k="operator" v="Marihøna Musikk- og friluftsbarnehage Ann-Elisabeth Svines Hustad" />
		<tag k="operator:type" v="private" />
	</node>
	<node lat="63.68493" lon="9.65288" id="-5005">
		<tag k="ADDRESS" v="Skolegata 15, 7130 BREKSTAD" />
		<tag k="amenity" v="kindergarten" />
		<tag k="capacity" v="19" />
		<tag k="contact:website" v="http://solblomsten.barnehage.no" />
		<tag k="max_age" v="5" />
		<tag k="min_age" v="1" />
		<tag k="name" v="Solblomsten Steinerbarnehage" />
		<tag k="no-barnehage:nsrid" v="985862176" />
		<tag k="operator" v="Stiftelsen Steinerbarnehagen på Fosen" />
		<tag k="operator:type" v="private" />
	</node>
	<node lat="63.85144" lon="9.74536" id="-5006">
		<tag k="ADDRESS" v="Bålfjordnesveien 4, 7167 VALLERSUND" />
		<tag k="amenity" v="kindergarten" />
		<tag k="capacity" v="25" />
		<tag k="max_age" v="5" />
		<tag k="min_age" v="1" />
		<tag k="name" v="Solkysten barnehage avd. Sandnes" />
		<tag k="no-barnehage:nsrid" v="975311287" />
		<tag k="operator" v="Ørland kommune" />
		<tag k="operator:type" v="public" />
	</node>
	<node lat="63.88513" lon="9.87348" id="-5007">
		<tag k="ADDRESS" v="Slettenveien 11, 7168 LYSØYSUNDET" />
		<tag k="amenity" v="kindergarten" />
		<tag k="capacity" v="20" />
		<tag k="max_age" v="5" />
		<tag k="min_age" v="1" />
		<tag k="name" v="Solkysten barnehage avd. Lysøysund" />
		<tag k="no-barnehage:nsrid" v="875300792" />
		<tag k="operator" v="Ørland kommune" />
		<tag k="operator:type" v="public" />
	</node>
</osm>
