<?xml version="1.0" encoding="UTF-8"?>
<osm version="0.6" generator="osmapis">
	<node lat="59.19546" lon="10.39128" id="-3590">
		<tag k="ADDRESS" v="Brattåsveien 64, 3140 NØTTERØY" />
		<tag k="amenity" v="kindergarten" />
		<tag k="capacity" v="150" />
		<tag k="max_age" v="5" />
		<tag k="min_age" v="1" />
		<tag k="name" v="Brattås barnehage" />
		<tag k="no-barnehage:nsrid" v="994954253" />
		<tag k="operator" v="Brattås barnehage AS" />
		<tag k="operator:type" v="private" />
	</node>
	<node lat="59.23664" lon="10.44852" id="-3591">
		<tag k="ADDRESS" v="Bjørnebuveien 4, 3132 HUSØYSUND" />
		<tag k="amenity" v="kindergarten" />
		<tag k="capacity" v="54" />
		<tag k="max_age" v="5" />
		<tag k="min_age" v="1" />
		<tag k="name" v="Føynland barnehage" />
		<tag k="no-barnehage:nsrid" v="975306917" />
		<tag k="operator" v="Færder kommune" />
		<tag k="operator:type" v="public" />
	</node>
	<node lat="59.23382" lon="10.40958" id="-3592">
		<tag k="ADDRESS" v="Herstadveien 45, 3140 NØTTERØY" />
		<tag k="amenity" v="kindergarten" />
		<tag k="capacity" v="43" />
		<tag k="max_age" v="5" />
		<tag k="min_age" v="1" />
		<tag k="name" v="Herstadløkka barnehage" />
		<tag k="no-barnehage:nsrid" v="975315789" />
		<tag k="operator" v="Færder kommune" />
		<tag k="operator:type" v="public" />
	</node>
	<node lat="59.24288" lon="10.39519" id="-3593">
		<tag k="ADDRESS" v="Lerkeveien 20, 3142 VESTSKOGEN" />
		<tag k="amenity" v="kindergarten" />
		<tag k="capacity" v="20" />
		<tag k="max_age" v="5" />
		<tag k="min_age" v="1" />
		<tag k="name" v="Hundremeterskogen barnehage, Nøtterøy" />
		<tag k="no-barnehage:nsrid" v="984786840" />
		<tag k="operator" v="Hundremeterskogen Barnehage, Nøtterøy Da" />
		<tag k="operator:type" v="private" />
	</node>
	<node lat="59.19906" lon="10.44283" id="-3594">
		<tag k="ADDRESS" v="Fullriggerveien 50, 3138 SKALLESTAD" />
		<tag k="amenity" v="kindergarten" />
		<tag k="capacity" v="96" />
		<tag k="max_age" v="5" />
		<tag k="min_age" v="1" />
		<tag k="name" v="Hårkollen barnehage" />
		<tag k="no-barnehage:nsrid" v="989531409" />
		<tag k="operator" v="Færder kommune" />
		<tag k="operator:type" v="public" />
	</node>
	<node lat="59.23879" lon="10.39506" id="-3595">
		<tag k="ADDRESS" v="Labakken 1, 3142 VESTSKOGEN" />
		<tag k="amenity" v="kindergarten" />
		<tag k="capacity" v="43" />
		<tag k="max_age" v="5" />
		<tag k="min_age" v="1" />
		<tag k="name" v="Labakken barnehage" />
		<tag k="no-barnehage:nsrid" v="975322300" />
		<tag k="operator" v="Færder kommune" />
		<tag k="operator:type" v="public" />
	</node>
	<node lat="59.10804" lon="10.40438" id="-3596">
		<tag k="ADDRESS" v="Hallveien 4, 3145 TJØME" />
		<tag k="amenity" v="kindergarten" />
		<tag k="capacity" v="53" />
		<tag k="max_age" v="5" />
		<tag k="min_age" v="1" />
		<tag k="name" v="Lindhøy barnehage" />
		<tag k="no-barnehage:nsrid" v="974607581" />
		<tag k="operator" v="Færder kommune" />
		<tag k="operator:type" v="public" />
	</node>
	<node lat="59.15834" lon="10.38584" id="-3597">
		<tag k="ADDRESS" v="Rødnesveien 37, 3145 TJØME" />
		<tag k="amenity" v="kindergarten" />
		<tag k="capacity" v="80" />
		<tag k="contact:website" v="http://laringsverkstedet.no/barnehage/randineborg" />
		<tag k="max_age" v="5" />
		<tag k="min_age" v="1" />
		<tag k="name" v="Læringsverkstedet barnehage avd. Randineborg" />
		<tag k="no-barnehage:nsrid" v="989303511" />
		<tag k="operator" v="Læringsverkstedet AS" />
		<tag k="operator:type" v="private" />
	</node>
	<node lat="59.23555" lon="10.45044" id="-3598">
		<tag k="ADDRESS" v="Tillas vei 23, 3132 HUSØYSUND" />
		<tag k="amenity" v="kindergarten" />
		<tag k="capacity" v="60" />
		<tag k="max_age" v="5" />
		<tag k="min_age" v="1" />
		<tag k="name" v="Læringsverkstedet barnehage avd. Knerten Føynland barnehage" />
		<tag k="no-barnehage:nsrid" v="991486941" />
		<tag k="operator" v="Læringsverkstedet AS" />
		<tag k="operator:type" v="private" />
	</node>
	<node lat="59.25134" lon="10.4015" id="-3599">
		<tag k="ADDRESS" v="Grindstuveien 29, 3121 NØTTERØY" />
		<tag k="amenity" v="kindergarten" />
		<tag k="capacity" v="96" />
		<tag k="max_age" v="5" />
		<tag k="min_age" v="1" />
		<tag k="name" v="Læringsverkstedet Tiriltoppen" />
		<tag k="no-barnehage:nsrid" v="973484761" />
		<tag k="operator" v="Læringsverkstedet AS" />
		<tag k="operator:type" v="private" />
	</node>
	<node lat="59.19869" lon="10.43937" id="-3600">
		<tag k="ADDRESS" v="Oserødmyra 14, 3138 SKALLESTAD" />
		<tag k="amenity" v="kindergarten" />
		<tag k="capacity" v="65" />
		<tag k="max_age" v="5" />
		<tag k="min_age" v="1" />
		<tag k="name" v="Oserød barnehage" />
		<tag k="no-barnehage:nsrid" v="988288039" />
		<tag k="operator" v="Færder kommune" />
		<tag k="operator:type" v="public" />
	</node>
	<node lat="59.23829" lon="10.42337" id="-3601">
		<tag k="ADDRESS" v="Øvre Smidsrødvei 46, 3120 NØTTERØY" />
		<tag k="amenity" v="kindergarten" />
		<tag k="capacity" v="78" />
		<tag k="contact:website" v="http://www.smidsrød.bhg.no" />
		<tag k="max_age" v="5" />
		<tag k="min_age" v="1" />
		<tag k="name" v="Smidsrød FUS barnehage" />
		<tag k="no-barnehage:nsrid" v="993008036" />
		<tag k="operator" v="Smidsrød Fus barnehage AS" />
		<tag k="operator:type" v="private" />
	</node>
	<node lat="59.2071" lon="10.44566" id="-3602">
		<tag k="ADDRESS" v="Løkkeåsveien 20, 3138 SKALLESTAD" />
		<tag k="amenity" v="kindergarten" />
		<tag k="capacity" v="76" />
		<tag k="max_age" v="5" />
		<tag k="min_age" v="1" />
		<tag k="name" v="Stiftelsen Barnas Have" />
		<tag k="no-barnehage:nsrid" v="976687477" />
		<tag k="operator" v="Stiftelsen Barnas Have" />
		<tag k="operator:type" v="private" />
	</node>
	<node lat="59.23991" lon="10.39467" id="-3603">
		<tag k="ADDRESS" v="Furumoveien 2, 3142 VESTSKOGEN" />
		<tag k="amenity" v="kindergarten" />
		<tag k="capacity" v="71" />
		<tag k="max_age" v="5" />
		<tag k="min_age" v="1" />
		<tag k="name" v="Stiftelsen steinerbarnehagen på Nøtterøy avd. Labakken" />
		<tag k="no-barnehage:nsrid" v="990799431" />
		<tag k="operator" v="Stiftelsen Steinerbarnehagen på Nøtterøy" />
		<tag k="operator:type" v="private" />
	</node>
	<node lat="59.25116" lon="10.41692" id="-3605">
		<tag k="ADDRESS" v="Ørsnesalleen 30, 3120 NØTTERØY" />
		<tag k="amenity" v="kindergarten" />
		<tag k="capacity" v="30" />
		<tag k="contact:website" v="http://teiekirkes.barnehage.no" />
		<tag k="max_age" v="5" />
		<tag k="min_age" v="1" />
		<tag k="name" v="Teie kirkes barnehage" />
		<tag k="no-barnehage:nsrid" v="973772503" />
		<tag k="operator" v="Færder Kirkelige Fellesråd" />
		<tag k="operator:type" v="private" />
	</node>
	<node lat="59.25436" lon="10.40943" id="-3606">
		<tag k="ADDRESS" v="Speiderveien 2, 3121 NØTTERØY" />
		<tag k="amenity" v="kindergarten" />
		<tag k="capacity" v="120" />
		<tag k="max_age" v="5" />
		<tag k="min_age" v="1" />
		<tag k="name" v="Teiehøyden barnehage" />
		<tag k="no-barnehage:nsrid" v="975290972" />
		<tag k="operator" v="Færder kommune" />
		<tag k="operator:type" v="public" />
	</node>
	<node lat="59.17964" lon="10.43881" id="-3607">
		<tag k="ADDRESS" v="Torødveien 39, 3135 TORØD" />
		<tag k="amenity" v="kindergarten" />
		<tag k="capacity" v="49" />
		<tag k="max_age" v="5" />
		<tag k="min_age" v="1" />
		<tag k="name" v="Torød barnehage" />
		<tag k="no-barnehage:nsrid" v="887103852" />
		<tag k="operator" v="Færder kommune" />
		<tag k="operator:type" v="public" />
	</node>
	<node lat="59.18105" lon="10.4409" id="-3608">
		<tag k="ADDRESS" v="Kapellveien 2, 3135 TORØD" />
		<tag k="amenity" v="kindergarten" />
		<tag k="contact:website" v="http://kirken.no/nb-NO/fellesrad/faerder-kirkelige-fellesrad/virksomhetsomrader/barn-og-ungdom/barn-og-ungd" />
		<tag k="name" v="Tripp-trapp åpen barnehage" />
		<tag k="no-barnehage:nsrid" v="994274406" />
		<tag k="operator" v="Færder Kirkelige Fellesråd" />
		<tag k="operator:type" v="private" />
	</node>
	<node lat="59.24262" lon="10.39281" id="-3609">
		<tag k="ADDRESS" v="Lerkeveien 12C, 3142 VESTSKOGEN" />
		<tag k="amenity" v="kindergarten" />
		<tag k="capacity" v="65" />
		<tag k="max_age" v="5" />
		<tag k="min_age" v="1" />
		<tag k="name" v="Vestskogen barnehage" />
		<tag k="no-barnehage:nsrid" v="975306976" />
		<tag k="operator" v="Færder kommune" />
		<tag k="operator:type" v="public" />
	</node>
</osm>
