<?xml version="1.0" encoding="UTF-8"?>
<osm version="0.6" generator="osmapis">
	<node lat="59.04204" lon="9.69414" id="-3506">
		<tag k="ADDRESS" v="Falkåsveien 14, 3960 STATHELLE" />
		<tag k="amenity" v="kindergarten" />
		<tag k="capacity" v="35" />
		<tag k="max_age" v="5" />
		<tag k="min_age" v="1" />
		<tag k="name" v="Falkåsen Kunst- og kulturbarnehage" />
		<tag k="no-barnehage:nsrid" v="975297101" />
		<tag k="operator" v="Bamble kommune" />
		<tag k="operator:type" v="public" />
	</node>
	<node lat="59.02581" lon="9.70502" id="-3507">
		<tag k="ADDRESS" v="Sundbykåsa 26, 3961 STATHELLE" />
		<tag k="amenity" v="kindergarten" />
		<tag k="capacity" v="52" />
		<tag k="max_age" v="5" />
		<tag k="min_age" v="1" />
		<tag k="name" v="Grashoppa barnehage" />
		<tag k="no-barnehage:nsrid" v="998010942" />
		<tag k="operator" v="Grashoppa barnehage AS" />
		<tag k="operator:type" v="private" />
	</node>
	<node lat="59.02937" lon="9.70242" id="-3508">
		<tag k="ADDRESS" v="Tønderveien 11, 3961 STATHELLE" />
		<tag k="amenity" v="kindergarten" />
		<tag k="capacity" v="77" />
		<tag k="contact:website" v="http://www.bamble.kommune.no/SB/barnehager/grasmyr-barnehage/" />
		<tag k="max_age" v="5" />
		<tag k="min_age" v="1" />
		<tag k="name" v="Grasmyr naturbarnehage" />
		<tag k="no-barnehage:nsrid" v="987130008" />
		<tag k="operator" v="Bamble kommune" />
		<tag k="operator:type" v="public" />
	</node>
	<node lat="59.04534" lon="9.65606" id="-3509">
		<tag k="ADDRESS" v="Hans Petters vei 19, 3962 STATHELLE" />
		<tag k="amenity" v="kindergarten" />
		<tag k="capacity" v="81" />
		<tag k="max_age" v="5" />
		<tag k="min_age" v="1" />
		<tag k="name" v="Læringsverkstedet Marthas Hage idrettsbarnehage" />
		<tag k="no-barnehage:nsrid" v="996566528" />
		<tag k="operator" v="Læringsverkstedet Marthas Hage idrettsbarnehage AS" />
		<tag k="operator:type" v="private" />
	</node>
	<node lat="59.0108" lon="9.72884" id="-3510">
		<tag k="ADDRESS" v="Øvre Nustadvei 30, 3970 LANGESUND" />
		<tag k="amenity" v="kindergarten" />
		<tag k="capacity" v="100" />
		<tag k="max_age" v="5" />
		<tag k="min_age" v="1" />
		<tag k="name" v="Nustad barnehage" />
		<tag k="no-barnehage:nsrid" v="975307158" />
		<tag k="operator" v="Bamble kommune" />
		<tag k="operator:type" v="public" />
	</node>
	<node lat="58.9739" lon="9.57144" id="-3511">
		<tag k="ADDRESS" v="Rønholtveien 71, 3967 STATHELLE" />
		<tag k="amenity" v="kindergarten" />
		<tag k="capacity" v="37" />
		<tag k="max_age" v="5" />
		<tag k="min_age" v="1" />
		<tag k="name" v="Rønholt barnehage" />
		<tag k="no-barnehage:nsrid" v="972286419" />
		<tag k="operator" v="Bamble kommune" />
		<tag k="operator:type" v="public" />
	</node>
	<node lat="59.0243" lon="9.70777" id="-3512">
		<tag k="ADDRESS" v="Reiduns vei 1, 3961 STATHELLE" />
		<tag k="amenity" v="kindergarten" />
		<tag k="capacity" v="37" />
		<tag k="max_age" v="5" />
		<tag k="min_age" v="1" />
		<tag k="name" v="Solstua kulturbarnehage" />
		<tag k="no-barnehage:nsrid" v="984684134" />
		<tag k="operator" v="Solstua kulturbarnehage AS" />
		<tag k="operator:type" v="private" />
	</node>
	<node lat="59.03732" lon="9.67256" id="-3513">
		<tag k="ADDRESS" v="Europaveien 135, 3962 STATHELLE" />
		<tag k="amenity" v="kindergarten" />
		<tag k="capacity" v="47" />
		<tag k="max_age" v="5" />
		<tag k="min_age" v="1" />
		<tag k="name" v="Stokkevannet barnehage" />
		<tag k="no-barnehage:nsrid" v="985488886" />
		<tag k="operator" v="Bamble kommune" />
		<tag k="operator:type" v="public" />
	</node>
	<node lat="59.01933" lon="9.72538" id="-3514">
		<tag k="ADDRESS" v="Sykehjemsveien 2, 3961 STATHELLE" />
		<tag k="amenity" v="kindergarten" />
		<tag k="capacity" v="50" />
		<tag k="max_age" v="5" />
		<tag k="min_age" v="1" />
		<tag k="name" v="Sundby barnehage" />
		<tag k="no-barnehage:nsrid" v="975295516" />
		<tag k="operator" v="Bamble kommune" />
		<tag k="operator:type" v="public" />
	</node>
	<node lat="59.02397" lon="9.70757" id="-3515">
		<tag k="ADDRESS" v="Reiduns vei 5, 3961 STATHELLE" />
		<tag k="amenity" v="kindergarten" />
		<tag k="capacity" v="52" />
		<tag k="contact:website" v="http://www.tirilltoppen.barnehage.no" />
		<tag k="max_age" v="5" />
		<tag k="min_age" v="1" />
		<tag k="name" v="Tirilltoppen barnehage" />
		<tag k="no-barnehage:nsrid" v="973494597" />
		<tag k="operator" v="Tirilltoppen barnehage Bamble SA" />
		<tag k="operator:type" v="private" />
	</node>
	<node lat="59.11479" lon="9.54779" id="-3516">
		<tag k="ADDRESS" v="Strandveien 6B, 3965 HERRE" />
		<tag k="amenity" v="kindergarten" />
		<tag k="capacity" v="36" />
		<tag k="max_age" v="5" />
		<tag k="min_age" v="1" />
		<tag k="name" v="Uksodden barnehage" />
		<tag k="no-barnehage:nsrid" v="975307166" />
		<tag k="operator" v="Bamble kommune" />
		<tag k="operator:type" v="public" />
	</node>
</osm>
