<?xml version="1.0" encoding="UTF-8"?>
<osm version="0.6" generator="osmapis">
	<node lat="58.02782" lon="7.43591" id="-3756">
		<tag k="ADDRESS" v="Olaf Isaachsens gate 34, 4514 MANDAL" />
		<tag k="amenity" v="kindergarten" />
		<tag k="capacity" v="10" />
		<tag k="max_age" v="5" />
		<tag k="min_age" v="1" />
		<tag k="name" v="Furulunden familiebarnehage" />
		<tag k="no-barnehage:nsrid" v="987040017" />
		<tag k="operator" v="Furulunden familie-barnehage Da" />
		<tag k="operator:type" v="private" />
	</node>
	<node lat="58.10162" lon="7.53698" id="-3760">
		<tag k="ADDRESS" v="Bringsdalsveien 2, 4519 HOLUM" />
		<tag k="amenity" v="kindergarten" />
		<tag k="capacity" v="11" />
		<tag k="contact:website" v="http://www.kulturvugga.com" />
		<tag k="max_age" v="5" />
		<tag k="min_age" v="1" />
		<tag k="name" v="Kulturvugga familiebarnehage" />
		<tag k="no-barnehage:nsrid" v="992577827" />
		<tag k="operator" v="Kulturvugga barnehage AS" />
		<tag k="operator:type" v="private" />
	</node>
	<node lat="58.02695" lon="7.44549" id="-3772">
		<tag k="ADDRESS" v="Neseveien 8B, 4514 MANDAL" />
		<tag k="amenity" v="kindergarten" />
		<tag k="capacity" v="10" />
		<tag k="max_age" v="5" />
		<tag k="min_age" v="1" />
		<tag k="name" v="Vestnes familiebarnehage" />
		<tag k="no-barnehage:nsrid" v="976807634" />
		<tag k="operator" v="Vestnes familiebarnehage AS" />
		<tag k="operator:type" v="private" />
	</node>
</osm>
