<?xml version="1.0" encoding="UTF-8"?>
<osm generator="osmapis" version="0.6">
	<node id="-245" lat="0.0" lon="0.0">
		<tag k="ADDRESS" v="Vigmostad, 4520 LINDESNES" />
		<tag k="amenity" v="kindergarten" />
		<tag k="capacity" v="22" />
		<tag k="contact:website" v="http://www2.lindesnes.kommune.no/vigmostad-barnehage" />
		<tag k="max_age" v="5" />
		<tag k="min_age" v="1" />
		<tag k="name" v="Vigmostad barnehage" />
		<tag k="no-barnehage:nsrid" v="1015692" />
		<tag k="operator" v="Lindesnes kommune" />
		<tag k="operator:type" v="public" />
	</node>
	<node id="-243" lat="58.03526" lon="7.42184">
		<tag k="ADDRESS" v="Valleveien 8, 4513 MANDAL" />
		<tag k="amenity" v="kindergarten" />
		<tag k="capacity" v="58" />
		<tag k="max_age" v="5" />
		<tag k="min_age" v="1" />
		<tag k="name" v="Valle gård barnehage" />
		<tag k="no-barnehage:nsrid" v="1020194" />
		<tag k="operator" v="Valle Gård barnehage AS" />
		<tag k="operator:type" v="private" />
	</node>
	<node id="-242" lat="58.047" lon="7.14111">
		<tag k="ADDRESS" v="Kyllinggata 3, 4521 LINDESNES" />
		<tag k="amenity" v="kindergarten" />
		<tag k="capacity" v="31" />
		<tag k="max_age" v="5" />
		<tag k="min_age" v="1" />
		<tag k="name" v="Spangereid naturbarnehage" />
		<tag k="no-barnehage:nsrid" v="1022304" />
		<tag k="operator" v="Spangereid Naturbarnehage AS" />
		<tag k="operator:type" v="private" />
	</node>
	<node id="-240" lat="58.06767" lon="7.5542">
		<tag k="ADDRESS" v="Skoieveien 172, 4516 MANDAL" />
		<tag k="amenity" v="kindergarten" />
		<tag k="capacity" v="21" />
		<tag k="max_age" v="5" />
		<tag k="min_age" v="1" />
		<tag k="name" v="Skoie gårdsbarnehage" />
		<tag k="no-barnehage:nsrid" v="1020654" />
		<tag k="operator" v="Nils Frode Larsen" />
		<tag k="operator:type" v="private" />
	</node>
	<node id="-239" lat="58.03289" lon="7.4234">
		<tag k="ADDRESS" v="Rundveien 11, 4513 MANDAL" />
		<tag k="amenity" v="kindergarten" />
		<tag k="capacity" v="59" />
		<tag k="max_age" v="5" />
		<tag k="min_age" v="1" />
		<tag k="name" v="Skjebstad barnehage" />
		<tag k="no-barnehage:nsrid" v="1018064" />
		<tag k="operator" v="Lindesnes kommune" />
		<tag k="operator:type" v="public" />
	</node>
	<node id="-238" lat="58.02808" lon="7.48682">
		<tag k="ADDRESS" v="Skinsnesheia 33, 4515 MANDAL" />
		<tag k="amenity" v="kindergarten" />
		<tag k="capacity" v="126" />
		<tag k="max_age" v="5" />
		<tag k="min_age" v="1" />
		<tag k="name" v="Skinsnesheia barnehage" />
		<tag k="no-barnehage:nsrid" v="1021160" />
		<tag k="operator" v="Skinsnesheia barnehage AS" />
		<tag k="operator:type" v="private" />
	</node>
	<node id="-237" lat="58.05299" lon="7.19154">
		<tag k="ADDRESS" v="Reme, 4521 LINDESNES" />
		<tag k="amenity" v="kindergarten" />
		<tag k="capacity" v="20" />
		<tag k="contact:website" v="http://www.remehaugen.no" />
		<tag k="max_age" v="5" />
		<tag k="min_age" v="1" />
		<tag k="name" v="Remehaugen kystbarnehage" />
		<tag k="no-barnehage:nsrid" v="1022105" />
		<tag k="operator" v="Remehaugen barnehage AS" />
		<tag k="operator:type" v="private" />
	</node>
	<node id="-236" lat="58.02915" lon="7.49139">
		<tag k="ADDRESS" v="Rauneveien 1, 4515 MANDAL" />
		<tag k="amenity" v="kindergarten" />
		<tag k="capacity" v="9" />
		<tag k="max_age" v="5" />
		<tag k="min_age" v="1" />
		<tag k="name" v="Rauneveien barnehage" />
		<tag k="no-barnehage:nsrid" v="1022359" />
		<tag k="operator" v="Rauneveien barnehage AS" />
		<tag k="operator:type" v="private" />
	</node>
	<node id="-235" lat="58.03138" lon="7.48906">
		<tag k="ADDRESS" v="Lindeveien 30, 4515 MANDAL" />
		<tag k="amenity" v="kindergarten" />
		<tag k="capacity" v="53" />
		<tag k="max_age" v="5" />
		<tag k="min_age" v="1" />
		<tag k="name" v="NLM barnehagene avd. Imekollen barnehage" />
		<tag k="no-barnehage:nsrid" v="1015544" />
		<tag k="operator" v="Nlm-Barnehagene AS" />
		<tag k="operator:type" v="private" />
	</node>
	<node id="-234" lat="58.03047" lon="7.45157">
		<tag k="ADDRESS" v="Myrteigen 3, 4514 MANDAL" />
		<tag k="amenity" v="kindergarten" />
		<tag k="capacity" v="17" />
		<tag k="max_age" v="5" />
		<tag k="min_age" v="1" />
		<tag k="name" v="Myrteigen barnehage" />
		<tag k="no-barnehage:nsrid" v="1019837" />
		<tag k="operator" v="Myrteigen barnehage" />
		<tag k="operator:type" v="private" />
	</node>
	<node id="-233" lat="58.02954" lon="7.44238">
		<tag k="ADDRESS" v="Foged Heibergs Gate 7a, 4514 MANDAL" />
		<tag k="amenity" v="kindergarten" />
		<tag k="capacity" v="21" />
		<tag k="max_age" v="5" />
		<tag k="min_age" v="1" />
		<tag k="name" v="Mandal Sanitetsforening" />
		<tag k="no-barnehage:nsrid" v="1019571" />
		<tag k="operator" v="Mandal Sanitetsforening" />
		<tag k="operator:type" v="private" />
	</node>
	<node id="-232" lat="58.26968" lon="7.44508">
		<tag k="ADDRESS" v="Konsmoheiveien 1121, 4534 MARNARDAL" />
		<tag k="amenity" v="kindergarten" />
		<tag k="capacity" v="25" />
		<tag k="max_age" v="5" />
		<tag k="min_age" v="1" />
		<tag k="name" v="Laudal barnehage" />
		<tag k="no-barnehage:nsrid" v="1018070" />
		<tag k="operator" v="Lindesnes kommune" />
		<tag k="operator:type" v="public" />
	</node>
	<node id="-231" lat="58.02504" lon="7.46846">
		<tag k="ADDRESS" v="Kvislakroken 2, 4515 MANDAL" />
		<tag k="amenity" v="kindergarten" />
		<tag k="capacity" v="63" />
		<tag k="max_age" v="5" />
		<tag k="min_age" v="1" />
		<tag k="name" v="Kvisla barnehage" />
		<tag k="no-barnehage:nsrid" v="1018063" />
		<tag k="operator" v="Lindesnes kommune" />
		<tag k="operator:type" v="public" />
	</node>
	<node id="-229" lat="58.03693" lon="7.46404">
		<tag k="ADDRESS" v="Legatveien 1, 4517 MANDAL" />
		<tag k="amenity" v="kindergarten" />
		<tag k="capacity" v="16" />
		<tag k="max_age" v="5" />
		<tag k="min_age" v="1" />
		<tag k="name" v="Hurlumhei barnehage" />
		<tag k="no-barnehage:nsrid" v="1019957" />
		<tag k="operator" v="Hurlumhei barnehage Sa" />
		<tag k="operator:type" v="private" />
	</node>
	<node id="-228" lat="58.07767" lon="7.30694">
		<tag k="ADDRESS" v="Hestehaven, 4520 LINDESNES" />
		<tag k="amenity" v="kindergarten" />
		<tag k="capacity" v="93" />
		<tag k="contact:website" v="http://www2.lindesnes.kommune.no/hestehaven-barnehage" />
		<tag k="max_age" v="5" />
		<tag k="min_age" v="1" />
		<tag k="name" v="Hestehaven barnehage" />
		<tag k="no-barnehage:nsrid" v="1013351" />
		<tag k="operator" v="Lindesnes kommune" />
		<tag k="operator:type" v="public" />
	</node>
	<node id="-227" lat="58.18505" lon="7.52649">
		<tag k="ADDRESS" v="Heddelandsveien 3, 4534 MARNARDAL" />
		<tag k="amenity" v="kindergarten" />
		<tag k="capacity" v="64" />
		<tag k="max_age" v="5" />
		<tag k="min_age" v="1" />
		<tag k="name" v="Heddeland barnehage" />
		<tag k="no-barnehage:nsrid" v="1012968" />
		<tag k="operator" v="Lindesnes kommune" />
		<tag k="operator:type" v="public" />
	</node>
	<node id="-225" lat="58.03749" lon="7.45995">
		<tag k="ADDRESS" v="Livegen 67, 4517 MANDAL" />
		<tag k="amenity" v="kindergarten" />
		<tag k="capacity" v="86" />
		<tag k="max_age" v="5" />
		<tag k="min_age" v="1" />
		<tag k="name" v="Frøysland barnehage" />
		<tag k="no-barnehage:nsrid" v="1014726" />
		<tag k="operator" v="Lindesnes kommune" />
		<tag k="operator:type" v="public" />
	</node>
	<node id="-224" lat="58.04347" lon="7.60003">
		<tag k="ADDRESS" v="Tregdeveien 1280, 4516 MANDAL" />
		<tag k="amenity" v="kindergarten" />
		<tag k="capacity" v="15" />
		<tag k="contact:website" v="http://framsteg.barnehage.no" />
		<tag k="max_age" v="5" />
		<tag k="min_age" v="1" />
		<tag k="name" v="Framsteg Ul barnehage" />
		<tag k="no-barnehage:nsrid" v="1019725" />
		<tag k="operator" v="Framsteg Ungdomslag - Harkmark Naturbarnehage" />
		<tag k="operator:type" v="private" />
	</node>
	<node id="-223" lat="58.02282" lon="7.40787">
		<tag k="ADDRESS" v="Rennesveien 40, 4513 MANDAL" />
		<tag k="amenity" v="kindergarten" />
		<tag k="capacity" v="88" />
		<tag k="contact:website" v="http://www.saanum.espira.no" />
		<tag k="max_age" v="5" />
		<tag k="min_age" v="1" />
		<tag k="name" v="Espira Sånum barnehage" />
		<tag k="no-barnehage:nsrid" v="1018616" />
		<tag k="operator" v="Espira Barnehager AS" />
		<tag k="operator:type" v="private" />
	</node>
	<node id="-222" lat="58.07309" lon="7.29017">
		<tag k="ADDRESS" v="Rødbergsveien 33, 4520 LINDESNES" />
		<tag k="amenity" v="kindergarten" />
		<tag k="capacity" v="81" />
		<tag k="contact:website" v="http://www.espira.no" />
		<tag k="max_age" v="5" />
		<tag k="min_age" v="1" />
		<tag k="name" v="Espira Lindesnes" />
		<tag k="no-barnehage:nsrid" v="1022073" />
		<tag k="operator" v="Espira Lindesnes AS" />
		<tag k="operator:type" v="private" />
	</node>
	<node id="-221" lat="58.09822" lon="7.52468">
		<tag k="ADDRESS" v="Laustøheia 22, 4519 HOLUM" />
		<tag k="amenity" v="kindergarten" />
		<tag k="capacity" v="63" />
		<tag k="max_age" v="5" />
		<tag k="min_age" v="1" />
		<tag k="name" v="Espira Holum barnehage" />
		<tag k="no-barnehage:nsrid" v="1018328" />
		<tag k="operator" v="Espira Barnehager AS" />
		<tag k="operator:type" v="private" />
	</node>
	<node id="-220" lat="58.04721" lon="7.49427">
		<tag k="ADDRESS" v="Daleveien 274, 4517 MANDAL" />
		<tag k="amenity" v="kindergarten" />
		<tag k="capacity" v="61" />
		<tag k="max_age" v="5" />
		<tag k="min_age" v="1" />
		<tag k="name" v="Espira Aarkjær barnehage" />
		<tag k="no-barnehage:nsrid" v="1015752" />
		<tag k="operator" v="Espira Barnehager AS" />
		<tag k="operator:type" v="private" />
	</node>
	<node id="-219" lat="58.04277" lon="7.14709">
		<tag k="ADDRESS" v="Bålyveien 36, 4521 LINDESNES" />
		<tag k="amenity" v="kindergarten" />
		<tag k="capacity" v="33" />
		<tag k="contact:website" v="http://www2.lindesnes.kommune.no/baaly-barnehage" />
		<tag k="max_age" v="5" />
		<tag k="min_age" v="1" />
		<tag k="name" v="Båly barnehage" />
		<tag k="no-barnehage:nsrid" v="1015775" />
		<tag k="operator" v="Lindesnes kommune" />
		<tag k="operator:type" v="public" />
	</node>
	<node id="-218" lat="58.35816" lon="7.51665">
		<tag k="ADDRESS" v="Marnarveien 4380, 4536 BJELLAND" />
		<tag k="amenity" v="kindergarten" />
		<tag k="capacity" v="28" />
		<tag k="max_age" v="5" />
		<tag k="min_age" v="1" />
		<tag k="name" v="Bjelland barnehage" />
		<tag k="no-barnehage:nsrid" v="1018069" />
		<tag k="operator" v="Lindesnes kommune" />
		<tag k="operator:type" v="public" />
	</node>
	<node id="-217" lat="0.0" lon="0.0">
		<tag k="ADDRESS" v="Inger Therese Osestad Svennevik, 4521 LINDESNES" />
		<tag k="amenity" v="kindergarten" />
		<tag k="capacity" v="9" />
		<tag k="max_age" v="5" />
		<tag k="min_age" v="1" />
		<tag k="name" v="Barnas naturbarnehage" />
		<tag k="no-barnehage:nsrid" v="1022301" />
		<tag k="operator" v="Barnas Naturbarnehage Da" />
		<tag k="operator:type" v="private" />
	</node>
</osm>
