<?xml version="1.0" encoding="UTF-8"?>
<osm generator="osmapis" version="0.6">
	<node id="-2096" lat="59.6281" lon="10.3966">
		<tag k="amenity" v="kindergarten" />
		<tag k="capacity" v="74" />
		<tag k="max_age" v="5" />
		<tag k="min_age" v="1" />
		<tag k="name" v="Ebbestad barnehage" />
		<tag k="no-barnehage:nsrid" v="1014991" />
		<tag k="operator" v="Svelvik kommune" />
		<tag k="operator:type" v="public" />
	</node>
	<node id="-2095" lat="59.5486" lon="10.3871">
		<tag k="amenity" v="kindergarten" />
		<tag k="capacity" v="46" />
		<tag k="max_age" v="5" />
		<tag k="min_age" v="1" />
		<tag k="name" v="Berger barnehage" />
		<tag k="no-barnehage:nsrid" v="1016034" />
		<tag k="operator" v="Svelvik kommune" />
		<tag k="operator:type" v="public" />
	</node>
	<node id="-2097" lat="59.6895" lon="10.3375">
		<tag k="amenity" v="kindergarten" />
		<tag k="capacity" v="81" />
		<tag k="max_age" v="5" />
		<tag k="min_age" v="1" />
		<tag k="name" v="StÃ¸a barnehage" />
		<tag k="no-barnehage:nsrid" v="1018024" />
		<tag k="operator" v="Svelvik kommune" />
		<tag k="operator:type" v="public" />
	</node>
</osm>
