<?xml version="1.0" encoding="UTF-8"?>
<osm version="0.6" generator="osmapis">
	<node lat="59.82851" lon="10.2853" id="-2758">
		<tag k="ADDRESS" v="Ringveien 20, 3409 TRANBY" />
		<tag k="amenity" v="kindergarten" />
		<tag k="capacity" v="60" />
		<tag k="contact:website" v="http://www.akebakken.com" />
		<tag k="max_age" v="5" />
		<tag k="min_age" v="1" />
		<tag k="name" v="Akebakken barnehage" />
		<tag k="no-barnehage:nsrid" v="977384443" />
		<tag k="operator" v="Akebakken barnehage SA" />
		<tag k="operator:type" v="private" />
	</node>
	<node lat="59.78516" lon="10.24111" id="-2759">
		<tag k="ADDRESS" v="Grønnlundveien 16, 3403 LIER" />
		<tag k="amenity" v="kindergarten" />
		<tag k="capacity" v="47" />
		<tag k="contact:website" v="http://www.bakkelibarnehage.no" />
		<tag k="max_age" v="5" />
		<tag k="min_age" v="1" />
		<tag k="name" v="Bakkeli barnehage" />
		<tag k="no-barnehage:nsrid" v="974545888" />
		<tag k="operator" v="Bakkeli barnehage SA" />
		<tag k="operator:type" v="private" />
	</node>
	<node lat="59.82944" lon="10.25655" id="-2760">
		<tag k="ADDRESS" v="Nordalveien 2, 3406 TRANBY" />
		<tag k="amenity" v="kindergarten" />
		<tag k="capacity" v="48" />
		<tag k="contact:website" v="http://www.borgestad-barnehage.no" />
		<tag k="max_age" v="5" />
		<tag k="min_age" v="1" />
		<tag k="name" v="Borgestad barnehage" />
		<tag k="no-barnehage:nsrid" v="873845082" />
		<tag k="operator" v="Borgestad barnehage SA" />
		<tag k="operator:type" v="private" />
	</node>
	<node lat="59.90451" lon="10.26419" id="-2761">
		<tag k="ADDRESS" v="Fagerliåsen 12, 3410 SYLLING" />
		<tag k="amenity" v="kindergarten" />
		<tag k="capacity" v="57" />
		<tag k="max_age" v="5" />
		<tag k="min_age" v="1" />
		<tag k="name" v="Dambråtan barnehage" />
		<tag k="no-barnehage:nsrid" v="974546108" />
		<tag k="operator" v="Lier kommune" />
		<tag k="operator:type" v="public" />
	</node>
	<node lat="59.78821" lon="10.23422" id="-2762">
		<tag k="ADDRESS" v="Vestre Eikenga 17, 3404 LIER" />
		<tag k="amenity" v="kindergarten" />
		<tag k="capacity" v="75" />
		<tag k="contact:website" v="http://www.espira.no" />
		<tag k="max_age" v="5" />
		<tag k="min_age" v="1" />
		<tag k="name" v="Espira Eikenga barnehage" />
		<tag k="no-barnehage:nsrid" v="974476932" />
		<tag k="operator" v="Espira Eikenga AS" />
		<tag k="operator:type" v="private" />
	</node>
	<node lat="59.79331" lon="10.26102" id="-2763">
		<tag k="ADDRESS" v="Fossveien 24, 3403 LIER" />
		<tag k="amenity" v="kindergarten" />
		<tag k="capacity" v="81" />
		<tag k="contact:website" v="http://www.fossbarnehage.no" />
		<tag k="max_age" v="5" />
		<tag k="min_age" v="1" />
		<tag k="name" v="Foss barnehage" />
		<tag k="no-barnehage:nsrid" v="974631350" />
		<tag k="operator" v="Foss barnehage AS" />
		<tag k="operator:type" v="private" />
	</node>
	<node lat="59.8182" lon="10.28003" id="-2764">
		<tag k="ADDRESS" v="Gunnersbråtan 10, 3409 TRANBY" />
		<tag k="amenity" v="kindergarten" />
		<tag k="capacity" v="55" />
		<tag k="contact:website" v="http://www.gunnersbratan.no" />
		<tag k="max_age" v="5" />
		<tag k="min_age" v="1" />
		<tag k="name" v="Gunnersbråtan barnehage" />
		<tag k="no-barnehage:nsrid" v="974000997" />
		<tag k="operator" v="Gunnersbråtan barnehage SA" />
		<tag k="operator:type" v="private" />
	</node>
	<node lat="59.76037" lon="10.22936" id="-2765">
		<tag k="ADDRESS" v="Nedre Lianvei 3, 3413 LIER" />
		<tag k="amenity" v="kindergarten" />
		<tag k="capacity" v="83" />
		<tag k="max_age" v="5" />
		<tag k="min_age" v="1" />
		<tag k="name" v="Hasselbakken FUS barnehage" />
		<tag k="no-barnehage:nsrid" v="991343083" />
		<tag k="operator" v="Hasselbakken Fus barnehage AS" />
		<tag k="operator:type" v="private" />
	</node>
	<node lat="59.82077" lon="10.32706" id="-2766">
		<tag k="ADDRESS" v="Ovenstadveien 7, 3420 LIERSKOGEN" />
		<tag k="amenity" v="kindergarten" />
		<tag k="capacity" v="81" />
		<tag k="max_age" v="5" />
		<tag k="min_age" v="1" />
		<tag k="name" v="Heia FUS barnehage" />
		<tag k="no-barnehage:nsrid" v="987828528" />
		<tag k="operator" v="Heia Fus barnehage AS" />
		<tag k="operator:type" v="private" />
	</node>
	<node lat="59.79101" lon="10.2236" id="-2767">
		<tag k="ADDRESS" v="Bergflødtveien 25, 3404 LIER" />
		<tag k="amenity" v="kindergarten" />
		<tag k="capacity" v="51" />
		<tag k="max_age" v="5" />
		<tag k="min_age" v="1" />
		<tag k="name" v="Helgerud Barnegård" />
		<tag k="no-barnehage:nsrid" v="979230265" />
		<tag k="operator" v="Helgerud Barnegård AS" />
		<tag k="operator:type" v="private" />
	</node>
	<node lat="59.82162" lon="10.2798" id="-2769">
		<tag k="ADDRESS" v="Hennummarka 6, 3409 TRANBY" />
		<tag k="amenity" v="kindergarten" />
		<tag k="capacity" v="58" />
		<tag k="max_age" v="5" />
		<tag k="min_age" v="1" />
		<tag k="name" v="Hennummarka barnehage" />
		<tag k="no-barnehage:nsrid" v="973744445" />
		<tag k="operator" v="Lier kommune" />
		<tag k="operator:type" v="public" />
	</node>
	<node lat="59.75303" lon="10.22759" id="-2770">
		<tag k="ADDRESS" v="Stoppenveien 5, 3413 LIER" />
		<tag k="amenity" v="kindergarten" />
		<tag k="capacity" v="26" />
		<tag k="max_age" v="5" />
		<tag k="min_age" v="1" />
		<tag k="name" v="Jordbærkollen barnehage" />
		<tag k="no-barnehage:nsrid" v="991201009" />
		<tag k="operator" v="Jordbærkollen barnehage SA" />
		<tag k="operator:type" v="private" />
	</node>
	<node lat="59.79126" lon="10.26073" id="-2771">
		<tag k="ADDRESS" v="Stokkeveien 4, 3403 LIER" />
		<tag k="amenity" v="kindergarten" />
		<tag k="capacity" v="58" />
		<tag k="contact:website" v="http://www.lnl.barnehage.no" />
		<tag k="max_age" v="5" />
		<tag k="min_age" v="1" />
		<tag k="name" v="Lier natur og Landbruks barnehage" />
		<tag k="no-barnehage:nsrid" v="984944756" />
		<tag k="operator" v="Lier Natur og Landbruks barnehage SA" />
		<tag k="operator:type" v="private" />
	</node>
	<node lat="59.81683" lon="10.32498" id="-2772">
		<tag k="ADDRESS" v="Drammensveien 247, 3420 LIERSKOGEN" />
		<tag k="amenity" v="kindergarten" />
		<tag k="name" v="Lillemy Kilde familiebarnehage" />
		<tag k="no-barnehage:nsrid" v="933866351" />
		<tag k="operator" v="Lillemy Kilde familiebarnehage" />
		<tag k="operator:type" v="private" />
	</node>
	<node lat="59.74788" lon="10.2742" id="-2773">
		<tag k="ADDRESS" v="Linnesstranda 32B, 3426 GULLAUG" />
		<tag k="amenity" v="kindergarten" />
		<tag k="capacity" v="49" />
		<tag k="max_age" v="5" />
		<tag k="min_age" v="1" />
		<tag k="name" v="Linnesstranda barnehage" />
		<tag k="no-barnehage:nsrid" v="974546132" />
		<tag k="operator" v="Lier kommune" />
		<tag k="operator:type" v="public" />
	</node>
	<node lat="59.84316" lon="10.22314" id="-2774">
		<tag k="ADDRESS" v="Merengata 3, 3405 LIER" />
		<tag k="amenity" v="kindergarten" />
		<tag k="capacity" v="39" />
		<tag k="contact:website" v="http://www.merikroken.barnehage.no" />
		<tag k="max_age" v="5" />
		<tag k="min_age" v="1" />
		<tag k="name" v="Merikroken barnehage" />
		<tag k="no-barnehage:nsrid" v="973347195" />
		<tag k="operator" v="Merikroken barnehage SA" />
		<tag k="operator:type" v="private" />
	</node>
	<node lat="59.81879" lon="10.34646" id="-2775">
		<tag k="ADDRESS" v="Drammensveien 292, 3420 LIERSKOGEN" />
		<tag k="amenity" v="kindergarten" />
		<tag k="capacity" v="53" />
		<tag k="max_age" v="5" />
		<tag k="min_age" v="1" />
		<tag k="name" v="Nedre Stabæk barnehage" />
		<tag k="no-barnehage:nsrid" v="980098974" />
		<tag k="operator" v="Nedre Stabæk barnehage AS" />
		<tag k="operator:type" v="private" />
	</node>
	<node lat="59.74955" lon="10.22995" id="-2776">
		<tag k="ADDRESS" v="Nøsteveien 28, 3413 LIER" />
		<tag k="amenity" v="kindergarten" />
		<tag k="capacity" v="69" />
		<tag k="max_age" v="5" />
		<tag k="min_age" v="1" />
		<tag k="name" v="Noahs Ark miljøbarnehage" />
		<tag k="no-barnehage:nsrid" v="991041192" />
		<tag k="operator" v="Noahs Ark miljøbarnehage AS" />
		<tag k="operator:type" v="private" />
	</node>
	<node lat="59.75508" lon="10.2899" id="-2777">
		<tag k="ADDRESS" v="Tuverudveien 21, 3426 GULLAUG" />
		<tag k="amenity" v="kindergarten" />
		<tag k="capacity" v="106" />
		<tag k="contact:website" v="http://norlandiabarnehagene.no/linnesbakken" />
		<tag k="max_age" v="5" />
		<tag k="min_age" v="1" />
		<tag k="name" v="Norlandia Linnesbakken sprelloppbarnehage" />
		<tag k="no-barnehage:nsrid" v="996271676" />
		<tag k="operator" v="Norlandia Linnesbakken barnehage AS" />
		<tag k="operator:type" v="private" />
	</node>
	<node lat="59.74899" lon="10.23536" id="-2778">
		<tag k="ADDRESS" v="Baches vei 8, 3413 LIER" />
		<tag k="amenity" v="kindergarten" />
		<tag k="capacity" v="82" />
		<tag k="contact:website" v="http://nostebarnehage.no" />
		<tag k="max_age" v="5" />
		<tag k="min_age" v="1" />
		<tag k="name" v="Nøste barnehage" />
		<tag k="no-barnehage:nsrid" v="977513723" />
		<tag k="operator" v="Nøste barnehage SA" />
		<tag k="operator:type" v="private" />
	</node>
	<node lat="59.82014" lon="10.33203" id="-2780">
		<tag k="ADDRESS" v="Heiaveien 2, 3420 LIERSKOGEN" />
		<tag k="amenity" v="kindergarten" />
		<tag k="capacity" v="31" />
		<tag k="contact:website" v="http://www.regnbuen-barnehage.com" />
		<tag k="max_age" v="5" />
		<tag k="min_age" v="1" />
		<tag k="name" v="Regnbuen barnehage" />
		<tag k="no-barnehage:nsrid" v="973457284" />
		<tag k="operator" v="Regnbuen barnehage" />
		<tag k="operator:type" v="private" />
	</node>
	<node lat="59.89354" lon="10.28088" id="-2781">
		<tag k="ADDRESS" v="Valstadveien 8, 3410 SYLLING" />
		<tag k="amenity" v="kindergarten" />
		<tag k="capacity" v="48" />
		<tag k="max_age" v="5" />
		<tag k="min_age" v="1" />
		<tag k="name" v="Sylling FUS barnehage" />
		<tag k="no-barnehage:nsrid" v="914698839" />
		<tag k="operator" v="Sylling Fus barnehage AS" />
		<tag k="operator:type" v="private" />
	</node>
	<node lat="59.81233" lon="10.26794" id="-2782">
		<tag k="ADDRESS" v="Tranbylia 5, 3408 TRANBY" />
		<tag k="amenity" v="kindergarten" />
		<tag k="capacity" v="85" />
		<tag k="contact:website" v="http://www.tranbybarnehage.no" />
		<tag k="max_age" v="5" />
		<tag k="min_age" v="1" />
		<tag k="name" v="Tranby andelsbarnehage" />
		<tag k="no-barnehage:nsrid" v="974545845" />
		<tag k="operator" v="Tranby barnehage SA" />
		<tag k="operator:type" v="private" />
	</node>
	<node lat="59.79506" lon="10.27901" id="-2783">
		<tag k="ADDRESS" v="Bråtasvingen 11, 3425 REISTAD" />
		<tag k="amenity" v="kindergarten" />
		<tag k="capacity" v="69" />
		<tag k="contact:website" v="http://www.utsikten.barnehage.no" />
		<tag k="max_age" v="5" />
		<tag k="min_age" v="1" />
		<tag k="name" v="Utsikten barnehage" />
		<tag k="no-barnehage:nsrid" v="988103047" />
		<tag k="operator" v="Utsikten barnehage SA" />
		<tag k="operator:type" v="private" />
	</node>
	<node lat="59.78195" lon="10.24907" id="-2784">
		<tag k="ADDRESS" v="Heggalleen 1, 3403 LIER" />
		<tag k="amenity" v="kindergarten" />
		<tag k="capacity" v="79" />
		<tag k="contact:website" v="http://fus.no/veslefrikk" />
		<tag k="max_age" v="5" />
		<tag k="min_age" v="1" />
		<tag k="name" v="Veslefrikk FUS barnehage" />
		<tag k="no-barnehage:nsrid" v="989821059" />
		<tag k="operator" v="Veslefrikk Fus barnehage AS" />
		<tag k="operator:type" v="private" />
	</node>
</osm>
