<?xml version="1.0" encoding="UTF-8"?>
<osm version="0.6" generator="osmapis">
	<node lat="0.0" lon="0.0" id="-4590">
		<tag k="ADDRESS" v=", 6869 HAFSLO" />
		<tag k="amenity" v="kindergarten" />
		<tag k="capacity" v="53" />
		<tag k="max_age" v="5" />
		<tag k="min_age" v="1" />
		<tag k="name" v="Gamlestova barnehage" />
		<tag k="no-barnehage:nsrid" v="975318036" />
		<tag k="operator" v="Luster kommune" />
		<tag k="operator:type" v="public" />
	</node>
	<node lat="0.0" lon="0.0" id="-4591">
		<tag k="ADDRESS" v=", 6868 GAUPNE" />
		<tag k="amenity" v="kindergarten" />
		<tag k="capacity" v="89" />
		<tag k="max_age" v="5" />
		<tag k="min_age" v="1" />
		<tag k="name" v="Gaupne barnehage" />
		<tag k="no-barnehage:nsrid" v="975309797" />
		<tag k="operator" v="Luster kommune" />
		<tag k="operator:type" v="public" />
	</node>
	<node lat="61.31461" lon="7.20018" id="-4592">
		<tag k="ADDRESS" v="Nedstevegen 16, 6869 HAFSLO" />
		<tag k="amenity" v="kindergarten" />
		<tag k="capacity" v="39" />
		<tag k="max_age" v="5" />
		<tag k="min_age" v="1" />
		<tag k="name" v="Hafslo barnehage" />
		<tag k="no-barnehage:nsrid" v="975309800" />
		<tag k="operator" v="Luster kommune" />
		<tag k="operator:type" v="public" />
	</node>
	<node lat="0.0" lon="0.0" id="-4593">
		<tag k="ADDRESS" v=", 6873 MARIFJØRA" />
		<tag k="amenity" v="kindergarten" />
		<tag k="capacity" v="30" />
		<tag k="max_age" v="5" />
		<tag k="min_age" v="1" />
		<tag k="name" v="Indre Hafslo oppvekstsenter avd. barnehage" />
		<tag k="no-barnehage:nsrid" v="975321363" />
		<tag k="operator" v="Luster kommune" />
		<tag k="operator:type" v="public" />
	</node>
	<node lat="0.0" lon="0.0" id="-4594">
		<tag k="ADDRESS" v=", 6871 JOSTEDAL" />
		<tag k="amenity" v="kindergarten" />
		<tag k="capacity" v="15" />
		<tag k="contact:website" v="http://www.oppvekst.luster.no/jostedal" />
		<tag k="max_age" v="5" />
		<tag k="min_age" v="1" />
		<tag k="name" v="Jostedal oppvekstsenter avd. barnehage" />
		<tag k="no-barnehage:nsrid" v="975318044" />
		<tag k="operator" v="Luster kommune" />
		<tag k="operator:type" v="public" />
	</node>
	<node lat="61.44394" lon="7.45895" id="-4595">
		<tag k="ADDRESS" v="Lustravegen 3300B, 6872 LUSTER" />
		<tag k="amenity" v="kindergarten" />
		<tag k="capacity" v="27" />
		<tag k="contact:website" v="http://www.luster.kommune.no/framside.255488.nn.html" />
		<tag k="max_age" v="5" />
		<tag k="min_age" v="1" />
		<tag k="name" v="Luster oppvekstsenter avd. barnehage" />
		<tag k="no-barnehage:nsrid" v="975309819" />
		<tag k="operator" v="Luster kommune" />
		<tag k="operator:type" v="public" />
	</node>
	<node lat="61.49131" lon="7.60247" id="-4596">
		<tag k="ADDRESS" v="Bolstadvegen 9, 6876 SKJOLDEN" />
		<tag k="amenity" v="kindergarten" />
		<tag k="capacity" v="11" />
		<tag k="max_age" v="5" />
		<tag k="min_age" v="3" />
		<tag k="name" v="Skjolden oppvekstsenter avd. barnehage" />
		<tag k="no-barnehage:nsrid" v="975318052" />
		<tag k="operator" v="Luster kommune" />
		<tag k="operator:type" v="public" />
	</node>
	<node lat="61.30142" lon="7.23764" id="-4597">
		<tag k="ADDRESS" v="Løteigane 13, 6879 SOLVORN" />
		<tag k="amenity" v="kindergarten" />
		<tag k="capacity" v="12" />
		<tag k="max_age" v="5" />
		<tag k="min_age" v="1" />
		<tag k="name" v="Solvorn oppvekstsenter avd. barnehage" />
		<tag k="no-barnehage:nsrid" v="975321371" />
		<tag k="operator" v="Luster kommune" />
		<tag k="operator:type" v="public" />
	</node>
	<node lat="61.48349" lon="7.03063" id="-4598">
		<tag k="ADDRESS" v="Veitastrondsvegen 2252, 6878 VEITASTROND" />
		<tag k="amenity" v="kindergarten" />
		<tag k="capacity" v="13" />
		<tag k="max_age" v="5" />
		<tag k="min_age" v="1" />
		<tag k="name" v="Veitastrond barnehage" />
		<tag k="no-barnehage:nsrid" v="993106631" />
		<tag k="operator" v="Luster kommune" />
		<tag k="operator:type" v="public" />
	</node>
</osm>
