<?xml version="1.0" encoding="UTF-8"?>
<osm generator="osmapis" version="0.6">
	<node id="-5696" lat="69.2134" lon="18.4702">
		<tag k="amenity" v="kindergarten" />
		<tag k="capacity" v="29" />
		<tag k="max_age" v="5" />
		<tag k="min_age" v="1" />
		<tag k="name" v="Karlstad oppvekstsenter avd. barnehage" />
		<tag k="no-barnehage:nsrid" v="1014757" />
		<tag k="operator" v="Målselv kommune" />
		<tag k="operator:type" v="public" />
	</node>
	<node id="-5695" lat="69.0441" lon="18.5007">
		<tag k="amenity" v="kindergarten" />
		<tag k="capacity" v="88" />
		<tag k="max_age" v="5" />
		<tag k="min_age" v="1" />
		<tag k="name" v="Heggelia/noraførr barnehage" />
		<tag k="no-barnehage:nsrid" v="1013910" />
		<tag k="operator" v="Målselv kommune" />
		<tag k="operator:type" v="public" />
	</node>
	<node id="-5694" lat="69.0244" lon="19.2961">
		<tag k="amenity" v="kindergarten" />
		<tag k="capacity" v="52" />
		<tag k="max_age" v="5" />
		<tag k="min_age" v="1" />
		<tag k="name" v="Bjørkeng oppvekstsenter avd. barnehage" />
		<tag k="no-barnehage:nsrid" v="1016952" />
		<tag k="operator" v="Målselv kommune" />
		<tag k="operator:type" v="public" />
	</node>
	<node id="-5693" lat="69.0907" lon="18.5824">
		<tag k="amenity" v="kindergarten" />
		<tag k="capacity" v="77" />
		<tag k="max_age" v="5" />
		<tag k="min_age" v="1" />
		<tag k="name" v="Andslimoen barnehage" />
		<tag k="no-barnehage:nsrid" v="1013785" />
		<tag k="operator" v="Målselv kommune" />
		<tag k="operator:type" v="public" />
	</node>
	<node id="-5699" lat="69.1304" lon="18.6123">
		<tag k="amenity" v="kindergarten" />
		<tag k="capacity" v="60" />
		<tag k="max_age" v="5" />
		<tag k="min_age" v="1" />
		<tag k="name" v="Olsborg barnehage" />
		<tag k="no-barnehage:nsrid" v="1012539" />
		<tag k="operator" v="Målselv kommune" />
		<tag k="operator:type" v="public" />
	</node>
	<node id="-5698" lat="69.0236" lon="18.8726">
		<tag k="amenity" v="kindergarten" />
		<tag k="capacity" v="39" />
		<tag k="contact:website" v="http://minskole.no/bakkehaug" />
		<tag k="max_age" v="5" />
		<tag k="min_age" v="1" />
		<tag k="name" v="Mellembygd kultur og oppvekstsenter avd. barnehage" />
		<tag k="no-barnehage:nsrid" v="1016904" />
		<tag k="operator" v="Målselv kommune" />
		<tag k="operator:type" v="public" />
	</node>
	<node id="-5697" lat="69.0907" lon="18.58244">
		<tag k="amenity" v="kindergarten" />
		<tag k="capacity" v="10" />
		<tag k="max_age" v="5" />
		<tag k="min_age" v="1" />
		<tag k="name" v="Málatvuomi Sámi Mánáidgárdi" />
		<tag k="no-barnehage:nsrid" v="1021875" />
		<tag k="operator" v="Málatvuomi Sámi Mánáidgárdi Sa" />
		<tag k="operator:type" v="private" />
	</node>
</osm>
