<?xml version="1.0" encoding="UTF-8"?>
<osm generator="osmapis" version="0.6">
	<node id="-5916" lat="69.1304" lon="18.6123">
		<tag k="amenity" v="kindergarten" />
		<tag k="capacity" v="66" />
		<tag k="contact:email" v="inger.stenseth@malselv.kommune.no" />
		<tag k="contact:phone" v="+47 77831116" />
		<tag k="max_age" v="5" />
		<tag k="min_age" v="1" />
		<tag k="name" v="Olsborg barnehage" />
		<tag k="no-barnehage:nsrid" v="1012539" />
		<tag k="operator" v="Målselv kommune" />
		<tag k="operator:type" v="public" />
		<tag k="start_date" v="1989-01-01" />
	</node>
	<node id="-5915" lat="69.0236" lon="18.8726">
		<tag k="amenity" v="kindergarten" />
		<tag k="capacity" v="37" />
		<tag k="contact:email" v="tone.takle@malselvskolen.no" />
		<tag k="contact:phone" v="+47 77 83 75 90" />
		<tag k="max_age" v="5" />
		<tag k="min_age" v="1" />
		<tag k="name" v="Mellembygd Kultur og Oppvekstsenter Avd Barnehage" />
		<tag k="no-barnehage:nsrid" v="1016904" />
		<tag k="operator" v="Målselv kommune" />
		<tag k="operator:type" v="public" />
		<tag k="start_date" v="1976-12-24" />
	</node>
	<node id="-5914" lat="69.0907" lon="18.58244">
		<tag k="amenity" v="kindergarten" />
		<tag k="capacity" v="11" />
		<tag k="contact:email" v="ranis@online.no" />
		<tag k="contact:phone" v="+47 77 83 28 35" />
		<tag k="max_age" v="5" />
		<tag k="min_age" v="1" />
		<tag k="name" v="Málatvuomi Sámi Mánáidgárdi Sa" />
		<tag k="no-barnehage:nsrid" v="1021875" />
		<tag k="operator" v="Málatvuomi Sámi Mánáidgárdi Sa" />
		<tag k="operator:type" v="private" />
		<tag k="start_date" v="2008-10-18" />
	</node>
	<node id="-5913" lat="69.2134" lon="18.4702">
		<tag k="amenity" v="kindergarten" />
		<tag k="capacity" v="31" />
		<tag k="contact:email" v="Liv-Solfrid.Sandvoll@malselvskolen.no" />
		<tag k="contact:phone" v="+47 77832631" />
		<tag k="max_age" v="5" />
		<tag k="min_age" v="1" />
		<tag k="name" v="Karlstad Oppvekstsenter Avd Barnehage" />
		<tag k="no-barnehage:nsrid" v="1014757" />
		<tag k="operator" v="Målselv kommune" />
		<tag k="operator:type" v="public" />
		<tag k="start_date" v="1992-01-01" />
	</node>
	<node id="-5912" lat="69.0441" lon="18.5007">
		<tag k="amenity" v="kindergarten" />
		<tag k="capacity" v="47" />
		<tag k="contact:email" v="ellinor.christensen@malselv.kommune.no" />
		<tag k="contact:phone" v="+47 77834490" />
		<tag k="max_age" v="5" />
		<tag k="min_age" v="1" />
		<tag k="name" v="Heggelia/noraførr barnehage" />
		<tag k="no-barnehage:nsrid" v="1013910" />
		<tag k="operator" v="Målselv kommune" />
		<tag k="operator:type" v="public" />
		<tag k="start_date" v="1989-01-01" />
	</node>
	<node id="-5911" lat="69.0448" lon="18.5067">
		<tag k="amenity" v="kindergarten" />
		<tag k="capacity" v="34" />
		<tag k="contact:email" v="ellinor.christensen@malselv.kommune.no" />
		<tag k="contact:phone" v="+47 77833306" />
		<tag k="max_age" v="5" />
		<tag k="min_age" v="1" />
		<tag k="name" v="Heggelia barnehage" />
		<tag k="no-barnehage:nsrid" v="1013704" />
		<tag k="operator" v="Målselv kommune" />
		<tag k="operator:type" v="public" />
		<tag k="start_date" v="1989-01-01" />
	</node>
	<node id="-5910" lat="69.0244" lon="19.2961">
		<tag k="amenity" v="kindergarten" />
		<tag k="capacity" v="48" />
		<tag k="contact:email" v="cecilie.thomassen@malselvskolen.no" />
		<tag k="contact:phone" v="+47 908 15957" />
		<tag k="max_age" v="5" />
		<tag k="min_age" v="1" />
		<tag k="name" v="Bjørkeng Oppvekstsenter Avd Barnehage" />
		<tag k="no-barnehage:nsrid" v="1016952" />
		<tag k="operator" v="Målselv kommune" />
		<tag k="operator:type" v="public" />
		<tag k="start_date" v="2005-08-01" />
	</node>
	<node id="-5909" lat="69.0907" lon="18.5824">
		<tag k="amenity" v="kindergarten" />
		<tag k="capacity" v="69" />
		<tag k="contact:email" v="ingunn.nilsen@malselv.kommune.no" />
		<tag k="contact:phone" v="+47 922 72 977" />
		<tag k="max_age" v="5" />
		<tag k="min_age" v="1" />
		<tag k="name" v="Andslimoen barnehage" />
		<tag k="no-barnehage:nsrid" v="1013785" />
		<tag k="operator" v="Målselv kommune" />
		<tag k="operator:type" v="public" />
		<tag k="start_date" v="1989-01-02" />
	</node>
</osm>
