<?xml version="1.0" encoding="UTF-8"?>
<osm generator="osmapis" version="0.6">
	<node id="-4640" lat="62.14959" lon="6.08394">
		<tag k="amenity" v="kindergarten" />
		<tag k="capacity" v="16" />
		<tag k="contact:email" v="trollsle@online.no" />
		<tag k="contact:phone" v="+47 070078502" />
		<tag k="max_age" v="5" />
		<tag k="min_age" v="1" />
		<tag k="name" v="Trollsletta barnehage" />
		<tag k="no-barnehage:nsrid" v="1019727" />
		<tag k="operator" v="Stiftinga Trollsletta barnehage" />
		<tag k="operator:type" v="private" />
		<tag k="start_date" v="1989-01-02" />
	</node>
	<node id="-4639" lat="62.1493" lon="6.08144">
		<tag k="amenity" v="kindergarten" />
		<tag k="capacity" v="23" />
		<tag k="contact:email" v="bo@hivolda.no" />
		<tag k="contact:phone" v="+47 070 77003" />
		<tag k="max_age" v="5" />
		<tag k="min_age" v="1" />
		<tag k="name" v="Studentsamskipnaden i Volda Avd Røysmarka Studentbarnehage" />
		<tag k="no-barnehage:nsrid" v="1015508" />
		<tag k="operator" v="Studentsamskipnaden i Volda" />
		<tag k="operator:type" v="private" />
		<tag k="start_date" v="1978-12-24" />
	</node>
	<node id="-4638" lat="62.1506" lon="6.09521">
		<tag k="amenity" v="kindergarten" />
		<tag k="capacity" v="53" />
		<tag k="contact:email" v="styrar.sollia@voldabhg.no" />
		<tag k="max_age" v="5" />
		<tag k="min_age" v="1" />
		<tag k="name" v="Sollia barnehage" />
		<tag k="no-barnehage:nsrid" v="1018185" />
		<tag k="operator" v="Volda kommune" />
		<tag k="operator:type" v="public" />
		<tag k="start_date" v="1989-01-01" />
	</node>
	<node id="-4637" lat="62.1418" lon="6.085424">
		<tag k="amenity" v="kindergarten" />
		<tag k="capacity" v="50" />
		<tag k="contact:email" v="signe@rotsetbarnehage.no" />
		<tag k="contact:phone" v="+47 70 07 89 60" />
		<tag k="contact:website" v="http://www.rotset.barnehage.no" />
		<tag k="max_age" v="5" />
		<tag k="min_age" v="1" />
		<tag k="name" v="Rotset barnehage Sa" />
		<tag k="no-barnehage:nsrid" v="1020090" />
		<tag k="operator" v="Rotset barnehage Sa" />
		<tag k="operator:type" v="private" />
		<tag k="start_date" v="1992-01-01" />
	</node>
	<node id="-4636" lat="62.1502" lon="6.09413">
		<tag k="amenity" v="kindergarten" />
		<tag k="capacity" v="49" />
		<tag k="contact:email" v="styrar.oppigarden@volda.kommune.no" />
		<tag k="max_age" v="5" />
		<tag k="min_age" v="1" />
		<tag k="name" v="Oppigarden barnehage" />
		<tag k="no-barnehage:nsrid" v="1016728" />
		<tag k="operator" v="Volda kommune" />
		<tag k="operator:type" v="public" />
		<tag k="start_date" v="1989-01-02" />
	</node>
	<node id="-4635" lat="62.1681" lon="6.02276">
		<tag k="amenity" v="kindergarten" />
		<tag k="capacity" v="39" />
		<tag k="contact:email" v="styrar.mork@voldabhg.no" />
		<tag k="contact:phone" v="+47 70077790" />
		<tag k="max_age" v="5" />
		<tag k="min_age" v="1" />
		<tag k="name" v="Mork barnehage" />
		<tag k="no-barnehage:nsrid" v="1015945" />
		<tag k="operator" v="Volda kommune" />
		<tag k="operator:type" v="public" />
		<tag k="start_date" v="1989-01-02" />
	</node>
	<node id="-4634" lat="62.14925" lon="6.119851">
		<tag k="amenity" v="kindergarten" />
		<tag k="capacity" v="45" />
		<tag k="contact:email" v="gudrunn.endal@kulur.no" />
		<tag k="max_age" v="5" />
		<tag k="min_age" v="1" />
		<tag k="name" v="Læringsverkstedet Bratteberg barnehage AS" />
		<tag k="no-barnehage:nsrid" v="1021777" />
		<tag k="operator" v="Læringsverkstedet Bratteberg barnehage AS" />
		<tag k="operator:type" v="private" />
		<tag k="start_date" v="2011-11-01" />
	</node>
	<node id="-4633" lat="62.1653" lon="5.93076">
		<tag k="amenity" v="kindergarten" />
		<tag k="capacity" v="16" />
		<tag k="contact:email" v="styrar.lauvstad@volda.kommune.no" />
		<tag k="contact:phone" v="+47 70055258" />
		<tag k="max_age" v="5" />
		<tag k="min_age" v="1" />
		<tag k="name" v="Lauvstad barnehage" />
		<tag k="no-barnehage:nsrid" v="1014968" />
		<tag k="operator" v="Volda kommune" />
		<tag k="operator:type" v="public" />
		<tag k="start_date" v="1997-09-01" />
	</node>
	<node id="-4632" lat="62.15016" lon="6.115207">
		<tag k="amenity" v="kindergarten" />
		<tag k="capacity" v="31" />
		<tag k="contact:email" v="post@hjellbakkane.no" />
		<tag k="contact:phone" v="+47 70 07 84 68" />
		<tag k="max_age" v="5" />
		<tag k="min_age" v="1" />
		<tag k="name" v="Hjellbakkane barnehage stiftelsen" />
		<tag k="no-barnehage:nsrid" v="1020462" />
		<tag k="operator" v="Hjellbakkane barnehage stiftelsen" />
		<tag k="operator:type" v="private" />
		<tag k="start_date" v="1989-01-02" />
	</node>
	<node id="-4631" lat="62.1167" lon="6.02414">
		<tag k="amenity" v="kindergarten" />
		<tag k="capacity" v="16" />
		<tag k="contact:email" v="styrar.folkestad@volda.kommune.no" />
		<tag k="contact:phone" v="+47 070731870" />
		<tag k="max_age" v="5" />
		<tag k="min_age" v="1" />
		<tag k="name" v="Folkestad barnehage" />
		<tag k="no-barnehage:nsrid" v="1016658" />
		<tag k="operator" v="Volda kommune" />
		<tag k="operator:type" v="public" />
		<tag k="start_date" v="1989-01-02" />
	</node>
	<node id="-4630" lat="62.1496" lon="6.06201">
		<tag k="amenity" v="kindergarten" />
		<tag k="capacity" v="49" />
		<tag k="contact:email" v="styrar.engeset@volda.kommune.no" />
		<tag k="max_age" v="5" />
		<tag k="min_age" v="1" />
		<tag k="name" v="Engeset barnehage" />
		<tag k="no-barnehage:nsrid" v="1016102" />
		<tag k="operator" v="Volda kommune" />
		<tag k="operator:type" v="public" />
		<tag k="start_date" v="1989-01-02" />
	</node>
	<node id="-4629" lat="62.0648" lon="6.32491">
		<tag k="amenity" v="kindergarten" />
		<tag k="capacity" v="11" />
		<tag k="contact:email" v="styrar.austefjord@volda.kommune.no" />
		<tag k="contact:phone" v="+47 70079012" />
		<tag k="max_age" v="5" />
		<tag k="min_age" v="1" />
		<tag k="name" v="Austefjord barnehage" />
		<tag k="no-barnehage:nsrid" v="1018186" />
		<tag k="operator" v="Volda kommune" />
		<tag k="operator:type" v="public" />
		<tag k="start_date" v="1989-01-01" />
	</node>
	<node id="-4642" lat="62.14667" lon="6.076932">
		<tag k="amenity" v="kindergarten" />
		<tag k="capacity" v="50" />
		<tag k="contact:email" v="oyra@barnehage.no" />
		<tag k="contact:phone" v="+47 070078375" />
		<tag k="max_age" v="5" />
		<tag k="min_age" v="1" />
		<tag k="name" v="Øyra barnehage" />
		<tag k="no-barnehage:nsrid" v="1019865" />
		<tag k="operator" v="Øyra barnehage" />
		<tag k="operator:type" v="private" />
		<tag k="start_date" v="1989-09-01" />
	</node>
	<node id="-4641" lat="62.15033" lon="6.113247">
		<tag k="amenity" v="kindergarten" />
		<tag k="contact:email" v="kjell.wiik@tussa.com" />
		<tag k="name" v="Volda Opne barnehage" />
		<tag k="no-barnehage:nsrid" v="1025450" />
		<tag k="operator" v="Den Evangeliske Lutherske Frikyrkje Volda Kyrkjelyd" />
		<tag k="operator:type" v="private" />
		<tag k="start_date" v="2011-09-15" />
	</node>
</osm>
