<?xml version="1.0" encoding="UTF-8"?>
<osm generator="osmapis" version="0.6">
	<node id="-4288" lat="63.7464" lon="11.2803">
		<tag k="amenity" v="kindergarten" />
		<tag k="capacity" v="41" />
		<tag k="max_age" v="5" />
		<tag k="min_age" v="1" />
		<tag k="name" v="Staup barnehage" />
		<tag k="no-barnehage:nsrid" v="1017258" />
		<tag k="operator" v="Levanger kommune" />
		<tag k="operator:type" v="public" />
	</node>
	<node id="-4287" lat="63.7011" lon="11.1869">
		<tag k="amenity" v="kindergarten" />
		<tag k="capacity" v="51" />
		<tag k="max_age" v="5" />
		<tag k="min_age" v="1" />
		<tag k="name" v="Skogn menighetspleie barnehage" />
		<tag k="no-barnehage:nsrid" v="1025346" />
		<tag k="operator" v="Marisko-Stiftelsen Alstadhaug Menighetsbarnehager" />
		<tag k="operator:type" v="private" />
	</node>
	<node id="-4286" lat="63.74295" lon="11.28934">
		<tag k="amenity" v="kindergarten" />
		<tag k="capacity" v="85" />
		<tag k="contact:website" v="http://ruffen.kanvas.no" />
		<tag k="max_age" v="5" />
		<tag k="min_age" v="1" />
		<tag k="name" v="Ruffen Kanvas-barnehage" />
		<tag k="no-barnehage:nsrid" v="1021680" />
		<tag k="operator" v="Stiftelsen Kanvas" />
		<tag k="operator:type" v="private" />
	</node>
	<node id="-4285" lat="63.70111" lon="11.18688">
		<tag k="amenity" v="kindergarten" />
		<tag k="capacity" v="37" />
		<tag k="max_age" v="5" />
		<tag k="min_age" v="1" />
		<tag k="name" v="Purktrøa gårdsbarnehage" />
		<tag k="no-barnehage:nsrid" v="1021054" />
		<tag k="operator" v="Marisko-Stiftelsen Alstadhaug Menighetsbarnehager" />
		<tag k="operator:type" v="private" />
	</node>
	<node id="-4284" lat="63.7278" lon="11.4508">
		<tag k="amenity" v="kindergarten" />
		<tag k="capacity" v="13" />
		<tag k="max_age" v="5" />
		<tag k="min_age" v="1" />
		<tag k="name" v="Okkenhaug barnehage" />
		<tag k="no-barnehage:nsrid" v="1015609" />
		<tag k="operator" v="Levanger kommune" />
		<tag k="operator:type" v="public" />
	</node>
	<node id="-4283" lat="63.7482" lon="11.293">
		<tag k="amenity" v="kindergarten" />
		<tag k="capacity" v="18" />
		<tag k="max_age" v="5" />
		<tag k="min_age" v="1" />
		<tag k="name" v="Nord Studentsamskipnad avd. Trimia barnehage" />
		<tag k="no-barnehage:nsrid" v="1015995" />
		<tag k="operator" v="Nord Studentsamskipnad" />
		<tag k="operator:type" v="private" />
	</node>
	<node id="-4282" lat="63.7507" lon="11.3212">
		<tag k="amenity" v="kindergarten" />
		<tag k="capacity" v="30" />
		<tag k="max_age" v="5" />
		<tag k="min_age" v="1" />
		<tag k="name" v="Nord Studentsamskipnad avd. Røstad barnehage" />
		<tag k="no-barnehage:nsrid" v="1014022" />
		<tag k="operator" v="Nord Studentsamskipnad" />
		<tag k="operator:type" v="private" />
	</node>
	<node id="-4281" lat="63.6276" lon="11.37021">
		<tag k="amenity" v="kindergarten" />
		<tag k="capacity" v="12" />
		<tag k="max_age" v="5" />
		<tag k="min_age" v="1" />
		<tag k="name" v="Mølnå barnehage" />
		<tag k="no-barnehage:nsrid" v="1021347" />
		<tag k="operator" v="Kathrine Keiserås Haugen" />
		<tag k="operator:type" v="private" />
	</node>
	<node id="-4280" lat="63.74636" lon="11.30049">
		<tag k="amenity" v="kindergarten" />
		<tag k="capacity" v="29" />
		<tag k="contact:website" v="http://www.munkebybarnehage.no" />
		<tag k="max_age" v="5" />
		<tag k="min_age" v="1" />
		<tag k="name" v="Munkeby gård- og naturbarnehage" />
		<tag k="no-barnehage:nsrid" v="1021662" />
		<tag k="operator" v="Munkeby Gård- og Naturbarnehage Sa" />
		<tag k="operator:type" v="private" />
	</node>
	<node id="-4279" lat="63.74808" lon="11.37268">
		<tag k="amenity" v="kindergarten" />
		<tag k="capacity" v="16" />
		<tag k="contact:website" v="http://www.mulegardsbarnehage.no" />
		<tag k="max_age" v="5" />
		<tag k="min_age" v="1" />
		<tag k="name" v="Mule gårdsbarnehage Marit Kvam" />
		<tag k="no-barnehage:nsrid" v="1020351" />
		<tag k="operator" v="Mule Gårdsbarnehage Marit Kvam" />
		<tag k="operator:type" v="private" />
	</node>
	<node id="-4277" lat="63.7276" lon="11.2892">
		<tag k="amenity" v="kindergarten" />
		<tag k="capacity" v="83" />
		<tag k="max_age" v="5" />
		<tag k="min_age" v="1" />
		<tag k="name" v="Momarka barnehage avd. Momarka" />
		<tag k="no-barnehage:nsrid" v="1013938" />
		<tag k="operator" v="Levanger kommune" />
		<tag k="operator:type" v="public" />
	</node>
	<node id="-4276" lat="63.70111" lon="11.18688">
		<tag k="amenity" v="kindergarten" />
		<tag k="capacity" v="35" />
		<tag k="max_age" v="5" />
		<tag k="min_age" v="1" />
		<tag k="name" v="Kårstua barnehage" />
		<tag k="no-barnehage:nsrid" v="1021428" />
		<tag k="operator" v="Kårstua barnehage AS" />
		<tag k="operator:type" v="private" />
	</node>
	<node id="-4275" lat="63.70392" lon="11.18456">
		<tag k="amenity" v="kindergarten" />
		<tag k="capacity" v="32" />
		<tag k="max_age" v="5" />
		<tag k="min_age" v="1" />
		<tag k="name" v="Hompetitten barnehage" />
		<tag k="no-barnehage:nsrid" v="1020923" />
		<tag k="operator" v="Hompetitten barnehage AS" />
		<tag k="operator:type" v="private" />
	</node>
	<node id="-4274" lat="63.74593" lon="11.32015">
		<tag k="amenity" v="kindergarten" />
		<tag k="capacity" v="28" />
		<tag k="contact:website" v="http://www.hegle.barnehage.no" />
		<tag k="max_age" v="5" />
		<tag k="min_age" v="1" />
		<tag k="name" v="Hegle barnehage" />
		<tag k="no-barnehage:nsrid" v="1019928" />
		<tag k="operator" v="Hegle barnehage" />
		<tag k="operator:type" v="private" />
	</node>
	<node id="-4273" lat="63.746" lon="11.3226">
		<tag k="amenity" v="kindergarten" />
		<tag k="capacity" v="66" />
		<tag k="contact:website" v="http://levanger.kommune.no/Organisasjon/Enheter/Barnehage/Frol-barnehage/" />
		<tag k="max_age" v="5" />
		<tag k="min_age" v="1" />
		<tag k="name" v="Frol og Leirabekken barnehage" />
		<tag k="no-barnehage:nsrid" v="1014950" />
		<tag k="operator" v="Levanger kommune" />
		<tag k="operator:type" v="public" />
	</node>
	<node id="-4272" lat="63.7522" lon="11.2635">
		<tag k="amenity" v="kindergarten" />
		<tag k="capacity" v="104" />
		<tag k="max_age" v="5" />
		<tag k="min_age" v="1" />
		<tag k="name" v="Farmen menighetsbarnehage" />
		<tag k="no-barnehage:nsrid" v="1016194" />
		<tag k="operator" v="Marisko-Stiftelsen Alstadhaug Menighetsbarnehager" />
		<tag k="operator:type" v="private" />
	</node>
	<node id="-4271" lat="63.75593" lon="11.27404">
		<tag k="amenity" v="kindergarten" />
		<tag k="capacity" v="78" />
		<tag k="contact:website" v="http://www.espira.no" />
		<tag k="max_age" v="5" />
		<tag k="min_age" v="1" />
		<tag k="name" v="Espira Gjemble barnehage" />
		<tag k="no-barnehage:nsrid" v="1020704" />
		<tag k="operator" v="Espira Gjemble AS" />
		<tag k="operator:type" v="private" />
	</node>
	<node id="-4270" lat="63.6987" lon="11.0408">
		<tag k="amenity" v="kindergarten" />
		<tag k="capacity" v="40" />
		<tag k="max_age" v="5" />
		<tag k="min_age" v="1" />
		<tag k="name" v="Ekne barnehage" />
		<tag k="no-barnehage:nsrid" v="1017394" />
		<tag k="operator" v="Levanger kommune" />
		<tag k="operator:type" v="public" />
	</node>
	<node id="-4269" lat="63.74795" lon="11.32027">
		<tag k="amenity" v="kindergarten" />
		<tag k="capacity" v="76" />
		<tag k="max_age" v="5" />
		<tag k="min_age" v="1" />
		<tag k="name" v="Casa Musica barnehage" />
		<tag k="no-barnehage:nsrid" v="1020776" />
		<tag k="operator" v="Espira Casa Musica barnehage AS" />
		<tag k="operator:type" v="private" />
	</node>
	<node id="-4268" lat="63.61129" lon="11.04848">
		<tag k="amenity" v="kindergarten" />
		<tag k="capacity" v="58" />
		<tag k="contact:website" v="http://bruse.barnehage.no" />
		<tag k="max_age" v="5" />
		<tag k="min_age" v="1" />
		<tag k="name" v="Bruse barnehage" />
		<tag k="no-barnehage:nsrid" v="1019741" />
		<tag k="operator" v="Bruse barnehage Sa" />
		<tag k="operator:type" v="private" />
	</node>
	<node id="-4267" lat="63.75161" lon="11.26142">
		<tag k="amenity" v="kindergarten" />
		<tag k="capacity" v="43" />
		<tag k="max_age" v="5" />
		<tag k="min_age" v="1" />
		<tag k="name" v="Bjørnang barnehage" />
		<tag k="no-barnehage:nsrid" v="1020250" />
		<tag k="operator" v="Levanger kommune" />
		<tag k="operator:type" v="public" />
	</node>
	<node id="-4266" lat="63.7608" lon="11.36885">
		<tag k="amenity" v="kindergarten" />
		<tag k="capacity" v="29" />
		<tag k="max_age" v="5" />
		<tag k="min_age" v="1" />
		<tag k="name" v="Barnas Moa" />
		<tag k="no-barnehage:nsrid" v="1022439" />
		<tag k="operator" v="Barnas Moa AS" />
		<tag k="operator:type" v="private" />
	</node>
	<node id="-4265" lat="63.74726" lon="11.33219">
		<tag k="amenity" v="kindergarten" />
		<tag k="capacity" v="44" />
		<tag k="contact:website" v="http://abra-cadabra.barnehage.no/" />
		<tag k="max_age" v="5" />
		<tag k="min_age" v="1" />
		<tag k="name" v="Abra Cadabra barnehage" />
		<tag k="no-barnehage:nsrid" v="1021399" />
		<tag k="operator" v="Abra Cadabra barnehage AS" />
		<tag k="operator:type" v="private" />
	</node>
</osm>
