<?xml version="1.0" encoding="UTF-8"?>
<osm generator="osmapis" version="0.6">
	<node id="-2814" lat="59.17964" lon="10.43881">
		<tag k="ADDRESS" v="Torødveien 39, 3135 TORØD" />
		<tag k="amenity" v="kindergarten" />
		<tag k="capacity" v="58" />
		<tag k="max_age" v="5" />
		<tag k="min_age" v="1" />
		<tag k="name" v="Torød barnehage" />
		<tag k="no-barnehage:nsrid" v="1013337" />
		<tag k="operator" v="Færder kommune" />
		<tag k="operator:type" v="public" />
	</node>
	<node id="-2813" lat="59.23664" lon="10.44852">
		<tag k="ADDRESS" v="Bjørnebuveien 4, 3132 HUSØYSUND" />
		<tag k="amenity" v="kindergarten" />
		<tag k="capacity" v="43" />
		<tag k="max_age" v="5" />
		<tag k="min_age" v="1" />
		<tag k="name" v="Føynland barnehage" />
		<tag k="no-barnehage:nsrid" v="1018030" />
		<tag k="operator" v="Færder kommune" />
		<tag k="operator:type" v="public" />
	</node>
	<node id="-2812" lat="59.19546" lon="10.39128">
		<tag k="ADDRESS" v="Brattåsveien 64, 3140 NØTTERØY" />
		<tag k="amenity" v="kindergarten" />
		<tag k="capacity" v="144" />
		<tag k="max_age" v="5" />
		<tag k="min_age" v="1" />
		<tag k="name" v="Brattås barnehage" />
		<tag k="no-barnehage:nsrid" v="1022004" />
		<tag k="operator" v="Brattås barnehage AS" />
		<tag k="operator:type" v="private" />
	</node>
</osm>
