<?xml version="1.0" encoding="UTF-8"?>
<osm generator="osmapis" version="0.6">
	<node id="-2647" lat="59.22712" lon="10.40756">
		<tag k="amenity" v="kindergarten" />
		<tag k="capacity" v="18" />
		<tag k="doNotImportAddress" v="Østre Nøtterø 3140 NØTTERØY" />
		<tag k="max_age" v="5" />
		<tag k="min_age" v="1" />
		<tag k="name" v="Stabburet familiebarnehage" />
		<tag k="no-barnehage:nsrid" v="1020745" />
		<tag k="operator" v="Stabburet Familiebarnehage AS" />
		<tag k="operator:type" v="private" />
	</node>
	<node id="-2650" lat="59.24694" lon="10.39676">
		<tag k="amenity" v="kindergarten" />
		<tag k="capacity" v="7" />
		<tag k="doNotImportAddress" v="Vestfjordveien 40 3142 VESTSKOGEN" />
		<tag k="max_age" v="2" />
		<tag k="min_age" v="1" />
		<tag k="name" v="Stiftelsen steinerbarnehagen på Nøtterøy avd. Stjerneskudd" />
		<tag k="no-barnehage:nsrid" v="1025595" />
		<tag k="operator" v="Stiftelsen Steinerbarnehagen på Nøtterøy" />
		<tag k="operator:type" v="private" />
	</node>
</osm>
