<?xml version="1.0" encoding="UTF-8"?>
<osm generator="osmapis" version="0.6">
	<node id="-5568" lat="69.64841" lon="19.00094">
		<tag k="amenity" v="kindergarten" />
		<tag k="capacity" v="9" />
		<tag k="contact:website" v="http://www.eventyroya.bhg.no" />
		<tag k="doNotImportAddress" v="Th Widdings Veg 9 9020 TROMSDALEN" />
		<tag k="max_age" v="5" />
		<tag k="min_age" v="1" />
		<tag k="name" v="Eventyrøya familiebarnehage" />
		<tag k="no-barnehage:nsrid" v="1020924" />
		<tag k="operator" v="Eventyrøya Familiebarnehage Da" />
		<tag k="operator:type" v="private" />
	</node>
	<node id="-5597" lat="69.64435" lon="19.00043">
		<tag k="amenity" v="kindergarten" />
		<tag k="capacity" v="9" />
		<tag k="doNotImportAddress" v="Myrvegen 18 9020 TROMSDALEN" />
		<tag k="max_age" v="5" />
		<tag k="min_age" v="1" />
		<tag k="name" v="Myrveien familiebarnehage" />
		<tag k="no-barnehage:nsrid" v="1022108" />
		<tag k="operator" v="Myrvegen Familiebarnehage AS" />
		<tag k="operator:type" v="private" />
	</node>
	<node id="-5596" lat="69.68327" lon="18.94423">
		<tag k="amenity" v="kindergarten" />
		<tag k="capacity" v="9" />
		<tag k="doNotImportAddress" v="Winston Churchills Veg 39 9014 TROMSØ" />
		<tag k="max_age" v="5" />
		<tag k="min_age" v="1" />
		<tag k="name" v="Mortensnes familiebarnehage" />
		<tag k="no-barnehage:nsrid" v="1022266" />
		<tag k="operator" v="Mortensnes Familiebarnehage AS" />
		<tag k="operator:type" v="private" />
	</node>
	<node id="-5595" lat="69.66308" lon="19.02563">
		<tag k="amenity" v="kindergarten" />
		<tag k="capacity" v="20" />
		<tag k="doNotImportAddress" v="Midnattsolvegen 11 9024 TOMASJORD" />
		<tag k="max_age" v="5" />
		<tag k="min_age" v="1" />
		<tag k="name" v="Midnattsol familiebarnehage" />
		<tag k="no-barnehage:nsrid" v="1021431" />
		<tag k="operator" v="Midnattsol Familiebarnehage" />
		<tag k="operator:type" v="private" />
	</node>
	<node id="-5561" lat="69.64346" lon="18.98919">
		<tag k="amenity" v="kindergarten" />
		<tag k="capacity" v="9" />
		<tag k="doNotImportAddress" v="Anton Jakobsens Veg 24 9020 TROMSDALEN" />
		<tag k="max_age" v="5" />
		<tag k="min_age" v="1" />
		<tag k="name" v="Dalen familiebarnehage" />
		<tag k="no-barnehage:nsrid" v="1022349" />
		<tag k="operator" v="Dalen Familiebarnehage Da" />
		<tag k="operator:type" v="private" />
	</node>
	<node id="-5589" lat="69.68705" lon="18.83419">
		<tag k="amenity" v="kindergarten" />
		<tag k="capacity" v="16" />
		<tag k="doNotImportAddress" v="Østersvegen 23 9100 KVALØYSLETTA" />
		<tag k="max_age" v="5" />
		<tag k="min_age" v="1" />
		<tag k="name" v="Lekestua familiebarnehage" />
		<tag k="no-barnehage:nsrid" v="1021750" />
		<tag k="operator" v="Lekestua Familiebarnehage AS" />
		<tag k="operator:type" v="private" />
	</node>
	<node id="-5613" lat="69.69842" lon="18.88716">
		<tag k="amenity" v="kindergarten" />
		<tag k="capacity" v="10" />
		<tag k="doNotImportAddress" v="Ryllikvegen 71 9102 KVALØYSLETTA" />
		<tag k="max_age" v="5" />
		<tag k="min_age" v="1" />
		<tag k="name" v="Solstua familiebarnehage" />
		<tag k="no-barnehage:nsrid" v="1020324" />
		<tag k="operator" v="Stiftelsen Solstua Familiebarnehage" />
		<tag k="operator:type" v="private" />
	</node>
	<node id="-5640" lat="69.64372" lon="19.0086">
		<tag k="amenity" v="kindergarten" />
		<tag k="capacity" v="25" />
		<tag k="doNotImportAddress" v="Åsvegen 57 9020 TROMSDALEN" />
		<tag k="max_age" v="5" />
		<tag k="min_age" v="1" />
		<tag k="name" v="Virre Vapp familiebarnehage" />
		<tag k="no-barnehage:nsrid" v="1022447" />
		<tag k="operator" v="Virre Vapp Familiebarnehage AS" />
		<tag k="operator:type" v="private" />
	</node>
	<node id="-5605" lat="69.7746" lon="18.81982">
		<tag k="amenity" v="kindergarten" />
		<tag k="capacity" v="20" />
		<tag k="doNotImportAddress" v="Yttergårdvegen 8 9107 KVALØYA" />
		<tag k="max_age" v="5" />
		<tag k="min_age" v="1" />
		<tag k="name" v="Rødhette" />
		<tag k="no-barnehage:nsrid" v="1020748" />
		<tag k="operator" v="Rødhette AS" />
		<tag k="operator:type" v="private" />
	</node>
	<node id="-5563" lat="69.64758" lon="18.93334">
		<tag k="amenity" v="kindergarten" />
		<tag k="capacity" v="8" />
		<tag k="doNotImportAddress" v="Ebeltoftvegen 5 9007 TROMSØ" />
		<tag k="max_age" v="2" />
		<tag k="min_age" v="1" />
		<tag k="name" v="Ebeltoften familiebarnehage" />
		<tag k="no-barnehage:nsrid" v="1022194" />
		<tag k="operator" v="Ebeltoften Familiebarnehage AS" />
		<tag k="operator:type" v="private" />
	</node>
</osm>
