<?xml version="1.0" encoding="UTF-8"?>
<osm generator="osmapis" version="0.6">
	<node id="-3622" lat="0.0" lon="0.0">
		<tag k="ADDRESS" v="Stakkevollan, 9018 TROMSØ" />
		<tag k="amenity" v="kindergarten" />
		<tag k="name" v="Åpen barnehage Stakkevollan" />
		<tag k="no-barnehage:nsrid" v="1014135" />
		<tag k="operator" v="Tromsø kommune" />
		<tag k="operator:type" v="public" />
	</node>
	<node id="-3621" lat="69.54245" lon="18.78072">
		<tag k="ADDRESS" v="Brokskarvegen 222, 9057 VIKRAN" />
		<tag k="amenity" v="kindergarten" />
		<tag k="capacity" v="17" />
		<tag k="max_age" v="5" />
		<tag k="min_age" v="1" />
		<tag k="name" v="Vikran barnehage" />
		<tag k="no-barnehage:nsrid" v="1015953" />
		<tag k="operator" v="Tromsø kommune" />
		<tag k="operator:type" v="public" />
	</node>
	<node id="-3620" lat="69.67188" lon="18.93296">
		<tag k="ADDRESS" v="Vestavinden 69, 9015 TROMSØ" />
		<tag k="amenity" v="kindergarten" />
		<tag k="max_age" v="2" />
		<tag k="min_age" v="1" />
		<tag k="name" v="Vestavinden familiebarnehage" />
		<tag k="no-barnehage:nsrid" v="1020116" />
		<tag k="operator" v="Vestavinden Familiebarnehage Sa" />
		<tag k="operator:type" v="private" />
	</node>
	<node id="-3619" lat="0.0" lon="0.0">
		<tag k="ADDRESS" v=", 9120 VENGSØY" />
		<tag k="amenity" v="kindergarten" />
		<tag k="capacity" v="3" />
		<tag k="max_age" v="5" />
		<tag k="min_age" v="1" />
		<tag k="name" v="Vengsøy barnehage" />
		<tag k="no-barnehage:nsrid" v="1018535" />
		<tag k="operator" v="Tromsø kommune" />
		<tag k="operator:type" v="public" />
	</node>
	<node id="-3618" lat="69.69439" lon="19.00269">
		<tag k="ADDRESS" v="Utsikten 57b, 9018 TROMSØ" />
		<tag k="amenity" v="kindergarten" />
		<tag k="capacity" v="13" />
		<tag k="contact:website" v="http://utsikten.tromso.barnehage.no" />
		<tag k="max_age" v="5" />
		<tag k="min_age" v="1" />
		<tag k="name" v="Utsikten barnehage" />
		<tag k="no-barnehage:nsrid" v="1019757" />
		<tag k="operator" v="Utsikten barnehage Sa" />
		<tag k="operator:type" v="private" />
	</node>
	<node id="-3617" lat="0.0" lon="0.0">
		<tag k="ADDRESS" v="Trondjord, 9103 KVALØYA" />
		<tag k="amenity" v="kindergarten" />
		<tag k="capacity" v="8" />
		<tag k="max_age" v="5" />
		<tag k="min_age" v="1" />
		<tag k="name" v="Trondjord barnehage" />
		<tag k="no-barnehage:nsrid" v="1012721" />
		<tag k="operator" v="Tromsø kommune" />
		<tag k="operator:type" v="public" />
	</node>
	<node id="-3616" lat="69.66704" lon="19.02197">
		<tag k="ADDRESS" v="Tomasjordnes 62, 9024 TOMASJORD" />
		<tag k="amenity" v="kindergarten" />
		<tag k="capacity" v="66" />
		<tag k="max_age" v="5" />
		<tag k="min_age" v="1" />
		<tag k="name" v="Tomasjordneset barnehage" />
		<tag k="no-barnehage:nsrid" v="1018512" />
		<tag k="operator" v="Tromsø kommune" />
		<tag k="operator:type" v="public" />
	</node>
	<node id="-3615" lat="69.64689" lon="18.94593">
		<tag k="ADDRESS" v="Jonas Lies Gate 15, 9009 TROMSØ" />
		<tag k="amenity" v="kindergarten" />
		<tag k="max_age" v="5" />
		<tag k="min_age" v="1" />
		<tag k="name" v="Strimmelen barnehage" />
		<tag k="no-barnehage:nsrid" v="1013880" />
		<tag k="operator" v="Tromsø kommune" />
		<tag k="operator:type" v="public" />
	</node>
	<node id="-3614" lat="69.66369" lon="18.95288">
		<tag k="ADDRESS" v="Luleåvegen 13, 9011 TROMSØ" />
		<tag k="amenity" v="kindergarten" />
		<tag k="capacity" v="47" />
		<tag k="max_age" v="5" />
		<tag k="min_age" v="1" />
		<tag k="name" v="Storskogåsen studentbarnehage" />
		<tag k="no-barnehage:nsrid" v="1016822" />
		<tag k="operator" v="Norges Arktiske Studentsamskipnad" />
		<tag k="operator:type" v="private" />
	</node>
	<node id="-3613" lat="0.0" lon="0.0">
		<tag k="ADDRESS" v="Nordselveien 6-8, 9020 TROMSDALEN" />
		<tag k="amenity" v="kindergarten" />
		<tag k="capacity" v="29" />
		<tag k="max_age" v="5" />
		<tag k="min_age" v="1" />
		<tag k="name" v="Stiftelsen Kanutten barnehage, Tromsø" />
		<tag k="no-barnehage:nsrid" v="1020460" />
		<tag k="operator" v="Stiftelsen Kanutten Barnehage, Tromsø" />
		<tag k="operator:type" v="private" />
	</node>
	<node id="-3612" lat="69.64246" lon="18.93084">
		<tag k="ADDRESS" v="Kveldrovegen 17, 9007 TROMSØ" />
		<tag k="amenity" v="kindergarten" />
		<tag k="capacity" v="16" />
		<tag k="contact:website" v="http://steinerbarnehagentromso.no" />
		<tag k="max_age" v="5" />
		<tag k="min_age" v="1" />
		<tag k="name" v="Steinerbarnehagen Tromsø" />
		<tag k="no-barnehage:nsrid" v="1019765" />
		<tag k="operator" v="Stiftelsen R Steiner barnehage i Tromsø" />
		<tag k="operator:type" v="private" />
	</node>
	<node id="-3611" lat="69.67842" lon="19.05801">
		<tag k="ADDRESS" v="Rubinvegen 1, 9022 KROKELVDALEN" />
		<tag k="amenity" v="kindergarten" />
		<tag k="capacity" v="64" />
		<tag k="contact:website" v="http://www.steinbergetbarnehage.no" />
		<tag k="max_age" v="5" />
		<tag k="min_age" v="1" />
		<tag k="name" v="Steinberget barnehage" />
		<tag k="no-barnehage:nsrid" v="1020175" />
		<tag k="operator" v="Steinberget barnehage Sa" />
		<tag k="operator:type" v="private" />
	</node>
	<node id="-3610" lat="69.69198" lon="18.99434">
		<tag k="ADDRESS" v="Nordøyvegen 101, 9018 TROMSØ" />
		<tag k="amenity" v="kindergarten" />
		<tag k="capacity" v="51" />
		<tag k="max_age" v="5" />
		<tag k="min_age" v="1" />
		<tag k="name" v="Stakkevollan barnehage" />
		<tag k="no-barnehage:nsrid" v="1012719" />
		<tag k="operator" v="Tromsø kommune" />
		<tag k="operator:type" v="public" />
	</node>
	<node id="-3609" lat="69.63908" lon="18.9055">
		<tag k="ADDRESS" v="Vesterlivegen 5, 9013 TROMSØ" />
		<tag k="amenity" v="kindergarten" />
		<tag k="capacity" v="90" />
		<tag k="max_age" v="5" />
		<tag k="min_age" v="1" />
		<tag k="name" v="Sorgenfri barnehage" />
		<tag k="no-barnehage:nsrid" v="1017019" />
		<tag k="operator" v="Tromsø kommune" />
		<tag k="operator:type" v="public" />
	</node>
	<node id="-3608" lat="69.69774" lon="19.0064">
		<tag k="ADDRESS" v="Skattøra 151, 9018 TROMSØ" />
		<tag k="amenity" v="kindergarten" />
		<tag k="capacity" v="53" />
		<tag k="contact:website" v="http://www.soldagen.barnehage.no" />
		<tag k="max_age" v="5" />
		<tag k="min_age" v="1" />
		<tag k="name" v="Soldagen barnehage" />
		<tag k="no-barnehage:nsrid" v="1020026" />
		<tag k="operator" v="Soldagen barnehage AS" />
		<tag k="operator:type" v="private" />
	</node>
	<node id="-3607" lat="69.69995" lon="18.89003">
		<tag k="ADDRESS" v="Ryllikvegen 55, 9102 KVALØYSLETTA" />
		<tag k="amenity" v="kindergarten" />
		<tag k="capacity" v="49" />
		<tag k="max_age" v="5" />
		<tag k="min_age" v="1" />
		<tag k="name" v="Slettaelva barnehage" />
		<tag k="no-barnehage:nsrid" v="1012725" />
		<tag k="operator" v="Tromsø kommune" />
		<tag k="operator:type" v="public" />
	</node>
	<node id="-3606" lat="69.63565" lon="18.92414">
		<tag k="ADDRESS" v="Lærerskolevegen 8, 9006 TROMSØ" />
		<tag k="amenity" v="kindergarten" />
		<tag k="capacity" v="21" />
		<tag k="max_age" v="5" />
		<tag k="min_age" v="1" />
		<tag k="name" v="Skogstua barnehage" />
		<tag k="no-barnehage:nsrid" v="1019988" />
		<tag k="operator" v="Skogstua barnehage Sa" />
		<tag k="operator:type" v="private" />
	</node>
	<node id="-3605" lat="0.0" lon="0.0">
		<tag k="ADDRESS" v=", 9030 SJURSNES" />
		<tag k="amenity" v="kindergarten" />
		<tag k="max_age" v="5" />
		<tag k="min_age" v="3" />
		<tag k="name" v="Sjursnes barnehage" />
		<tag k="no-barnehage:nsrid" v="1016154" />
		<tag k="operator" v="Tromsø kommune" />
		<tag k="operator:type" v="public" />
	</node>
	<node id="-3604" lat="69.62353" lon="18.94585">
		<tag k="ADDRESS" v="Selmalund 17, 9020 TROMSDALEN" />
		<tag k="amenity" v="kindergarten" />
		<tag k="name" v="Selmalund familiebarnehage" />
		<tag k="no-barnehage:nsrid" v="1020949" />
		<tag k="operator" v="Selmalund Familiebarnehage Sa" />
		<tag k="operator:type" v="private" />
	</node>
	<node id="-3603" lat="69.63455" lon="18.96185">
		<tag k="ADDRESS" v="Solstrandvegen 97, 9020 TROMSDALEN" />
		<tag k="amenity" v="kindergarten" />
		<tag k="capacity" v="87" />
		<tag k="contact:website" v="http://www.tromso.kommune.no/index.db2?id=9064" />
		<tag k="max_age" v="5" />
		<tag k="min_age" v="1" />
		<tag k="name" v="Reinen barnehage" />
		<tag k="no-barnehage:nsrid" v="1013227" />
		<tag k="operator" v="Tromsø kommune" />
		<tag k="operator:type" v="public" />
	</node>
	<node id="-3602" lat="69.65662" lon="18.92745">
		<tag k="ADDRESS" v="Olastien 11, 9012 TROMSØ" />
		<tag k="amenity" v="kindergarten" />
		<tag k="capacity" v="78" />
		<tag k="max_age" v="5" />
		<tag k="min_age" v="1" />
		<tag k="name" v="Prestvannet studentbarnehage" />
		<tag k="no-barnehage:nsrid" v="1016786" />
		<tag k="operator" v="Norges Arktiske Studentsamskipnad" />
		<tag k="operator:type" v="private" />
	</node>
	<node id="-3601" lat="69.67899" lon="18.93511">
		<tag k="ADDRESS" v="Ørnevegen 7, 9015 TROMSØ" />
		<tag k="amenity" v="kindergarten" />
		<tag k="capacity" v="39" />
		<tag k="contact:website" v="http://www.polarhagen.barnehage.no" />
		<tag k="max_age" v="5" />
		<tag k="min_age" v="1" />
		<tag k="name" v="Polarhagen barnehage" />
		<tag k="no-barnehage:nsrid" v="1019665" />
		<tag k="operator" v="Polarhagen AS" />
		<tag k="operator:type" v="private" />
	</node>
	<node id="-3600" lat="69.66318" lon="18.91825">
		<tag k="ADDRESS" v="Simen Workinns Veg 7, 9016 TROMSØ" />
		<tag k="amenity" v="kindergarten" />
		<tag k="capacity" v="57" />
		<tag k="contact:website" v="http://norrona.barnehage.no/" />
		<tag k="max_age" v="5" />
		<tag k="min_age" v="1" />
		<tag k="name" v="Norrøna barnehage" />
		<tag k="no-barnehage:nsrid" v="1019658" />
		<tag k="operator" v="As Norrøna barnehage" />
		<tag k="operator:type" v="private" />
	</node>
	<node id="-3599" lat="69.6539" lon="19.0152">
		<tag k="ADDRESS" v="Marsvegen 9, 9024 TOMASJORD" />
		<tag k="amenity" v="kindergarten" />
		<tag k="name" v="Nordlandia Marsvegen barnehage" />
		<tag k="no-barnehage:nsrid" v="2000343" />
		<tag k="operator" v="Norlandia Barnehagene AS" />
		<tag k="operator:type" v="private" />
	</node>
	<node id="-3598" lat="69.63837" lon="18.9136">
		<tag k="ADDRESS" v="Nansenvegen 57, 9007 TROMSØ" />
		<tag k="amenity" v="kindergarten" />
		<tag k="max_age" v="5" />
		<tag k="min_age" v="1" />
		<tag k="name" v="Nansenvegen barnehage" />
		<tag k="no-barnehage:nsrid" v="1016153" />
		<tag k="operator" v="Tromsø kommune" />
		<tag k="operator:type" v="public" />
	</node>
	<node id="-3597" lat="0.0" lon="0.0">
		<tag k="ADDRESS" v="Kløvervegen 7 A, 9016 TROMSØ" />
		<tag k="amenity" v="kindergarten" />
		<tag k="name" v="Langnes åpen barnehage" />
		<tag k="no-barnehage:nsrid" v="1015093" />
		<tag k="operator" v="Tromsø kommune" />
		<tag k="operator:type" v="public" />
	</node>
	<node id="-3596" lat="69.4334" lon="19.64567">
		<tag k="ADDRESS" v="Lakselvbuktvegen 600, 9042 LAKSVATN" />
		<tag k="amenity" v="kindergarten" />
		<tag k="capacity" v="10" />
		<tag k="contact:website" v="http://ullsfjordskolen.tromsoskolen.no" />
		<tag k="max_age" v="5" />
		<tag k="min_age" v="1" />
		<tag k="name" v="Lakselvbukt barnehage" />
		<tag k="no-barnehage:nsrid" v="1012720" />
		<tag k="operator" v="Tromsø kommune" />
		<tag k="operator:type" v="public" />
	</node>
	<node id="-3595" lat="69.63795" lon="18.92075">
		<tag k="ADDRESS" v="Kveldrovegen 74, 9007 TROMSØ" />
		<tag k="amenity" v="kindergarten" />
		<tag k="capacity" v="57" />
		<tag k="contact:website" v="http://kveldrovegen.barnehage.no" />
		<tag k="max_age" v="5" />
		<tag k="min_age" v="1" />
		<tag k="name" v="Kveldrovegen barnehage" />
		<tag k="no-barnehage:nsrid" v="1020453" />
		<tag k="operator" v="Kveldrovegen barnehage Sa" />
		<tag k="operator:type" v="private" />
	</node>
	<node id="-3594" lat="69.65789" lon="18.95763">
		<tag k="ADDRESS" v="Anton Iversens Veg 1, 9009 TROMSØ" />
		<tag k="amenity" v="kindergarten" />
		<tag k="capacity" v="97" />
		<tag k="max_age" v="5" />
		<tag k="min_age" v="1" />
		<tag k="name" v="Kvamstykket barnehage" />
		<tag k="no-barnehage:nsrid" v="1012716" />
		<tag k="operator" v="Tromsø kommune" />
		<tag k="operator:type" v="public" />
	</node>
	<node id="-3593" lat="69.66219" lon="18.96118">
		<tag k="ADDRESS" v="Dramsvegen 87, 9010 TROMSØ" />
		<tag k="amenity" v="kindergarten" />
		<tag k="capacity" v="60" />
		<tag k="max_age" v="5" />
		<tag k="min_age" v="1" />
		<tag k="name" v="Kråkeslottet Al" />
		<tag k="no-barnehage:nsrid" v="1019634" />
		<tag k="operator" v="Kråkeslottet barnehage Sa" />
		<tag k="operator:type" v="private" />
	</node>
	<node id="-3592" lat="69.68217" lon="19.0759">
		<tag k="ADDRESS" v="Kvartsvegen 223, 9022 KROKELVDALEN" />
		<tag k="amenity" v="kindergarten" />
		<tag k="capacity" v="55" />
		<tag k="max_age" v="5" />
		<tag k="min_age" v="1" />
		<tag k="name" v="Kroken barnehage" />
		<tag k="no-barnehage:nsrid" v="1025341" />
		<tag k="operator" v="Tromsø kommune" />
		<tag k="operator:type" v="public" />
	</node>
	<node id="-3591" lat="0.0" lon="0.0">
		<tag k="ADDRESS" v="Sjøtun, 9100 KVALØYSLETTA" />
		<tag k="amenity" v="kindergarten" />
		<tag k="capacity" v="7" />
		<tag k="max_age" v="5" />
		<tag k="min_age" v="1" />
		<tag k="name" v="Kattfjord barnehage" />
		<tag k="no-barnehage:nsrid" v="1012722" />
		<tag k="operator" v="Tromsø kommune" />
		<tag k="operator:type" v="public" />
	</node>
	<node id="-3590" lat="69.66125" lon="18.93732">
		<tag k="ADDRESS" v="Prestvannvegen 44, 9011 TROMSØ" />
		<tag k="amenity" v="kindergarten" />
		<tag k="capacity" v="34" />
		<tag k="max_age" v="5" />
		<tag k="min_age" v="1" />
		<tag k="name" v="Guovssahas Mánáidgárdi (samisk barnehage)" />
		<tag k="no-barnehage:nsrid" v="1012723" />
		<tag k="operator" v="Tromsø kommune" />
		<tag k="operator:type" v="public" />
	</node>
	<node id="-3589" lat="69.65003" lon="19.01082">
		<tag k="ADDRESS" v="Evjenvegen 11a, 9024 TOMASJORD" />
		<tag k="amenity" v="kindergarten" />
		<tag k="capacity" v="67" />
		<tag k="max_age" v="5" />
		<tag k="min_age" v="1" />
		<tag k="name" v="Elvestrand barnehage" />
		<tag k="no-barnehage:nsrid" v="1017671" />
		<tag k="operator" v="Tromsø kommune" />
		<tag k="operator:type" v="public" />
	</node>
	<node id="-3588" lat="69.67787" lon="18.93314">
		<tag k="ADDRESS" v="Alkevegen 14, 9015 TROMSØ" />
		<tag k="amenity" v="kindergarten" />
		<tag k="capacity" v="36" />
		<tag k="contact:website" v="http://www.einerabben.barnehage.no" />
		<tag k="max_age" v="5" />
		<tag k="min_age" v="1" />
		<tag k="name" v="Einerabben barnehage" />
		<tag k="no-barnehage:nsrid" v="1020418" />
		<tag k="operator" v="Einerabben barnehage Sa" />
		<tag k="operator:type" v="private" />
	</node>
	<node id="-3587" lat="69.67578" lon="18.7631">
		<tag k="ADDRESS" v="Åslandvegen 30, 9105 KVALØYA" />
		<tag k="amenity" v="kindergarten" />
		<tag k="capacity" v="82" />
		<tag k="max_age" v="5" />
		<tag k="min_age" v="1" />
		<tag k="name" v="Eidhaugen barnehage" />
		<tag k="no-barnehage:nsrid" v="1017058" />
		<tag k="operator" v="Tromsø kommune" />
		<tag k="operator:type" v="public" />
	</node>
	<node id="-3586" lat="69.55972" lon="18.9567">
		<tag k="ADDRESS" v="Innlandsvegen 252, 9021 TROMSDALEN" />
		<tag k="amenity" v="kindergarten" />
		<tag k="capacity" v="43" />
		<tag k="contact:website" v="http://www.brg.barnehage.no" />
		<tag k="max_age" v="5" />
		<tag k="min_age" v="1" />
		<tag k="name" v="Berg barnehage" />
		<tag k="no-barnehage:nsrid" v="1019819" />
		<tag k="operator" v="Berg barnehage Sa" />
		<tag k="operator:type" v="private" />
	</node>
	<node id="-3585" lat="69.63095" lon="18.91528">
		<tag k="ADDRESS" v="Marielund 39, 9006 TROMSØ" />
		<tag k="amenity" v="kindergarten" />
		<tag k="capacity" v="27" />
		<tag k="contact:website" v="http://ameliahaugen.barnehage.no" />
		<tag k="max_age" v="5" />
		<tag k="min_age" v="1" />
		<tag k="name" v="Ameliahaugen barnehage" />
		<tag k="no-barnehage:nsrid" v="1020106" />
		<tag k="operator" v="Sørtromsøya Barnehage/ameliahaugen barnehage" />
		<tag k="operator:type" v="private" />
	</node>
</osm>
