<?xml version="1.0" encoding="UTF-8"?>
<osm generator="osmapis" version="0.6">
	<node id="-5792" lat="69.66308" lon="19.02563">
		<tag k="amenity" v="kindergarten" />
		<tag k="capacity" v="19" />
		<tag k="contact:email" v="odsja@online.no" />
		<tag k="max_age" v="5" />
		<tag k="min_age" v="1" />
		<tag k="name" v="Midnattsol Familiebarnehage" />
		<tag k="no-barnehage:nsrid" v="1021431" />
		<tag k="operator" v="Midnattsol Familiebarnehage" />
		<tag k="operator:type" v="private" />
		<tag k="start_date" v="2006-04-26" />
	</node>
	<node id="-5813" lat="69.69842" lon="18.88716">
		<tag k="amenity" v="kindergarten" />
		<tag k="capacity" v="10" />
		<tag k="contact:email" v="sestdahl@hotmail.com" />
		<tag k="contact:phone" v="+47 77 65 21 89" />
		<tag k="max_age" v="5" />
		<tag k="min_age" v="1" />
		<tag k="name" v="Solstua Familiebarnehage" />
		<tag k="no-barnehage:nsrid" v="1020324" />
		<tag k="operator" v="Stiftelsen Solstua Familiebarnehage" />
		<tag k="operator:type" v="private" />
		<tag k="start_date" v="2011-08-01" />
	</node>
	<node id="-5787" lat="69.68705" lon="18.83419">
		<tag k="amenity" v="kindergarten" />
		<tag k="capacity" v="14" />
		<tag k="contact:email" v="post@lekestua.no" />
		<tag k="contact:phone" v="+47 99167192" />
		<tag k="max_age" v="5" />
		<tag k="min_age" v="1" />
		<tag k="name" v="Lekestua Familiebarnehage AS" />
		<tag k="no-barnehage:nsrid" v="1021750" />
		<tag k="operator" v="Lekestua Familiebarnehage AS" />
		<tag k="operator:type" v="private" />
		<tag k="start_date" v="2004-03-01" />
	</node>
	<node id="-5749" lat="69.64758" lon="18.93334">
		<tag k="amenity" v="kindergarten" />
		<tag k="capacity" v="9" />
		<tag k="contact:email" v="havardhamnes1@hotmail.com" />
		<tag k="contact:phone" v="+47 95 13 85 03" />
		<tag k="max_age" v="5" />
		<tag k="min_age" v="1" />
		<tag k="name" v="Alfheim Familiebarnehage AS" />
		<tag k="no-barnehage:nsrid" v="1022194" />
		<tag k="operator" v="Alfheim Familiebarnehage AS" />
		<tag k="operator:type" v="private" />
		<tag k="start_date" v="2011-05-31" />
	</node>
	<node id="-5839" lat="69.64372" lon="19.0086">
		<tag k="amenity" v="kindergarten" />
		<tag k="capacity" v="24" />
		<tag k="contact:email" v="iselinabe@yahoo.no" />
		<tag k="contact:phone" v="+47 95 94 91 22" />
		<tag k="max_age" v="5" />
		<tag k="min_age" v="1" />
		<tag k="name" v="Virre Vapp Familiebarnehage AS" />
		<tag k="no-barnehage:nsrid" v="1022447" />
		<tag k="operator" v="Virre Vapp Familiebarnehage AS" />
		<tag k="operator:type" v="private" />
		<tag k="start_date" v="2010-06-01" />
	</node>
	<node id="-5837" lat="69.67188" lon="18.93296">
		<tag k="amenity" v="kindergarten" />
		<tag k="capacity" v="8" />
		<tag k="contact:email" v="anneskov@online.no" />
		<tag k="contact:phone" v="+47 77 61 26 02" />
		<tag k="max_age" v="2" />
		<tag k="min_age" v="1" />
		<tag k="name" v="Vestavinden Familiebarnehage Sa" />
		<tag k="no-barnehage:nsrid" v="1020116" />
		<tag k="operator" v="Vestavinden Familiebarnehage Sa" />
		<tag k="operator:type" v="private" />
		<tag k="start_date" v="1993-11-01" />
	</node>
	<node id="-5803" lat="69.7746" lon="18.81982">
		<tag k="amenity" v="kindergarten" />
		<tag k="capacity" v="21" />
		<tag k="contact:email" v="rodhettefamiliebarnehage@hotmail.com" />
		<tag k="contact:phone" v="+47 77 69 54 50" />
		<tag k="max_age" v="5" />
		<tag k="min_age" v="1" />
		<tag k="name" v="Rødhette AS" />
		<tag k="no-barnehage:nsrid" v="1020748" />
		<tag k="operator" v="Rødhette AS" />
		<tag k="operator:type" v="private" />
		<tag k="start_date" v="2001-10-15" />
	</node>
	<node id="-5767" lat="69.64841" lon="19.00094">
		<tag k="amenity" v="kindergarten" />
		<tag k="capacity" v="10" />
		<tag k="contact:email" v="katrinegulstad@hotmail.com" />
		<tag k="contact:phone" v="+47 950 25 765" />
		<tag k="contact:website" v="http://www.eventyroya.bhg.no" />
		<tag k="max_age" v="5" />
		<tag k="min_age" v="1" />
		<tag k="name" v="Eventyrøya Familiebarnehage Da" />
		<tag k="no-barnehage:nsrid" v="1020924" />
		<tag k="operator" v="Eventyrøya Familiebarnehage Da" />
		<tag k="operator:type" v="private" />
		<tag k="start_date" v="2003-05-21" />
	</node>
	<node id="-5761" lat="69.64346" lon="18.98919">
		<tag k="amenity" v="kindergarten" />
		<tag k="capacity" v="10" />
		<tag k="contact:email" v="Hamnes@live.com" />
		<tag k="max_age" v="5" />
		<tag k="min_age" v="1" />
		<tag k="name" v="Dalen Familiebarnehage Da" />
		<tag k="no-barnehage:nsrid" v="1022349" />
		<tag k="operator" v="Dalen Familiebarnehage Da" />
		<tag k="operator:type" v="private" />
		<tag k="start_date" v="2013-02-17" />
	</node>
	<node id="-5794" lat="69.64435" lon="19.00043">
		<tag k="amenity" v="kindergarten" />
		<tag k="capacity" v="9" />
		<tag k="contact:phone" v="+47 992 40 749" />
		<tag k="max_age" v="5" />
		<tag k="min_age" v="1" />
		<tag k="name" v="Myrveien Familiebarnehage AS" />
		<tag k="no-barnehage:nsrid" v="1022108" />
		<tag k="operator" v="Myrvegen Familiebarnehage AS" />
		<tag k="operator:type" v="private" />
		<tag k="start_date" v="2010-10-01" />
	</node>
	<node id="-5793" lat="69.68327" lon="18.94423">
		<tag k="amenity" v="kindergarten" />
		<tag k="capacity" v="8" />
		<tag k="contact:email" v="olaug.hanssen@live.no" />
		<tag k="contact:phone" v="+47 77 65 43 83" />
		<tag k="max_age" v="5" />
		<tag k="min_age" v="1" />
		<tag k="name" v="Mortensnes Familiebarnehage" />
		<tag k="no-barnehage:nsrid" v="1022266" />
		<tag k="operator" v="Mortensnes Familiebarnehage AS" />
		<tag k="operator:type" v="private" />
		<tag k="start_date" v="2005-07-27" />
	</node>
</osm>
