<?xml version="1.0" encoding="UTF-8"?>
<osm generator="osmapis" version="0.6">
	<node id="-5760" lat="69.70704" lon="18.98727">
		<tag k="amenity" v="kindergarten" />
		<tag k="capacity" v="55" />
		<tag k="contact:email" v="vibeke@bjornebekken.no" />
		<tag k="contact:phone" v="+47 77672660" />
		<tag k="max_age" v="5" />
		<tag k="min_age" v="1" />
		<tag k="name" v="Bjørnebekken barnehage Sa" />
		<tag k="no-barnehage:nsrid" v="1019823" />
		<tag k="operator" v="Bjørnebekken barnehage Sa" />
		<tag k="operator:type" v="private" />
		<tag k="start_date" v="1989-01-02" />
	</node>
	<node id="-5759" lat="69.63518" lon="18.92741">
		<tag k="amenity" v="kindergarten" />
		<tag k="capacity" v="24" />
		<tag k="contact:email" v="post@bjerkakerbarnehage.no" />
		<tag k="contact:phone" v="+47 77 65 57 88" />
		<tag k="contact:website" v="http://www.bjerkakerbarnehage.no" />
		<tag k="max_age" v="5" />
		<tag k="min_age" v="1" />
		<tag k="name" v="Bjerkaker barnehage Sa" />
		<tag k="no-barnehage:nsrid" v="1019502" />
		<tag k="operator" v="Bjerkaker barnehage Sa" />
		<tag k="operator:type" v="private" />
		<tag k="start_date" v="1976-12-24" />
	</node>
	<node id="-5758" lat="69.55972" lon="18.9567">
		<tag k="amenity" v="kindergarten" />
		<tag k="capacity" v="45" />
		<tag k="contact:email" v="post@bergbarnehage.no" />
		<tag k="contact:phone" v="+47 77 69 43 60" />
		<tag k="contact:website" v="http://www.brg.barnehage.no" />
		<tag k="max_age" v="5" />
		<tag k="min_age" v="1" />
		<tag k="name" v="Berg barnehage Sa" />
		<tag k="no-barnehage:nsrid" v="1019819" />
		<tag k="operator" v="Berg barnehage Sa" />
		<tag k="operator:type" v="private" />
		<tag k="start_date" v="1989-01-01" />
	</node>
	<node id="-5757" lat="69.65392" lon="18.91259">
		<tag k="amenity" v="kindergarten" />
		<tag k="capacity" v="43" />
		<tag k="contact:email" v="post@barnehagenhundre.no" />
		<tag k="contact:phone" v="+47 77 68 44 27" />
		<tag k="contact:website" v="http://www.barnehagenhundre.no" />
		<tag k="max_age" v="5" />
		<tag k="min_age" v="1" />
		<tag k="name" v="Barnehagen Hundre Sa" />
		<tag k="no-barnehage:nsrid" v="1022324" />
		<tag k="operator" v="Barnehagen Hundre Sa" />
		<tag k="operator:type" v="private" />
		<tag k="start_date" v="1978-09-04" />
	</node>
	<node id="-5756" lat="69.6318" lon="18.91739">
		<tag k="amenity" v="kindergarten" />
		<tag k="capacity" v="19" />
		<tag k="contact:email" v="bamsestua@gmail.com" />
		<tag k="contact:phone" v="+47 77 61 81 00" />
		<tag k="max_age" v="5" />
		<tag k="min_age" v="1" />
		<tag k="name" v="Bamsestua barnehage Sa" />
		<tag k="no-barnehage:nsrid" v="1020358" />
		<tag k="operator" v="Bamsestua barnehage Sa" />
		<tag k="operator:type" v="private" />
		<tag k="start_date" v="1996-09-28" />
	</node>
	<node id="-5755" lat="69.63095" lon="18.91528">
		<tag k="amenity" v="kindergarten" />
		<tag k="capacity" v="29" />
		<tag k="contact:email" v="ameliahaugen@barnehage.no" />
		<tag k="contact:phone" v="+47 77686460" />
		<tag k="contact:website" v="http://ameliahaugen.barnehage.no" />
		<tag k="max_age" v="5" />
		<tag k="min_age" v="1" />
		<tag k="name" v="Ameliahaugen" />
		<tag k="no-barnehage:nsrid" v="1020106" />
		<tag k="operator" v="Sørtromsøya Barnehage/ameliahaugen barnehage" />
		<tag k="operator:type" v="private" />
		<tag k="start_date" v="1992-01-01" />
	</node>
	<node id="-5847" lat="69.7746" lon="18.81982">
		<tag k="amenity" v="kindergarten" />
		<tag k="capacity" v="32" />
		<tag k="contact:email" v="til.benita@gmail.com" />
		<tag k="contact:phone" v="+47 77 69 55 55" />
		<tag k="contact:website" v="http://www.asland.barnehage.no" />
		<tag k="max_age" v="5" />
		<tag k="min_age" v="1" />
		<tag k="name" v="Åsland barnehage Sa" />
		<tag k="no-barnehage:nsrid" v="1019756" />
		<tag k="operator" v="Åsland barnehage Sa" />
		<tag k="operator:type" v="private" />
		<tag k="start_date" v="1989-01-02" />
	</node>
	<node id="-5846" lat="69.6964" lon="18.9953">
		<tag k="amenity" v="kindergarten" />
		<tag k="contact:email" v="britt.margareth.simonsen@tromso.kommune.no" />
		<tag k="name" v="Åpen barnehage Stakkevollan" />
		<tag k="no-barnehage:nsrid" v="1014135" />
		<tag k="operator" v="Tromsø kommune" />
		<tag k="operator:type" v="public" />
		<tag k="start_date" v="2010-09-01" />
	</node>
	<node id="-5845" lat="69.6673" lon="18.9299">
		<tag k="amenity" v="kindergarten" />
		<tag k="capacity" v="55" />
		<tag k="contact:email" v="ashild.johannesen@tromso.kommune.no" />
		<tag k="contact:phone" v="+47 77790980" />
		<tag k="max_age" v="5" />
		<tag k="min_age" v="1" />
		<tag k="name" v="Workinnmarka barnehage" />
		<tag k="no-barnehage:nsrid" v="1017020" />
		<tag k="operator" v="Tromsø kommune" />
		<tag k="operator:type" v="public" />
		<tag k="start_date" v="2006-01-01" />
	</node>
	<node id="-5843" lat="69.5429" lon="18.771">
		<tag k="amenity" v="kindergarten" />
		<tag k="capacity" v="12" />
		<tag k="contact:email" v="tove.strand.bakke@tromso.kommune.no" />
		<tag k="contact:phone" v="+47 77694678" />
		<tag k="max_age" v="5" />
		<tag k="min_age" v="1" />
		<tag k="name" v="Vikran barnehage" />
		<tag k="no-barnehage:nsrid" v="1015953" />
		<tag k="operator" v="Tromsø kommune" />
		<tag k="operator:type" v="public" />
		<tag k="start_date" v="1990-08-01" />
	</node>
	<node id="-5841" lat="69.841" lon="18.5153">
		<tag k="amenity" v="kindergarten" />
		<tag k="capacity" v="4" />
		<tag k="contact:email" v="anne.grete.simonsen@tromso.kommune.no" />
		<tag k="max_age" v="5" />
		<tag k="min_age" v="1" />
		<tag k="name" v="Vengsøy barnehage" />
		<tag k="no-barnehage:nsrid" v="1018535" />
		<tag k="operator" v="Tromsø kommune" />
		<tag k="operator:type" v="public" />
		<tag k="start_date" v="2006-01-01" />
	</node>
	<node id="-5840" lat="69.694" lon="18.9927">
		<tag k="amenity" v="kindergarten" />
		<tag k="capacity" v="26" />
		<tag k="contact:email" v="varden.barnehage@tromso.kommune.no" />
		<tag k="contact:phone" v="+47 90893654" />
		<tag k="max_age" v="5" />
		<tag k="min_age" v="1" />
		<tag k="name" v="Varden barnehage" />
		<tag k="no-barnehage:nsrid" v="1015581" />
		<tag k="operator" v="Tromsø kommune" />
		<tag k="operator:type" v="public" />
		<tag k="start_date" v="1997-09-01" />
	</node>
	<node id="-5839" lat="69.69439" lon="19.00269">
		<tag k="amenity" v="kindergarten" />
		<tag k="capacity" v="14" />
		<tag k="contact:email" v="post@ubh.no" />
		<tag k="contact:phone" v="+47 77 67 29 03" />
		<tag k="contact:website" v="http://utsikten.tromso.barnehage.no" />
		<tag k="max_age" v="5" />
		<tag k="min_age" v="1" />
		<tag k="name" v="Utsikten barnehage Sa" />
		<tag k="no-barnehage:nsrid" v="1019757" />
		<tag k="operator" v="Utsikten barnehage Sa" />
		<tag k="operator:type" v="private" />
		<tag k="start_date" v="1989-01-02" />
	</node>
	<node id="-5838" lat="69.6847" lon="18.969">
		<tag k="amenity" v="kindergarten" />
		<tag k="capacity" v="85" />
		<tag k="contact:email" v="liz.iversen@samskipnaden.no" />
		<tag k="contact:phone" v="+47 77 64 90 90" />
		<tag k="max_age" v="5" />
		<tag k="min_age" v="1" />
		<tag k="name" v="Universet Studentbarnehage" />
		<tag k="no-barnehage:nsrid" v="1017192" />
		<tag k="operator" v="Norges Arktiske Studentsamskipnad" />
		<tag k="operator:type" v="private" />
		<tag k="start_date" v="2006-06-01" />
	</node>
	<node id="-5837" lat="69.6924" lon="18.8673">
		<tag k="amenity" v="kindergarten" />
		<tag k="capacity" v="82" />
		<tag k="contact:email" v="Trine.Kielland@tusseladden.com" />
		<tag k="contact:phone" v="+47 77 75 30 20" />
		<tag k="contact:website" v="http://tusseladden.com" />
		<tag k="max_age" v="5" />
		<tag k="min_age" v="1" />
		<tag k="name" v="Tusseladden Friluftsbarnehage" />
		<tag k="no-barnehage:nsrid" v="1015553" />
		<tag k="operator" v="Tusseladden Friluftsbarnehage Sa" />
		<tag k="operator:type" v="private" />
		<tag k="start_date" v="1982-01-01" />
	</node>
	<node id="-5836" lat="69.8019" lon="18.7673">
		<tag k="amenity" v="kindergarten" />
		<tag k="capacity" v="16" />
		<tag k="contact:email" v="anne.grete.simonsen@tromso.kommune.no" />
		<tag k="max_age" v="5" />
		<tag k="min_age" v="1" />
		<tag k="name" v="Trondjord barnehage" />
		<tag k="no-barnehage:nsrid" v="1012721" />
		<tag k="operator" v="Tromsø kommune" />
		<tag k="operator:type" v="public" />
		<tag k="start_date" v="1989-01-01" />
	</node>
	<node id="-5835" lat="69.7774" lon="18.3989">
		<tag k="amenity" v="kindergarten" />
		<tag k="capacity" v="4" />
		<tag k="contact:email" v="hans.kristian.ostring@tromso.kommune.no" />
		<tag k="max_age" v="5" />
		<tag k="min_age" v="1" />
		<tag k="name" v="Tromvik barnehage" />
		<tag k="no-barnehage:nsrid" v="1013533" />
		<tag k="operator" v="Tromsø kommune" />
		<tag k="operator:type" v="public" />
		<tag k="start_date" v="2012-02-01" />
	</node>
	<node id="-5834" lat="69.6509" lon="19.0156">
		<tag k="amenity" v="kindergarten" />
		<tag k="capacity" v="42" />
		<tag k="contact:email" v="annalena.pedersen@tromso.kommune.no" />
		<tag k="max_age" v="5" />
		<tag k="min_age" v="1" />
		<tag k="name" v="Tromstun barnehage" />
		<tag k="no-barnehage:nsrid" v="1013864" />
		<tag k="operator" v="Tromsø kommune" />
		<tag k="operator:type" v="public" />
		<tag k="start_date" v="1989-01-02" />
	</node>
	<node id="-5833" lat="69.647" lon="18.9987">
		<tag k="amenity" v="kindergarten" />
		<tag k="capacity" v="53" />
		<tag k="contact:email" v="annalena.pedersen@tromso.kommune.no" />
		<tag k="max_age" v="5" />
		<tag k="min_age" v="1" />
		<tag k="name" v="Tromsdalen barnehage" />
		<tag k="no-barnehage:nsrid" v="1012717" />
		<tag k="operator" v="Tromsø kommune" />
		<tag k="operator:type" v="public" />
		<tag k="start_date" v="1989-01-01" />
	</node>
	<node id="-5832" lat="69.6514" lon="18.9426">
		<tag k="amenity" v="kindergarten" />
		<tag k="capacity" v="27" />
		<tag k="contact:email" v="trollbakken.barnehage@tromso.kommune.no" />
		<tag k="contact:phone" v="+47 95168905" />
		<tag k="max_age" v="5" />
		<tag k="min_age" v="1" />
		<tag k="name" v="Trollbakken barnehage" />
		<tag k="no-barnehage:nsrid" v="1025357" />
		<tag k="operator" v="Tromsø kommune" />
		<tag k="operator:type" v="public" />
		<tag k="start_date" v="1976-01-01" />
	</node>
	<node id="-5831" lat="69.667" lon="19.022">
		<tag k="amenity" v="kindergarten" />
		<tag k="capacity" v="54" />
		<tag k="contact:email" v="gorill.nilsen@tromso.kommune.no" />
		<tag k="max_age" v="5" />
		<tag k="min_age" v="1" />
		<tag k="name" v="Tomasjordneset barnehage" />
		<tag k="no-barnehage:nsrid" v="1018512" />
		<tag k="operator" v="Tromsø kommune" />
		<tag k="operator:type" v="public" />
		<tag k="start_date" v="2008-11-10" />
	</node>
	<node id="-5830" lat="69.69772" lon="18.97537">
		<tag k="amenity" v="kindergarten" />
		<tag k="capacity" v="51" />
		<tag k="contact:email" v="tof-b@online.no" />
		<tag k="contact:phone" v="+47 77 67 68 88" />
		<tag k="max_age" v="5" />
		<tag k="min_age" v="1" />
		<tag k="name" v="Toftveien barnehage Sa" />
		<tag k="no-barnehage:nsrid" v="1020105" />
		<tag k="operator" v="Toftveien barnehage Sa" />
		<tag k="operator:type" v="private" />
		<tag k="start_date" v="1991-06-17" />
	</node>
	<node id="-5829" lat="69.6786" lon="18.9603">
		<tag k="amenity" v="kindergarten" />
		<tag k="capacity" v="71" />
		<tag k="contact:email" v="mona.barosen@tromso.kommune.no" />
		<tag k="max_age" v="5" />
		<tag k="min_age" v="1" />
		<tag k="name" v="Templarheimen barnehage" />
		<tag k="no-barnehage:nsrid" v="1017060" />
		<tag k="operator" v="Tromsø kommune" />
		<tag k="operator:type" v="public" />
		<tag k="start_date" v="2005-12-15" />
	</node>
	<node id="-5828" lat="69.5717" lon="18.6534">
		<tag k="amenity" v="kindergarten" />
		<tag k="capacity" v="21" />
		<tag k="contact:email" v="marit.vollstad@tromso.kommune.no" />
		<tag k="max_age" v="5" />
		<tag k="min_age" v="1" />
		<tag k="name" v="Straumsbukta barnehage" />
		<tag k="no-barnehage:nsrid" v="1016518" />
		<tag k="operator" v="Tromsø kommune" />
		<tag k="operator:type" v="public" />
		<tag k="start_date" v="2003-01-01" />
	</node>
	<node id="-5827" lat="69.63969" lon="18.93895">
		<tag k="amenity" v="kindergarten" />
		<tag k="capacity" v="54" />
		<tag k="contact:email" v="dl.strandkanten@bhg.no" />
		<tag k="max_age" v="5" />
		<tag k="min_age" v="1" />
		<tag k="name" v="Strandkanten Fus barnehage AS" />
		<tag k="no-barnehage:nsrid" v="1022184" />
		<tag k="operator" v="Strandkanten Fus barnehage AS" />
		<tag k="operator:type" v="private" />
		<tag k="start_date" v="2012-01-01" />
	</node>
	<node id="-5826" lat="69.6879" lon="18.7945">
		<tag k="amenity" v="kindergarten" />
		<tag k="capacity" v="72" />
		<tag k="contact:email" v="hans.julius.nilsen@tromso.kommune.no" />
		<tag k="max_age" v="5" />
		<tag k="min_age" v="1" />
		<tag k="name" v="Storvollen barnehage" />
		<tag k="no-barnehage:nsrid" v="1017057" />
		<tag k="operator" v="Tromsø kommune" />
		<tag k="operator:type" v="public" />
		<tag k="start_date" v="2005-12-15" />
	</node>
	<node id="-5825" lat="69.6637" lon="18.9529">
		<tag k="amenity" v="kindergarten" />
		<tag k="capacity" v="46" />
		<tag k="contact:email" v="hilde.kanestrom@samskipnaden.no" />
		<tag k="max_age" v="5" />
		<tag k="min_age" v="1" />
		<tag k="name" v="Storskogåsen Studentbarnehage" />
		<tag k="no-barnehage:nsrid" v="1016822" />
		<tag k="operator" v="Norges Arktiske Studentsamskipnad" />
		<tag k="operator:type" v="private" />
		<tag k="start_date" v="1989-01-02" />
	</node>
	<node id="-5824" lat="69.63745" lon="18.97361">
		<tag k="amenity" v="kindergarten" />
		<tag k="capacity" v="30" />
		<tag k="contact:email" v="thskoglu@online.no" />
		<tag k="contact:phone" v="+47 77 68 18 26" />
		<tag k="max_age" v="5" />
		<tag k="min_age" v="1" />
		<tag k="name" v="Stiftelsen Kanutten Barnehage, Tromsø" />
		<tag k="no-barnehage:nsrid" v="1020460" />
		<tag k="operator" v="Stiftelsen Kanutten Barnehage, Tromsø" />
		<tag k="operator:type" v="private" />
		<tag k="start_date" v="1992-01-01" />
	</node>
	<node id="-5823" lat="69.64246" lon="18.93084">
		<tag k="amenity" v="kindergarten" />
		<tag k="capacity" v="16" />
		<tag k="contact:email" v="styrer@steinerbarnehagentromso.no" />
		<tag k="contact:phone" v="+47 776 82561" />
		<tag k="contact:website" v="http://steinerbarnehagentromso.no" />
		<tag k="max_age" v="5" />
		<tag k="min_age" v="1" />
		<tag k="name" v="Steinerbarnehagen Tromsø" />
		<tag k="no-barnehage:nsrid" v="1019765" />
		<tag k="operator" v="Stiftelsen R Steiner barnehage i Tromsø" />
		<tag k="operator:type" v="private" />
		<tag k="start_date" v="1989-01-02" />
	</node>
	<node id="-5822" lat="69.67842" lon="19.05801">
		<tag k="amenity" v="kindergarten" />
		<tag k="capacity" v="60" />
		<tag k="contact:email" v="aslak@steinbergetbarnehage.no" />
		<tag k="contact:phone" v="+47 77 63 30 15" />
		<tag k="contact:website" v="http://www.steinbergetbarnehage.no" />
		<tag k="max_age" v="5" />
		<tag k="min_age" v="1" />
		<tag k="name" v="Steinberget barnehage Sa" />
		<tag k="no-barnehage:nsrid" v="1020175" />
		<tag k="operator" v="Steinberget barnehage Sa" />
		<tag k="operator:type" v="private" />
		<tag k="start_date" v="1994-09-01" />
	</node>
	<node id="-5821" lat="69.6988" lon="19.0147">
		<tag k="amenity" v="kindergarten" />
		<tag k="capacity" v="53" />
		<tag k="contact:email" v="stakkevollan.barnehage@tromso.kommune.no" />
		<tag k="contact:phone" v="+47 90923547" />
		<tag k="max_age" v="5" />
		<tag k="min_age" v="1" />
		<tag k="name" v="Stakkevollan barnehage" />
		<tag k="no-barnehage:nsrid" v="1012719" />
		<tag k="operator" v="Tromsø kommune" />
		<tag k="operator:type" v="public" />
		<tag k="start_date" v="1989-01-01" />
	</node>
	<node id="-5820" lat="69.6391" lon="18.9055">
		<tag k="amenity" v="kindergarten" />
		<tag k="capacity" v="87" />
		<tag k="contact:email" v="monica.bjornsborg@tromso.kommune.no" />
		<tag k="max_age" v="5" />
		<tag k="min_age" v="1" />
		<tag k="name" v="Sorgenfri barnehage" />
		<tag k="no-barnehage:nsrid" v="1017019" />
		<tag k="operator" v="Tromsø kommune" />
		<tag k="operator:type" v="public" />
		<tag k="start_date" v="2005-11-15" />
	</node>
	<node id="-5819" lat="69.6378" lon="18.9154">
		<tag k="amenity" v="kindergarten" />
		<tag k="capacity" v="65" />
		<tag k="contact:email" v="monica.bjornsborg@tromso.kommune.no" />
		<tag k="contact:phone" v="+47 77 79 07 95" />
		<tag k="max_age" v="5" />
		<tag k="min_age" v="1" />
		<tag k="name" v="Sommereng barnehage" />
		<tag k="no-barnehage:nsrid" v="1017061" />
		<tag k="operator" v="Tromsø kommune" />
		<tag k="operator:type" v="public" />
		<tag k="start_date" v="2005-12-15" />
	</node>
	<node id="-5817" lat="69.6961" lon="18.9547">
		<tag k="amenity" v="kindergarten" />
		<tag k="capacity" v="68" />
		<tag k="contact:email" v="tina.berntsen.hole@tromso.kommune.no" />
		<tag k="max_age" v="5" />
		<tag k="min_age" v="1" />
		<tag k="name" v="Solneset barnehage" />
		<tag k="no-barnehage:nsrid" v="1018441" />
		<tag k="operator" v="Tromsø kommune" />
		<tag k="operator:type" v="public" />
		<tag k="start_date" v="2008-08-01" />
	</node>
	<node id="-5816" lat="69.69774" lon="19.0064">
		<tag k="amenity" v="kindergarten" />
		<tag k="capacity" v="54" />
		<tag k="contact:email" v="soldagen@barnehage.no" />
		<tag k="contact:phone" v="+47 77 61 11 40" />
		<tag k="contact:website" v="http://www.soldagen.barnehage.no" />
		<tag k="max_age" v="5" />
		<tag k="min_age" v="1" />
		<tag k="name" v="Soldagen barnehage AS" />
		<tag k="no-barnehage:nsrid" v="1020026" />
		<tag k="operator" v="Soldagen barnehage AS" />
		<tag k="operator:type" v="private" />
		<tag k="start_date" v="1991-04-18" />
	</node>
	<node id="-5815" lat="69.7" lon="18.89">
		<tag k="amenity" v="kindergarten" />
		<tag k="capacity" v="52" />
		<tag k="contact:email" v="hans.julius.nilsen@tromso.kommune.no" />
		<tag k="max_age" v="5" />
		<tag k="min_age" v="1" />
		<tag k="name" v="Slettaelva barnehage" />
		<tag k="no-barnehage:nsrid" v="1012725" />
		<tag k="operator" v="Tromsø kommune" />
		<tag k="operator:type" v="public" />
		<tag k="start_date" v="1989-01-02" />
	</node>
	<node id="-5814" lat="69.63565" lon="18.92414">
		<tag k="amenity" v="kindergarten" />
		<tag k="capacity" v="29" />
		<tag k="contact:email" v="skogstua@online.no" />
		<tag k="contact:phone" v="+47 91144045" />
		<tag k="max_age" v="5" />
		<tag k="min_age" v="1" />
		<tag k="name" v="Skogstua barnehage Sa" />
		<tag k="no-barnehage:nsrid" v="1019988" />
		<tag k="operator" v="Skogstua barnehage Sa" />
		<tag k="operator:type" v="private" />
		<tag k="start_date" v="1991-01-01" />
	</node>
	<node id="-5813" lat="69.691" lon="19.0786">
		<tag k="amenity" v="kindergarten" />
		<tag k="capacity" v="55" />
		<tag k="contact:email" v="gorill.nilsen@tromso.kommune.no" />
		<tag k="max_age" v="5" />
		<tag k="min_age" v="1" />
		<tag k="name" v="Skjelnan barnehage" />
		<tag k="no-barnehage:nsrid" v="1012724" />
		<tag k="operator" v="Tromsø kommune" />
		<tag k="operator:type" v="public" />
		<tag k="start_date" v="1989-01-02" />
	</node>
	<node id="-5812" lat="69.68378" lon="19.07674">
		<tag k="amenity" v="kindergarten" />
		<tag k="capacity" v="14" />
		<tag k="contact:email" v="thomas.r.smith@tromso.kommune.no" />
		<tag k="contact:phone" v="+47 77 60 65 70" />
		<tag k="contact:website" v="http://www.skittenelv.tromsoskolen.no" />
		<tag k="max_age" v="5" />
		<tag k="min_age" v="1" />
		<tag k="name" v="Skittenelv barnehage" />
		<tag k="no-barnehage:nsrid" v="1016972" />
		<tag k="operator" v="Tromsø kommune" />
		<tag k="operator:type" v="public" />
		<tag k="start_date" v="2005-01-01" />
	</node>
	<node id="-5811" lat="69.6824" lon="18.9408">
		<tag k="amenity" v="kindergarten" />
		<tag k="capacity" v="53" />
		<tag k="contact:email" v="rita.theodorsen@tromso.kommune.no" />
		<tag k="max_age" v="5" />
		<tag k="min_age" v="1" />
		<tag k="name" v="Sjømannsbyen barnehage" />
		<tag k="no-barnehage:nsrid" v="1013421" />
		<tag k="operator" v="Tromsø kommune" />
		<tag k="operator:type" v="public" />
		<tag k="start_date" v="2007-08-01" />
	</node>
	<node id="-5810" lat="69.5367" lon="19.6304">
		<tag k="amenity" v="kindergarten" />
		<tag k="capacity" v="4" />
		<tag k="contact:email" v="Stein.are.nostvik@tromso.kommune.no" />
		<tag k="max_age" v="5" />
		<tag k="min_age" v="3" />
		<tag k="name" v="Sjursnes barnehage" />
		<tag k="no-barnehage:nsrid" v="1016154" />
		<tag k="operator" v="Tromsø kommune" />
		<tag k="operator:type" v="public" />
		<tag k="start_date" v="1990-01-01" />
	</node>
	<node id="-5809" lat="69.6612" lon="18.9373">
		<tag k="amenity" v="kindergarten" />
		<tag k="capacity" v="34" />
		<tag k="contact:email" v="wenche.nergard@tromso.kommune.no" />
		<tag k="max_age" v="5" />
		<tag k="min_age" v="1" />
		<tag k="name" v="Samisk barnehage" />
		<tag k="no-barnehage:nsrid" v="1012723" />
		<tag k="operator" v="Tromsø kommune" />
		<tag k="operator:type" v="public" />
		<tag k="start_date" v="1989-01-01" />
	</node>
	<node id="-5807" lat="69.6345" lon="18.9629">
		<tag k="amenity" v="kindergarten" />
		<tag k="capacity" v="86" />
		<tag k="contact:email" v="annalena.pedersen@tromso.kommune.no" />
		<tag k="contact:phone" v="+47 77 60 67 10" />
		<tag k="contact:website" v="http://www.tromso.kommune.no/index.db2?id=9064" />
		<tag k="max_age" v="5" />
		<tag k="min_age" v="1" />
		<tag k="name" v="Reinen barnehage" />
		<tag k="no-barnehage:nsrid" v="1013227" />
		<tag k="operator" v="Tromsø kommune" />
		<tag k="operator:type" v="public" />
		<tag k="start_date" v="2004-11-22" />
	</node>
	<node id="-5806" lat="69.6566" lon="18.9275">
		<tag k="amenity" v="kindergarten" />
		<tag k="capacity" v="81" />
		<tag k="contact:email" v="Heidi.A.Bjerkas@samskipnaden.no" />
		<tag k="max_age" v="5" />
		<tag k="min_age" v="1" />
		<tag k="name" v="Prestvannet Studentbarnehage" />
		<tag k="no-barnehage:nsrid" v="1016786" />
		<tag k="operator" v="Norges Arktiske Studentsamskipnad" />
		<tag k="operator:type" v="private" />
		<tag k="start_date" v="1978-11-20" />
	</node>
	<node id="-5805" lat="69.6858" lon="18.9421">
		<tag k="amenity" v="kindergarten" />
		<tag k="capacity" v="76" />
		<tag k="contact:email" v="polarreven.barnehage@norlandiabarnehagene.no" />
		<tag k="max_age" v="5" />
		<tag k="min_age" v="1" />
		<tag k="name" v="Polarreven barnehage" />
		<tag k="no-barnehage:nsrid" v="1015661" />
		<tag k="operator" v="Norlandia Barnehagene AS" />
		<tag k="operator:type" v="private" />
		<tag k="start_date" v="1998-04-22" />
	</node>
	<node id="-5804" lat="69.6854" lon="18.8075">
		<tag k="amenity" v="kindergarten" />
		<tag k="capacity" v="132" />
		<tag k="contact:email" v="polarmasen.barnehage@norlandiabarnehagene.no" />
		<tag k="max_age" v="5" />
		<tag k="min_age" v="1" />
		<tag k="name" v="Polarmåsen barnehage" />
		<tag k="no-barnehage:nsrid" v="1015660" />
		<tag k="operator" v="Norlandia Barnehagene AS" />
		<tag k="operator:type" v="private" />
		<tag k="start_date" v="1998-03-19" />
	</node>
	<node id="-5803" lat="69.67899" lon="18.93511">
		<tag k="amenity" v="kindergarten" />
		<tag k="capacity" v="31" />
		<tag k="contact:email" v="polarhag@online.no" />
		<tag k="contact:phone" v="+47 77 67 04 90" />
		<tag k="contact:website" v="http://www.polarhagen.barnehage.no" />
		<tag k="max_age" v="5" />
		<tag k="min_age" v="1" />
		<tag k="name" v="Polarhagen barnehage" />
		<tag k="no-barnehage:nsrid" v="1019665" />
		<tag k="operator" v="Polarhagen AS" />
		<tag k="operator:type" v="private" />
		<tag k="start_date" v="1988-04-01" />
	</node>
	<node id="-5802" lat="69.6726" lon="18.9368">
		<tag k="amenity" v="kindergarten" />
		<tag k="capacity" v="49" />
		<tag k="contact:email" v="wenche.wilhelmsen@tromso.kommune.no" />
		<tag k="max_age" v="5" />
		<tag k="min_age" v="1" />
		<tag k="name" v="Olsgård barnehage" />
		<tag k="no-barnehage:nsrid" v="1012726" />
		<tag k="operator" v="Tromsø kommune" />
		<tag k="operator:type" v="public" />
		<tag k="start_date" v="1990-01-01" />
	</node>
	<node id="-5801" lat="69.66318" lon="18.91825">
		<tag k="amenity" v="kindergarten" />
		<tag k="capacity" v="62" />
		<tag k="contact:email" v="norronab@online.no" />
		<tag k="contact:phone" v="+47 77 69 10 30" />
		<tag k="max_age" v="5" />
		<tag k="min_age" v="1" />
		<tag k="name" v="Norrøna barnehage AS" />
		<tag k="no-barnehage:nsrid" v="1019658" />
		<tag k="operator" v="As Norrøna barnehage" />
		<tag k="operator:type" v="private" />
		<tag k="start_date" v="1988-01-01" />
	</node>
	<node id="-5800" lat="69.6384" lon="18.9136">
		<tag k="amenity" v="kindergarten" />
		<tag k="capacity" v="21" />
		<tag k="contact:email" v="monica.bjornsborg@tromso.kommune.no" />
		<tag k="max_age" v="5" />
		<tag k="min_age" v="1" />
		<tag k="name" v="Nansenvegen barnehage" />
		<tag k="no-barnehage:nsrid" v="1016153" />
		<tag k="operator" v="Tromsø kommune" />
		<tag k="operator:type" v="public" />
		<tag k="start_date" v="1989-01-02" />
	</node>
	<node id="-5796" lat="69.65334" lon="19.01595">
		<tag k="amenity" v="kindergarten" />
		<tag k="capacity" v="103" />
		<tag k="contact:email" v="marsvegen.barnehage@norlandiabanrehagene.no" />
		<tag k="max_age" v="5" />
		<tag k="min_age" v="1" />
		<tag k="name" v="Marsveien barnehage" />
		<tag k="no-barnehage:nsrid" v="1025452" />
		<tag k="operator" v="Norlandia Barnehagene AS" />
		<tag k="operator:type" v="private" />
		<tag k="start_date" v="2014-06-01" />
	</node>
	<node id="-5795" lat="69.64632" lon="18.94136">
		<tag k="amenity" v="kindergarten" />
		<tag k="capacity" v="76" />
		<tag k="contact:email" v="haugenstykket@laringsverkstedet.no" />
		<tag k="max_age" v="5" />
		<tag k="min_age" v="1" />
		<tag k="name" v="Læringsverkstedet barnehage Avd Haugenstykket" />
		<tag k="no-barnehage:nsrid" v="1025451" />
		<tag k="operator" v="Læringsverkstedet AS" />
		<tag k="operator:type" v="private" />
		<tag k="start_date" v="2014-08-01" />
	</node>
	<node id="-5794" lat="69.56441" lon="19.18424">
		<tag k="amenity" v="kindergarten" />
		<tag k="capacity" v="62" />
		<tag k="contact:email" v="fagertun@laringsverkstedet.no" />
		<tag k="contact:phone" v="+47 77 69 22 10" />
		<tag k="contact:website" v="http://www.fagertunbarnehage.no" />
		<tag k="max_age" v="5" />
		<tag k="min_age" v="1" />
		<tag k="name" v="Læringsverkstedet barnehage Avd Fagertun" />
		<tag k="no-barnehage:nsrid" v="1020487" />
		<tag k="operator" v="Læringsverkstedet AS" />
		<tag k="operator:type" v="private" />
		<tag k="start_date" v="1997-09-01" />
	</node>
	<node id="-5793" lat="69.6707" lon="19.0409">
		<tag k="amenity" v="kindergarten" />
		<tag k="capacity" v="54" />
		<tag k="contact:email" v="gorill.nilsen@tromso.kommune.no" />
		<tag k="max_age" v="5" />
		<tag k="min_age" v="1" />
		<tag k="name" v="Lunheim barnehage" />
		<tag k="no-barnehage:nsrid" v="1012718" />
		<tag k="operator" v="Tromsø kommune" />
		<tag k="operator:type" v="public" />
		<tag k="start_date" v="1989-01-01" />
	</node>
	<node id="-5791" lat="69.6648" lon="18.9175">
		<tag k="amenity" v="kindergarten" />
		<tag k="contact:email" v="britt.margareth.simonsen@tromso.kommune.no" />
		<tag k="name" v="Langnes Åpen barnehage" />
		<tag k="no-barnehage:nsrid" v="1015093" />
		<tag k="operator" v="Tromsø kommune" />
		<tag k="operator:type" v="public" />
		<tag k="start_date" v="2012-03-21" />
	</node>
	<node id="-5790" lat="69.4332" lon="19.6472">
		<tag k="amenity" v="kindergarten" />
		<tag k="capacity" v="11" />
		<tag k="contact:email" v="walborg.fossan@tromso.kommune.no" />
		<tag k="max_age" v="5" />
		<tag k="min_age" v="1" />
		<tag k="name" v="Lakselvbukt barnehage" />
		<tag k="no-barnehage:nsrid" v="1012720" />
		<tag k="operator" v="Tromsø kommune" />
		<tag k="operator:type" v="public" />
		<tag k="start_date" v="1989-01-01" />
	</node>
	<node id="-5789" lat="69.702" lon="18.9769">
		<tag k="amenity" v="kindergarten" />
		<tag k="capacity" v="75" />
		<tag k="contact:email" v="kvitungen.barnehage@norlandiabarnehagene.no" />
		<tag k="contact:phone" v="+47 77678353" />
		<tag k="max_age" v="5" />
		<tag k="min_age" v="1" />
		<tag k="name" v="Kvitungen barnehage" />
		<tag k="no-barnehage:nsrid" v="1015977" />
		<tag k="operator" v="Norlandia Barnehagene AS" />
		<tag k="operator:type" v="private" />
		<tag k="start_date" v="1993-08-02" />
	</node>
	<node id="-5788" lat="69.63795" lon="18.92075">
		<tag k="amenity" v="kindergarten" />
		<tag k="capacity" v="55" />
		<tag k="contact:email" v="tonelill@kveldrovegen.no" />
		<tag k="contact:phone" v="+47 77 61 82 22" />
		<tag k="contact:website" v="http://www.kveldrovegen.barnehage.no" />
		<tag k="max_age" v="5" />
		<tag k="min_age" v="1" />
		<tag k="name" v="Kveldrovegen barnehage Sa" />
		<tag k="no-barnehage:nsrid" v="1020453" />
		<tag k="operator" v="Kveldrovegen barnehage Sa" />
		<tag k="operator:type" v="private" />
		<tag k="start_date" v="1991-01-01" />
	</node>
	<node id="-5787" lat="69.6577" lon="18.9577">
		<tag k="amenity" v="kindergarten" />
		<tag k="capacity" v="95" />
		<tag k="contact:email" v="kvamstykket.barnehage@tromso.kommune.no" />
		<tag k="contact:phone" v="+47 47453397" />
		<tag k="max_age" v="5" />
		<tag k="min_age" v="1" />
		<tag k="name" v="Kvamstykket barnehage" />
		<tag k="no-barnehage:nsrid" v="1012716" />
		<tag k="operator" v="Tromsø kommune" />
		<tag k="operator:type" v="public" />
		<tag k="start_date" v="1971-12-29" />
	</node>
	<node id="-5786" lat="69.6893" lon="18.8508">
		<tag k="amenity" v="kindergarten" />
		<tag k="capacity" v="50" />
		<tag k="contact:email" v="hans.julius.nilsen@tromso.kommune.no" />
		<tag k="max_age" v="5" />
		<tag k="min_age" v="1" />
		<tag k="name" v="Kvaløysletta barnehage" />
		<tag k="no-barnehage:nsrid" v="1016811" />
		<tag k="operator" v="Tromsø kommune" />
		<tag k="operator:type" v="public" />
		<tag k="start_date" v="1988-09-01" />
	</node>
	<node id="-5785" lat="69.64171" lon="18.91349">
		<tag k="amenity" v="kindergarten" />
		<tag k="capacity" v="62" />
		<tag k="contact:email" v="post@kulturbarnehagen.tromso.no" />
		<tag k="contact:phone" v="+47 77 69 97 00" />
		<tag k="contact:website" v="http://www.kulturbarnehagen.tromso.no" />
		<tag k="max_age" v="5" />
		<tag k="min_age" v="1" />
		<tag k="name" v="Kulturbarnehagen" />
		<tag k="no-barnehage:nsrid" v="1020470" />
		<tag k="operator" v="Kulturbarnehagen" />
		<tag k="operator:type" v="private" />
		<tag k="start_date" v="1997-05-08" />
	</node>
	<node id="-5784" lat="69.66219" lon="18.96118">
		<tag k="amenity" v="kindergarten" />
		<tag k="capacity" v="61" />
		<tag k="contact:email" v="POST@KRAAKESLOTTET.NO" />
		<tag k="contact:phone" v="+47 77 69 48 89" />
		<tag k="max_age" v="5" />
		<tag k="min_age" v="1" />
		<tag k="name" v="Kråkeslottet Al" />
		<tag k="no-barnehage:nsrid" v="1019634" />
		<tag k="operator" v="Kråkeslottet barnehage Sa" />
		<tag k="operator:type" v="private" />
		<tag k="start_date" v="1982-01-01" />
	</node>
	<node id="-5783" lat="69.6822" lon="19.0759">
		<tag k="amenity" v="kindergarten" />
		<tag k="capacity" v="54" />
		<tag k="contact:email" v="gorill.nilsen@tromso.kommune.no" />
		<tag k="max_age" v="5" />
		<tag k="min_age" v="1" />
		<tag k="name" v="Kroken barnehage" />
		<tag k="no-barnehage:nsrid" v="1025341" />
		<tag k="operator" v="Tromsø kommune" />
		<tag k="operator:type" v="public" />
		<tag k="start_date" v="1976-01-01" />
	</node>
	<node id="-5782" lat="69.7774" lon="18.3989">
		<tag k="amenity" v="kindergarten" />
		<tag k="capacity" v="69" />
		<tag k="contact:email" v="hans.julius.nilsen@tromso.kommune.no" />
		<tag k="max_age" v="5" />
		<tag k="min_age" v="1" />
		<tag k="name" v="Kjosen barnehage" />
		<tag k="no-barnehage:nsrid" v="1013439" />
		<tag k="operator" v="Tromsø kommune" />
		<tag k="operator:type" v="public" />
		<tag k="start_date" v="2008-02-01" />
	</node>
	<node id="-5781" lat="69.5935" lon="18.2936">
		<tag k="amenity" v="kindergarten" />
		<tag k="capacity" v="11" />
		<tag k="contact:email" v="hanne.sebakk@tromso.kommune.no" />
		<tag k="max_age" v="5" />
		<tag k="min_age" v="1" />
		<tag k="name" v="Kattfjord barnehage" />
		<tag k="no-barnehage:nsrid" v="1012722" />
		<tag k="operator" v="Tromsø kommune" />
		<tag k="operator:type" v="public" />
		<tag k="start_date" v="1989-01-01" />
	</node>
	<node id="-5780" lat="69.70341" lon="18.89658">
		<tag k="amenity" v="kindergarten" />
		<tag k="capacity" v="80" />
		<tag k="contact:email" v="heidi@karveslettlia.no" />
		<tag k="contact:phone" v="+47 77 65 20 06" />
		<tag k="contact:website" v="http://www.karveslettlia.barnehage.no" />
		<tag k="max_age" v="5" />
		<tag k="min_age" v="1" />
		<tag k="name" v="Karveslettlia barnehage Sa" />
		<tag k="no-barnehage:nsrid" v="1020285" />
		<tag k="operator" v="Karveslettlia barnehage Sa" />
		<tag k="operator:type" v="private" />
		<tag k="start_date" v="1996-08-01" />
	</node>
	<node id="-5779" lat="69.6796" lon="18.9351">
		<tag k="amenity" v="kindergarten" />
		<tag k="capacity" v="76" />
		<tag k="contact:email" v="grete.kvaal.pettersen@gmail.com" />
		<tag k="contact:phone" v="+47 95 03 04 80" />
		<tag k="contact:website" v="http://www.hvalrossen.norlandiabarnehagene.no" />
		<tag k="max_age" v="5" />
		<tag k="min_age" v="1" />
		<tag k="name" v="Hvalrossen barnehage" />
		<tag k="no-barnehage:nsrid" v="1015659" />
		<tag k="operator" v="Norlandia Barnehagene AS" />
		<tag k="operator:type" v="private" />
		<tag k="start_date" v="1997-12-17" />
	</node>
	<node id="-5778" lat="69.6293" lon="18.031">
		<tag k="amenity" v="kindergarten" />
		<tag k="capacity" v="16" />
		<tag k="contact:email" v="hanne.sebakk@tromso.kommune.no" />
		<tag k="contact:phone" v="+47 77 64 02 56" />
		<tag k="max_age" v="5" />
		<tag k="min_age" v="1" />
		<tag k="name" v="Hillesøyskolen Avd Sommarøy barnehage" />
		<tag k="no-barnehage:nsrid" v="1015989" />
		<tag k="operator" v="Tromsø kommune" />
		<tag k="operator:type" v="public" />
		<tag k="start_date" v="1989-01-02" />
	</node>
	<node id="-5777" lat="69.6806" lon="18.9406">
		<tag k="amenity" v="kindergarten" />
		<tag k="capacity" v="40" />
		<tag k="contact:email" v="heimly@barnehage.no" />
		<tag k="contact:phone" v="+47 77670897" />
		<tag k="max_age" v="5" />
		<tag k="min_age" v="1" />
		<tag k="name" v="Heimly barnehage" />
		<tag k="no-barnehage:nsrid" v="1015512" />
		<tag k="operator" v="Norkirken Tromsø" />
		<tag k="operator:type" v="private" />
		<tag k="start_date" v="1976-12-24" />
	</node>
	<node id="-5776" lat="69.6686" lon="18.9633">
		<tag k="amenity" v="kindergarten" />
		<tag k="capacity" v="71" />
		<tag k="contact:email" v="gyllenvang.barnehage@tromso.kommune.no" />
		<tag k="contact:phone" v="+47 90883462" />
		<tag k="max_age" v="5" />
		<tag k="min_age" v="1" />
		<tag k="name" v="Gyllenvang barnehage" />
		<tag k="no-barnehage:nsrid" v="1018466" />
		<tag k="operator" v="Tromsø kommune" />
		<tag k="operator:type" v="public" />
		<tag k="start_date" v="2008-08-04" />
	</node>
	<node id="-5775" lat="69.6864" lon="18.986">
		<tag k="amenity" v="kindergarten" />
		<tag k="capacity" v="63" />
		<tag k="contact:email" v="gro.nilsen@samskipnaden.no" />
		<tag k="max_age" v="5" />
		<tag k="min_age" v="1" />
		<tag k="name" v="Gimle Studentbarnehage" />
		<tag k="no-barnehage:nsrid" v="1016836" />
		<tag k="operator" v="Norges Arktiske Studentsamskipnad" />
		<tag k="operator:type" v="private" />
		<tag k="start_date" v="1992-01-01" />
	</node>
	<node id="-5774" lat="69.65244" lon="19.00634">
		<tag k="amenity" v="kindergarten" />
		<tag k="capacity" v="54" />
		<tag k="contact:email" v="styrer@flaaklypabarnehage.no" />
		<tag k="contact:phone" v="+47 77 68 86 60" />
		<tag k="max_age" v="5" />
		<tag k="min_age" v="1" />
		<tag k="name" v="Flåklypa barnehage Ludvig Skoglund" />
		<tag k="no-barnehage:nsrid" v="1020996" />
		<tag k="operator" v="Flåklypa barnehage Ludvig Skoglund" />
		<tag k="operator:type" v="private" />
		<tag k="start_date" v="2003-10-13" />
	</node>
	<node id="-5773" lat="69.6423" lon="18.9902">
		<tag k="amenity" v="kindergarten" />
		<tag k="capacity" v="68" />
		<tag k="contact:email" v="annalena.pedersen@tromso.kommune.no" />
		<tag k="max_age" v="5" />
		<tag k="min_age" v="1" />
		<tag k="name" v="Fjellvegen barnehage" />
		<tag k="no-barnehage:nsrid" v="1017056" />
		<tag k="operator" v="Tromsø kommune" />
		<tag k="operator:type" v="public" />
		<tag k="start_date" v="2005-12-15" />
	</node>
	<node id="-5771" lat="69.65" lon="19.0108">
		<tag k="amenity" v="kindergarten" />
		<tag k="capacity" v="68" />
		<tag k="contact:email" v="gorill.nilsen@tromso.kommune.no" />
		<tag k="max_age" v="5" />
		<tag k="min_age" v="1" />
		<tag k="name" v="Elvestrand barnehage" />
		<tag k="no-barnehage:nsrid" v="1017671" />
		<tag k="operator" v="Tromsø kommune" />
		<tag k="operator:type" v="public" />
		<tag k="start_date" v="2006-11-01" />
	</node>
	<node id="-5770" lat="69.68544" lon="18.95536">
		<tag k="amenity" v="kindergarten" />
		<tag k="capacity" v="44" />
		<tag k="contact:email" v="ekrehagen@barnehage.no" />
		<tag k="contact:phone" v="+47 77 63 77 00" />
		<tag k="max_age" v="5" />
		<tag k="min_age" v="1" />
		<tag k="name" v="Ekrehagen Friluftsbarnehage Sa" />
		<tag k="no-barnehage:nsrid" v="1019664" />
		<tag k="operator" v="Ekrehagen Friluftsbarnehage Sa" />
		<tag k="operator:type" v="private" />
		<tag k="start_date" v="1988-04-01" />
	</node>
	<node id="-5769" lat="69.67758" lon="18.93289">
		<tag k="amenity" v="kindergarten" />
		<tag k="capacity" v="32" />
		<tag k="contact:email" v="einebh@broadpark.no" />
		<tag k="contact:phone" v="+47 77 67 86 00" />
		<tag k="contact:website" v="http://www.einerabben.barnehage.no" />
		<tag k="max_age" v="5" />
		<tag k="min_age" v="1" />
		<tag k="name" v="Einerabben barnehage Sa" />
		<tag k="no-barnehage:nsrid" v="1020418" />
		<tag k="operator" v="Einerabben barnehage Sa" />
		<tag k="operator:type" v="private" />
		<tag k="start_date" v="1989-01-02" />
	</node>
	<node id="-5768" lat="69.6758" lon="18.7631">
		<tag k="amenity" v="kindergarten" />
		<tag k="capacity" v="63" />
		<tag k="contact:email" v="hans.julius.nilsen@tromso.kommune.no" />
		<tag k="contact:phone" v="+47 77 79 07 83" />
		<tag k="max_age" v="5" />
		<tag k="min_age" v="1" />
		<tag k="name" v="Eidhaugen barnehage" />
		<tag k="no-barnehage:nsrid" v="1017058" />
		<tag k="operator" v="Tromsø kommune" />
		<tag k="operator:type" v="public" />
		<tag k="start_date" v="2005-12-15" />
	</node>
	<node id="-5767" lat="69.6512" lon="18.927">
		<tag k="amenity" v="kindergarten" />
		<tag k="capacity" v="33" />
		<tag k="contact:email" v="post@domkirkens.no" />
		<tag k="contact:phone" v="+47 77 68 57 85" />
		<tag k="max_age" v="5" />
		<tag k="min_age" v="1" />
		<tag k="name" v="Domkirkens barnehage" />
		<tag k="no-barnehage:nsrid" v="1016763" />
		<tag k="operator" v="Domkirken Sokn" />
		<tag k="operator:type" v="private" />
		<tag k="start_date" v="1982-01-01" />
	</node>
	<node id="-5765" lat="69.6651" lon="18.9531">
		<tag k="amenity" v="kindergarten" />
		<tag k="capacity" v="23" />
		<tag k="contact:email" v="Tina.Skoyen@kurbadet.no" />
		<tag k="max_age" v="5" />
		<tag k="min_age" v="1" />
		<tag k="name" v="Charlottenlund barnehage" />
		<tag k="no-barnehage:nsrid" v="1016821" />
		<tag k="operator" v="Rehabiliteringssenteret Nord-Norges Kurbad AS" />
		<tag k="operator:type" v="private" />
		<tag k="start_date" v="1989-01-02" />
	</node>
	<node id="-5764" lat="69.6552" lon="18.9336">
		<tag k="amenity" v="kindergarten" />
		<tag k="capacity" v="103" />
		<tag k="contact:email" v="monica.bjornsborg@tromso.kommune.no" />
		<tag k="max_age" v="5" />
		<tag k="min_age" v="1" />
		<tag k="name" v="Bymyra barnehage" />
		<tag k="no-barnehage:nsrid" v="1017059" />
		<tag k="operator" v="Tromsø kommune" />
		<tag k="operator:type" v="public" />
		<tag k="start_date" v="2005-12-15" />
	</node>
	<node id="-5763" lat="69.71117" lon="19.00143">
		<tag k="amenity" v="kindergarten" />
		<tag k="capacity" v="50" />
		<tag k="contact:email" v="turid.bukkespranget@barnehage.no" />
		<tag k="contact:phone" v="+47 77 68 63 39" />
		<tag k="contact:website" v="http://www.bukkesprangetnaturbarnehage.no" />
		<tag k="max_age" v="5" />
		<tag k="min_age" v="1" />
		<tag k="name" v="Bukkespranget Naturbarnehage AS" />
		<tag k="no-barnehage:nsrid" v="1021247" />
		<tag k="operator" v="Bukkespranget Naturbarnehage AS" />
		<tag k="operator:type" v="private" />
		<tag k="start_date" v="2005-05-11" />
	</node>
	<node id="-5762" lat="69.6806" lon="18.9663">
		<tag k="amenity" v="kindergarten" />
		<tag k="capacity" v="86" />
		<tag k="contact:email" v="kristin.ryeng@samskipnaden.no" />
		<tag k="max_age" v="5" />
		<tag k="min_age" v="1" />
		<tag k="name" v="Breivika Studentbarnehage" />
		<tag k="no-barnehage:nsrid" v="1016812" />
		<tag k="operator" v="Norges Arktiske Studentsamskipnad" />
		<tag k="operator:type" v="private" />
		<tag k="start_date" v="1988-09-01" />
	</node>
</osm>
