<?xml version="1.0" encoding="UTF-8"?>
<osm version="0.6" generator="osmapis">
	<node lat="69.63095" lon="18.91528" id="-5043">
		<tag k="ADDRESS" v="Marielund 39, 9006 TROMSØ" />
		<tag k="amenity" v="kindergarten" />
		<tag k="capacity" v="27" />
		<tag k="contact:website" v="http://ameliahaugen.barnehage.no" />
		<tag k="max_age" v="5" />
		<tag k="min_age" v="1" />
		<tag k="name" v="Ameliahaugen barnehage" />
		<tag k="no-barnehage:nsrid" v="973503065" />
		<tag k="operator" v="Sørtromsøya Barnehage/Ameliahaugen barnehage" />
		<tag k="operator:type" v="private" />
	</node>
	<node lat="69.66318" lon="18.91825" id="-5044">
		<tag k="ADDRESS" v="Simen Workinns veg 7, 9016 TROMSØ" />
		<tag k="amenity" v="kindergarten" />
		<tag k="capacity" v="55" />
		<tag k="contact:website" v="http://norrona.barnehage.no/" />
		<tag k="max_age" v="5" />
		<tag k="min_age" v="1" />
		<tag k="name" v="As Norrøna barnehage" />
		<tag k="no-barnehage:nsrid" v="972138487" />
		<tag k="operator" v="As Norrøna barnehage" />
		<tag k="operator:type" v="private" />
	</node>
	<node lat="69.6318" lon="18.91739" id="-5045">
		<tag k="ADDRESS" v="Thorshaugvegen 8, 9006 TROMSØ" />
		<tag k="amenity" v="kindergarten" />
		<tag k="capacity" v="17" />
		<tag k="max_age" v="5" />
		<tag k="min_age" v="1" />
		<tag k="name" v="Bamsestua friluftsbarnehage" />
		<tag k="no-barnehage:nsrid" v="976784251" />
		<tag k="operator" v="Bamsestua friluftsbarnehage SA" />
		<tag k="operator:type" v="private" />
	</node>
	<node lat="69.65392" lon="18.91259" id="-5046">
		<tag k="ADDRESS" v="Holtvegen 70, 9016 TROMSØ" />
		<tag k="amenity" v="kindergarten" />
		<tag k="capacity" v="42" />
		<tag k="contact:website" v="http://www.barnehagenhundre.no" />
		<tag k="max_age" v="5" />
		<tag k="min_age" v="1" />
		<tag k="name" v="Barnehagen Hundre" />
		<tag k="no-barnehage:nsrid" v="973346628" />
		<tag k="operator" v="Barnehagen Hundre SA" />
		<tag k="operator:type" v="private" />
	</node>
	<node lat="69.55972" lon="18.9567" id="-5047">
		<tag k="ADDRESS" v="Innlandsvegen 252, 9021 TROMSDALEN" />
		<tag k="amenity" v="kindergarten" />
		<tag k="capacity" v="43" />
		<tag k="contact:website" v="http://bergbarnehage.no" />
		<tag k="max_age" v="5" />
		<tag k="min_age" v="1" />
		<tag k="name" v="Berg barnehage" />
		<tag k="no-barnehage:nsrid" v="973470434" />
		<tag k="operator" v="Berg barnehage SA" />
		<tag k="operator:type" v="private" />
	</node>
	<node lat="69.6351" lon="18.92759" id="-5048">
		<tag k="ADDRESS" v="Strandvegen 117A, 9006 TROMSØ" />
		<tag k="amenity" v="kindergarten" />
		<tag k="capacity" v="20" />
		<tag k="contact:website" v="http://www.bjerkakerbarnehage.no" />
		<tag k="max_age" v="5" />
		<tag k="min_age" v="1" />
		<tag k="name" v="Bjerkaker barnehage" />
		<tag k="no-barnehage:nsrid" v="973228951" />
		<tag k="operator" v="Bjerkaker barnehage SA" />
		<tag k="operator:type" v="private" />
	</node>
	<node lat="69.68058" lon="18.96632" id="-5049">
		<tag k="ADDRESS" v="Minnelundvegen 11, 9019 TROMSØ" />
		<tag k="amenity" v="kindergarten" />
		<tag k="capacity" v="66" />
		<tag k="contact:website" v="http://samskipnaden.no/barnehager/vare-barnehager/breivika-studentbarnehage" />
		<tag k="max_age" v="5" />
		<tag k="min_age" v="1" />
		<tag k="name" v="Breivika studentbarnehage" />
		<tag k="no-barnehage:nsrid" v="975026647" />
		<tag k="operator" v="Breivika studentbarnehage AS" />
		<tag k="operator:type" v="private" />
	</node>
	<node lat="69.65517" lon="18.93361" id="-5050">
		<tag k="ADDRESS" v="Langnesvegen 7, 9012 TROMSØ" />
		<tag k="amenity" v="kindergarten" />
		<tag k="capacity" v="88" />
		<tag k="max_age" v="5" />
		<tag k="min_age" v="1" />
		<tag k="name" v="Bymyra barnehage" />
		<tag k="no-barnehage:nsrid" v="989094335" />
		<tag k="operator" v="Tromsø kommune" />
		<tag k="operator:type" v="public" />
	</node>
	<node lat="69.66512" lon="18.95307" id="-5051">
		<tag k="ADDRESS" v="Conrad Holmboes veg 106, 9011 TROMSØ" />
		<tag k="amenity" v="kindergarten" />
		<tag k="capacity" v="24" />
		<tag k="max_age" v="5" />
		<tag k="min_age" v="1" />
		<tag k="name" v="Charlottenlund barnehage" />
		<tag k="no-barnehage:nsrid" v="975028933" />
		<tag k="operator" v="Charlottenlund barnehage AS" />
		<tag k="operator:type" v="private" />
	</node>
	<node lat="69.65115" lon="18.92698" id="-5053">
		<tag k="ADDRESS" v="Sommerlystvegen 26, 9012 TROMSØ" />
		<tag k="amenity" v="kindergarten" />
		<tag k="capacity" v="34" />
		<tag k="max_age" v="5" />
		<tag k="min_age" v="1" />
		<tag k="name" v="Domkirkens barnehage" />
		<tag k="no-barnehage:nsrid" v="974800152" />
		<tag k="operator" v="Domkirkens barnehage AS" />
		<tag k="operator:type" v="private" />
	</node>
	<node lat="69.67578" lon="18.7631" id="-5055">
		<tag k="ADDRESS" v="Åslandvegen 30, 9105 KVALØYA" />
		<tag k="amenity" v="kindergarten" />
		<tag k="capacity" v="54" />
		<tag k="max_age" v="5" />
		<tag k="min_age" v="1" />
		<tag k="name" v="Eidhaugen barnehage" />
		<tag k="no-barnehage:nsrid" v="989094092" />
		<tag k="operator" v="Tromsø kommune" />
		<tag k="operator:type" v="public" />
	</node>
	<node lat="0.0" lon="0.0" id="-5056">
		<tag k="ADDRESS" v="Alkevegen 14, 9015 TROMSØ" />
		<tag k="amenity" v="kindergarten" />
		<tag k="capacity" v="34" />
		<tag k="contact:website" v="http://www.einerabben.barnehage.no" />
		<tag k="max_age" v="5" />
		<tag k="min_age" v="1" />
		<tag k="name" v="Einerabben barnehage" />
		<tag k="no-barnehage:nsrid" v="974193612" />
		<tag k="operator" v="Einerabben barnehage SA" />
		<tag k="operator:type" v="private" />
	</node>
	<node lat="69.68544" lon="18.95536" id="-5057">
		<tag k="ADDRESS" v="Dramsvegen 528, 9014 TROMSØ" />
		<tag k="amenity" v="kindergarten" />
		<tag k="capacity" v="43" />
		<tag k="max_age" v="5" />
		<tag k="min_age" v="1" />
		<tag k="name" v="Ekrehagen friluftsbarnehage" />
		<tag k="no-barnehage:nsrid" v="873449772" />
		<tag k="operator" v="Ekrehagen friluftsbarnehage SA" />
		<tag k="operator:type" v="private" />
	</node>
	<node lat="69.65003" lon="19.01082" id="-5058">
		<tag k="ADDRESS" v="Evjenvegen 11A, 9024 TOMASJORD" />
		<tag k="amenity" v="kindergarten" />
		<tag k="capacity" v="56" />
		<tag k="max_age" v="5" />
		<tag k="min_age" v="1" />
		<tag k="name" v="Elvestrand barnehage" />
		<tag k="no-barnehage:nsrid" v="990753695" />
		<tag k="operator" v="Tromsø kommune" />
		<tag k="operator:type" v="public" />
	</node>
	<node lat="69.6423" lon="18.99021" id="-5060">
		<tag k="ADDRESS" v="Myrvegen 44, 9020 TROMSDALEN" />
		<tag k="amenity" v="kindergarten" />
		<tag k="capacity" v="66" />
		<tag k="max_age" v="5" />
		<tag k="min_age" v="1" />
		<tag k="name" v="Fjellvegen barnehage" />
		<tag k="no-barnehage:nsrid" v="989093541" />
		<tag k="operator" v="Tromsø kommune" />
		<tag k="operator:type" v="public" />
	</node>
	<node lat="69.68623" lon="18.98562" id="-5061">
		<tag k="ADDRESS" v="Gimlevegen 37, 9019 TROMSØ" />
		<tag k="amenity" v="kindergarten" />
		<tag k="capacity" v="48" />
		<tag k="contact:website" v="http://samskipnaden.no/barnehager/vare-barnehager/gimle-studentbarnehage" />
		<tag k="max_age" v="5" />
		<tag k="min_age" v="1" />
		<tag k="name" v="Gimle studentbarnehage" />
		<tag k="no-barnehage:nsrid" v="975044912" />
		<tag k="operator" v="Gimle studentbarnehage AS" />
		<tag k="operator:type" v="private" />
	</node>
	<node lat="69.66125" lon="18.93732" id="-5062">
		<tag k="ADDRESS" v="Prestvannvegen 44, 9011 TROMSØ" />
		<tag k="amenity" v="kindergarten" />
		<tag k="capacity" v="28" />
		<tag k="max_age" v="5" />
		<tag k="min_age" v="1" />
		<tag k="name" v="Guovssahas Mánáidgárdi (samisk barnehage)" />
		<tag k="no-barnehage:nsrid" v="974566729" />
		<tag k="operator" v="Tromsø kommune" />
		<tag k="operator:type" v="public" />
	</node>
	<node lat="69.66863" lon="18.96328" id="-5063">
		<tag k="ADDRESS" v="Dramsvegen 141, 9010 TROMSØ" />
		<tag k="amenity" v="kindergarten" />
		<tag k="capacity" v="65" />
		<tag k="max_age" v="5" />
		<tag k="min_age" v="1" />
		<tag k="name" v="Gyllenvang barnehage" />
		<tag k="no-barnehage:nsrid" v="992979933" />
		<tag k="operator" v="Tromsø kommune" />
		<tag k="operator:type" v="public" />
	</node>
	<node lat="69.70704" lon="18.98727" id="-5064">
		<tag k="ADDRESS" v="Otervegen 35, 9017 TROMSØ" />
		<tag k="amenity" v="kindergarten" />
		<tag k="capacity" v="36" />
		<tag k="contact:website" v="http://hamnafnriluftsbarnehage.no" />
		<tag k="max_age" v="5" />
		<tag k="min_age" v="1" />
		<tag k="name" v="Hamna friluftsbarnehage" />
		<tag k="no-barnehage:nsrid" v="973470590" />
		<tag k="operator" v="Hamna friluftsbarnehage SA" />
		<tag k="operator:type" v="private" />
	</node>
	<node lat="69.63236" lon="18.02146" id="-5065">
		<tag k="ADDRESS" v="Sommarøyvegen 32, 9110 SOMMARØY" />
		<tag k="amenity" v="kindergarten" />
		<tag k="capacity" v="20" />
		<tag k="max_age" v="5" />
		<tag k="min_age" v="1" />
		<tag k="name" v="Hillesøyskolen avd. Sommarøy barnehage" />
		<tag k="no-barnehage:nsrid" v="973595504" />
		<tag k="operator" v="Tromsø kommune" />
		<tag k="operator:type" v="public" />
	</node>
	<node lat="0.0" lon="0.0" id="-5066">
		<tag k="ADDRESS" v="Karveslettveien 57, 9102 KVALØYSLETTA" />
		<tag k="amenity" v="kindergarten" />
		<tag k="capacity" v="81" />
		<tag k="contact:website" v="http://karveslettlia.no" />
		<tag k="max_age" v="5" />
		<tag k="min_age" v="1" />
		<tag k="name" v="Karveslettlia barnehage" />
		<tag k="no-barnehage:nsrid" v="976081064" />
		<tag k="operator" v="Karveslettlia barnehage SA" />
		<tag k="operator:type" v="private" />
	</node>
	<node lat="69.58181" lon="18.27521" id="-5067">
		<tag k="ADDRESS" v="Sjøtunvegen 332, 9108 KVALØYA" />
		<tag k="amenity" v="kindergarten" />
		<tag k="capacity" v="8" />
		<tag k="max_age" v="5" />
		<tag k="min_age" v="1" />
		<tag k="name" v="Kattfjord barnehage" />
		<tag k="no-barnehage:nsrid" v="974566710" />
		<tag k="operator" v="Tromsø kommune" />
		<tag k="operator:type" v="public" />
	</node>
	<node lat="69.68513" lon="18.73951" id="-5068">
		<tag k="ADDRESS" v="Ropnesvegen 30, 9107 KVALØYA" />
		<tag k="amenity" v="kindergarten" />
		<tag k="capacity" v="59" />
		<tag k="max_age" v="5" />
		<tag k="min_age" v="1" />
		<tag k="name" v="Kjosen barnehage" />
		<tag k="no-barnehage:nsrid" v="892287392" />
		<tag k="operator" v="Tromsø kommune" />
		<tag k="operator:type" v="public" />
	</node>
	<node lat="69.68217" lon="19.0759" id="-5069">
		<tag k="ADDRESS" v="Kvartsvegen 223, 9022 KROKELVDALEN" />
		<tag k="amenity" v="kindergarten" />
		<tag k="capacity" v="53" />
		<tag k="max_age" v="5" />
		<tag k="min_age" v="1" />
		<tag k="name" v="Kroken barnehage" />
		<tag k="no-barnehage:nsrid" v="874058092" />
		<tag k="operator" v="Tromsø kommune" />
		<tag k="operator:type" v="public" />
	</node>
	<node lat="69.66219" lon="18.96118" id="-5070">
		<tag k="ADDRESS" v="Dramsvegen 87, 9010 TROMSØ" />
		<tag k="amenity" v="kindergarten" />
		<tag k="capacity" v="63" />
		<tag k="max_age" v="5" />
		<tag k="min_age" v="1" />
		<tag k="name" v="Kråkeslottet Al" />
		<tag k="no-barnehage:nsrid" v="973383205" />
		<tag k="operator" v="Kråkeslottet barnehage SA" />
		<tag k="operator:type" v="private" />
	</node>
	<node lat="69.64171" lon="18.91349" id="-5071">
		<tag k="ADDRESS" v="Overlege Meyers veg 4, 9013 TROMSØ" />
		<tag k="amenity" v="kindergarten" />
		<tag k="capacity" v="58" />
		<tag k="contact:website" v="http://www.kulturbarnehagen.tromso.no" />
		<tag k="max_age" v="5" />
		<tag k="min_age" v="1" />
		<tag k="name" v="Kulturbarnehagen" />
		<tag k="no-barnehage:nsrid" v="978697593" />
		<tag k="operator" v="Kulturbarnehagen" />
		<tag k="operator:type" v="private" />
	</node>
	<node lat="69.68932" lon="18.85084" id="-5072">
		<tag k="ADDRESS" v="Nisevegen 49, 9100 KVALØYSLETTA" />
		<tag k="amenity" v="kindergarten" />
		<tag k="capacity" v="45" />
		<tag k="max_age" v="5" />
		<tag k="min_age" v="1" />
		<tag k="name" v="Kvaløysletta barnehage" />
		<tag k="no-barnehage:nsrid" v="975026639" />
		<tag k="operator" v="Tromsø kommune" />
		<tag k="operator:type" v="public" />
	</node>
	<node lat="69.65789" lon="18.95763" id="-5073">
		<tag k="ADDRESS" v="Anton Iversens veg 1, 9009 TROMSØ" />
		<tag k="amenity" v="kindergarten" />
		<tag k="capacity" v="92" />
		<tag k="max_age" v="5" />
		<tag k="min_age" v="1" />
		<tag k="name" v="Kvamstykket barnehage" />
		<tag k="no-barnehage:nsrid" v="974566648" />
		<tag k="operator" v="Tromsø kommune" />
		<tag k="operator:type" v="public" />
	</node>
	<node lat="69.63795" lon="18.92075" id="-5074">
		<tag k="ADDRESS" v="Kveldrovegen 74, 9007 TROMSØ" />
		<tag k="amenity" v="kindergarten" />
		<tag k="capacity" v="58" />
		<tag k="contact:website" v="http://kveldrovegen.barnehage.no" />
		<tag k="max_age" v="5" />
		<tag k="min_age" v="1" />
		<tag k="name" v="Kveldrovegen barnehage" />
		<tag k="no-barnehage:nsrid" v="973493701" />
		<tag k="operator" v="Kveldrovegen barnehage SA" />
		<tag k="operator:type" v="private" />
	</node>
	<node lat="69.4334" lon="19.64567" id="-5076">
		<tag k="ADDRESS" v="Lakselvbuktvegen 600, 9045 LAKSELVBUKT" />
		<tag k="amenity" v="kindergarten" />
		<tag k="capacity" v="6" />
		<tag k="contact:website" v="http://ullsfjordskolen.tromsoskolen.no" />
		<tag k="max_age" v="5" />
		<tag k="min_age" v="1" />
		<tag k="name" v="Lakselvbukt barnehage" />
		<tag k="no-barnehage:nsrid" v="974566699" />
		<tag k="operator" v="Tromsø kommune" />
		<tag k="operator:type" v="public" />
	</node>
	<node lat="0.0" lon="0.0" id="-5077">
		<tag k="ADDRESS" v="Kløvervegen 7 A, 9016 TROMSØ" />
		<tag k="amenity" v="kindergarten" />
		<tag k="name" v="Langnes åpen barnehage" />
		<tag k="no-barnehage:nsrid" v="998167418" />
		<tag k="operator" v="Tromsø kommune" />
		<tag k="operator:type" v="public" />
	</node>
	<node lat="69.67068" lon="19.04095" id="-5079">
		<tag k="ADDRESS" v="Siriusvegen 52, 9024 TOMASJORD" />
		<tag k="amenity" v="kindergarten" />
		<tag k="capacity" v="50" />
		<tag k="max_age" v="5" />
		<tag k="min_age" v="1" />
		<tag k="name" v="Lunheim barnehage" />
		<tag k="no-barnehage:nsrid" v="974566664" />
		<tag k="operator" v="Tromsø kommune" />
		<tag k="operator:type" v="public" />
	</node>
	<node lat="69.71117" lon="19.00143" id="-5080">
		<tag k="ADDRESS" v="Jervvegen 128, 9017 TROMSØ" />
		<tag k="amenity" v="kindergarten" />
		<tag k="capacity" v="54" />
		<tag k="contact:website" v="http://laringsverkstedet.no/barnehage/bukkespranget-naturbarnehage" />
		<tag k="max_age" v="5" />
		<tag k="min_age" v="1" />
		<tag k="name" v="Læringsverkstedet Bukkespranget barnehage" />
		<tag k="no-barnehage:nsrid" v="988313785" />
		<tag k="operator" v="Læringsverkstedet Bukkespranget barnehage AS" />
		<tag k="operator:type" v="private" />
	</node>
	<node lat="69.56442" lon="19.18355" id="-5081">
		<tag k="ADDRESS" v="Morenevegen 10, 9027 RAMFJORDBOTN" />
		<tag k="amenity" v="kindergarten" />
		<tag k="capacity" v="74" />
		<tag k="contact:website" v="http://laringsverkstedet.no/barnehage/fagertun" />
		<tag k="max_age" v="5" />
		<tag k="min_age" v="1" />
		<tag k="name" v="Læringsverkstedet Fagertun barnehage" />
		<tag k="no-barnehage:nsrid" v="979368658" />
		<tag k="operator" v="Læringsverkstedet Fagertun barnehage AS" />
		<tag k="operator:type" v="private" />
	</node>
	<node lat="0.0" lon="0.0" id="-5082">
		<tag k="ADDRESS" v="Jonas Lies gate 36, 9009 TROMSØ" />
		<tag k="amenity" v="kindergarten" />
		<tag k="capacity" v="76" />
		<tag k="contact:website" v="http://laringsverkstedet.no/barnehage/haugenstykket" />
		<tag k="max_age" v="5" />
		<tag k="min_age" v="1" />
		<tag k="name" v="Læringsverkstedet Haugenstykket barnehage" />
		<tag k="no-barnehage:nsrid" v="913899954" />
		<tag k="operator" v="Læringsverkstedet Haugenstykket barnehage AS" />
		<tag k="operator:type" v="private" />
	</node>
	<node lat="69.6796" lon="18.93512" id="-5085">
		<tag k="ADDRESS" v="Ørnevegen 3, 9015 TROMSØ" />
		<tag k="amenity" v="kindergarten" />
		<tag k="capacity" v="75" />
		<tag k="contact:website" v="http://www.hvalrossen.norlandiabarnehagene.no" />
		<tag k="max_age" v="5" />
		<tag k="min_age" v="1" />
		<tag k="name" v="Norlandia Hvalrossen barnehage" />
		<tag k="no-barnehage:nsrid" v="979893965" />
		<tag k="operator" v="Norlandia Hvalrossen barnehage AS" />
		<tag k="operator:type" v="private" />
	</node>
	<node lat="69.66631" lon="19.03077" id="-5086">
		<tag k="ADDRESS" v="Uranusvegen 18, 9024 TOMASJORD" />
		<tag k="amenity" v="kindergarten" />
		<tag k="capacity" v="106" />
		<tag k="max_age" v="5" />
		<tag k="min_age" v="1" />
		<tag k="name" v="Norlandia Isbjørnen barnehage" />
		<tag k="no-barnehage:nsrid" v="979893957" />
		<tag k="operator" v="Norlandia Isbjørnen barnehage AS" />
		<tag k="operator:type" v="private" />
	</node>
	<node lat="69.70203" lon="18.97693" id="-5087">
		<tag k="ADDRESS" v="Valbeinet 1, 9017 TROMSØ" />
		<tag k="amenity" v="kindergarten" />
		<tag k="capacity" v="76" />
		<tag k="contact:website" v="http://kvitungen.norlandiabarnehagene.no" />
		<tag k="max_age" v="5" />
		<tag k="min_age" v="1" />
		<tag k="name" v="Norlandia Kvitungen barnehage" />
		<tag k="no-barnehage:nsrid" v="973504096" />
		<tag k="operator" v="Norlandia Kvitungen barnehage AS" />
		<tag k="operator:type" v="private" />
	</node>
	<node lat="69.6539" lon="19.0152" id="-5088">
		<tag k="ADDRESS" v="Marsvegen 9, 9024 TOMASJORD" />
		<tag k="amenity" v="kindergarten" />
		<tag k="capacity" v="104" />
		<tag k="contact:website" v="http://norlandiabarnehagene.no/marsvegen/" />
		<tag k="max_age" v="5" />
		<tag k="min_age" v="1" />
		<tag k="name" v="Norlandia Marsvegen barnehage" />
		<tag k="no-barnehage:nsrid" v="913833864" />
		<tag k="operator" v="Norlandia Marsvegen barnehage AS" />
		<tag k="operator:type" v="private" />
	</node>
	<node lat="0.0" lon="0.0" id="-5089">
		<tag k="ADDRESS" v="Borgensvingen 118 - 122, 9104 KVALØYA" />
		<tag k="amenity" v="kindergarten" />
		<tag k="capacity" v="132" />
		<tag k="max_age" v="5" />
		<tag k="min_age" v="1" />
		<tag k="name" v="Norlandia Polarmåsen barnehage" />
		<tag k="no-barnehage:nsrid" v="979893973" />
		<tag k="operator" v="Norlandia Polarmåsen barnehage AS" />
		<tag k="operator:type" v="private" />
	</node>
	<node lat="69.68578" lon="18.94213" id="-5090">
		<tag k="ADDRESS" v="Maskinistvegen 20, 9014 TROMSØ" />
		<tag k="amenity" v="kindergarten" />
		<tag k="capacity" v="64" />
		<tag k="max_age" v="5" />
		<tag k="min_age" v="1" />
		<tag k="name" v="Norlandia Polarreven Friluftsbanehage" />
		<tag k="no-barnehage:nsrid" v="979894007" />
		<tag k="operator" v="Norlandia Polarreven barnehage AS" />
		<tag k="operator:type" v="private" />
	</node>
	<node lat="69.67256" lon="18.93681" id="-5091">
		<tag k="ADDRESS" v="Nordavinden 2, 9015 TROMSØ" />
		<tag k="amenity" v="kindergarten" />
		<tag k="capacity" v="47" />
		<tag k="max_age" v="5" />
		<tag k="min_age" v="1" />
		<tag k="name" v="Olsgård barnehage" />
		<tag k="no-barnehage:nsrid" v="974566753" />
		<tag k="operator" v="Tromsø kommune" />
		<tag k="operator:type" v="public" />
	</node>
	<node lat="69.67899" lon="18.93511" id="-5092">
		<tag k="ADDRESS" v="Ørnevegen 7, 9015 TROMSØ" />
		<tag k="amenity" v="kindergarten" />
		<tag k="capacity" v="28" />
		<tag k="contact:website" v="http://www.polarhagen.barnehage.no" />
		<tag k="max_age" v="5" />
		<tag k="min_age" v="1" />
		<tag k="name" v="Polarhagen barnehage" />
		<tag k="no-barnehage:nsrid" v="972139599" />
		<tag k="operator" v="Polarhagen barnehage AS" />
		<tag k="operator:type" v="private" />
	</node>
	<node lat="69.65662" lon="18.92745" id="-5093">
		<tag k="ADDRESS" v="Olastien 11, 9012 TROMSØ" />
		<tag k="amenity" v="kindergarten" />
		<tag k="capacity" v="60" />
		<tag k="max_age" v="5" />
		<tag k="min_age" v="1" />
		<tag k="name" v="Prestvannet studentbarnehage" />
		<tag k="no-barnehage:nsrid" v="975012093" />
		<tag k="operator" v="Prestvannet studentbarnehage AS" />
		<tag k="operator:type" v="private" />
	</node>
	<node lat="69.63455" lon="18.96185" id="-5094">
		<tag k="ADDRESS" v="Solstrandvegen 97, 9020 TROMSDALEN" />
		<tag k="amenity" v="kindergarten" />
		<tag k="capacity" v="85" />
		<tag k="contact:website" v="http://www.tromso.kommune.no/index.db2?id=9064" />
		<tag k="max_age" v="5" />
		<tag k="min_age" v="1" />
		<tag k="name" v="Reinen barnehage" />
		<tag k="no-barnehage:nsrid" v="988182443" />
		<tag k="operator" v="Tromsø kommune" />
		<tag k="operator:type" v="public" />
	</node>
	<node lat="69.6824" lon="18.94081" id="-5097">
		<tag k="ADDRESS" v="Mortensnesvegen 6, 9014 TROMSØ" />
		<tag k="amenity" v="kindergarten" />
		<tag k="capacity" v="41" />
		<tag k="max_age" v="5" />
		<tag k="min_age" v="1" />
		<tag k="name" v="Sjømannsbyen barnehage" />
		<tag k="no-barnehage:nsrid" v="891511612" />
		<tag k="operator" v="Tromsø kommune" />
		<tag k="operator:type" v="public" />
	</node>
	<node lat="69.77503" lon="19.33312" id="-5098">
		<tag k="ADDRESS" v="Ullstindvegen 529, 9023 KROKELVDALEN" />
		<tag k="amenity" v="kindergarten" />
		<tag k="capacity" v="30" />
		<tag k="contact:website" v="http://www.skittenelv.tromsoskolen.no" />
		<tag k="max_age" v="5" />
		<tag k="min_age" v="1" />
		<tag k="name" v="Skittenelv barnehage" />
		<tag k="no-barnehage:nsrid" v="988582468" />
		<tag k="operator" v="Tromsø kommune" />
		<tag k="operator:type" v="public" />
	</node>
	<node lat="69.69096" lon="19.07858" id="-5099">
		<tag k="ADDRESS" v="Gabbrovegen 77, 9022 KROKELVDALEN" />
		<tag k="amenity" v="kindergarten" />
		<tag k="capacity" v="54" />
		<tag k="max_age" v="5" />
		<tag k="min_age" v="1" />
		<tag k="name" v="Skjelnan barnehage" />
		<tag k="no-barnehage:nsrid" v="974566737" />
		<tag k="operator" v="Tromsø kommune" />
		<tag k="operator:type" v="public" />
	</node>
	<node lat="69.63565" lon="18.92414" id="-5100">
		<tag k="ADDRESS" v="Lærerskolevegen 8, 9006 TROMSØ" />
		<tag k="amenity" v="kindergarten" />
		<tag k="capacity" v="13" />
		<tag k="max_age" v="5" />
		<tag k="min_age" v="1" />
		<tag k="name" v="Skogstua barnehage" />
		<tag k="no-barnehage:nsrid" v="873493712" />
		<tag k="operator" v="Skogstua barnehage SA" />
		<tag k="operator:type" v="private" />
	</node>
	<node lat="69.69995" lon="18.89003" id="-5101">
		<tag k="ADDRESS" v="Ryllikvegen 55, 9102 KVALØYSLETTA" />
		<tag k="amenity" v="kindergarten" />
		<tag k="capacity" v="37" />
		<tag k="max_age" v="5" />
		<tag k="min_age" v="1" />
		<tag k="name" v="Slettaelva barnehage" />
		<tag k="no-barnehage:nsrid" v="974566745" />
		<tag k="operator" v="Tromsø kommune" />
		<tag k="operator:type" v="public" />
	</node>
	<node lat="69.69774" lon="19.0064" id="-5102">
		<tag k="ADDRESS" v="Skattøra 151, 9018 TROMSØ" />
		<tag k="amenity" v="kindergarten" />
		<tag k="capacity" v="53" />
		<tag k="contact:website" v="http://www.soldagen.barnehage.no" />
		<tag k="max_age" v="5" />
		<tag k="min_age" v="1" />
		<tag k="name" v="Soldagen barnehage" />
		<tag k="no-barnehage:nsrid" v="972290963" />
		<tag k="operator" v="Soldagen barnehage AS" />
		<tag k="operator:type" v="private" />
	</node>
	<node lat="69.696" lon="18.95301" id="-5103">
		<tag k="ADDRESS" v="Ringvegen 522, 9017 TROMSØ" />
		<tag k="amenity" v="kindergarten" />
		<tag k="capacity" v="52" />
		<tag k="max_age" v="5" />
		<tag k="min_age" v="1" />
		<tag k="name" v="Solneset barnehage" />
		<tag k="no-barnehage:nsrid" v="992824727" />
		<tag k="operator" v="Tromsø kommune" />
		<tag k="operator:type" v="public" />
	</node>
	<node lat="69.63783" lon="18.91538" id="-5105">
		<tag k="ADDRESS" v="Lars Thørings veg 29, 9006 TROMSØ" />
		<tag k="amenity" v="kindergarten" />
		<tag k="capacity" v="38" />
		<tag k="max_age" v="5" />
		<tag k="min_age" v="1" />
		<tag k="name" v="Sommereng barnehage" />
		<tag k="no-barnehage:nsrid" v="989094874" />
		<tag k="operator" v="Tromsø kommune" />
		<tag k="operator:type" v="public" />
	</node>
	<node lat="69.63908" lon="18.9055" id="-5106">
		<tag k="ADDRESS" v="Vesterlivegen 5, 9013 TROMSØ" />
		<tag k="amenity" v="kindergarten" />
		<tag k="capacity" v="90" />
		<tag k="max_age" v="5" />
		<tag k="min_age" v="1" />
		<tag k="name" v="Sorgenfri barnehage" />
		<tag k="no-barnehage:nsrid" v="988859680" />
		<tag k="operator" v="Tromsø kommune" />
		<tag k="operator:type" v="public" />
	</node>
	<node lat="69.69198" lon="18.99434" id="-5107">
		<tag k="ADDRESS" v="Nordøyvegen 101, 9018 TROMSØ" />
		<tag k="amenity" v="kindergarten" />
		<tag k="capacity" v="56" />
		<tag k="max_age" v="5" />
		<tag k="min_age" v="1" />
		<tag k="name" v="Stakkevollan barnehage" />
		<tag k="no-barnehage:nsrid" v="974566672" />
		<tag k="operator" v="Tromsø kommune" />
		<tag k="operator:type" v="public" />
	</node>
	<node lat="69.67842" lon="19.05801" id="-5108">
		<tag k="ADDRESS" v="Rubinvegen 1, 9022 KROKELVDALEN" />
		<tag k="amenity" v="kindergarten" />
		<tag k="capacity" v="64" />
		<tag k="contact:website" v="http://www.steinbergetbarnehage.no" />
		<tag k="max_age" v="5" />
		<tag k="min_age" v="1" />
		<tag k="name" v="Steinberget barnehage" />
		<tag k="no-barnehage:nsrid" v="973519662" />
		<tag k="operator" v="Steinberget barnehage SA" />
		<tag k="operator:type" v="private" />
	</node>
	<node lat="69.64244" lon="18.93071" id="-5109">
		<tag k="ADDRESS" v="Kveldrovegen 17, 9007 TROMSØ" />
		<tag k="amenity" v="kindergarten" />
		<tag k="capacity" v="19" />
		<tag k="contact:website" v="http://steinerbarnehagentromso.no" />
		<tag k="max_age" v="5" />
		<tag k="min_age" v="1" />
		<tag k="name" v="Steinerbarnehagen Tromsø" />
		<tag k="no-barnehage:nsrid" v="973464957" />
		<tag k="operator" v="Stiftelsen R Steiner barnehage i Tromsø" />
		<tag k="operator:type" v="private" />
	</node>
	<node lat="0.0" lon="0.0" id="-5110">
		<tag k="ADDRESS" v="Nordselveien 6-8, 9020 TROMSDALEN" />
		<tag k="amenity" v="kindergarten" />
		<tag k="capacity" v="29" />
		<tag k="max_age" v="5" />
		<tag k="min_age" v="1" />
		<tag k="name" v="Stiftelsen Kanutten barnehage, Tromsø" />
		<tag k="no-barnehage:nsrid" v="973489631" />
		<tag k="operator" v="Stiftelsen Kanutten Barnehage, Tromsø" />
		<tag k="operator:type" v="private" />
	</node>
	<node lat="69.66369" lon="18.95288" id="-5111">
		<tag k="ADDRESS" v="Luleåvegen 13, 9011 TROMSØ" />
		<tag k="amenity" v="kindergarten" />
		<tag k="capacity" v="39" />
		<tag k="max_age" v="5" />
		<tag k="min_age" v="1" />
		<tag k="name" v="Storskogåsen studentbarnehage" />
		<tag k="no-barnehage:nsrid" v="975028941" />
		<tag k="operator" v="Storskogåsen studentbarnehage AS" />
		<tag k="operator:type" v="private" />
	</node>
	<node lat="69.68793" lon="18.79448" id="-5112">
		<tag k="ADDRESS" v="Øvre Storvollen 66, 9104 KVALØYA" />
		<tag k="amenity" v="kindergarten" />
		<tag k="capacity" v="36" />
		<tag k="max_age" v="5" />
		<tag k="min_age" v="1" />
		<tag k="name" v="Storvollen barnehage" />
		<tag k="no-barnehage:nsrid" v="989093681" />
		<tag k="operator" v="Tromsø kommune" />
		<tag k="operator:type" v="public" />
	</node>
	<node lat="69.63963" lon="18.93889" id="-5113">
		<tag k="ADDRESS" v="Hjalmar Johansens gate 319, 9007 TROMSØ" />
		<tag k="amenity" v="kindergarten" />
		<tag k="capacity" v="59" />
		<tag k="contact:website" v="http://www.fus.no/strandkanten" />
		<tag k="max_age" v="5" />
		<tag k="min_age" v="1" />
		<tag k="name" v="Strandkanten FUS barnehage" />
		<tag k="no-barnehage:nsrid" v="996843254" />
		<tag k="operator" v="Strandkanten Fus barnehage AS" />
		<tag k="operator:type" v="private" />
	</node>
	<node lat="69.57629" lon="18.62883" id="-5114">
		<tag k="ADDRESS" v="Straumsvegen 2095, 9106 STRAUMSBUKTA" />
		<tag k="amenity" v="kindergarten" />
		<tag k="capacity" v="16" />
		<tag k="max_age" v="5" />
		<tag k="min_age" v="1" />
		<tag k="name" v="Straumsbukta barnehage" />
		<tag k="no-barnehage:nsrid" v="985717656" />
		<tag k="operator" v="Tromsø kommune" />
		<tag k="operator:type" v="public" />
	</node>
	<node lat="69.67863" lon="18.96027" id="-5115">
		<tag k="ADDRESS" v="Dramsvegen 208, 9010 TROMSØ" />
		<tag k="amenity" v="kindergarten" />
		<tag k="capacity" v="47" />
		<tag k="max_age" v="5" />
		<tag k="min_age" v="1" />
		<tag k="name" v="Templarheimen barnehage" />
		<tag k="no-barnehage:nsrid" v="989094688" />
		<tag k="operator" v="Tromsø kommune" />
		<tag k="operator:type" v="public" />
	</node>
	<node lat="69.65257" lon="19.00722" id="-5116">
		<tag k="ADDRESS" v="Tyttebærvegen 11, 9024 TOMASJORD" />
		<tag k="amenity" v="kindergarten" />
		<tag k="capacity" v="74" />
		<tag k="contact:website" v="http://www.fus.no/tindfoten" />
		<tag k="max_age" v="5" />
		<tag k="min_age" v="1" />
		<tag k="name" v="Tindfoten FUS barnehage" />
		<tag k="no-barnehage:nsrid" v="916528426" />
		<tag k="operator" v="Tindfoten Fus barnehage AS" />
		<tag k="operator:type" v="private" />
	</node>
	<node lat="69.69772" lon="18.97537" id="-5117">
		<tag k="ADDRESS" v="Toftvegen 10, 9017 TROMSØ" />
		<tag k="amenity" v="kindergarten" />
		<tag k="capacity" v="39" />
		<tag k="max_age" v="5" />
		<tag k="min_age" v="1" />
		<tag k="name" v="Toftveien barnehage" />
		<tag k="no-barnehage:nsrid" v="972933228" />
		<tag k="operator" v="Toftveien barnehage SA" />
		<tag k="operator:type" v="private" />
	</node>
	<node lat="69.66704" lon="19.02197" id="-5118">
		<tag k="ADDRESS" v="Tomasjordnes 62, 9024 TOMASJORD" />
		<tag k="amenity" v="kindergarten" />
		<tag k="capacity" v="36" />
		<tag k="max_age" v="5" />
		<tag k="min_age" v="1" />
		<tag k="name" v="Tomasjordneset barnehage" />
		<tag k="no-barnehage:nsrid" v="993288012" />
		<tag k="operator" v="Tromsø kommune" />
		<tag k="operator:type" v="public" />
	</node>
	<node lat="69.65144" lon="18.94255" id="-5119">
		<tag k="ADDRESS" v="Trollbakken 11, 9009 TROMSØ" />
		<tag k="amenity" v="kindergarten" />
		<tag k="capacity" v="25" />
		<tag k="max_age" v="5" />
		<tag k="min_age" v="1" />
		<tag k="name" v="Trollbakken barnehage" />
		<tag k="no-barnehage:nsrid" v="874566632" />
		<tag k="operator" v="Tromsø kommune" />
		<tag k="operator:type" v="public" />
	</node>
	<node lat="0.0" lon="0.0" id="-5120">
		<tag k="ADDRESS" v="Tønsnesvegen 11 C, 9020 TROMSDALEN" />
		<tag k="amenity" v="kindergarten" />
		<tag k="capacity" v="50" />
		<tag k="max_age" v="5" />
		<tag k="min_age" v="1" />
		<tag k="name" v="Tromsdalen barnehage" />
		<tag k="no-barnehage:nsrid" v="974566656" />
		<tag k="operator" v="Tromsø kommune" />
		<tag k="operator:type" v="public" />
	</node>
	<node lat="0.0" lon="0.0" id="-5121">
		<tag k="ADDRESS" v="Trondjord, 9103 KVALØYA" />
		<tag k="amenity" v="kindergarten" />
		<tag k="capacity" v="12" />
		<tag k="max_age" v="5" />
		<tag k="min_age" v="1" />
		<tag k="name" v="Trondjord barnehage" />
		<tag k="no-barnehage:nsrid" v="974566702" />
		<tag k="operator" v="Tromsø kommune" />
		<tag k="operator:type" v="public" />
	</node>
	<node lat="69.68678" lon="18.98296" id="-5122">
		<tag k="ADDRESS" v="Gimlevegen 62A, 9019 TROMSØ" />
		<tag k="amenity" v="kindergarten" />
		<tag k="capacity" v="29" />
		<tag k="max_age" v="5" />
		<tag k="min_age" v="1" />
		<tag k="name" v="Trudvang barnehage" />
		<tag k="no-barnehage:nsrid" v="918929053" />
		<tag k="operator" v="Tromsø kommune" />
		<tag k="operator:type" v="public" />
	</node>
	<node lat="69.69236" lon="18.86729" id="-5123">
		<tag k="ADDRESS" v="Slettavegen 60, 9101 KVALØYSLETTA" />
		<tag k="amenity" v="kindergarten" />
		<tag k="capacity" v="79" />
		<tag k="contact:website" v="http://tusseladden.com" />
		<tag k="max_age" v="5" />
		<tag k="min_age" v="1" />
		<tag k="name" v="Tusseladden friluftsbarnehage" />
		<tag k="no-barnehage:nsrid" v="973383221" />
		<tag k="operator" v="Tusseladden friluftsbarnehage SA" />
		<tag k="operator:type" v="private" />
	</node>
	<node lat="69.68468" lon="18.96895" id="-5124">
		<tag k="ADDRESS" v="Framstredet 26, 9019 TROMSØ" />
		<tag k="amenity" v="kindergarten" />
		<tag k="capacity" v="69" />
		<tag k="max_age" v="5" />
		<tag k="min_age" v="1" />
		<tag k="name" v="Universet studentbarnehage" />
		<tag k="no-barnehage:nsrid" v="989981277" />
		<tag k="operator" v="Universet studentbarnehage AS" />
		<tag k="operator:type" v="private" />
	</node>
	<node lat="69.54245" lon="18.78072" id="-5125">
		<tag k="ADDRESS" v="Brokskarvegen 222, 9057 VIKRAN" />
		<tag k="amenity" v="kindergarten" />
		<tag k="capacity" v="13" />
		<tag k="max_age" v="5" />
		<tag k="min_age" v="1" />
		<tag k="name" v="Vikran barnehage" />
		<tag k="no-barnehage:nsrid" v="973483463" />
		<tag k="operator" v="Tromsø kommune" />
		<tag k="operator:type" v="public" />
	</node>
	<node lat="69.6673" lon="18.92989" id="-5129">
		<tag k="ADDRESS" v="Huldervegen 79, 9016 TROMSØ" />
		<tag k="amenity" v="kindergarten" />
		<tag k="capacity" v="48" />
		<tag k="max_age" v="5" />
		<tag k="min_age" v="1" />
		<tag k="name" v="Workinnmarka barnehage" />
		<tag k="no-barnehage:nsrid" v="988859745" />
		<tag k="operator" v="Tromsø kommune" />
		<tag k="operator:type" v="public" />
	</node>
	<node lat="0.0" lon="0.0" id="-5130">
		<tag k="ADDRESS" v="Stakkevollan, 9018 TROMSØ" />
		<tag k="amenity" v="kindergarten" />
		<tag k="name" v="Åpen barnehage Stakkevollan" />
		<tag k="no-barnehage:nsrid" v="995367637" />
		<tag k="operator" v="Tromsø kommune" />
		<tag k="operator:type" v="public" />
	</node>
	<node lat="69.67851" lon="18.77033" id="-5131">
		<tag k="ADDRESS" v="Åslandvegen 77, 9105 KVALØYA" />
		<tag k="amenity" v="kindergarten" />
		<tag k="capacity" v="30" />
		<tag k="contact:website" v="http://www.asland.barnehage.no" />
		<tag k="max_age" v="5" />
		<tag k="min_age" v="1" />
		<tag k="name" v="Åsland barnehage" />
		<tag k="no-barnehage:nsrid" v="973461958" />
		<tag k="operator" v="Åsland barnehage SA" />
		<tag k="operator:type" v="private" />
	</node>
</osm>
