<?xml version="1.0" encoding="UTF-8"?>
<osm version="0.6" generator="osmapis">
	<node lat="59.83577" lon="11.12928" id="-2424">
		<tag k="ADDRESS" v="Gjeddevannsveien 2, 1911 FLATEBY" />
		<tag k="amenity" v="kindergarten" />
		<tag k="capacity" v="43" />
		<tag k="max_age" v="5" />
		<tag k="min_age" v="1" />
		<tag k="name" v="Bergskaug FUS barnehage" />
		<tag k="no-barnehage:nsrid" v="988008222" />
		<tag k="operator" v="Bergskaug Fus barnehage AS" />
		<tag k="operator:type" v="private" />
	</node>
	<node lat="59.83608" lon="11.1438" id="-2425">
		<tag k="ADDRESS" v="Skaugveien 18, 1911 FLATEBY" />
		<tag k="amenity" v="kindergarten" />
		<tag k="capacity" v="60" />
		<tag k="max_age" v="5" />
		<tag k="min_age" v="1" />
		<tag k="name" v="Flateby barnehage" />
		<tag k="no-barnehage:nsrid" v="975295710" />
		<tag k="operator" v="Enebakk kommune" />
		<tag k="operator:type" v="public" />
	</node>
	<node lat="59.8336" lon="11.13736" id="-2426">
		<tag k="ADDRESS" v="Kjensliveien 7, 1911 FLATEBY" />
		<tag k="amenity" v="kindergarten" />
		<tag k="capacity" v="49" />
		<tag k="contact:website" v="http://www.hauglia.barnehage.no" />
		<tag k="max_age" v="5" />
		<tag k="min_age" v="1" />
		<tag k="name" v="Hauglia barnehage" />
		<tag k="no-barnehage:nsrid" v="977478944" />
		<tag k="operator" v="Hauglia barnehage SA" />
		<tag k="operator:type" v="private" />
	</node>
	<node lat="59.76447" lon="11.1535" id="-2427">
		<tag k="ADDRESS" v="Lotterudveien 25, 1912 ENEBAKK" />
		<tag k="amenity" v="kindergarten" />
		<tag k="capacity" v="45" />
		<tag k="max_age" v="5" />
		<tag k="min_age" v="1" />
		<tag k="name" v="Kirkebygden barnehage" />
		<tag k="no-barnehage:nsrid" v="975315657" />
		<tag k="operator" v="Enebakk kommune" />
		<tag k="operator:type" v="public" />
	</node>
	<node lat="0.0" lon="0.0" id="-2428">
		<tag k="ADDRESS" v="Kirkebakken 3, 1914 YTRE ENEBAKK" />
		<tag k="amenity" v="kindergarten" />
		<tag k="capacity" v="17" />
		<tag k="max_age" v="5" />
		<tag k="min_age" v="1" />
		<tag k="name" v="Mari naturbarnehage" />
		<tag k="no-barnehage:nsrid" v="985713553" />
		<tag k="operator" v="Mari naturbarnehage SA" />
		<tag k="operator:type" v="private" />
	</node>
	<node lat="59.82691" lon="11.15068" id="-2429">
		<tag k="ADDRESS" v="Fiolveien 4, 1911 FLATEBY" />
		<tag k="amenity" v="kindergarten" />
		<tag k="capacity" v="58" />
		<tag k="contact:website" v="http://www.melgaard.barnehage.no" />
		<tag k="max_age" v="5" />
		<tag k="min_age" v="1" />
		<tag k="name" v="Melgård barnehage" />
		<tag k="no-barnehage:nsrid" v="983830285" />
		<tag k="operator" v="Melgård barnehage SA" />
		<tag k="operator:type" v="private" />
	</node>
	<node lat="59.72423" lon="11.05936" id="-2430">
		<tag k="ADDRESS" v="Lillestrømveien 27, 1914 YTRE ENEBAKK" />
		<tag k="amenity" v="kindergarten" />
		<tag k="capacity" v="40" />
		<tag k="max_age" v="5" />
		<tag k="min_age" v="1" />
		<tag k="name" v="Mjær FUS barnehage" />
		<tag k="no-barnehage:nsrid" v="992098929" />
		<tag k="operator" v="Mjær Fus barnehage AS" />
		<tag k="operator:type" v="private" />
	</node>
	<node lat="59.73778" lon="11.02547" id="-2431">
		<tag k="ADDRESS" v="Nylendeveien 6, 1914 YTRE ENEBAKK" />
		<tag k="amenity" v="kindergarten" />
		<tag k="capacity" v="78" />
		<tag k="max_age" v="5" />
		<tag k="min_age" v="1" />
		<tag k="name" v="Nylende barnehage" />
		<tag k="no-barnehage:nsrid" v="972399442" />
		<tag k="operator" v="Nylende barnehage SA" />
		<tag k="operator:type" v="private" />
	</node>
	<node lat="59.73086" lon="11.03869" id="-2432">
		<tag k="ADDRESS" v="Fjellveien 8A, 1914 YTRE ENEBAKK" />
		<tag k="amenity" v="kindergarten" />
		<tag k="capacity" v="73" />
		<tag k="max_age" v="5" />
		<tag k="min_age" v="1" />
		<tag k="name" v="Ytre Enebakk barnehage" />
		<tag k="no-barnehage:nsrid" v="975301842" />
		<tag k="operator" v="Enebakk kommune" />
		<tag k="operator:type" v="public" />
	</node>
	<node lat="59.72968" lon="11.05627" id="-2433">
		<tag k="ADDRESS" v="Kjepperudveien 1, 1914 YTRE ENEBAKK" />
		<tag k="amenity" v="kindergarten" />
		<tag k="capacity" v="50" />
		<tag k="max_age" v="5" />
		<tag k="min_age" v="1" />
		<tag k="name" v="Østmarkskollen FUS barnehage" />
		<tag k="no-barnehage:nsrid" v="987992921" />
		<tag k="operator" v="Østmarkskollen Fus barnehage AS" />
		<tag k="operator:type" v="private" />
	</node>
</osm>
