<?xml version="1.0" encoding="UTF-8"?>
<osm generator="osmapis" version="0.6">
	<node id="-4928" lat="60.55237" lon="5.73953">
		<tag k="ADDRESS" v="LÃ¥gaskarvegen 8, 5724 STANGHELLE" />
		<tag k="amenity" v="kindergarten" />
		<tag k="capacity" v="79" />
		<tag k="max_age" v="5" />
		<tag k="min_age" v="1" />
		<tag k="name" v="Stanghelle barnehage" />
		<tag k="no-barnehage:nsrid" v="1017390" />
		<tag k="operator" v="Vaksdal kommune" />
		<tag k="operator:type" v="public" />
	</node>
	<node id="-4927" lat="0.0" lon="0.0">
		<tag k="ADDRESS" v=", 5727 STAMNES" />
		<tag k="amenity" v="kindergarten" />
		<tag k="capacity" v="15" />
		<tag k="max_age" v="5" />
		<tag k="min_age" v="1" />
		<tag k="name" v="Stamnes barnehage" />
		<tag k="no-barnehage:nsrid" v="1018121" />
		<tag k="operator" v="Vaksdal kommune" />
		<tag k="operator:type" v="public" />
	</node>
	<node id="-4926" lat="60.59106" lon="5.8224">
		<tag k="ADDRESS" v="Kyrkjegata 7, 5722 DALEKVAM" />
		<tag k="amenity" v="kindergarten" />
		<tag k="capacity" v="42" />
		<tag k="max_age" v="5" />
		<tag k="min_age" v="3" />
		<tag k="name" v="Dale barnehage" />
		<tag k="no-barnehage:nsrid" v="1018120" />
		<tag k="operator" v="Vaksdal kommune" />
		<tag k="operator:type" v="public" />
	</node>
	<node id="-4930" lat="60.47935" lon="5.74245">
		<tag k="ADDRESS" v="Jamne, 5725 VAKSDAL" />
		<tag k="amenity" v="kindergarten" />
		<tag k="max_age" v="5" />
		<tag k="min_age" v="3" />
		<tag k="name" v="Vaksdal barnehage avd. Klubbhuset" />
		<tag k="no-barnehage:nsrid" v="1013504" />
		<tag k="operator" v="Vaksdal kommune" />
		<tag k="operator:type" v="public" />
	</node>
	<node id="-4929" lat="60.48198" lon="5.74932">
		<tag k="ADDRESS" v="Tveitane 12, 5725 VAKSDAL" />
		<tag k="amenity" v="kindergarten" />
		<tag k="capacity" v="65" />
		<tag k="max_age" v="5" />
		<tag k="min_age" v="1" />
		<tag k="name" v="Vaksdal barnehage" />
		<tag k="no-barnehage:nsrid" v="1012557" />
		<tag k="operator" v="Vaksdal kommune" />
		<tag k="operator:type" v="public" />
	</node>
</osm>
