<?xml version="1.0" encoding="UTF-8"?>
<osm generator="osmapis" version="0.6">
	<node id="-4278" lat="60.4769" lon="5.74057">
		<tag k="amenity" v="kindergarten" />
		<tag k="capacity" v="50" />
		<tag k="contact:email" v="ase.haustaker@vaksdal.kommune.no" />
		<tag k="max_age" v="5" />
		<tag k="min_age" v="1" />
		<tag k="name" v="Vaksdal barnehage" />
		<tag k="no-barnehage:nsrid" v="1012557" />
		<tag k="operator" v="Vaksdal kommune" />
		<tag k="operator:type" v="public" />
		<tag k="start_date" v="1990-01-01" />
	</node>
	<node id="-4277" lat="60.5499" lon="5.73527">
		<tag k="amenity" v="kindergarten" />
		<tag k="capacity" v="77" />
		<tag k="contact:email" v="brita.hesjedal.lunde@vaksdal.kommune.no" />
		<tag k="max_age" v="5" />
		<tag k="min_age" v="1" />
		<tag k="name" v="Stanghelle barnehage" />
		<tag k="no-barnehage:nsrid" v="1017390" />
		<tag k="operator" v="Vaksdal kommune" />
		<tag k="operator:type" v="public" />
		<tag k="start_date" v="1978-08-23" />
	</node>
</osm>
