<?xml version="1.0" encoding="UTF-8"?>
<osm generator="osmapis" version="0.6">
	<node id="-218" lat="59.6171" lon="11.0856">
		<tag k="amenity" v="kindergarten" />
		<tag k="capacity" v="18" />
		<tag k="contact:email" v="erik.brubak@spydeberg.kommune.no" />
		<tag k="max_age" v="5" />
		<tag k="min_age" v="3" />
		<tag k="name" v="Vollene Naturbarnehage" />
		<tag k="no-barnehage:nsrid" v="1013180" />
		<tag k="operator" v="Spydeberg kommune" />
		<tag k="operator:type" v="public" />
		<tag k="start_date" v="2004-01-01" />
	</node>
	<node id="-217" lat="59.60593" lon="11.07465">
		<tag k="amenity" v="kindergarten" />
		<tag k="capacity" v="52" />
		<tag k="contact:email" v="styrer@tyttebaret.no" />
		<tag k="contact:phone" v="+47 69 83 50 05" />
		<tag k="contact:website" v="http://www.tyttebaret.barnehage.no" />
		<tag k="max_age" v="5" />
		<tag k="min_age" v="1" />
		<tag k="name" v="Tyttebæret barnehage Sa" />
		<tag k="no-barnehage:nsrid" v="1020862" />
		<tag k="operator" v="Tyttebæret barnehage Sa" />
		<tag k="operator:type" v="private" />
		<tag k="start_date" v="2003-08-01" />
	</node>
	<node id="-216" lat="59.61534" lon="11.08954">
		<tag k="amenity" v="kindergarten" />
		<tag k="capacity" v="36" />
		<tag k="contact:email" v="solsibhg@online.no" />
		<tag k="contact:phone" v="+47 69 83 81 16" />
		<tag k="contact:website" v="http://www.solsiden.barnehage.no" />
		<tag k="max_age" v="5" />
		<tag k="min_age" v="1" />
		<tag k="name" v="Solsiden barnehage Sa" />
		<tag k="no-barnehage:nsrid" v="1019965" />
		<tag k="operator" v="Solsiden barnehage Sa" />
		<tag k="operator:type" v="private" />
		<tag k="start_date" v="1991-01-01" />
	</node>
	<node id="-215" lat="59.58362" lon="11.06725">
		<tag k="amenity" v="kindergarten" />
		<tag k="capacity" v="51" />
		<tag k="contact:email" v="post@Solbakkenbhg.no" />
		<tag k="contact:phone" v="+47 69 83 84 97" />
		<tag k="contact:website" v="http://solbakken-spydeberg.barnehage.no/" />
		<tag k="max_age" v="5" />
		<tag k="min_age" v="1" />
		<tag k="name" v="Solbakken barnehage" />
		<tag k="no-barnehage:nsrid" v="1020038" />
		<tag k="operator" v="Solbakken barnehage" />
		<tag k="operator:type" v="private" />
		<tag k="start_date" v="1992-08-01" />
	</node>
	<node id="-214" lat="59.61772" lon="11.06594">
		<tag k="amenity" v="kindergarten" />
		<tag k="capacity" v="84" />
		<tag k="contact:email" v="styrer@lovestad.espira.no" />
		<tag k="contact:phone" v="+47 52 84 50 20" />
		<tag k="contact:website" v="http://www.espira.no" />
		<tag k="max_age" v="5" />
		<tag k="min_age" v="1" />
		<tag k="name" v="Espira Løvestad barnehage" />
		<tag k="no-barnehage:nsrid" v="1021834" />
		<tag k="operator" v="Espira Løvestad AS" />
		<tag k="operator:type" v="private" />
		<tag k="start_date" v="2008-06-04" />
	</node>
	<node id="-213" lat="59.6171" lon="11.0856">
		<tag k="amenity" v="kindergarten" />
		<tag k="capacity" v="90" />
		<tag k="contact:email" v="erik.brubak@spydeberg.kommune.no" />
		<tag k="max_age" v="5" />
		<tag k="min_age" v="1" />
		<tag k="name" v="Blomsterenga barnehage" />
		<tag k="no-barnehage:nsrid" v="1015170" />
		<tag k="operator" v="Spydeberg kommune" />
		<tag k="operator:type" v="public" />
		<tag k="start_date" v="2012-11-15" />
	</node>
</osm>
