<?xml version="1.0" encoding="UTF-8"?>
<osm generator="osmapis" version="0.6">
	<node id="-5080" lat="61.36225" lon="5.39327">
		<tag k="ADDRESS" v="Bjerga 14, 6963 DALE I SUNNFJORD" />
		<tag k="amenity" v="kindergarten" />
		<tag k="capacity" v="33" />
		<tag k="max_age" v="5" />
		<tag k="min_age" v="1" />
		<tag k="name" v="Elvetun barnehage" />
		<tag k="no-barnehage:nsrid" v="1021140" />
		<tag k="operator" v="Elvetun barnehage AS" />
		<tag k="operator:type" v="private" />
	</node>
	<node id="-5084" lat="0.0" lon="0.0">
		<tag k="ADDRESS" v=", 6963 DALE I SUNNFJORD" />
		<tag k="amenity" v="kindergarten" />
		<tag k="capacity" v="57" />
		<tag k="max_age" v="5" />
		<tag k="min_age" v="1" />
		<tag k="name" v="Yksnebjør barnehage" />
		<tag k="no-barnehage:nsrid" v="1017343" />
		<tag k="operator" v="Fjaler kommune" />
		<tag k="operator:type" v="public" />
	</node>
	<node id="-5083" lat="0.0" lon="0.0">
		<tag k="ADDRESS" v=", 6967 HELLEVIK I FJALER" />
		<tag k="amenity" v="kindergarten" />
		<tag k="capacity" v="12" />
		<tag k="max_age" v="5" />
		<tag k="min_age" v="1" />
		<tag k="name" v="Våge barnehage" />
		<tag k="no-barnehage:nsrid" v="1012515" />
		<tag k="operator" v="Fjaler kommune" />
		<tag k="operator:type" v="public" />
	</node>
	<node id="-5082" lat="0.0" lon="0.0">
		<tag k="ADDRESS" v=", 6966 GUDDAL" />
		<tag k="amenity" v="kindergarten" />
		<tag k="max_age" v="5" />
		<tag k="min_age" v="1" />
		<tag k="name" v="Guddal barnehage" />
		<tag k="no-barnehage:nsrid" v="1013918" />
		<tag k="operator" v="Fjaler kommune" />
		<tag k="operator:type" v="public" />
	</node>
	<node id="-5081" lat="61.31911" lon="5.3579">
		<tag k="ADDRESS" v="Hauglandsvegen 50, 6968 FLEKKE" />
		<tag k="amenity" v="kindergarten" />
		<tag k="capacity" v="19" />
		<tag k="max_age" v="5" />
		<tag k="min_age" v="1" />
		<tag k="name" v="Flekke barnehage" />
		<tag k="no-barnehage:nsrid" v="1018154" />
		<tag k="operator" v="Fjaler kommune" />
		<tag k="operator:type" v="public" />
	</node>
</osm>
