<?xml version="1.0" encoding="UTF-8"?>
<osm generator="osmapis" version="0.6">
	<node id="-4405" lat="61.3631" lon="5.39812">
		<tag k="amenity" v="kindergarten" />
		<tag k="capacity" v="67" />
		<tag k="contact:email" v="gro.rysjedal@fjaler.kommune.no" />
		<tag k="contact:phone" v="57736654" />
		<tag k="max_age" v="5" />
		<tag k="min_age" v="1" />
		<tag k="name" v="Yksnebjør barnehage" />
		<tag k="no-barnehage:nsrid" v="1017343" />
		<tag k="operator" v="Fjaler kommune" />
		<tag k="operator:type" v="public" />
		<tag k="start_date" v="1976-01-01" />
	</node>
	<node id="-4404" lat="61.25832" lon="4.99404">
		<tag k="amenity" v="kindergarten" />
		<tag k="capacity" v="11" />
		<tag k="contact:phone" v="57 73 76 22" />
		<tag k="max_age" v="5" />
		<tag k="min_age" v="1" />
		<tag k="name" v="Våge barnehage AS" />
		<tag k="no-barnehage:nsrid" v="1020955" />
		<tag k="operator" v="Våge barnehage AS" />
		<tag k="operator:type" v="private" />
		<tag k="start_date" v="1988-04-01" />
	</node>
	<node id="-4403" lat="61.2997" lon="5.17074">
		<tag k="amenity" v="kindergarten" />
		<tag k="capacity" v="15" />
		<tag k="contact:email" v="vigdis.oen.aasnes@fjaler.kommune.no" />
		<tag k="contact:phone" v="57735344" />
		<tag k="max_age" v="5" />
		<tag k="min_age" v="1" />
		<tag k="name" v="Hellevik barnehage" />
		<tag k="no-barnehage:nsrid" v="1012515" />
		<tag k="operator" v="Fjaler kommune" />
		<tag k="operator:type" v="public" />
		<tag k="start_date" v="1989-01-01" />
	</node>
	<node id="-4402" lat="61.2504" lon="5.54927">
		<tag k="amenity" v="kindergarten" />
		<tag k="capacity" v="5" />
		<tag k="max_age" v="5" />
		<tag k="min_age" v="3" />
		<tag k="name" v="Guddal barnehage" />
		<tag k="no-barnehage:nsrid" v="1013918" />
		<tag k="operator" v="Fjaler kommune" />
		<tag k="operator:type" v="public" />
		<tag k="start_date" v="1990-08-20" />
	</node>
	<node id="-4401" lat="61.3175" lon="5.36191">
		<tag k="amenity" v="kindergarten" />
		<tag k="capacity" v="23" />
		<tag k="max_age" v="5" />
		<tag k="min_age" v="1" />
		<tag k="name" v="Flekke barnehage" />
		<tag k="no-barnehage:nsrid" v="1018154" />
		<tag k="operator" v="Fjaler kommune" />
		<tag k="operator:type" v="public" />
		<tag k="start_date" v="1989-01-01" />
	</node>
	<node id="-4400" lat="61.36311" lon="5.398118">
		<tag k="amenity" v="kindergarten" />
		<tag k="capacity" v="44" />
		<tag k="max_age" v="5" />
		<tag k="min_age" v="1" />
		<tag k="name" v="Elvetun barnehage AS" />
		<tag k="no-barnehage:nsrid" v="1021140" />
		<tag k="operator" v="Elvetun barnehage AS" />
		<tag k="operator:type" v="private" />
		<tag k="start_date" v="2004-10-03" />
	</node>
</osm>
