<?xml version="1.0" encoding="UTF-8"?>
<osm generator="osmapis" version="0.6">
	<node id="-4752" lat="61.53399" lon="10.13628">
		<tag k="ADDRESS" v="Ulbergvegen 1, 2630 RINGEBU" />
		<tag k="amenity" v="kindergarten" />
		<tag k="capacity" v="52" />
		<tag k="max_age" v="5" />
		<tag k="min_age" v="3" />
		<tag k="name" v="Ringebu barnehage" />
		<tag k="no-barnehage:nsrid" v="1017468" />
		<tag k="operator" v="Ringebu kommune" />
		<tag k="operator:type" v="public" />
	</node>
	<node id="-4747" lat="61.44438" lon="10.18147">
		<tag k="ADDRESS" v="Vestsidevegen 988, 2634 FÅVANG" />
		<tag k="amenity" v="kindergarten" />
		<tag k="capacity" v="44" />
		<tag k="max_age" v="5" />
		<tag k="min_age" v="3" />
		<tag k="name" v="Fåvang barnehage" />
		<tag k="no-barnehage:nsrid" v="1017469" />
		<tag k="operator" v="Ringebu kommune" />
		<tag k="operator:type" v="public" />
	</node>
	<node id="-4755" lat="0.0" lon="0.0">
		<tag k="ADDRESS" v=", 2632 VENABYGD" />
		<tag k="amenity" v="kindergarten" />
		<tag k="capacity" v="20" />
		<tag k="max_age" v="5" />
		<tag k="min_age" v="1" />
		<tag k="name" v="Venabygd montessoribarnehage" />
		<tag k="no-barnehage:nsrid" v="1019696" />
		<tag k="operator" v="Venabygd Montessoribarnehage Sa" />
		<tag k="operator:type" v="private" />
	</node>
</osm>
