<?xml version="1.0" encoding="UTF-8"?>
<osm version="0.6" generator="osmapis">
	<node lat="61.53445" lon="10.13699" id="-3210">
		<tag k="ADDRESS" v="Kjønnåsvegen 9, 2630 RINGEBU" />
		<tag k="amenity" v="kindergarten" />
		<tag k="capacity" v="10" />
		<tag k="max_age" v="2" />
		<tag k="min_age" v="1" />
		<tag k="name" v="Anne Margrethe's familiebarnehage" />
		<tag k="no-barnehage:nsrid" v="919572906" />
		<tag k="operator" v="Anne Margrethe's familiebarnehage AS" />
		<tag k="operator:type" v="private" />
	</node>
	<node lat="61.53345" lon="10.13225" id="-3211">
		<tag k="ADDRESS" v="Elgfaret 6, 2630 RINGEBU" />
		<tag k="amenity" v="kindergarten" />
		<tag k="capacity" v="5" />
		<tag k="max_age" v="2" />
		<tag k="min_age" v="1" />
		<tag k="name" v="Annys familiebarnehage Voldsrud A" />
		<tag k="no-barnehage:nsrid" v="894939672" />
		<tag k="operator" v="Annys Familiebarnehage A Voldsrud" />
		<tag k="operator:type" v="private" />
	</node>
	<node lat="61.46352" lon="10.19991" id="-3212">
		<tag k="ADDRESS" v="Brekkomsvegen 58, 2634 FÅVANG" />
		<tag k="amenity" v="kindergarten" />
		<tag k="capacity" v="9" />
		<tag k="max_age" v="2" />
		<tag k="min_age" v="1" />
		<tag k="name" v="Brekkomsvegen familiebarnehage Elin Flyen" />
		<tag k="no-barnehage:nsrid" v="989939645" />
		<tag k="operator" v="Elin Margit Flyen" />
		<tag k="operator:type" v="private" />
	</node>
	<node lat="61.55405" lon="10.06826" id="-3214">
		<tag k="ADDRESS" v="Grådalshaugen 55, 2630 RINGEBU" />
		<tag k="amenity" v="kindergarten" />
		<tag k="capacity" v="5" />
		<tag k="max_age" v="2" />
		<tag k="min_age" v="1" />
		<tag k="name" v="Gunns familiebarnehage Stavnhaugen-kjosmoen" />
		<tag k="no-barnehage:nsrid" v="913901533" />
		<tag k="operator" v="Gunns Familiebarnehage Stavnhaugen-Kjosmoen" />
		<tag k="operator:type" v="private" />
	</node>
	<node lat="0.0" lon="0.0" id="-3215">
		<tag k="ADDRESS" v="Prestbakken, 2630 RINGEBU" />
		<tag k="amenity" v="kindergarten" />
		<tag k="capacity" v="8" />
		<tag k="max_age" v="2" />
		<tag k="min_age" v="1" />
		<tag k="name" v="Lenas familiebarnehage" />
		<tag k="no-barnehage:nsrid" v="998393647" />
		<tag k="operator" v="Lenas familiebarnehage" />
		<tag k="operator:type" v="private" />
	</node>
	<node lat="0.0" lon="0.0" id="-3216">
		<tag k="ADDRESS" v="Løvlund, Kjønnås, 2630 RINGEBU" />
		<tag k="amenity" v="kindergarten" />
		<tag k="capacity" v="4" />
		<tag k="max_age" v="2" />
		<tag k="min_age" v="1" />
		<tag k="name" v="Løvlund familiebarnehage" />
		<tag k="no-barnehage:nsrid" v="993467294" />
		<tag k="operator" v="Løvlund Familiebarnehage Kine Engum" />
		<tag k="operator:type" v="private" />
	</node>
	<node lat="0.0" lon="0.0" id="-3217">
		<tag k="ADDRESS" v="Kjønås, 2630 RINGEBU" />
		<tag k="amenity" v="kindergarten" />
		<tag k="capacity" v="4" />
		<tag k="max_age" v="2" />
		<tag k="min_age" v="1" />
		<tag k="name" v="Marit Lovises familiebarnehage" />
		<tag k="no-barnehage:nsrid" v="991273069" />
		<tag k="operator" v="Marit Lovise Amundlien" />
		<tag k="operator:type" v="private" />
	</node>
	<node lat="0.0" lon="0.0" id="-3218">
		<tag k="ADDRESS" v="Grådalshaugen Familiebarnehage, 2630 RINGEBU" />
		<tag k="amenity" v="kindergarten" />
		<tag k="capacity" v="3" />
		<tag k="max_age" v="2" />
		<tag k="min_age" v="1" />
		<tag k="name" v="Randis familiebarnehage Randi Anita Bjerkehage" />
		<tag k="no-barnehage:nsrid" v="998881390" />
		<tag k="operator" v="Randis Familiebarnehage Randi Anita Bjerkehage" />
		<tag k="operator:type" v="private" />
	</node>
	<node lat="0.0" lon="0.0" id="-3220">
		<tag k="ADDRESS" v="Segelstad Nistuen, 2634 FÅVANG" />
		<tag k="amenity" v="kindergarten" />
		<tag k="capacity" v="4" />
		<tag k="max_age" v="2" />
		<tag k="min_age" v="1" />
		<tag k="name" v="Segelstad familiebarnehage Camilla Sønsteli" />
		<tag k="no-barnehage:nsrid" v="994214500" />
		<tag k="operator" v="Segelstad Familiebarnehage Camilla Sønsteli" />
		<tag k="operator:type" v="private" />
	</node>
	<node lat="61.52872" lon="10.12735" id="-3221">
		<tag k="ADDRESS" v="Iver Våles Gate 19, 2630 RINGEBU" />
		<tag k="amenity" v="kindergarten" />
		<tag k="capacity" v="5" />
		<tag k="max_age" v="2" />
		<tag k="min_age" v="1" />
		<tag k="name" v="Sissel Liens familiebarnehage" />
		<tag k="no-barnehage:nsrid" v="925451657" />
		<tag k="operator" v="Sissel Liens Familiebarnehage" />
		<tag k="operator:type" v="private" />
	</node>
	<node lat="0.0" lon="0.0" id="-3222">
		<tag k="ADDRESS" v="Viken, 2634 FÅVANG" />
		<tag k="amenity" v="kindergarten" />
		<tag k="capacity" v="9" />
		<tag k="max_age" v="2" />
		<tag k="min_age" v="1" />
		<tag k="name" v="Sør-fåvang familiebarnehage Kjersti Ringlund" />
		<tag k="no-barnehage:nsrid" v="997724704" />
		<tag k="operator" v="Sør-Fåvang familiebarnehage Kjersti Ringlund" />
		<tag k="operator:type" v="private" />
	</node>
</osm>
