<?xml version="1.0" encoding="UTF-8"?>
<osm generator="osmapis" version="0.6">
	<node id="-2688" lat="59.1924" lon="9.968871">
		<tag k="amenity" v="kindergarten" />
		<tag k="contact:email" v="ingunn.hjelm@larvik.kommune.no" />
		<tag k="name" v="Åpen barnehage Kvelde" />
		<tag k="no-barnehage:nsrid" v="1025681" />
		<tag k="operator" v="Larvik kommune" />
		<tag k="operator:type" v="public" />
		<tag k="start_date" v="2004-09-16" />
	</node>
	<node id="-2687" lat="59.0607" lon="10.0326">
		<tag k="amenity" v="kindergarten" />
		<tag k="contact:email" v="ingunn.hjelm@larvik.kommune.no" />
		<tag k="name" v="Åpen barnehage Bjørnsonsvei" />
		<tag k="no-barnehage:nsrid" v="1016468" />
		<tag k="operator" v="Larvik kommune" />
		<tag k="operator:type" v="public" />
		<tag k="start_date" v="2003-01-01" />
	</node>
	<node id="-2686" lat="58.99011" lon="9.908194">
		<tag k="amenity" v="kindergarten" />
		<tag k="capacity" v="20" />
		<tag k="contact:email" v="hilde.gusland@gmail.com" />
		<tag k="contact:phone" v="+47 95 79 67 73" />
		<tag k="contact:website" v="http://www.vartunbarnehage.no" />
		<tag k="max_age" v="5" />
		<tag k="min_age" v="1" />
		<tag k="name" v="Vårtun barnehage" />
		<tag k="no-barnehage:nsrid" v="1019716" />
		<tag k="operator" v="Vårtun barnehage" />
		<tag k="operator:type" v="private" />
		<tag k="start_date" v="1989-01-02" />
	</node>
	<node id="-2685" lat="59.05927" lon="10.01959">
		<tag k="amenity" v="kindergarten" />
		<tag k="capacity" v="19" />
		<tag k="contact:email" v="hil-saga@online.no" />
		<tag k="contact:phone" v="+47 468 46 637" />
		<tag k="max_age" v="5" />
		<tag k="min_age" v="1" />
		<tag k="name" v="Villa-Kulla barnehage Hilde Saga" />
		<tag k="no-barnehage:nsrid" v="1020638" />
		<tag k="operator" v="Villa-Kulla barnehage Hilde Saga" />
		<tag k="operator:type" v="private" />
		<tag k="start_date" v="2000-08-01" />
	</node>
	<node id="-2684" lat="59.0527" lon="9.99504">
		<tag k="amenity" v="kindergarten" />
		<tag k="capacity" v="41" />
		<tag k="contact:email" v="hilde.karterud@larvik.kommune.no" />
		<tag k="max_age" v="5" />
		<tag k="min_age" v="1" />
		<tag k="name" v="Veldre Kulturbarnehage" />
		<tag k="no-barnehage:nsrid" v="1012813" />
		<tag k="operator" v="Larvik kommune" />
		<tag k="operator:type" v="public" />
		<tag k="start_date" v="1989-01-01" />
	</node>
	<node id="-2683" lat="59.0039" lon="10.031">
		<tag k="amenity" v="kindergarten" />
		<tag k="capacity" v="37" />
		<tag k="contact:email" v="eva.sending@larvik.kommune.no" />
		<tag k="max_age" v="5" />
		<tag k="min_age" v="1" />
		<tag k="name" v="Varden barnehage" />
		<tag k="no-barnehage:nsrid" v="1012812" />
		<tag k="operator" v="Larvik kommune" />
		<tag k="operator:type" v="public" />
		<tag k="start_date" v="1989-01-01" />
	</node>
	<node id="-2682" lat="59.0442" lon="10.0914">
		<tag k="amenity" v="kindergarten" />
		<tag k="capacity" v="38" />
		<tag k="contact:email" v="ellen.cecilie.halle@larvik.kommune.no" />
		<tag k="max_age" v="5" />
		<tag k="min_age" v="1" />
		<tag k="name" v="Valby barnehage" />
		<tag k="no-barnehage:nsrid" v="1012811" />
		<tag k="operator" v="Larvik kommune" />
		<tag k="operator:type" v="public" />
		<tag k="start_date" v="1989-01-01" />
	</node>
	<node id="-2681" lat="59.0551" lon="10.0526">
		<tag k="amenity" v="kindergarten" />
		<tag k="capacity" v="64" />
		<tag k="contact:email" v="sonja.gundersen@larvik.kommune.no" />
		<tag k="max_age" v="5" />
		<tag k="min_age" v="1" />
		<tag k="name" v="Ulåsen barnehage" />
		<tag k="no-barnehage:nsrid" v="1012810" />
		<tag k="operator" v="Larvik kommune" />
		<tag k="operator:type" v="public" />
		<tag k="start_date" v="1989-01-01" />
	</node>
	<node id="-2680" lat="59.1924" lon="9.96887">
		<tag k="amenity" v="kindergarten" />
		<tag k="capacity" v="54" />
		<tag k="contact:email" v="heidi.bjork@larvik.kommune.no" />
		<tag k="max_age" v="5" />
		<tag k="min_age" v="1" />
		<tag k="name" v="Tun barnehage" />
		<tag k="no-barnehage:nsrid" v="1012809" />
		<tag k="operator" v="Larvik kommune" />
		<tag k="operator:type" v="public" />
		<tag k="start_date" v="1989-01-01" />
	</node>
	<node id="-2679" lat="59.07812" lon="10.05164">
		<tag k="amenity" v="kindergarten" />
		<tag k="capacity" v="86" />
		<tag k="contact:email" v="bente@trollsteinen.no" />
		<tag k="contact:phone" v="+47 33 11 66 52" />
		<tag k="contact:website" v="http://www.trollsteinen.no" />
		<tag k="max_age" v="5" />
		<tag k="min_age" v="1" />
		<tag k="name" v="Trollsteinen barnehage Sa" />
		<tag k="no-barnehage:nsrid" v="1019982" />
		<tag k="operator" v="Trollsteinen barnehage Sa" />
		<tag k="operator:type" v="private" />
		<tag k="start_date" v="1991-07-31" />
	</node>
	<node id="-2678" lat="59.0512" lon="10.048">
		<tag k="amenity" v="kindergarten" />
		<tag k="capacity" v="45" />
		<tag k="contact:email" v="lise.bergan@larvik.kommune.no" />
		<tag k="max_age" v="5" />
		<tag k="min_age" v="1" />
		<tag k="name" v="Torstrand barnehage" />
		<tag k="no-barnehage:nsrid" v="1016848" />
		<tag k="operator" v="Larvik kommune" />
		<tag k="operator:type" v="public" />
		<tag k="start_date" v="1976-12-24" />
	</node>
	<node id="-2677" lat="59.0574" lon="10.1396">
		<tag k="amenity" v="kindergarten" />
		<tag k="capacity" v="91" />
		<tag k="contact:email" v="tove.lomme@visma.com" />
		<tag k="max_age" v="5" />
		<tag k="min_age" v="1" />
		<tag k="name" v="Tjølling barnehage" />
		<tag k="no-barnehage:nsrid" v="1016887" />
		<tag k="operator" v="Ifokus AS" />
		<tag k="operator:type" v="private" />
		<tag k="start_date" v="1993-08-01" />
	</node>
	<node id="-2676" lat="59.061" lon="10.0413">
		<tag k="amenity" v="kindergarten" />
		<tag k="capacity" v="37" />
		<tag k="contact:email" v="lene.vadem@larvik.kommune.no" />
		<tag k="max_age" v="5" />
		<tag k="min_age" v="1" />
		<tag k="name" v="Thor Heyerdahl barnehage" />
		<tag k="no-barnehage:nsrid" v="1013115" />
		<tag k="operator" v="Larvik kommune" />
		<tag k="operator:type" v="public" />
		<tag k="start_date" v="2004-10-01" />
	</node>
	<node id="-2675" lat="59.0262" lon="9.9758">
		<tag k="amenity" v="kindergarten" />
		<tag k="capacity" v="41" />
		<tag k="contact:email" v="mette.synnove.omsland@larvik.kommune.no" />
		<tag k="max_age" v="5" />
		<tag k="min_age" v="1" />
		<tag k="name" v="Tanum Kulturbarnehage" />
		<tag k="no-barnehage:nsrid" v="1017913" />
		<tag k="operator" v="Larvik kommune" />
		<tag k="operator:type" v="public" />
		<tag k="start_date" v="2007-10-01" />
	</node>
	<node id="-2673" lat="59.01" lon="10.0238">
		<tag k="amenity" v="kindergarten" />
		<tag k="capacity" v="71" />
		<tag k="contact:email" v="ase.lill.evensen@larvik.kommune.no" />
		<tag k="max_age" v="5" />
		<tag k="min_age" v="1" />
		<tag k="name" v="Solstad barnehage" />
		<tag k="no-barnehage:nsrid" v="1012808" />
		<tag k="operator" v="Larvik kommune" />
		<tag k="operator:type" v="public" />
		<tag k="start_date" v="1989-01-01" />
	</node>
	<node id="-2672" lat="59.0368" lon="9.993252">
		<tag k="amenity" v="kindergarten" />
		<tag k="capacity" v="61" />
		<tag k="contact:email" v="eva@skattekista.org" />
		<tag k="contact:phone" v="+47 33 18 07 18" />
		<tag k="max_age" v="5" />
		<tag k="min_age" v="1" />
		<tag k="name" v="Skattekista barnehage" />
		<tag k="no-barnehage:nsrid" v="1020693" />
		<tag k="operator" v="Skattekista barnehage Sa" />
		<tag k="operator:type" v="private" />
		<tag k="start_date" v="2001-08-01" />
	</node>
	<node id="-2671" lat="58.9983" lon="10.0356">
		<tag k="amenity" v="kindergarten" />
		<tag k="capacity" v="41" />
		<tag k="contact:email" v="sjoparken@kanvas.no" />
		<tag k="max_age" v="5" />
		<tag k="min_age" v="1" />
		<tag k="name" v="Sjøparken Kanvas-Barnehage" />
		<tag k="no-barnehage:nsrid" v="1014153" />
		<tag k="operator" v="Stiftelsen Kanvas" />
		<tag k="operator:type" v="private" />
		<tag k="start_date" v="2010-08-01" />
	</node>
	<node id="-2670" lat="59.0656" lon="10.0443">
		<tag k="amenity" v="kindergarten" />
		<tag k="capacity" v="57" />
		<tag k="contact:email" v="trine.lise.hvarnes@larvik.kommune.no" />
		<tag k="contact:phone" v="+47 98231192" />
		<tag k="max_age" v="5" />
		<tag k="min_age" v="1" />
		<tag k="name" v="Sentrumssatelitten barnehage" />
		<tag k="no-barnehage:nsrid" v="1017831" />
		<tag k="operator" v="Larvik kommune" />
		<tag k="operator:type" v="public" />
		<tag k="start_date" v="2007-01-01" />
	</node>
	<node id="-2669" lat="59.07346" lon="10.19695">
		<tag k="amenity" v="kindergarten" />
		<tag k="capacity" v="71" />
		<tag k="contact:email" v="dl.salbutangen@bhg.no" />
		<tag k="contact:phone" v="+47 33 19 57 00" />
		<tag k="max_age" v="5" />
		<tag k="min_age" v="1" />
		<tag k="name" v="Salbutangen Fus barnehage AS" />
		<tag k="no-barnehage:nsrid" v="1021557" />
		<tag k="operator" v="Salbutangen Fus barnehage AS" />
		<tag k="operator:type" v="private" />
		<tag k="start_date" v="2006-12-01" />
	</node>
	<node id="-2668" lat="59.1033" lon="10.113">
		<tag k="amenity" v="kindergarten" />
		<tag k="capacity" v="68" />
		<tag k="contact:email" v="hanne.arnesen.lillehagen@larvik.kommune.no" />
		<tag k="max_age" v="5" />
		<tag k="min_age" v="1" />
		<tag k="name" v="Rødbøl barnehage" />
		<tag k="no-barnehage:nsrid" v="1017223" />
		<tag k="operator" v="Larvik kommune" />
		<tag k="operator:type" v="public" />
		<tag k="start_date" v="2006-08-01" />
	</node>
	<node id="-2667" lat="59.0256" lon="10.0758">
		<tag k="amenity" v="kindergarten" />
		<tag k="capacity" v="80" />
		<tag k="contact:email" v="bhg.gonveien@laringsverkstedet.no" />
		<tag k="max_age" v="5" />
		<tag k="min_age" v="1" />
		<tag k="name" v="Læringsverkstedet barnehage Avd Gonveien" />
		<tag k="no-barnehage:nsrid" v="1016582" />
		<tag k="operator" v="Læringsverkstedet AS" />
		<tag k="operator:type" v="private" />
		<tag k="start_date" v="2003-11-01" />
	</node>
	<node id="-2666" lat="59.0277" lon="10.0161">
		<tag k="amenity" v="kindergarten" />
		<tag k="capacity" v="80" />
		<tag k="contact:email" v="tove.lomme@visma.com" />
		<tag k="max_age" v="5" />
		<tag k="min_age" v="1" />
		<tag k="name" v="Lysheim barnehage" />
		<tag k="no-barnehage:nsrid" v="1016886" />
		<tag k="operator" v="Ifokus AS" />
		<tag k="operator:type" v="private" />
		<tag k="start_date" v="1993-08-01" />
	</node>
	<node id="-2665" lat="59.05373" lon="10.01088">
		<tag k="amenity" v="kindergarten" />
		<tag k="capacity" v="28" />
		<tag k="contact:email" v="leik-bhg@online.no" />
		<tag k="contact:phone" v="+47 33 18 36 46" />
		<tag k="contact:website" v="http://www.leikvangbarnehage.no" />
		<tag k="max_age" v="5" />
		<tag k="min_age" v="1" />
		<tag k="name" v="Leikvang barnehage Sa" />
		<tag k="no-barnehage:nsrid" v="1019887" />
		<tag k="operator" v="Leikvang barnehage Sa" />
		<tag k="operator:type" v="private" />
		<tag k="start_date" v="1990-01-01" />
	</node>
	<node id="-2664" lat="59.20034" lon="9.968315">
		<tag k="amenity" v="kindergarten" />
		<tag k="capacity" v="48" />
		<tag k="contact:email" v="administrasjon@kveldebarnehage.no" />
		<tag k="contact:phone" v="+47 33112294" />
		<tag k="max_age" v="5" />
		<tag k="min_age" v="1" />
		<tag k="name" v="Kvelde barnehage" />
		<tag k="no-barnehage:nsrid" v="1019660" />
		<tag k="operator" v="Kvelde barnehage" />
		<tag k="operator:type" v="private" />
		<tag k="start_date" v="1988-04-01" />
	</node>
	<node id="-2663" lat="59.0529" lon="10.031">
		<tag k="amenity" v="kindergarten" />
		<tag k="capacity" v="34" />
		<tag k="contact:email" v="mette.farmen.nerli@larvik.kommune.no" />
		<tag k="max_age" v="5" />
		<tag k="min_age" v="1" />
		<tag k="name" v="Jegersborg barnehage" />
		<tag k="no-barnehage:nsrid" v="1012806" />
		<tag k="operator" v="Larvik kommune" />
		<tag k="operator:type" v="public" />
		<tag k="start_date" v="1989-01-01" />
	</node>
	<node id="-2662" lat="58.997" lon="9.86718">
		<tag k="amenity" v="kindergarten" />
		<tag k="capacity" v="51" />
		<tag k="contact:email" v="veronica.steinsholt@ifokus.as" />
		<tag k="max_age" v="5" />
		<tag k="min_age" v="1" />
		<tag k="name" v="Ifokus Torpeløkka barnehage" />
		<tag k="no-barnehage:nsrid" v="1017759" />
		<tag k="operator" v="Ifokus AS" />
		<tag k="operator:type" v="private" />
		<tag k="start_date" v="2007-07-23" />
	</node>
	<node id="-2661" lat="59.2888" lon="9.93675">
		<tag k="amenity" v="kindergarten" />
		<tag k="capacity" v="23" />
		<tag k="contact:email" v="inger.solum.styrvold@larvik.kommune.no" />
		<tag k="max_age" v="5" />
		<tag k="min_age" v="1" />
		<tag k="name" v="Hvarnes barnehage" />
		<tag k="no-barnehage:nsrid" v="1012805" />
		<tag k="operator" v="Larvik kommune" />
		<tag k="operator:type" v="public" />
		<tag k="start_date" v="1989-01-01" />
	</node>
	<node id="-2660" lat="59.0656" lon="10.0443">
		<tag k="amenity" v="kindergarten" />
		<tag k="capacity" v="55" />
		<tag k="contact:email" v="line.engelstad.jacobsen@larvik.kommune.no" />
		<tag k="max_age" v="5" />
		<tag k="min_age" v="1" />
		<tag k="name" v="Hovlandbanen barnehage" />
		<tag k="no-barnehage:nsrid" v="1017739" />
		<tag k="operator" v="Larvik kommune" />
		<tag k="operator:type" v="public" />
		<tag k="start_date" v="2007-01-01" />
	</node>
	<node id="-2659" lat="59.0656" lon="10.0443">
		<tag k="amenity" v="kindergarten" />
		<tag k="capacity" v="68" />
		<tag k="contact:email" v="line.engelstad.jacobsen@larvik.kommune.no" />
		<tag k="max_age" v="5" />
		<tag k="min_age" v="1" />
		<tag k="name" v="Hovland barnehage" />
		<tag k="no-barnehage:nsrid" v="1012804" />
		<tag k="operator" v="Larvik kommune" />
		<tag k="operator:type" v="public" />
		<tag k="start_date" v="1976-01-01" />
	</node>
	<node id="-2658" lat="58.9853" lon="9.86776">
		<tag k="amenity" v="kindergarten" />
		<tag k="capacity" v="61" />
		<tag k="contact:email" v="bjorg.odelund@larvik.kommune.no" />
		<tag k="max_age" v="5" />
		<tag k="min_age" v="1" />
		<tag k="name" v="Helgeroa barnehage" />
		<tag k="no-barnehage:nsrid" v="1012803" />
		<tag k="operator" v="Larvik kommune" />
		<tag k="operator:type" v="public" />
		<tag k="start_date" v="1989-01-01" />
	</node>
	<node id="-2656" lat="59.05365" lon="10.04149">
		<tag k="amenity" v="kindergarten" />
		<tag k="capacity" v="22" />
		<tag k="contact:email" v="post@hakkebakkeskogen-barnehage.no" />
		<tag k="contact:phone" v="+47 33 18 26 74" />
		<tag k="max_age" v="5" />
		<tag k="min_age" v="1" />
		<tag k="name" v="Hakkebakkeskogen barnehage Sa" />
		<tag k="no-barnehage:nsrid" v="1019714" />
		<tag k="operator" v="Hakkebakkeskogen barnehage Sa" />
		<tag k="operator:type" v="private" />
		<tag k="start_date" v="1989-01-02" />
	</node>
	<node id="-2655" lat="59.0538" lon="10.0296">
		<tag k="amenity" v="kindergarten" />
		<tag k="capacity" v="29" />
		<tag k="contact:email" v="styrer@fgaktiv.no" />
		<tag k="contact:phone" v="+47 33184213" />
		<tag k="max_age" v="5" />
		<tag k="min_age" v="1" />
		<tag k="name" v="Gøy på Landet barnehage" />
		<tag k="no-barnehage:nsrid" v="1015952" />
		<tag k="operator" v="Fritzøe Gård Aktiv AS" />
		<tag k="operator:type" v="private" />
		<tag k="start_date" v="1990-08-01" />
	</node>
	<node id="-2654" lat="59.04691" lon="10.09827">
		<tag k="amenity" v="kindergarten" />
		<tag k="capacity" v="74" />
		<tag k="contact:email" v="leder@guriskogen.no" />
		<tag k="contact:phone" v="+47 33 14 05 40" />
		<tag k="max_age" v="5" />
		<tag k="min_age" v="1" />
		<tag k="name" v="Guriskogen barnehage" />
		<tag k="no-barnehage:nsrid" v="1019780" />
		<tag k="operator" v="Guriskogen barnehage Sa" />
		<tag k="operator:type" v="private" />
		<tag k="start_date" v="1989-04-01" />
	</node>
	<node id="-2653" lat="59.065" lon="10.0528">
		<tag k="amenity" v="kindergarten" />
		<tag k="contact:email" v="kjondal@me.com" />
		<tag k="name" v="Gullskatt Åpen barnehage" />
		<tag k="no-barnehage:nsrid" v="1018372" />
		<tag k="operator" v="Vineyard Kristne Felleskap Larvik" />
		<tag k="operator:type" v="private" />
		<tag k="start_date" v="2008-01-01" />
	</node>
	<node id="-2652" lat="58.9887" lon="10.0285">
		<tag k="amenity" v="kindergarten" />
		<tag k="capacity" v="57" />
		<tag k="contact:email" v="tove.lomme@visma.com" />
		<tag k="max_age" v="5" />
		<tag k="min_age" v="1" />
		<tag k="name" v="Grevle barnehage" />
		<tag k="no-barnehage:nsrid" v="1017738" />
		<tag k="operator" v="Ifokus AS" />
		<tag k="operator:type" v="private" />
		<tag k="start_date" v="2007-02-07" />
	</node>
	<node id="-2651" lat="59.06064" lon="10.08472">
		<tag k="amenity" v="kindergarten" />
		<tag k="capacity" v="27" />
		<tag k="contact:email" v="Gjerstad.barnehage@gmail.com" />
		<tag k="contact:phone" v="+47 33 12 69 01" />
		<tag k="max_age" v="5" />
		<tag k="min_age" v="1" />
		<tag k="name" v="Gjerstad Gård/ Gjerstad Natur- og Gårdsbarnehage" />
		<tag k="no-barnehage:nsrid" v="1020445" />
		<tag k="operator" v="Audun E Tvedten" />
		<tag k="operator:type" v="private" />
		<tag k="start_date" v="1997-06-10" />
	</node>
	<node id="-2650" lat="59.05806" lon="10.06239">
		<tag k="amenity" v="kindergarten" />
		<tag k="capacity" v="64" />
		<tag k="contact:email" v="siri@gapatrosten.no" />
		<tag k="contact:phone" v="+47 33 18 24 06" />
		<tag k="max_age" v="5" />
		<tag k="min_age" v="1" />
		<tag k="name" v="Gapatrosten barnehage" />
		<tag k="no-barnehage:nsrid" v="1020429" />
		<tag k="operator" v="Gapatrosten barnehage Sa" />
		<tag k="operator:type" v="private" />
		<tag k="start_date" v="1997-08-31" />
	</node>
	<node id="-2649" lat="59.05274" lon="9.995039">
		<tag k="amenity" v="kindergarten" />
		<tag k="capacity" v="91" />
		<tag k="contact:email" v="anjoha@eventyrskogen-bhg.no" />
		<tag k="contact:phone" v="+47 33 12 02 95" />
		<tag k="contact:website" v="http://www.eventyrskogenbarnehage.no" />
		<tag k="max_age" v="5" />
		<tag k="min_age" v="1" />
		<tag k="name" v="Eventyrskogen barnehage" />
		<tag k="no-barnehage:nsrid" v="1020642" />
		<tag k="operator" v="Eventyrskogen barnehage Sa" />
		<tag k="operator:type" v="private" />
		<tag k="start_date" v="2005-06-01" />
	</node>
	<node id="-2648" lat="59.059" lon="10.0411">
		<tag k="amenity" v="kindergarten" />
		<tag k="capacity" v="58" />
		<tag k="contact:email" v="torunn.hamre@larvik.kommune.no" />
		<tag k="max_age" v="5" />
		<tag k="min_age" v="1" />
		<tag k="name" v="Borgejordet barnehage" />
		<tag k="no-barnehage:nsrid" v="1012807" />
		<tag k="operator" v="Larvik kommune" />
		<tag k="operator:type" v="public" />
		<tag k="start_date" v="1989-01-01" />
	</node>
	<node id="-2647" lat="59.04765" lon="10.07567">
		<tag k="amenity" v="kindergarten" />
		<tag k="capacity" v="74" />
		<tag k="contact:email" v="dl.bisjord@bhg.no" />
		<tag k="contact:phone" v="+47 33 12 00 40" />
		<tag k="contact:website" v="http://www.bisjord.bhg.no" />
		<tag k="max_age" v="5" />
		<tag k="min_age" v="1" />
		<tag k="name" v="Bisjord Fus barnehage AS" />
		<tag k="no-barnehage:nsrid" v="1021669" />
		<tag k="operator" v="Bisjord Fus barnehage AS" />
		<tag k="operator:type" v="private" />
		<tag k="start_date" v="2007-05-24" />
	</node>
	<node id="-2646" lat="59.0338" lon="10.0785">
		<tag k="amenity" v="kindergarten" />
		<tag k="capacity" v="82" />
		<tag k="contact:email" v="trond.gutterod@larvik.kommune.no" />
		<tag k="max_age" v="5" />
		<tag k="min_age" v="1" />
		<tag k="name" v="Bergeskogen Idrettsbarnehage" />
		<tag k="no-barnehage:nsrid" v="1025365" />
		<tag k="operator" v="Larvik kommune" />
		<tag k="operator:type" v="public" />
		<tag k="start_date" v="1989-01-01" />
	</node>
	<node id="-2645" lat="59.05722" lon="10.03879">
		<tag k="amenity" v="kindergarten" />
		<tag k="capacity" v="25" />
		<tag k="contact:email" v="bakkebyg@online.no" />
		<tag k="contact:phone" v="+47 33187044" />
		<tag k="max_age" v="5" />
		<tag k="min_age" v="1" />
		<tag k="name" v="Bakkebygrenda barnehage Sa" />
		<tag k="no-barnehage:nsrid" v="1019799" />
		<tag k="operator" v="Bakkebygrenda barnehage Sa" />
		<tag k="operator:type" v="private" />
		<tag k="start_date" v="1989-01-01" />
	</node>
	<node id="-2691" lat="59.01213" lon="10.21334">
		<tag k="amenity" v="kindergarten" />
		<tag k="contact:email" v="ingunn.hjelm@larvik.kommune.no" />
		<tag k="name" v="Åpen barnehage Tjølling Familiesenter" />
		<tag k="no-barnehage:nsrid" v="1025679" />
		<tag k="operator" v="Larvik kommune" />
		<tag k="operator:type" v="public" />
		<tag k="start_date" v="2003-05-01" />
	</node>
	<node id="-2690" lat="59.00336" lon="10.02192">
		<tag k="amenity" v="kindergarten" />
		<tag k="contact:email" v="ingunn.hjelm@larvik.kommune.no" />
		<tag k="name" v="Åpen barnehage Stavern" />
		<tag k="no-barnehage:nsrid" v="1025680" />
		<tag k="operator" v="Larvik kommune" />
		<tag k="operator:type" v="public" />
		<tag k="start_date" v="2003-05-01" />
	</node>
	<node id="-2689" lat="59.04866" lon="10.04204">
		<tag k="amenity" v="kindergarten" />
		<tag k="contact:email" v="ingunn.hjelm@larvik.kommune.no" />
		<tag k="name" v="Åpen barnehage Mesterfjellet" />
		<tag k="no-barnehage:nsrid" v="1026166" />
		<tag k="operator" v="Larvik kommune" />
		<tag k="operator:type" v="public" />
		<tag k="start_date" v="2015-09-01" />
	</node>
</osm>
