<?xml version="1.0" encoding="UTF-8"?>
<osm generator="osmapis" version="0.6">
	<node id="-2976" lat="59.7333" lon="8.0">
		<tag k="amenity" v="kindergarten" />
		<tag k="capacity" v="59" />
		<tag k="contact:phone" v="35 06 22 80" />
		<tag k="max_age" v="5" />
		<tag k="min_age" v="1" />
		<tag k="name" v="Rauland barnehage" />
		<tag k="no-barnehage:nsrid" v="1018051" />
		<tag k="operator" v="Vinje kommune" />
		<tag k="operator:type" v="public" />
		<tag k="start_date" v="1989-01-01" />
	</node>
	<node id="-2975" lat="59.7391" lon="7.59962">
		<tag k="amenity" v="kindergarten" />
		<tag k="capacity" v="35" />
		<tag k="contact:phone" v="35 06 22 90" />
		<tag k="max_age" v="5" />
		<tag k="min_age" v="1" />
		<tag k="name" v="Edland barnehage" />
		<tag k="no-barnehage:nsrid" v="1013784" />
		<tag k="operator" v="Vinje kommune" />
		<tag k="operator:type" v="public" />
		<tag k="start_date" v="1989-01-02" />
	</node>
	<node id="-2978" lat="59.6204" lon="7.83313">
		<tag k="amenity" v="kindergarten" />
		<tag k="capacity" v="62" />
		<tag k="contact:phone" v="35 06 20 30" />
		<tag k="max_age" v="5" />
		<tag k="min_age" v="1" />
		<tag k="name" v="Åmot barnehage" />
		<tag k="no-barnehage:nsrid" v="1025475" />
		<tag k="operator" v="Vinje kommune" />
		<tag k="operator:type" v="public" />
		<tag k="start_date" v="1982-01-01" />
	</node>
	<node id="-2977" lat="59.5743" lon="8.18589">
		<tag k="amenity" v="kindergarten" />
		<tag k="capacity" v="26" />
		<tag k="contact:phone" v="35062185" />
		<tag k="max_age" v="5" />
		<tag k="min_age" v="1" />
		<tag k="name" v="Øyfjell Oppvekstsenter Avd barnehage" />
		<tag k="no-barnehage:nsrid" v="1018053" />
		<tag k="operator" v="Vinje kommune" />
		<tag k="operator:type" v="public" />
		<tag k="start_date" v="1989-01-01" />
	</node>
</osm>
