<?xml version="1.0" encoding="UTF-8"?>
<osm generator="osmapis" version="0.6">
	<node id="-4992" lat="63.79679" lon="8.68618">
		<tag k="ADDRESS" v="Seterveien 11, 7273 NORDDYRØY" />
		<tag k="amenity" v="kindergarten" />
		<tag k="capacity" v="12" />
		<tag k="contact:website" v="http://www.froya.kommune.no/tjenester/oppvekst/skole-og-utdanning/grunnskoler-i-froya/dyroy-oppvekstsenter/" />
		<tag k="max_age" v="5" />
		<tag k="min_age" v="1" />
		<tag k="name" v="Dyrøy oppvekstsenter avd. barnehage" />
		<tag k="no-barnehage:nsrid" v="976832515" />
		<tag k="operator" v="Frøya kommune" />
		<tag k="operator:type" v="public" />
	</node>
	<node id="-4993" lat="63.72889" lon="8.82764">
		<tag k="ADDRESS" v="Sørveien 17b, 7260 SISTRANDA" />
		<tag k="amenity" v="kindergarten" />
		<tag k="name" v="Kysthaven åpen barnehage" />
		<tag k="no-barnehage:nsrid" v="996451151" />
		<tag k="operator" v="Frøya kommune" />
		<tag k="operator:type" v="public" />
	</node>
	<node id="-4994" lat="63.86472" lon="8.65496">
		<tag k="ADDRESS" v="Måøyveien 74, 7284 MAUSUND" />
		<tag k="amenity" v="kindergarten" />
		<tag k="capacity" v="5" />
		<tag k="contact:website" v="http://www.mausund.skole.no" />
		<tag k="max_age" v="5" />
		<tag k="min_age" v="1" />
		<tag k="name" v="Mausund oppvekstsenter avd. barnehage" />
		<tag k="no-barnehage:nsrid" v="976832507" />
		<tag k="operator" v="Frøya kommune" />
		<tag k="operator:type" v="public" />
	</node>
	<node id="-4995" lat="63.69811" lon="8.79">
		<tag k="ADDRESS" v="Sørfrøyveien 137, 7263 HAMARVIK" />
		<tag k="amenity" v="kindergarten" />
		<tag k="capacity" v="52" />
		<tag k="max_age" v="5" />
		<tag k="min_age" v="1" />
		<tag k="name" v="Nabeita oppvekstsenter avd. barnehage" />
		<tag k="no-barnehage:nsrid" v="875311182" />
		<tag k="operator" v="Frøya kommune" />
		<tag k="operator:type" v="public" />
	</node>
	<node id="-4996" lat="63.76727" lon="8.81056">
		<tag k="ADDRESS" v="Nessaveien 18, 7270 DYRVIK" />
		<tag k="amenity" v="kindergarten" />
		<tag k="capacity" v="39" />
		<tag k="max_age" v="5" />
		<tag k="min_age" v="1" />
		<tag k="name" v="Nesset barnehage" />
		<tag k="no-barnehage:nsrid" v="975311198" />
		<tag k="operator" v="Frøya kommune" />
		<tag k="operator:type" v="public" />
	</node>
	<node id="-4997" lat="63.70618" lon="8.55516">
		<tag k="ADDRESS" v="Skoleveien 21, 7266 KVERVA" />
		<tag k="amenity" v="kindergarten" />
		<tag k="capacity" v="34" />
		<tag k="contact:website" v="http://www.froya.kommune.no/tjenester/oppvekst/skole-og-utdanning/grunnskoler-i-froya/nordskag-oppvekstsent" />
		<tag k="max_age" v="5" />
		<tag k="min_age" v="1" />
		<tag k="name" v="Nordskag oppvekstsenter avd. barnehage" />
		<tag k="no-barnehage:nsrid" v="975323722" />
		<tag k="operator" v="Frøya kommune" />
		<tag k="operator:type" v="public" />
	</node>
	<node id="-4998" lat="63.72327" lon="8.83131">
		<tag k="ADDRESS" v="Kreklingveien 20, 7260 SISTRANDA" />
		<tag k="amenity" v="kindergarten" />
		<tag k="capacity" v="58" />
		<tag k="max_age" v="5" />
		<tag k="min_age" v="1" />
		<tag k="name" v="Rabben barnehagedrift" />
		<tag k="no-barnehage:nsrid" v="999669514" />
		<tag k="operator" v="Rabben Barnehagedrift AS" />
		<tag k="operator:type" v="private" />
	</node>
	<node id="-4999" lat="63.72825" lon="8.83391">
		<tag k="ADDRESS" v="Nordfrøyveien 373, 7260 SISTRANDA" />
		<tag k="amenity" v="kindergarten" />
		<tag k="capacity" v="62" />
		<tag k="max_age" v="5" />
		<tag k="min_age" v="1" />
		<tag k="name" v="Sistranda kystbarnehage" />
		<tag k="no-barnehage:nsrid" v="884683092" />
		<tag k="operator" v="Sistranda Kystbarnehage AS" />
		<tag k="operator:type" v="private" />
	</node>
</osm>
