<?xml version="1.0" encoding="UTF-8"?>
<osm generator="osmapis" version="0.6">
	<node id="-1021" lat="59.92246" lon="10.65328">
		<tag k="amenity" v="kindergarten" />
		<tag k="capacity" v="8" />
		<tag k="contact:website" v="http://ingvildsbarnehage.no" />
		<tag k="max_age" v="2" />
		<tag k="min_age" v="1" />
		<tag k="name" v="Ingvilds barnehage Holgerslystveien" />
		<tag k="no-barnehage:nsrid" v="2000107" />
		<tag k="operator" v="Ingvilds barnehage Ingvild Elisabeth Eide" />
		<tag k="operator:type" v="private" />
	</node>
	<node id="-1020" lat="59.92212" lon="10.65596">
		<tag k="amenity" v="kindergarten" />
		<tag k="capacity" v="8" />
		<tag k="contact:website" v="http://ingvildsbarnehage.no" />
		<tag k="max_age" v="2" />
		<tag k="min_age" v="1" />
		<tag k="name" v="Ingvilds barnehage Bestumveien" />
		<tag k="no-barnehage:nsrid" v="1021810" />
		<tag k="operator" v="Ingvilds barnehage Ingvild Elisabeth Eide" />
		<tag k="operator:type" v="private" />
	</node>
	<node id="-1005" lat="59.91533" lon="10.76752">
		<tag k="amenity" v="kindergarten" />
		<tag k="capacity" v="4" />
		<tag k="max_age" v="2" />
		<tag k="min_age" v="1" />
		<tag k="name" v="Herslebs familiebarnehage" />
		<tag k="no-barnehage:nsrid" v="1022453" />
		<tag k="operator" v="Egeh AS" />
		<tag k="operator:type" v="private" />
	</node>
	<node id="-976" lat="59.943" lon="10.6415">
		<tag k="amenity" v="kindergarten" />
		<tag k="capacity" v="8" />
		<tag k="contact:website" v="http://www.Familiebarnehage.no" />
		<tag k="max_age" v="2" />
		<tag k="min_age" v="1" />
		<tag k="name" v="Hakkebakkeskogen familiebarnehage avd. Vækerøveien" />
		<tag k="no-barnehage:nsrid" v="1015857" />
		<tag k="operator" v="Hakkebakkeskogen Familiebarnehage AS" />
		<tag k="operator:type" v="private" />
	</node>
	<node id="-975" lat="59.9223" lon="10.6606">
		<tag k="amenity" v="kindergarten" />
		<tag k="capacity" v="8" />
		<tag k="contact:website" v="http://www.Familiebarnehage.no" />
		<tag k="max_age" v="2" />
		<tag k="min_age" v="1" />
		<tag k="name" v="Hakkebakkeskogen familiebarnehage avd. Ullernveien" />
		<tag k="no-barnehage:nsrid" v="1016575" />
		<tag k="operator" v="Hakkebakkeskogen Familiebarnehage AS" />
		<tag k="operator:type" v="private" />
	</node>
	<node id="-974" lat="59.9583" lon="10.7601">
		<tag k="amenity" v="kindergarten" />
		<tag k="capacity" v="8" />
		<tag k="contact:website" v="http://www.Familiebarnehage.no" />
		<tag k="max_age" v="2" />
		<tag k="min_age" v="1" />
		<tag k="name" v="Hakkebakkeskogen familiebarnehage avd. Tåsenveien" />
		<tag k="no-barnehage:nsrid" v="1016352" />
		<tag k="operator" v="Hakkebakkeskogen Familiebarnehage AS" />
		<tag k="operator:type" v="private" />
	</node>
	<node id="-973" lat="59.9451" lon="10.792">
		<tag k="amenity" v="kindergarten" />
		<tag k="capacity" v="8" />
		<tag k="contact:website" v="http://www.Familiebarnehage.no" />
		<tag k="max_age" v="2" />
		<tag k="min_age" v="1" />
		<tag k="name" v="Hakkebakkeskogen familiebarnehage avd. Koldrupsvei" />
		<tag k="no-barnehage:nsrid" v="1013346" />
		<tag k="operator" v="Hakkebakkeskogen Familiebarnehage AS" />
		<tag k="operator:type" v="private" />
	</node>
	<node id="-972" lat="59.9571" lon="10.8854">
		<tag k="amenity" v="kindergarten" />
		<tag k="capacity" v="8" />
		<tag k="contact:website" v="http://www.Familiebarnehage.no" />
		<tag k="max_age" v="2" />
		<tag k="min_age" v="1" />
		<tag k="name" v="Hakkebakkeskogen familiebarnehage avd. kirkesvingen" />
		<tag k="no-barnehage:nsrid" v="1013304" />
		<tag k="operator" v="Hakkebakkeskogen Familiebarnehage AS" />
		<tag k="operator:type" v="private" />
	</node>
	<node id="-971" lat="59.8983" lon="10.7758">
		<tag k="amenity" v="kindergarten" />
		<tag k="capacity" v="4" />
		<tag k="contact:website" v="http://www.Familiebarnehage.no" />
		<tag k="max_age" v="2" />
		<tag k="min_age" v="1" />
		<tag k="name" v="Hakkebakkeskogen familiebarnehage avd. Jotunveien" />
		<tag k="no-barnehage:nsrid" v="1016353" />
		<tag k="operator" v="Hakkebakkeskogen Familiebarnehage AS" />
		<tag k="operator:type" v="private" />
	</node>
	<node id="-970" lat="59.9349" lon="10.688">
		<tag k="amenity" v="kindergarten" />
		<tag k="capacity" v="8" />
		<tag k="contact:website" v="http://www.Familiebarnehage.no" />
		<tag k="max_age" v="2" />
		<tag k="min_age" v="1" />
		<tag k="name" v="Hakkebakkeskogen familiebarnehage avd. Gullkroken" />
		<tag k="no-barnehage:nsrid" v="1018305" />
		<tag k="operator" v="Hakkebakkeskogen Familiebarnehage AS" />
		<tag k="operator:type" v="private" />
	</node>
	<node id="-969" lat="59.9106" lon="10.8276">
		<tag k="amenity" v="kindergarten" />
		<tag k="capacity" v="8" />
		<tag k="contact:website" v="http://www.Familiebarnehage.no" />
		<tag k="max_age" v="2" />
		<tag k="min_age" v="1" />
		<tag k="name" v="Hakkebakkeskogen familiebarnehage avd. Fyrstikkbakken" />
		<tag k="no-barnehage:nsrid" v="1017908" />
		<tag k="operator" v="Hakkebakkeskogen Familiebarnehage AS" />
		<tag k="operator:type" v="private" />
	</node>
	<node id="-968" lat="59.9022" lon="10.8109">
		<tag k="amenity" v="kindergarten" />
		<tag k="capacity" v="8" />
		<tag k="contact:website" v="http://www.Familiebarnehage.no" />
		<tag k="max_age" v="2" />
		<tag k="min_age" v="1" />
		<tag k="name" v="Hakkebakkeskogen familiebarnehage avd. Drivhusveien" />
		<tag k="no-barnehage:nsrid" v="1017276" />
		<tag k="operator" v="Hakkebakkeskogen Familiebarnehage AS" />
		<tag k="operator:type" v="private" />
	</node>
	<node id="-967" lat="59.9634" lon="10.7801">
		<tag k="amenity" v="kindergarten" />
		<tag k="capacity" v="8" />
		<tag k="contact:website" v="http://www.Familiebarnehage.no" />
		<tag k="max_age" v="2" />
		<tag k="min_age" v="1" />
		<tag k="name" v="Hakkebakkeskogen familiebarnehage avd. Daniel Walstadsvei" />
		<tag k="no-barnehage:nsrid" v="1017631" />
		<tag k="operator" v="Hakkebakkeskogen Familiebarnehage AS" />
		<tag k="operator:type" v="private" />
	</node>
	<node id="-966" lat="59.9448" lon="10.7518">
		<tag k="amenity" v="kindergarten" />
		<tag k="capacity" v="8" />
		<tag k="contact:website" v="http://www.Familiebarnehage.no" />
		<tag k="max_age" v="2" />
		<tag k="min_age" v="1" />
		<tag k="name" v="Hakkebakkeskogen familiebarnehage avd. Biskop Heuchsvei" />
		<tag k="no-barnehage:nsrid" v="1016968" />
		<tag k="operator" v="Hakkebakkeskogen Familiebarnehage AS" />
		<tag k="operator:type" v="private" />
	</node>
	<node id="-963" lat="59.9255" lon="10.6344">
		<tag k="amenity" v="kindergarten" />
		<tag k="capacity" v="8" />
		<tag k="contact:website" v="http://www.tornsvalen.no" />
		<tag k="max_age" v="2" />
		<tag k="min_age" v="1" />
		<tag k="name" v="Gulspurven familebarnehage" />
		<tag k="no-barnehage:nsrid" v="1015906" />
		<tag k="operator" v="Tårnsvalen barnehage AS" />
		<tag k="operator:type" v="private" />
	</node>
	<node id="-962" lat="59.92078" lon="10.66102">
		<tag k="amenity" v="kindergarten" />
		<tag k="capacity" v="4" />
		<tag k="max_age" v="2" />
		<tag k="min_age" v="1" />
		<tag k="name" v="Gullungene familiebarnehage avd. Bestumveien" />
		<tag k="no-barnehage:nsrid" v="1015900" />
		<tag k="operator" v="Gullungene Familiebarnehage Mona K Axelsen" />
		<tag k="operator:type" v="private" />
	</node>
	<node id="-961" lat="59.8545" lon="10.7923">
		<tag k="amenity" v="kindergarten" />
		<tag k="capacity" v="8" />
		<tag k="max_age" v="2" />
		<tag k="min_age" v="1" />
		<tag k="name" v="Gullklumpen familiebarnehage" />
		<tag k="no-barnehage:nsrid" v="1014263" />
		<tag k="operator" v="Amigos barnehage Limited" />
		<tag k="operator:type" v="private" />
	</node>
	<node id="-955" lat="59.91342" lon="10.76405">
		<tag k="amenity" v="kindergarten" />
		<tag k="capacity" v="4" />
		<tag k="max_age" v="2" />
		<tag k="min_age" v="1" />
		<tag k="name" v="Grønland familiebarnehage" />
		<tag k="no-barnehage:nsrid" v="1025643" />
		<tag k="operator" v="Egeh AS" />
		<tag k="operator:type" v="private" />
	</node>
	<node id="-935" lat="59.9564" lon="10.6706">
		<tag k="amenity" v="kindergarten" />
		<tag k="capacity" v="8" />
		<tag k="max_age" v="2" />
		<tag k="min_age" v="1" />
		<tag k="name" v="Fuglekongen familiebarnehage" />
		<tag k="no-barnehage:nsrid" v="1013148" />
		<tag k="operator" v="Tårnsvalen barnehage AS" />
		<tag k="operator:type" v="private" />
	</node>
	<node id="-898" lat="59.8752" lon="10.8207">
		<tag k="amenity" v="kindergarten" />
		<tag k="capacity" v="8" />
		<tag k="max_age" v="2" />
		<tag k="min_age" v="1" />
		<tag k="name" v="Engleslottet" />
		<tag k="no-barnehage:nsrid" v="1021779" />
		<tag k="operator" v="Engleslottet AS" />
		<tag k="operator:type" v="private" />
	</node>
	<node id="-894" lat="59.8744" lon="10.804">
		<tag k="amenity" v="kindergarten" />
		<tag k="capacity" v="8" />
		<tag k="max_age" v="2" />
		<tag k="min_age" v="1" />
		<tag k="name" v="Emil familebarnehage" />
		<tag k="no-barnehage:nsrid" v="1016456" />
		<tag k="operator" v="Lønneberget barnehage AS" />
		<tag k="operator:type" v="private" />
	</node>
	<node id="-887" lat="59.9496" lon="10.6815">
		<tag k="amenity" v="kindergarten" />
		<tag k="capacity" v="8" />
		<tag k="max_age" v="2" />
		<tag k="min_age" v="1" />
		<tag k="name" v="Du og Jeg Og Vi To" />
		<tag k="no-barnehage:nsrid" v="1013454" />
		<tag k="operator" v="Amigos barnehage Limited" />
		<tag k="operator:type" v="private" />
	</node>
	<node id="-881" lat="59.91674" lon="10.82453">
		<tag k="amenity" v="kindergarten" />
		<tag k="capacity" v="4" />
		<tag k="max_age" v="5" />
		<tag k="min_age" v="1" />
		<tag k="name" v="Den Russiske barnehagen" />
		<tag k="no-barnehage:nsrid" v="1022203" />
		<tag k="operator" v="Rysstad Drift" />
		<tag k="operator:type" v="private" />
	</node>
	<node id="-879" lat="59.85084" lon="10.78954">
		<tag k="amenity" v="kindergarten" />
		<tag k="capacity" v="8" />
		<tag k="max_age" v="2" />
		<tag k="min_age" v="1" />
		<tag k="name" v="De Ni Musene avd. Nordstrand" />
		<tag k="no-barnehage:nsrid" v="1022095" />
		<tag k="operator" v="De Ni Musene AS" />
		<tag k="operator:type" v="private" />
	</node>
	<node id="-878" lat="59.91989" lon="10.70131">
		<tag k="amenity" v="kindergarten" />
		<tag k="capacity" v="4" />
		<tag k="contact:website" v="http://denimusene.no" />
		<tag k="max_age" v="2" />
		<tag k="min_age" v="1" />
		<tag k="name" v="De Ni Musene avd. Frogner" />
		<tag k="no-barnehage:nsrid" v="1021914" />
		<tag k="operator" v="De Ni Musene AS" />
		<tag k="operator:type" v="private" />
	</node>
	<node id="-866" lat="59.8885" lon="10.84225">
		<tag k="amenity" v="kindergarten" />
		<tag k="capacity" v="4" />
		<tag k="max_age" v="2" />
		<tag k="min_age" v="1" />
		<tag k="name" v="Bøler private familiebarnehage" />
		<tag k="no-barnehage:nsrid" v="1020708" />
		<tag k="operator" v="Bøler Private Familiebarnehage avd Unni Skogstad" />
		<tag k="operator:type" v="private" />
	</node>
	<node id="-1372" lat="59.93892" lon="10.81386">
		<tag k="amenity" v="kindergarten" />
		<tag k="capacity" v="8" />
		<tag k="max_age" v="2" />
		<tag k="min_age" v="1" />
		<tag k="name" v="Økernveien familiebarnehage" />
		<tag k="no-barnehage:nsrid" v="1013333" />
		<tag k="operator" v="Økernveien Familiebarnehage Cemile Algünerhan" />
		<tag k="operator:type" v="private" />
	</node>
	<node id="-857" lat="59.84905" lon="10.84329">
		<tag k="amenity" v="kindergarten" />
		<tag k="capacity" v="10" />
		<tag k="contact:website" v="http://www.brennastubben.no" />
		<tag k="max_age" v="5" />
		<tag k="min_age" v="1" />
		<tag k="name" v="Brennastubben familiebarnehage" />
		<tag k="no-barnehage:nsrid" v="1021439" />
		<tag k="operator" v="Brennastubben Familiebarnehage AS" />
		<tag k="operator:type" v="private" />
	</node>
	<node id="-854" lat="59.85782" lon="10.81334">
		<tag k="amenity" v="kindergarten" />
		<tag k="capacity" v="8" />
		<tag k="max_age" v="2" />
		<tag k="min_age" v="1" />
		<tag k="name" v="Brattvoll familiebarnehage" />
		<tag k="no-barnehage:nsrid" v="1014001" />
		<tag k="operator" v="Ellen Marianne Pettersen" />
		<tag k="operator:type" v="private" />
	</node>
	<node id="-853" lat="59.91257" lon="10.77068">
		<tag k="amenity" v="kindergarten" />
		<tag k="capacity" v="4" />
		<tag k="max_age" v="2" />
		<tag k="min_age" v="1" />
		<tag k="name" v="Borggata familiebarnehage" />
		<tag k="no-barnehage:nsrid" v="1022224" />
		<tag k="operator" v="Egeh AS" />
		<tag k="operator:type" v="private" />
	</node>
	<node id="-1355" lat="59.9533" lon="10.75386">
		<tag k="amenity" v="kindergarten" />
		<tag k="capacity" v="10" />
		<tag k="max_age" v="5" />
		<tag k="min_age" v="1" />
		<tag k="name" v="Veslehaugen familiebarnehage B. Bjorskau" />
		<tag k="no-barnehage:nsrid" v="1021297" />
		<tag k="operator" v="Berit Bjorskau" />
		<tag k="operator:type" v="private" />
	</node>
	<node id="-1353" lat="59.91211" lon="10.78102">
		<tag k="amenity" v="kindergarten" />
		<tag k="capacity" v="4" />
		<tag k="max_age" v="2" />
		<tag k="min_age" v="1" />
		<tag k="name" v="Venkes familiebarnehage Venke Anita Fredstad" />
		<tag k="no-barnehage:nsrid" v="1021775" />
		<tag k="operator" v="Venkes Familiebarnehage Venke Anita Fredstad" />
		<tag k="operator:type" v="private" />
	</node>
	<node id="-1352" lat="59.94021" lon="10.83147">
		<tag k="amenity" v="kindergarten" />
		<tag k="capacity" v="8" />
		<tag k="max_age" v="2" />
		<tag k="min_age" v="1" />
		<tag k="name" v="Veksthusfløtten familiebarnehage" />
		<tag k="no-barnehage:nsrid" v="1021159" />
		<tag k="operator" v="Algunarhan Familiebarnehagen" />
		<tag k="operator:type" v="private" />
	</node>
	<node id="-831" lat="59.88295" lon="10.77506">
		<tag k="amenity" v="kindergarten" />
		<tag k="capacity" v="4" />
		<tag k="max_age" v="2" />
		<tag k="min_age" v="1" />
		<tag k="name" v="Bekkelag familiebarnehage Kaneez Fatima" />
		<tag k="no-barnehage:nsrid" v="1021538" />
		<tag k="operator" v="Bekkelagsveien 18e Familiebarnehage Kaneez Fatima" />
		<tag k="operator:type" v="private" />
	</node>
	<node id="-1334" lat="59.91211" lon="10.78102">
		<tag k="amenity" v="kindergarten" />
		<tag k="capacity" v="4" />
		<tag k="max_age" v="2" />
		<tag k="min_age" v="1" />
		<tag k="name" v="Trudes familiebarnehage Trude Gulbrandsen" />
		<tag k="no-barnehage:nsrid" v="1021078" />
		<tag k="operator" v="Trudes Familiebarnehage Trude Gulbrandsen" />
		<tag k="operator:type" v="private" />
	</node>
	<node id="-820" lat="59.94177" lon="10.68521">
		<tag k="amenity" v="kindergarten" />
		<tag k="capacity" v="8" />
		<tag k="contact:website" v="http://www.oslo.kommune.no/barnehage/finn-barnehage-i-oslo/bamsebo-familiebarnehage/" />
		<tag k="max_age" v="2" />
		<tag k="min_age" v="1" />
		<tag k="name" v="Bamsebo familiebarnehage" />
		<tag k="no-barnehage:nsrid" v="1022390" />
		<tag k="operator" v="Vestre Aker Omsorg AS" />
		<tag k="operator:type" v="private" />
	</node>
	<node id="-1331" lat="59.90133" lon="10.8531">
		<tag k="amenity" v="kindergarten" />
		<tag k="capacity" v="8" />
		<tag k="max_age" v="2" />
		<tag k="min_age" v="1" />
		<tag k="name" v="Trollungene familiebarnehage" />
		<tag k="no-barnehage:nsrid" v="1020398" />
		<tag k="operator" v="Trollungene Familiebarnehage AS" />
		<tag k="operator:type" v="private" />
	</node>
	<node id="-1326" lat="59.86776" lon="10.8082">
		<tag k="amenity" v="kindergarten" />
		<tag k="capacity" v="8" />
		<tag k="contact:website" v="http://www.treklossen.no" />
		<tag k="max_age" v="2" />
		<tag k="min_age" v="1" />
		<tag k="name" v="Treklossen familiebarnehage" />
		<tag k="no-barnehage:nsrid" v="1022166" />
		<tag k="operator" v="Treklossen Familiebarnehage Kristin S Hagen" />
		<tag k="operator:type" v="private" />
	</node>
	<node id="-1323" lat="59.9208" lon="10.7074">
		<tag k="amenity" v="kindergarten" />
		<tag k="capacity" v="4" />
		<tag k="max_age" v="2" />
		<tag k="min_age" v="1" />
		<tag k="name" v="Tornerose familiebarnehage" />
		<tag k="no-barnehage:nsrid" v="1013509" />
		<tag k="operator" v="Amigos barnehage Limited" />
		<tag k="operator:type" v="private" />
	</node>
	<node id="-1322" lat="59.87881" lon="10.79893">
		<tag k="amenity" v="kindergarten" />
		<tag k="capacity" v="8" />
		<tag k="max_age" v="2" />
		<tag k="min_age" v="1" />
		<tag k="name" v="Toppen familiebarnehage Cb" />
		<tag k="no-barnehage:nsrid" v="1022307" />
		<tag k="operator" v="Toppen Familiebarnehage Cb AS" />
		<tag k="operator:type" v="private" />
	</node>
	<node id="-805" lat="59.8537" lon="10.803">
		<tag k="amenity" v="kindergarten" />
		<tag k="capacity" v="8" />
		<tag k="max_age" v="2" />
		<tag k="min_age" v="1" />
		<tag k="name" v="Alfred familiebarnehage" />
		<tag k="no-barnehage:nsrid" v="1013088" />
		<tag k="operator" v="Lønneberget barnehage AS" />
		<tag k="operator:type" v="private" />
	</node>
	<node id="-1315" lat="59.88486" lon="10.77882">
		<tag k="amenity" v="kindergarten" />
		<tag k="capacity" v="8" />
		<tag k="max_age" v="2" />
		<tag k="min_age" v="1" />
		<tag k="name" v="Tigergutt familiebarnehage" />
		<tag k="no-barnehage:nsrid" v="1021764" />
		<tag k="operator" v="Tigergutt Familiebarnehage" />
		<tag k="operator:type" v="private" />
	</node>
	<node id="-801" lat="59.9115" lon="10.7231">
		<tag k="amenity" v="kindergarten" />
		<tag k="capacity" v="8" />
		<tag k="max_age" v="2" />
		<tag k="min_age" v="1" />
		<tag k="name" v="Abrakadabra familiebarnehage" />
		<tag k="no-barnehage:nsrid" v="1018450" />
		<tag k="operator" v="Amigos barnehage Limited" />
		<tag k="operator:type" v="private" />
	</node>
	<node id="-1304" lat="59.8794" lon="10.7799">
		<tag k="amenity" v="kindergarten" />
		<tag k="capacity" v="10" />
		<tag k="max_age" v="5" />
		<tag k="min_age" v="1" />
		<tag k="name" v="Symrahagen familiebarnehage" />
		<tag k="no-barnehage:nsrid" v="1014911" />
		<tag k="operator" v="Symrahagen AS" />
		<tag k="operator:type" v="private" />
	</node>
	<node id="-1274" lat="59.94748" lon="10.63652">
		<tag k="amenity" v="kindergarten" />
		<tag k="capacity" v="8" />
		<tag k="max_age" v="2" />
		<tag k="min_age" v="1" />
		<tag k="name" v="Spretten familiebarnehage" />
		<tag k="no-barnehage:nsrid" v="1021246" />
		<tag k="operator" v="Spretten Familiebarnehage Henrik Jean Mette" />
		<tag k="operator:type" v="private" />
	</node>
	<node id="-1260" lat="59.84087" lon="10.79907">
		<tag k="amenity" v="kindergarten" />
		<tag k="capacity" v="4" />
		<tag k="max_age" v="2" />
		<tag k="min_age" v="1" />
		<tag k="name" v="Sn familiebarnehager avd. Asperudveien 9a" />
		<tag k="no-barnehage:nsrid" v="1022376" />
		<tag k="operator" v="Sn Familiebarnehager AS" />
		<tag k="operator:type" v="private" />
	</node>
	<node id="-1259" lat="59.84086" lon="10.79943">
		<tag k="amenity" v="kindergarten" />
		<tag k="capacity" v="4" />
		<tag k="max_age" v="2" />
		<tag k="min_age" v="1" />
		<tag k="name" v="Sn familiebarnehager avd. Asperudveien 16" />
		<tag k="no-barnehage:nsrid" v="1026563" />
		<tag k="operator" v="Sn Familiebarnehager AS" />
		<tag k="operator:type" v="private" />
	</node>
	<node id="-1258" lat="59.9498" lon="10.7789">
		<tag k="amenity" v="kindergarten" />
		<tag k="capacity" v="7" />
		<tag k="max_age" v="2" />
		<tag k="min_age" v="1" />
		<tag k="name" v="Småen familiebarnehage" />
		<tag k="no-barnehage:nsrid" v="1014052" />
		<tag k="operator" v="Amigos barnehage Limited" />
		<tag k="operator:type" v="private" />
	</node>
	<node id="-1235" lat="59.8558" lon="10.78564">
		<tag k="amenity" v="kindergarten" />
		<tag k="capacity" v="4" />
		<tag k="max_age" v="2" />
		<tag k="min_age" v="1" />
		<tag k="name" v="Sjøutsikten familiebarnehage Hernandez-lillebekk" />
		<tag k="no-barnehage:nsrid" v="1022488" />
		<tag k="operator" v="Sjøutsikten Familiebarnehage Hernandez-Lillebekk" />
		<tag k="operator:type" v="private" />
	</node>
	<node id="-1229" lat="59.91321" lon="10.77488">
		<tag k="amenity" v="kindergarten" />
		<tag k="capacity" v="4" />
		<tag k="max_age" v="2" />
		<tag k="min_age" v="1" />
		<tag k="name" v="Sigurdsgate familiebarnehage" />
		<tag k="no-barnehage:nsrid" v="1021533" />
		<tag k="operator" v="Sigurdsgate Familiebarnehage AS" />
		<tag k="operator:type" v="private" />
	</node>
	<node id="-1224" lat="59.8816" lon="10.7938">
		<tag k="amenity" v="kindergarten" />
		<tag k="capacity" v="8" />
		<tag k="max_age" v="2" />
		<tag k="min_age" v="1" />
		<tag k="name" v="Saturn familiebarnehager" />
		<tag k="no-barnehage:nsrid" v="1013457" />
		<tag k="operator" v="Planeten barnehage AS" />
		<tag k="operator:type" v="private" />
	</node>
	<node id="-1313" lat="59.95338" lon="10.70147">
		<tag k="amenity" v="kindergarten" />
		<tag k="capacity" v="8" />
		<tag k="max_age" v="2" />
		<tag k="min_age" v="1" />
		<tag k="name" v="Tennisveien familiebarnehage" />
		<tag k="no-barnehage:nsrid" v="1018545" />
		<tag k="operator" v="Grimelund Familiebarnehage Mette Fürst" />
		<tag k="operator:type" v="private" />
	</node>
	<node id="-1207" lat="59.93313" lon="10.8239">
		<tag k="amenity" v="kindergarten" />
		<tag k="capacity" v="8" />
		<tag k="max_age" v="2" />
		<tag k="min_age" v="1" />
		<tag k="name" v="Risløkka familiebarnehage" />
		<tag k="no-barnehage:nsrid" v="1015168" />
		<tag k="operator" v="Økernveien Familiebarnehage Cemile Algünerhan" />
		<tag k="operator:type" v="private" />
	</node>
	<node id="-1205" lat="59.94291" lon="10.68607">
		<tag k="amenity" v="kindergarten" />
		<tag k="capacity" v="4" />
		<tag k="max_age" v="2" />
		<tag k="min_age" v="1" />
		<tag k="name" v="Revehiet familiebarnehage Nils Erik Brodin" />
		<tag k="no-barnehage:nsrid" v="1021501" />
		<tag k="operator" v="Revehiet Familiebarnehage V/nils Erik Brodin" />
		<tag k="operator:type" v="private" />
	</node>
	<node id="-1198" lat="59.86081" lon="10.81026">
		<tag k="amenity" v="kindergarten" />
		<tag k="capacity" v="8" />
		<tag k="max_age" v="5" />
		<tag k="min_age" v="1" />
		<tag k="name" v="Plutti Plott familiebarnehage" />
		<tag k="no-barnehage:nsrid" v="1022115" />
		<tag k="operator" v="Plutti Plott Familiebarnehage Myrheim" />
		<tag k="operator:type" v="private" />
	</node>
	<node id="-1192" lat="59.85388" lon="10.80138">
		<tag k="amenity" v="kindergarten" />
		<tag k="capacity" v="8" />
		<tag k="contact:website" v="http://www.olebrummbarnehagen.no" />
		<tag k="max_age" v="2" />
		<tag k="min_age" v="1" />
		<tag k="name" v="Ole Brumm barnehage" />
		<tag k="no-barnehage:nsrid" v="1020543" />
		<tag k="operator" v="Ole Brumm barnehage AS" />
		<tag k="operator:type" v="private" />
	</node>
	<node id="-1188" lat="59.95702" lon="10.86304">
		<tag k="amenity" v="kindergarten" />
		<tag k="capacity" v="4" />
		<tag k="max_age" v="2" />
		<tag k="min_age" v="1" />
		<tag k="name" v="Nøtteliten familiebarnehage" />
		<tag k="no-barnehage:nsrid" v="1021111" />
		<tag k="operator" v="Nøtteliten Famileibarnehage Anne Katrine Gamre" />
		<tag k="operator:type" v="private" />
	</node>
	<node id="-1169" lat="59.95384" lon="10.8487">
		<tag k="amenity" v="kindergarten" />
		<tag k="capacity" v="8" />
		<tag k="max_age" v="2" />
		<tag k="min_age" v="1" />
		<tag k="name" v="Nemo familiebarnehage Filiz Göcücü avd. Rødtvedt" />
		<tag k="no-barnehage:nsrid" v="1013617" />
		<tag k="operator" v="Nemo Familiebarnehage Filiz GÖcücü" />
		<tag k="operator:type" v="private" />
	</node>
	<node id="-1168" lat="59.94351" lon="10.81928">
		<tag k="amenity" v="kindergarten" />
		<tag k="capacity" v="4" />
		<tag k="max_age" v="2" />
		<tag k="min_age" v="1" />
		<tag k="name" v="Nemo familiebarnehage Filiz Göcücü avd. Brobekkveien" />
		<tag k="no-barnehage:nsrid" v="1020623" />
		<tag k="operator" v="Nemo Familiebarnehage Filiz GÖcücü" />
		<tag k="operator:type" v="private" />
	</node>
	<node id="-1150" lat="59.9123" lon="10.86081">
		<tag k="amenity" v="kindergarten" />
		<tag k="capacity" v="4" />
		<tag k="max_age" v="2" />
		<tag k="min_age" v="1" />
		<tag k="name" v="Mummidalen familiebarnehage avd. Lille My" />
		<tag k="no-barnehage:nsrid" v="1014271" />
		<tag k="operator" v="Mummidalen Familiebarnehage Sima Haghelahi" />
		<tag k="operator:type" v="private" />
	</node>
	<node id="-1141" lat="59.9232" lon="10.6487">
		<tag k="amenity" v="kindergarten" />
		<tag k="capacity" v="4" />
		<tag k="max_age" v="2" />
		<tag k="min_age" v="1" />
		<tag k="name" v="Montessori Småvenner barnehage avd. B" />
		<tag k="no-barnehage:nsrid" v="1013552" />
		<tag k="operator" v="Amigos barnehage Limited" />
		<tag k="operator:type" v="private" />
	</node>
	<node id="-1140" lat="59.9225" lon="10.6639">
		<tag k="amenity" v="kindergarten" />
		<tag k="capacity" v="4" />
		<tag k="max_age" v="2" />
		<tag k="min_age" v="1" />
		<tag k="name" v="Montessori Småvenner barnehage avd. A" />
		<tag k="no-barnehage:nsrid" v="1015072" />
		<tag k="operator" v="Amigos barnehage Limited" />
		<tag k="operator:type" v="private" />
	</node>
	<node id="-1139" lat="59.9486" lon="10.7853">
		<tag k="amenity" v="kindergarten" />
		<tag k="capacity" v="8" />
		<tag k="max_age" v="2" />
		<tag k="min_age" v="1" />
		<tag k="name" v="Montessori Giraffen familie barnehage" />
		<tag k="no-barnehage:nsrid" v="1015052" />
		<tag k="operator" v="Amigos barnehage Limited" />
		<tag k="operator:type" v="private" />
	</node>
	<node id="-1136" lat="59.9297" lon="10.6908">
		<tag k="amenity" v="kindergarten" />
		<tag k="capacity" v="8" />
		<tag k="max_age" v="2" />
		<tag k="min_age" v="1" />
		<tag k="name" v="Monoliten familiebarnehage" />
		<tag k="no-barnehage:nsrid" v="1013982" />
		<tag k="operator" v="Amigos barnehage Limited" />
		<tag k="operator:type" v="private" />
	</node>
	<node id="-1133" lat="59.8734" lon="10.8054">
		<tag k="amenity" v="kindergarten" />
		<tag k="capacity" v="8" />
		<tag k="max_age" v="2" />
		<tag k="min_age" v="1" />
		<tag k="name" v="Merkur familiebarnehage" />
		<tag k="no-barnehage:nsrid" v="1016954" />
		<tag k="operator" v="Planeten barnehage AS" />
		<tag k="operator:type" v="private" />
	</node>
	<node id="-1130" lat="59.9317" lon="10.814">
		<tag k="amenity" v="kindergarten" />
		<tag k="capacity" v="8" />
		<tag k="max_age" v="2" />
		<tag k="min_age" v="1" />
		<tag k="name" v="Maurtua private familiebarnehage avd. Rabbeveien" />
		<tag k="no-barnehage:nsrid" v="1016267" />
		<tag k="operator" v="Maurtua Private barnehage AS" />
		<tag k="operator:type" v="private" />
	</node>
	<node id="-1129" lat="59.9346" lon="10.8143">
		<tag k="amenity" v="kindergarten" />
		<tag k="capacity" v="8" />
		<tag k="max_age" v="2" />
		<tag k="min_age" v="1" />
		<tag k="name" v="Maurtua private familiebarnehage avd. Nordalveien" />
		<tag k="no-barnehage:nsrid" v="1018308" />
		<tag k="operator" v="Maurtua Private barnehage AS" />
		<tag k="operator:type" v="private" />
	</node>
	<node id="-1128" lat="59.93608" lon="10.81959">
		<tag k="amenity" v="kindergarten" />
		<tag k="capacity" v="4" />
		<tag k="max_age" v="2" />
		<tag k="min_age" v="1" />
		<tag k="name" v="Maurtua familiebarnehage" />
		<tag k="no-barnehage:nsrid" v="1021283" />
		<tag k="operator" v="Mauertua Familiebarnehage Avdeling Bente Edgren" />
		<tag k="operator:type" v="private" />
	</node>
	<node id="-1125" lat="59.9363" lon="10.7556">
		<tag k="amenity" v="kindergarten" />
		<tag k="capacity" v="8" />
		<tag k="max_age" v="2" />
		<tag k="min_age" v="1" />
		<tag k="name" v="Marihøna familiebarnehage" />
		<tag k="no-barnehage:nsrid" v="1017082" />
		<tag k="operator" v="Bitteliten Barnehager AS" />
		<tag k="operator:type" v="private" />
	</node>
	<node id="-1122" lat="59.8804" lon="10.7794">
		<tag k="amenity" v="kindergarten" />
		<tag k="capacity" v="10" />
		<tag k="max_age" v="5" />
		<tag k="min_age" v="1" />
		<tag k="name" v="Mariannes Hus familiebarnehage" />
		<tag k="no-barnehage:nsrid" v="1017240" />
		<tag k="operator" v="Symrahagen AS" />
		<tag k="operator:type" v="private" />
	</node>
	<node id="-1104" lat="59.9328" lon="10.7626">
		<tag k="amenity" v="kindergarten" />
		<tag k="capacity" v="4" />
		<tag k="max_age" v="2" />
		<tag k="min_age" v="1" />
		<tag k="name" v="Lykketrollet familiebarnehage avd. Vogtsgate 32b" />
		<tag k="no-barnehage:nsrid" v="1014231" />
		<tag k="operator" v="Oslo Barnevaktformidling AS" />
		<tag k="operator:type" v="private" />
	</node>
	<node id="-1103" lat="59.9327" lon="10.7625">
		<tag k="amenity" v="kindergarten" />
		<tag k="capacity" v="4" />
		<tag k="max_age" v="2" />
		<tag k="min_age" v="1" />
		<tag k="name" v="Lykketrollet familiebarnehage avd. Vogtsgate 32a" />
		<tag k="no-barnehage:nsrid" v="1014145" />
		<tag k="operator" v="Oslo Barnevaktformidling AS" />
		<tag k="operator:type" v="private" />
	</node>
	<node id="-1102" lat="59.8893" lon="10.8478">
		<tag k="amenity" v="kindergarten" />
		<tag k="capacity" v="8" />
		<tag k="contact:website" v="http://www.lykketrollet.no" />
		<tag k="max_age" v="2" />
		<tag k="min_age" v="1" />
		<tag k="name" v="Lykketrollet familiebarnehage avd. Ulsrudveien" />
		<tag k="no-barnehage:nsrid" v="1017910" />
		<tag k="operator" v="Oslo Barnevaktformidling AS" />
		<tag k="operator:type" v="private" />
	</node>
	<node id="-1101" lat="59.9208" lon="10.7657">
		<tag k="amenity" v="kindergarten" />
		<tag k="capacity" v="4" />
		<tag k="contact:website" v="http://www.lykketrollet.no" />
		<tag k="max_age" v="2" />
		<tag k="min_age" v="1" />
		<tag k="name" v="Lykketrollet familiebarnehage avd. Sverdrupsgate" />
		<tag k="no-barnehage:nsrid" v="1018386" />
		<tag k="operator" v="Oslo Barnevaktformidling AS" />
		<tag k="operator:type" v="private" />
	</node>
	<node id="-1100" lat="59.9376" lon="10.818">
		<tag k="amenity" v="kindergarten" />
		<tag k="capacity" v="8" />
		<tag k="contact:website" v="http://www.lykketrollet.no" />
		<tag k="max_age" v="2" />
		<tag k="min_age" v="1" />
		<tag k="name" v="Lykketrollet familiebarnehage avd. Krokliveien" />
		<tag k="no-barnehage:nsrid" v="1013571" />
		<tag k="operator" v="Oslo Barnevaktformidling AS" />
		<tag k="operator:type" v="private" />
	</node>
	<node id="-1099" lat="59.9478" lon="10.8058">
		<tag k="amenity" v="kindergarten" />
		<tag k="capacity" v="4" />
		<tag k="contact:website" v="http://www.lykketrollet.no" />
		<tag k="max_age" v="2" />
		<tag k="min_age" v="1" />
		<tag k="name" v="Lykketrollet familiebarnehage avd. Kildeveien" />
		<tag k="no-barnehage:nsrid" v="1013456" />
		<tag k="operator" v="Oslo Barnevaktformidling AS" />
		<tag k="operator:type" v="private" />
	</node>
	<node id="-1098" lat="59.9497" lon="10.7586">
		<tag k="amenity" v="kindergarten" />
		<tag k="capacity" v="8" />
		<tag k="contact:website" v="http://www.lykketrollet.no" />
		<tag k="max_age" v="2" />
		<tag k="min_age" v="1" />
		<tag k="name" v="Lykketrollet familiebarnehage avd. Haugesvei" />
		<tag k="no-barnehage:nsrid" v="1018546" />
		<tag k="operator" v="Oslo Barnevaktformidling AS" />
		<tag k="operator:type" v="private" />
	</node>
	<node id="-1097" lat="59.9252" lon="10.7766">
		<tag k="amenity" v="kindergarten" />
		<tag k="capacity" v="4" />
		<tag k="contact:website" v="http://www.lykketrollet.no" />
		<tag k="max_age" v="2" />
		<tag k="min_age" v="1" />
		<tag k="name" v="Lykketrollet familiebarnehage avd. Frydensgate" />
		<tag k="no-barnehage:nsrid" v="1018373" />
		<tag k="operator" v="Oslo Barnevaktformidling AS" />
		<tag k="operator:type" v="private" />
	</node>
	<node id="-1096" lat="59.8767" lon="10.8382">
		<tag k="amenity" v="kindergarten" />
		<tag k="capacity" v="8" />
		<tag k="contact:website" v="http://www.lykketrollet.no" />
		<tag k="max_age" v="2" />
		<tag k="min_age" v="1" />
		<tag k="name" v="Lykketrollet familiebarnehage avd. Bogerudveien" />
		<tag k="no-barnehage:nsrid" v="1013466" />
		<tag k="operator" v="Oslo Barnevaktformidling AS" />
		<tag k="operator:type" v="private" />
	</node>
	<node id="-1095" lat="59.9302" lon="10.7552">
		<tag k="amenity" v="kindergarten" />
		<tag k="capacity" v="4" />
		<tag k="max_age" v="2" />
		<tag k="min_age" v="1" />
		<tag k="name" v="Lykketrollet familiebarnehage avd. Bentsegata" />
		<tag k="no-barnehage:nsrid" v="1014066" />
		<tag k="operator" v="Oslo Barnevaktformidling AS" />
		<tag k="operator:type" v="private" />
	</node>
	<node id="-1094" lat="59.95" lon="10.8302">
		<tag k="amenity" v="kindergarten" />
		<tag k="capacity" v="4" />
		<tag k="contact:website" v="http://www.lykketrollet.no" />
		<tag k="max_age" v="2" />
		<tag k="min_age" v="1" />
		<tag k="name" v="Lykketrollet familiebarnehage avd. Anna Rogstadsvei" />
		<tag k="no-barnehage:nsrid" v="1018420" />
		<tag k="operator" v="Oslo Barnevaktformidling AS" />
		<tag k="operator:type" v="private" />
	</node>
	<node id="-1091" lat="59.8859" lon="10.7827">
		<tag k="amenity" v="kindergarten" />
		<tag k="capacity" v="8" />
		<tag k="max_age" v="2" />
		<tag k="min_age" v="1" />
		<tag k="name" v="Lukas familiebarnehage" />
		<tag k="no-barnehage:nsrid" v="1018604" />
		<tag k="operator" v="Lønneberget barnehage AS" />
		<tag k="operator:type" v="private" />
	</node>
	<node id="-1079" lat="59.88391" lon="10.80696">
		<tag k="amenity" v="kindergarten" />
		<tag k="capacity" v="8" />
		<tag k="max_age" v="2" />
		<tag k="min_age" v="1" />
		<tag k="name" v="Lille Venn familiebarnehage" />
		<tag k="no-barnehage:nsrid" v="1022371" />
		<tag k="operator" v="Lille Venn Familiebarnehage AS" />
		<tag k="operator:type" v="private" />
	</node>
	<node id="-1078" lat="59.8569" lon="10.79916">
		<tag k="amenity" v="kindergarten" />
		<tag k="capacity" v="8" />
		<tag k="max_age" v="2" />
		<tag k="min_age" v="1" />
		<tag k="name" v="Lille Persille familiebarnehage" />
		<tag k="no-barnehage:nsrid" v="1021787" />
		<tag k="operator" v="Lille Persille Familiebarnehage AS" />
		<tag k="operator:type" v="private" />
	</node>
	<node id="-1077" lat="59.91871" lon="10.65967">
		<tag k="amenity" v="kindergarten" />
		<tag k="capacity" v="3" />
		<tag k="max_age" v="2" />
		<tag k="min_age" v="1" />
		<tag k="name" v="Gullungene familiebarnehage avd. Lille My" />
		<tag k="no-barnehage:nsrid" v="1022037" />
		<tag k="operator" v="Lille My Familiebarnehage Ullern" />
		<tag k="operator:type" v="private" />
	</node>
	<node id="-1057" lat="59.8873" lon="10.84798">
		<tag k="amenity" v="kindergarten" />
		<tag k="capacity" v="4" />
		<tag k="max_age" v="2" />
		<tag k="min_age" v="1" />
		<tag k="name" v="Kringkollen familiebarnehage" />
		<tag k="no-barnehage:nsrid" v="1021466" />
		<tag k="operator" v="Kringkollen Familiebarnehage Else Marie Pålshaugen" />
		<tag k="operator:type" v="private" />
	</node>
	<node id="-1052" lat="59.92935" lon="10.87488">
		<tag k="amenity" v="kindergarten" />
		<tag k="capacity" v="10" />
		<tag k="max_age" v="5" />
		<tag k="min_age" v="1" />
		<tag k="name" v="Knøttene familiebarnehage, bydel Alna Kirsten Henny Kihl" />
		<tag k="no-barnehage:nsrid" v="1020298" />
		<tag k="operator" v="Knøttene Familiebarnehage, bydel Alna Kirsten Henny Kihl" />
		<tag k="operator:type" v="private" />
	</node>
	<node id="-1051" lat="59.9016" lon="10.8267">
		<tag k="amenity" v="kindergarten" />
		<tag k="capacity" v="8" />
		<tag k="max_age" v="2" />
		<tag k="min_age" v="1" />
		<tag k="name" v="Knærten familiebarnehage avd. 2" />
		<tag k="no-barnehage:nsrid" v="1013008" />
		<tag k="operator" v="Knærten Familiebarnehage AS" />
		<tag k="operator:type" v="private" />
	</node>
	<node id="-1048" lat="59.94234" lon="10.68485">
		<tag k="amenity" v="kindergarten" />
		<tag k="capacity" v="4" />
		<tag k="max_age" v="2" />
		<tag k="min_age" v="1" />
		<tag k="name" v="Klatremus familiebarnehage" />
		<tag k="no-barnehage:nsrid" v="1020341" />
		<tag k="operator" v="Klatremus Familiebarnehage avd Knerten Mellbye" />
		<tag k="operator:type" v="private" />
	</node>
	<node id="-1037" lat="59.8783" lon="10.802">
		<tag k="amenity" v="kindergarten" />
		<tag k="capacity" v="8" />
		<tag k="max_age" v="2" />
		<tag k="min_age" v="1" />
		<tag k="name" v="Karlsrud familiebarnehage" />
		<tag k="no-barnehage:nsrid" v="1017652" />
		<tag k="operator" v="Bitteliten Barnehager AS" />
		<tag k="operator:type" v="private" />
	</node>
	<node id="-1030" lat="59.914" lon="10.7787">
		<tag k="amenity" v="kindergarten" />
		<tag k="capacity" v="4" />
		<tag k="contact:website" v="http://kampenkunstbarnehagene.no" />
		<tag k="max_age" v="2" />
		<tag k="min_age" v="1" />
		<tag k="name" v="Kampen kunstbarnehage avd. Norderhovgata" />
		<tag k="no-barnehage:nsrid" v="1013584" />
		<tag k="operator" v="Friluftsbarnehagene AS" />
		<tag k="operator:type" v="private" />
	</node>
</osm>
