<?xml version="1.0" encoding="UTF-8"?>
<osm generator="osmapis" version="0.6">
	<node id="-1384" lat="59.8277" lon="10.7882">
		<tag k="amenity" v="kindergarten" />
		<tag k="capacity" v="54" />
		<tag k="max_age" v="5" />
		<tag k="min_age" v="1" />
		<tag k="name" v="Åstun barnehage" />
		<tag k="no-barnehage:nsrid" v="1013913" />
		<tag k="operator" v="Oslo kommune" />
		<tag k="operator:type" v="public" />
	</node>
	<node id="-1383" lat="59.8719" lon="10.7995">
		<tag k="amenity" v="kindergarten" />
		<tag k="capacity" v="63" />
		<tag k="max_age" v="5" />
		<tag k="min_age" v="1" />
		<tag k="name" v="Åssida barnehage" />
		<tag k="no-barnehage:nsrid" v="1013819" />
		<tag k="operator" v="Oslo kommune" />
		<tag k="operator:type" v="public" />
	</node>
	<node id="-1382" lat="59.9381" lon="10.7718">
		<tag k="amenity" v="kindergarten" />
		<tag k="capacity" v="24" />
		<tag k="max_age" v="2" />
		<tag k="min_age" v="1" />
		<tag k="name" v="Åsenhagen barnehage" />
		<tag k="no-barnehage:nsrid" v="1014710" />
		<tag k="operator" v="Oslo kommune" />
		<tag k="operator:type" v="public" />
	</node>
	<node id="-1381" lat="59.8255" lon="10.784">
		<tag k="amenity" v="kindergarten" />
		<tag k="capacity" v="72" />
		<tag k="max_age" v="5" />
		<tag k="min_age" v="1" />
		<tag k="name" v="Åsbråten barnehage" />
		<tag k="no-barnehage:nsrid" v="1013839" />
		<tag k="operator" v="Oslo kommune" />
		<tag k="operator:type" v="public" />
	</node>
	<node id="-1380" lat="59.95088" lon="10.8179">
		<tag k="amenity" v="kindergarten" />
		<tag k="capacity" v="64" />
		<tag k="max_age" v="5" />
		<tag k="min_age" v="1" />
		<tag k="name" v="Årvollskogen barnehage" />
		<tag k="no-barnehage:nsrid" v="1022230" />
		<tag k="operator" v="Årvollskogen barnehage AS" />
		<tag k="operator:type" v="private" />
	</node>
	<node id="-1379" lat="59.9456" lon="10.8119">
		<tag k="amenity" v="kindergarten" />
		<tag k="capacity" v="27" />
		<tag k="max_age" v="5" />
		<tag k="min_age" v="1" />
		<tag k="name" v="Årvoll barnehage" />
		<tag k="no-barnehage:nsrid" v="1017321" />
		<tag k="operator" v="Oslo kommune" />
		<tag k="operator:type" v="public" />
	</node>
	<node id="-1378" lat="59.94463" lon="10.84761">
		<tag k="amenity" v="kindergarten" />
		<tag k="name" v="Åpen barnehage, Bjerke familiesenter" />
		<tag k="no-barnehage:nsrid" v="1013986" />
		<tag k="operator" v="Oslo kommune" />
		<tag k="operator:type" v="public" />
	</node>
	<node id="-1377" lat="59.9082" lon="10.7782">
		<tag k="amenity" v="kindergarten" />
		<tag k="capacity" v="99" />
		<tag k="max_age" v="5" />
		<tag k="min_age" v="1" />
		<tag k="name" v="Åkeberg barnehage" />
		<tag k="no-barnehage:nsrid" v="1017322" />
		<tag k="operator" v="Oslo kommune" />
		<tag k="operator:type" v="public" />
	</node>
	<node id="-1376" lat="59.9432" lon="10.921">
		<tag k="amenity" v="kindergarten" />
		<tag k="capacity" v="67" />
		<tag k="max_age" v="5" />
		<tag k="min_age" v="1" />
		<tag k="name" v="Øvre Høybråten barnehage" />
		<tag k="no-barnehage:nsrid" v="1017463" />
		<tag k="operator" v="Oslo kommune" />
		<tag k="operator:type" v="public" />
	</node>
	<node id="-1375" lat="59.89943" lon="10.85179">
		<tag k="amenity" v="kindergarten" />
		<tag k="capacity" v="136" />
		<tag k="max_age" v="5" />
		<tag k="min_age" v="1" />
		<tag k="name" v="Østmarka idrettsbarnehage" />
		<tag k="no-barnehage:nsrid" v="1021974" />
		<tag k="operator" v="Østmarka Idrettsbarnehage AS" />
		<tag k="operator:type" v="private" />
	</node>
	<node id="-1374" lat="59.87484" lon="10.84142">
		<tag k="amenity" v="kindergarten" />
		<tag k="capacity" v="48" />
		<tag k="contact:website" v="http://www.ostensjostua.barnehage.no" />
		<tag k="max_age" v="5" />
		<tag k="min_age" v="1" />
		<tag k="name" v="Østensjøstua barnehage" />
		<tag k="no-barnehage:nsrid" v="1020228" />
		<tag k="operator" v="Østensjøstua barnehage Sa" />
		<tag k="operator:type" v="private" />
	</node>
	<node id="-1373" lat="59.9391" lon="10.8844">
		<tag k="amenity" v="kindergarten" />
		<tag k="capacity" v="54" />
		<tag k="contact:website" v="http://www.bydel-alna.oslo.kommune.no" />
		<tag k="max_age" v="5" />
		<tag k="min_age" v="1" />
		<tag k="name" v="Østausa barnehage" />
		<tag k="no-barnehage:nsrid" v="1018501" />
		<tag k="operator" v="Oslo kommune" />
		<tag k="operator:type" v="public" />
	</node>
	<node id="-1371" lat="59.939" lon="10.8226">
		<tag k="amenity" v="kindergarten" />
		<tag k="capacity" v="14" />
		<tag k="max_age" v="5" />
		<tag k="min_age" v="1" />
		<tag k="name" v="Økernbråten barnehage" />
		<tag k="no-barnehage:nsrid" v="1015518" />
		<tag k="operator" v="Tonsen Sokn" />
		<tag k="operator:type" v="private" />
	</node>
	<node id="-1370" lat="59.8959" lon="10.7882">
		<tag k="amenity" v="kindergarten" />
		<tag k="capacity" v="90" />
		<tag k="max_age" v="5" />
		<tag k="min_age" v="1" />
		<tag k="name" v="Vårveien barnehage" />
		<tag k="no-barnehage:nsrid" v="1013255" />
		<tag k="operator" v="Oslo kommune" />
		<tag k="operator:type" v="public" />
	</node>
	<node id="-1369" lat="59.9324" lon="10.7544">
		<tag k="amenity" v="kindergarten" />
		<tag k="capacity" v="77" />
		<tag k="max_age" v="5" />
		<tag k="min_age" v="1" />
		<tag k="name" v="Vøyensvingen barnehage" />
		<tag k="no-barnehage:nsrid" v="1015618" />
		<tag k="operator" v="Oslo kommune" />
		<tag k="operator:type" v="public" />
	</node>
	<node id="-1368" lat="59.91586" lon="10.65646">
		<tag k="amenity" v="kindergarten" />
		<tag k="capacity" v="37" />
		<tag k="contact:website" v="http://www.vakerogardbhg.no" />
		<tag k="max_age" v="5" />
		<tag k="min_age" v="1" />
		<tag k="name" v="Vækerø gård barnehage" />
		<tag k="no-barnehage:nsrid" v="1019676" />
		<tag k="operator" v="Vækerø Gård barnehage Ans" />
		<tag k="operator:type" v="private" />
	</node>
	<node id="-1367" lat="59.9377" lon="10.7499">
		<tag k="amenity" v="kindergarten" />
		<tag k="capacity" v="48" />
		<tag k="max_age" v="5" />
		<tag k="min_age" v="1" />
		<tag k="name" v="Voldsløkka barnehage for Hørselshemmede" />
		<tag k="no-barnehage:nsrid" v="1012830" />
		<tag k="operator" v="Oslo kommune" />
		<tag k="operator:type" v="public" />
	</node>
	<node id="-1366" lat="59.9803" lon="10.6645">
		<tag k="amenity" v="kindergarten" />
		<tag k="capacity" v="20" />
		<tag k="max_age" v="5" />
		<tag k="min_age" v="1" />
		<tag k="name" v="Voksenkollen friluftsbarnehage" />
		<tag k="no-barnehage:nsrid" v="1015042" />
		<tag k="operator" v="Norlandia Barnehagene AS" />
		<tag k="operator:type" v="private" />
	</node>
	<node id="-1365" lat="59.95016" lon="10.68217">
		<tag k="amenity" v="kindergarten" />
		<tag k="capacity" v="22" />
		<tag k="max_age" v="5" />
		<tag k="min_age" v="3" />
		<tag k="name" v="Villa Utsikten Frilufts- og idrettsbarnehage" />
		<tag k="no-barnehage:nsrid" v="1019859" />
		<tag k="operator" v="Villa Utsikten Frilufts- og Idrettsbarnehage AS" />
		<tag k="operator:type" v="private" />
	</node>
	<node id="-1364" lat="59.9218" lon="10.7011">
		<tag k="amenity" v="kindergarten" />
		<tag k="capacity" v="61" />
		<tag k="max_age" v="5" />
		<tag k="min_age" v="1" />
		<tag k="name" v="Vigelandsparken barnehage" />
		<tag k="no-barnehage:nsrid" v="1012546" />
		<tag k="operator" v="Oslo kommune" />
		<tag k="operator:type" v="public" />
	</node>
	<node id="-1363" lat="59.89616" lon="10.84443">
		<tag k="amenity" v="kindergarten" />
		<tag k="capacity" v="16" />
		<tag k="max_age" v="5" />
		<tag k="min_age" v="1" />
		<tag k="name" v="Vetlandsveien barnehage" />
		<tag k="no-barnehage:nsrid" v="1020600" />
		<tag k="operator" v="Vetlandsveien barnehage" />
		<tag k="operator:type" v="private" />
	</node>
	<node id="-1362" lat="59.9349" lon="10.7353">
		<tag k="amenity" v="kindergarten" />
		<tag k="capacity" v="14" />
		<tag k="max_age" v="5" />
		<tag k="min_age" v="1" />
		<tag k="name" v="Vestre Aker menighet barnehage" />
		<tag k="no-barnehage:nsrid" v="1016746" />
		<tag k="operator" v="Amigos barnehage Limited" />
		<tag k="operator:type" v="private" />
	</node>
	<node id="-1361" lat="59.9639" lon="10.9221">
		<tag k="amenity" v="kindergarten" />
		<tag k="capacity" v="57" />
		<tag k="max_age" v="5" />
		<tag k="min_age" v="1" />
		<tag k="name" v="Vestlisletta barnehage" />
		<tag k="no-barnehage:nsrid" v="1017320" />
		<tag k="operator" v="Oslo kommune" />
		<tag k="operator:type" v="public" />
	</node>
	<node id="-1360" lat="59.97206" lon="10.92755">
		<tag k="amenity" v="kindergarten" />
		<tag k="capacity" v="40" />
		<tag k="contact:website" v="http://www.varbarnehage.no" />
		<tag k="max_age" v="5" />
		<tag k="min_age" v="1" />
		<tag k="name" v="Vestliskaret FUS barnehage" />
		<tag k="no-barnehage:nsrid" v="1021517" />
		<tag k="operator" v="Vestliskaret Fus barnehage AS" />
		<tag k="operator:type" v="private" />
	</node>
	<node id="-1359" lat="59.9687" lon="10.9299">
		<tag k="amenity" v="kindergarten" />
		<tag k="capacity" v="41" />
		<tag k="max_age" v="5" />
		<tag k="min_age" v="1" />
		<tag k="name" v="Vestlikollen barnehage" />
		<tag k="no-barnehage:nsrid" v="1017268" />
		<tag k="operator" v="Oslo kommune" />
		<tag k="operator:type" v="public" />
	</node>
	<node id="-1358" lat="59.9728" lon="10.9271">
		<tag k="amenity" v="kindergarten" />
		<tag k="capacity" v="45" />
		<tag k="max_age" v="5" />
		<tag k="min_age" v="1" />
		<tag k="name" v="Vestliberget barnehage" />
		<tag k="no-barnehage:nsrid" v="1017460" />
		<tag k="operator" v="Oslo kommune" />
		<tag k="operator:type" v="public" />
	</node>
	<node id="-1357" lat="59.9496" lon="10.6496">
		<tag k="amenity" v="kindergarten" />
		<tag k="capacity" v="53" />
		<tag k="max_age" v="5" />
		<tag k="min_age" v="1" />
		<tag k="name" v="Vestjordet barnehage" />
		<tag k="no-barnehage:nsrid" v="1017459" />
		<tag k="operator" v="Oslo kommune" />
		<tag k="operator:type" v="public" />
	</node>
	<node id="-1356" lat="59.9589" lon="10.934">
		<tag k="amenity" v="kindergarten" />
		<tag k="capacity" v="55" />
		<tag k="max_age" v="5" />
		<tag k="min_age" v="1" />
		<tag k="name" v="Vesthellinga barnehage" />
		<tag k="no-barnehage:nsrid" v="1017458" />
		<tag k="operator" v="Oslo kommune" />
		<tag k="operator:type" v="public" />
	</node>
	<node id="-1354" lat="59.9367" lon="10.7351">
		<tag k="amenity" v="kindergarten" />
		<tag k="capacity" v="68" />
		<tag k="max_age" v="5" />
		<tag k="min_age" v="1" />
		<tag k="name" v="Veslefrikk Kanvas-barnehage" />
		<tag k="no-barnehage:nsrid" v="1013816" />
		<tag k="operator" v="Stiftelsen Kanvas" />
		<tag k="operator:type" v="private" />
	</node>
	<node id="-1351" lat="59.9011" lon="10.7822">
		<tag k="amenity" v="kindergarten" />
		<tag k="capacity" v="15" />
		<tag k="max_age" v="5" />
		<tag k="min_age" v="1" />
		<tag k="name" v="Utsikten barnehage" />
		<tag k="no-barnehage:nsrid" v="1016837" />
		<tag k="operator" v="Oslo kommune" />
		<tag k="operator:type" v="public" />
	</node>
	<node id="-1350" lat="59.8836" lon="10.8494">
		<tag k="amenity" v="kindergarten" />
		<tag k="capacity" v="90" />
		<tag k="max_age" v="5" />
		<tag k="min_age" v="1" />
		<tag k="name" v="Utmarkveien barnehage" />
		<tag k="no-barnehage:nsrid" v="1014042" />
		<tag k="operator" v="Oslo kommune" />
		<tag k="operator:type" v="public" />
	</node>
	<node id="-1349" lat="59.9448" lon="10.8574">
		<tag k="amenity" v="kindergarten" />
		<tag k="capacity" v="54" />
		<tag k="max_age" v="5" />
		<tag k="min_age" v="1" />
		<tag k="name" v="Utforskeren barnehage - Hus B" />
		<tag k="no-barnehage:nsrid" v="1013502" />
		<tag k="operator" v="Oslo kommune" />
		<tag k="operator:type" v="public" />
	</node>
	<node id="-1348" lat="59.9217" lon="10.7222">
		<tag k="amenity" v="kindergarten" />
		<tag k="capacity" v="36" />
		<tag k="max_age" v="5" />
		<tag k="min_age" v="1" />
		<tag k="name" v="Uranienborg barnehage" />
		<tag k="no-barnehage:nsrid" v="1016810" />
		<tag k="operator" v="Oslo kommune" />
		<tag k="operator:type" v="public" />
	</node>
	<node id="-1347" lat="59.941" lon="10.7149">
		<tag k="amenity" v="kindergarten" />
		<tag k="capacity" v="63" />
		<tag k="max_age" v="5" />
		<tag k="min_age" v="1" />
		<tag k="name" v="Universitetets barnehage" />
		<tag k="no-barnehage:nsrid" v="1013764" />
		<tag k="operator" v="Kunnskapsdepartementet" />
	</node>
	<node id="-1346" lat="60.00111" lon="10.63048">
		<tag k="amenity" v="kindergarten" />
		<tag k="capacity" v="23" />
		<tag k="max_age" v="5" />
		<tag k="min_age" v="1" />
		<tag k="name" v="Ulvestua barnehage" />
		<tag k="no-barnehage:nsrid" v="1020238" />
		<tag k="operator" v="Ulvestua barnehage Sa" />
		<tag k="operator:type" v="private" />
	</node>
	<node id="-1345" lat="59.9354" lon="10.6493">
		<tag k="amenity" v="kindergarten" />
		<tag k="capacity" v="48" />
		<tag k="contact:website" v="http://www.oslo.kommune.no/barnehage/finn-barnehage-i-oslo/ullernkollen-barnehage/" />
		<tag k="max_age" v="5" />
		<tag k="min_age" v="1" />
		<tag k="name" v="Ullernkollen barnehage" />
		<tag k="no-barnehage:nsrid" v="1015636" />
		<tag k="operator" v="Oslo kommune" />
		<tag k="operator:type" v="public" />
	</node>
	<node id="-1344" lat="59.9262" lon="10.6722">
		<tag k="amenity" v="kindergarten" />
		<tag k="name" v="Ullern Åpne barnehage" />
		<tag k="no-barnehage:nsrid" v="1015686" />
		<tag k="operator" v="Oslo kommune" />
		<tag k="operator:type" v="public" />
	</node>
	<node id="-1343" lat="59.9218" lon="10.6404">
		<tag k="amenity" v="kindergarten" />
		<tag k="capacity" v="53" />
		<tag k="max_age" v="5" />
		<tag k="min_age" v="1" />
		<tag k="name" v="Ullern barnehage" />
		<tag k="no-barnehage:nsrid" v="1013844" />
		<tag k="operator" v="Oslo kommune" />
		<tag k="operator:type" v="public" />
	</node>
	<node id="-1342" lat="59.95379" lon="10.75131">
		<tag k="amenity" v="kindergarten" />
		<tag k="capacity" v="26" />
		<tag k="max_age" v="5" />
		<tag k="min_age" v="1" />
		<tag k="name" v="Tåsen skoles barnehage" />
		<tag k="no-barnehage:nsrid" v="1019611" />
		<tag k="operator" v="Tåsen Skoles barnehage Sa" />
		<tag k="operator:type" v="private" />
	</node>
	<node id="-1341" lat="59.9457" lon="10.7428">
		<tag k="amenity" v="kindergarten" />
		<tag k="capacity" v="116" />
		<tag k="max_age" v="5" />
		<tag k="min_age" v="1" />
		<tag k="name" v="Tåsen barnehage" />
		<tag k="no-barnehage:nsrid" v="1013854" />
		<tag k="operator" v="Oslo kommune" />
		<tag k="operator:type" v="public" />
	</node>
	<node id="-1340" lat="59.9144" lon="10.7679">
		<tag k="amenity" v="kindergarten" />
		<tag k="capacity" v="17" />
		<tag k="max_age" v="5" />
		<tag k="min_age" v="3" />
		<tag k="name" v="Tøyengata barnehage" />
		<tag k="no-barnehage:nsrid" v="1014711" />
		<tag k="operator" v="Oslo kommune" />
		<tag k="operator:type" v="public" />
	</node>
	<node id="-1339" lat="59.9255" lon="10.6981">
		<tag k="amenity" v="kindergarten" />
		<tag k="capacity" v="50" />
		<tag k="max_age" v="5" />
		<tag k="min_age" v="1" />
		<tag k="name" v="Tørtberg Kanvas-barnehage" />
		<tag k="no-barnehage:nsrid" v="1025395" />
		<tag k="operator" v="Stiftelsen Kanvas" />
		<tag k="operator:type" v="private" />
	</node>
	<node id="-1338" lat="59.8792" lon="10.8081">
		<tag k="amenity" v="kindergarten" />
		<tag k="capacity" v="64" />
		<tag k="max_age" v="5" />
		<tag k="min_age" v="1" />
		<tag k="name" v="Tyrihans barnehage" />
		<tag k="no-barnehage:nsrid" v="1016809" />
		<tag k="operator" v="Oslo kommune" />
		<tag k="operator:type" v="public" />
	</node>
	<node id="-1337" lat="59.8852" lon="10.8533">
		<tag k="amenity" v="kindergarten" />
		<tag k="capacity" v="61" />
		<tag k="max_age" v="5" />
		<tag k="min_age" v="1" />
		<tag k="name" v="Tveteråsen barnehage" />
		<tag k="no-barnehage:nsrid" v="1017457" />
		<tag k="operator" v="Oslo kommune" />
		<tag k="operator:type" v="public" />
	</node>
	<node id="-1336" lat="59.9155" lon="10.7099">
		<tag k="amenity" v="kindergarten" />
		<tag k="capacity" v="68" />
		<tag k="max_age" v="5" />
		<tag k="min_age" v="1" />
		<tag k="name" v="Tusindhuus barnehage" />
		<tag k="no-barnehage:nsrid" v="1013889" />
		<tag k="operator" v="Oslo kommune" />
		<tag k="operator:type" v="public" />
	</node>
	<node id="-1335" lat="59.97976" lon="10.65229">
		<tag k="amenity" v="kindergarten" />
		<tag k="capacity" v="34" />
		<tag k="max_age" v="5" />
		<tag k="min_age" v="1" />
		<tag k="name" v="Turi Sletners barnehave" />
		<tag k="no-barnehage:nsrid" v="1021256" />
		<tag k="operator" v="Turi Sletners Barnehave AS" />
		<tag k="operator:type" v="private" />
	</node>
	<node id="-1333" lat="59.9265" lon="10.8661">
		<tag k="amenity" v="kindergarten" />
		<tag k="capacity" v="19" />
		<tag k="max_age" v="5" />
		<tag k="min_age" v="1" />
		<tag k="name" v="Trosterud Senter barnehage" />
		<tag k="no-barnehage:nsrid" v="1017456" />
		<tag k="operator" v="Oslo kommune" />
		<tag k="operator:type" v="public" />
	</node>
	<node id="-1332" lat="59.94975" lon="10.70277">
		<tag k="amenity" v="kindergarten" />
		<tag k="capacity" v="14" />
		<tag k="max_age" v="5" />
		<tag k="min_age" v="1" />
		<tag k="name" v="Trosteredet barnehage" />
		<tag k="no-barnehage:nsrid" v="1019706" />
		<tag k="operator" v="Trosteredet barnehage Sa" />
		<tag k="operator:type" v="private" />
	</node>
	<node id="-1330" lat="59.9367" lon="10.7351">
		<tag k="amenity" v="kindergarten" />
		<tag k="capacity" v="57" />
		<tag k="max_age" v="5" />
		<tag k="min_age" v="1" />
		<tag k="name" v="Trollstua Kanvas-barnehage" />
		<tag k="no-barnehage:nsrid" v="1012552" />
		<tag k="operator" v="Stiftelsen Kanvas" />
		<tag k="operator:type" v="private" />
	</node>
	<node id="-1329" lat="59.81795" lon="10.8406">
		<tag k="amenity" v="kindergarten" />
		<tag k="capacity" v="67" />
		<tag k="contact:website" v="http://www.trollskogen.no" />
		<tag k="max_age" v="5" />
		<tag k="min_age" v="1" />
		<tag k="name" v="Trollskogen barnehage Bjørndal" />
		<tag k="no-barnehage:nsrid" v="1020457" />
		<tag k="operator" v="Trollskogen barnehage Bjørndal Sa" />
		<tag k="operator:type" v="private" />
	</node>
	<node id="-1328" lat="59.92202" lon="10.73621">
		<tag k="amenity" v="kindergarten" />
		<tag k="name" v="Trofast hundebarnehage" />
		<tag k="no-barnehage:nsrid" v="2000347" />
		<tag k="operator" v="Oslohunder AS" />
		<tag k="operator:type" v="private" />
	</node>
	<node id="-1327" lat="59.8943" lon="10.8185">
		<tag k="amenity" v="kindergarten" />
		<tag k="capacity" v="109" />
		<tag k="max_age" v="5" />
		<tag k="min_age" v="1" />
		<tag k="name" v="Treskeveien barnehage" />
		<tag k="no-barnehage:nsrid" v="1014685" />
		<tag k="operator" v="Oslo kommune" />
		<tag k="operator:type" v="public" />
	</node>
	<node id="-1325" lat="59.9322" lon="10.7703">
		<tag k="amenity" v="kindergarten" />
		<tag k="capacity" v="65" />
		<tag k="max_age" v="5" />
		<tag k="min_age" v="1" />
		<tag k="name" v="Torshovtoppen barnehage" />
		<tag k="no-barnehage:nsrid" v="1025386" />
		<tag k="operator" v="Oslo kommune" />
		<tag k="operator:type" v="public" />
	</node>
	<node id="-1324" lat="59.9331" lon="10.7704">
		<tag k="amenity" v="kindergarten" />
		<tag k="capacity" v="99" />
		<tag k="max_age" v="5" />
		<tag k="min_age" v="1" />
		<tag k="name" v="Torshovgata barnehage" />
		<tag k="no-barnehage:nsrid" v="1017836" />
		<tag k="operator" v="Oslo kommune" />
		<tag k="operator:type" v="public" />
	</node>
	<node id="-1321" lat="59.943" lon="10.8063">
		<tag k="amenity" v="kindergarten" />
		<tag k="capacity" v="36" />
		<tag k="max_age" v="5" />
		<tag k="min_age" v="3" />
		<tag k="name" v="Tonsenjordet barnehage" />
		<tag k="no-barnehage:nsrid" v="1017318" />
		<tag k="operator" v="Oslo kommune" />
		<tag k="operator:type" v="public" />
	</node>
	<node id="-1320" lat="59.94536" lon="10.82516">
		<tag k="amenity" v="kindergarten" />
		<tag k="capacity" v="32" />
		<tag k="max_age" v="5" />
		<tag k="min_age" v="1" />
		<tag k="name" v="Tonsenhagen barnehage" />
		<tag k="no-barnehage:nsrid" v="1020825" />
		<tag k="operator" v="Tonsenhagen barnehage AS" />
		<tag k="operator:type" v="private" />
	</node>
	<node id="-1319" lat="59.97722" lon="10.67616">
		<tag k="amenity" v="kindergarten" />
		<tag k="capacity" v="15" />
		<tag k="contact:website" v="http://www.espira.no" />
		<tag k="max_age" v="5" />
		<tag k="min_age" v="1" />
		<tag k="name" v="Tomm Murstad friluftsbarnehage" />
		<tag k="no-barnehage:nsrid" v="1022358" />
		<tag k="operator" v="Tomm Murstad Friluftsbarnehage AS" />
		<tag k="operator:type" v="private" />
	</node>
	<node id="-1318" lat="59.9633" lon="10.9275">
		<tag k="amenity" v="kindergarten" />
		<tag k="capacity" v="54" />
		<tag k="max_age" v="5" />
		<tag k="min_age" v="1" />
		<tag k="name" v="Tokerudåsen barnehage" />
		<tag k="no-barnehage:nsrid" v="1017455" />
		<tag k="operator" v="Oslo kommune" />
		<tag k="operator:type" v="public" />
	</node>
	<node id="-1317" lat="59.9049" lon="10.72065">
		<tag k="amenity" v="kindergarten" />
		<tag k="capacity" v="60" />
		<tag k="contact:website" v="http://tjuvholmen.norlandiabarnehagene.no" />
		<tag k="max_age" v="5" />
		<tag k="min_age" v="1" />
		<tag k="name" v="Tjuvholmen barnehage" />
		<tag k="no-barnehage:nsrid" v="1021551" />
		<tag k="operator" v="Norlandia Barnehagene Ii AS" />
		<tag k="operator:type" v="private" />
	</node>
	<node id="-1316" lat="59.9121" lon="10.7132">
		<tag k="amenity" v="kindergarten" />
		<tag k="capacity" v="124" />
		<tag k="max_age" v="5" />
		<tag k="min_age" v="1" />
		<tag k="name" v="Tinkern Kanvas-barnehage" />
		<tag k="no-barnehage:nsrid" v="1014152" />
		<tag k="operator" v="Stiftelsen Kanvas" />
		<tag k="operator:type" v="private" />
	</node>
	<node id="-1314" lat="59.9305" lon="10.7068">
		<tag k="amenity" v="kindergarten" />
		<tag k="capacity" v="52" />
		<tag k="max_age" v="5" />
		<tag k="min_age" v="1" />
		<tag k="name" v="Thaulow barnehage" />
		<tag k="no-barnehage:nsrid" v="1013843" />
		<tag k="operator" v="Oslo kommune" />
		<tag k="operator:type" v="public" />
	</node>
	<node id="-1312" lat="59.9168" lon="10.8155">
		<tag k="amenity" v="kindergarten" />
		<tag k="capacity" v="60" />
		<tag k="contact:website" v="http://www.bydel-alna.oslo.kommune.no" />
		<tag k="max_age" v="5" />
		<tag k="min_age" v="1" />
		<tag k="name" v="Teisenparken barnehage" />
		<tag k="no-barnehage:nsrid" v="1018297" />
		<tag k="operator" v="Oslo kommune" />
		<tag k="operator:type" v="public" />
	</node>
	<node id="-1311" lat="59.9151" lon="10.8121">
		<tag k="amenity" v="kindergarten" />
		<tag k="capacity" v="15" />
		<tag k="contact:website" v="http://www.bydel-alna.oslo.kommune.no" />
		<tag k="max_age" v="2" />
		<tag k="min_age" v="1" />
		<tag k="name" v="Teisen Vest barnehage" />
		<tag k="no-barnehage:nsrid" v="1025394" />
		<tag k="operator" v="Oslo kommune" />
		<tag k="operator:type" v="public" />
	</node>
	<node id="-1310" lat="59.9145" lon="10.8166">
		<tag k="amenity" v="kindergarten" />
		<tag k="capacity" v="24" />
		<tag k="contact:website" v="http://www.bydel-alna.oslo.kommune.no" />
		<tag k="max_age" v="5" />
		<tag k="min_age" v="3" />
		<tag k="name" v="Teisen gård barnehage" />
		<tag k="no-barnehage:nsrid" v="1016800" />
		<tag k="operator" v="Oslo kommune" />
		<tag k="operator:type" v="public" />
	</node>
	<node id="-1309" lat="59.9239" lon="10.7973">
		<tag k="amenity" v="kindergarten" />
		<tag k="capacity" v="163" />
		<tag k="max_age" v="5" />
		<tag k="min_age" v="1" />
		<tag k="name" v="Teglverket barnehage" />
		<tag k="no-barnehage:nsrid" v="1013988" />
		<tag k="operator" v="Oslo kommune" />
		<tag k="operator:type" v="public" />
	</node>
	<node id="-1308" lat="59.8215" lon="10.8409">
		<tag k="amenity" v="kindergarten" />
		<tag k="capacity" v="59" />
		<tag k="max_age" v="5" />
		<tag k="min_age" v="1" />
		<tag k="name" v="Taranrød barnehage" />
		<tag k="no-barnehage:nsrid" v="1015624" />
		<tag k="operator" v="Oslo kommune" />
		<tag k="operator:type" v="public" />
	</node>
	<node id="-1307" lat="59.894" lon="10.8246">
		<tag k="amenity" v="kindergarten" />
		<tag k="capacity" v="96" />
		<tag k="max_age" v="5" />
		<tag k="min_age" v="1" />
		<tag k="name" v="Tallberget barnehage" />
		<tag k="no-barnehage:nsrid" v="1013432" />
		<tag k="operator" v="Oslo kommune" />
		<tag k="operator:type" v="public" />
	</node>
	<node id="-1306" lat="59.9049" lon="10.7589">
		<tag k="amenity" v="kindergarten" />
		<tag k="capacity" v="59" />
		<tag k="max_age" v="5" />
		<tag k="min_age" v="1" />
		<tag k="name" v="Sørenga barnehage" />
		<tag k="no-barnehage:nsrid" v="1015157" />
		<tag k="operator" v="Oslo kommune" />
		<tag k="operator:type" v="public" />
	</node>
	<node id="-1305" lat="59.85113" lon="10.83861">
		<tag k="amenity" v="kindergarten" />
		<tag k="capacity" v="50" />
		<tag k="max_age" v="5" />
		<tag k="min_age" v="1" />
		<tag k="name" v="Søndre Dal gård barnehage" />
		<tag k="no-barnehage:nsrid" v="1019986" />
		<tag k="operator" v="Søndre Dal Gård barnehage AS" />
		<tag k="operator:type" v="private" />
	</node>
	<node id="-1303" lat="59.95709" lon="10.6877">
		<tag k="amenity" v="kindergarten" />
		<tag k="capacity" v="37" />
		<tag k="contact:website" v="http://www.svenstuen.no" />
		<tag k="max_age" v="5" />
		<tag k="min_age" v="1" />
		<tag k="name" v="Svenstuen barnehave" />
		<tag k="no-barnehage:nsrid" v="1019704" />
		<tag k="operator" v="Stiftelsen Svenstuen Barnehave" />
		<tag k="operator:type" v="private" />
	</node>
	<node id="-1302" lat="59.8978" lon="10.8023">
		<tag k="amenity" v="kindergarten" />
		<tag k="capacity" v="67" />
		<tag k="max_age" v="5" />
		<tag k="min_age" v="1" />
		<tag k="name" v="Svartdalsparken Kanvas-barnehage" />
		<tag k="no-barnehage:nsrid" v="1015483" />
		<tag k="operator" v="Stiftelsen Kanvas" />
		<tag k="operator:type" v="private" />
	</node>
	<node id="-1301" lat="59.91705" lon="10.79033">
		<tag k="amenity" v="kindergarten" />
		<tag k="capacity" v="80" />
		<tag k="max_age" v="5" />
		<tag k="min_age" v="1" />
		<tag k="name" v="Stålverkskroken barnehage" />
		<tag k="no-barnehage:nsrid" v="1022060" />
		<tag k="operator" v="Økernly Barnehagedrift AS" />
		<tag k="operator:type" v="private" />
	</node>
	<node id="-1300" lat="59.927" lon="10.7784">
		<tag k="amenity" v="kindergarten" />
		<tag k="capacity" v="208" />
		<tag k="max_age" v="5" />
		<tag k="min_age" v="1" />
		<tag k="name" v="Støperiet barnehage" />
		<tag k="no-barnehage:nsrid" v="1015080" />
		<tag k="operator" v="Oslo kommune" />
		<tag k="operator:type" v="public" />
	</node>
	<node id="-1299" lat="59.9643" lon="10.729">
		<tag k="amenity" v="kindergarten" />
		<tag k="capacity" v="51" />
		<tag k="max_age" v="5" />
		<tag k="min_age" v="1" />
		<tag k="name" v="Studentsamskipnaden i Oslo og Akershus avd. 412 Klossen barnehage" />
		<tag k="no-barnehage:nsrid" v="1016834" />
		<tag k="operator" v="Studentsamskipnaden i Oslo og Akershus" />
		<tag k="operator:type" v="private" />
	</node>
	<node id="-1298" lat="59.9629" lon="10.7343">
		<tag k="amenity" v="kindergarten" />
		<tag k="capacity" v="62" />
		<tag k="max_age" v="5" />
		<tag k="min_age" v="1" />
		<tag k="name" v="Studentsamskipnaden i Oslo og Akershus avd. 409 Frydenhaug barnehage" />
		<tag k="no-barnehage:nsrid" v="1016787" />
		<tag k="operator" v="Studentsamskipnaden i Oslo og Akershus" />
		<tag k="operator:type" v="private" />
	</node>
	<node id="-1297" lat="59.9515" lon="10.7306">
		<tag k="amenity" v="kindergarten" />
		<tag k="capacity" v="55" />
		<tag k="max_age" v="5" />
		<tag k="min_age" v="1" />
		<tag k="name" v="Studentsamskipnaden i Oslo og Akershus avd. 408 Almelia barnehage" />
		<tag k="no-barnehage:nsrid" v="1015725" />
		<tag k="operator" v="Studentsamskipnaden i Oslo og Akershus" />
		<tag k="operator:type" v="private" />
	</node>
	<node id="-1296" lat="59.9143" lon="10.7174">
		<tag k="amenity" v="kindergarten" />
		<tag k="capacity" v="22" />
		<tag k="max_age" v="5" />
		<tag k="min_age" v="1" />
		<tag k="name" v="Studentsamskipnaden i Oslo og Akershus avd. 406 Studentenes Småbarnstue" />
		<tag k="no-barnehage:nsrid" v="1016779" />
		<tag k="operator" v="Studentsamskipnaden i Oslo og Akershus" />
		<tag k="operator:type" v="private" />
	</node>
	<node id="-1295" lat="59.9647" lon="10.731">
		<tag k="amenity" v="kindergarten" />
		<tag k="capacity" v="48" />
		<tag k="max_age" v="5" />
		<tag k="min_age" v="1" />
		<tag k="name" v="Studentsamskipnaden i Oslo og Akershus avd. 405 Skogly barnehage" />
		<tag k="no-barnehage:nsrid" v="1016784" />
		<tag k="operator" v="Studentsamskipnaden i Oslo og Akershus" />
		<tag k="operator:type" v="private" />
	</node>
	<node id="-1294" lat="59.9358" lon="10.717">
		<tag k="amenity" v="kindergarten" />
		<tag k="capacity" v="21" />
		<tag k="max_age" v="2" />
		<tag k="min_age" v="1" />
		<tag k="name" v="Studentsamskipnaden i Oslo og Akershus avd. 403 Lille-bamsebo barnehage" />
		<tag k="no-barnehage:nsrid" v="1017944" />
		<tag k="operator" v="Studentsamskipnaden i Oslo og Akershus" />
		<tag k="operator:type" v="private" />
	</node>
	<node id="-1293" lat="59.938" lon="10.7188">
		<tag k="amenity" v="kindergarten" />
		<tag k="capacity" v="70" />
		<tag k="max_age" v="5" />
		<tag k="min_age" v="1" />
		<tag k="name" v="Studentsamskipnaden i Oslo og Akershus avd. 403 Bamsebo barnehage" />
		<tag k="no-barnehage:nsrid" v="1016783" />
		<tag k="operator" v="Studentsamskipnaden i Oslo og Akershus" />
		<tag k="operator:type" v="private" />
	</node>
	<node id="-1292" lat="59.9522" lon="10.7303">
		<tag k="amenity" v="kindergarten" />
		<tag k="capacity" v="73" />
		<tag k="max_age" v="5" />
		<tag k="min_age" v="1" />
		<tag k="name" v="Studentsamskipnaden i Oslo og Akershus avd. 401 Sogn barnehage" />
		<tag k="no-barnehage:nsrid" v="1016781" />
		<tag k="operator" v="Studentsamskipnaden i Oslo og Akershus" />
		<tag k="operator:type" v="private" />
	</node>
	<node id="-1291" lat="59.9256" lon="10.8636">
		<tag k="amenity" v="kindergarten" />
		<tag k="capacity" v="37" />
		<tag k="contact:website" v="http://www.bydel-alna.oslo.kommune.no" />
		<tag k="max_age" v="5" />
		<tag k="min_age" v="1" />
		<tag k="name" v="Stubberudlia barnehage" />
		<tag k="no-barnehage:nsrid" v="1025474" />
		<tag k="operator" v="Oslo kommune" />
		<tag k="operator:type" v="public" />
	</node>
	<node id="-1290" lat="59.9611" lon="10.9312">
		<tag k="amenity" v="kindergarten" />
		<tag k="capacity" v="55" />
		<tag k="max_age" v="5" />
		<tag k="min_age" v="1" />
		<tag k="name" v="Stovnerhøgda barnehage" />
		<tag k="no-barnehage:nsrid" v="1017452" />
		<tag k="operator" v="Oslo kommune" />
		<tag k="operator:type" v="public" />
	</node>
	<node id="-1289" lat="59.9635" lon="10.9281">
		<tag k="amenity" v="kindergarten" />
		<tag k="capacity" v="99" />
		<tag k="max_age" v="5" />
		<tag k="min_age" v="1" />
		<tag k="name" v="Stovnerbakken barnehage" />
		<tag k="no-barnehage:nsrid" v="1017451" />
		<tag k="operator" v="Oslo kommune" />
		<tag k="operator:type" v="public" />
	</node>
	<node id="-1288" lat="59.84187" lon="10.78161">
		<tag k="amenity" v="kindergarten" />
		<tag k="capacity" v="58" />
		<tag k="contact:website" v="http://www.storeljan.barnehage.no" />
		<tag k="max_age" v="5" />
		<tag k="min_age" v="1" />
		<tag k="name" v="Store Ljan barnehage" />
		<tag k="no-barnehage:nsrid" v="1019954" />
		<tag k="operator" v="Store Ljan barnehage Sa" />
		<tag k="operator:type" v="private" />
	</node>
	<node id="-1287" lat="59.9202" lon="10.8564">
		<tag k="amenity" v="kindergarten" />
		<tag k="capacity" v="44" />
		<tag k="contact:website" v="http://www.bydel-alna.oslo.kommune.no" />
		<tag k="max_age" v="5" />
		<tag k="min_age" v="1" />
		<tag k="name" v="Stjernemyra barnehage" />
		<tag k="no-barnehage:nsrid" v="1017450" />
		<tag k="operator" v="Oslo kommune" />
		<tag k="operator:type" v="public" />
	</node>
	<node id="-1286" lat="59.95076" lon="10.89024">
		<tag k="amenity" v="kindergarten" />
		<tag k="capacity" v="12" />
		<tag k="max_age" v="5" />
		<tag k="min_age" v="1" />
		<tag k="name" v="Stjerneblokkveien private barnehage" />
		<tag k="no-barnehage:nsrid" v="1022288" />
		<tag k="operator" v="Stjerneblokkveien Private barnehage AS" />
		<tag k="operator:type" v="private" />
	</node>
	<node id="-1285" lat="59.96558" lon="10.77905">
		<tag k="amenity" v="kindergarten" />
		<tag k="capacity" v="35" />
		<tag k="max_age" v="5" />
		<tag k="min_age" v="1" />
		<tag k="name" v="Stilla barnehage" />
		<tag k="no-barnehage:nsrid" v="1019712" />
		<tag k="operator" v="Stilla barnehage Sa" />
		<tag k="operator:type" v="private" />
	</node>
	<node id="-1284" lat="59.91418" lon="10.72884">
		<tag k="amenity" v="kindergarten" />
		<tag k="capacity" v="27" />
		<tag k="contact:website" v="http://www.victoriabarnehage.no" />
		<tag k="max_age" v="5" />
		<tag k="min_age" v="1" />
		<tag k="name" v="Stiftelsen Victoria barnehage" />
		<tag k="no-barnehage:nsrid" v="1020062" />
		<tag k="operator" v="Stiftelsen Victoria barnehage" />
		<tag k="operator:type" v="private" />
	</node>
	<node id="-1283" lat="59.95073" lon="10.73318">
		<tag k="amenity" v="kindergarten" />
		<tag k="capacity" v="27" />
		<tag k="contact:website" v="http://www.ullevalsletta.barnehage.no" />
		<tag k="max_age" v="5" />
		<tag k="min_age" v="1" />
		<tag k="name" v="Stiftelsen Ullevålsletta barnehage" />
		<tag k="no-barnehage:nsrid" v="1019936" />
		<tag k="operator" v="Stiftelsen Ullevålsletta barnehage" />
		<tag k="operator:type" v="private" />
	</node>
	<node id="-1282" lat="59.93427" lon="10.73815">
		<tag k="amenity" v="kindergarten" />
		<tag k="capacity" v="36" />
		<tag k="contact:website" v="http://www.nvhbarnehagen.no" />
		<tag k="max_age" v="5" />
		<tag k="min_age" v="1" />
		<tag k="name" v="Stiftelsen Nvh-barnehagen" />
		<tag k="no-barnehage:nsrid" v="1019894" />
		<tag k="operator" v="Stiftelsen Nvh-Barnehagen" />
		<tag k="operator:type" v="private" />
	</node>
	<node id="-1281" lat="59.84919" lon="10.80405">
		<tag k="amenity" v="kindergarten" />
		<tag k="capacity" v="67" />
		<tag k="max_age" v="5" />
		<tag k="min_age" v="1" />
		<tag k="name" v="Stiftelsen Ljabru gård Steinerbarnehage" />
		<tag k="no-barnehage:nsrid" v="1021391" />
		<tag k="operator" v="Stiftelsen Ljabru Gård Steinerbarnehage" />
		<tag k="operator:type" v="private" />
	</node>
	<node id="-1280" lat="59.9701" lon="10.87649">
		<tag k="amenity" v="kindergarten" />
		<tag k="capacity" v="34" />
		<tag k="contact:website" v="http://www.lillomarka.barnehageside.no" />
		<tag k="max_age" v="5" />
		<tag k="min_age" v="1" />
		<tag k="name" v="Stiftelsen Lillomarka barnehage" />
		<tag k="no-barnehage:nsrid" v="1020073" />
		<tag k="operator" v="Stiftelsen Lillomarka barnehage" />
		<tag k="operator:type" v="private" />
	</node>
	<node id="-1279" lat="59.91506" lon="10.71523">
		<tag k="amenity" v="kindergarten" />
		<tag k="capacity" v="37" />
		<tag k="contact:website" v="http://www.hydroparkenbarnehage.no" />
		<tag k="max_age" v="5" />
		<tag k="min_age" v="1" />
		<tag k="name" v="Stiftelsen Hydroparken barnehage" />
		<tag k="no-barnehage:nsrid" v="1020929" />
		<tag k="operator" v="Stiftelsen Hydroparken barnehage" />
		<tag k="operator:type" v="private" />
	</node>
	<node id="-1278" lat="59.8704" lon="10.8223">
		<tag k="amenity" v="kindergarten" />
		<tag k="capacity" v="109" />
		<tag k="max_age" v="5" />
		<tag k="min_age" v="1" />
		<tag k="name" v="Steinspranget barnehage" />
		<tag k="no-barnehage:nsrid" v="1018317" />
		<tag k="operator" v="Oslo kommune" />
		<tag k="operator:type" v="public" />
	</node>
	<node id="-1277" lat="59.8516" lon="10.8253">
		<tag k="amenity" v="kindergarten" />
		<tag k="capacity" v="99" />
		<tag k="max_age" v="5" />
		<tag k="min_age" v="1" />
		<tag k="name" v="Steinbråten naturbarnehage" />
		<tag k="no-barnehage:nsrid" v="1013837" />
		<tag k="operator" v="Oslo kommune" />
		<tag k="operator:type" v="public" />
	</node>
	<node id="-1276" lat="59.92395" lon="10.70357">
		<tag k="amenity" v="kindergarten" />
		<tag k="capacity" v="27" />
		<tag k="contact:website" v="http://stallen.no" />
		<tag k="max_age" v="5" />
		<tag k="min_age" v="1" />
		<tag k="name" v="Stallen barnehage" />
		<tag k="no-barnehage:nsrid" v="1019869" />
		<tag k="operator" v="Stallen barnehage Sa" />
		<tag k="operator:type" v="private" />
	</node>
	<node id="-1275" lat="59.9274" lon="10.7426">
		<tag k="amenity" v="kindergarten" />
		<tag k="capacity" v="32" />
		<tag k="max_age" v="5" />
		<tag k="min_age" v="3" />
		<tag k="name" v="St Hanshaugen barnehage" />
		<tag k="no-barnehage:nsrid" v="1016798" />
		<tag k="operator" v="Oslo kommune" />
		<tag k="operator:type" v="public" />
	</node>
	<node id="-1273" lat="59.8862" lon="10.7747">
		<tag k="amenity" v="kindergarten" />
		<tag k="capacity" v="30" />
		<tag k="max_age" v="5" />
		<tag k="min_age" v="1" />
		<tag k="name" v="Sportsplassen barnehage" />
		<tag k="no-barnehage:nsrid" v="1016807" />
		<tag k="operator" v="Oslo kommune" />
		<tag k="operator:type" v="public" />
	</node>
	<node id="-1272" lat="59.9082" lon="10.7875">
		<tag k="amenity" v="kindergarten" />
		<tag k="capacity" v="31" />
		<tag k="max_age" v="5" />
		<tag k="min_age" v="1" />
		<tag k="name" v="Sotamyggen barnehage" />
		<tag k="no-barnehage:nsrid" v="1018525" />
		<tag k="operator" v="Oslo kommune" />
		<tag k="operator:type" v="public" />
	</node>
	<node id="-1271" lat="59.9139" lon="10.7522">
		<tag k="amenity" v="kindergarten" />
		<tag k="capacity" v="55" />
		<tag k="max_age" v="5" />
		<tag k="min_age" v="1" />
		<tag k="name" v="Soria Moria Kanvas-barnehage" />
		<tag k="no-barnehage:nsrid" v="1012553" />
		<tag k="operator" v="Stiftelsen Kanvas" />
		<tag k="operator:type" v="private" />
	</node>
	<node id="-1270" lat="59.9274" lon="10.7768">
		<tag k="amenity" v="kindergarten" />
		<tag k="capacity" v="234" />
		<tag k="max_age" v="5" />
		<tag k="min_age" v="1" />
		<tag k="name" v="Sophies Hage barnehage" />
		<tag k="no-barnehage:nsrid" v="1013994" />
		<tag k="operator" v="Oslo kommune" />
		<tag k="operator:type" v="public" />
	</node>
	<node id="-1269" lat="59.9138" lon="10.7754">
		<tag k="amenity" v="kindergarten" />
		<tag k="capacity" v="93" />
		<tag k="max_age" v="5" />
		<tag k="min_age" v="1" />
		<tag k="name" v="Sommerfryd barnehage" />
		<tag k="no-barnehage:nsrid" v="1013369" />
		<tag k="operator" v="Oslo kommune" />
		<tag k="operator:type" v="public" />
	</node>
	<node id="-1268" lat="59.8998" lon="10.84295">
		<tag k="amenity" v="kindergarten" />
		<tag k="capacity" v="16" />
		<tag k="max_age" v="5" />
		<tag k="min_age" v="1" />
		<tag k="name" v="Soltoppen barnehage" />
		<tag k="no-barnehage:nsrid" v="1020381" />
		<tag k="operator" v="Soltoppen barnehage" />
		<tag k="operator:type" v="private" />
	</node>
	<node id="-1267" lat="59.91706" lon="10.71948">
		<tag k="amenity" v="kindergarten" />
		<tag k="capacity" v="17" />
		<tag k="contact:website" v="http://www.solrosensteinerbarnehage.com" />
		<tag k="max_age" v="5" />
		<tag k="min_age" v="1" />
		<tag k="name" v="Solrosen Steinerbarnehage" />
		<tag k="no-barnehage:nsrid" v="1020119" />
		<tag k="operator" v="Solrosen Steinerbarnehage AS" />
		<tag k="operator:type" v="private" />
	</node>
	<node id="-1266" lat="59.91326" lon="10.64721">
		<tag k="amenity" v="kindergarten" />
		<tag k="capacity" v="15" />
		<tag k="contact:website" v="http://www.sollerudstranda.barnehage.no" />
		<tag k="max_age" v="5" />
		<tag k="min_age" v="1" />
		<tag k="name" v="Sollerudstranda barnehage" />
		<tag k="no-barnehage:nsrid" v="1020261" />
		<tag k="operator" v="Foreningen Sollerudstranda barnehage" />
		<tag k="operator:type" v="private" />
	</node>
	<node id="-1265" lat="59.91862" lon="10.64198">
		<tag k="amenity" v="kindergarten" />
		<tag k="capacity" v="36" />
		<tag k="contact:website" v="http://www.sollerudbarnehage.no" />
		<tag k="max_age" v="5" />
		<tag k="min_age" v="1" />
		<tag k="name" v="Sollerud barnehage" />
		<tag k="no-barnehage:nsrid" v="1019742" />
		<tag k="operator" v="Sollerud barnehage Sa" />
		<tag k="operator:type" v="private" />
	</node>
	<node id="-1264" lat="59.97838" lon="10.81452">
		<tag k="amenity" v="kindergarten" />
		<tag k="capacity" v="31" />
		<tag k="max_age" v="5" />
		<tag k="min_age" v="1" />
		<tag k="name" v="Solemskogen naturbarnehage" />
		<tag k="no-barnehage:nsrid" v="1020137" />
		<tag k="operator" v="Solemskogen Naturbarnehage Sa" />
		<tag k="operator:type" v="private" />
	</node>
	<node id="-1263" lat="59.9326" lon="10.7183">
		<tag k="amenity" v="kindergarten" />
		<tag k="capacity" v="60" />
		<tag k="max_age" v="5" />
		<tag k="min_age" v="1" />
		<tag k="name" v="Solbærtorvet barnehage" />
		<tag k="no-barnehage:nsrid" v="1014155" />
		<tag k="operator" v="Oslo kommune" />
		<tag k="operator:type" v="public" />
	</node>
	<node id="-1262" lat="59.85394" lon="10.82346">
		<tag k="amenity" v="kindergarten" />
		<tag k="capacity" v="64" />
		<tag k="contact:website" v="http://solbakkenbhg.barnehage.no" />
		<tag k="max_age" v="5" />
		<tag k="min_age" v="1" />
		<tag k="name" v="Solbakken barnehage" />
		<tag k="no-barnehage:nsrid" v="1020443" />
		<tag k="operator" v="Solbakken barnehage Sa" />
		<tag k="operator:type" v="private" />
	</node>
	<node id="-1261" lat="59.94841" lon="10.65925">
		<tag k="amenity" v="kindergarten" />
		<tag k="capacity" v="32" />
		<tag k="contact:website" v="http://snippen.bhg.no/" />
		<tag k="max_age" v="5" />
		<tag k="min_age" v="1" />
		<tag k="name" v="Snippen FUS barnehage" />
		<tag k="no-barnehage:nsrid" v="1020807" />
		<tag k="operator" v="Snippen Fus barnehage AS" />
		<tag k="operator:type" v="private" />
	</node>
	<node id="-1257" lat="59.93779" lon="10.68723">
		<tag k="amenity" v="kindergarten" />
		<tag k="capacity" v="17" />
		<tag k="max_age" v="5" />
		<tag k="min_age" v="1" />
		<tag k="name" v="Smestadveien barnehage" />
		<tag k="no-barnehage:nsrid" v="1020018" />
		<tag k="operator" v="Smestadveien barnehage AS" />
		<tag k="operator:type" v="private" />
	</node>
	<node id="-1256" lat="59.9335" lon="10.6815">
		<tag k="amenity" v="kindergarten" />
		<tag k="capacity" v="132" />
		<tag k="max_age" v="5" />
		<tag k="min_age" v="1" />
		<tag k="name" v="Smestad barnehage" />
		<tag k="no-barnehage:nsrid" v="1018379" />
		<tag k="operator" v="Oslo kommune" />
		<tag k="operator:type" v="public" />
	</node>
	<node id="-1255" lat="59.953" lon="10.9148">
		<tag k="amenity" v="kindergarten" />
		<tag k="capacity" v="75" />
		<tag k="max_age" v="5" />
		<tag k="min_age" v="1" />
		<tag k="name" v="Smedstua gård barnehage" />
		<tag k="no-barnehage:nsrid" v="1017448" />
		<tag k="operator" v="Oslo kommune" />
		<tag k="operator:type" v="public" />
	</node>
	<node id="-1254" lat="59.9341" lon="10.9177">
		<tag k="amenity" v="kindergarten" />
		<tag k="capacity" v="53" />
		<tag k="contact:website" v="http://www.smedbakken.bhg.no" />
		<tag k="max_age" v="5" />
		<tag k="min_age" v="1" />
		<tag k="name" v="Smedbakken FUS barnehage" />
		<tag k="no-barnehage:nsrid" v="1013871" />
		<tag k="operator" v="Smedbakken Fus barnehage AS" />
		<tag k="operator:type" v="private" />
	</node>
	<node id="-1253" lat="59.9184" lon="10.8442">
		<tag k="amenity" v="kindergarten" />
		<tag k="capacity" v="48" />
		<tag k="contact:website" v="http://www.bydel-alna.oslo.kommune.no" />
		<tag k="max_age" v="5" />
		<tag k="min_age" v="1" />
		<tag k="name" v="Smalvollskogen barnehage" />
		<tag k="no-barnehage:nsrid" v="1017315" />
		<tag k="operator" v="Oslo kommune" />
		<tag k="operator:type" v="public" />
	</node>
	<node id="-1252" lat="59.8439" lon="10.7947">
		<tag k="amenity" v="kindergarten" />
		<tag k="capacity" v="54" />
		<tag k="max_age" v="5" />
		<tag k="min_age" v="1" />
		<tag k="name" v="Sloreåsen barnehage" />
		<tag k="no-barnehage:nsrid" v="1013836" />
		<tag k="operator" v="Oslo kommune" />
		<tag k="operator:type" v="public" />
	</node>
	<node id="-1251" lat="59.8316" lon="10.8376">
		<tag k="amenity" v="kindergarten" />
		<tag k="capacity" v="71" />
		<tag k="max_age" v="5" />
		<tag k="min_age" v="1" />
		<tag k="name" v="Slime gård barnehage" />
		<tag k="no-barnehage:nsrid" v="1015622" />
		<tag k="operator" v="Oslo kommune" />
		<tag k="operator:type" v="public" />
	</node>
	<node id="-1250" lat="59.9498" lon="10.8211">
		<tag k="amenity" v="kindergarten" />
		<tag k="capacity" v="59" />
		<tag k="max_age" v="5" />
		<tag k="min_age" v="1" />
		<tag k="name" v="Sletta barnehage" />
		<tag k="no-barnehage:nsrid" v="1017314" />
		<tag k="operator" v="Oslo kommune" />
		<tag k="operator:type" v="public" />
	</node>
	<node id="-1249" lat="59.9331" lon="10.6527">
		<tag k="amenity" v="kindergarten" />
		<tag k="capacity" v="62" />
		<tag k="max_age" v="5" />
		<tag k="min_age" v="1" />
		<tag k="name" v="Slalåmveien barnehage" />
		<tag k="no-barnehage:nsrid" v="1014847" />
		<tag k="operator" v="Barnehagene på Ullern AS" />
		<tag k="operator:type" v="private" />
	</node>
	<node id="-1248" lat="59.89926" lon="10.83633">
		<tag k="amenity" v="kindergarten" />
		<tag k="name" v="Skøyenåsen FUS barnehage" />
		<tag k="no-barnehage:nsrid" v="2000266" />
		<tag k="operator" v="Skøyenåsen Fus barnehage AS" />
		<tag k="operator:type" v="private" />
	</node>
	<node id="-1247" lat="59.92685" lon="10.67959">
		<tag k="amenity" v="kindergarten" />
		<tag k="capacity" v="45" />
		<tag k="contact:website" v="http://www.stbhg.no" />
		<tag k="max_age" v="5" />
		<tag k="min_age" v="1" />
		<tag k="name" v="Skøyen terrasse barnehage" />
		<tag k="no-barnehage:nsrid" v="1020077" />
		<tag k="operator" v="Skøyen Terrasse barnehage" />
		<tag k="operator:type" v="private" />
	</node>
	<node id="-1246" lat="59.86774" lon="10.83755">
		<tag k="amenity" v="kindergarten" />
		<tag k="capacity" v="54" />
		<tag k="max_age" v="5" />
		<tag k="min_age" v="1" />
		<tag k="name" v="Skullerudhøgda barnehage" />
		<tag k="no-barnehage:nsrid" v="1020184" />
		<tag k="operator" v="Skullerudhøgda Foreldrelagsbarnehage Sa" />
		<tag k="operator:type" v="private" />
	</node>
	<node id="-1245" lat="59.943" lon="10.8535">
		<tag k="amenity" v="kindergarten" />
		<tag k="capacity" v="72" />
		<tag k="max_age" v="5" />
		<tag k="min_age" v="1" />
		<tag k="name" v="Skrubbelund barnehage" />
		<tag k="no-barnehage:nsrid" v="1016973" />
		<tag k="operator" v="Oslo kommune" />
		<tag k="operator:type" v="public" />
	</node>
	<node id="-1244" lat="59.9367" lon="10.7351">
		<tag k="amenity" v="kindergarten" />
		<tag k="capacity" v="54" />
		<tag k="max_age" v="5" />
		<tag k="min_age" v="1" />
		<tag k="name" v="Skrellinga Kanvas-barnehage" />
		<tag k="no-barnehage:nsrid" v="1013870" />
		<tag k="operator" v="Stiftelsen Kanvas" />
		<tag k="operator:type" v="private" />
	</node>
	<node id="-1243" lat="59.8508" lon="10.7917">
		<tag k="amenity" v="kindergarten" />
		<tag k="capacity" v="27" />
		<tag k="max_age" v="5" />
		<tag k="min_age" v="1" />
		<tag k="name" v="Skredderstua barnehage" />
		<tag k="no-barnehage:nsrid" v="1016797" />
		<tag k="operator" v="Oslo kommune" />
		<tag k="operator:type" v="public" />
	</node>
	<node id="-1242" lat="59.85078" lon="10.79169">
		<tag k="amenity" v="kindergarten" />
		<tag k="capacity" v="66" />
		<tag k="contact:website" v="http://www.skreddern.no" />
		<tag k="max_age" v="5" />
		<tag k="min_age" v="1" />
		<tag k="name" v="Skredder'n barnehage" />
		<tag k="no-barnehage:nsrid" v="1020870" />
		<tag k="operator" v="Skredder'N barnehage Sa" />
		<tag k="operator:type" v="private" />
	</node>
	<node id="-1241" lat="59.8651" lon="10.7974">
		<tag k="amenity" v="kindergarten" />
		<tag k="capacity" v="52" />
		<tag k="max_age" v="5" />
		<tag k="min_age" v="1" />
		<tag k="name" v="Skovheim barnehage" />
		<tag k="no-barnehage:nsrid" v="1015493" />
		<tag k="operator" v="Stiftelsen Kirkens Bymisjon Oslo" />
		<tag k="operator:type" v="private" />
	</node>
	<node id="-1240" lat="59.9145" lon="10.76304">
		<tag k="amenity" v="kindergarten" />
		<tag k="capacity" v="36" />
		<tag k="max_age" v="5" />
		<tag k="min_age" v="3" />
		<tag k="name" v="Skomakergata barnehage" />
		<tag k="no-barnehage:nsrid" v="1021348" />
		<tag k="operator" v="Urtehagen Barnehager AS" />
		<tag k="operator:type" v="private" />
	</node>
	<node id="-1239" lat="59.95702" lon="10.86304">
		<tag k="amenity" v="kindergarten" />
		<tag k="capacity" v="13" />
		<tag k="max_age" v="5" />
		<tag k="min_age" v="1" />
		<tag k="name" v="Skogkanten barnehage" />
		<tag k="no-barnehage:nsrid" v="1020673" />
		<tag k="operator" v="Skogkanten barnehage AS" />
		<tag k="operator:type" v="private" />
	</node>
	<node id="-1238" lat="59.9332" lon="10.6414">
		<tag k="amenity" v="kindergarten" />
		<tag k="capacity" v="38" />
		<tag k="max_age" v="5" />
		<tag k="min_age" v="1" />
		<tag k="name" v="Skogfuglen barnehage" />
		<tag k="no-barnehage:nsrid" v="1018593" />
		<tag k="operator" v="Tårnsvalen barnehage AS" />
		<tag k="operator:type" v="private" />
	</node>
	<node id="-1237" lat="59.9174" lon="10.6466">
		<tag k="amenity" v="kindergarten" />
		<tag k="capacity" v="64" />
		<tag k="max_age" v="5" />
		<tag k="min_age" v="1" />
		<tag k="name" v="Skogbrynet Kanvas-barnehage" />
		<tag k="no-barnehage:nsrid" v="1015481" />
		<tag k="operator" v="Stiftelsen Kanvas" />
		<tag k="operator:type" v="private" />
	</node>
	<node id="-1236" lat="59.9144" lon="10.7137">
		<tag k="amenity" v="kindergarten" />
		<tag k="capacity" v="66" />
		<tag k="max_age" v="5" />
		<tag k="min_age" v="1" />
		<tag k="name" v="Skillebekk barnehage" />
		<tag k="no-barnehage:nsrid" v="1017312" />
		<tag k="operator" v="Oslo kommune" />
		<tag k="operator:type" v="public" />
	</node>
	<node id="-1234" lat="59.9215" lon="10.7677">
		<tag k="amenity" v="kindergarten" />
		<tag k="capacity" v="130" />
		<tag k="max_age" v="5" />
		<tag k="min_age" v="1" />
		<tag k="name" v="Sjokoladefabrikken barnehage" />
		<tag k="no-barnehage:nsrid" v="1018360" />
		<tag k="operator" v="Oslo kommune" />
		<tag k="operator:type" v="public" />
	</node>
	<node id="-1233" lat="59.9391" lon="10.8325">
		<tag k="amenity" v="kindergarten" />
		<tag k="capacity" v="60" />
		<tag k="max_age" v="5" />
		<tag k="min_age" v="1" />
		<tag k="name" v="Sisiktoppen barnehage" />
		<tag k="no-barnehage:nsrid" v="1013856" />
		<tag k="operator" v="Oslo kommune" />
		<tag k="operator:type" v="public" />
	</node>
	<node id="-1232" lat="59.932" lon="10.7876">
		<tag k="amenity" v="kindergarten" />
		<tag k="capacity" v="24" />
		<tag k="contact:website" v="http://sinsenkirkes.barnehage.no/" />
		<tag k="max_age" v="5" />
		<tag k="min_age" v="1" />
		<tag k="name" v="Sinsen kirkes barnehage" />
		<tag k="no-barnehage:nsrid" v="1016666" />
		<tag k="operator" v="Sinsen Sokn" />
		<tag k="operator:type" v="private" />
	</node>
	<node id="-1231" lat="59.93888" lon="10.78993">
		<tag k="amenity" v="kindergarten" />
		<tag k="capacity" v="113" />
		<tag k="max_age" v="5" />
		<tag k="min_age" v="1" />
		<tag k="name" v="Sinsen FUS barnehage" />
		<tag k="no-barnehage:nsrid" v="1022018" />
		<tag k="operator" v="Sinsen Fus barnehage AS" />
		<tag k="operator:type" v="private" />
	</node>
	<node id="-1230" lat="59.9357" lon="10.7843">
		<tag k="amenity" v="kindergarten" />
		<tag k="capacity" v="133" />
		<tag k="max_age" v="5" />
		<tag k="min_age" v="1" />
		<tag k="name" v="Sinsen barnehage" />
		<tag k="no-barnehage:nsrid" v="1017311" />
		<tag k="operator" v="Oslo kommune" />
		<tag k="operator:type" v="public" />
	</node>
	<node id="-1228" lat="59.92578" lon="10.76337">
		<tag k="amenity" v="kindergarten" />
		<tag k="capacity" v="54" />
		<tag k="contact:website" v="http://www.seilduken.barnehage.no" />
		<tag k="max_age" v="5" />
		<tag k="min_age" v="1" />
		<tag k="name" v="Seilduken barnehage A/l" />
		<tag k="no-barnehage:nsrid" v="1019782" />
		<tag k="operator" v="Seilduken barnehage Sa" />
		<tag k="operator:type" v="private" />
	</node>
	<node id="-1227" lat="59.9235" lon="10.7382">
		<tag k="amenity" v="kindergarten" />
		<tag k="capacity" v="8" />
		<tag k="max_age" v="5" />
		<tag k="min_age" v="1" />
		<tag k="name" v="Schwensensgate barnehage" />
		<tag k="no-barnehage:nsrid" v="1017003" />
		<tag k="operator" v="Oslo kommune" />
		<tag k="operator:type" v="public" />
	</node>
	<node id="-1226" lat="59.9214" lon="10.703">
		<tag k="amenity" v="kindergarten" />
		<tag k="capacity" v="26" />
		<tag k="contact:website" v="http://schaftelokken.barnehage.no" />
		<tag k="max_age" v="5" />
		<tag k="min_age" v="1" />
		<tag k="name" v="Schafteløkken menighets barnehage" />
		<tag k="no-barnehage:nsrid" v="1016672" />
		<tag k="operator" v="Frogner Sokn" />
		<tag k="operator:type" v="private" />
	</node>
	<node id="-1225" lat="59.94039" lon="10.89852">
		<tag k="amenity" v="kindergarten" />
		<tag k="capacity" v="55" />
		<tag k="contact:website" v="http://www.scala.barnehage.no" />
		<tag k="max_age" v="5" />
		<tag k="min_age" v="1" />
		<tag k="name" v="Scala private barnehage" />
		<tag k="no-barnehage:nsrid" v="1020595" />
		<tag k="operator" v="Scala Private barnehage Sa" />
		<tag k="operator:type" v="private" />
	</node>
	<node id="-1223" lat="59.9536" lon="10.8576">
		<tag k="amenity" v="kindergarten" />
		<tag k="capacity" v="48" />
		<tag k="contact:website" v="http://www.oslo.kommune.no/barnehage/finn-barnehage-i-oslo/bydel-grorud/sandasveien-barnehage/" />
		<tag k="max_age" v="5" />
		<tag k="min_age" v="1" />
		<tag k="name" v="Sandåsveien barnehage" />
		<tag k="no-barnehage:nsrid" v="1017325" />
		<tag k="operator" v="Oslo kommune" />
		<tag k="operator:type" v="public" />
	</node>
	<node id="-1222" lat="59.9448" lon="10.8281">
		<tag k="amenity" v="kindergarten" />
		<tag k="capacity" v="48" />
		<tag k="max_age" v="5" />
		<tag k="min_age" v="1" />
		<tag k="name" v="Sandbakken barnehage" />
		<tag k="no-barnehage:nsrid" v="1017446" />
		<tag k="operator" v="Oslo kommune" />
		<tag k="operator:type" v="public" />
	</node>
	<node id="-1221" lat="59.9494" lon="10.7931">
		<tag k="amenity" v="kindergarten" />
		<tag k="capacity" v="54" />
		<tag k="max_age" v="5" />
		<tag k="min_age" v="1" />
		<tag k="name" v="Sanatoriet barnehage" />
		<tag k="no-barnehage:nsrid" v="1016961" />
		<tag k="operator" v="Oslo kommune" />
		<tag k="operator:type" v="public" />
	</node>
	<node id="-1220" lat="59.9192" lon="10.7773">
		<tag k="amenity" v="kindergarten" />
		<tag k="capacity" v="26" />
		<tag k="max_age" v="5" />
		<tag k="min_age" v="1" />
		<tag k="name" v="Sami Manaid Gardi Cizas" />
		<tag k="no-barnehage:nsrid" v="1013814" />
		<tag k="operator" v="Oslo kommune" />
		<tag k="operator:type" v="public" />
	</node>
	<node id="-1219" lat="59.932" lon="10.6742">
		<tag k="amenity" v="kindergarten" />
		<tag k="capacity" v="25" />
		<tag k="max_age" v="5" />
		<tag k="min_age" v="1" />
		<tag k="name" v="Saci barnehage" />
		<tag k="no-barnehage:nsrid" v="1015022" />
		<tag k="operator" v="A&amp;m Norway Limited" />
		<tag k="operator:type" v="private" />
	</node>
	<node id="-1218" lat="59.8932" lon="10.8356">
		<tag k="amenity" v="kindergarten" />
		<tag k="capacity" v="149" />
		<tag k="max_age" v="5" />
		<tag k="min_age" v="1" />
		<tag k="name" v="Rønningjordet barnehage" />
		<tag k="no-barnehage:nsrid" v="1017442" />
		<tag k="operator" v="Oslo kommune" />
		<tag k="operator:type" v="public" />
	</node>
	<node id="-1217" lat="59.9378" lon="10.6448">
		<tag k="amenity" v="kindergarten" />
		<tag k="capacity" v="55" />
		<tag k="max_age" v="5" />
		<tag k="min_age" v="1" />
		<tag k="name" v="Rønningen Kanvas-barnehage" />
		<tag k="no-barnehage:nsrid" v="1013851" />
		<tag k="operator" v="Stiftelsen Kanvas" />
		<tag k="operator:type" v="private" />
	</node>
	<node id="-1216" lat="59.9471" lon="10.8267">
		<tag k="amenity" v="kindergarten" />
		<tag k="capacity" v="12" />
		<tag k="max_age" v="5" />
		<tag k="min_age" v="3" />
		<tag k="name" v="Rødberget naturbarnehage" />
		<tag k="no-barnehage:nsrid" v="1013403" />
		<tag k="operator" v="Oslo kommune" />
		<tag k="operator:type" v="public" />
	</node>
	<node id="-1215" lat="59.9497" lon="10.6429">
		<tag k="amenity" v="kindergarten" />
		<tag k="capacity" v="78" />
		<tag k="max_age" v="5" />
		<tag k="min_age" v="1" />
		<tag k="name" v="Røa menighets barnehage" />
		<tag k="no-barnehage:nsrid" v="1016664" />
		<tag k="operator" v="Røa Sokn" />
		<tag k="operator:type" v="private" />
	</node>
	<node id="-1214" lat="59.8993" lon="10.7996">
		<tag k="amenity" v="kindergarten" />
		<tag k="capacity" v="79" />
		<tag k="max_age" v="5" />
		<tag k="min_age" v="1" />
		<tag k="name" v="Rygin barnehage" />
		<tag k="no-barnehage:nsrid" v="1013821" />
		<tag k="operator" v="Oslo kommune" />
		<tag k="operator:type" v="public" />
	</node>
	<node id="-1213" lat="59.8719" lon="10.846">
		<tag k="amenity" v="kindergarten" />
		<tag k="capacity" v="24" />
		<tag k="max_age" v="5" />
		<tag k="min_age" v="1" />
		<tag k="name" v="Rustad gård barnehage" />
		<tag k="no-barnehage:nsrid" v="1017045" />
		<tag k="operator" v="Oslo kommune" />
		<tag k="operator:type" v="public" />
	</node>
	<node id="-1212" lat="59.8558" lon="10.7979">
		<tag k="amenity" v="kindergarten" />
		<tag k="capacity" v="135" />
		<tag k="max_age" v="5" />
		<tag k="min_age" v="1" />
		<tag k="name" v="Rosenhagen barnehage" />
		<tag k="no-barnehage:nsrid" v="1017229" />
		<tag k="operator" v="Oslo kommune" />
		<tag k="operator:type" v="public" />
	</node>
	<node id="-1211" lat="59.9259" lon="10.7268">
		<tag k="amenity" v="kindergarten" />
		<tag k="capacity" v="43" />
		<tag k="max_age" v="5" />
		<tag k="min_age" v="1" />
		<tag k="name" v="Rosenborg barnehage" />
		<tag k="no-barnehage:nsrid" v="1015615" />
		<tag k="operator" v="Oslo kommune" />
		<tag k="operator:type" v="public" />
	</node>
	<node id="-1210" lat="59.9716" lon="10.899">
		<tag k="amenity" v="kindergarten" />
		<tag k="capacity" v="52" />
		<tag k="max_age" v="5" />
		<tag k="min_age" v="1" />
		<tag k="name" v="Romsåstoppen barnehage" />
		<tag k="no-barnehage:nsrid" v="1017445" />
		<tag k="operator" v="Oslo kommune" />
		<tag k="operator:type" v="public" />
	</node>
	<node id="-1209" lat="59.9642" lon="10.8942">
		<tag k="amenity" v="kindergarten" />
		<tag k="capacity" v="27" />
		<tag k="contact:website" v="http://www.oslo.kommune.no/barnehage/finn-barnehage-i-oslo/bydel-grorud/romsas-senter-barnehage/" />
		<tag k="max_age" v="2" />
		<tag k="min_age" v="1" />
		<tag k="name" v="Romsås Senter barnehage" />
		<tag k="no-barnehage:nsrid" v="1013807" />
		<tag k="operator" v="Oslo kommune" />
		<tag k="operator:type" v="public" />
	</node>
	<node id="-1208" lat="59.9231" lon="10.7699">
		<tag k="amenity" v="kindergarten" />
		<tag k="capacity" v="71" />
		<tag k="max_age" v="5" />
		<tag k="min_age" v="1" />
		<tag k="name" v="Rodeløkka barnehage" />
		<tag k="no-barnehage:nsrid" v="1017308" />
		<tag k="operator" v="Oslo kommune" />
		<tag k="operator:type" v="public" />
	</node>
	<node id="-1206" lat="59.93008" lon="10.76074">
		<tag k="amenity" v="kindergarten" />
		<tag k="capacity" v="75" />
		<tag k="contact:website" v="http://fus.no/ringnespark" />
		<tag k="max_age" v="5" />
		<tag k="min_age" v="1" />
		<tag k="name" v="Ringnes Park FUS barnehage" />
		<tag k="no-barnehage:nsrid" v="1021725" />
		<tag k="operator" v="Ringnes Park Fus barnehage AS" />
		<tag k="operator:type" v="private" />
	</node>
	<node id="-1204" lat="59.9523" lon="10.7384">
		<tag k="amenity" v="kindergarten" />
		<tag k="capacity" v="95" />
		<tag k="max_age" v="5" />
		<tag k="min_age" v="1" />
		<tag k="name" v="Rektorhaugen Kanvas-barnehage" />
		<tag k="no-barnehage:nsrid" v="1016795" />
		<tag k="operator" v="Stiftelsen Kanvas" />
		<tag k="operator:type" v="private" />
	</node>
	<node id="-1203" lat="59.9553" lon="10.8802">
		<tag k="amenity" v="kindergarten" />
		<tag k="capacity" v="21" />
		<tag k="contact:website" v="http://www.oslo.kommune.no/barnehage/finn-barnehage-i-oslo/bydel-grorud/rasmusbakken-barnehage/" />
		<tag k="max_age" v="2" />
		<tag k="min_age" v="1" />
		<tag k="name" v="Rasmusbakken barnehage" />
		<tag k="no-barnehage:nsrid" v="1017444" />
		<tag k="operator" v="Oslo kommune" />
		<tag k="operator:type" v="public" />
	</node>
	<node id="-1202" lat="59.9396" lon="10.7769">
		<tag k="amenity" v="kindergarten" />
		<tag k="capacity" v="115" />
		<tag k="contact:website" v="http://www.ragnashage.no" />
		<tag k="max_age" v="5" />
		<tag k="min_age" v="1" />
		<tag k="name" v="Ragnas Hage" />
		<tag k="no-barnehage:nsrid" v="1013409" />
		<tag k="operator" v="Stiftelsen Ragna Ringdals Dagsenter" />
		<tag k="operator:type" v="private" />
	</node>
	<node id="-1201" lat="59.874" lon="10.8194">
		<tag k="amenity" v="kindergarten" />
		<tag k="capacity" v="122" />
		<tag k="max_age" v="5" />
		<tag k="min_age" v="1" />
		<tag k="name" v="Radiobølgen barnehage" />
		<tag k="no-barnehage:nsrid" v="1014035" />
		<tag k="operator" v="Oslo kommune" />
		<tag k="operator:type" v="public" />
	</node>
	<node id="-1200" lat="59.9328" lon="10.6816">
		<tag k="amenity" v="kindergarten" />
		<tag k="capacity" v="54" />
		<tag k="max_age" v="5" />
		<tag k="min_age" v="1" />
		<tag k="name" v="Priorveien barnehage" />
		<tag k="no-barnehage:nsrid" v="1013514" />
		<tag k="operator" v="Oslo kommune" />
		<tag k="operator:type" v="public" />
	</node>
	<node id="-1199" lat="59.9369" lon="10.7528">
		<tag k="amenity" v="kindergarten" />
		<tag k="capacity" v="39" />
		<tag k="max_age" v="5" />
		<tag k="min_age" v="1" />
		<tag k="name" v="Pontoppidans barnehage" />
		<tag k="no-barnehage:nsrid" v="1013270" />
		<tag k="operator" v="Oslo kommune" />
		<tag k="operator:type" v="public" />
	</node>
	<node id="-1197" lat="59.9333" lon="10.8829">
		<tag k="amenity" v="kindergarten" />
		<tag k="capacity" v="39" />
		<tag k="contact:website" v="http://www.bydel-alna.oslo.kommune.no" />
		<tag k="max_age" v="5" />
		<tag k="min_age" v="1" />
		<tag k="name" v="Plassen barnehage" />
		<tag k="no-barnehage:nsrid" v="1013872" />
		<tag k="operator" v="Oslo kommune" />
		<tag k="operator:type" v="public" />
	</node>
	<node id="-1196" lat="59.9326" lon="10.7676">
		<tag k="amenity" v="kindergarten" />
		<tag k="capacity" v="40" />
		<tag k="max_age" v="5" />
		<tag k="min_age" v="1" />
		<tag k="name" v="Oskar Braaten barnehage" />
		<tag k="no-barnehage:nsrid" v="1015619" />
		<tag k="operator" v="Oslo kommune" />
		<tag k="operator:type" v="public" />
	</node>
	<node id="-1195" lat="59.9363" lon="10.8149">
		<tag k="amenity" v="kindergarten" />
		<tag k="capacity" v="36" />
		<tag k="max_age" v="5" />
		<tag k="min_age" v="3" />
		<tag k="name" v="Orelia barnehage" />
		<tag k="no-barnehage:nsrid" v="1017304" />
		<tag k="operator" v="Oslo kommune" />
		<tag k="operator:type" v="public" />
	</node>
	<node id="-1194" lat="59.952" lon="10.6516">
		<tag k="amenity" v="kindergarten" />
		<tag k="capacity" v="54" />
		<tag k="max_age" v="5" />
		<tag k="min_age" v="1" />
		<tag k="name" v="Orebakken barnehage" />
		<tag k="no-barnehage:nsrid" v="1012549" />
		<tag k="operator" v="Oslo kommune" />
		<tag k="operator:type" v="public" />
	</node>
	<node id="-1193" lat="59.8921" lon="10.8388">
		<tag k="amenity" v="kindergarten" />
		<tag k="capacity" v="123" />
		<tag k="max_age" v="5" />
		<tag k="min_age" v="1" />
		<tag k="name" v="Oppsaltunet barnehage" />
		<tag k="no-barnehage:nsrid" v="1012551" />
		<tag k="operator" v="Oslo kommune" />
		<tag k="operator:type" v="public" />
	</node>
	<node id="-1191" lat="59.9517" lon="10.9095">
		<tag k="amenity" v="kindergarten" />
		<tag k="capacity" v="59" />
		<tag k="max_age" v="5" />
		<tag k="min_age" v="1" />
		<tag k="name" v="Ole Brumm barnehage" />
		<tag k="no-barnehage:nsrid" v="1017440" />
		<tag k="operator" v="Oslo kommune" />
		<tag k="operator:type" v="public" />
	</node>
	<node id="-1190" lat="59.9246" lon="10.7811">
		<tag k="amenity" v="kindergarten" />
		<tag k="capacity" v="69" />
		<tag k="max_age" v="5" />
		<tag k="min_age" v="1" />
		<tag k="name" v="Ola Narr barnehage" />
		<tag k="no-barnehage:nsrid" v="1013813" />
		<tag k="operator" v="Oslo kommune" />
		<tag k="operator:type" v="public" />
	</node>
	<node id="-1189" lat="59.8628" lon="10.8085">
		<tag k="amenity" v="kindergarten" />
		<tag k="capacity" v="66" />
		<tag k="max_age" v="5" />
		<tag k="min_age" v="1" />
		<tag k="name" v="Obersten barnehage" />
		<tag k="no-barnehage:nsrid" v="1013818" />
		<tag k="operator" v="Oslo kommune" />
		<tag k="operator:type" v="public" />
	</node>
	<node id="-1187" lat="59.8777" lon="10.8461">
		<tag k="amenity" v="kindergarten" />
		<tag k="capacity" v="81" />
		<tag k="max_age" v="5" />
		<tag k="min_age" v="1" />
		<tag k="name" v="Nøklevann barnehage" />
		<tag k="no-barnehage:nsrid" v="1012550" />
		<tag k="operator" v="Oslo kommune" />
		<tag k="operator:type" v="public" />
	</node>
	<node id="-1186" lat="59.8297" lon="10.8394">
		<tag k="amenity" v="kindergarten" />
		<tag k="capacity" v="54" />
		<tag k="max_age" v="5" />
		<tag k="min_age" v="1" />
		<tag k="name" v="Nyjordet barnehage" />
		<tag k="no-barnehage:nsrid" v="1013834" />
		<tag k="operator" v="Oslo kommune" />
		<tag k="operator:type" v="public" />
	</node>
	<node id="-1185" lat="59.9428" lon="10.8183">
		<tag k="amenity" v="kindergarten" />
		<tag k="capacity" v="60" />
		<tag k="max_age" v="5" />
		<tag k="min_age" v="1" />
		<tag k="name" v="Nye Midlertidige Refstadsvingen barnehage" />
		<tag k="no-barnehage:nsrid" v="1018468" />
		<tag k="operator" v="Oslo kommune" />
		<tag k="operator:type" v="public" />
	</node>
	<node id="-1184" lat="59.9528" lon="10.76038">
		<tag k="amenity" v="kindergarten" />
		<tag k="capacity" v="32" />
		<tag k="max_age" v="5" />
		<tag k="min_age" v="1" />
		<tag k="name" v="Nydalen barnehage" />
		<tag k="no-barnehage:nsrid" v="1019703" />
		<tag k="operator" v="Nydalen barnehage Sa" />
		<tag k="operator:type" v="private" />
	</node>
	<node id="-1183" lat="59.93551" lon="10.72061">
		<tag k="amenity" v="kindergarten" />
		<tag k="capacity" v="55" />
		<tag k="max_age" v="5" />
		<tag k="min_age" v="1" />
		<tag k="name" v="Nrk barnehagen Oslo" />
		<tag k="no-barnehage:nsrid" v="1019567" />
		<tag k="operator" v="Nrk Barnehagen Oslo Sa" />
		<tag k="operator:type" v="private" />
	</node>
	<node id="-1182" lat="59.912" lon="10.8333">
		<tag k="amenity" v="kindergarten" />
		<tag k="capacity" v="84" />
		<tag k="contact:website" v="http://www.sorhellinga.norlandiabarnehagene.no" />
		<tag k="max_age" v="5" />
		<tag k="min_age" v="1" />
		<tag k="name" v="Norlandia Sørhellinga barnehage" />
		<tag k="no-barnehage:nsrid" v="1017317" />
		<tag k="operator" v="Norlandia Barnehagene Ii AS" />
		<tag k="operator:type" v="private" />
	</node>
	<node id="-1181" lat="59.9548" lon="10.7177">
		<tag k="amenity" v="kindergarten" />
		<tag k="capacity" v="124" />
		<tag k="max_age" v="5" />
		<tag k="min_age" v="1" />
		<tag k="name" v="Norlandia Gaustadskogen barnehage" />
		<tag k="no-barnehage:nsrid" v="1017629" />
		<tag k="operator" v="Norlandia Barnehagene AS" />
		<tag k="operator:type" v="private" />
	</node>
	<node id="-1180" lat="59.9506" lon="10.8718">
		<tag k="amenity" v="kindergarten" />
		<tag k="capacity" v="54" />
		<tag k="contact:website" v="http://www.oslo.kommune.no/barnehage/finn-barnehage-i-oslo/bydel-grorud/nordtvet-barnehage/" />
		<tag k="max_age" v="5" />
		<tag k="min_age" v="3" />
		<tag k="name" v="Nordtvet barnehage" />
		<tag k="no-barnehage:nsrid" v="1025409" />
		<tag k="operator" v="Oslo kommune" />
		<tag k="operator:type" v="public" />
	</node>
	<node id="-1179" lat="59.8614" lon="10.8034">
		<tag k="amenity" v="kindergarten" />
		<tag k="capacity" v="43" />
		<tag k="contact:website" v="http://nmbh.wordpress.com/" />
		<tag k="max_age" v="5" />
		<tag k="min_age" v="1" />
		<tag k="name" v="Nordstrand kirkes barnehage" />
		<tag k="no-barnehage:nsrid" v="1015947" />
		<tag k="operator" v="Nordstrand Sokn" />
		<tag k="operator:type" v="private" />
	</node>
	<node id="-1178" lat="59.8704" lon="10.796">
		<tag k="amenity" v="kindergarten" />
		<tag k="capacity" v="52" />
		<tag k="max_age" v="5" />
		<tag k="min_age" v="1" />
		<tag k="name" v="Nordseter barnehage" />
		<tag k="no-barnehage:nsrid" v="1013817" />
		<tag k="operator" v="Oslo kommune" />
		<tag k="operator:type" v="public" />
	</node>
	<node id="-1177" lat="59.92268" lon="10.70871">
		<tag k="amenity" v="kindergarten" />
		<tag k="capacity" v="29" />
		<tag k="max_age" v="5" />
		<tag k="min_age" v="1" />
		<tag k="name" v="Nordraaksgate barnehage Al" />
		<tag k="no-barnehage:nsrid" v="1020065" />
		<tag k="operator" v="Nordraaksgate barnehage Sa" />
		<tag k="operator:type" v="private" />
	</node>
	<node id="-1176" lat="59.9409" lon="10.7841">
		<tag k="amenity" v="kindergarten" />
		<tag k="capacity" v="48" />
		<tag k="max_age" v="5" />
		<tag k="min_age" v="1" />
		<tag k="name" v="Nordre Åsen Kanvas-barnehage" />
		<tag k="no-barnehage:nsrid" v="1016794" />
		<tag k="operator" v="Stiftelsen Kanvas" />
		<tag k="operator:type" v="private" />
	</node>
	<node id="-1175" lat="59.8313" lon="10.7907">
		<tag k="amenity" v="kindergarten" />
		<tag k="capacity" v="66" />
		<tag k="max_age" v="5" />
		<tag k="min_age" v="1" />
		<tag k="name" v="Nordre Ås barnehage" />
		<tag k="no-barnehage:nsrid" v="1013789" />
		<tag k="operator" v="Oslo kommune" />
		<tag k="operator:type" v="public" />
	</node>
	<node id="-1174" lat="59.91032" lon="10.8232">
		<tag k="amenity" v="kindergarten" />
		<tag k="capacity" v="16" />
		<tag k="max_age" v="5" />
		<tag k="min_age" v="1" />
		<tag k="name" v="Nordre Skøyen barnehage" />
		<tag k="no-barnehage:nsrid" v="1019934" />
		<tag k="operator" v="Nordre Skøyen barnehage Sa" />
		<tag k="operator:type" v="private" />
	</node>
	<node id="-1173" lat="59.94149" lon="10.76841">
		<tag k="amenity" v="kindergarten" />
		<tag k="capacity" v="74" />
		<tag k="contact:website" v="http://www.nordpolen.bhg.no" />
		<tag k="max_age" v="5" />
		<tag k="min_age" v="1" />
		<tag k="name" v="Nordpolen FUS barnehage avd. Idun" />
		<tag k="no-barnehage:nsrid" v="1022149" />
		<tag k="operator" v="Nordpolen Fus barnehage AS" />
		<tag k="operator:type" v="private" />
	</node>
	<node id="-1172" lat="59.9293" lon="10.6888">
		<tag k="amenity" v="kindergarten" />
		<tag k="capacity" v="59" />
		<tag k="max_age" v="5" />
		<tag k="min_age" v="1" />
		<tag k="name" v="Nordjordet barnehage" />
		<tag k="no-barnehage:nsrid" v="1012542" />
		<tag k="operator" v="Oslo kommune" />
		<tag k="operator:type" v="public" />
	</node>
	<node id="-1171" lat="59.9632" lon="10.7426">
		<tag k="amenity" v="kindergarten" />
		<tag k="capacity" v="30" />
		<tag k="max_age" v="5" />
		<tag k="min_age" v="1" />
		<tag k="name" v="Nordberg menighets barnehage" />
		<tag k="no-barnehage:nsrid" v="1016659" />
		<tag k="operator" v="Nordberg Sokn" />
		<tag k="operator:type" v="private" />
	</node>
	<node id="-1170" lat="59.9613" lon="10.7448">
		<tag k="amenity" v="kindergarten" />
		<tag k="capacity" v="131" />
		<tag k="max_age" v="5" />
		<tag k="min_age" v="1" />
		<tag k="name" v="Nordberg barnehage" />
		<tag k="no-barnehage:nsrid" v="1016675" />
		<tag k="operator" v="Oslo kommune" />
		<tag k="operator:type" v="public" />
	</node>
	<node id="-1167" lat="59.92823" lon="10.68384">
		<tag k="amenity" v="kindergarten" />
		<tag k="capacity" v="17" />
		<tag k="max_age" v="5" />
		<tag k="min_age" v="1" />
		<tag k="name" v="Nedre Silkestrå barnehage" />
		<tag k="no-barnehage:nsrid" v="1019651" />
		<tag k="operator" v="Nedre Silkestrå barnehage" />
		<tag k="operator:type" v="private" />
	</node>
	<node id="-1166" lat="59.9596" lon="10.9202">
		<tag k="amenity" v="kindergarten" />
		<tag k="name" v="Nedre Fossum gård åpen barnehage" />
		<tag k="no-barnehage:nsrid" v="1013203" />
		<tag k="operator" v="Oslo kommune" />
		<tag k="operator:type" v="public" />
	</node>
	<node id="-1165" lat="59.9596" lon="10.9202">
		<tag k="amenity" v="kindergarten" />
		<tag k="capacity" v="72" />
		<tag k="max_age" v="5" />
		<tag k="min_age" v="1" />
		<tag k="name" v="Nedre Fossum gård barnehage" />
		<tag k="no-barnehage:nsrid" v="1017936" />
		<tag k="operator" v="Oslo kommune" />
		<tag k="operator:type" v="public" />
	</node>
	<node id="-1164" lat="59.9574" lon="10.6598">
		<tag k="amenity" v="kindergarten" />
		<tag k="capacity" v="74" />
		<tag k="max_age" v="5" />
		<tag k="min_age" v="1" />
		<tag k="name" v="Måltrosten barnehage" />
		<tag k="no-barnehage:nsrid" v="1013147" />
		<tag k="operator" v="Tårnsvalen barnehage AS" />
		<tag k="operator:type" v="private" />
	</node>
	<node id="-1163" lat="59.9549" lon="10.6336">
		<tag k="amenity" v="kindergarten" />
		<tag k="capacity" v="10" />
		<tag k="max_age" v="5" />
		<tag k="min_age" v="3" />
		<tag k="name" v="Mølleplassen spesialbarnehage" />
		<tag k="no-barnehage:nsrid" v="1016273" />
		<tag k="operator" v="Oslo Røde Kors" />
		<tag k="operator:type" v="private" />
	</node>
	<node id="-1162" lat="59.9546" lon="10.6331">
		<tag k="amenity" v="kindergarten" />
		<tag k="capacity" v="37" />
		<tag k="contact:website" v="http://molleplassen.kanvas.no/" />
		<tag k="max_age" v="5" />
		<tag k="min_age" v="1" />
		<tag k="name" v="Mølleplassen Kanvas-barnehage" />
		<tag k="no-barnehage:nsrid" v="1016805" />
		<tag k="operator" v="Stiftelsen Kanvas" />
		<tag k="operator:type" v="private" />
	</node>
	<node id="-1161" lat="59.9393" lon="10.636">
		<tag k="amenity" v="kindergarten" />
		<tag k="capacity" v="59" />
		<tag k="contact:website" v="http://www.oslo.kommune.no/barnehage/finn-barnehage-i-oslo/mollefaret-barnehage/" />
		<tag k="max_age" v="5" />
		<tag k="min_age" v="1" />
		<tag k="name" v="Møllefaret barnehage" />
		<tag k="no-barnehage:nsrid" v="1013842" />
		<tag k="operator" v="Oslo kommune" />
		<tag k="operator:type" v="public" />
	</node>
	<node id="-1160" lat="59.9303" lon="10.6569">
		<tag k="amenity" v="kindergarten" />
		<tag k="capacity" v="27" />
		<tag k="max_age" v="5" />
		<tag k="min_age" v="1" />
		<tag k="name" v="Mærradalen barnehage" />
		<tag k="no-barnehage:nsrid" v="1016804" />
		<tag k="operator" v="Palmqvist AS" />
		<tag k="operator:type" v="private" />
	</node>
	<node id="-1159" lat="59.8848" lon="10.8519">
		<tag k="amenity" v="kindergarten" />
		<tag k="capacity" v="63" />
		<tag k="max_age" v="5" />
		<tag k="min_age" v="1" />
		<tag k="name" v="Myrvoll barnehage" />
		<tag k="no-barnehage:nsrid" v="1025472" />
		<tag k="operator" v="Oslo kommune" />
		<tag k="operator:type" v="public" />
	</node>
	<node id="-1158" lat="59.9641" lon="10.7937">
		<tag k="amenity" v="kindergarten" />
		<tag k="capacity" v="75" />
		<tag k="max_age" v="5" />
		<tag k="min_age" v="1" />
		<tag k="name" v="Myrertoppen barnehage" />
		<tag k="no-barnehage:nsrid" v="1015633" />
		<tag k="operator" v="Norlandia Barnehagene AS" />
		<tag k="operator:type" v="private" />
	</node>
	<node id="-1157" lat="59.9611" lon="10.7894">
		<tag k="amenity" v="kindergarten" />
		<tag k="capacity" v="50" />
		<tag k="contact:website" v="http://myrer.kanvas.no/" />
		<tag k="max_age" v="5" />
		<tag k="min_age" v="1" />
		<tag k="name" v="Myrer Kanvas-barnehage" />
		<tag k="no-barnehage:nsrid" v="1016793" />
		<tag k="operator" v="Stiftelsen Kanvas" />
		<tag k="operator:type" v="private" />
	</node>
	<node id="-1156" lat="59.90757" lon="10.68644">
		<tag k="amenity" v="kindergarten" />
		<tag k="capacity" v="12" />
		<tag k="contact:website" v="http://www.musehuset.no" />
		<tag k="max_age" v="5" />
		<tag k="min_age" v="1" />
		<tag k="name" v="Musehuset barnehage" />
		<tag k="no-barnehage:nsrid" v="1020427" />
		<tag k="operator" v="Musehuset Norsk Folkemuseums barnehage" />
		<tag k="operator:type" v="private" />
	</node>
	<node id="-1155" lat="59.86008" lon="10.81393">
		<tag k="amenity" v="kindergarten" />
		<tag k="capacity" v="22" />
		<tag k="max_age" v="5" />
		<tag k="min_age" v="1" />
		<tag k="name" v="Munkerudtoppen barnehage" />
		<tag k="no-barnehage:nsrid" v="1020506" />
		<tag k="operator" v="Munkerudtoppen barnehage Hege Aas" />
		<tag k="operator:type" v="private" />
	</node>
	<node id="-1154" lat="59.85847" lon="10.81365">
		<tag k="amenity" v="kindergarten" />
		<tag k="name" v="Munkerud miljøbarnehage" />
		<tag k="no-barnehage:nsrid" v="2000341" />
		<tag k="operator" v="Oslo kommune" />
		<tag k="operator:type" v="public" />
	</node>
	<node id="-1153" lat="59.9076" lon="10.7787">
		<tag k="amenity" v="kindergarten" />
		<tag k="capacity" v="60" />
		<tag k="max_age" v="5" />
		<tag k="min_age" v="1" />
		<tag k="name" v="Munkenga barnehage" />
		<tag k="no-barnehage:nsrid" v="1013279" />
		<tag k="operator" v="Oslo kommune" />
		<tag k="operator:type" v="public" />
	</node>
	<node id="-1152" lat="59.8641" lon="10.8141">
		<tag k="amenity" v="kindergarten" />
		<tag k="capacity" v="36" />
		<tag k="max_age" v="5" />
		<tag k="min_age" v="1" />
		<tag k="name" v="Munkelia barnehage" />
		<tag k="no-barnehage:nsrid" v="1017302" />
		<tag k="operator" v="Oslo kommune" />
		<tag k="operator:type" v="public" />
	</node>
	<node id="-1151" lat="59.93091" lon="10.91564">
		<tag k="amenity" v="kindergarten" />
		<tag k="capacity" v="151" />
		<tag k="contact:website" v="http://laringsverkstedet.no/barnehage/munkebekken-idrettsbarnehage" />
		<tag k="max_age" v="5" />
		<tag k="min_age" v="1" />
		<tag k="name" v="Munkebekken idrettsbarnehage" />
		<tag k="no-barnehage:nsrid" v="1022340" />
		<tag k="operator" v="Munkebekken Idrettsbarnehage AS" />
		<tag k="operator:type" v="private" />
	</node>
	<node id="-1149" lat="59.9143" lon="10.7638">
		<tag k="amenity" v="kindergarten" />
		<tag k="capacity" v="62" />
		<tag k="max_age" v="5" />
		<tag k="min_age" v="3" />
		<tag k="name" v="Mosaikk barnehage" />
		<tag k="no-barnehage:nsrid" v="1013141" />
		<tag k="operator" v="Urtehagen Barnehager AS" />
		<tag k="operator:type" v="private" />
	</node>
	<node id="-1148" lat="59.9453" lon="10.7642">
		<tag k="amenity" v="kindergarten" />
		<tag k="capacity" v="129" />
		<tag k="max_age" v="5" />
		<tag k="min_age" v="1" />
		<tag k="name" v="Mor Gohjertas barnehage" />
		<tag k="no-barnehage:nsrid" v="1013810" />
		<tag k="operator" v="Oslo kommune" />
		<tag k="operator:type" v="public" />
	</node>
	<node id="-1147" lat="59.9477" lon="10.6377">
		<tag k="amenity" v="kindergarten" />
		<tag k="capacity" v="16" />
		<tag k="max_age" v="2" />
		<tag k="min_age" v="1" />
		<tag k="name" v="Montessoribarnehagen Solsikken Solkroken" />
		<tag k="no-barnehage:nsrid" v="1014251" />
		<tag k="operator" v="Montessoribarnehagene AS" />
		<tag k="operator:type" v="private" />
	</node>
	<node id="-1146" lat="59.964" lon="10.7375">
		<tag k="amenity" v="kindergarten" />
		<tag k="capacity" v="29" />
		<tag k="max_age" v="5" />
		<tag k="min_age" v="1" />
		<tag k="name" v="Montessoribarnehagen Solsikken Sognestuen" />
		<tag k="no-barnehage:nsrid" v="1013156" />
		<tag k="operator" v="Montessoribarnehagene AS" />
		<tag k="operator:type" v="private" />
	</node>
	<node id="-1145" lat="59.9428" lon="10.6939">
		<tag k="amenity" v="kindergarten" />
		<tag k="capacity" v="26" />
		<tag k="max_age" v="5" />
		<tag k="min_age" v="1" />
		<tag k="name" v="Montessoribarnehagen Solsikken Låven" />
		<tag k="no-barnehage:nsrid" v="1016655" />
		<tag k="operator" v="Montessoribarnehagene AS" />
		<tag k="operator:type" v="private" />
	</node>
	<node id="-1144" lat="59.9312" lon="10.6429">
		<tag k="amenity" v="kindergarten" />
		<tag k="capacity" v="26" />
		<tag k="max_age" v="5" />
		<tag k="min_age" v="3" />
		<tag k="name" v="Montessoribarnehagen Solsikken Lyse" />
		<tag k="no-barnehage:nsrid" v="1013154" />
		<tag k="operator" v="Montessoribarnehagene AS" />
		<tag k="operator:type" v="private" />
	</node>
	<node id="-1143" lat="59.936" lon="10.6529">
		<tag k="amenity" v="kindergarten" />
		<tag k="capacity" v="46" />
		<tag k="max_age" v="5" />
		<tag k="min_age" v="1" />
		<tag k="name" v="Montessoribarnehagen Solsikken Lilleputt" />
		<tag k="no-barnehage:nsrid" v="1013348" />
		<tag k="operator" v="Montessoribarnehagene AS" />
		<tag k="operator:type" v="private" />
	</node>
	<node id="-1142" lat="59.9539" lon="10.6355">
		<tag k="amenity" v="kindergarten" />
		<tag k="capacity" v="9" />
		<tag k="max_age" v="2" />
		<tag k="min_age" v="1" />
		<tag k="name" v="Montessoribarnehagen Solsikken Knerten" />
		<tag k="no-barnehage:nsrid" v="1015783" />
		<tag k="operator" v="Montessoribarnehagene AS" />
		<tag k="operator:type" v="private" />
	</node>
	<node id="-1138" lat="59.946" lon="10.7603">
		<tag k="amenity" v="kindergarten" />
		<tag k="capacity" v="10" />
		<tag k="max_age" v="2" />
		<tag k="min_age" v="1" />
		<tag k="name" v="Montesorribarnehagen Solsikken Maristova" />
		<tag k="no-barnehage:nsrid" v="1013349" />
		<tag k="operator" v="Montessoribarnehagene AS" />
		<tag k="operator:type" v="private" />
	</node>
	<node id="-1137" lat="59.9614" lon="10.6713">
		<tag k="amenity" v="kindergarten" />
		<tag k="capacity" v="68" />
		<tag k="contact:website" v="http://www.montessoribarnehagen-solsikken.no/" />
		<tag k="max_age" v="5" />
		<tag k="min_age" v="1" />
		<tag k="name" v="Montesorribarnehagen Solsikken Gladheim" />
		<tag k="no-barnehage:nsrid" v="1013155" />
		<tag k="operator" v="Montessoribarnehagene AS" />
		<tag k="operator:type" v="private" />
	</node>
	<node id="-1135" lat="59.88282" lon="10.84398">
		<tag k="amenity" v="kindergarten" />
		<tag k="capacity" v="50" />
		<tag k="contact:website" v="http://www.mikaelgaarden.no" />
		<tag k="max_age" v="5" />
		<tag k="min_age" v="1" />
		<tag k="name" v="Mikaelgården Steinerbarnehage" />
		<tag k="no-barnehage:nsrid" v="1022271" />
		<tag k="operator" v="Mikaelgården AS" />
		<tag k="operator:type" v="private" />
	</node>
	<node id="-1134" lat="59.9617" lon="10.6789">
		<tag k="amenity" v="kindergarten" />
		<tag k="capacity" v="58" />
		<tag k="max_age" v="5" />
		<tag k="min_age" v="1" />
		<tag k="name" v="Midtstuen Kanvas-barnehage" />
		<tag k="no-barnehage:nsrid" v="1013914" />
		<tag k="operator" v="Stiftelsen Kanvas" />
		<tag k="operator:type" v="private" />
	</node>
	<node id="-1132" lat="59.8658" lon="10.817">
		<tag k="amenity" v="kindergarten" />
		<tag k="capacity" v="232" />
		<tag k="max_age" v="5" />
		<tag k="min_age" v="1" />
		<tag k="name" v="Mellombølgen barnehage" />
		<tag k="no-barnehage:nsrid" v="1017305" />
		<tag k="operator" v="Oslo kommune" />
		<tag k="operator:type" v="public" />
	</node>
	<node id="-1131" lat="59.9239" lon="10.7389">
		<tag k="amenity" v="kindergarten" />
		<tag k="capacity" v="69" />
		<tag k="max_age" v="5" />
		<tag k="min_age" v="1" />
		<tag k="name" v="Melkeveien barnehage" />
		<tag k="no-barnehage:nsrid" v="1017205" />
		<tag k="operator" v="Oslo kommune" />
		<tag k="operator:type" v="public" />
	</node>
	<node id="-1127" lat="59.9147" lon="10.7627">
		<tag k="amenity" v="kindergarten" />
		<tag k="capacity" v="18" />
		<tag k="max_age" v="5" />
		<tag k="min_age" v="3" />
		<tag k="name" v="Maurtua barnehage" />
		<tag k="no-barnehage:nsrid" v="1015060" />
		<tag k="operator" v="Urtehagen Barnehager AS" />
		<tag k="operator:type" v="private" />
	</node>
	<node id="-1126" lat="59.8742" lon="10.82">
		<tag k="amenity" v="kindergarten" />
		<tag k="capacity" v="52" />
		<tag k="max_age" v="5" />
		<tag k="min_age" v="1" />
		<tag k="name" v="Marmorberget barnehage" />
		<tag k="no-barnehage:nsrid" v="1017301" />
		<tag k="operator" v="Oslo kommune" />
		<tag k="operator:type" v="public" />
	</node>
	<node id="-1124" lat="59.9348" lon="10.7244">
		<tag k="amenity" v="kindergarten" />
		<tag k="capacity" v="32" />
		<tag k="max_age" v="5" />
		<tag k="min_age" v="1" />
		<tag k="name" v="Marienlyst gård barnehage" />
		<tag k="no-barnehage:nsrid" v="1017300" />
		<tag k="operator" v="Oslo kommune" />
		<tag k="operator:type" v="public" />
	</node>
	<node id="-1123" lat="60.00451" lon="10.77238">
		<tag k="amenity" v="kindergarten" />
		<tag k="capacity" v="24" />
		<tag k="max_age" v="5" />
		<tag k="min_age" v="1" />
		<tag k="name" v="Maridalen barnehage" />
		<tag k="no-barnehage:nsrid" v="1019868" />
		<tag k="operator" v="Maridalen barnehage Sa" />
		<tag k="operator:type" v="private" />
	</node>
	<node id="-1121" lat="59.9435" lon="10.758">
		<tag k="amenity" v="kindergarten" />
		<tag k="capacity" v="182" />
		<tag k="max_age" v="5" />
		<tag k="min_age" v="1" />
		<tag k="name" v="Margarinfabrikken barnehage Gamlebygget - Stavangergata 42" />
		<tag k="no-barnehage:nsrid" v="1014107" />
		<tag k="operator" v="Oslo kommune" />
		<tag k="operator:type" v="public" />
	</node>
	<node id="-1120" lat="59.9012" lon="10.8049">
		<tag k="amenity" v="kindergarten" />
		<tag k="capacity" v="78" />
		<tag k="max_age" v="5" />
		<tag k="min_age" v="1" />
		<tag k="name" v="Manglerud barnehage" />
		<tag k="no-barnehage:nsrid" v="1017299" />
		<tag k="operator" v="Oslo kommune" />
		<tag k="operator:type" v="public" />
	</node>
	<node id="-1119" lat="59.9275" lon="10.6935">
		<tag k="amenity" v="kindergarten" />
		<tag k="capacity" v="64" />
		<tag k="max_age" v="5" />
		<tag k="min_age" v="1" />
		<tag k="name" v="Mads barnehage" />
		<tag k="no-barnehage:nsrid" v="1018357" />
		<tag k="operator" v="Oslo kommune" />
		<tag k="operator:type" v="public" />
	</node>
	<node id="-1118" lat="59.942" lon="10.8357">
		<tag k="amenity" v="kindergarten" />
		<tag k="capacity" v="44" />
		<tag k="max_age" v="5" />
		<tag k="min_age" v="1" />
		<tag k="name" v="Madamløkken barnehage" />
		<tag k="no-barnehage:nsrid" v="1015736" />
		<tag k="operator" v="Oslo kommune" />
		<tag k="operator:type" v="public" />
	</node>
	<node id="-1117" lat="59.99907" lon="10.62272">
		<tag k="amenity" v="kindergarten" />
		<tag k="name" v="Låvesvalen familiebarnehage" />
		<tag k="no-barnehage:nsrid" v="2000268" />
		<tag k="operator" v="Tårnsvalen barnehage AS" />
		<tag k="operator:type" v="private" />
	</node>
	<node id="-1116" lat="59.9326" lon="10.7871">
		<tag k="amenity" v="kindergarten" />
		<tag k="capacity" v="57" />
		<tag k="max_age" v="5" />
		<tag k="min_age" v="1" />
		<tag k="name" v="Lørensvingen barnehage" />
		<tag k="no-barnehage:nsrid" v="1018480" />
		<tag k="operator" v="Oslo kommune" />
		<tag k="operator:type" v="public" />
	</node>
	<node id="-1115" lat="59.9367" lon="10.7351">
		<tag k="amenity" v="kindergarten" />
		<tag k="capacity" v="58" />
		<tag k="max_age" v="5" />
		<tag k="min_age" v="1" />
		<tag k="name" v="Lønnebakken Kanvas-barnehage" />
		<tag k="no-barnehage:nsrid" v="1013869" />
		<tag k="operator" v="Stiftelsen Kanvas" />
		<tag k="operator:type" v="private" />
	</node>
	<node id="-1114" lat="59.9334" lon="10.7488">
		<tag k="amenity" v="kindergarten" />
		<tag k="capacity" v="47" />
		<tag k="max_age" v="5" />
		<tag k="min_age" v="1" />
		<tag k="name" v="Løkkeberg barnehage" />
		<tag k="no-barnehage:nsrid" v="1013591" />
		<tag k="operator" v="Oslo kommune" />
		<tag k="operator:type" v="public" />
	</node>
	<node id="-1113" lat="59.94373" lon="10.74674">
		<tag k="amenity" v="kindergarten" />
		<tag k="capacity" v="169" />
		<tag k="contact:website" v="http://laringsverkstedet.no/barnehage/taasenlokka" />
		<tag k="max_age" v="5" />
		<tag k="min_age" v="1" />
		<tag k="name" v="Læringsverkstedet Tåsenløkka barnehage" />
		<tag k="no-barnehage:nsrid" v="1025510" />
		<tag k="operator" v="Læringsverkstedet Tåsenløkka AS" />
		<tag k="operator:type" v="private" />
	</node>
	<node id="-1112" lat="59.90456" lon="10.75823">
		<tag k="amenity" v="kindergarten" />
		<tag k="capacity" v="50" />
		<tag k="contact:website" v="http://laringsverkstedet.no/barnehage/sorengkaia" />
		<tag k="max_age" v="5" />
		<tag k="min_age" v="1" />
		<tag k="name" v="Læringsverkstedet Sørengkaia" />
		<tag k="no-barnehage:nsrid" v="1025509" />
		<tag k="operator" v="Læringsverkstedet Sørengkaia AS" />
		<tag k="operator:type" v="private" />
	</node>
	<node id="-1111" lat="59.94569" lon="10.81352">
		<tag k="amenity" v="kindergarten" />
		<tag k="capacity" v="52" />
		<tag k="max_age" v="5" />
		<tag k="min_age" v="1" />
		<tag k="name" v="Læringsverkstedet barnehage avd. Årvollveien" />
		<tag k="no-barnehage:nsrid" v="1022299" />
		<tag k="operator" v="Læringsverkstedet AS" />
		<tag k="operator:type" v="private" />
	</node>
	<node id="-1110" lat="59.83259" lon="10.78361">
		<tag k="amenity" v="kindergarten" />
		<tag k="capacity" v="74" />
		<tag k="max_age" v="5" />
		<tag k="min_age" v="1" />
		<tag k="name" v="Læringsverkstedet barnehage avd. Vestskrenten idrettsbarnehage" />
		<tag k="no-barnehage:nsrid" v="1025493" />
		<tag k="operator" v="Læringsverkstedet AS" />
		<tag k="operator:type" v="private" />
	</node>
	<node id="-1109" lat="59.8413" lon="10.812">
		<tag k="amenity" v="kindergarten" />
		<tag k="capacity" v="69" />
		<tag k="max_age" v="5" />
		<tag k="min_age" v="1" />
		<tag k="name" v="Læringsverkstedet barnehage avd. Hauketo" />
		<tag k="no-barnehage:nsrid" v="1013830" />
		<tag k="operator" v="Læringsverkstedet AS" />
		<tag k="operator:type" v="private" />
	</node>
	<node id="-1108" lat="59.9538" lon="10.7959">
		<tag k="amenity" v="kindergarten" />
		<tag k="capacity" v="62" />
		<tag k="max_age" v="5" />
		<tag k="min_age" v="1" />
		<tag k="name" v="Læringsverkstedet barnehage avd. Grefsen terrasse" />
		<tag k="no-barnehage:nsrid" v="1014225" />
		<tag k="operator" v="Læringsverkstedet AS" />
		<tag k="operator:type" v="private" />
	</node>
	<node id="-1107" lat="59.91602" lon="10.82552">
		<tag k="amenity" v="kindergarten" />
		<tag k="capacity" v="68" />
		<tag k="contact:website" v="http://laringsverkstedet.no/barnehage/bryn" />
		<tag k="max_age" v="5" />
		<tag k="min_age" v="1" />
		<tag k="name" v="Læringsverkstedet barnehage avd. Bryn barnehage" />
		<tag k="no-barnehage:nsrid" v="1020473" />
		<tag k="operator" v="Læringsverkstedet AS" />
		<tag k="operator:type" v="private" />
	</node>
	<node id="-1106" lat="59.9414" lon="10.808">
		<tag k="amenity" v="kindergarten" />
		<tag k="capacity" v="60" />
		<tag k="contact:website" v="http://laringsverkstedet.no/barnehage/bjerkepanorama" />
		<tag k="max_age" v="5" />
		<tag k="min_age" v="1" />
		<tag k="name" v="Læringsverkstedet barnehage avd. Bjerke Panorama" />
		<tag k="no-barnehage:nsrid" v="1013556" />
		<tag k="operator" v="Læringsverkstedet AS" />
		<tag k="operator:type" v="private" />
	</node>
	<node id="-1105" lat="59.93782" lon="10.64198">
		<tag k="amenity" v="kindergarten" />
		<tag k="capacity" v="87" />
		<tag k="contact:website" v="http://www.norlandiabarnehagene.no" />
		<tag k="max_age" v="5" />
		<tag k="min_age" v="1" />
		<tag k="name" v="Lysejordet barnehage" />
		<tag k="no-barnehage:nsrid" v="1020527" />
		<tag k="operator" v="Norlandia Barnehagene AS" />
		<tag k="operator:type" v="private" />
	</node>
	<node id="-1093" lat="59.9044" lon="10.8302">
		<tag k="amenity" v="kindergarten" />
		<tag k="capacity" v="22" />
		<tag k="contact:website" v="http://www.lykketrollet.no" />
		<tag k="max_age" v="5" />
		<tag k="min_age" v="1" />
		<tag k="name" v="Lykketrollet barnehage" />
		<tag k="no-barnehage:nsrid" v="1015100" />
		<tag k="operator" v="Oslo Barnevaktformidling AS" />
		<tag k="operator:type" v="private" />
	</node>
	<node id="-1092" lat="59.9262" lon="10.8782">
		<tag k="amenity" v="kindergarten" />
		<tag k="capacity" v="51" />
		<tag k="contact:website" v="http://www.bydel-alna.oslo.kommune.no" />
		<tag k="max_age" v="5" />
		<tag k="min_age" v="1" />
		<tag k="name" v="Lutvannskollen barnehage" />
		<tag k="no-barnehage:nsrid" v="1013873" />
		<tag k="operator" v="Oslo kommune" />
		<tag k="operator:type" v="public" />
	</node>
	<node id="-1090" lat="59.8734" lon="10.8337">
		<tag k="amenity" v="kindergarten" />
		<tag k="capacity" v="103" />
		<tag k="max_age" v="5" />
		<tag k="min_age" v="1" />
		<tag k="name" v="Lopperud barnehage" />
		<tag k="no-barnehage:nsrid" v="1017727" />
		<tag k="operator" v="Oslo kommune" />
		<tag k="operator:type" v="public" />
	</node>
	<node id="-1089" lat="59.9173" lon="10.8416">
		<tag k="amenity" v="kindergarten" />
		<tag k="capacity" v="45" />
		<tag k="contact:website" v="http://www.bydel-alna.oslo.kommune.no" />
		<tag k="max_age" v="5" />
		<tag k="min_age" v="1" />
		<tag k="name" v="Lohøgda barnehage" />
		<tag k="no-barnehage:nsrid" v="1017436" />
		<tag k="operator" v="Oslo kommune" />
		<tag k="operator:type" v="public" />
	</node>
	<node id="-1088" lat="59.8455" lon="10.8275">
		<tag k="amenity" v="kindergarten" />
		<tag k="capacity" v="56" />
		<tag k="max_age" v="5" />
		<tag k="min_age" v="1" />
		<tag k="name" v="Lofsrud barnehage" />
		<tag k="no-barnehage:nsrid" v="1013832" />
		<tag k="operator" v="Oslo kommune" />
		<tag k="operator:type" v="public" />
	</node>
	<node id="-1087" lat="59.8454" lon="10.7857">
		<tag k="amenity" v="kindergarten" />
		<tag k="capacity" v="27" />
		<tag k="max_age" v="5" />
		<tag k="min_age" v="1" />
		<tag k="name" v="Ljan kirkes barnehage" />
		<tag k="no-barnehage:nsrid" v="1016661" />
		<tag k="operator" v="Ljan Sokn" />
		<tag k="operator:type" v="private" />
	</node>
	<node id="-1086" lat="59.9512" lon="10.9081">
		<tag k="amenity" v="kindergarten" />
		<tag k="capacity" v="51" />
		<tag k="contact:website" v="http://www.bydel-alna.oslo.kommune.no" />
		<tag k="max_age" v="5" />
		<tag k="min_age" v="1" />
		<tag k="name" v="Linjen barnehage" />
		<tag k="no-barnehage:nsrid" v="1017435" />
		<tag k="operator" v="Oslo kommune" />
		<tag k="operator:type" v="public" />
	</node>
	<node id="-1085" lat="59.942" lon="10.8357">
		<tag k="amenity" v="kindergarten" />
		<tag k="capacity" v="54" />
		<tag k="max_age" v="5" />
		<tag k="min_age" v="1" />
		<tag k="name" v="Linderud gård barnehage" />
		<tag k="no-barnehage:nsrid" v="1017434" />
		<tag k="operator" v="Oslo kommune" />
		<tag k="operator:type" v="public" />
	</node>
	<node id="-1084" lat="59.93174" lon="10.67661">
		<tag k="amenity" v="kindergarten" />
		<tag k="capacity" v="29" />
		<tag k="contact:website" v="http://www.linden.steinerbarnehage.no" />
		<tag k="max_age" v="5" />
		<tag k="min_age" v="1" />
		<tag k="name" v="Linden Steinerbarnehage" />
		<tag k="no-barnehage:nsrid" v="1019828" />
		<tag k="operator" v="Stiftelsen Linden Steinerbarnehage" />
		<tag k="operator:type" v="private" />
	</node>
	<node id="-1083" lat="59.9367" lon="10.7351">
		<tag k="amenity" v="kindergarten" />
		<tag k="capacity" v="80" />
		<tag k="max_age" v="5" />
		<tag k="min_age" v="1" />
		<tag k="name" v="Lindekroken Kanvas-barnehage" />
		<tag k="no-barnehage:nsrid" v="1015687" />
		<tag k="operator" v="Stiftelsen Kanvas" />
		<tag k="operator:type" v="private" />
	</node>
	<node id="-1082" lat="59.9317" lon="10.8769">
		<tag k="amenity" v="kindergarten" />
		<tag k="capacity" v="53" />
		<tag k="contact:website" v="http://www.bydel-alna.oslo.kommune.no" />
		<tag k="max_age" v="5" />
		<tag k="min_age" v="1" />
		<tag k="name" v="Lindebergskogen barnehage" />
		<tag k="no-barnehage:nsrid" v="1017433" />
		<tag k="operator" v="Oslo kommune" />
		<tag k="operator:type" v="public" />
	</node>
	<node id="-1081" lat="59.9703" lon="10.9031">
		<tag k="amenity" v="kindergarten" />
		<tag k="capacity" v="71" />
		<tag k="max_age" v="5" />
		<tag k="min_age" v="1" />
		<tag k="name" v="Lilleslottet barnehage" />
		<tag k="no-barnehage:nsrid" v="1017432" />
		<tag k="operator" v="Oslo kommune" />
		<tag k="operator:type" v="public" />
	</node>
	<node id="-1080" lat="59.8948" lon="10.83904">
		<tag k="amenity" v="kindergarten" />
		<tag k="capacity" v="60" />
		<tag k="max_age" v="5" />
		<tag k="min_age" v="1" />
		<tag k="name" v="Lillejordet barnehage" />
		<tag k="no-barnehage:nsrid" v="1018394" />
		<tag k="operator" v="Oslo kommune" />
		<tag k="operator:type" v="public" />
	</node>
	<node id="-1076" lat="59.8787" lon="10.8292">
		<tag k="amenity" v="kindergarten" />
		<tag k="capacity" v="17" />
		<tag k="contact:website" v="http://www.oslo.kommune.no/barnehage/finn-barnehage-i-oslo/bydel-ostensjo/lille-langerud-barnehage/#gref" />
		<tag k="max_age" v="5" />
		<tag k="min_age" v="1" />
		<tag k="name" v="Lille Langerud barnehage" />
		<tag k="no-barnehage:nsrid" v="1016925" />
		<tag k="operator" v="Oslo kommune" />
		<tag k="operator:type" v="public" />
	</node>
	<node id="-1075" lat="59.91451" lon="10.76051">
		<tag k="amenity" v="kindergarten" />
		<tag k="capacity" v="25" />
		<tag k="max_age" v="2" />
		<tag k="min_age" v="1" />
		<tag k="name" v="Lille Grønland barnehage" />
		<tag k="no-barnehage:nsrid" v="1021134" />
		<tag k="operator" v="Urtehagen Barnehager AS" />
		<tag k="operator:type" v="private" />
	</node>
	<node id="-1074" lat="59.8982" lon="10.7861">
		<tag k="amenity" v="kindergarten" />
		<tag k="capacity" v="135" />
		<tag k="max_age" v="5" />
		<tag k="min_age" v="1" />
		<tag k="name" v="Lille Ekeberg barnehage" />
		<tag k="no-barnehage:nsrid" v="1017298" />
		<tag k="operator" v="Oslo kommune" />
		<tag k="operator:type" v="public" />
	</node>
	<node id="-1073" lat="59.9358" lon="10.6993">
		<tag k="amenity" v="kindergarten" />
		<tag k="capacity" v="61" />
		<tag k="max_age" v="5" />
		<tag k="min_age" v="1" />
		<tag k="name" v="Lille Borgen" />
		<tag k="no-barnehage:nsrid" v="1014906" />
		<tag k="operator" v="Palmqvist AS" />
		<tag k="operator:type" v="private" />
	</node>
	<node id="-1072" lat="59.9688" lon="10.6431">
		<tag k="amenity" v="kindergarten" />
		<tag k="capacity" v="54" />
		<tag k="max_age" v="5" />
		<tag k="min_age" v="1" />
		<tag k="name" v="Liabakken barnehage" />
		<tag k="no-barnehage:nsrid" v="1013849" />
		<tag k="operator" v="Oslo kommune" />
		<tag k="operator:type" v="public" />
	</node>
	<node id="-1071" lat="59.9361" lon="10.9204">
		<tag k="amenity" v="kindergarten" />
		<tag k="capacity" v="66" />
		<tag k="contact:website" v="http://www.bydel-alna.oslo.kommune.no" />
		<tag k="max_age" v="5" />
		<tag k="min_age" v="1" />
		<tag k="name" v="Lia barnehage" />
		<tag k="no-barnehage:nsrid" v="1017420" />
		<tag k="operator" v="Oslo kommune" />
		<tag k="operator:type" v="public" />
	</node>
	<node id="-1070" lat="59.87" lon="10.8183">
		<tag k="amenity" v="kindergarten" />
		<tag k="name" v="Leker'n åpen kultur barnehage" />
		<tag k="no-barnehage:nsrid" v="1015625" />
		<tag k="operator" v="Oslo kommune" />
		<tag k="operator:type" v="public" />
	</node>
	<node id="-1069" lat="59.92371" lon="10.73209">
		<tag k="amenity" v="kindergarten" />
		<tag k="capacity" v="54" />
		<tag k="max_age" v="5" />
		<tag k="min_age" v="1" />
		<tag k="name" v="Langaard barnehage" />
		<tag k="no-barnehage:nsrid" v="1021731" />
		<tag k="operator" v="Langaard barnehage AS" />
		<tag k="operator:type" v="private" />
	</node>
	<node id="-1068" lat="59.9645" lon="10.7491">
		<tag k="amenity" v="kindergarten" />
		<tag k="capacity" v="54" />
		<tag k="max_age" v="5" />
		<tag k="min_age" v="1" />
		<tag k="name" v="Langmyrgrenda barnehage" />
		<tag k="no-barnehage:nsrid" v="1017296" />
		<tag k="operator" v="Oslo kommune" />
		<tag k="operator:type" v="public" />
	</node>
	<node id="-1067" lat="59.9137" lon="10.7691">
		<tag k="amenity" v="kindergarten" />
		<tag k="capacity" v="33" />
		<tag k="max_age" v="5" />
		<tag k="min_age" v="1" />
		<tag k="name" v="Langleiken barnehage" />
		<tag k="no-barnehage:nsrid" v="1013563" />
		<tag k="operator" v="Oslo kommune" />
		<tag k="operator:type" v="public" />
	</node>
	<node id="-1066" lat="59.8695" lon="10.834">
		<tag k="amenity" v="kindergarten" />
		<tag k="capacity" v="36" />
		<tag k="max_age" v="5" />
		<tag k="min_age" v="1" />
		<tag k="name" v="Langerud barnehage" />
		<tag k="no-barnehage:nsrid" v="1013858" />
		<tag k="operator" v="Oslo kommune" />
		<tag k="operator:type" v="public" />
	</node>
	<node id="-1065" lat="59.91699" lon="10.74823">
		<tag k="amenity" v="kindergarten" />
		<tag k="name" v="Langbølgen barnehage" />
		<tag k="no-barnehage:nsrid" v="2000316" />
		<tag k="operator" v="Langbølgen barnehage AS" />
		<tag k="operator:type" v="private" />
	</node>
	<node id="-1064" lat="59.9525" lon="10.6528">
		<tag k="amenity" v="kindergarten" />
		<tag k="capacity" v="50" />
		<tag k="max_age" v="5" />
		<tag k="min_age" v="1" />
		<tag k="name" v="Landingsveien barnehage" />
		<tag k="no-barnehage:nsrid" v="1017431" />
		<tag k="operator" v="Oslo kommune" />
		<tag k="operator:type" v="public" />
	</node>
	<node id="-1063" lat="59.916" lon="10.7645">
		<tag k="amenity" v="kindergarten" />
		<tag k="capacity" v="64" />
		<tag k="max_age" v="5" />
		<tag k="min_age" v="1" />
		<tag k="name" v="Lakkegården barnehage" />
		<tag k="no-barnehage:nsrid" v="1017289" />
		<tag k="operator" v="Oslo kommune" />
		<tag k="operator:type" v="public" />
	</node>
	<node id="-1062" lat="59.9031" lon="10.7914">
		<tag k="amenity" v="kindergarten" />
		<tag k="capacity" v="393" />
		<tag k="max_age" v="5" />
		<tag k="min_age" v="1" />
		<tag k="name" v="Kværnerdalen barnehage" />
		<tag k="no-barnehage:nsrid" v="1018609" />
		<tag k="operator" v="Oslo kommune" />
		<tag k="operator:type" v="public" />
	</node>
	<node id="-1061" lat="59.90305" lon="10.78868">
		<tag k="amenity" v="kindergarten" />
		<tag k="capacity" v="77" />
		<tag k="max_age" v="5" />
		<tag k="min_age" v="1" />
		<tag k="name" v="Kværnerbyen FUS barnehage" />
		<tag k="no-barnehage:nsrid" v="1021723" />
		<tag k="operator" v="Kværnerbyen Fus barnehage AS" />
		<tag k="operator:type" v="private" />
	</node>
	<node id="-1060" lat="59.9289" lon="10.6338">
		<tag k="amenity" v="kindergarten" />
		<tag k="capacity" v="81" />
		<tag k="contact:website" v="http://www.oslo.kommune.no/barnehage/finn-barnehage-i-oslo/kvernkallen-barnehage/" />
		<tag k="max_age" v="5" />
		<tag k="min_age" v="1" />
		<tag k="name" v="Kvernkallen barnehage" />
		<tag k="no-barnehage:nsrid" v="1018378" />
		<tag k="operator" v="Oslo kommune" />
		<tag k="operator:type" v="public" />
	</node>
	<node id="-1059" lat="59.942" lon="10.8904">
		<tag k="amenity" v="kindergarten" />
		<tag k="capacity" v="42" />
		<tag k="contact:website" v="http://www.bydel-alna.oslo.kommune.no" />
		<tag k="max_age" v="5" />
		<tag k="min_age" v="1" />
		<tag k="name" v="Kurland barnehage" />
		<tag k="no-barnehage:nsrid" v="1013874" />
		<tag k="operator" v="Oslo kommune" />
		<tag k="operator:type" v="public" />
	</node>
	<node id="-1058" lat="59.92092" lon="10.77622">
		<tag k="amenity" v="kindergarten" />
		<tag k="capacity" v="70" />
		<tag k="max_age" v="5" />
		<tag k="min_age" v="1" />
		<tag k="name" v="Kulturparken FUS barnehage" />
		<tag k="no-barnehage:nsrid" v="1021069" />
		<tag k="operator" v="Kulturparken Fus barnehage AS" />
		<tag k="operator:type" v="private" />
	</node>
	<node id="-1056" lat="59.9584" lon="10.757">
		<tag k="amenity" v="kindergarten" />
		<tag k="capacity" v="54" />
		<tag k="max_age" v="5" />
		<tag k="min_age" v="1" />
		<tag k="name" v="Korsvolltoppen barnehage" />
		<tag k="no-barnehage:nsrid" v="1015634" />
		<tag k="operator" v="Oslo kommune" />
		<tag k="operator:type" v="public" />
	</node>
	<node id="-1055" lat="59.88564" lon="10.77393">
		<tag k="amenity" v="kindergarten" />
		<tag k="capacity" v="110" />
		<tag k="contact:website" v="http://www.kongsveien.no" />
		<tag k="max_age" v="5" />
		<tag k="min_age" v="1" />
		<tag k="name" v="Kongsveien barnehage" />
		<tag k="no-barnehage:nsrid" v="1019789" />
		<tag k="operator" v="Kongsveien barnehage AS" />
		<tag k="operator:type" v="private" />
	</node>
	<node id="-1054" lat="59.9412" lon="10.7619">
		<tag k="amenity" v="kindergarten" />
		<tag k="capacity" v="51" />
		<tag k="max_age" v="5" />
		<tag k="min_age" v="1" />
		<tag k="name" v="Kongsberggata barnehage" />
		<tag k="no-barnehage:nsrid" v="1018517" />
		<tag k="operator" v="Oslo kommune" />
		<tag k="operator:type" v="public" />
	</node>
	<node id="-1053" lat="59.94482" lon="10.82977">
		<tag k="amenity" v="kindergarten" />
		<tag k="capacity" v="76" />
		<tag k="contact:website" v="http://www.kolasbakken.no" />
		<tag k="max_age" v="5" />
		<tag k="min_age" v="1" />
		<tag k="name" v="Kolåsbakken barnehage" />
		<tag k="no-barnehage:nsrid" v="1020576" />
		<tag k="operator" v="Kolåsbakken barnehage Sa" />
		<tag k="operator:type" v="private" />
	</node>
	<node id="-1050" lat="59.8765" lon="10.8062">
		<tag k="amenity" v="kindergarten" />
		<tag k="capacity" v="126" />
		<tag k="max_age" v="5" />
		<tag k="min_age" v="1" />
		<tag k="name" v="Knausen barnehage" />
		<tag k="no-barnehage:nsrid" v="1017295" />
		<tag k="operator" v="Oslo kommune" />
		<tag k="operator:type" v="public" />
	</node>
	<node id="-1049" lat="59.93509" lon="10.88884">
		<tag k="amenity" v="kindergarten" />
		<tag k="capacity" v="13" />
		<tag k="max_age" v="5" />
		<tag k="min_age" v="1" />
		<tag k="name" v="Kløfterhagen barnehage Berit Lillian Haugland" />
		<tag k="no-barnehage:nsrid" v="1021450" />
		<tag k="operator" v="Kløfterhagen barnehage Berit Lillian Haugland" />
		<tag k="operator:type" v="private" />
	</node>
	<node id="-1047" lat="59.9265" lon="10.6437">
		<tag k="amenity" v="kindergarten" />
		<tag k="capacity" v="47" />
		<tag k="max_age" v="5" />
		<tag k="min_age" v="1" />
		<tag k="name" v="Kjosjordet barnehage" />
		<tag k="no-barnehage:nsrid" v="1013846" />
		<tag k="operator" v="Oslo kommune" />
		<tag k="operator:type" v="public" />
	</node>
	<node id="-1046" lat="59.9654" lon="10.7851">
		<tag k="amenity" v="kindergarten" />
		<tag k="capacity" v="103" />
		<tag k="max_age" v="5" />
		<tag k="min_age" v="1" />
		<tag k="name" v="Kjelsås skole barnehage" />
		<tag k="no-barnehage:nsrid" v="1017917" />
		<tag k="operator" v="Oslo kommune" />
		<tag k="operator:type" v="public" />
	</node>
	<node id="-1045" lat="59.936" lon="10.7278">
		<tag k="amenity" v="kindergarten" />
		<tag k="capacity" v="49" />
		<tag k="max_age" v="5" />
		<tag k="min_age" v="1" />
		<tag k="name" v="Kirsebærjordet barnehage" />
		<tag k="no-barnehage:nsrid" v="1014772" />
		<tag k="operator" v="Oslo kommune" />
		<tag k="operator:type" v="public" />
	</node>
	<node id="-1044" lat="59.94915" lon="10.82105">
		<tag k="amenity" v="kindergarten" />
		<tag k="max_age" v="5" />
		<tag k="min_age" v="1" />
		<tag k="name" v="Kilden barnehage" />
		<tag k="no-barnehage:nsrid" v="2000312" />
		<tag k="operator" v="Oslo kommune" />
		<tag k="operator:type" v="public" />
	</node>
	<node id="-1043" lat="59.9153" lon="10.7543">
		<tag k="amenity" v="kindergarten" />
		<tag k="capacity" v="37" />
		<tag k="max_age" v="5" />
		<tag k="min_age" v="1" />
		<tag k="name" v="Kia barnehage Ebbelsgate Oslo" />
		<tag k="no-barnehage:nsrid" v="1018409" />
		<tag k="operator" v="Kristent Interkulturelt Arbeid (kia)" />
		<tag k="operator:type" v="private" />
	</node>
	<node id="-1042" lat="59.9231" lon="10.785">
		<tag k="amenity" v="kindergarten" />
		<tag k="capacity" v="36" />
		<tag k="max_age" v="5" />
		<tag k="min_age" v="3" />
		<tag k="name" v="Keyserløkka barnehage" />
		<tag k="no-barnehage:nsrid" v="1016792" />
		<tag k="operator" v="Oslo kommune" />
		<tag k="operator:type" v="public" />
	</node>
	<node id="-1041" lat="59.9531" lon="10.6587">
		<tag k="amenity" v="kindergarten" />
		<tag k="capacity" v="54" />
		<tag k="max_age" v="5" />
		<tag k="min_age" v="1" />
		<tag k="name" v="Kattugla Steinerbarnehage" />
		<tag k="no-barnehage:nsrid" v="1018483" />
		<tag k="operator" v="Stiftelsen Rudolf Steinerbarnehagene i Oslo" />
		<tag k="operator:type" v="private" />
	</node>
	<node id="-1040" lat="59.92138" lon="10.74079">
		<tag k="amenity" v="kindergarten" />
		<tag k="capacity" v="60" />
		<tag k="max_age" v="5" />
		<tag k="min_age" v="1" />
		<tag k="name" v="Katta barnehage" />
		<tag k="no-barnehage:nsrid" v="1021582" />
		<tag k="operator" v="Ulna AS" />
		<tag k="operator:type" v="private" />
	</node>
	<node id="-1039" lat="59.8671" lon="10.8018">
		<tag k="amenity" v="kindergarten" />
		<tag k="capacity" v="33" />
		<tag k="max_age" v="5" />
		<tag k="min_age" v="1" />
		<tag k="name" v="Kastellterrassen Kanvas-barnehage" />
		<tag k="no-barnehage:nsrid" v="1016791" />
		<tag k="operator" v="Stiftelsen Kanvas" />
		<tag k="operator:type" v="private" />
	</node>
	<node id="-1038" lat="59.9228" lon="10.8658">
		<tag k="amenity" v="kindergarten" />
		<tag k="capacity" v="53" />
		<tag k="contact:website" v="http://www.bydel-alna.oslo.kommune.no" />
		<tag k="max_age" v="5" />
		<tag k="min_age" v="1" />
		<tag k="name" v="Kastanjen barnehage" />
		<tag k="no-barnehage:nsrid" v="1018361" />
		<tag k="operator" v="Oslo kommune" />
		<tag k="operator:type" v="public" />
	</node>
	<node id="-1036" lat="59.9354" lon="10.9239">
		<tag k="amenity" v="kindergarten" />
		<tag k="capacity" v="82" />
		<tag k="contact:website" v="http://www.bydel-alna.oslo.kommune.no" />
		<tag k="max_age" v="5" />
		<tag k="min_age" v="1" />
		<tag k="name" v="Karihaugen barnehage" />
		<tag k="no-barnehage:nsrid" v="1017429" />
		<tag k="operator" v="Oslo kommune" />
		<tag k="operator:type" v="public" />
	</node>
	<node id="-1035" lat="59.9672" lon="10.9219">
		<tag k="amenity" v="kindergarten" />
		<tag k="capacity" v="36" />
		<tag k="max_age" v="5" />
		<tag k="min_age" v="3" />
		<tag k="name" v="Karen Aasumb barnehage" />
		<tag k="no-barnehage:nsrid" v="1013865" />
		<tag k="operator" v="Oslo kommune" />
		<tag k="operator:type" v="public" />
	</node>
	<node id="-1034" lat="59.91246" lon="10.78512">
		<tag k="amenity" v="kindergarten" />
		<tag k="capacity" v="50" />
		<tag k="contact:website" v="http://www.kardemomme.no" />
		<tag k="max_age" v="5" />
		<tag k="min_age" v="1" />
		<tag k="name" v="Kardemomme barnehage" />
		<tag k="no-barnehage:nsrid" v="1020426" />
		<tag k="operator" v="Kardemomme barnehage Sa" />
		<tag k="operator:type" v="private" />
	</node>
	<node id="-1033" lat="59.849" lon="10.8142">
		<tag k="amenity" v="kindergarten" />
		<tag k="capacity" v="46" />
		<tag k="max_age" v="5" />
		<tag k="min_age" v="1" />
		<tag k="name" v="Kantarellen barnehage" />
		<tag k="no-barnehage:nsrid" v="1015623" />
		<tag k="operator" v="Oslo kommune" />
		<tag k="operator:type" v="public" />
	</node>
	<node id="-1032" lat="59.9312" lon="10.7918">
		<tag k="amenity" v="kindergarten" />
		<tag k="capacity" v="89" />
		<tag k="contact:website" v="http://kanonen.norlandiabarnehagene.no/" />
		<tag k="max_age" v="5" />
		<tag k="min_age" v="1" />
		<tag k="name" v="Kanonen barnehage" />
		<tag k="no-barnehage:nsrid" v="1015043" />
		<tag k="operator" v="Norlandia Barnehagene AS" />
		<tag k="operator:type" v="private" />
	</node>
	<node id="-1031" lat="59.9115" lon="10.7815">
		<tag k="amenity" v="kindergarten" />
		<tag k="capacity" v="26" />
		<tag k="contact:website" v="http://kampenkunstbarnehagene.no" />
		<tag k="max_age" v="5" />
		<tag k="min_age" v="1" />
		<tag k="name" v="Kampen kunstbarnehage avd. Sons Gate" />
		<tag k="no-barnehage:nsrid" v="1013219" />
		<tag k="operator" v="Friluftsbarnehagene AS" />
		<tag k="operator:type" v="private" />
	</node>
	<node id="-1029" lat="59.9128" lon="10.7846">
		<tag k="amenity" v="kindergarten" />
		<tag k="capacity" v="97" />
		<tag k="max_age" v="5" />
		<tag k="min_age" v="1" />
		<tag k="name" v="Kampen barnehage" />
		<tag k="no-barnehage:nsrid" v="1013822" />
		<tag k="operator" v="Oslo kommune" />
		<tag k="operator:type" v="public" />
	</node>
	<node id="-1028" lat="59.9367" lon="10.7351">
		<tag k="amenity" v="kindergarten" />
		<tag k="capacity" v="53" />
		<tag k="max_age" v="5" />
		<tag k="min_age" v="1" />
		<tag k="name" v="Jutul Kanvas-barnehage" />
		<tag k="no-barnehage:nsrid" v="1013815" />
		<tag k="operator" v="Stiftelsen Kanvas" />
		<tag k="operator:type" v="private" />
	</node>
	<node id="-1027" lat="59.9089" lon="10.7854">
		<tag k="amenity" v="kindergarten" />
		<tag k="capacity" v="54" />
		<tag k="max_age" v="5" />
		<tag k="min_age" v="1" />
		<tag k="name" v="Jordal barnehage" />
		<tag k="no-barnehage:nsrid" v="1013823" />
		<tag k="operator" v="Oslo kommune" />
		<tag k="operator:type" v="public" />
	</node>
	<node id="-1026" lat="59.852" lon="10.8286">
		<tag k="amenity" v="kindergarten" />
		<tag k="capacity" v="84" />
		<tag k="max_age" v="5" />
		<tag k="min_age" v="1" />
		<tag k="name" v="Jettegryta barnehage" />
		<tag k="no-barnehage:nsrid" v="1013962" />
		<tag k="operator" v="Oslo kommune" />
		<tag k="operator:type" v="public" />
	</node>
	<node id="-1025" lat="59.93509" lon="10.88884">
		<tag k="amenity" v="kindergarten" />
		<tag k="capacity" v="12" />
		<tag k="max_age" v="5" />
		<tag k="min_age" v="1" />
		<tag k="name" v="Jeriko private friluftsbarnehage" />
		<tag k="no-barnehage:nsrid" v="1022287" />
		<tag k="operator" v="Jeriko Private Friluftsbarnehage AS" />
		<tag k="operator:type" v="private" />
	</node>
	<node id="-1024" lat="59.9463" lon="10.644">
		<tag k="amenity" v="kindergarten" />
		<tag k="capacity" v="107" />
		<tag k="max_age" v="5" />
		<tag k="min_age" v="1" />
		<tag k="name" v="Jarbakken barnehage" />
		<tag k="no-barnehage:nsrid" v="1013850" />
		<tag k="operator" v="Oslo kommune" />
		<tag k="operator:type" v="public" />
	</node>
	<node id="-1023" lat="59.90334" lon="10.79187">
		<tag k="amenity" v="kindergarten" />
		<tag k="capacity" v="42" />
		<tag k="contact:website" v="http://www.internasjonalkulturbarnehage.no" />
		<tag k="max_age" v="5" />
		<tag k="min_age" v="3" />
		<tag k="name" v="Internasjonal kultur barnehage Åkeberg" />
		<tag k="no-barnehage:nsrid" v="1013090" />
		<tag k="operator" v="Internasjonal Kultur barnehage Ingeborg Helene Aanonsen" />
		<tag k="operator:type" v="private" />
	</node>
	<node id="-1022" lat="59.9069" lon="10.7828">
		<tag k="amenity" v="kindergarten" />
		<tag k="capacity" v="27" />
		<tag k="contact:website" v="http://www.internasjonalkulturbarnehage.no" />
		<tag k="max_age" v="2" />
		<tag k="min_age" v="1" />
		<tag k="name" v="Internasjonal kultur barnehage Enebakkveien" />
		<tag k="no-barnehage:nsrid" v="1016547" />
		<tag k="operator" v="Internasjonal Kultur barnehage Ingeborg Helene Aanonsen" />
		<tag k="operator:type" v="private" />
	</node>
	<node id="-1019" lat="59.93982" lon="10.7072">
		<tag k="amenity" v="kindergarten" />
		<tag k="capacity" v="36" />
		<tag k="max_age" v="5" />
		<tag k="min_age" v="1" />
		<tag k="name" v="Hvitveisen barnehage" />
		<tag k="no-barnehage:nsrid" v="1020692" />
		<tag k="operator" v="Hvitveisen barnehage AS" />
		<tag k="operator:type" v="private" />
	</node>
	<node id="-1018" lat="59.94255" lon="10.66774">
		<tag k="amenity" v="kindergarten" />
		<tag k="capacity" v="18" />
		<tag k="max_age" v="5" />
		<tag k="min_age" v="3" />
		<tag k="name" v="Husebygrenda barnehage" />
		<tag k="no-barnehage:nsrid" v="1020728" />
		<tag k="operator" v="Husebygrenda barnehage" />
		<tag k="operator:type" v="private" />
	</node>
	<node id="-1017" lat="59.9442" lon="10.6591">
		<tag k="amenity" v="kindergarten" />
		<tag k="capacity" v="212" />
		<tag k="max_age" v="5" />
		<tag k="min_age" v="1" />
		<tag k="name" v="Huseby barnehage" />
		<tag k="no-barnehage:nsrid" v="1013268" />
		<tag k="operator" v="Oslo kommune" />
		<tag k="operator:type" v="public" />
	</node>
	<node id="-1016" lat="59.9098" lon="10.7809">
		<tag k="amenity" v="kindergarten" />
		<tag k="capacity" v="28" />
		<tag k="max_age" v="5" />
		<tag k="min_age" v="1" />
		<tag k="name" v="Hurdalsgata barnehage" />
		<tag k="no-barnehage:nsrid" v="1013825" />
		<tag k="operator" v="Oslo kommune" />
		<tag k="operator:type" v="public" />
	</node>
	<node id="-1015" lat="59.9255" lon="10.6388">
		<tag k="amenity" v="kindergarten" />
		<tag k="capacity" v="78" />
		<tag k="max_age" v="5" />
		<tag k="min_age" v="1" />
		<tag k="name" v="Hullebergmyra barnehage" />
		<tag k="no-barnehage:nsrid" v="1017639" />
		<tag k="operator" v="Oslo kommune" />
		<tag k="operator:type" v="public" />
	</node>
	<node id="-1014" lat="59.9633" lon="10.8697">
		<tag k="amenity" v="kindergarten" />
		<tag k="capacity" v="18" />
		<tag k="contact:website" v="http://www.oslo.kommune.no/barnehage/finn-barnehage-i-oslo/bydel-grorud/huken-naturbarnehage/" />
		<tag k="max_age" v="5" />
		<tag k="min_age" v="3" />
		<tag k="name" v="Huken naturbarnehage" />
		<tag k="no-barnehage:nsrid" v="1015757" />
		<tag k="operator" v="Oslo kommune" />
		<tag k="operator:type" v="public" />
	</node>
	<node id="-1013" lat="59.9223" lon="10.7982">
		<tag k="amenity" v="kindergarten" />
		<tag k="capacity" v="73" />
		<tag k="max_age" v="5" />
		<tag k="min_age" v="1" />
		<tag k="name" v="Hovin barnehage" />
		<tag k="no-barnehage:nsrid" v="1017293" />
		<tag k="operator" v="Oslo kommune" />
		<tag k="operator:type" v="public" />
	</node>
	<node id="-1012" lat="59.9501" lon="10.6512">
		<tag k="amenity" v="kindergarten" />
		<tag k="capacity" v="114" />
		<tag k="max_age" v="5" />
		<tag k="min_age" v="1" />
		<tag k="name" v="Hov - Meklenborg barnehage" />
		<tag k="no-barnehage:nsrid" v="1013848" />
		<tag k="operator" v="Oslo kommune" />
		<tag k="operator:type" v="public" />
	</node>
	<node id="-1011" lat="59.9547" lon="10.7213">
		<tag k="amenity" v="kindergarten" />
		<tag k="capacity" v="57" />
		<tag k="max_age" v="5" />
		<tag k="min_age" v="1" />
		<tag k="name" v="Hompetitten Kanvas-barnehage" />
		<tag k="no-barnehage:nsrid" v="1016670" />
		<tag k="operator" v="Stiftelsen Kanvas" />
		<tag k="operator:type" v="private" />
	</node>
	<node id="-1010" lat="59.82661" lon="10.80111">
		<tag k="amenity" v="kindergarten" />
		<tag k="capacity" v="72" />
		<tag k="max_age" v="5" />
		<tag k="min_age" v="1" />
		<tag k="name" v="Holmsåsen FUS barnehage" />
		<tag k="no-barnehage:nsrid" v="1021385" />
		<tag k="operator" v="Holmsåsen Fus barnehage AS" />
		<tag k="operator:type" v="private" />
	</node>
	<node id="-1009" lat="59.94421" lon="10.69737">
		<tag k="amenity" v="kindergarten" />
		<tag k="capacity" v="188" />
		<tag k="max_age" v="5" />
		<tag k="min_age" v="1" />
		<tag k="name" v="Holmenveien barnehage Espira" />
		<tag k="no-barnehage:nsrid" v="1025939" />
		<tag k="operator" v="Espira Oslo Barnehagedrift AS" />
		<tag k="operator:type" v="private" />
	</node>
	<node id="-1008" lat="59.9444" lon="10.6853">
		<tag k="amenity" v="kindergarten" />
		<tag k="capacity" v="43" />
		<tag k="max_age" v="5" />
		<tag k="min_age" v="1" />
		<tag k="name" v="Holmen Kanvas-barnehage" />
		<tag k="no-barnehage:nsrid" v="1013853" />
		<tag k="operator" v="Stiftelsen Kanvas" />
		<tag k="operator:type" v="private" />
	</node>
	<node id="-1007" lat="59.92706" lon="10.68182">
		<tag k="amenity" v="kindergarten" />
		<tag k="capacity" v="18" />
		<tag k="max_age" v="5" />
		<tag k="min_age" v="1" />
		<tag k="name" v="Hoffsgrenda barnehage" />
		<tag k="no-barnehage:nsrid" v="1019743" />
		<tag k="operator" v="Hoffsgrenda barnehage" />
		<tag k="operator:type" v="private" />
	</node>
	<node id="-1006" lat="59.92627" lon="10.67249">
		<tag k="amenity" v="kindergarten" />
		<tag k="capacity" v="13" />
		<tag k="contact:website" v="http://www.hoffterrassebarnehage.no" />
		<tag k="max_age" v="5" />
		<tag k="min_age" v="1" />
		<tag k="name" v="Hoff terrasse barnehage" />
		<tag k="no-barnehage:nsrid" v="1020939" />
		<tag k="operator" v="Hoff Terrasse barnehage Sa" />
		<tag k="operator:type" v="private" />
	</node>
	<node id="-1004" lat="59.91081" lon="10.85989">
		<tag k="amenity" v="kindergarten" />
		<tag k="capacity" v="16" />
		<tag k="contact:website" v="http://www.hellerudtoppen.barnehageside.no/index.asp" />
		<tag k="max_age" v="5" />
		<tag k="min_age" v="1" />
		<tag k="name" v="Hellerudtoppen barnehage" />
		<tag k="no-barnehage:nsrid" v="1019911" />
		<tag k="operator" v="Hellerudtoppen barnehage Sa" />
		<tag k="operator:type" v="private" />
	</node>
	<node id="-1003" lat="59.91582" lon="10.85566">
		<tag k="amenity" v="kindergarten" />
		<tag k="capacity" v="36" />
		<tag k="contact:website" v="http://www.hellerud-barnehage.no" />
		<tag k="max_age" v="5" />
		<tag k="min_age" v="1" />
		<tag k="name" v="Hellerud barnehage" />
		<tag k="no-barnehage:nsrid" v="1020380" />
		<tag k="operator" v="Hellerud barnehage Sa" />
		<tag k="operator:type" v="private" />
	</node>
	<node id="-1002" lat="59.94735" lon="10.70934">
		<tag k="amenity" v="kindergarten" />
		<tag k="capacity" v="24" />
		<tag k="contact:website" v="http://www.heimvang.no" />
		<tag k="max_age" v="2" />
		<tag k="min_age" v="1" />
		<tag k="name" v="Heimvang barnehage" />
		<tag k="no-barnehage:nsrid" v="1022347" />
		<tag k="operator" v="Heimvang barnehage AS" />
		<tag k="operator:type" v="private" />
	</node>
	<node id="-1001" lat="59.9154" lon="10.776">
		<tag k="amenity" v="kindergarten" />
		<tag k="capacity" v="27" />
		<tag k="max_age" v="5" />
		<tag k="min_age" v="1" />
		<tag k="name" v="Heibergløkka barnehage" />
		<tag k="no-barnehage:nsrid" v="1017912" />
		<tag k="operator" v="Oslo kommune" />
		<tag k="operator:type" v="public" />
	</node>
	<node id="-1000" lat="59.9238" lon="10.7144">
		<tag k="amenity" v="kindergarten" />
		<tag k="capacity" v="36" />
		<tag k="max_age" v="2" />
		<tag k="min_age" v="1" />
		<tag k="name" v="Hegdehaugen barnehage" />
		<tag k="no-barnehage:nsrid" v="1025411" />
		<tag k="operator" v="Oslo kommune" />
		<tag k="operator:type" v="public" />
	</node>
	<node id="-999" lat="59.9357" lon="10.738">
		<tag k="amenity" v="kindergarten" />
		<tag k="capacity" v="117" />
		<tag k="max_age" v="5" />
		<tag k="min_age" v="1" />
		<tag k="name" v="Heftyes barnehage" />
		<tag k="no-barnehage:nsrid" v="1013888" />
		<tag k="operator" v="Oslo kommune" />
		<tag k="operator:type" v="public" />
	</node>
	<node id="-998" lat="59.9318" lon="10.8792">
		<tag k="amenity" v="kindergarten" />
		<tag k="capacity" v="56" />
		<tag k="contact:website" v="http://www.bydel-alna.oslo.kommune.no" />
		<tag k="max_age" v="5" />
		<tag k="min_age" v="1" />
		<tag k="name" v="Havnehagen barnehage" />
		<tag k="no-barnehage:nsrid" v="1018376" />
		<tag k="operator" v="Oslo kommune" />
		<tag k="operator:type" v="public" />
	</node>
	<node id="-997" lat="59.881" lon="10.8244">
		<tag k="amenity" v="kindergarten" />
		<tag k="capacity" v="18" />
		<tag k="max_age" v="5" />
		<tag k="min_age" v="3" />
		<tag k="name" v="Havnehagan friluftsbarnehage" />
		<tag k="no-barnehage:nsrid" v="1015893" />
		<tag k="operator" v="Oslo kommune" />
		<tag k="operator:type" v="public" />
	</node>
	<node id="-996" lat="59.9626" lon="10.75224">
		<tag k="amenity" v="kindergarten" />
		<tag k="capacity" v="36" />
		<tag k="max_age" v="5" />
		<tag k="min_age" v="1" />
		<tag k="name" v="Havnabakken barnehage" />
		<tag k="no-barnehage:nsrid" v="1020007" />
		<tag k="operator" v="Havnabakken barnehage Sa" />
		<tag k="operator:type" v="private" />
	</node>
	<node id="-995" lat="59.91823" lon="10.75307">
		<tag k="amenity" v="kindergarten" />
		<tag k="capacity" v="122" />
		<tag k="contact:website" v="http://www.espira.no" />
		<tag k="max_age" v="5" />
		<tag k="min_age" v="1" />
		<tag k="name" v="Hausmannsgate barnehage Espira" />
		<tag k="no-barnehage:nsrid" v="1025753" />
		<tag k="operator" v="Espira Oslo Barnehagedrift AS" />
		<tag k="operator:type" v="private" />
	</node>
	<node id="-994" lat="59.92252" lon="10.85941">
		<tag k="amenity" v="kindergarten" />
		<tag k="capacity" v="17" />
		<tag k="max_age" v="5" />
		<tag k="min_age" v="1" />
		<tag k="name" v="Haugerud skoles barnehage" />
		<tag k="no-barnehage:nsrid" v="1019650" />
		<tag k="operator" v="Haugerud Skoles barnehage" />
		<tag k="operator:type" v="private" />
	</node>
	<node id="-993" lat="59.9225" lon="10.8522">
		<tag k="amenity" v="kindergarten" />
		<tag k="capacity" v="72" />
		<tag k="contact:website" v="http://www.bydel-alna.oslo.kommune.no" />
		<tag k="max_age" v="5" />
		<tag k="min_age" v="1" />
		<tag k="name" v="Haugerud Sentrum barnehage" />
		<tag k="no-barnehage:nsrid" v="1017292" />
		<tag k="operator" v="Oslo kommune" />
		<tag k="operator:type" v="public" />
	</node>
	<node id="-992" lat="59.95417" lon="10.9208">
		<tag k="amenity" v="kindergarten" />
		<tag k="capacity" v="41" />
		<tag k="max_age" v="5" />
		<tag k="min_age" v="1" />
		<tag k="name" v="Haugenstua skoles barnehage B/a" />
		<tag k="no-barnehage:nsrid" v="1020201" />
		<tag k="operator" v="Haugenstua Skoles barnehage Sa" />
		<tag k="operator:type" v="private" />
	</node>
	<node id="-991" lat="59.9516" lon="10.9144">
		<tag k="amenity" v="kindergarten" />
		<tag k="capacity" v="71" />
		<tag k="max_age" v="5" />
		<tag k="min_age" v="1" />
		<tag k="name" v="Haugenstua barnehage" />
		<tag k="no-barnehage:nsrid" v="1017291" />
		<tag k="operator" v="Oslo kommune" />
		<tag k="operator:type" v="public" />
	</node>
	<node id="-990" lat="59.94666" lon="10.89876">
		<tag k="amenity" v="kindergarten" />
		<tag k="capacity" v="53" />
		<tag k="max_age" v="5" />
		<tag k="min_age" v="1" />
		<tag k="name" v="Haugenstien barnehage" />
		<tag k="no-barnehage:nsrid" v="2000132" />
		<tag k="operator" v="Oslo kommune" />
		<tag k="operator:type" v="public" />
	</node>
	<node id="-989" lat="59.9619" lon="10.7875">
		<tag k="amenity" v="kindergarten" />
		<tag k="capacity" v="77" />
		<tag k="max_age" v="5" />
		<tag k="min_age" v="1" />
		<tag k="name" v="Haugensjordet barnehage" />
		<tag k="no-barnehage:nsrid" v="1017426" />
		<tag k="operator" v="Oslo kommune" />
		<tag k="operator:type" v="public" />
	</node>
	<node id="-988" lat="59.9294" lon="10.6593">
		<tag k="amenity" v="kindergarten" />
		<tag k="capacity" v="83" />
		<tag k="max_age" v="5" />
		<tag k="min_age" v="1" />
		<tag k="name" v="Hasselkroken Kanvas-barnehage" />
		<tag k="no-barnehage:nsrid" v="1013762" />
		<tag k="operator" v="Stiftelsen Kanvas" />
		<tag k="operator:type" v="private" />
	</node>
	<node id="-987" lat="59.88458" lon="10.85598">
		<tag k="amenity" v="kindergarten" />
		<tag k="capacity" v="63" />
		<tag k="max_age" v="5" />
		<tag k="min_age" v="1" />
		<tag k="name" v="Haraløkka barnehage" />
		<tag k="no-barnehage:nsrid" v="1017624" />
		<tag k="operator" v="Oslo kommune" />
		<tag k="operator:type" v="public" />
	</node>
	<node id="-986" lat="59.96352" lon="10.75946">
		<tag k="amenity" v="kindergarten" />
		<tag k="capacity" v="12" />
		<tag k="contact:website" v="http://www.oslo.kommune.no/barnehage/alle-barnehager-i-oslo/hansemyra-friluftsbarnehage/" />
		<tag k="max_age" v="5" />
		<tag k="min_age" v="3" />
		<tag k="name" v="Hansemyra friluftsbarnehage" />
		<tag k="no-barnehage:nsrid" v="1021421" />
		<tag k="operator" v="Hansemyra Friluftsbarnehage Sa" />
		<tag k="operator:type" v="private" />
	</node>
	<node id="-985" lat="59.9235" lon="10.7172">
		<tag k="amenity" v="kindergarten" />
		<tag k="capacity" v="54" />
		<tag k="max_age" v="5" />
		<tag k="min_age" v="1" />
		<tag k="name" v="Hamna barnehage" />
		<tag k="no-barnehage:nsrid" v="1017424" />
		<tag k="operator" v="Oslo kommune" />
		<tag k="operator:type" v="public" />
	</node>
	<node id="-984" lat="59.9202" lon="10.7471">
		<tag k="amenity" v="kindergarten" />
		<tag k="capacity" v="67" />
		<tag k="max_age" v="5" />
		<tag k="min_age" v="1" />
		<tag k="name" v="Hammersborg barnehage" />
		<tag k="no-barnehage:nsrid" v="1017290" />
		<tag k="operator" v="Oslo kommune" />
		<tag k="operator:type" v="public" />
	</node>
	<node id="-983" lat="59.9253" lon="10.7729">
		<tag k="amenity" v="kindergarten" />
		<tag k="capacity" v="63" />
		<tag k="max_age" v="5" />
		<tag k="min_age" v="1" />
		<tag k="name" v="Hammerfestgata barnehage" />
		<tag k="no-barnehage:nsrid" v="1013812" />
		<tag k="operator" v="Oslo kommune" />
		<tag k="operator:type" v="public" />
	</node>
	<node id="-982" lat="59.96247" lon="10.75043">
		<tag k="amenity" v="kindergarten" />
		<tag k="capacity" v="33" />
		<tag k="contact:website" v="http://www.hamborgplassen.no" />
		<tag k="max_age" v="5" />
		<tag k="min_age" v="1" />
		<tag k="name" v="Hamborgplassen barnehage" />
		<tag k="no-barnehage:nsrid" v="1019833" />
		<tag k="operator" v="Hamborgplassen barnehage Sa" />
		<tag k="operator:type" v="private" />
	</node>
	<node id="-981" lat="59.9489" lon="10.6499">
		<tag k="amenity" v="kindergarten" />
		<tag k="capacity" v="63" />
		<tag k="max_age" v="5" />
		<tag k="min_age" v="1" />
		<tag k="name" v="Hamborg barnehage" />
		<tag k="no-barnehage:nsrid" v="1017423" />
		<tag k="operator" v="Oslo kommune" />
		<tag k="operator:type" v="public" />
	</node>
	<node id="-980" lat="59.9303" lon="10.7642">
		<tag k="amenity" v="kindergarten" />
		<tag k="capacity" v="92" />
		<tag k="max_age" v="5" />
		<tag k="min_age" v="1" />
		<tag k="name" v="Hallenparken barnehage" />
		<tag k="no-barnehage:nsrid" v="1017422" />
		<tag k="operator" v="Oslo kommune" />
		<tag k="operator:type" v="public" />
	</node>
	<node id="-979" lat="59.83921" lon="10.79154">
		<tag k="amenity" v="kindergarten" />
		<tag k="capacity" v="27" />
		<tag k="contact:website" v="http://barnehagemin.no/2606" />
		<tag k="max_age" v="5" />
		<tag k="min_age" v="1" />
		<tag k="name" v="Hallagerstua barnehage" />
		<tag k="no-barnehage:nsrid" v="1019867" />
		<tag k="operator" v="Hallagerstua barnehage Sa" />
		<tag k="operator:type" v="private" />
	</node>
	<node id="-978" lat="59.8399" lon="10.7925">
		<tag k="amenity" v="kindergarten" />
		<tag k="capacity" v="63" />
		<tag k="max_age" v="5" />
		<tag k="min_age" v="1" />
		<tag k="name" v="Hallagerbakken barnehage" />
		<tag k="no-barnehage:nsrid" v="1013829" />
		<tag k="operator" v="Oslo kommune" />
		<tag k="operator:type" v="public" />
	</node>
	<node id="-977" lat="59.90057" lon="10.68083">
		<tag k="amenity" v="kindergarten" />
		<tag k="capacity" v="37" />
		<tag k="max_age" v="5" />
		<tag k="min_age" v="1" />
		<tag k="name" v="Hakkespetten barnehage" />
		<tag k="no-barnehage:nsrid" v="1021102" />
		<tag k="operator" v="Ulna AS" />
		<tag k="operator:type" v="private" />
	</node>
	<node id="-965" lat="59.89577" lon="10.81312">
		<tag k="amenity" v="kindergarten" />
		<tag k="capacity" v="49" />
		<tag k="contact:website" v="http://gaardstunet.barnehage.no/" />
		<tag k="max_age" v="5" />
		<tag k="min_age" v="1" />
		<tag k="name" v="Gårdstunet barnehage" />
		<tag k="no-barnehage:nsrid" v="1020230" />
		<tag k="operator" v="Gårdstunet barnehage Sa" />
		<tag k="operator:type" v="private" />
	</node>
	<node id="-964" lat="59.9336" lon="10.7157">
		<tag k="amenity" v="kindergarten" />
		<tag k="capacity" v="59" />
		<tag k="max_age" v="5" />
		<tag k="min_age" v="1" />
		<tag k="name" v="Gydas Vei barnehage" />
		<tag k="no-barnehage:nsrid" v="1015614" />
		<tag k="operator" v="Oslo kommune" />
		<tag k="operator:type" v="public" />
	</node>
	<node id="-960" lat="59.9656" lon="10.7966">
		<tag k="amenity" v="kindergarten" />
		<tag k="capacity" v="64" />
		<tag k="max_age" v="5" />
		<tag k="min_age" v="1" />
		<tag k="name" v="Gulldalen barnehage" />
		<tag k="no-barnehage:nsrid" v="1015632" />
		<tag k="operator" v="Oslo kommune" />
		<tag k="operator:type" v="public" />
	</node>
	<node id="-959" lat="59.967" lon="10.9232">
		<tag k="amenity" v="kindergarten" />
		<tag k="capacity" v="57" />
		<tag k="max_age" v="5" />
		<tag k="min_age" v="1" />
		<tag k="name" v="Gullberget barnehage" />
		<tag k="no-barnehage:nsrid" v="1017938" />
		<tag k="operator" v="Oslo kommune" />
		<tag k="operator:type" v="public" />
	</node>
	<node id="-958" lat="59.9205" lon="10.73">
		<tag k="amenity" v="kindergarten" />
		<tag k="capacity" v="36" />
		<tag k="max_age" v="5" />
		<tag k="min_age" v="3" />
		<tag k="name" v="Grønneberg barnehage" />
		<tag k="no-barnehage:nsrid" v="1017483" />
		<tag k="operator" v="Oslo kommune" />
		<tag k="operator:type" v="public" />
	</node>
	<node id="-957" lat="59.9128" lon="10.7626">
		<tag k="amenity" v="kindergarten" />
		<tag k="name" v="Grønland åpen barnehage og Språkgrupper" />
		<tag k="no-barnehage:nsrid" v="1018534" />
		<tag k="operator" v="Oslo kommune" />
		<tag k="operator:type" v="public" />
	</node>
	<node id="-956" lat="59.9129" lon="10.7599">
		<tag k="amenity" v="kindergarten" />
		<tag k="capacity" v="62" />
		<tag k="max_age" v="5" />
		<tag k="min_age" v="1" />
		<tag k="name" v="Grønland Torg barnehage" />
		<tag k="no-barnehage:nsrid" v="1014773" />
		<tag k="operator" v="Oslo kommune" />
		<tag k="operator:type" v="public" />
	</node>
	<node id="-954" lat="59.915" lon="10.762">
		<tag k="amenity" v="kindergarten" />
		<tag k="capacity" v="87" />
		<tag k="max_age" v="5" />
		<tag k="min_age" v="1" />
		<tag k="name" v="Grønland barnehage" />
		<tag k="no-barnehage:nsrid" v="1016050" />
		<tag k="operator" v="Urtehagen Barnehager AS" />
		<tag k="operator:type" v="private" />
	</node>
	<node id="-953" lat="59.9221" lon="10.756">
		<tag k="amenity" v="kindergarten" />
		<tag k="capacity" v="145" />
		<tag k="max_age" v="5" />
		<tag k="min_age" v="1" />
		<tag k="name" v="Grünerhagen barnehage" />
		<tag k="no-barnehage:nsrid" v="1013811" />
		<tag k="operator" v="Oslo kommune" />
		<tag k="operator:type" v="public" />
	</node>
	<node id="-952" lat="59.9626" lon="10.8781">
		<tag k="amenity" v="kindergarten" />
		<tag k="capacity" v="108" />
		<tag k="contact:website" v="http://www.oslo.kommune.no/barnehage/finn-barnehage-i-oslo/bydel-grorud/grorud-barnehage/" />
		<tag k="max_age" v="5" />
		<tag k="min_age" v="1" />
		<tag k="name" v="Grorud barnehage" />
		<tag k="no-barnehage:nsrid" v="1014224" />
		<tag k="operator" v="Oslo kommune" />
		<tag k="operator:type" v="public" />
	</node>
	<node id="-951" lat="59.9674" lon="10.6475">
		<tag k="amenity" v="kindergarten" />
		<tag k="capacity" v="54" />
		<tag k="max_age" v="5" />
		<tag k="min_age" v="1" />
		<tag k="name" v="Grindbakken barnehage" />
		<tag k="no-barnehage:nsrid" v="1013847" />
		<tag k="operator" v="Oslo kommune" />
		<tag k="operator:type" v="public" />
	</node>
	<node id="-950" lat="59.95332" lon="10.79563">
		<tag k="amenity" v="kindergarten" />
		<tag k="capacity" v="105" />
		<tag k="contact:website" v="http://www.grefsenlyst.bhg.no" />
		<tag k="max_age" v="5" />
		<tag k="min_age" v="1" />
		<tag k="name" v="Grefsenlyst FUS barnehage" />
		<tag k="no-barnehage:nsrid" v="1021867" />
		<tag k="operator" v="Grefsenlyst Fus barnehage AS" />
		<tag k="operator:type" v="private" />
	</node>
	<node id="-949" lat="59.9548" lon="10.7767">
		<tag k="amenity" v="kindergarten" />
		<tag k="capacity" v="33" />
		<tag k="contact:website" v="http://grefsenmenighetsbhg.no" />
		<tag k="max_age" v="5" />
		<tag k="min_age" v="1" />
		<tag k="name" v="Grefsen kirkes barnehage" />
		<tag k="no-barnehage:nsrid" v="1016232" />
		<tag k="operator" v="Grefsen Sokn" />
		<tag k="operator:type" v="private" />
	</node>
	<node id="-948" lat="59.9451" lon="10.9">
		<tag k="amenity" v="kindergarten" />
		<tag k="capacity" v="45" />
		<tag k="contact:website" v="http://www.bydel-alna.oslo.kommune.no" />
		<tag k="max_age" v="5" />
		<tag k="min_age" v="1" />
		<tag k="name" v="Gransletta barnehage" />
		<tag k="no-barnehage:nsrid" v="1013875" />
		<tag k="operator" v="Oslo kommune" />
		<tag k="operator:type" v="public" />
	</node>
	<node id="-947" lat="59.9106" lon="10.8465">
		<tag k="amenity" v="kindergarten" />
		<tag k="capacity" v="63" />
		<tag k="max_age" v="5" />
		<tag k="min_age" v="1" />
		<tag k="name" v="Goliaskogen barnehage" />
		<tag k="no-barnehage:nsrid" v="1017046" />
		<tag k="operator" v="Oslo kommune" />
		<tag k="operator:type" v="public" />
	</node>
	<node id="-946" lat="59.9086" lon="10.8387">
		<tag k="amenity" v="kindergarten" />
		<tag k="capacity" v="36" />
		<tag k="max_age" v="5" />
		<tag k="min_age" v="1" />
		<tag k="name" v="Godlia barnehage" />
		<tag k="no-barnehage:nsrid" v="1019870" />
		<tag k="operator" v="Godlia barnehage" />
		<tag k="operator:type" v="private" />
	</node>
	<node id="-945" lat="59.9253" lon="10.7215">
		<tag k="amenity" v="kindergarten" />
		<tag k="capacity" v="34" />
		<tag k="max_age" v="5" />
		<tag k="min_age" v="1" />
		<tag k="name" v="Godbiten barnehage" />
		<tag k="no-barnehage:nsrid" v="1016335" />
		<tag k="operator" v="Ulna AS" />
		<tag k="operator:type" v="private" />
	</node>
	<node id="-944" lat="59.94292" lon="10.68874">
		<tag k="amenity" v="kindergarten" />
		<tag k="capacity" v="16" />
		<tag k="max_age" v="5" />
		<tag k="min_age" v="1" />
		<tag k="name" v="Giske barnehage" />
		<tag k="no-barnehage:nsrid" v="1020608" />
		<tag k="operator" v="Stiftelsen Giskehagen" />
		<tag k="operator:type" v="private" />
	</node>
	<node id="-943" lat="59.9054" lon="10.7673">
		<tag k="amenity" v="kindergarten" />
		<tag k="capacity" v="72" />
		<tag k="max_age" v="5" />
		<tag k="min_age" v="1" />
		<tag k="name" v="Gamlebyen barnehage" />
		<tag k="no-barnehage:nsrid" v="1016090" />
		<tag k="operator" v="Urtehagen Barnehager AS" />
		<tag k="operator:type" v="private" />
	</node>
	<node id="-942" lat="59.9231" lon="10.7594">
		<tag k="amenity" v="kindergarten" />
		<tag k="capacity" v="70" />
		<tag k="max_age" v="5" />
		<tag k="min_age" v="1" />
		<tag k="name" v="Gaia barnehage" />
		<tag k="no-barnehage:nsrid" v="1012981" />
		<tag k="operator" v="Ulna AS" />
		<tag k="operator:type" v="private" />
	</node>
	<node id="-941" lat="59.9153" lon="10.7943">
		<tag k="amenity" v="kindergarten" />
		<tag k="capacity" v="142" />
		<tag k="max_age" v="5" />
		<tag k="min_age" v="1" />
		<tag k="name" v="Fyrstikkalleen barnehage" />
		<tag k="no-barnehage:nsrid" v="1014176" />
		<tag k="operator" v="Oslo kommune" />
		<tag k="operator:type" v="public" />
	</node>
	<node id="-940" lat="59.9409" lon="10.8954">
		<tag k="amenity" v="kindergarten" />
		<tag k="capacity" v="63" />
		<tag k="contact:website" v="http://www.bydel-alna.oslo.kommune.no" />
		<tag k="max_age" v="5" />
		<tag k="min_age" v="1" />
		<tag k="name" v="Furustien barnehage" />
		<tag k="no-barnehage:nsrid" v="1013876" />
		<tag k="operator" v="Oslo kommune" />
		<tag k="operator:type" v="public" />
	</node>
	<node id="-939" lat="59.94277" lon="10.88939">
		<tag k="amenity" v="kindergarten" />
		<tag k="capacity" v="7" />
		<tag k="max_age" v="5" />
		<tag k="min_age" v="3" />
		<tag k="name" v="Furuset Smart Språktilbud" />
		<tag k="no-barnehage:nsrid" v="1026311" />
		<tag k="operator" v="Oslo kommune" />
		<tag k="operator:type" v="public" />
	</node>
	<node id="-938" lat="59.96088" lon="10.78637">
		<tag k="amenity" v="kindergarten" />
		<tag k="capacity" v="10" />
		<tag k="max_age" v="5" />
		<tag k="min_age" v="1" />
		<tag k="name" v="Furulunden kortidsbarnehage" />
		<tag k="no-barnehage:nsrid" v="1020075" />
		<tag k="operator" v="Furulunden Korttidsbarnehage Ans" />
		<tag k="operator:type" v="private" />
	</node>
	<node id="-937" lat="59.9297" lon="10.8872">
		<tag k="amenity" v="kindergarten" />
		<tag k="capacity" v="41" />
		<tag k="contact:website" v="http://www.bydel-alna.oslo.kommune.no" />
		<tag k="max_age" v="5" />
		<tag k="min_age" v="1" />
		<tag k="name" v="Furua barnehage" />
		<tag k="no-barnehage:nsrid" v="1017419" />
		<tag k="operator" v="Oslo kommune" />
		<tag k="operator:type" v="public" />
	</node>
	<node id="-936" lat="59.8991" lon="10.8479">
		<tag k="amenity" v="kindergarten" />
		<tag k="capacity" v="81" />
		<tag k="max_age" v="5" />
		<tag k="min_age" v="1" />
		<tag k="name" v="Fuglemyra barnehage" />
		<tag k="no-barnehage:nsrid" v="1025413" />
		<tag k="operator" v="Oslo kommune" />
		<tag k="operator:type" v="public" />
	</node>
	<node id="-934" lat="59.9376" lon="10.9136">
		<tag k="amenity" v="kindergarten" />
		<tag k="capacity" v="59" />
		<tag k="contact:website" v="http://frydenlund.norlandiabarnehagene.no" />
		<tag k="max_age" v="5" />
		<tag k="min_age" v="1" />
		<tag k="name" v="Frydenlund barnehage" />
		<tag k="no-barnehage:nsrid" v="1013877" />
		<tag k="operator" v="Norlandia Barnehagene AS" />
		<tag k="operator:type" v="private" />
	</node>
	<node id="-933" lat="59.922" lon="10.7469">
		<tag k="amenity" v="kindergarten" />
		<tag k="capacity" v="72" />
		<tag k="max_age" v="5" />
		<tag k="min_age" v="1" />
		<tag k="name" v="Fryd barnehage" />
		<tag k="no-barnehage:nsrid" v="1017002" />
		<tag k="operator" v="Oslo kommune" />
		<tag k="operator:type" v="public" />
	</node>
	<node id="-932" lat="59.9159" lon="10.69914">
		<tag k="amenity" v="kindergarten" />
		<tag k="capacity" v="52" />
		<tag k="max_age" v="5" />
		<tag k="min_age" v="1" />
		<tag k="name" v="Frognerkilen barnehage" />
		<tag k="no-barnehage:nsrid" v="1019885" />
		<tag k="operator" v="Frognerkilen barnehage AS" />
		<tag k="operator:type" v="private" />
	</node>
	<node id="-931" lat="59.93093" lon="10.70814">
		<tag k="amenity" v="kindergarten" />
		<tag k="capacity" v="25" />
		<tag k="max_age" v="5" />
		<tag k="min_age" v="1" />
		<tag k="name" v="Frognerbekken barnehage" />
		<tag k="no-barnehage:nsrid" v="1019927" />
		<tag k="operator" v="Foreningen Frognerbekken barnehage" />
		<tag k="operator:type" v="private" />
	</node>
	<node id="-930" lat="59.91695" lon="10.70533">
		<tag k="amenity" v="kindergarten" />
		<tag k="capacity" v="48" />
		<tag k="max_age" v="5" />
		<tag k="min_age" v="3" />
		<tag k="name" v="Frogner Internasonale Pre-school" />
		<tag k="no-barnehage:nsrid" v="1020316" />
		<tag k="operator" v="Frogner International Pre-School" />
		<tag k="operator:type" v="private" />
	</node>
	<node id="-929" lat="59.9249" lon="10.7123">
		<tag k="amenity" v="kindergarten" />
		<tag k="capacity" v="66" />
		<tag k="max_age" v="5" />
		<tag k="min_age" v="1" />
		<tag k="name" v="Frogner barnehage" />
		<tag k="no-barnehage:nsrid" v="1016803" />
		<tag k="operator" v="Oslo kommune" />
		<tag k="operator:type" v="public" />
	</node>
	<node id="-928" lat="59.9348" lon="10.716">
		<tag k="amenity" v="kindergarten" />
		<tag k="capacity" v="87" />
		<tag k="max_age" v="5" />
		<tag k="min_age" v="1" />
		<tag k="name" v="Friggfeltet barnehage" />
		<tag k="no-barnehage:nsrid" v="1017867" />
		<tag k="operator" v="Oslo kommune" />
		<tag k="operator:type" v="public" />
	</node>
	<node id="-927" lat="59.889" lon="10.7744">
		<tag k="amenity" v="kindergarten" />
		<tag k="capacity" v="65" />
		<tag k="max_age" v="5" />
		<tag k="min_age" v="1" />
		<tag k="name" v="Frierveien barnehage" />
		<tag k="no-barnehage:nsrid" v="1013474" />
		<tag k="operator" v="Oslo kommune" />
		<tag k="operator:type" v="public" />
	</node>
	<node id="-926" lat="59.9071" lon="10.7921">
		<tag k="amenity" v="kindergarten" />
		<tag k="capacity" v="52" />
		<tag k="max_age" v="5" />
		<tag k="min_age" v="1" />
		<tag k="name" v="Fridtjovsgate barnehage" />
		<tag k="no-barnehage:nsrid" v="1013020" />
		<tag k="operator" v="Oslo kommune" />
		<tag k="operator:type" v="public" />
	</node>
	<node id="-925" lat="59.92391" lon="10.71667">
		<tag k="amenity" v="kindergarten" />
		<tag k="capacity" v="70" />
		<tag k="max_age" v="5" />
		<tag k="min_age" v="1" />
		<tag k="name" v="Fridheim barnehage" />
		<tag k="no-barnehage:nsrid" v="1020603" />
		<tag k="operator" v="Fridheim barnehage AS" />
		<tag k="operator:type" v="private" />
	</node>
	<node id="-924" lat="59.9174" lon="10.815">
		<tag k="amenity" v="kindergarten" />
		<tag k="capacity" v="88" />
		<tag k="max_age" v="5" />
		<tag k="min_age" v="1" />
		<tag k="name" v="Frelsesarmeens barnehager avd. Regnbuen" />
		<tag k="no-barnehage:nsrid" v="1015494" />
		<tag k="operator" v="Frelsesarmeen" />
		<tag k="operator:type" v="private" />
	</node>
	<node id="-923" lat="59.9218" lon="10.706">
		<tag k="amenity" v="kindergarten" />
		<tag k="capacity" v="60" />
		<tag k="max_age" v="5" />
		<tag k="min_age" v="3" />
		<tag k="name" v="Fredrikke barnehage" />
		<tag k="no-barnehage:nsrid" v="1013568" />
		<tag k="operator" v="Oslo kommune" />
		<tag k="operator:type" v="public" />
	</node>
	<node id="-922" lat="59.9591" lon="10.9175">
		<tag k="amenity" v="kindergarten" />
		<tag k="capacity" v="72" />
		<tag k="max_age" v="5" />
		<tag k="min_age" v="1" />
		<tag k="name" v="Fossum barnehage" />
		<tag k="no-barnehage:nsrid" v="1017288" />
		<tag k="operator" v="Oslo kommune" />
		<tag k="operator:type" v="public" />
	</node>
	<node id="-921" lat="59.95494" lon="10.64083">
		<tag k="amenity" v="kindergarten" />
		<tag k="capacity" v="27" />
		<tag k="max_age" v="5" />
		<tag k="min_age" v="1" />
		<tag k="name" v="Fossekallen barnehage" />
		<tag k="no-barnehage:nsrid" v="1019710" />
		<tag k="operator" v="Fossekallen barnehage" />
		<tag k="operator:type" v="private" />
	</node>
	<node id="-920" lat="59.94102" lon="10.7146">
		<tag k="amenity" v="kindergarten" />
		<tag k="capacity" v="39" />
		<tag k="max_age" v="5" />
		<tag k="min_age" v="1" />
		<tag k="name" v="Forskningsparken Montessori" />
		<tag k="no-barnehage:nsrid" v="1019947" />
		<tag k="operator" v="Forskningsparken Montessori AS" />
		<tag k="operator:type" v="private" />
	</node>
	<node id="-919" lat="59.96548" lon="10.78944">
		<tag k="amenity" v="kindergarten" />
		<tag k="name" v="Foreldreforeningen Regnbuen åpen barnehage" />
		<tag k="no-barnehage:nsrid" v="1020675" />
		<tag k="operator" v="Foreldreforeningen Regnbuen Åpen barnehage" />
		<tag k="operator:type" v="private" />
	</node>
	<node id="-918" lat="59.9535" lon="10.8728">
		<tag k="amenity" v="kindergarten" />
		<tag k="capacity" v="81" />
		<tag k="contact:website" v="http://www.oslo.kommune.no/barnehage/finn-barnehage-i-oslo/bydel-grorud/flaen-barnehage/" />
		<tag k="max_age" v="5" />
		<tag k="min_age" v="1" />
		<tag k="name" v="Flaen barnehage" />
		<tag k="no-barnehage:nsrid" v="1017287" />
		<tag k="operator" v="Oslo kommune" />
		<tag k="operator:type" v="public" />
	</node>
	<node id="-917" lat="59.9107" lon="10.71853">
		<tag k="amenity" v="kindergarten" />
		<tag k="capacity" v="70" />
		<tag k="contact:website" v="http://www.fjordbyenbarnehage.no" />
		<tag k="max_age" v="5" />
		<tag k="min_age" v="1" />
		<tag k="name" v="Fjordbyen barnehage" />
		<tag k="no-barnehage:nsrid" v="1025515" />
		<tag k="operator" v="Ulna AS" />
		<tag k="operator:type" v="private" />
	</node>
	<node id="-916" lat="59.8326" lon="10.7939">
		<tag k="amenity" v="kindergarten" />
		<tag k="capacity" v="45" />
		<tag k="max_age" v="5" />
		<tag k="min_age" v="1" />
		<tag k="name" v="Fjeldlund barnehage" />
		<tag k="no-barnehage:nsrid" v="1012548" />
		<tag k="operator" v="Oslo kommune" />
		<tag k="operator:type" v="public" />
	</node>
	<node id="-915" lat="59.84183" lon="10.78082">
		<tag k="amenity" v="kindergarten" />
		<tag k="capacity" v="23" />
		<tag k="contact:website" v="http://www.barnehageforum.no/bhg/fiskevollen" />
		<tag k="max_age" v="5" />
		<tag k="min_age" v="1" />
		<tag k="name" v="Fiskevollen musikkbarnehage" />
		<tag k="no-barnehage:nsrid" v="1021802" />
		<tag k="operator" v="Fiskevollen Borettslag barnehage Sa" />
		<tag k="operator:type" v="private" />
	</node>
	<node id="-914" lat="59.94721" lon="10.7707">
		<tag k="amenity" v="kindergarten" />
		<tag k="capacity" v="68" />
		<tag k="contact:website" v="http://www.lillohoyden@bhg.no" />
		<tag k="max_age" v="5" />
		<tag k="min_age" v="1" />
		<tag k="name" v="Fernanda FUS barnehage avd. Lillohøyden" />
		<tag k="no-barnehage:nsrid" v="1022033" />
		<tag k="operator" v="Fernanda Fus barnehage AS" />
		<tag k="operator:type" v="private" />
	</node>
	<node id="-913" lat="59.9459" lon="10.76769">
		<tag k="amenity" v="kindergarten" />
		<tag k="capacity" v="48" />
		<tag k="max_age" v="2" />
		<tag k="min_age" v="1" />
		<tag k="name" v="Fernanda FUS barnehage avd. Elvelunden" />
		<tag k="no-barnehage:nsrid" v="1026557" />
		<tag k="operator" v="Fernanda Fus barnehage AS" />
		<tag k="operator:type" v="private" />
	</node>
	<node id="-912" lat="59.962" lon="10.8773">
		<tag k="amenity" v="kindergarten" />
		<tag k="name" v="Familie og Læringssenteret" />
		<tag k="no-barnehage:nsrid" v="1015629" />
		<tag k="operator" v="Oslo kommune" />
		<tag k="operator:type" v="public" />
	</node>
	<node id="-911" lat="59.9229" lon="10.8669">
		<tag k="amenity" v="kindergarten" />
		<tag k="capacity" v="87" />
		<tag k="contact:website" v="http://NorlandiabarnehageneIIas" />
		<tag k="max_age" v="5" />
		<tag k="min_age" v="1" />
		<tag k="name" v="Fagerholt barnehage" />
		<tag k="no-barnehage:nsrid" v="1017418" />
		<tag k="operator" v="Norlandia Barnehagene Ii AS" />
		<tag k="operator:type" v="private" />
	</node>
	<node id="-910" lat="59.9299" lon="10.7267">
		<tag k="amenity" v="kindergarten" />
		<tag k="capacity" v="67" />
		<tag k="max_age" v="5" />
		<tag k="min_age" v="1" />
		<tag k="name" v="Fagerborggaten barnehage" />
		<tag k="no-barnehage:nsrid" v="1016790" />
		<tag k="operator" v="Oslo kommune" />
		<tag k="operator:type" v="public" />
	</node>
	<node id="-909" lat="59.9492" lon="10.7736">
		<tag k="amenity" v="kindergarten" />
		<tag k="capacity" v="100" />
		<tag k="contact:website" v="http://eventyrstua.norlandiabarnehagene.no/" />
		<tag k="max_age" v="5" />
		<tag k="min_age" v="1" />
		<tag k="name" v="Eventyrstua barnehage" />
		<tag k="no-barnehage:nsrid" v="1017911" />
		<tag k="operator" v="Norlandia Barnehagene AS" />
		<tag k="operator:type" v="private" />
	</node>
	<node id="-908" lat="59.84787" lon="10.8189">
		<tag k="amenity" v="kindergarten" />
		<tag k="capacity" v="73" />
		<tag k="max_age" v="5" />
		<tag k="min_age" v="1" />
		<tag k="name" v="Eventyrlia FUS barnehage" />
		<tag k="no-barnehage:nsrid" v="1021465" />
		<tag k="operator" v="Eventyrlia Fus barnehage AS" />
		<tag k="operator:type" v="private" />
	</node>
	<node id="-907" lat="59.91708" lon="10.75762">
		<tag k="amenity" v="kindergarten" />
		<tag k="capacity" v="63" />
		<tag k="contact:website" v="http://www.eventyrbrua.no" />
		<tag k="max_age" v="5" />
		<tag k="min_age" v="1" />
		<tag k="name" v="Eventyrbrua Steinerbarnehage" />
		<tag k="no-barnehage:nsrid" v="1020767" />
		<tag k="operator" v="Stiftelsen Eventyrbrua Steinerbarnehage" />
		<tag k="operator:type" v="private" />
	</node>
	<node id="-906" lat="59.9089" lon="10.8055">
		<tag k="amenity" v="kindergarten" />
		<tag k="capacity" v="59" />
		<tag k="max_age" v="5" />
		<tag k="min_age" v="1" />
		<tag k="name" v="Etterstadsletta barnehage" />
		<tag k="no-barnehage:nsrid" v="1013224" />
		<tag k="operator" v="Oslo kommune" />
		<tag k="operator:type" v="public" />
	</node>
	<node id="-905" lat="59.9085" lon="10.8036">
		<tag k="amenity" v="kindergarten" />
		<tag k="capacity" v="132" />
		<tag k="max_age" v="5" />
		<tag k="min_age" v="1" />
		<tag k="name" v="Etterstadjordet barnehage" />
		<tag k="no-barnehage:nsrid" v="1018611" />
		<tag k="operator" v="Oslo kommune" />
		<tag k="operator:type" v="public" />
	</node>
	<node id="-904" lat="59.9109" lon="10.8027">
		<tag k="amenity" v="kindergarten" />
		<tag k="capacity" v="128" />
		<tag k="max_age" v="5" />
		<tag k="min_age" v="1" />
		<tag k="name" v="Etterstad barnehage" />
		<tag k="no-barnehage:nsrid" v="1017286" />
		<tag k="operator" v="Oslo kommune" />
		<tag k="operator:type" v="public" />
	</node>
	<node id="-903" lat="59.93769" lon="10.78131">
		<tag k="amenity" v="kindergarten" />
		<tag k="capacity" v="78" />
		<tag k="contact:website" v="http://torshovdalen.espira.no/" />
		<tag k="max_age" v="5" />
		<tag k="min_age" v="1" />
		<tag k="name" v="Espira Torshovdalen barnehage" />
		<tag k="no-barnehage:nsrid" v="1022345" />
		<tag k="operator" v="Espira Barnehager AS" />
		<tag k="operator:type" v="private" />
	</node>
	<node id="-902" lat="59.93273" lon="10.79903">
		<tag k="amenity" v="kindergarten" />
		<tag k="capacity" v="76" />
		<tag k="contact:website" v="http://spirea.espira.no" />
		<tag k="max_age" v="5" />
		<tag k="min_age" v="1" />
		<tag k="name" v="Espira Spirea barnehage" />
		<tag k="no-barnehage:nsrid" v="1022346" />
		<tag k="operator" v="Espira Barnehager AS" />
		<tag k="operator:type" v="private" />
	</node>
	<node id="-901" lat="59.92096" lon="10.78986">
		<tag k="amenity" v="kindergarten" />
		<tag k="capacity" v="116" />
		<tag k="contact:website" v="http://marienfryd.espira.no/" />
		<tag k="max_age" v="5" />
		<tag k="min_age" v="1" />
		<tag k="name" v="Espira Marienfryd barnehage" />
		<tag k="no-barnehage:nsrid" v="1021786" />
		<tag k="operator" v="Espira Barnehager AS" />
		<tag k="operator:type" v="private" />
	</node>
	<node id="-900" lat="59.90765" lon="10.744">
		<tag k="amenity" v="kindergarten" />
		<tag k="name" v="Espira Gruppen avd. Konsernkontor" />
		<tag k="no-barnehage:nsrid" v="2000315" />
		<tag k="operator" v="Espira Gruppen AS" />
		<tag k="operator:type" v="private" />
	</node>
	<node id="-899" lat="59.9552" lon="10.7209">
		<tag k="amenity" v="kindergarten" />
		<tag k="capacity" v="53" />
		<tag k="max_age" v="5" />
		<tag k="min_age" v="1" />
		<tag k="name" v="Eplehagen Kanvas-barnehage" />
		<tag k="no-barnehage:nsrid" v="1013867" />
		<tag k="operator" v="Stiftelsen Kanvas" />
		<tag k="operator:type" v="private" />
	</node>
	<node id="-897" lat="59.9598" lon="10.7756">
		<tag k="amenity" v="kindergarten" />
		<tag k="capacity" v="86" />
		<tag k="max_age" v="5" />
		<tag k="min_age" v="1" />
		<tag k="name" v="Engebråten barnehage" />
		<tag k="no-barnehage:nsrid" v="1017918" />
		<tag k="operator" v="Oslo kommune" />
		<tag k="operator:type" v="public" />
	</node>
	<node id="-896" lat="59.9074" lon="10.7851">
		<tag k="amenity" v="kindergarten" />
		<tag k="capacity" v="34" />
		<tag k="max_age" v="5" />
		<tag k="min_age" v="1" />
		<tag k="name" v="Enga barnehage" />
		<tag k="no-barnehage:nsrid" v="1015041" />
		<tag k="operator" v="Norlandia Barnehagene AS" />
		<tag k="operator:type" v="private" />
	</node>
	<node id="-895" lat="59.9137" lon="10.7691">
		<tag k="amenity" v="kindergarten" />
		<tag k="capacity" v="27" />
		<tag k="max_age" v="5" />
		<tag k="min_age" v="1" />
		<tag k="name" v="Enerhaugen barnehage" />
		<tag k="no-barnehage:nsrid" v="1017285" />
		<tag k="operator" v="Oslo kommune" />
		<tag k="operator:type" v="public" />
	</node>
	<node id="-893" lat="59.8467" lon="10.8077">
		<tag k="amenity" v="kindergarten" />
		<tag k="capacity" v="54" />
		<tag k="contact:website" v="http://www.oslo.kommune.no/barnehage/finn-barnehage-i-oslo/bydel-sondre-nordstrand/elverhoy-barnehage" />
		<tag k="max_age" v="5" />
		<tag k="min_age" v="1" />
		<tag k="name" v="Elverhøy barnehage" />
		<tag k="no-barnehage:nsrid" v="1013828" />
		<tag k="operator" v="Oslo kommune" />
		<tag k="operator:type" v="public" />
	</node>
	<node id="-892" lat="59.9242" lon="10.6676">
		<tag k="amenity" v="kindergarten" />
		<tag k="capacity" v="66" />
		<tag k="max_age" v="5" />
		<tag k="min_age" v="1" />
		<tag k="name" v="Elmholt barnehage" />
		<tag k="no-barnehage:nsrid" v="1017313" />
		<tag k="operator" v="Oslo kommune" />
		<tag k="operator:type" v="public" />
	</node>
	<node id="-891" lat="59.93757" lon="10.92157">
		<tag k="amenity" v="kindergarten" />
		<tag k="capacity" v="27" />
		<tag k="max_age" v="5" />
		<tag k="min_age" v="1" />
		<tag k="name" v="Ellingsrud private barnehage" />
		<tag k="no-barnehage:nsrid" v="1020334" />
		<tag k="operator" v="Ellingsrud Private barnehage Wenche Johansen" />
		<tag k="operator:type" v="private" />
	</node>
	<node id="-890" lat="59.8926" lon="10.77868">
		<tag k="amenity" v="kindergarten" />
		<tag k="capacity" v="93" />
		<tag k="max_age" v="5" />
		<tag k="min_age" v="1" />
		<tag k="name" v="Ekeberg idrettsbarnehage" />
		<tag k="no-barnehage:nsrid" v="1021409" />
		<tag k="operator" v="Ekeberg Idrettsbarnehage AS" />
		<tag k="operator:type" v="private" />
	</node>
	<node id="-889" lat="59.90502" lon="10.79355">
		<tag k="amenity" v="kindergarten" />
		<tag k="capacity" v="72" />
		<tag k="max_age" v="5" />
		<tag k="min_age" v="1" />
		<tag k="name" v="Eitillstad Fus-barnehage" />
		<tag k="no-barnehage:nsrid" v="1021613" />
		<tag k="operator" v="Eitillstad Fus barnehage AS" />
		<tag k="operator:type" v="private" />
	</node>
	<node id="-888" lat="59.8927" lon="10.8499">
		<tag k="amenity" v="kindergarten" />
		<tag k="capacity" v="66" />
		<tag k="max_age" v="5" />
		<tag k="min_age" v="1" />
		<tag k="name" v="Eftasåsen barnehage" />
		<tag k="no-barnehage:nsrid" v="1015627" />
		<tag k="operator" v="Oslo kommune" />
		<tag k="operator:type" v="public" />
	</node>
	<node id="-886" lat="59.9384" lon="10.7511">
		<tag k="amenity" v="kindergarten" />
		<tag k="capacity" v="30" />
		<tag k="max_age" v="5" />
		<tag k="min_age" v="1" />
		<tag k="name" v="Dronning Louises barnehage" />
		<tag k="no-barnehage:nsrid" v="1017284" />
		<tag k="operator" v="Oslo kommune" />
		<tag k="operator:type" v="public" />
	</node>
	<node id="-885" lat="59.9431" lon="10.7966">
		<tag k="amenity" v="kindergarten" />
		<tag k="capacity" v="93" />
		<tag k="max_age" v="5" />
		<tag k="min_age" v="1" />
		<tag k="name" v="Disengrenda barnehage" />
		<tag k="no-barnehage:nsrid" v="1017417" />
		<tag k="operator" v="Oslo kommune" />
		<tag k="operator:type" v="public" />
	</node>
	<node id="-884" lat="59.9428" lon="10.7941">
		<tag k="amenity" v="kindergarten" />
		<tag k="capacity" v="17" />
		<tag k="max_age" v="5" />
		<tag k="min_age" v="1" />
		<tag k="name" v="Disen gård Kanvas-barnehage" />
		<tag k="no-barnehage:nsrid" v="1016801" />
		<tag k="operator" v="Stiftelsen Kanvas" />
		<tag k="operator:type" v="private" />
	</node>
	<node id="-883" lat="59.9353" lon="10.7011">
		<tag k="amenity" v="kindergarten" />
		<tag k="capacity" v="52" />
		<tag k="contact:website" v="http://www.diakonhjemmet.no/borgenveien/" />
		<tag k="max_age" v="5" />
		<tag k="min_age" v="1" />
		<tag k="name" v="Diakonhjemmet barnehage Borgenveien" />
		<tag k="no-barnehage:nsrid" v="1025399" />
		<tag k="operator" v="Det Norske Diakonhjem" />
		<tag k="operator:type" v="private" />
	</node>
	<node id="-882" lat="59.9251" lon="10.7257">
		<tag k="amenity" v="kindergarten" />
		<tag k="capacity" v="86" />
		<tag k="max_age" v="5" />
		<tag k="min_age" v="1" />
		<tag k="name" v="Den Tysk-norske barnehagen i Oslo" />
		<tag k="no-barnehage:nsrid" v="1014130" />
		<tag k="operator" v="Den Tysk-Norske Skolen i Oslo" />
		<tag k="operator:type" v="private" />
	</node>
	<node id="-880" lat="59.871" lon="10.7947">
		<tag k="amenity" v="kindergarten" />
		<tag k="capacity" v="59" />
		<tag k="max_age" v="5" />
		<tag k="min_age" v="1" />
		<tag k="name" v="Den Blå Appelsin Kanvas-barnehage" />
		<tag k="no-barnehage:nsrid" v="1017180" />
		<tag k="operator" v="Stiftelsen Kanvas" />
		<tag k="operator:type" v="private" />
	</node>
	<node id="-877" lat="59.95382" lon="10.69094">
		<tag k="amenity" v="kindergarten" />
		<tag k="capacity" v="48" />
		<tag k="max_age" v="5" />
		<tag k="min_age" v="1" />
		<tag k="name" v="Davinas" />
		<tag k="no-barnehage:nsrid" v="1022291" />
		<tag k="operator" v="Davinas AS" />
		<tag k="operator:type" v="private" />
	</node>
	<node id="-876" lat="59.94406" lon="10.73518">
		<tag k="amenity" v="kindergarten" />
		<tag k="capacity" v="38" />
		<tag k="contact:website" v="http://www.damplassbarnehage.no" />
		<tag k="max_age" v="5" />
		<tag k="min_age" v="1" />
		<tag k="name" v="Damplassen barnehage" />
		<tag k="no-barnehage:nsrid" v="1019707" />
		<tag k="operator" v="Damplassen barnehage Sa" />
		<tag k="operator:type" v="private" />
	</node>
	<node id="-875" lat="59.9404" lon="10.6872">
		<tag k="amenity" v="kindergarten" />
		<tag k="capacity" v="81" />
		<tag k="max_age" v="5" />
		<tag k="min_age" v="1" />
		<tag k="name" v="Dalskroken barnehage" />
		<tag k="no-barnehage:nsrid" v="1013852" />
		<tag k="operator" v="Oslo kommune" />
		<tag k="operator:type" v="public" />
	</node>
	<node id="-874" lat="59.90305" lon="10.82484">
		<tag k="amenity" v="kindergarten" />
		<tag k="capacity" v="60" />
		<tag k="max_age" v="5" />
		<tag k="min_age" v="1" />
		<tag k="name" v="Christinedal Kunst og kulturbarnehage" />
		<tag k="no-barnehage:nsrid" v="1022096" />
		<tag k="operator" v="Kulturbarna AS" />
		<tag k="operator:type" v="private" />
	</node>
	<node id="-873" lat="59.94703" lon="10.90474">
		<tag k="amenity" v="kindergarten" />
		<tag k="capacity" v="55" />
		<tag k="contact:website" v="http://www.christianiabarnehaver.no" />
		<tag k="max_age" v="5" />
		<tag k="min_age" v="1" />
		<tag k="name" v="Christiania barnehave Høybråten" />
		<tag k="no-barnehage:nsrid" v="1020232" />
		<tag k="operator" v="Christiania Barnehave Høybråten AS" />
		<tag k="operator:type" v="private" />
	</node>
	<node id="-872" lat="59.82575" lon="10.83814">
		<tag k="amenity" v="kindergarten" />
		<tag k="capacity" v="53" />
		<tag k="contact:website" v="http://www.christianiabarnehaver.no" />
		<tag k="max_age" v="5" />
		<tag k="min_age" v="1" />
		<tag k="name" v="Christiania barnehave Bjørndal" />
		<tag k="no-barnehage:nsrid" v="1020069" />
		<tag k="operator" v="Christiania Barnehave Bjørndal AS" />
		<tag k="operator:type" v="private" />
	</node>
	<node id="-871" lat="59.92491" lon="10.69035">
		<tag k="amenity" v="kindergarten" />
		<tag k="capacity" v="18" />
		<tag k="max_age" v="5" />
		<tag k="min_age" v="1" />
		<tag k="name" v="Casinetto Borettslags barnehage" />
		<tag k="no-barnehage:nsrid" v="1020452" />
		<tag k="operator" v="Casinetto Borettslag" />
		<tag k="operator:type" v="private" />
	</node>
	<node id="-870" lat="59.926" lon="10.6926">
		<tag k="amenity" v="kindergarten" />
		<tag k="capacity" v="63" />
		<tag k="contact:website" v="http://www.oslo.kommune.no/barnehage/finn-barnehage-i-oslo/bydel-ullern/casinetto-barnehage/" />
		<tag k="max_age" v="5" />
		<tag k="min_age" v="1" />
		<tag k="name" v="Casinetto barnehage" />
		<tag k="no-barnehage:nsrid" v="1013845" />
		<tag k="operator" v="Oslo kommune" />
		<tag k="operator:type" v="public" />
	</node>
	<node id="-869" lat="59.96374" lon="10.69313">
		<tag k="amenity" v="kindergarten" />
		<tag k="capacity" v="22" />
		<tag k="contact:website" v="http://www.montessori.no" />
		<tag k="max_age" v="5" />
		<tag k="min_age" v="1" />
		<tag k="name" v="Casa Dei Bambini" />
		<tag k="no-barnehage:nsrid" v="1021923" />
		<tag k="operator" v="Stiftelsen Casa Dei Bambini" />
		<tag k="operator:type" v="private" />
	</node>
	<node id="-868" lat="59.88294" lon="10.84386">
		<tag k="amenity" v="kindergarten" />
		<tag k="name" v="Bøler Åpne barnehage" />
		<tag k="no-barnehage:nsrid" v="1020368" />
		<tag k="operator" v="Forening Bøler Åpne barnehage" />
		<tag k="operator:type" v="private" />
	</node>
	<node id="-867" lat="59.8832" lon="10.8445">
		<tag k="amenity" v="kindergarten" />
		<tag k="capacity" v="53" />
		<tag k="max_age" v="5" />
		<tag k="min_age" v="1" />
		<tag k="name" v="Bøler Sentrum barnehage" />
		<tag k="no-barnehage:nsrid" v="1017283" />
		<tag k="operator" v="Oslo kommune" />
		<tag k="operator:type" v="public" />
	</node>
	<node id="-865" lat="59.8676" lon="10.8443">
		<tag k="amenity" v="kindergarten" />
		<tag k="capacity" v="30" />
		<tag k="max_age" v="5" />
		<tag k="min_age" v="1" />
		<tag k="name" v="Bøler menighets barnehage" />
		<tag k="no-barnehage:nsrid" v="1013744" />
		<tag k="operator" v="Bøler Sokn" />
		<tag k="operator:type" v="private" />
	</node>
	<node id="-864" lat="59.9209" lon="10.7311">
		<tag k="amenity" v="kindergarten" />
		<tag k="capacity" v="36" />
		<tag k="max_age" v="2" />
		<tag k="min_age" v="1" />
		<tag k="name" v="Bygården barnehage" />
		<tag k="no-barnehage:nsrid" v="1016437" />
		<tag k="operator" v="Oslo kommune" />
		<tag k="operator:type" v="public" />
	</node>
	<node id="-863" lat="59.90057" lon="10.68083">
		<tag k="amenity" v="kindergarten" />
		<tag k="capacity" v="13" />
		<tag k="contact:website" v="http://www.bygdoylundbarnehage.no" />
		<tag k="max_age" v="5" />
		<tag k="min_age" v="1" />
		<tag k="name" v="Bygdøylund barnehage" />
		<tag k="no-barnehage:nsrid" v="1019775" />
		<tag k="operator" v="Else Hjort Barnehagestiftelse Bygdøylund barnehage" />
		<tag k="operator:type" v="private" />
	</node>
	<node id="-862" lat="59.95184" lon="10.75848">
		<tag k="amenity" v="kindergarten" />
		<tag k="capacity" v="16" />
		<tag k="contact:website" v="http://www.bukkenbruse.barnehage.no" />
		<tag k="max_age" v="5" />
		<tag k="min_age" v="1" />
		<tag k="name" v="Bukken Bruse barnehage" />
		<tag k="no-barnehage:nsrid" v="1019935" />
		<tag k="operator" v="Bukken Bruse barnehage Sa" />
		<tag k="operator:type" v="private" />
	</node>
	<node id="-861" lat="59.95149" lon="10.77767">
		<tag k="amenity" v="kindergarten" />
		<tag k="capacity" v="47" />
		<tag k="max_age" v="5" />
		<tag k="min_age" v="1" />
		<tag k="name" v="Bråtenalleen barnehage" />
		<tag k="no-barnehage:nsrid" v="1017416" />
		<tag k="operator" v="Oslo kommune" />
		<tag k="operator:type" v="public" />
	</node>
	<node id="-860" lat="59.86644" lon="10.7921">
		<tag k="amenity" v="kindergarten" />
		<tag k="capacity" v="64" />
		<tag k="contact:website" v="http://www.braaten.barnehage.no" />
		<tag k="max_age" v="5" />
		<tag k="min_age" v="1" />
		<tag k="name" v="Bråten barnehage" />
		<tag k="no-barnehage:nsrid" v="1020012" />
		<tag k="operator" v="Bråten barnehage Sa" />
		<tag k="operator:type" v="private" />
	</node>
	<node id="-859" lat="59.89897" lon="10.79596">
		<tag k="amenity" v="kindergarten" />
		<tag k="capacity" v="49" />
		<tag k="max_age" v="5" />
		<tag k="min_age" v="1" />
		<tag k="name" v="Brumlebassen barnehage" />
		<tag k="no-barnehage:nsrid" v="1021473" />
		<tag k="operator" v="Brumlebassen barnehage AS" />
		<tag k="operator:type" v="private" />
	</node>
	<node id="-858" lat="59.9428" lon="10.8183">
		<tag k="amenity" v="kindergarten" />
		<tag k="capacity" v="72" />
		<tag k="max_age" v="5" />
		<tag k="min_age" v="1" />
		<tag k="name" v="Brobekk barnehage" />
		<tag k="no-barnehage:nsrid" v="1016974" />
		<tag k="operator" v="Oslo kommune" />
		<tag k="operator:type" v="public" />
	</node>
	<node id="-856" lat="59.914" lon="10.7607">
		<tag k="amenity" v="kindergarten" />
		<tag k="capacity" v="27" />
		<tag k="max_age" v="5" />
		<tag k="min_age" v="1" />
		<tag k="name" v="Breigata barnehage" />
		<tag k="no-barnehage:nsrid" v="1015621" />
		<tag k="operator" v="Oslo kommune" />
		<tag k="operator:type" v="public" />
	</node>
	<node id="-855" lat="59.9471" lon="10.8586">
		<tag k="amenity" v="kindergarten" />
		<tag k="capacity" v="51" />
		<tag k="max_age" v="5" />
		<tag k="min_age" v="1" />
		<tag k="name" v="Bredtvet barnehage" />
		<tag k="no-barnehage:nsrid" v="1017415" />
		<tag k="operator" v="Oslo kommune" />
		<tag k="operator:type" v="public" />
	</node>
	<node id="-852" lat="59.92722" lon="10.73505">
		<tag k="amenity" v="kindergarten" />
		<tag k="capacity" v="30" />
		<tag k="max_age" v="5" />
		<tag k="min_age" v="1" />
		<tag k="name" v="Bolteløkka barnehage" />
		<tag k="no-barnehage:nsrid" v="1020066" />
		<tag k="operator" v="Bolteløkka barnehage AS" />
		<tag k="operator:type" v="private" />
	</node>
	<node id="-851" lat="59.8749" lon="10.8435">
		<tag k="amenity" v="kindergarten" />
		<tag k="name" v="Bogerud åpen barnehage" />
		<tag k="no-barnehage:nsrid" v="1018533" />
		<tag k="operator" v="Oslo kommune" />
		<tag k="operator:type" v="public" />
	</node>
	<node id="-850" lat="59.84173" lon="10.82982">
		<tag k="amenity" v="kindergarten" />
		<tag k="capacity" v="65" />
		<tag k="max_age" v="5" />
		<tag k="min_age" v="1" />
		<tag k="name" v="Blakkensvei barnehage" />
		<tag k="no-barnehage:nsrid" v="1019845" />
		<tag k="operator" v="Oslo kommune" />
		<tag k="operator:type" v="public" />
	</node>
	<node id="-849" lat="59.9431" lon="10.906">
		<tag k="amenity" v="kindergarten" />
		<tag k="capacity" v="49" />
		<tag k="max_age" v="5" />
		<tag k="min_age" v="1" />
		<tag k="name" v="Bjørnheim barnehage" />
		<tag k="no-barnehage:nsrid" v="1017414" />
		<tag k="operator" v="Oslo kommune" />
		<tag k="operator:type" v="public" />
	</node>
	<node id="-848" lat="59.8498" lon="10.8242">
		<tag k="amenity" v="kindergarten" />
		<tag k="capacity" v="89" />
		<tag k="max_age" v="5" />
		<tag k="min_age" v="1" />
		<tag k="name" v="Bjørnebo barnehage" />
		<tag k="no-barnehage:nsrid" v="1018404" />
		<tag k="operator" v="Oslo kommune" />
		<tag k="operator:type" v="public" />
	</node>
	<node id="-847" lat="59.9405" lon="10.7576">
		<tag k="amenity" v="kindergarten" />
		<tag k="capacity" v="45" />
		<tag k="max_age" v="5" />
		<tag k="min_age" v="1" />
		<tag k="name" v="Bjølsenparken barnehage" />
		<tag k="no-barnehage:nsrid" v="1014134" />
		<tag k="operator" v="Oslo kommune" />
		<tag k="operator:type" v="public" />
	</node>
	<node id="-846" lat="59.9433" lon="10.7653">
		<tag k="amenity" v="kindergarten" />
		<tag k="capacity" v="36" />
		<tag k="max_age" v="2" />
		<tag k="min_age" v="1" />
		<tag k="name" v="Bjølsendumpa barnehage" />
		<tag k="no-barnehage:nsrid" v="1015617" />
		<tag k="operator" v="Oslo kommune" />
		<tag k="operator:type" v="public" />
	</node>
	<node id="-845" lat="59.9409" lon="10.7576">
		<tag k="amenity" v="kindergarten" />
		<tag k="capacity" v="45" />
		<tag k="max_age" v="5" />
		<tag k="min_age" v="1" />
		<tag k="name" v="Bjølsen barnehage" />
		<tag k="no-barnehage:nsrid" v="1017279" />
		<tag k="operator" v="Oslo kommune" />
		<tag k="operator:type" v="public" />
	</node>
	<node id="-844" lat="59.9397" lon="10.8226">
		<tag k="amenity" v="kindergarten" />
		<tag k="capacity" v="72" />
		<tag k="max_age" v="5" />
		<tag k="min_age" v="1" />
		<tag k="name" v="Bjerkedalen barnehage" />
		<tag k="no-barnehage:nsrid" v="1014774" />
		<tag k="operator" v="Oslo kommune" />
		<tag k="operator:type" v="public" />
	</node>
	<node id="-843" lat="59.9465" lon="10.782">
		<tag k="amenity" v="kindergarten" />
		<tag k="capacity" v="63" />
		<tag k="contact:website" v="http://bjerkealleen.kanvas.no/" />
		<tag k="max_age" v="5" />
		<tag k="min_age" v="1" />
		<tag k="name" v="Bjerkealleen Kanvas-barnehage" />
		<tag k="no-barnehage:nsrid" v="1015480" />
		<tag k="operator" v="Stiftelsen Kanvas" />
		<tag k="operator:type" v="private" />
	</node>
	<node id="-842" lat="59.92514" lon="10.7603">
		<tag k="amenity" v="kindergarten" />
		<tag k="capacity" v="15" />
		<tag k="max_age" v="5" />
		<tag k="min_age" v="1" />
		<tag k="name" v="Birk barnehage" />
		<tag k="no-barnehage:nsrid" v="1022309" />
		<tag k="operator" v="Birk barnehage AS" />
		<tag k="operator:type" v="private" />
	</node>
	<node id="-841" lat="59.9193" lon="10.6354">
		<tag k="amenity" v="kindergarten" />
		<tag k="capacity" v="54" />
		<tag k="max_age" v="5" />
		<tag k="min_age" v="1" />
		<tag k="name" v="Bikuben barnehage" />
		<tag k="no-barnehage:nsrid" v="1018380" />
		<tag k="operator" v="Oslo kommune" />
		<tag k="operator:type" v="public" />
	</node>
	<node id="-840" lat="59.9426" lon="10.84918">
		<tag k="amenity" v="kindergarten" />
		<tag k="capacity" v="18" />
		<tag k="max_age" v="5" />
		<tag k="min_age" v="3" />
		<tag k="name" v="Bever'n barnehage Samvirkeforetak" />
		<tag k="no-barnehage:nsrid" v="1020335" />
		<tag k="operator" v="Bever'N barnehage Sa" />
		<tag k="operator:type" v="private" />
	</node>
	<node id="-839" lat="59.9137" lon="10.7142">
		<tag k="amenity" v="kindergarten" />
		<tag k="capacity" v="123" />
		<tag k="max_age" v="5" />
		<tag k="min_age" v="1" />
		<tag k="name" v="Betha Thorsens Kanvas-barnehage" />
		<tag k="no-barnehage:nsrid" v="1018581" />
		<tag k="operator" v="Stiftelsen Kanvas" />
		<tag k="operator:type" v="private" />
	</node>
	<node id="-838" lat="59.92369" lon="10.66213">
		<tag k="amenity" v="kindergarten" />
		<tag k="capacity" v="26" />
		<tag k="max_age" v="5" />
		<tag k="min_age" v="1" />
		<tag k="name" v="Bestum barnehage" />
		<tag k="no-barnehage:nsrid" v="1019896" />
		<tag k="operator" v="Barnehagene på Ullern AS" />
		<tag k="operator:type" v="private" />
	</node>
	<node id="-837" lat="59.9485" lon="10.7384">
		<tag k="amenity" v="kindergarten" />
		<tag k="capacity" v="120" />
		<tag k="max_age" v="5" />
		<tag k="min_age" v="1" />
		<tag k="name" v="Bergtunet barnehage" />
		<tag k="no-barnehage:nsrid" v="1018596" />
		<tag k="operator" v="Oslo kommune" />
		<tag k="operator:type" v="public" />
	</node>
	<node id="-836" lat="59.9485" lon="10.7384">
		<tag k="amenity" v="kindergarten" />
		<tag k="capacity" v="36" />
		<tag k="max_age" v="5" />
		<tag k="min_age" v="1" />
		<tag k="name" v="Berglåven barnehage" />
		<tag k="no-barnehage:nsrid" v="1017752" />
		<tag k="operator" v="Oslo kommune" />
		<tag k="operator:type" v="public" />
	</node>
	<node id="-835" lat="59.9005" lon="10.6803">
		<tag k="amenity" v="kindergarten" />
		<tag k="capacity" v="77" />
		<tag k="max_age" v="5" />
		<tag k="min_age" v="1" />
		<tag k="name" v="Bergebo barnehage" />
		<tag k="no-barnehage:nsrid" v="1017413" />
		<tag k="operator" v="Oslo kommune" />
		<tag k="operator:type" v="public" />
	</node>
	<node id="-834" lat="59.9485" lon="10.7384">
		<tag k="amenity" v="kindergarten" />
		<tag k="capacity" v="16" />
		<tag k="max_age" v="5" />
		<tag k="min_age" v="1" />
		<tag k="name" v="Berg gård barnehage" />
		<tag k="no-barnehage:nsrid" v="1012953" />
		<tag k="operator" v="Oslo kommune" />
		<tag k="operator:type" v="public" />
	</node>
	<node id="-833" lat="59.9192" lon="10.7773">
		<tag k="amenity" v="kindergarten" />
		<tag k="capacity" v="105" />
		<tag k="max_age" v="5" />
		<tag k="min_age" v="1" />
		<tag k="name" v="Bellevue gård barnehage" />
		<tag k="no-barnehage:nsrid" v="1012554" />
		<tag k="operator" v="Oslo kommune" />
		<tag k="operator:type" v="public" />
	</node>
	<node id="-832" lat="59.8863" lon="10.7866">
		<tag k="amenity" v="kindergarten" />
		<tag k="capacity" v="37" />
		<tag k="max_age" v="5" />
		<tag k="min_age" v="1" />
		<tag k="name" v="Bekkelaget kirkes barnehage" />
		<tag k="no-barnehage:nsrid" v="1016745" />
		<tag k="operator" v="Bekkelaget og Ormøy Sokn" />
		<tag k="operator:type" v="private" />
	</node>
	<node id="-830" lat="59.8912" lon="10.797">
		<tag k="amenity" v="kindergarten" />
		<tag k="capacity" v="102" />
		<tag k="max_age" v="5" />
		<tag k="min_age" v="1" />
		<tag k="name" v="Bauneveien barnehage" />
		<tag k="no-barnehage:nsrid" v="1013820" />
		<tag k="operator" v="Oslo kommune" />
		<tag k="operator:type" v="public" />
	</node>
	<node id="-829" lat="59.9252" lon="10.8652">
		<tag k="amenity" v="kindergarten" />
		<tag k="capacity" v="156" />
		<tag k="contact:website" v="http://www.bydel-alna.oslo.kommune.no" />
		<tag k="max_age" v="5" />
		<tag k="min_age" v="1" />
		<tag k="name" v="Barneslottet barnehage" />
		<tag k="no-barnehage:nsrid" v="1014281" />
		<tag k="operator" v="Oslo kommune" />
		<tag k="operator:type" v="public" />
	</node>
	<node id="-828" lat="59.9409" lon="10.8184">
		<tag k="amenity" v="kindergarten" />
		<tag k="capacity" v="42" />
		<tag k="max_age" v="5" />
		<tag k="min_age" v="1" />
		<tag k="name" v="Barnehagenvår Sofus" />
		<tag k="no-barnehage:nsrid" v="1016032" />
		<tag k="operator" v="Mazut Oslo AS" />
		<tag k="operator:type" v="private" />
	</node>
	<node id="-827" lat="59.9312" lon="10.7873">
		<tag k="amenity" v="kindergarten" />
		<tag k="capacity" v="59" />
		<tag k="max_age" v="5" />
		<tag k="min_age" v="1" />
		<tag k="name" v="Barnehagenvår Løren" />
		<tag k="no-barnehage:nsrid" v="1017711" />
		<tag k="operator" v="Mazut Oslo AS" />
		<tag k="operator:type" v="private" />
	</node>
	<node id="-826" lat="59.9478" lon="10.783">
		<tag k="amenity" v="kindergarten" />
		<tag k="capacity" v="43" />
		<tag k="max_age" v="5" />
		<tag k="min_age" v="1" />
		<tag k="name" v="Barnehagenvår Josefine" />
		<tag k="no-barnehage:nsrid" v="1012613" />
		<tag k="operator" v="Mazut Oslo AS" />
		<tag k="operator:type" v="private" />
	</node>
	<node id="-825" lat="59.94358" lon="10.71598">
		<tag k="amenity" v="kindergarten" />
		<tag k="capacity" v="45" />
		<tag k="max_age" v="5" />
		<tag k="min_age" v="1" />
		<tag k="name" v="Barnebo barnehage" />
		<tag k="no-barnehage:nsrid" v="1020076" />
		<tag k="operator" v="Stiftelsen Forskningssenterets Barnehager" />
		<tag k="operator:type" v="private" />
	</node>
	<node id="-824" lat="59.9307" lon="10.7649">
		<tag k="amenity" v="kindergarten" />
		<tag k="capacity" v="184" />
		<tag k="max_age" v="5" />
		<tag k="min_age" v="1" />
		<tag k="name" v="Barnas Hus barnehage" />
		<tag k="no-barnehage:nsrid" v="1013890" />
		<tag k="operator" v="Oslo kommune" />
		<tag k="operator:type" v="public" />
	</node>
	<node id="-823" lat="59.93866" lon="10.8319">
		<tag k="amenity" v="kindergarten" />
		<tag k="capacity" v="39" />
		<tag k="contact:website" v="http://www.barnasbarnehage.no" />
		<tag k="max_age" v="5" />
		<tag k="min_age" v="1" />
		<tag k="name" v="Barnas barnehage Lunden" />
		<tag k="no-barnehage:nsrid" v="1021039" />
		<tag k="operator" v="Barnas barnehage Lunden AS" />
		<tag k="operator:type" v="private" />
	</node>
	<node id="-822" lat="59.94939" lon="10.64433">
		<tag k="amenity" v="kindergarten" />
		<tag k="capacity" v="67" />
		<tag k="contact:website" v="http://www.barnasbarnehage.no" />
		<tag k="max_age" v="5" />
		<tag k="min_age" v="1" />
		<tag k="name" v="Barnas barnehage Arnebråtveien" />
		<tag k="no-barnehage:nsrid" v="1021040" />
		<tag k="operator" v="Barnas barnehage Arnebråtveien AS" />
		<tag k="operator:type" v="private" />
	</node>
	<node id="-821" lat="59.95198" lon="10.65597">
		<tag k="amenity" v="kindergarten" />
		<tag k="capacity" v="26" />
		<tag k="contact:website" v="http://www.barnasbarnehage.no" />
		<tag k="max_age" v="5" />
		<tag k="min_age" v="1" />
		<tag k="name" v="Barnas barnehage" />
		<tag k="no-barnehage:nsrid" v="1020868" />
		<tag k="operator" v="Barnas barnehage AS" />
		<tag k="operator:type" v="private" />
	</node>
	<node id="-819" lat="59.85302" lon="10.8108">
		<tag k="amenity" v="kindergarten" />
		<tag k="capacity" v="57" />
		<tag k="max_age" v="5" />
		<tag k="min_age" v="1" />
		<tag k="name" v="Bakketoppen barnehage" />
		<tag k="no-barnehage:nsrid" v="1021272" />
		<tag k="operator" v="Barn i Sentrum AS" />
		<tag k="operator:type" v="private" />
	</node>
	<node id="-818" lat="59.8734" lon="10.8321">
		<tag k="amenity" v="kindergarten" />
		<tag k="capacity" v="72" />
		<tag k="max_age" v="5" />
		<tag k="min_age" v="1" />
		<tag k="name" v="Bakkehavn barnehage" />
		<tag k="no-barnehage:nsrid" v="1016924" />
		<tag k="operator" v="Oslo kommune" />
		<tag k="operator:type" v="public" />
	</node>
	<node id="-817" lat="59.94717" lon="10.75524">
		<tag k="amenity" v="kindergarten" />
		<tag k="capacity" v="31" />
		<tag k="contact:website" v="http://bakkehaugen.barnehage.no" />
		<tag k="max_age" v="5" />
		<tag k="min_age" v="1" />
		<tag k="name" v="Bakkehaugen barnehage" />
		<tag k="no-barnehage:nsrid" v="1020912" />
		<tag k="operator" v="Bakkehaugen barnehage Sa" />
		<tag k="operator:type" v="private" />
	</node>
	<node id="-816" lat="59.90285" lon="10.77431">
		<tag k="amenity" v="kindergarten" />
		<tag k="capacity" v="72" />
		<tag k="max_age" v="5" />
		<tag k="min_age" v="1" />
		<tag k="name" v="Baglerbyen FUS barnehage" />
		<tag k="no-barnehage:nsrid" v="1025458" />
		<tag k="operator" v="Baglerbyen Fus barnehage AS" />
		<tag k="operator:type" v="private" />
	</node>
	<node id="-815" lat="59.9462" lon="10.763">
		<tag k="amenity" v="kindergarten" />
		<tag k="capacity" v="53" />
		<tag k="max_age" v="5" />
		<tag k="min_age" v="1" />
		<tag k="name" v="Badebakken barnehage" />
		<tag k="no-barnehage:nsrid" v="1015635" />
		<tag k="operator" v="Oslo kommune" />
		<tag k="operator:type" v="public" />
	</node>
	<node id="-814" lat="59.839" lon="10.8014">
		<tag k="amenity" v="kindergarten" />
		<tag k="capacity" v="55" />
		<tag k="max_age" v="5" />
		<tag k="min_age" v="1" />
		<tag k="name" v="Asperud FUS barnehage" />
		<tag k="no-barnehage:nsrid" v="1012547" />
		<tag k="operator" v="Asperud Fus barnehage AS" />
		<tag k="operator:type" v="private" />
	</node>
	<node id="-813" lat="59.9243" lon="10.6845">
		<tag k="amenity" v="kindergarten" />
		<tag k="capacity" v="49" />
		<tag k="max_age" v="5" />
		<tag k="min_age" v="1" />
		<tag k="name" v="Askeveien barnehage" />
		<tag k="no-barnehage:nsrid" v="1018358" />
		<tag k="operator" v="Oslo kommune" />
		<tag k="operator:type" v="public" />
	</node>
	<node id="-812" lat="59.9365" lon="10.7776">
		<tag k="amenity" v="kindergarten" />
		<tag k="capacity" v="45" />
		<tag k="max_age" v="5" />
		<tag k="min_age" v="1" />
		<tag k="name" v="Askeladden barnehage" />
		<tag k="no-barnehage:nsrid" v="1016788" />
		<tag k="operator" v="Oslo kommune" />
		<tag k="operator:type" v="public" />
	</node>
	<node id="-811" lat="59.91291" lon="10.72089">
		<tag k="amenity" v="kindergarten" />
		<tag k="capacity" v="41" />
		<tag k="max_age" v="5" />
		<tag k="min_age" v="1" />
		<tag k="name" v="Ankerhagen barnehage" />
		<tag k="no-barnehage:nsrid" v="1020439" />
		<tag k="operator" v="Ankerhagen barnehage Sa" />
		<tag k="operator:type" v="private" />
	</node>
	<node id="-810" lat="59.9622" lon="10.7568">
		<tag k="amenity" v="kindergarten" />
		<tag k="capacity" v="50" />
		<tag k="contact:website" v="http://www.ulna.no" />
		<tag k="max_age" v="5" />
		<tag k="min_age" v="1" />
		<tag k="name" v="Andromeda barnehage" />
		<tag k="no-barnehage:nsrid" v="1017626" />
		<tag k="operator" v="Ulna AS" />
		<tag k="operator:type" v="private" />
	</node>
	<node id="-809" lat="59.9633" lon="10.8697">
		<tag k="amenity" v="kindergarten" />
		<tag k="capacity" v="117" />
		<tag k="contact:website" v="http://www.oslo.kommune.no/barnehage/finn-barnehage-i-oslo/bydel-grorud/ammerudkollen-barnehage/" />
		<tag k="max_age" v="5" />
		<tag k="min_age" v="1" />
		<tag k="name" v="Ammerudkollen barnehage" />
		<tag k="no-barnehage:nsrid" v="1025410" />
		<tag k="operator" v="Oslo kommune" />
		<tag k="operator:type" v="public" />
	</node>
	<node id="-808" lat="59.965" lon="10.8775">
		<tag k="amenity" v="kindergarten" />
		<tag k="capacity" v="54" />
		<tag k="contact:website" v="http://www.oslo.kommune.no/barnehage/finn-barnehage-i-oslo/bydel-grorud/ammerudgrenda-barnehage/" />
		<tag k="max_age" v="5" />
		<tag k="min_age" v="1" />
		<tag k="name" v="Ammerudgrenda barnehage" />
		<tag k="no-barnehage:nsrid" v="1017277" />
		<tag k="operator" v="Oslo kommune" />
		<tag k="operator:type" v="public" />
	</node>
	<node id="-807" lat="59.9641" lon="10.8742">
		<tag k="amenity" v="kindergarten" />
		<tag k="capacity" v="126" />
		<tag k="max_age" v="5" />
		<tag k="min_age" v="1" />
		<tag k="name" v="Ammerudenga barnehage" />
		<tag k="no-barnehage:nsrid" v="1016935" />
		<tag k="operator" v="Oslo kommune" />
		<tag k="operator:type" v="public" />
	</node>
	<node id="-806" lat="59.9146" lon="10.7945">
		<tag k="amenity" v="kindergarten" />
		<tag k="capacity" v="63" />
		<tag k="contact:website" v="http://www.alleensansehage.no/" />
		<tag k="max_age" v="5" />
		<tag k="min_age" v="1" />
		<tag k="name" v="Alleen Sansehage" />
		<tag k="no-barnehage:nsrid" v="1013476" />
		<tag k="operator" v="Ulna AS" />
		<tag k="operator:type" v="private" />
	</node>
	<node id="-804" lat="59.9207" lon="10.7566">
		<tag k="amenity" v="kindergarten" />
		<tag k="capacity" v="55" />
		<tag k="max_age" v="5" />
		<tag k="min_age" v="1" />
		<tag k="name" v="Akersløkka barnehage" />
		<tag k="no-barnehage:nsrid" v="1012615" />
		<tag k="operator" v="Oslo kommune" />
		<tag k="operator:type" v="public" />
	</node>
	<node id="-803" lat="59.9253" lon="10.7473">
		<tag k="amenity" v="kindergarten" />
		<tag k="capacity" v="53" />
		<tag k="max_age" v="5" />
		<tag k="min_age" v="1" />
		<tag k="name" v="Akersbakken barnehage" />
		<tag k="no-barnehage:nsrid" v="1016934" />
		<tag k="operator" v="Oslo kommune" />
		<tag k="operator:type" v="public" />
	</node>
	<node id="-802" lat="59.90975" lon="10.7238">
		<tag k="amenity" v="kindergarten" />
		<tag k="capacity" v="44" />
		<tag k="contact:website" v="http://www.akerbryggebarnehage.no" />
		<tag k="max_age" v="5" />
		<tag k="min_age" v="1" />
		<tag k="name" v="Aker Brygge barnehage" />
		<tag k="no-barnehage:nsrid" v="1019882" />
		<tag k="operator" v="Aker Brygge barnehage Sa" />
		<tag k="operator:type" v="private" />
	</node>
	<node id="-800" lat="59.8798" lon="10.82714">
		<tag k="amenity" v="kindergarten" />
		<tag k="capacity" v="32" />
		<tag k="max_age" v="5" />
		<tag k="min_age" v="1" />
		<tag k="name" v="Abildsø menighetsbarnehage" />
		<tag k="no-barnehage:nsrid" v="1026605" />
		<tag k="operator" v="Oslo Misjonskirke Betlehem" />
		<tag k="operator:type" v="private" />
	</node>
	<node id="-799" lat="59.90791" lon="10.78429">
		<tag k="amenity" v="kindergarten" />
		<tag k="capacity" v="24" />
		<tag k="max_age" v="5" />
		<tag k="min_age" v="1" />
		<tag k="name" v="0 - 6 Vålerenggata barnehage" />
		<tag k="no-barnehage:nsrid" v="1022323" />
		<tag k="operator" v="0 - 6 Vålerenggata barnehage AS" />
		<tag k="operator:type" v="private" />
	</node>
	<node id="-798" lat="59.91102" lon="10.78189">
		<tag k="amenity" v="kindergarten" />
		<tag k="capacity" v="27" />
		<tag k="max_age" v="5" />
		<tag k="min_age" v="1" />
		<tag k="name" v="0 - 6 Ullensakergata barnehage" />
		<tag k="no-barnehage:nsrid" v="1021945" />
		<tag k="operator" v="0 - 6 Ullensakergata barnehage AS" />
		<tag k="operator:type" v="private" />
	</node>
</osm>
