<?xml version="1.0" encoding="UTF-8"?>
<osm version="0.6" generator="osmapis">
	<node lat="64.18802" lon="10.42136" id="-5185">
		<tag k="ADDRESS" v="Hofstadlia 61, 7194 BRANDSFJORD" />
		<tag k="amenity" v="kindergarten" />
		<tag k="capacity" v="18" />
		<tag k="contact:website" v="http://www.roan.kommune.no/" />
		<tag k="max_age" v="5" />
		<tag k="min_age" v="1" />
		<tag k="name" v="Brandsfjord barnehage" />
		<tag k="no-barnehage:nsrid" v="982366291" />
		<tag k="operator" v="Åfjord kommune" />
		<tag k="operator:type" v="public" />
	</node>
	<node lat="63.98574" lon="10.42111" id="-5186">
		<tag k="ADDRESS" v="Stordalsveien 1081, 7170 ÅFJORD" />
		<tag k="amenity" v="kindergarten" />
		<tag k="capacity" v="47" />
		<tag k="max_age" v="5" />
		<tag k="min_age" v="1" />
		<tag k="name" v="By barnehage" />
		<tag k="no-barnehage:nsrid" v="876832682" />
		<tag k="operator" v="Åfjord kommune" />
		<tag k="operator:type" v="public" />
	</node>
	<node lat="63.96849" lon="10.21926" id="-5187">
		<tag k="ADDRESS" v="Prestgårdslia 2, 7170 ÅFJORD" />
		<tag k="amenity" v="kindergarten" />
		<tag k="capacity" v="39" />
		<tag k="max_age" v="5" />
		<tag k="min_age" v="1" />
		<tag k="name" v="NLM barnehagene avd. Heggli barnehage" />
		<tag k="no-barnehage:nsrid" v="973382624" />
		<tag k="operator" v="Nlm-Barnehagene AS" />
		<tag k="operator:type" v="private" />
	</node>
	<node lat="64.02717" lon="10.07953" id="-5188">
		<tag k="ADDRESS" v="Stokksundveien 1080, 7177 REVSNES" />
		<tag k="amenity" v="kindergarten" />
		<tag k="capacity" v="20" />
		<tag k="max_age" v="5" />
		<tag k="min_age" v="1" />
		<tag k="name" v="Stoksund barnehage" />
		<tag k="no-barnehage:nsrid" v="975321061" />
		<tag k="operator" v="Åfjord kommune" />
		<tag k="operator:type" v="public" />
	</node>
	<node lat="64.17793" lon="10.22703" id="-5189">
		<tag k="ADDRESS" v="Øygårdsveien 110, 7180 ROAN" />
		<tag k="amenity" v="kindergarten" />
		<tag k="capacity" v="19" />
		<tag k="max_age" v="5" />
		<tag k="min_age" v="1" />
		<tag k="name" v="Tusseladden barnehage" />
		<tag k="no-barnehage:nsrid" v="974025272" />
		<tag k="operator" v="Åfjord kommune" />
		<tag k="operator:type" v="public" />
	</node>
	<node lat="64.24842" lon="10.33352" id="-5190">
		<tag k="ADDRESS" v="Bessakerveien 414, 7190 BESSAKER" />
		<tag k="amenity" v="kindergarten" />
		<tag k="capacity" v="8" />
		<tag k="max_age" v="5" />
		<tag k="min_age" v="1" />
		<tag k="name" v="Vik-bessaker barnehage" />
		<tag k="no-barnehage:nsrid" v="982366267" />
		<tag k="operator" v="Åfjord kommune" />
		<tag k="operator:type" v="public" />
	</node>
	<node lat="63.96677" lon="10.22242" id="-5191">
		<tag k="ADDRESS" v="Snauvollan 4, 7170 ÅFJORD" />
		<tag k="amenity" v="kindergarten" />
		<tag k="capacity" v="68" />
		<tag k="max_age" v="5" />
		<tag k="min_age" v="1" />
		<tag k="name" v="Å barnehage" />
		<tag k="no-barnehage:nsrid" v="874024872" />
		<tag k="operator" v="Åfjord kommune" />
		<tag k="operator:type" v="public" />
	</node>
</osm>
