<?xml version="1.0" encoding="UTF-8"?>
<osm generator="osmapis" version="0.6">
	<node id="-2012" lat="61.59309" lon="10.05235">
		<tag k="amenity" v="kindergarten" />
		<tag k="capacity" v="18" />
		<tag k="contact:email" v="skolen@venabygdmontessori.no" />
		<tag k="max_age" v="5" />
		<tag k="min_age" v="1" />
		<tag k="name" v="Venabygd montessoribarnehage" />
		<tag k="no-barnehage:nsrid" v="1019696" />
		<tag k="operator" v="Venabygd Montessoribarnehage Sa" />
		<tag k="operator:type" v="private" />
	</node>
	<node id="-2003" lat="61.4565" lon="10.1948">
		<tag k="amenity" v="kindergarten" />
		<tag k="capacity" v="58" />
		<tag k="contact:email" v="hilde.dalberg@ringebu.kommune.no" />
		<tag k="contact:phone" v="+47 61 24 57 10" />
		<tag k="max_age" v="5" />
		<tag k="min_age" v="3" />
		<tag k="name" v="FÃ¥vang barnehage" />
		<tag k="no-barnehage:nsrid" v="1017469" />
		<tag k="operator" v="Ringebu kommune" />
		<tag k="operator:type" v="public" />
	</node>
	<node id="-2009" lat="61.5296" lon="10.1389">
		<tag k="amenity" v="kindergarten" />
		<tag k="capacity" v="44" />
		<tag k="contact:email" v="ringebu.barnehage@ringebu.kommune.no" />
		<tag k="contact:phone" v="+47 61 28 47 50" />
		<tag k="max_age" v="5" />
		<tag k="min_age" v="3" />
		<tag k="name" v="Ringebu barnehage" />
		<tag k="no-barnehage:nsrid" v="1017468" />
		<tag k="operator" v="Ringebu kommune" />
		<tag k="operator:type" v="public" />
	</node>
</osm>
