<?xml version="1.0" encoding="UTF-8"?>
<osm generator="osmapis" version="0.6">
	<node id="-1630" lat="61.45646" lon="10.19477">
		<tag k="amenity" v="kindergarten" />
		<tag k="capacity" v="4" />
		<tag k="max_age" v="2" />
		<tag k="min_age" v="1" />
		<tag k="name" v="Sør-fåvang familiebarnehage Kjersti Ringlund" />
		<tag k="no-barnehage:nsrid" v="1022233" />
		<tag k="operator" v="Sør-Fåvang Familiebarnehage Kjersti Ringlund" />
		<tag k="operator:type" v="private" />
	</node>
	<node id="-1629" lat="61.45646" lon="10.19477">
		<tag k="amenity" v="kindergarten" />
		<tag k="capacity" v="3" />
		<tag k="max_age" v="2" />
		<tag k="min_age" v="1" />
		<tag k="name" v="Segelstad familiebarnehage Camilla Sønsteli" />
		<tag k="no-barnehage:nsrid" v="1020991" />
		<tag k="operator" v="Segelstad Familiebarnehage Camilla Sønsteli" />
		<tag k="operator:type" v="private" />
	</node>
	<node id="-1627" lat="61.52965" lon="10.13889">
		<tag k="amenity" v="kindergarten" />
		<tag k="capacity" v="5" />
		<tag k="max_age" v="2" />
		<tag k="min_age" v="1" />
		<tag k="name" v="Randis familiebarnehage Randi Anita Bjerkehage" />
		<tag k="no-barnehage:nsrid" v="1022316" />
		<tag k="operator" v="Randis Familiebarnehage Randi Anita Bjerkehage" />
		<tag k="operator:type" v="private" />
	</node>
	<node id="-1626" lat="61.52965" lon="10.13889">
		<tag k="amenity" v="kindergarten" />
		<tag k="capacity" v="4" />
		<tag k="max_age" v="2" />
		<tag k="min_age" v="1" />
		<tag k="name" v="Marit Lovises familiebarnehage" />
		<tag k="no-barnehage:nsrid" v="1021646" />
		<tag k="operator" v="Marit Lovise Amundlien" />
		<tag k="operator:type" v="private" />
	</node>
	<node id="-1625" lat="61.54824" lon="10.08568">
		<tag k="amenity" v="kindergarten" />
		<tag k="capacity" v="4" />
		<tag k="max_age" v="2" />
		<tag k="min_age" v="1" />
		<tag k="name" v="Løvlund familiebarnehage" />
		<tag k="no-barnehage:nsrid" v="1021896" />
		<tag k="operator" v="Løvlund Familiebarnehage Kine Engum" />
		<tag k="operator:type" v="private" />
	</node>
	<node id="-1623" lat="61.47105" lon="10.25298">
		<tag k="amenity" v="kindergarten" />
		<tag k="capacity" v="8" />
		<tag k="max_age" v="2" />
		<tag k="min_age" v="1" />
		<tag k="name" v="Brekkomsvegen familiebarnehage Elin Flyen" />
		<tag k="no-barnehage:nsrid" v="1021447" />
		<tag k="operator" v="Elin Margit Flyen" />
		<tag k="operator:type" v="private" />
	</node>
	<node id="-1622" lat="61.45646" lon="10.19477">
		<tag k="amenity" v="kindergarten" />
		<tag k="capacity" v="7" />
		<tag k="max_age" v="2" />
		<tag k="min_age" v="1" />
		<tag k="name" v="Arnestad Fam barnehage A R Amrud" />
		<tag k="no-barnehage:nsrid" v="1020438" />
		<tag k="operator" v="Arnestad Fam barnehage A R Amrud" />
		<tag k="operator:type" v="private" />
	</node>
	<node id="-1621" lat="61.53445" lon="10.13698">
		<tag k="amenity" v="kindergarten" />
		<tag k="capacity" v="4" />
		<tag k="max_age" v="2" />
		<tag k="min_age" v="1" />
		<tag k="name" v="Anne Margrethe's familiebarnehage" />
		<tag k="no-barnehage:nsrid" v="2000165" />
		<tag k="operator" v="Anne Margrethe'S Familiebarnehage AS" />
		<tag k="operator:type" v="private" />
	</node>
</osm>
