<?xml version="1.0" encoding="UTF-8"?>
<osm generator="osmapis" version="0.6">
	<node id="-2112" lat="61.59309" lon="10.05235">
		<tag k="amenity" v="kindergarten" />
		<tag k="capacity" v="20" />
		<tag k="contact:email" v="skolen@venabygdmontessori.no" />
		<tag k="max_age" v="5" />
		<tag k="min_age" v="1" />
		<tag k="name" v="Venabygd Montessoribarnehage Sa" />
		<tag k="no-barnehage:nsrid" v="1019696" />
		<tag k="operator" v="Venabygd Montessoribarnehage Sa" />
		<tag k="operator:type" v="private" />
		<tag k="start_date" v="2009-01-01" />
	</node>
	<node id="-2101" lat="61.4565" lon="10.1948">
		<tag k="amenity" v="kindergarten" />
		<tag k="capacity" v="66" />
		<tag k="contact:email" v="hilde.dalberg@ringebu.kommune.no" />
		<tag k="contact:phone" v="+47 61 24 57 10" />
		<tag k="max_age" v="5" />
		<tag k="min_age" v="3" />
		<tag k="name" v="Fåvang barnehage" />
		<tag k="no-barnehage:nsrid" v="1017469" />
		<tag k="operator" v="Ringebu kommune" />
		<tag k="operator:type" v="public" />
		<tag k="start_date" v="1982-01-01" />
	</node>
	<node id="-2108" lat="61.45646" lon="10.19477">
		<tag k="amenity" v="kindergarten" />
		<tag k="contact:email" v="re_bergmo@hotmail.com" />
		<tag k="contact:phone" v="+47 970 10 170" />
		<tag k="max_age" v="2" />
		<tag k="min_age" v="1" />
		<tag k="name" v="Renates Familiebarnehage" />
		<tag k="no-barnehage:nsrid" v="1022305" />
		<tag k="operator" v="Renate Bergmo" />
		<tag k="operator:type" v="private" />
		<tag k="start_date" v="2012-08-15" />
	</node>
	<node id="-2109" lat="61.5296" lon="10.1389">
		<tag k="amenity" v="kindergarten" />
		<tag k="capacity" v="48" />
		<tag k="contact:email" v="ringebu.barnehage@ringebu.kommune.no" />
		<tag k="contact:phone" v="+47 61 28 47 50" />
		<tag k="max_age" v="5" />
		<tag k="min_age" v="1" />
		<tag k="name" v="Ringebu barnehage" />
		<tag k="no-barnehage:nsrid" v="1017468" />
		<tag k="operator" v="Ringebu kommune" />
		<tag k="operator:type" v="public" />
		<tag k="start_date" v="1982-01-01" />
	</node>
	<node id="-2106" lat="61.45646" lon="10.19477">
		<tag k="amenity" v="kindergarten" />
		<tag k="contact:email" v="gsylte@gmail.com" />
		<tag k="contact:phone" v="+47 61282129" />
		<tag k="max_age" v="2" />
		<tag k="min_age" v="1" />
		<tag k="name" v="Myrvoll Familiebarnehage G Sylte" />
		<tag k="no-barnehage:nsrid" v="1020702" />
		<tag k="operator" v="Myrvoll Familiebarnehage Gudrun Synnøve Sylte" />
		<tag k="operator:type" v="private" />
		<tag k="start_date" v="2001-02-01" />
	</node>
</osm>
