<?xml version="1.0" encoding="UTF-8"?>
<osm generator="osmapis" version="0.6">
	<node id="-2098" lat="61.45646" lon="10.19477">
		<tag k="amenity" v="kindergarten" />
		<tag k="capacity" v="5" />
		<tag k="contact:email" v="kjersti_ringlund@hotmail.com" />
		<tag k="contact:phone" v="+47 97712856" />
		<tag k="max_age" v="2" />
		<tag k="min_age" v="1" />
		<tag k="name" v="Sør-Fåvang Familiebarnehage Kjersti Ringlund" />
		<tag k="no-barnehage:nsrid" v="1022233" />
		<tag k="operator" v="Sør-Fåvang Familiebarnehage Kjersti Ringlund" />
		<tag k="operator:type" v="private" />
		<tag k="start_date" v="2012-01-01" />
	</node>
	<node id="-2097" lat="61.45646" lon="10.19477">
		<tag k="amenity" v="kindergarten" />
		<tag k="capacity" v="4" />
		<tag k="contact:email" v="camsonst6@hotmail.com" />
		<tag k="max_age" v="2" />
		<tag k="min_age" v="1" />
		<tag k="name" v="Segelstad Familiebarnehage Camilla Sønsteli" />
		<tag k="no-barnehage:nsrid" v="1020991" />
		<tag k="operator" v="Segelstad Familiebarnehage Camilla Sønsteli" />
		<tag k="operator:type" v="private" />
		<tag k="start_date" v="2009-06-10" />
	</node>
	<node id="-2095" lat="61.45646" lon="10.19477">
		<tag k="amenity" v="kindergarten" />
		<tag k="capacity" v="4" />
		<tag k="contact:email" v="re_bergmo@hotmail.com" />
		<tag k="contact:phone" v="+47 970 10 170" />
		<tag k="max_age" v="2" />
		<tag k="min_age" v="1" />
		<tag k="name" v="Renates Familiebarnehage" />
		<tag k="no-barnehage:nsrid" v="1022305" />
		<tag k="operator" v="Renate Bergmo" />
		<tag k="operator:type" v="private" />
		<tag k="start_date" v="2012-08-15" />
	</node>
	<node id="-2094" lat="61.52965" lon="10.13889">
		<tag k="amenity" v="kindergarten" />
		<tag k="capacity" v="4" />
		<tag k="contact:email" v="rbjerkh@online.no" />
		<tag k="contact:phone" v="+47 977 51 135" />
		<tag k="max_age" v="2" />
		<tag k="min_age" v="1" />
		<tag k="name" v="Randis Familiebarnehage Randi Anita Bjerkehage" />
		<tag k="no-barnehage:nsrid" v="1022316" />
		<tag k="operator" v="Randis Familiebarnehage Randi Anita Bjerkehage" />
		<tag k="operator:type" v="private" />
		<tag k="start_date" v="2012-10-01" />
	</node>
	<node id="-2093" lat="61.45646" lon="10.19477">
		<tag k="amenity" v="kindergarten" />
		<tag k="capacity" v="3" />
		<tag k="contact:email" v="gsylte@gmail.com" />
		<tag k="contact:phone" v="+47 61282129" />
		<tag k="max_age" v="2" />
		<tag k="min_age" v="1" />
		<tag k="name" v="Myrvoll Familiebarnehage G Sylte" />
		<tag k="no-barnehage:nsrid" v="1020702" />
		<tag k="operator" v="Myrvoll Familiebarnehage Gudrun Synnøve Sylte" />
		<tag k="operator:type" v="private" />
		<tag k="start_date" v="2001-02-01" />
	</node>
	<node id="-2092" lat="61.53362" lon="10.13357">
		<tag k="amenity" v="kindergarten" />
		<tag k="capacity" v="6" />
		<tag k="contact:email" v="maytorildv@hotmail.com" />
		<tag k="contact:phone" v="+47 61 28 10 63" />
		<tag k="max_age" v="2" />
		<tag k="min_age" v="1" />
		<tag k="name" v="May-Torilds Familiebarnehage May-Torild Venåsen" />
		<tag k="no-barnehage:nsrid" v="1025453" />
		<tag k="operator" v="May-Torilds Familiebarnehage May-Torild Venåsen" />
		<tag k="operator:type" v="private" />
		<tag k="start_date" v="1994-01-01" />
	</node>
	<node id="-2091" lat="61.52965" lon="10.13889">
		<tag k="amenity" v="kindergarten" />
		<tag k="capacity" v="4" />
		<tag k="contact:email" v="marit_lovise@hotmail.com" />
		<tag k="contact:phone" v="+47 41105188" />
		<tag k="max_age" v="2" />
		<tag k="min_age" v="1" />
		<tag k="name" v="Marit Lovises Familiebarnehage" />
		<tag k="no-barnehage:nsrid" v="1021646" />
		<tag k="operator" v="Marit Lovise Amundlien" />
		<tag k="operator:type" v="private" />
		<tag k="start_date" v="2007-08-13" />
	</node>
	<node id="-2090" lat="61.54824" lon="10.08568">
		<tag k="amenity" v="kindergarten" />
		<tag k="capacity" v="4" />
		<tag k="contact:email" v="kine_engum@hotmail.com" />
		<tag k="contact:phone" v="+47 977 24 786" />
		<tag k="max_age" v="2" />
		<tag k="min_age" v="1" />
		<tag k="name" v="Løvlund Familiebarnehage" />
		<tag k="no-barnehage:nsrid" v="1021896" />
		<tag k="operator" v="Løvlund Familiebarnehage Kine Engum" />
		<tag k="operator:type" v="private" />
		<tag k="start_date" v="2009-01-02" />
	</node>
	<node id="-2089" lat="61.52965" lon="10.13889">
		<tag k="amenity" v="kindergarten" />
		<tag k="capacity" v="4" />
		<tag k="contact:email" v="lenasinnerud@hotmail.no" />
		<tag k="max_age" v="2" />
		<tag k="min_age" v="1" />
		<tag k="name" v="Lenas Familiebarnehage" />
		<tag k="no-barnehage:nsrid" v="1022269" />
		<tag k="operator" v="Lenas Familiebarnehage" />
		<tag k="operator:type" v="private" />
		<tag k="start_date" v="2012-05-11" />
	</node>
	<node id="-2087" lat="61.47105" lon="10.25298">
		<tag k="amenity" v="kindergarten" />
		<tag k="capacity" v="7" />
		<tag k="contact:email" v="elin_flyen@hotmail.com" />
		<tag k="contact:phone" v="+47 61 28 25 93" />
		<tag k="max_age" v="2" />
		<tag k="min_age" v="1" />
		<tag k="name" v="Brekkomsvegen Familiebarnehage Ved Elin Flyen" />
		<tag k="no-barnehage:nsrid" v="1021447" />
		<tag k="operator" v="Elin Margit Flyen" />
		<tag k="operator:type" v="private" />
		<tag k="start_date" v="2006-08-14" />
	</node>
	<node id="-2086" lat="61.45646" lon="10.19477">
		<tag k="amenity" v="kindergarten" />
		<tag k="capacity" v="6" />
		<tag k="contact:email" v="serlaa@online.no" />
		<tag k="max_age" v="2" />
		<tag k="min_age" v="1" />
		<tag k="name" v="Arnestad Fam barnehage A R Amrud" />
		<tag k="no-barnehage:nsrid" v="1020438" />
		<tag k="operator" v="Arnestad Fam barnehage A R Amrud" />
		<tag k="operator:type" v="private" />
		<tag k="start_date" v="2009-01-01" />
	</node>
	<node id="-2085" lat="61.53345" lon="10.13224">
		<tag k="amenity" v="kindergarten" />
		<tag k="capacity" v="4" />
		<tag k="contact:email" v="ynna@online.no" />
		<tag k="max_age" v="2" />
		<tag k="min_age" v="1" />
		<tag k="name" v="Annys Familiebarnehage Voldsrud A" />
		<tag k="no-barnehage:nsrid" v="1020080" />
		<tag k="operator" v="Annys Familiebarnehage A Voldsrud" />
		<tag k="operator:type" v="private" />
		<tag k="start_date" v="2009-01-01" />
	</node>
</osm>
