<?xml version="1.0" encoding="UTF-8"?>
<osm generator="osmapis" version="0.6">
	<node id="-3688" lat="59.1083" lon="5.84823">
		<tag k="amenity" v="kindergarten" />
		<tag k="capacity" v="31" />
		<tag k="contact:email" v="rsc@finnoy.kommune.no" />
		<tag k="max_age" v="5" />
		<tag k="min_age" v="1" />
		<tag k="name" v="Talgje barnehage" />
		<tag k="no-barnehage:nsrid" v="1015960" />
		<tag k="operator" v="Finnøy kommune" />
		<tag k="operator:type" v="public" />
		<tag k="start_date" v="1990-08-01" />
	</node>
	<node id="-3687" lat="59.2551" lon="5.81066">
		<tag k="amenity" v="kindergarten" />
		<tag k="capacity" v="21" />
		<tag k="contact:email" v="sjernaroy.os@finnoy.kommune.no" />
		<tag k="contact:phone" v="+47 51710495" />
		<tag k="max_age" v="5" />
		<tag k="min_age" v="1" />
		<tag k="name" v="Sjernarøy Oppvekstsenter Avdeling Barnehage" />
		<tag k="no-barnehage:nsrid" v="1015560" />
		<tag k="operator" v="Finnøy kommune" />
		<tag k="operator:type" v="public" />
		<tag k="start_date" v="1982-01-01" />
	</node>
	<node id="-3686" lat="59.1721" lon="5.87576">
		<tag k="amenity" v="kindergarten" />
		<tag k="capacity" v="43" />
		<tag k="contact:email" v="utsyn@barnehage.no" />
		<tag k="contact:phone" v="+47 51 71 22 98" />
		<tag k="max_age" v="5" />
		<tag k="min_age" v="1" />
		<tag k="name" v="Nlm Barnehagene AS Avd Utsyn Barnehage Finnøy" />
		<tag k="no-barnehage:nsrid" v="1016202" />
		<tag k="operator" v="Nlm-Barnehagene AS" />
		<tag k="operator:type" v="private" />
		<tag k="start_date" v="1989-01-02" />
	</node>
	<node id="-3685" lat="59.1721" lon="5.87576">
		<tag k="amenity" v="kindergarten" />
		<tag k="capacity" v="82" />
		<tag k="contact:email" v="hagatoppen@finnoy.kommune.no" />
		<tag k="max_age" v="5" />
		<tag k="min_age" v="1" />
		<tag k="name" v="Hagatoppen barnehage" />
		<tag k="no-barnehage:nsrid" v="1017769" />
		<tag k="operator" v="Finnøy kommune" />
		<tag k="operator:type" v="public" />
		<tag k="start_date" v="2007-02-07" />
	</node>
	<node id="-3684" lat="59.1354" lon="5.94562">
		<tag k="amenity" v="kindergarten" />
		<tag k="capacity" v="9" />
		<tag k="contact:email" v="Havard.osthus@finnoy.kommune.no" />
		<tag k="max_age" v="5" />
		<tag k="min_age" v="1" />
		<tag k="name" v="Fogn Oppvekstsenter Avdeling Barnehage" />
		<tag k="no-barnehage:nsrid" v="1014886" />
		<tag k="operator" v="Finnøy kommune" />
		<tag k="operator:type" v="public" />
		<tag k="start_date" v="1989-01-01" />
	</node>
	<node id="-3683" lat="59.2574" lon="6.00143">
		<tag k="amenity" v="kindergarten" />
		<tag k="capacity" v="14" />
		<tag k="contact:email" v="jarl.morten.johansen@finnoy.kommune.no" />
		<tag k="max_age" v="5" />
		<tag k="min_age" v="1" />
		<tag k="name" v="Finnøy kommune Ombo Oppvekstsent Avdeling Barnehage" />
		<tag k="no-barnehage:nsrid" v="1017488" />
		<tag k="operator" v="Finnøy kommune" />
		<tag k="operator:type" v="public" />
		<tag k="start_date" v="1988-04-01" />
	</node>
</osm>
