<?xml version="1.0" encoding="UTF-8"?>
<osm version="0.6" generator="osmapis">
	<node lat="59.94456" lon="10.9459" id="-2440">
		<tag k="ADDRESS" v="Høybråtenveien 144, 1470 LØRENSKOG" />
		<tag k="amenity" v="kindergarten" />
		<tag k="capacity" v="8" />
		<tag k="max_age" v="2" />
		<tag k="min_age" v="1" />
		<tag k="name" v="Bambi familiebarnehage" />
		<tag k="no-barnehage:nsrid" v="988255947" />
		<tag k="operator" v="Bambi Privat familiebarnehage Avd.1 Songyl Kisin" />
		<tag k="operator:type" v="private" />
	</node>
	<node lat="59.91991" lon="10.96181" id="-2453">
		<tag k="ADDRESS" v="Løkenkollen 13, 1473 LØRENSKOG" />
		<tag k="amenity" v="kindergarten" />
		<tag k="capacity" v="4" />
		<tag k="max_age" v="2" />
		<tag k="min_age" v="1" />
		<tag k="name" v="Gülserens familiebarnehage" />
		<tag k="no-barnehage:nsrid" v="990285098" />
		<tag k="operator" v="Gülserens familiebarnehage Gülseren Køkyer" />
		<tag k="operator:type" v="private" />
	</node>
	<node lat="59.94734" lon="10.98954" id="-2456">
		<tag k="ADDRESS" v="Fridtjof Nansens vei 73, 1464 FJELLHAMAR" />
		<tag k="amenity" v="kindergarten" />
		<tag k="capacity" v="4" />
		<tag k="max_age" v="2" />
		<tag k="min_age" v="1" />
		<tag k="name" v="Lillestjerne familiebarnehage" />
		<tag k="no-barnehage:nsrid" v="988957860" />
		<tag k="operator" v="Lille Stjerne familiebarnehage Elizabeth Myhre Berntzen" />
		<tag k="operator:type" v="private" />
	</node>
	<node lat="59.94728" lon="10.9886" id="-2457">
		<tag k="ADDRESS" v="Fridtjof Nansens vei 69, 1464 FJELLHAMAR" />
		<tag k="amenity" v="kindergarten" />
		<tag k="capacity" v="8" />
		<tag k="max_age" v="2" />
		<tag k="min_age" v="1" />
		<tag k="name" v="Luna familiebarnehage Fjellhamar" />
		<tag k="no-barnehage:nsrid" v="930217077" />
		<tag k="operator" v="Luna familiebarnehage Fjellhamar AS" />
		<tag k="operator:type" v="private" />
	</node>
	<node lat="59.92599" lon="10.95015" id="-2458">
		<tag k="ADDRESS" v="Torbjørns vei 23, 1473 LØRENSKOG" />
		<tag k="amenity" v="kindergarten" />
		<tag k="capacity" v="8" />
		<tag k="max_age" v="2" />
		<tag k="min_age" v="1" />
		<tag k="name" v="Luna familiebarnehage Skårer" />
		<tag k="no-barnehage:nsrid" v="930216771" />
		<tag k="operator" v="Luna familiebarnehage Skårer AS" />
		<tag k="operator:type" v="private" />
	</node>
	<node lat="59.93756" lon="10.96085" id="-2462">
		<tag k="ADDRESS" v="Myrveien 9, 1470 LØRENSKOG" />
		<tag k="amenity" v="kindergarten" />
		<tag k="capacity" v="4" />
		<tag k="max_age" v="2" />
		<tag k="min_age" v="1" />
		<tag k="name" v="Lørenskog familiebarnehage" />
		<tag k="no-barnehage:nsrid" v="995108208" />
		<tag k="operator" v="Lørenskog familiebarnehage Anne Grethe Solheim Varga" />
		<tag k="operator:type" v="private" />
	</node>
	<node lat="59.91991" lon="10.96181" id="-2469">
		<tag k="ADDRESS" v="Løkenkollen 13, 1473 LØRENSKOG" />
		<tag k="amenity" v="kindergarten" />
		<tag k="capacity" v="4" />
		<tag k="max_age" v="2" />
		<tag k="min_age" v="1" />
		<tag k="name" v="Småknøttene familiebarnehage" />
		<tag k="no-barnehage:nsrid" v="986707093" />
		<tag k="operator" v="Småknøttene familiebarnehage Cathrine Stokmann Solberg" />
		<tag k="operator:type" v="private" />
	</node>
	<node lat="59.92652" lon="10.95241" id="-2471">
		<tag k="ADDRESS" v="Ragnhilds vei 2A, 1473 LØRENSKOG" />
		<tag k="amenity" v="kindergarten" />
		<tag k="capacity" v="4" />
		<tag k="max_age" v="5" />
		<tag k="min_age" v="3" />
		<tag k="name" v="Solheim familiebarnehage" />
		<tag k="no-barnehage:nsrid" v="995108216" />
		<tag k="operator" v="Solheim familiebarnehage Nr 2 Monica Ellefsen" />
		<tag k="operator:type" v="private" />
	</node>
</osm>
