<?xml version="1.0" encoding="UTF-8"?>
<osm generator="osmapis" version="0.6">
	<node id="-1621" lat="60.98392" lon="5.08984">
		<tag k="ADDRESS" v="Eivindvikvegen 1013, 5966 EIVINDVIK" />
		<tag k="amenity" v="kindergarten" />
		<tag k="capacity" v="35" />
		<tag k="max_age" v="5" />
		<tag k="min_age" v="1" />
		<tag k="name" v="Eivindvik barnehage" />
		<tag k="no-barnehage:nsrid" v="1018138" />
		<tag k="operator" v="Gulen kommune" />
		<tag k="operator:type" v="public" />
	</node>
	<node id="-1620" lat="60.93214" lon="5.14447">
		<tag k="ADDRESS" v="Dalsbygda 54, 5960 DALSØYRA" />
		<tag k="amenity" v="kindergarten" />
		<tag k="capacity" v="34" />
		<tag k="max_age" v="5" />
		<tag k="min_age" v="1" />
		<tag k="name" v="Dalsøyra barnehage" />
		<tag k="no-barnehage:nsrid" v="1012512" />
		<tag k="operator" v="Gulen kommune" />
		<tag k="operator:type" v="public" />
	</node>
	<node id="-1619" lat="60.90147" lon="4.83723">
		<tag k="ADDRESS" v="Nordre Garden 24, 5970 BYRKNESØY" />
		<tag k="amenity" v="kindergarten" />
		<tag k="capacity" v="16" />
		<tag k="max_age" v="5" />
		<tag k="min_age" v="1" />
		<tag k="name" v="Byrknes barnehage" />
		<tag k="no-barnehage:nsrid" v="1014894" />
		<tag k="operator" v="Gulen kommune" />
		<tag k="operator:type" v="public" />
	</node>
	<node id="-1618" lat="61.01391" lon="5.45365">
		<tag k="ADDRESS" v="Yndesdalsvegen 2719, 5961 BREKKE" />
		<tag k="amenity" v="kindergarten" />
		<tag k="capacity" v="30" />
		<tag k="contact:website" v="http://www.brekke.skule.no" />
		<tag k="max_age" v="5" />
		<tag k="min_age" v="1" />
		<tag k="name" v="Brekke barnehage" />
		<tag k="no-barnehage:nsrid" v="1018137" />
		<tag k="operator" v="Gulen kommune" />
		<tag k="operator:type" v="public" />
	</node>
</osm>
