<?xml version="1.0" encoding="UTF-8"?>
<osm generator="osmapis" version="0.6">
	<node id="-1732" lat="59.13597" lon="11.38333">
		<tag k="ADDRESS" v="Dyrendalsveien 45, 1779 HALDEN" />
		<tag k="amenity" v="kindergarten" />
		<tag k="capacity" v="39" />
		<tag k="contact:website" v="http://www.alfheimbarnehage.no" />
		<tag k="max_age" v="5" />
		<tag k="min_age" v="1" />
		<tag k="name" v="Alfheim barnehage" />
		<tag k="no-barnehage:nsrid" v="974591510" />
		<tag k="operator" v="Alfheim barnehage AS" />
		<tag k="operator:type" v="private" />
	</node>
	<node id="-1733" lat="59.13757" lon="11.43608">
		<tag k="ADDRESS" v="Heiderødveien 3, 1791 TISTEDAL" />
		<tag k="amenity" v="kindergarten" />
		<tag k="capacity" v="46" />
		<tag k="max_age" v="5" />
		<tag k="min_age" v="1" />
		<tag k="name" v="Asak kulturbarnehage" />
		<tag k="no-barnehage:nsrid" v="994298267" />
		<tag k="operator" v="Tdm barnehager AS" />
		<tag k="operator:type" v="private" />
	</node>
	<node id="-1734" lat="59.13885" lon="11.3318">
		<tag k="ADDRESS" v="Torpumveien 195, 1763 HALDEN" />
		<tag k="amenity" v="kindergarten" />
		<tag k="capacity" v="15" />
		<tag k="contact:website" v="http://berg.barnehage.no" />
		<tag k="max_age" v="5" />
		<tag k="min_age" v="1" />
		<tag k="name" v="Berg barnehage Halden" />
		<tag k="no-barnehage:nsrid" v="973454307" />
		<tag k="operator" v="Berg barnehage Halden Sa" />
		<tag k="operator:type" v="private" />
	</node>
	<node id="-1735" lat="59.12453" lon="11.29827">
		<tag k="ADDRESS" v="Sørliveien 111, 1788 HALDEN" />
		<tag k="amenity" v="kindergarten" />
		<tag k="capacity" v="34" />
		<tag k="max_age" v="5" />
		<tag k="min_age" v="1" />
		<tag k="name" v="Bergknatten barnehage" />
		<tag k="no-barnehage:nsrid" v="874591572" />
		<tag k="operator" v="Halden kommune" />
		<tag k="operator:type" v="public" />
	</node>
	<node id="-1736" lat="59.13637" lon="11.36747">
		<tag k="ADDRESS" v="Karrestadveien 63, 1782 HALDEN" />
		<tag k="amenity" v="kindergarten" />
		<tag k="capacity" v="30" />
		<tag k="max_age" v="5" />
		<tag k="min_age" v="1" />
		<tag k="name" v="Bjørklund barnehage" />
		<tag k="no-barnehage:nsrid" v="974591537" />
		<tag k="operator" v="Halden kommune" />
		<tag k="operator:type" v="public" />
	</node>
	<node id="-1737" lat="59.13366" lon="11.43369">
		<tag k="ADDRESS" v="Grimsrødhøgda 115, 1791 TISTEDAL" />
		<tag k="amenity" v="kindergarten" />
		<tag k="capacity" v="49" />
		<tag k="max_age" v="5" />
		<tag k="min_age" v="1" />
		<tag k="name" v="Bollerød FUS barnehage" />
		<tag k="no-barnehage:nsrid" v="971636823" />
		<tag k="operator" v="Bollerød Fus barnehage AS" />
		<tag k="operator:type" v="private" />
	</node>
	<node id="-1738" lat="59.1459" lon="11.37594">
		<tag k="ADDRESS" v="Heimliveien 4, 1782 HALDEN" />
		<tag k="amenity" v="kindergarten" />
		<tag k="capacity" v="53" />
		<tag k="max_age" v="5" />
		<tag k="min_age" v="1" />
		<tag k="name" v="Brekkerød barnehage" />
		<tag k="no-barnehage:nsrid" v="994099612" />
		<tag k="operator" v="Halden kommune" />
		<tag k="operator:type" v="public" />
	</node>
	<node id="-1739" lat="59.11566" lon="11.43194">
		<tag k="ADDRESS" v="Orødgrenda 15, 1793 TISTEDAL" />
		<tag k="amenity" v="kindergarten" />
		<tag k="capacity" v="81" />
		<tag k="max_age" v="5" />
		<tag k="min_age" v="1" />
		<tag k="name" v="Espira Oreid barnehage" />
		<tag k="no-barnehage:nsrid" v="916349548" />
		<tag k="operator" v="Espira barnehager AS" />
		<tag k="operator:type" v="private" />
	</node>
	<node id="-1740" lat="59.11864" lon="11.39055">
		<tag k="ADDRESS" v="Festningsgata 18, 1767 HALDEN" />
		<tag k="amenity" v="kindergarten" />
		<tag k="capacity" v="33" />
		<tag k="max_age" v="5" />
		<tag k="min_age" v="1" />
		<tag k="name" v="Festningsgata menighets barnehage" />
		<tag k="no-barnehage:nsrid" v="973337491" />
		<tag k="operator" v="Festningsgata Menighets- barnehage" />
		<tag k="operator:type" v="private" />
	</node>
	<node id="-1741" lat="59.1366" lon="11.43682">
		<tag k="ADDRESS" v="Solåsveien 4, 1791 TISTEDAL" />
		<tag k="amenity" v="kindergarten" />
		<tag k="capacity" v="14" />
		<tag k="contact:website" v="http://www.cum-cura.no" />
		<tag k="max_age" v="5" />
		<tag k="min_age" v="1" />
		<tag k="name" v="Halden Montessori barnehage" />
		<tag k="no-barnehage:nsrid" v="892797242" />
		<tag k="operator" v="Cum-Cura AS" />
		<tag k="operator:type" v="private" />
	</node>
	<node id="-1742" lat="59.11919" lon="11.41849">
		<tag k="ADDRESS" v="Harekasveien 15, 1769 HALDEN" />
		<tag k="amenity" v="kindergarten" />
		<tag k="capacity" v="54" />
		<tag k="max_age" v="5" />
		<tag k="min_age" v="1" />
		<tag k="name" v="Harekas barnehage" />
		<tag k="no-barnehage:nsrid" v="984001320" />
		<tag k="operator" v="Harekas barnehage SA" />
		<tag k="operator:type" v="private" />
	</node>
	<node id="-1744" lat="59.10332" lon="11.40132">
		<tag k="ADDRESS" v="Hovsveien 78, 1769 HALDEN" />
		<tag k="amenity" v="kindergarten" />
		<tag k="capacity" v="71" />
		<tag k="max_age" v="5" />
		<tag k="min_age" v="1" />
		<tag k="name" v="Hovsveien FUS barnehage" />
		<tag k="no-barnehage:nsrid" v="993268755" />
		<tag k="operator" v="Hovsveien Fus barnehage AS" />
		<tag k="operator:type" v="private" />
	</node>
	<node id="-1745" lat="59.12059" lon="11.37271">
		<tag k="ADDRESS" v="Peder Ankers gate 18, 1771 HALDEN" />
		<tag k="amenity" v="kindergarten" />
		<tag k="capacity" v="100" />
		<tag k="contact:website" v="http://www.hovlerietbarnehage.no" />
		<tag k="max_age" v="5" />
		<tag k="min_age" v="1" />
		<tag k="name" v="Høvleriet barnehage" />
		<tag k="no-barnehage:nsrid" v="998274168" />
		<tag k="operator" v="Høvleriet barnehage AS" />
		<tag k="operator:type" v="private" />
	</node>
	<node id="-1746" lat="59.11995" lon="11.30886">
		<tag k="ADDRESS" v="Sørlifjellet 3, 1788 HALDEN" />
		<tag k="amenity" v="kindergarten" />
		<tag k="capacity" v="35" />
		<tag k="contact:website" v="http://isebakke.barnehage.halden.kommune.no/" />
		<tag k="max_age" v="5" />
		<tag k="min_age" v="1" />
		<tag k="name" v="Isebakke barnehage" />
		<tag k="no-barnehage:nsrid" v="994099647" />
		<tag k="operator" v="Halden kommune" />
		<tag k="operator:type" v="public" />
	</node>
	<node id="-1747" lat="59.13485" lon="11.37304">
		<tag k="ADDRESS" v="Vidars vei 42, 1781 HALDEN" />
		<tag k="amenity" v="kindergarten" />
		<tag k="capacity" v="35" />
		<tag k="max_age" v="5" />
		<tag k="min_age" v="1" />
		<tag k="name" v="Karrestad barnehage" />
		<tag k="no-barnehage:nsrid" v="974591561" />
		<tag k="operator" v="Halden kommune" />
		<tag k="operator:type" v="public" />
	</node>
	<node id="-1748" lat="0.0" lon="0.0">
		<tag k="ADDRESS" v="Klengstua barnehage Rødsveien 63, 1781 HALDEN" />
		<tag k="amenity" v="kindergarten" />
		<tag k="capacity" v="35" />
		<tag k="contact:website" v="http://www.klengstua.no" />
		<tag k="max_age" v="5" />
		<tag k="min_age" v="1" />
		<tag k="name" v="Klengstua barnehage" />
		<tag k="no-barnehage:nsrid" v="987847069" />
		<tag k="operator" v="Klengstua AS" />
		<tag k="operator:type" v="private" />
	</node>
	<node id="-1749" lat="59.14785" lon="11.39222">
		<tag k="ADDRESS" v="Safirveien 16, 1784 HALDEN" />
		<tag k="amenity" v="kindergarten" />
		<tag k="capacity" v="14" />
		<tag k="max_age" v="5" />
		<tag k="min_age" v="1" />
		<tag k="name" v="Lysløypa barnehage" />
		<tag k="no-barnehage:nsrid" v="876053632" />
		<tag k="operator" v="Lysløypa barnehage AS" />
		<tag k="operator:type" v="private" />
	</node>
	<node id="-1750" lat="59.11191" lon="11.27398">
		<tag k="ADDRESS" v="Gamle Kongevei 3, 1789 BERG I ØSTFOLD" />
		<tag k="amenity" v="kindergarten" />
		<tag k="capacity" v="115" />
		<tag k="contact:website" v="http://laringsverkstedet.no/barnehage/halden-doremi" />
		<tag k="max_age" v="5" />
		<tag k="min_age" v="1" />
		<tag k="name" v="Læringsverkstedet barnehage avd. Doremi Halden" />
		<tag k="no-barnehage:nsrid" v="992922893" />
		<tag k="operator" v="Læringsverkstedet AS" />
		<tag k="operator:type" v="private" />
	</node>
	<node id="-1751" lat="59.12738" lon="11.3884">
		<tag k="ADDRESS" v="Os alle 4, 1777 HALDEN" />
		<tag k="amenity" v="kindergarten" />
		<tag k="name" v="Maurtua åpen barnehage" />
		<tag k="no-barnehage:nsrid" v="990641412" />
		<tag k="operator" v="Halden kommune" />
		<tag k="operator:type" v="public" />
	</node>
	<node id="-1752" lat="59.12608" lon="11.39327">
		<tag k="ADDRESS" v="Damhauggata 3, 1772 HALDEN" />
		<tag k="amenity" v="kindergarten" />
		<tag k="capacity" v="42" />
		<tag k="max_age" v="5" />
		<tag k="min_age" v="1" />
		<tag k="name" v="Menighetspleiens barnehage" />
		<tag k="no-barnehage:nsrid" v="973237047" />
		<tag k="operator" v="Menighetspleiens barnehage" />
		<tag k="operator:type" v="private" />
	</node>
	<node id="-1753" lat="59.1406" lon="11.40366">
		<tag k="ADDRESS" v="Asakveien 31, 1785 HALDEN" />
		<tag k="amenity" v="kindergarten" />
		<tag k="capacity" v="45" />
		<tag k="max_age" v="5" />
		<tag k="min_age" v="1" />
		<tag k="name" v="NLM barnehagene avd. Tryggheim barnehage Halden" />
		<tag k="no-barnehage:nsrid" v="974179571" />
		<tag k="operator" v="Nlm-Barnehagene AS" />
		<tag k="operator:type" v="private" />
	</node>
	<node id="-1754" lat="0.0" lon="0.0">
		<tag k="ADDRESS" v="Nordby Gård Bøklevene 44, 1765 HALDEN" />
		<tag k="amenity" v="kindergarten" />
		<tag k="capacity" v="24" />
		<tag k="max_age" v="5" />
		<tag k="min_age" v="1" />
		<tag k="name" v="Nordby gårdsbarnehage" />
		<tag k="no-barnehage:nsrid" v="988516406" />
		<tag k="operator" v="Nordby Gårdsbarnehage AS" />
		<tag k="operator:type" v="private" />
	</node>
	<node id="-1755" lat="58.99088" lon="11.54035">
		<tag k="ADDRESS" v="Prestebakkeveien 242, 1796 KORNSJØ" />
		<tag k="amenity" v="kindergarten" />
		<tag k="capacity" v="12" />
		<tag k="max_age" v="5" />
		<tag k="min_age" v="1" />
		<tag k="name" v="Prestebakke barnehage" />
		<tag k="no-barnehage:nsrid" v="973454412" />
		<tag k="operator" v="Prestebakke Naturbarnehage Sa" />
		<tag k="operator:type" v="private" />
	</node>
	<node id="-1757" lat="59.19054" lon="11.34005">
		<tag k="ADDRESS" v="Rokkeveien 739, 1763 HALDEN" />
		<tag k="amenity" v="kindergarten" />
		<tag k="capacity" v="10" />
		<tag k="contact:website" v="http://rokke.barnehage.no" />
		<tag k="max_age" v="5" />
		<tag k="min_age" v="1" />
		<tag k="name" v="Rokke barnehage" />
		<tag k="no-barnehage:nsrid" v="973454404" />
		<tag k="operator" v="Rokke barnehage Sa" />
		<tag k="operator:type" v="private" />
	</node>
	<node id="-1758" lat="59.14835" lon="11.38291">
		<tag k="ADDRESS" v="Lerdalveien 19, 1779 HALDEN" />
		<tag k="amenity" v="kindergarten" />
		<tag k="capacity" v="49" />
		<tag k="contact:website" v="http://www.skogkanten-barnehage.no" />
		<tag k="max_age" v="5" />
		<tag k="min_age" v="1" />
		<tag k="name" v="Skogkanten Dyr &amp; naturbarnehage" />
		<tag k="no-barnehage:nsrid" v="986213376" />
		<tag k="operator" v="Skogkanten Dyr &amp; naturbarnehage AS" />
		<tag k="operator:type" v="private" />
	</node>
	<node id="-1759" lat="0.0" lon="0.0">
		<tag k="ADDRESS" v="Karlsholm, 1765 HALDEN" />
		<tag k="amenity" v="kindergarten" />
		<tag k="capacity" v="19" />
		<tag k="max_age" v="5" />
		<tag k="min_age" v="1" />
		<tag k="name" v="Solbakken naturbarnehage" />
		<tag k="no-barnehage:nsrid" v="871626812" />
		<tag k="operator" v="Tdm barnehager AS" />
		<tag k="operator:type" v="private" />
	</node>
	<node id="-1760" lat="59.12659" lon="11.38168">
		<tag k="ADDRESS" v="Major Forbus gate 25, 1776 HALDEN" />
		<tag k="amenity" v="kindergarten" />
		<tag k="capacity" v="72" />
		<tag k="max_age" v="5" />
		<tag k="min_age" v="1" />
		<tag k="name" v="Solbakkeparken barnehage" />
		<tag k="no-barnehage:nsrid" v="989322028" />
		<tag k="operator" v="Borg barnehager AS" />
		<tag k="operator:type" v="private" />
	</node>
	<node id="-1761" lat="59.1383553" lon="11.375082">
		<tag k="ADDRESS" v="Oscar Pedersens vei 16, 1721 SARPSBORG" />
		<tag k="amenity" v="kindergarten" />
		<tag k="capacity" v="42" />
		<tag k="max_age" v="5" />
		<tag k="min_age" v="1" />
		<tag k="name" v="Spretten idrettsbarnehage" />
		<tag k="no-barnehage:nsrid" v="981532449" />
		<tag k="operator" v="Halden Fotball AS" />
		<tag k="operator:type" v="private" />
	</node>
	<node id="-1762" lat="59.12854" lon="11.37785">
		<tag k="ADDRESS" v="Forstrøms vei 14, 1778 HALDEN" />
		<tag k="amenity" v="kindergarten" />
		<tag k="capacity" v="51" />
		<tag k="max_age" v="5" />
		<tag k="min_age" v="1" />
		<tag k="name" v="Stangeløkka barnehage" />
		<tag k="no-barnehage:nsrid" v="974591529" />
		<tag k="operator" v="Halden kommune" />
		<tag k="operator:type" v="public" />
	</node>
	<node id="-1763" lat="59.14144" lon="11.39592">
		<tag k="ADDRESS" v="Kvartsveien 14, 1784 HALDEN" />
		<tag k="amenity" v="kindergarten" />
		<tag k="capacity" v="68" />
		<tag k="max_age" v="5" />
		<tag k="min_age" v="1" />
		<tag k="name" v="Stenrød barnehage" />
		<tag k="no-barnehage:nsrid" v="979372892" />
		<tag k="operator" v="Stenrød barnehage AS" />
		<tag k="operator:type" v="private" />
	</node>
	<node id="-1764" lat="59.12352" lon="11.36146">
		<tag k="ADDRESS" v="Blomsterveien 6, 1781 HALDEN" />
		<tag k="amenity" v="kindergarten" />
		<tag k="capacity" v="39" />
		<tag k="max_age" v="5" />
		<tag k="min_age" v="1" />
		<tag k="name" v="Trolltangen naturbarnehage" />
		<tag k="no-barnehage:nsrid" v="994298356" />
		<tag k="operator" v="Tdm barnehager AS" />
		<tag k="operator:type" v="private" />
	</node>
	<node id="-1765" lat="59.13465" lon="11.37434">
		<tag k="ADDRESS" v="Vidars Vei 21, 1781 HALDEN" />
		<tag k="amenity" v="kindergarten" />
		<tag k="capacity" v="16" />
		<tag k="max_age" v="5" />
		<tag k="min_age" v="1" />
		<tag k="name" v="Ynglingen barnehage" />
		<tag k="no-barnehage:nsrid" v="974122545" />
		<tag k="operator" v="Halden Kfuk/m" />
		<tag k="operator:type" v="private" />
	</node>
	<node id="-1766" lat="59.14165" lon="11.41237">
		<tag k="ADDRESS" v="Asakveien 32, 1785 HALDEN" />
		<tag k="amenity" v="kindergarten" />
		<tag k="capacity" v="50" />
		<tag k="contact:website" v="http://www.akerholmen.no" />
		<tag k="max_age" v="5" />
		<tag k="min_age" v="1" />
		<tag k="name" v="Åkerholmen barnehage" />
		<tag k="no-barnehage:nsrid" v="981612817" />
		<tag k="operator" v="Åkerholmen barnehage Sa" />
		<tag k="operator:type" v="private" />
	</node>
</osm>
