<?xml version="1.0" encoding="UTF-8"?>
<osm generator="osmapis" version="0.6">
	<node id="-2815" lat="59.66763" lon="10.64182">
		<tag k="ADDRESS" v="Ullerudveien 18, 1443 DRØBAK" />
		<tag k="amenity" v="kindergarten" />
		<tag k="capacity" v="80" />
		<tag k="max_age" v="5" />
		<tag k="min_age" v="1" />
		<tag k="name" v="Ullerud barnehage" />
		<tag k="no-barnehage:nsrid" v="1017526" />
		<tag k="operator" v="Frogn kommune" />
		<tag k="operator:type" v="public" />
	</node>
	<node id="-2814" lat="59.66042" lon="10.6493">
		<tag k="ADDRESS" v="Traneveien 39, 1447 DRØBAK" />
		<tag k="amenity" v="kindergarten" />
		<tag k="capacity" v="31" />
		<tag k="max_age" v="5" />
		<tag k="min_age" v="1" />
		<tag k="name" v="Trollberget barnehage" />
		<tag k="no-barnehage:nsrid" v="1013919" />
		<tag k="operator" v="Frogn kommune" />
		<tag k="operator:type" v="public" />
	</node>
	<node id="-2813" lat="59.66593" lon="10.64155">
		<tag k="ADDRESS" v="Sogstiveien 4, 1446 DRØBAK" />
		<tag k="amenity" v="kindergarten" />
		<tag k="capacity" v="37" />
		<tag k="max_age" v="5" />
		<tag k="min_age" v="1" />
		<tag k="name" v="Tertitten barnehage" />
		<tag k="no-barnehage:nsrid" v="1020333" />
		<tag k="operator" v="Tertitten barnehage Ans" />
		<tag k="operator:type" v="private" />
	</node>
	<node id="-2812" lat="59.65748" lon="10.64239">
		<tag k="ADDRESS" v="Bjerkeveien 2, 1446 DRØBAK" />
		<tag k="amenity" v="kindergarten" />
		<tag k="capacity" v="59" />
		<tag k="contact:website" v="http://www.sogstieika.no" />
		<tag k="max_age" v="5" />
		<tag k="min_age" v="1" />
		<tag k="name" v="Sogstieika barnehage" />
		<tag k="no-barnehage:nsrid" v="1020276" />
		<tag k="operator" v="Sogstieika barnehage Sa" />
		<tag k="operator:type" v="private" />
	</node>
	<node id="-2809" lat="59.65879" lon="10.64753">
		<tag k="ADDRESS" v="Skorkebergåsen 31, 1447 DRØBAK" />
		<tag k="amenity" v="kindergarten" />
		<tag k="capacity" v="12" />
		<tag k="contact:website" v="http://www.lindebakkenbarnehage.com" />
		<tag k="max_age" v="5" />
		<tag k="min_age" v="1" />
		<tag k="name" v="Lindebakken barnehage" />
		<tag k="no-barnehage:nsrid" v="1019855" />
		<tag k="operator" v="Lindebakken barnehage" />
		<tag k="operator:type" v="private" />
	</node>
	<node id="-2808" lat="59.68658" lon="10.65032">
		<tag k="ADDRESS" v="Oberst Eriksens Vei 39, 1445 DRØBAK" />
		<tag k="amenity" v="kindergarten" />
		<tag k="capacity" v="23" />
		<tag k="max_age" v="5" />
		<tag k="min_age" v="1" />
		<tag k="name" v="Heer grendehus barnehage" />
		<tag k="no-barnehage:nsrid" v="1019860" />
		<tag k="operator" v="Heer Grendehus barnehage Sa" />
		<tag k="operator:type" v="private" />
	</node>
	<node id="-2807" lat="59.68366" lon="10.66119">
		<tag k="ADDRESS" v="Heer Alle 16, 1445 DRØBAK" />
		<tag k="amenity" v="kindergarten" />
		<tag k="capacity" v="73" />
		<tag k="max_age" v="5" />
		<tag k="min_age" v="1" />
		<tag k="name" v="Heer barnehage" />
		<tag k="no-barnehage:nsrid" v="1017525" />
		<tag k="operator" v="Frogn kommune" />
		<tag k="operator:type" v="public" />
	</node>
	<node id="-2806" lat="59.64156" lon="10.67628">
		<tag k="ADDRESS" v="Solbergveien 31, 1449 DRØBAK" />
		<tag k="amenity" v="kindergarten" />
		<tag k="name" v="Frogn/drøbak natur og gårdsbarnehage" />
		<tag k="no-barnehage:nsrid" v="1021580" />
		<tag k="operator" v="Gry Hultgren" />
		<tag k="operator:type" v="private" />
	</node>
	<node id="-2805" lat="59.64156" lon="10.67628">
		<tag k="ADDRESS" v="Solbergveien 31, 1449 DRØBAK" />
		<tag k="amenity" v="kindergarten" />
		<tag k="name" v="Frogn Pedagogiske Senter" />
		<tag k="no-barnehage:nsrid" v="1022431" />
		<tag k="operator" v="Frogn Pedagogiske Senter AS" />
		<tag k="operator:type" v="private" />
	</node>
	<node id="-2804" lat="59.66714" lon="10.62763">
		<tag k="ADDRESS" v="Niels Carlsens Gate 31, 1443 DRØBAK" />
		<tag k="amenity" v="kindergarten" />
		<tag k="capacity" v="48" />
		<tag k="max_age" v="5" />
		<tag k="min_age" v="1" />
		<tag k="name" v="Frelsesarmeens barnehager avd. Solgry" />
		<tag k="no-barnehage:nsrid" v="1016766" />
		<tag k="operator" v="Frelsesarmeen" />
		<tag k="operator:type" v="private" />
	</node>
	<node id="-2803" lat="59.64462" lon="10.64134">
		<tag k="ADDRESS" v="Arne Høilands Vei 1, 1444 DRØBAK" />
		<tag k="amenity" v="kindergarten" />
		<tag k="max_age" v="5" />
		<tag k="min_age" v="1" />
		<tag k="name" v="Elleflaten barnehage" />
		<tag k="no-barnehage:nsrid" v="1017524" />
		<tag k="operator" v="Frogn kommune" />
		<tag k="operator:type" v="public" />
	</node>
	<node id="-2802" lat="59.66625" lon="10.65443">
		<tag k="ADDRESS" v="Hegreveien 10, 1448 DRØBAK" />
		<tag k="amenity" v="kindergarten" />
		<tag k="capacity" v="80" />
		<tag k="max_age" v="5" />
		<tag k="min_age" v="1" />
		<tag k="name" v="Dyrløkkeåsen barnehage" />
		<tag k="no-barnehage:nsrid" v="1015473" />
		<tag k="operator" v="Frogn kommune" />
		<tag k="operator:type" v="public" />
	</node>
	<node id="-2801" lat="59.66327" lon="10.62904">
		<tag k="ADDRESS" v="Torget 4, 1440 DRØBAK" />
		<tag k="amenity" v="kindergarten" />
		<tag k="name" v="Drøbak åpen barnehage" />
		<tag k="no-barnehage:nsrid" v="1013357" />
		<tag k="operator" v="Frogn kommune" />
		<tag k="operator:type" v="public" />
	</node>
	<node id="-2800" lat="59.66263" lon="10.6342">
		<tag k="ADDRESS" v="Gulliksbakken 2, 1440 DRØBAK" />
		<tag k="amenity" v="kindergarten" />
		<tag k="capacity" v="29" />
		<tag k="max_age" v="5" />
		<tag k="min_age" v="1" />
		<tag k="name" v="Drøbak Montessori barnehage" />
		<tag k="no-barnehage:nsrid" v="1020859" />
		<tag k="operator" v="Drøbak Montessori Stiftelse" />
		<tag k="operator:type" v="private" />
	</node>
	<node id="-2799" lat="59.7449" lon="10.69767">
		<tag k="ADDRESS" v="Nesoddveien 207, 1455 NORDRE FROGN" />
		<tag k="amenity" v="kindergarten" />
		<tag k="capacity" v="37" />
		<tag k="max_age" v="5" />
		<tag k="min_age" v="1" />
		<tag k="name" v="Dal barnehage" />
		<tag k="no-barnehage:nsrid" v="1016962" />
		<tag k="operator" v="Frogn kommune" />
		<tag k="operator:type" v="public" />
	</node>
	<node id="-2798" lat="59.6577" lon="10.64351">
		<tag k="ADDRESS" v="Bjerkeveien 4, 1446 DRØBAK" />
		<tag k="amenity" v="kindergarten" />
		<tag k="capacity" v="64" />
		<tag k="contact:website" v="http://bjerkeveien.barnehage.no" />
		<tag k="max_age" v="5" />
		<tag k="min_age" v="1" />
		<tag k="name" v="Bjerkeveien barnehage" />
		<tag k="no-barnehage:nsrid" v="1021095" />
		<tag k="operator" v="Bjerkeveien barnehage Sa" />
		<tag k="operator:type" v="private" />
	</node>
	<node id="-2797" lat="59.68959" lon="10.69328">
		<tag k="ADDRESS" v="Osloveien 251, 1449 DRØBAK" />
		<tag k="amenity" v="kindergarten" />
		<tag k="capacity" v="40" />
		<tag k="max_age" v="5" />
		<tag k="min_age" v="1" />
		<tag k="name" v="Bilitt barnehage" />
		<tag k="no-barnehage:nsrid" v="1017482" />
		<tag k="operator" v="Frogn kommune" />
		<tag k="operator:type" v="public" />
	</node>
</osm>
