<?xml version="1.0" encoding="UTF-8"?>
<osm generator="osmapis" version="0.6">
	<node id="-2847" lat="59.11479" lon="9.54779">
		<tag k="ADDRESS" v="Strandveien 6b, 3965 HERRE" />
		<tag k="amenity" v="kindergarten" />
		<tag k="capacity" v="49" />
		<tag k="max_age" v="5" />
		<tag k="min_age" v="1" />
		<tag k="name" v="Uksodden barnehage" />
		<tag k="no-barnehage:nsrid" v="1018042" />
		<tag k="operator" v="Bamble kommune" />
		<tag k="operator:type" v="public" />
	</node>
	<node id="-2846" lat="59.01937" lon="9.72533">
		<tag k="ADDRESS" v="Sykehjemsveien 2, 3961 STATHELLE" />
		<tag k="amenity" v="kindergarten" />
		<tag k="capacity" v="45" />
		<tag k="max_age" v="5" />
		<tag k="min_age" v="1" />
		<tag k="name" v="Sundby barnehage" />
		<tag k="no-barnehage:nsrid" v="1017349" />
		<tag k="operator" v="Bamble kommune" />
		<tag k="operator:type" v="public" />
	</node>
	<node id="-2845" lat="59.0243" lon="9.70777">
		<tag k="ADDRESS" v="Reiduns Vei 1, 3961 STATHELLE" />
		<tag k="amenity" v="kindergarten" />
		<tag k="capacity" v="37" />
		<tag k="max_age" v="5" />
		<tag k="min_age" v="1" />
		<tag k="name" v="Solstua kulturbarnehage" />
		<tag k="no-barnehage:nsrid" v="1020820" />
		<tag k="operator" v="Solstua Kulturbarnehage AS" />
		<tag k="operator:type" v="private" />
	</node>
	<node id="-2844" lat="58.9739" lon="9.57144">
		<tag k="ADDRESS" v="Rønholtveien 71, 3967 STATHELLE" />
		<tag k="amenity" v="kindergarten" />
		<tag k="capacity" v="52" />
		<tag k="max_age" v="5" />
		<tag k="min_age" v="1" />
		<tag k="name" v="Rønholt barnehage" />
		<tag k="no-barnehage:nsrid" v="1015461" />
		<tag k="operator" v="Bamble kommune" />
		<tag k="operator:type" v="public" />
	</node>
	<node id="-2843" lat="59.01149" lon="9.7278">
		<tag k="ADDRESS" v="Øvre Nustadvei 10, 3970 LANGESUND" />
		<tag k="amenity" v="kindergarten" />
		<tag k="capacity" v="96" />
		<tag k="max_age" v="5" />
		<tag k="min_age" v="1" />
		<tag k="name" v="Nustad barnehage" />
		<tag k="no-barnehage:nsrid" v="1018041" />
		<tag k="operator" v="Bamble kommune" />
		<tag k="operator:type" v="public" />
	</node>
	<node id="-2842" lat="59.02937" lon="9.70242">
		<tag k="ADDRESS" v="Tønderveien 11, 3961 STATHELLE" />
		<tag k="amenity" v="kindergarten" />
		<tag k="capacity" v="59" />
		<tag k="contact:website" v="http://www.bamble.kommune.no/SB/barnehager/grasmyr-barnehage/" />
		<tag k="max_age" v="5" />
		<tag k="min_age" v="1" />
		<tag k="name" v="Grasmyr naturbarnehage" />
		<tag k="no-barnehage:nsrid" v="1013087" />
		<tag k="operator" v="Bamble kommune" />
		<tag k="operator:type" v="public" />
	</node>
	<node id="-2841" lat="59.04204" lon="9.69414">
		<tag k="ADDRESS" v="Falkåsveien 14, 3960 STATHELLE" />
		<tag k="amenity" v="kindergarten" />
		<tag k="capacity" v="36" />
		<tag k="max_age" v="5" />
		<tag k="min_age" v="3" />
		<tag k="name" v="Falkåsen barnehage" />
		<tag k="no-barnehage:nsrid" v="1017406" />
		<tag k="operator" v="Bamble kommune" />
		<tag k="operator:type" v="public" />
	</node>
	<node id="-2840" lat="59.03912" lon="9.69684">
		<tag k="ADDRESS" v="Furuveien 29, 3960 STATHELLE" />
		<tag k="amenity" v="kindergarten" />
		<tag k="capacity" v="17" />
		<tag k="max_age" v="2" />
		<tag k="min_age" v="1" />
		<tag k="name" v="Falkåsen barnehage avd. Lyngbakken" />
		<tag k="no-barnehage:nsrid" v="1026294" />
		<tag k="operator" v="Bamble kommune" />
		<tag k="operator:type" v="public" />
	</node>
</osm>
