<?xml version="1.0" encoding="UTF-8"?>
<osm generator="osmapis" version="0.6">
	<node id="-2864" lat="59.1148" lon="9.5478">
		<tag k="amenity" v="kindergarten" />
		<tag k="capacity" v="51" />
		<tag k="contact:email" v="elin.ulstrup@bamble.kommune.no" />
		<tag k="contact:phone" v="+47 35 96 64 31" />
		<tag k="max_age" v="5" />
		<tag k="min_age" v="1" />
		<tag k="name" v="Uksodden barnehage" />
		<tag k="no-barnehage:nsrid" v="1018042" />
		<tag k="operator" v="Bamble kommune" />
		<tag k="operator:type" v="public" />
		<tag k="start_date" v="1989-01-01" />
	</node>
	<node id="-2863" lat="59.02397" lon="9.707579">
		<tag k="amenity" v="kindergarten" />
		<tag k="capacity" v="50" />
		<tag k="contact:email" v="dagligleder.tirilltoppen@barnehage.no" />
		<tag k="contact:website" v="http://www.tirilltoppen.barnehage.no" />
		<tag k="max_age" v="5" />
		<tag k="min_age" v="1" />
		<tag k="name" v="Tirilltoppen barnehage" />
		<tag k="no-barnehage:nsrid" v="1020003" />
		<tag k="operator" v="Tirilltoppen barnehage Bamle Sa" />
		<tag k="operator:type" v="private" />
		<tag k="start_date" v="1991-07-01" />
	</node>
	<node id="-2862" lat="59.0194" lon="9.72534">
		<tag k="amenity" v="kindergarten" />
		<tag k="capacity" v="42" />
		<tag k="contact:email" v="gunn.walle@bamble.kommune.no" />
		<tag k="contact:phone" v="+47 35 97 26 19" />
		<tag k="max_age" v="5" />
		<tag k="min_age" v="1" />
		<tag k="name" v="Sundby barnehage" />
		<tag k="no-barnehage:nsrid" v="1017349" />
		<tag k="operator" v="Bamble kommune" />
		<tag k="operator:type" v="public" />
		<tag k="start_date" v="1976-01-01" />
	</node>
	<node id="-2861" lat="59.04516" lon="9.69819">
		<tag k="amenity" v="kindergarten" />
		<tag k="capacity" v="53" />
		<tag k="contact:email" v="svbhg@online.no" />
		<tag k="contact:phone" v="+47 35 97 65 60" />
		<tag k="max_age" v="5" />
		<tag k="min_age" v="1" />
		<tag k="name" v="Stokkevannet barnehage Sa" />
		<tag k="no-barnehage:nsrid" v="1020896" />
		<tag k="operator" v="Stokkevannet barnehage Sa" />
		<tag k="operator:type" v="private" />
		<tag k="start_date" v="2000-09-13" />
	</node>
	<node id="-2860" lat="59.0243" lon="9.707772">
		<tag k="amenity" v="kindergarten" />
		<tag k="capacity" v="34" />
		<tag k="contact:email" v="epost@solstua-kulturbarnehage.no" />
		<tag k="contact:phone" v="+47 35 96 38 00" />
		<tag k="max_age" v="5" />
		<tag k="min_age" v="1" />
		<tag k="name" v="Solstua Kulturbarnehage AS" />
		<tag k="no-barnehage:nsrid" v="1020820" />
		<tag k="operator" v="Solstua Kulturbarnehage AS" />
		<tag k="operator:type" v="private" />
		<tag k="start_date" v="2002-07-27" />
	</node>
	<node id="-2859" lat="58.9739" lon="9.57144">
		<tag k="amenity" v="kindergarten" />
		<tag k="capacity" v="52" />
		<tag k="contact:email" v="monica.stenberg@bamble.kommune.no" />
		<tag k="contact:phone" v="+47 35 97 57 65" />
		<tag k="max_age" v="5" />
		<tag k="min_age" v="1" />
		<tag k="name" v="Rønholt barnehage" />
		<tag k="no-barnehage:nsrid" v="1015461" />
		<tag k="operator" v="Bamble kommune" />
		<tag k="operator:type" v="public" />
		<tag k="start_date" v="1991-07-01" />
	</node>
	<node id="-2858" lat="59.0108" lon="9.72885">
		<tag k="amenity" v="kindergarten" />
		<tag k="capacity" v="96" />
		<tag k="contact:email" v="cathrine.braathen@bamble.kommune.no" />
		<tag k="contact:phone" v="+47 35 97 38 66" />
		<tag k="max_age" v="5" />
		<tag k="min_age" v="1" />
		<tag k="name" v="Nustad barnehage" />
		<tag k="no-barnehage:nsrid" v="1018041" />
		<tag k="operator" v="Bamble kommune" />
		<tag k="operator:type" v="public" />
		<tag k="start_date" v="1989-01-01" />
	</node>
	<node id="-2857" lat="59.0294" lon="9.70242">
		<tag k="amenity" v="kindergarten" />
		<tag k="capacity" v="71" />
		<tag k="contact:email" v="marit.nikolaisen@bamble.kommune.no" />
		<tag k="contact:phone" v="+47 35 96 59 20" />
		<tag k="max_age" v="5" />
		<tag k="min_age" v="1" />
		<tag k="name" v="Grasmyr barnehage" />
		<tag k="no-barnehage:nsrid" v="1013087" />
		<tag k="operator" v="Bamble kommune" />
		<tag k="operator:type" v="public" />
		<tag k="start_date" v="2004-08-01" />
	</node>
	<node id="-2856" lat="59.0257" lon="9.70475">
		<tag k="amenity" v="kindergarten" />
		<tag k="capacity" v="52" />
		<tag k="contact:email" v="Bjorg.ditlefsen@grashoppa.no" />
		<tag k="contact:phone" v="+47 906 10 570" />
		<tag k="max_age" v="5" />
		<tag k="min_age" v="1" />
		<tag k="name" v="Grashoppa barnehage AS" />
		<tag k="no-barnehage:nsrid" v="1015087" />
		<tag k="operator" v="Grashoppa barnehage AS" />
		<tag k="operator:type" v="private" />
		<tag k="start_date" v="2012-02-10" />
	</node>
	<node id="-2855" lat="59.0257" lon="9.70475">
		<tag k="amenity" v="kindergarten" />
		<tag k="contact:email" v="bjorg.ditlefsen@grashoppa.no" />
		<tag k="name" v="Grashoppa barnehage Avd Åpen Barnehage" />
		<tag k="no-barnehage:nsrid" v="1013189" />
		<tag k="operator" v="Grashoppa barnehage AS" />
		<tag k="operator:type" v="private" />
		<tag k="start_date" v="2000-01-01" />
	</node>
	<node id="-2854" lat="59.03912" lon="9.696845">
		<tag k="amenity" v="kindergarten" />
		<tag k="capacity" v="18" />
		<tag k="contact:email" v="hanne.enger@bamble.kommune.no" />
		<tag k="max_age" v="5" />
		<tag k="min_age" v="1" />
		<tag k="name" v="Falkåsen barnehage Avd Lyngbakken" />
		<tag k="no-barnehage:nsrid" v="1026294" />
		<tag k="operator" v="Bamble kommune" />
		<tag k="operator:type" v="public" />
		<tag k="start_date" v="2015-11-01" />
	</node>
	<node id="-2853" lat="59.042" lon="9.69414">
		<tag k="amenity" v="kindergarten" />
		<tag k="capacity" v="35" />
		<tag k="contact:email" v="hanne.enger@bamble.kommune.no" />
		<tag k="contact:phone" v="+47 35 96 64 01" />
		<tag k="max_age" v="5" />
		<tag k="min_age" v="3" />
		<tag k="name" v="Falkåsen barnehage Avd Falkåsveien" />
		<tag k="no-barnehage:nsrid" v="1017406" />
		<tag k="operator" v="Bamble kommune" />
		<tag k="operator:type" v="public" />
		<tag k="start_date" v="1979-01-12" />
	</node>
	<node id="-2852" lat="59.04539" lon="9.65899">
		<tag k="amenity" v="kindergarten" />
		<tag k="capacity" v="89" />
		<tag k="contact:email" v="ulla@barnehagedrift.no" />
		<tag k="contact:phone" v="+47 35 96 06 00" />
		<tag k="max_age" v="5" />
		<tag k="min_age" v="1" />
		<tag k="name" v="Barnehagen Marthas Hage AS" />
		<tag k="no-barnehage:nsrid" v="1022171" />
		<tag k="operator" v="Barnehagen Marthas Hage AS" />
		<tag k="operator:type" v="private" />
		<tag k="start_date" v="2011-02-11" />
	</node>
</osm>
