<?xml version="1.0" encoding="UTF-8"?>
<osm version="0.6" generator="osmapis">
	<node lat="59.79997" lon="5.5203" id="-4317">
		<tag k="ADDRESS" v="Dalen 26, 5416 STORD" />
		<tag k="amenity" v="kindergarten" />
		<tag k="capacity" v="49" />
		<tag k="contact:website" v="http://fus.no/dalen" />
		<tag k="max_age" v="5" />
		<tag k="min_age" v="1" />
		<tag k="name" v="Dalen FUS friluftsbarnehage" />
		<tag k="no-barnehage:nsrid" v="994349511" />
		<tag k="operator" v="Dalen Fus friluftsbarnehage AS" />
		<tag k="operator:type" v="private" />
	</node>
	<node lat="0.0" lon="0.0" id="-4318">
		<tag k="ADDRESS" v="Olvikvegen 50a, 5416 STORD" />
		<tag k="amenity" v="kindergarten" />
		<tag k="capacity" v="40" />
		<tag k="max_age" v="5" />
		<tag k="min_age" v="1" />
		<tag k="name" v="Furuly barnehage" />
		<tag k="no-barnehage:nsrid" v="975296040" />
		<tag k="operator" v="Stord kommune" />
		<tag k="operator:type" v="public" />
	</node>
	<node lat="0.0" lon="0.0" id="-4319">
		<tag k="ADDRESS" v="Heiane, 5412 STORD" />
		<tag k="amenity" v="kindergarten" />
		<tag k="capacity" v="19" />
		<tag k="max_age" v="5" />
		<tag k="min_age" v="1" />
		<tag k="name" v="Heiane barnehage" />
		<tag k="no-barnehage:nsrid" v="989318764" />
		<tag k="operator" v="Hero Norge AS" />
		<tag k="operator:type" v="private" />
	</node>
	<node lat="59.75391" lon="5.46699" id="-4320">
		<tag k="ADDRESS" v="Kårevikmarkjo 100, 5412 STORD" />
		<tag k="amenity" v="kindergarten" />
		<tag k="capacity" v="58" />
		<tag k="max_age" v="5" />
		<tag k="min_age" v="1" />
		<tag k="name" v="Kåreviksmarka FUS barnehage" />
		<tag k="no-barnehage:nsrid" v="986896848" />
		<tag k="operator" v="Kåreviksmarka Fus barnehage AS" />
		<tag k="operator:type" v="private" />
	</node>
	<node lat="59.78687" lon="5.50058" id="-4321">
		<tag k="ADDRESS" v="Åsringen 63, 5417 STORD" />
		<tag k="amenity" v="kindergarten" />
		<tag k="capacity" v="124" />
		<tag k="max_age" v="5" />
		<tag k="min_age" v="1" />
		<tag k="name" v="Læringsverkstedet barnehage avd. Sæ barnehage" />
		<tag k="no-barnehage:nsrid" v="896934112" />
		<tag k="operator" v="Læringsverkstedet AS" />
		<tag k="operator:type" v="private" />
	</node>
	<node lat="59.76607" lon="5.50061" id="-4322">
		<tag k="ADDRESS" v="Kjøtteinsvegen 188, 5411 STORD" />
		<tag k="amenity" v="kindergarten" />
		<tag k="capacity" v="54" />
		<tag k="contact:website" v="http://www.naustvaagen.no" />
		<tag k="max_age" v="5" />
		<tag k="min_age" v="1" />
		<tag k="name" v="Naustvågen barnehage" />
		<tag k="no-barnehage:nsrid" v="982318475" />
		<tag k="operator" v="Naustvågen barnehage" />
		<tag k="operator:type" v="private" />
	</node>
	<node lat="59.80128" lon="5.51315" id="-4323">
		<tag k="ADDRESS" v="Vestlivegen 40, 5414 STORD" />
		<tag k="amenity" v="kindergarten" />
		<tag k="capacity" v="57" />
		<tag k="contact:website" v="http://fus.no/nordbygdo" />
		<tag k="max_age" v="5" />
		<tag k="min_age" v="1" />
		<tag k="name" v="Nordbygdo FUS barnehage avd. Prestagardskogen" />
		<tag k="no-barnehage:nsrid" v="980335771" />
		<tag k="operator" v="Nordbygdo Fus barnehage AS" />
		<tag k="operator:type" v="private" />
	</node>
	<node lat="59.80415" lon="5.50711" id="-4324">
		<tag k="ADDRESS" v="Tysemarkjo 47, 5414 STORD" />
		<tag k="amenity" v="kindergarten" />
		<tag k="capacity" v="75" />
		<tag k="max_age" v="5" />
		<tag k="min_age" v="1" />
		<tag k="name" v="Nordbygdo FUS barnehage avd. Tyse" />
		<tag k="no-barnehage:nsrid" v="911616734" />
		<tag k="operator" v="Nordbygdo Fus barnehage AS" />
		<tag k="operator:type" v="private" />
	</node>
	<node lat="59.75794" lon="5.45049" id="-4325">
		<tag k="ADDRESS" v="Myrateigen 2, 5412 STORD" />
		<tag k="amenity" v="kindergarten" />
		<tag k="capacity" v="89" />
		<tag k="max_age" v="5" />
		<tag k="min_age" v="1" />
		<tag k="name" v="Olderdalen FUS barnehage" />
		<tag k="no-barnehage:nsrid" v="990739609" />
		<tag k="operator" v="Olderdalen Fus kulturbarnehage AS" />
		<tag k="operator:type" v="private" />
	</node>
	<node lat="0.0" lon="0.0" id="-4326">
		<tag k="ADDRESS" v="Sætravikvegen 2, 5410 SAGVÅG" />
		<tag k="amenity" v="kindergarten" />
		<tag k="capacity" v="43" />
		<tag k="max_age" v="5" />
		<tag k="min_age" v="1" />
		<tag k="name" v="Sagvåg barnehage avd. Tjødnalio" />
		<tag k="no-barnehage:nsrid" v="975315630" />
		<tag k="operator" v="Stord kommune" />
		<tag k="operator:type" v="public" />
	</node>
	<node lat="59.78251" lon="5.39794" id="-4327">
		<tag k="ADDRESS" v="Kyrkjevegen 21, 5410 SAGVÅG" />
		<tag k="amenity" v="kindergarten" />
		<tag k="capacity" v="31" />
		<tag k="max_age" v="5" />
		<tag k="min_age" v="1" />
		<tag k="name" v="Sagvåg barnehage avd. Nysæter" />
		<tag k="no-barnehage:nsrid" v="975323285" />
		<tag k="operator" v="Stord kommune" />
		<tag k="operator:type" v="public" />
	</node>
	<node lat="59.77949" lon="5.39181" id="-4328">
		<tag k="ADDRESS" v="Fitjarvegen 24, 5410 SAGVÅG" />
		<tag k="amenity" v="kindergarten" />
		<tag k="capacity" v="81" />
		<tag k="contact:website" v="http://fus.no/sagvag" />
		<tag k="max_age" v="5" />
		<tag k="min_age" v="1" />
		<tag k="name" v="Sagvåg Maritime FUS barnehage" />
		<tag k="no-barnehage:nsrid" v="992098783" />
		<tag k="operator" v="Sagvåg Maritime Fus barnehage AS" />
		<tag k="operator:type" v="private" />
	</node>
	<node lat="59.77544" lon="5.4984" id="-4329">
		<tag k="ADDRESS" v="Storasletto 65, 5411 STORD" />
		<tag k="amenity" v="kindergarten" />
		<tag k="capacity" v="61" />
		<tag k="max_age" v="5" />
		<tag k="min_age" v="1" />
		<tag k="name" v="Skogatufto barnehage" />
		<tag k="no-barnehage:nsrid" v="975296032" />
		<tag k="operator" v="Stord kommune" />
		<tag k="operator:type" v="public" />
	</node>
	<node lat="0.0" lon="0.0" id="-4330">
		<tag k="ADDRESS" v="Litlabøvegen 139B, 5417 STORD" />
		<tag k="amenity" v="kindergarten" />
		<tag k="capacity" v="20" />
		<tag k="contact:website" v="http://www.solsikkenebarnehager.no" />
		<tag k="max_age" v="5" />
		<tag k="min_age" v="1" />
		<tag k="name" v="Stuastølen gardsbarnehage" />
		<tag k="no-barnehage:nsrid" v="988487376" />
		<tag k="operator" v="Solsikkene barnehager AS" />
		<tag k="operator:type" v="private" />
	</node>
	<node lat="59.80122" lon="5.52637" id="-4331">
		<tag k="ADDRESS" v="Sævarhagen 47, 5416 STORD" />
		<tag k="amenity" v="kindergarten" />
		<tag k="capacity" v="88" />
		<tag k="max_age" v="5" />
		<tag k="min_age" v="1" />
		<tag k="name" v="Sævarhagen FUS barnehage" />
		<tag k="no-barnehage:nsrid" v="975323269" />
		<tag k="operator" v="Sævarhagen Fus barnehage AS" />
		<tag k="operator:type" v="private" />
	</node>
	<node lat="59.76249" lon="5.46977" id="-4332">
		<tag k="ADDRESS" v="Trodlahaugen 4, 5412 STORD" />
		<tag k="amenity" v="kindergarten" />
		<tag k="capacity" v="48" />
		<tag k="max_age" v="5" />
		<tag k="min_age" v="1" />
		<tag k="name" v="Trodlahaugen barnehage" />
		<tag k="no-barnehage:nsrid" v="975308715" />
		<tag k="operator" v="Stord kommune" />
		<tag k="operator:type" v="public" />
	</node>
	<node lat="59.76538" lon="5.43732" id="-4333">
		<tag k="ADDRESS" v="Åsaheio 1, 5412 STORD" />
		<tag k="amenity" v="kindergarten" />
		<tag k="capacity" v="61" />
		<tag k="max_age" v="5" />
		<tag k="min_age" v="1" />
		<tag k="name" v="Valvatna FUS barnehage" />
		<tag k="no-barnehage:nsrid" v="986896724" />
		<tag k="operator" v="Valvatna Fus barnehage AS" />
		<tag k="operator:type" v="private" />
	</node>
	<node lat="0.0" lon="0.0" id="-4334">
		<tag k="ADDRESS" v="Klingenbergvegen, 5414 STORD" />
		<tag k="amenity" v="kindergarten" />
		<tag k="capacity" v="15" />
		<tag k="max_age" v="5" />
		<tag k="min_age" v="1" />
		<tag k="name" v="Villvettene friluftsbarnehage avd. Rommetveit" />
		<tag k="no-barnehage:nsrid" v="991111298" />
		<tag k="operator" v="Villvettene friluftsbarnehage avd Rommetveit AS" />
		<tag k="operator:type" v="private" />
	</node>
	<node lat="59.78793" lon="5.50019" id="-4335">
		<tag k="ADDRESS" v="Åsringen 87, 5417 STORD" />
		<tag k="amenity" v="kindergarten" />
		<tag k="capacity" v="82" />
		<tag k="max_age" v="5" />
		<tag k="min_age" v="1" />
		<tag k="name" v="Ås barnehage" />
		<tag k="no-barnehage:nsrid" v="888380892" />
		<tag k="operator" v="Ås barnehage AS" />
		<tag k="operator:type" v="private" />
	</node>
</osm>
