<?xml version="1.0" encoding="UTF-8"?>
<osm generator="osmapis" version="0.6">
	<node id="-5551" lat="68.3406" lon="16.8244">
		<tag k="amenity" v="kindergarten" />
		<tag k="capacity" v="24" />
		<tag k="contact:email" v="mette.akselsen@ballangen.kommune.no" />
		<tag k="contact:phone" v="+47 76929320" />
		<tag k="max_age" v="5" />
		<tag k="min_age" v="1" />
		<tag k="name" v="Ballangen barnehage" />
		<tag k="no-barnehage:nsrid" v="1013684" />
		<tag k="operator" v="Ballangen kommune" />
		<tag k="operator:type" v="public" />
		<tag k="start_date" v="1989-01-01" />
	</node>
	<node id="-5555" lat="68.3286" lon="16.7999">
		<tag k="amenity" v="kindergarten" />
		<tag k="capacity" v="30" />
		<tag k="contact:email" v="beate.samuelsen@ballangen.kommune.no" />
		<tag k="contact:phone" v="+47 76929010" />
		<tag k="max_age" v="5" />
		<tag k="min_age" v="1" />
		<tag k="name" v="Stollen barnehage" />
		<tag k="no-barnehage:nsrid" v="1013163" />
		<tag k="operator" v="Ballangen kommune" />
		<tag k="operator:type" v="public" />
		<tag k="start_date" v="2005-01-26" />
	</node>
	<node id="-5554" lat="68.4056" lon="16.6618">
		<tag k="amenity" v="kindergarten" />
		<tag k="capacity" v="9" />
		<tag k="contact:email" v="gro.hoseth@ballangen.kommune.no" />
		<tag k="contact:phone" v="+47 76929295" />
		<tag k="max_age" v="5" />
		<tag k="min_age" v="1" />
		<tag k="name" v="Kjeldebotn barnehage" />
		<tag k="no-barnehage:nsrid" v="1013685" />
		<tag k="operator" v="Ballangen kommune" />
		<tag k="operator:type" v="public" />
		<tag k="start_date" v="1989-01-01" />
	</node>
	<node id="-5553" lat="68.3867" lon="16.8895">
		<tag k="amenity" v="kindergarten" />
		<tag k="capacity" v="23" />
		<tag k="contact:email" v="mette.akselsen@ballangen.kommune.no" />
		<tag k="contact:phone" v="+47 79 92 93 30" />
		<tag k="max_age" v="5" />
		<tag k="min_age" v="1" />
		<tag k="name" v="BÃ¸strand barnehage" />
		<tag k="no-barnehage:nsrid" v="1015055" />
		<tag k="operator" v="Ballangen kommune" />
		<tag k="operator:type" v="public" />
		<tag k="start_date" v="2011-09-05" />
	</node>
</osm>
