<?xml version="1.0" encoding="UTF-8"?>
<osm generator="osmapis" version="0.6">
	<node id="-3664" lat="70.03695" lon="20.9866">
		<tag k="ADDRESS" v="Fiskenes 25, 9180 SKJERVØY" />
		<tag k="amenity" v="kindergarten" />
		<tag k="capacity" v="36" />
		<tag k="max_age" v="5" />
		<tag k="min_age" v="1" />
		<tag k="name" v="Solstua barnehage" />
		<tag k="no-barnehage:nsrid" v="1026031" />
		<tag k="operator" v="Skjervøy kommune" />
		<tag k="operator:type" v="public" />
	</node>
	<node id="-3663" lat="70.0342" lon="20.96114">
		<tag k="ADDRESS" v="Lailafjellveien 29, 9180 SKJERVØY" />
		<tag k="amenity" v="kindergarten" />
		<tag k="capacity" v="30" />
		<tag k="max_age" v="5" />
		<tag k="min_age" v="1" />
		<tag k="name" v="Eidekroken barnehage" />
		<tag k="no-barnehage:nsrid" v="1015472" />
		<tag k="operator" v="Skjervøy kommune" />
		<tag k="operator:type" v="public" />
	</node>
	<node id="-3662" lat="70.05292" lon="20.62949">
		<tag k="ADDRESS" v="Kågsundveien 1207, 9192 ARNØYHAMN" />
		<tag k="amenity" v="kindergarten" />
		<tag k="capacity" v="2" />
		<tag k="max_age" v="5" />
		<tag k="min_age" v="1" />
		<tag k="name" v="Arnøyhamn barnehage" />
		<tag k="no-barnehage:nsrid" v="1016165" />
		<tag k="operator" v="Skjervøy kommune" />
		<tag k="operator:type" v="public" />
	</node>
	<node id="-3665" lat="70.19384" lon="20.5262">
		<tag k="ADDRESS" v="Ringveien 4, 9195 ÅRVIKSAND" />
		<tag k="amenity" v="kindergarten" />
		<tag k="capacity" v="5" />
		<tag k="max_age" v="5" />
		<tag k="min_age" v="1" />
		<tag k="name" v="Årviksand barnehage" />
		<tag k="no-barnehage:nsrid" v="1026032" />
		<tag k="operator" v="Skjervøy kommune" />
		<tag k="operator:type" v="public" />
	</node>
</osm>
