<?xml version="1.0" encoding="UTF-8"?>
<osm generator="osmapis" version="0.6">
	<node id="-6000" lat="70.19537" lon="20.52687">
		<tag k="amenity" v="kindergarten" />
		<tag k="capacity" v="7" />
		<tag k="contact:email" v="post@arviksandbhg.no" />
		<tag k="contact:phone" v="77 76 25 05" />
		<tag k="max_age" v="5" />
		<tag k="min_age" v="1" />
		<tag k="name" v="Årviksand barnehage Da" />
		<tag k="no-barnehage:nsrid" v="1021548" />
		<tag k="operator" v="Årviksand barnehage Da" />
		<tag k="operator:type" v="private" />
		<tag k="start_date" v="2006-12-05" />
	</node>
	<node id="-5999" lat="69.78852" lon="20.56716">
		<tag k="amenity" v="kindergarten" />
		<tag k="name" v="Årviksand barnehage" />
		<tag k="no-barnehage:nsrid" v="1026032" />
		<tag k="operator" v="Skjervøy kommune" />
		<tag k="operator:type" v="public" />
		<tag k="start_date" v="2015-08-01" />
	</node>
	<node id="-5998" lat="70.0163" lon="20.97665">
		<tag k="amenity" v="kindergarten" />
		<tag k="capacity" v="59" />
		<tag k="max_age" v="5" />
		<tag k="min_age" v="1" />
		<tag k="name" v="Ørneveien Naturbarnehage AS" />
		<tag k="no-barnehage:nsrid" v="1020866" />
		<tag k="operator" v="Ørneveien Naturbarnehage AS" />
		<tag k="operator:type" v="private" />
		<tag k="start_date" v="2003-01-01" />
	</node>
	<node id="-5997" lat="70.0266" lon="20.9745">
		<tag k="amenity" v="kindergarten" />
		<tag k="capacity" v="27" />
		<tag k="contact:email" v="torill.marcussen@skjervoy.kommune.no" />
		<tag k="max_age" v="5" />
		<tag k="min_age" v="1" />
		<tag k="name" v="Vågen barnehage" />
		<tag k="no-barnehage:nsrid" v="1013709" />
		<tag k="operator" v="Skjervøy kommune" />
		<tag k="operator:type" v="public" />
		<tag k="start_date" v="1989-01-01" />
	</node>
	<node id="-5996" lat="70.03695" lon="20.9866">
		<tag k="amenity" v="kindergarten" />
		<tag k="name" v="Solstua barnehage" />
		<tag k="no-barnehage:nsrid" v="1026031" />
		<tag k="operator" v="Skjervøy kommune" />
		<tag k="operator:type" v="public" />
		<tag k="start_date" v="2015-08-01" />
	</node>
	<node id="-5995" lat="70.0342" lon="20.9611">
		<tag k="amenity" v="kindergarten" />
		<tag k="capacity" v="27" />
		<tag k="contact:email" v="dag.johansen@skjervoy.kommune.no" />
		<tag k="contact:phone" v="77775676" />
		<tag k="max_age" v="5" />
		<tag k="min_age" v="1" />
		<tag k="name" v="Eidekroken barnehage" />
		<tag k="no-barnehage:nsrid" v="1015472" />
		<tag k="operator" v="Skjervøy kommune" />
		<tag k="operator:type" v="public" />
		<tag k="start_date" v="1993-07-01" />
	</node>
	<node id="-5994" lat="70.0527" lon="20.6322">
		<tag k="amenity" v="kindergarten" />
		<tag k="capacity" v="5" />
		<tag k="contact:email" v="goril.isaksen@skjervoy.kommune.no" />
		<tag k="contact:phone" v="77775676" />
		<tag k="max_age" v="5" />
		<tag k="min_age" v="1" />
		<tag k="name" v="Arnøyhamn barnehage" />
		<tag k="no-barnehage:nsrid" v="1016165" />
		<tag k="operator" v="Skjervøy kommune" />
		<tag k="operator:type" v="public" />
		<tag k="start_date" v="1989-01-02" />
	</node>
</osm>
