<?xml version="1.0" encoding="UTF-8"?>
<osm generator="osmapis" version="0.6">
	<node id="-1896" lat="59.24687" lon="10.92182">
		<tag k="ADDRESS" v="Rytterveien 19, 1615 FREDRIKSTAD" />
		<tag k="amenity" v="kindergarten" />
		<tag k="capacity" v="114" />
		<tag k="max_age" v="5" />
		<tag k="min_age" v="1" />
		<tag k="name" v="Ambjørnrød barnehage" />
		<tag k="no-barnehage:nsrid" v="875320602" />
		<tag k="operator" v="Fredrikstad kommune" />
		<tag k="operator:type" v="public" />
	</node>
	<node id="-1897" lat="59.22346" lon="10.90181">
		<tag k="ADDRESS" v="Hurrødstien 6, 1621 GRESSVIK" />
		<tag k="amenity" v="kindergarten" />
		<tag k="capacity" v="94" />
		<tag k="contact:website" v="http://bamseby.barnehage.no/" />
		<tag k="max_age" v="5" />
		<tag k="min_age" v="1" />
		<tag k="name" v="Bamseby barnehage" />
		<tag k="no-barnehage:nsrid" v="987864915" />
		<tag k="operator" v="Benedicte Gundersen AS" />
		<tag k="operator:type" v="private" />
	</node>
	<node id="-1898" lat="59.21756" lon="11.00789">
		<tag k="ADDRESS" v="Olav Kyrres Vei 4, 1639 GAMLE FREDRIKSTAD" />
		<tag k="amenity" v="kindergarten" />
		<tag k="capacity" v="81" />
		<tag k="max_age" v="5" />
		<tag k="min_age" v="1" />
		<tag k="name" v="Begbyenga barnehage" />
		<tag k="no-barnehage:nsrid" v="989981501" />
		<tag k="operator" v="Samvirkebarnehagene Sa" />
		<tag k="operator:type" v="private" />
	</node>
	<node id="-1899" lat="59.21187" lon="11.01489">
		<tag k="ADDRESS" v="Smaragdveien 18, 1639 GAMLE FREDRIKSTAD" />
		<tag k="amenity" v="kindergarten" />
		<tag k="capacity" v="64" />
		<tag k="max_age" v="5" />
		<tag k="min_age" v="1" />
		<tag k="name" v="Bjørneklova barnehage" />
		<tag k="no-barnehage:nsrid" v="874565342" />
		<tag k="operator" v="Fredrikstad kommune" />
		<tag k="operator:type" v="public" />
	</node>
	<node id="-1900" lat="59.16142" lon="10.93445">
		<tag k="ADDRESS" v="Kasaveien 4, 1676 KRÅKERØY" />
		<tag k="amenity" v="kindergarten" />
		<tag k="capacity" v="52" />
		<tag k="max_age" v="5" />
		<tag k="min_age" v="1" />
		<tag k="name" v="Blomsterøya barnehage" />
		<tag k="no-barnehage:nsrid" v="971634189" />
		<tag k="operator" v="Blomsterøya barnehage Sa" />
		<tag k="operator:type" v="private" />
	</node>
	<node id="-1901" lat="59.21811" lon="10.94078">
		<tag k="ADDRESS" v="Freskoveien 1, 1605 FREDRIKSTAD" />
		<tag k="amenity" v="kindergarten" />
		<tag k="name" v="Blå Kors Fredrikstad Barnas Stasjon" />
		<tag k="no-barnehage:nsrid" v="993910317" />
		<tag k="operator" v="Stiftelsen Blå Kors Fredrikstad" />
		<tag k="operator:type" v="private" />
	</node>
	<node id="-1902" lat="59.17988" lon="10.93882">
		<tag k="ADDRESS" v="Buskogen 64, 1675 KRÅKERØY" />
		<tag k="amenity" v="kindergarten" />
		<tag k="capacity" v="33" />
		<tag k="max_age" v="5" />
		<tag k="min_age" v="1" />
		<tag k="name" v="Buskogen barnehage" />
		<tag k="no-barnehage:nsrid" v="990761809" />
		<tag k="operator" v="Fredrikstad kommune" />
		<tag k="operator:type" v="public" />
	</node>
	<node id="-1903" lat="59.25375" lon="10.74985">
		<tag k="ADDRESS" v="Skolebakken 6, 1628 ENGELSVIKEN" />
		<tag k="amenity" v="kindergarten" />
		<tag k="capacity" v="43" />
		<tag k="contact:website" v="http://www.engelsvikenbarnehage.no" />
		<tag k="max_age" v="5" />
		<tag k="min_age" v="1" />
		<tag k="name" v="Engelsviken barnehage" />
		<tag k="no-barnehage:nsrid" v="985616949" />
		<tag k="operator" v="Engelsviken barnehage AS" />
		<tag k="operator:type" v="private" />
	</node>
	<node id="-1904" lat="0.0" lon="0.0">
		<tag k="ADDRESS" v="Enhuusveien 29, 1679 KRÅKERØY" />
		<tag k="amenity" v="kindergarten" />
		<tag k="capacity" v="57" />
		<tag k="max_age" v="5" />
		<tag k="min_age" v="1" />
		<tag k="name" v="Fotspor barnehage" />
		<tag k="no-barnehage:nsrid" v="988900303" />
		<tag k="operator" v="Fotspor barnehage AS" />
		<tag k="operator:type" v="private" />
	</node>
	<node id="-1905" lat="59.19715" lon="10.95251">
		<tag k="ADDRESS" v="Øraveien 2F, 1630 GAMLE FREDRIKSTAD" />
		<tag k="amenity" v="kindergarten" />
		<tag k="capacity" v="21" />
		<tag k="max_age" v="5" />
		<tag k="min_age" v="1" />
		<tag k="name" v="Vaterland barnehage" />
		<tag k="no-barnehage:nsrid" v="973454455" />
		<tag k="operator" v="Fredrikstad Røde Kors barnehage" />
		<tag k="operator:type" v="public" />
	</node>
	<node id="-1906" lat="59.24947" lon="10.94086">
		<tag k="ADDRESS" v="Veum allé 8, 1615 FREDRIKSTAD" />
		<tag k="amenity" v="kindergarten" />
		<tag k="capacity" v="49" />
		<tag k="max_age" v="5" />
		<tag k="min_age" v="1" />
		<tag k="name" v="Fredrikstadmarka barnehage - Veum" />
		<tag k="no-barnehage:nsrid" v="974565544" />
		<tag k="operator" v="Fredrikstad kommune" />
		<tag k="operator:type" v="public" />
	</node>
	<node id="-1907" lat="59.26538" lon="10.77113">
		<tag k="ADDRESS" v="Engelsvikenveien 113, 1626 MANSTAD" />
		<tag k="amenity" v="kindergarten" />
		<tag k="capacity" v="68" />
		<tag k="max_age" v="5" />
		<tag k="min_age" v="1" />
		<tag k="name" v="Gaustadgrenda barnehage" />
		<tag k="no-barnehage:nsrid" v="974565668" />
		<tag k="operator" v="Fredrikstad kommune" />
		<tag k="operator:type" v="public" />
	</node>
	<node id="-1908" lat="0.0" lon="0.0">
		<tag k="ADDRESS" v="Glomboveien 18c, 1678 KRÅKERØY" />
		<tag k="amenity" v="kindergarten" />
		<tag k="capacity" v="46" />
		<tag k="contact:website" v="http://www.glombobarnehage.no" />
		<tag k="max_age" v="5" />
		<tag k="min_age" v="1" />
		<tag k="name" v="Glombo barnehage" />
		<tag k="no-barnehage:nsrid" v="993315524" />
		<tag k="operator" v="Glombo barnehage AS" />
		<tag k="operator:type" v="private" />
	</node>
	<node id="-1909" lat="59.21767" lon="10.90734">
		<tag k="ADDRESS" v="N.Jul Andersens vei 6B, 1621 GRESSVIK" />
		<tag k="amenity" v="kindergarten" />
		<tag k="capacity" v="46" />
		<tag k="max_age" v="5" />
		<tag k="min_age" v="1" />
		<tag k="name" v="Gressvik barnehage" />
		<tag k="no-barnehage:nsrid" v="974565676" />
		<tag k="operator" v="Fredrikstad kommune" />
		<tag k="operator:type" v="public" />
	</node>
	<node id="-1910" lat="59.2436" lon="11.01313">
		<tag k="ADDRESS" v="Konvallveien 3, 1658 TORP" />
		<tag k="amenity" v="kindergarten" />
		<tag k="capacity" v="99" />
		<tag k="contact:website" v="http://www.graatassbarnehage.no" />
		<tag k="max_age" v="5" />
		<tag k="min_age" v="1" />
		<tag k="name" v="Gråtass barnehage avd. Torp" />
		<tag k="no-barnehage:nsrid" v="987739061" />
		<tag k="operator" v="Gråtass barnehage AS" />
		<tag k="operator:type" v="private" />
	</node>
	<node id="-1911" lat="59.24428" lon="11.02371">
		<tag k="ADDRESS" v="Roald Amundsens Vei 166, 1658 TORP" />
		<tag k="amenity" v="kindergarten" />
		<tag k="capacity" v="38" />
		<tag k="contact:website" v="http://www.graatassbarnehage.no" />
		<tag k="max_age" v="5" />
		<tag k="min_age" v="1" />
		<tag k="name" v="Gråtass barnehage avd. Fagen" />
		<tag k="no-barnehage:nsrid" v="995792486" />
		<tag k="operator" v="Gråtass barnehage AS" />
		<tag k="operator:type" v="private" />
	</node>
	<node id="-1912" lat="59.2153" lon="11.07486">
		<tag k="ADDRESS" v="Haldenveien 165, 1655 SELLEBAKK" />
		<tag k="amenity" v="kindergarten" />
		<tag k="capacity" v="58" />
		<tag k="contact:website" v="http://www.graatassbarnehage.no" />
		<tag k="max_age" v="5" />
		<tag k="min_age" v="1" />
		<tag k="name" v="Gråtass barnehage avd. Skjærviken" />
		<tag k="no-barnehage:nsrid" v="994900102" />
		<tag k="operator" v="Gråtass barnehage AS" />
		<tag k="operator:type" v="private" />
	</node>
	<node id="-1913" lat="59.20756" lon="10.96587">
		<tag k="ADDRESS" v="Gudevoldveien 8, 1632 GAMLE FREDRIKSTAD" />
		<tag k="amenity" v="kindergarten" />
		<tag k="capacity" v="77" />
		<tag k="max_age" v="5" />
		<tag k="min_age" v="1" />
		<tag k="name" v="Gudevold barnehage" />
		<tag k="no-barnehage:nsrid" v="974633639" />
		<tag k="operator" v="Samvirkebarnehagene Sa" />
		<tag k="operator:type" v="private" />
	</node>
	<node id="-1914" lat="59.24741" lon="10.99898">
		<tag k="ADDRESS" v="Haugeløkka 1, 1661 ROLVSØY" />
		<tag k="amenity" v="kindergarten" />
		<tag k="capacity" v="71" />
		<tag k="max_age" v="5" />
		<tag k="min_age" v="1" />
		<tag k="name" v="Haugeløkka barnehage" />
		<tag k="no-barnehage:nsrid" v="974195127" />
		<tag k="operator" v="Samvirkebarnehagene Sa" />
		<tag k="operator:type" v="private" />
	</node>
	<node id="-1916" lat="59.23737" lon="10.98324">
		<tag k="ADDRESS" v="Produksjonsveien 23, 1618 FREDRIKSTAD" />
		<tag k="amenity" v="kindergarten" />
		<tag k="capacity" v="104" />
		<tag k="max_age" v="5" />
		<tag k="min_age" v="1" />
		<tag k="name" v="Hjørgunn barnehage" />
		<tag k="no-barnehage:nsrid" v="989322052" />
		<tag k="operator" v="Borg Barnehager AS" />
		<tag k="operator:type" v="private" />
	</node>
	<node id="-1917" lat="59.21508" lon="10.95987">
		<tag k="ADDRESS" v="Lislebyveien 68, 1604 FREDRIKSTAD" />
		<tag k="amenity" v="kindergarten" />
		<tag k="capacity" v="71" />
		<tag k="max_age" v="5" />
		<tag k="min_age" v="1" />
		<tag k="name" v="Kiæråsen barnehage" />
		<tag k="no-barnehage:nsrid" v="874565512" />
		<tag k="operator" v="Fredrikstad kommune" />
		<tag k="operator:type" v="public" />
	</node>
	<node id="-1918" lat="59.22797" lon="11.0208">
		<tag k="ADDRESS" v="Njårdsvei 17, 1654 SELLEBAKK" />
		<tag k="amenity" v="kindergarten" />
		<tag k="capacity" v="73" />
		<tag k="contact:website" v="http://kjolbergskogen.barnehage.no" />
		<tag k="max_age" v="5" />
		<tag k="min_age" v="1" />
		<tag k="name" v="Kjølbergskogen barnehagemvirkebarnehagene" />
		<tag k="no-barnehage:nsrid" v="973581570" />
		<tag k="operator" v="Samvirkebarnehagene Sa" />
		<tag k="operator:type" v="private" />
	</node>
	<node id="-1919" lat="59.23668" lon="11.00883">
		<tag k="ADDRESS" v="Alf Prøysens vei 2, 1658 TORP" />
		<tag k="amenity" v="kindergarten" />
		<tag k="capacity" v="63" />
		<tag k="max_age" v="5" />
		<tag k="min_age" v="1" />
		<tag k="name" v="Kjølstad barnehage" />
		<tag k="no-barnehage:nsrid" v="974565358" />
		<tag k="operator" v="Fredrikstad kommune" />
		<tag k="operator:type" v="public" />
	</node>
	<node id="-1920" lat="59.19677" lon="10.95455">
		<tag k="ADDRESS" v="Øraveien 5, 1630 GAMLE FREDRIKSTAD" />
		<tag k="amenity" v="kindergarten" />
		<tag k="capacity" v="50" />
		<tag k="max_age" v="5" />
		<tag k="min_age" v="1" />
		<tag k="name" v="Kongsten barnehage" />
		<tag k="no-barnehage:nsrid" v="974565498" />
		<tag k="operator" v="Fredrikstad kommune" />
		<tag k="operator:type" v="public" />
	</node>
	<node id="-1921" lat="59.21117" lon="10.92871">
		<tag k="ADDRESS" v="Åsgårdveien 32, 1671 KRÅKERØY" />
		<tag k="amenity" v="kindergarten" />
		<tag k="capacity" v="89" />
		<tag k="contact:website" v="http://krakeby.barnehage.no" />
		<tag k="max_age" v="5" />
		<tag k="min_age" v="1" />
		<tag k="name" v="Kråkeby barnehage" />
		<tag k="no-barnehage:nsrid" v="974194554" />
		<tag k="operator" v="Samvirkebarnehagene Sa" />
		<tag k="operator:type" v="private" />
	</node>
	<node id="-1922" lat="59.18947" lon="10.89989">
		<tag k="ADDRESS" v="Langøyåsen 9, 1679 KRÅKERØY" />
		<tag k="amenity" v="kindergarten" />
		<tag k="capacity" v="69" />
		<tag k="max_age" v="5" />
		<tag k="min_age" v="1" />
		<tag k="name" v="Langøyåsen barnehage" />
		<tag k="no-barnehage:nsrid" v="974565595" />
		<tag k="operator" v="Fredrikstad kommune" />
		<tag k="operator:type" v="public" />
	</node>
	<node id="-1923" lat="59.2298" lon="10.96333">
		<tag k="ADDRESS" v="Gamle Kirkevei 50, 1617 FREDRIKSTAD" />
		<tag k="amenity" v="kindergarten" />
		<tag k="capacity" v="85" />
		<tag k="max_age" v="5" />
		<tag k="min_age" v="1" />
		<tag k="name" v="Leie barnehage" />
		<tag k="no-barnehage:nsrid" v="974565528" />
		<tag k="operator" v="Fredrikstad kommune" />
		<tag k="operator:type" v="public" />
	</node>
	<node id="-1924" lat="59.26021" lon="10.9406">
		<tag k="ADDRESS" v="Veumlia 1, 1615 FREDRIKSTAD" />
		<tag k="amenity" v="kindergarten" />
		<tag k="capacity" v="38" />
		<tag k="contact:website" v="http://www.lillelia.no" />
		<tag k="max_age" v="5" />
		<tag k="min_age" v="1" />
		<tag k="name" v="Lillelia gårdsbarnehage" />
		<tag k="no-barnehage:nsrid" v="994408860" />
		<tag k="operator" v="Lillelia Gårdsbarnehage AS" />
		<tag k="operator:type" v="private" />
	</node>
	<node id="-1926" lat="59.16006" lon="10.93184">
		<tag k="ADDRESS" v="Lundebuen 4, 1676 KRÅKERØY" />
		<tag k="amenity" v="kindergarten" />
		<tag k="capacity" v="35" />
		<tag k="contact:website" v="http://www.lundebarnehage.no" />
		<tag k="max_age" v="5" />
		<tag k="min_age" v="1" />
		<tag k="name" v="Lunde barnehage" />
		<tag k="no-barnehage:nsrid" v="988880086" />
		<tag k="operator" v="Lunde barnehage AS" />
		<tag k="operator:type" v="private" />
	</node>
	<node id="-1927" lat="59.22803" lon="10.92739">
		<tag k="ADDRESS" v="Skrellenveien 1, 1613 FREDRIKSTAD" />
		<tag k="amenity" v="kindergarten" />
		<tag k="capacity" v="35" />
		<tag k="max_age" v="5" />
		<tag k="min_age" v="1" />
		<tag k="name" v="Lurvelegg barnehage avd. 1" />
		<tag k="no-barnehage:nsrid" v="985624038" />
		<tag k="operator" v="Fbhd Drift AS" />
		<tag k="operator:type" v="private" />
	</node>
	<node id="-1928" lat="0.0" lon="0.0">
		<tag k="ADDRESS" v="Helneveien 1, 1639 GAMLE FREDRIKSTAD" />
		<tag k="amenity" v="kindergarten" />
		<tag k="capacity" v="64" />
		<tag k="max_age" v="5" />
		<tag k="min_age" v="1" />
		<tag k="name" v="Læringsverkstedet barnehage avd. Doremi Begby" />
		<tag k="no-barnehage:nsrid" v="892556822" />
		<tag k="operator" v="Læringsverkstedet AS" />
		<tag k="operator:type" v="private" />
	</node>
	<node id="-1929" lat="59.23751" lon="10.92325">
		<tag k="ADDRESS" v="Labråten 76, 1614 FREDRIKSTAD" />
		<tag k="amenity" v="kindergarten" />
		<tag k="capacity" v="43" />
		<tag k="max_age" v="5" />
		<tag k="min_age" v="1" />
		<tag k="name" v="Læringsverkstedet barnehage avd. Solkollen Lyngmo barnehage" />
		<tag k="no-barnehage:nsrid" v="973237209" />
		<tag k="operator" v="Læringsverkstedet AS" />
		<tag k="operator:type" v="private" />
	</node>
	<node id="-1930" lat="59.23434" lon="10.93057">
		<tag k="ADDRESS" v="Veumveien 88, 1613 FREDRIKSTAD" />
		<tag k="amenity" v="kindergarten" />
		<tag k="capacity" v="46" />
		<tag k="max_age" v="5" />
		<tag k="min_age" v="1" />
		<tag k="name" v="Læringsverkstedet barnehage avd. Slangsvold barnehage" />
		<tag k="no-barnehage:nsrid" v="973382551" />
		<tag k="operator" v="Læringsverkstedet AS" />
		<tag k="operator:type" v="private" />
	</node>
	<node id="-1931" lat="59.22641" lon="10.92239">
		<tag k="ADDRESS" v="Onsøyveien 49A, 1613 FREDRIKSTAD" />
		<tag k="amenity" v="kindergarten" />
		<tag k="capacity" v="82" />
		<tag k="contact:website" v="http://laringsverkstedet.no/trosvik" />
		<tag k="max_age" v="5" />
		<tag k="min_age" v="1" />
		<tag k="name" v="Læringsverkstedet barnehage avd. Doremi Trosvik" />
		<tag k="no-barnehage:nsrid" v="986282114" />
		<tag k="operator" v="Læringsverkstedet AS" />
		<tag k="operator:type" v="private" />
	</node>
	<node id="-1932" lat="59.22825" lon="10.99972">
		<tag k="ADDRESS" v="Dragerveien 6, 1654 SELLEBAKK" />
		<tag k="amenity" v="kindergarten" />
		<tag k="capacity" v="52" />
		<tag k="max_age" v="5" />
		<tag k="min_age" v="1" />
		<tag k="name" v="Løen barnehage" />
		<tag k="no-barnehage:nsrid" v="973872583" />
		<tag k="operator" v="Fredrikstad kommune" />
		<tag k="operator:type" v="public" />
	</node>
	<node id="-1933" lat="59.21449" lon="10.97347">
		<tag k="ADDRESS" v="Enggata 76, 1636 GAMLE FREDRIKSTAD" />
		<tag k="amenity" v="kindergarten" />
		<tag k="capacity" v="68" />
		<tag k="max_age" v="5" />
		<tag k="min_age" v="1" />
		<tag k="name" v="Nabbetorp barnehage" />
		<tag k="no-barnehage:nsrid" v="974565501" />
		<tag k="operator" v="Fredrikstad kommune" />
		<tag k="operator:type" v="public" />
	</node>
	<node id="-1934" lat="59.20896" lon="10.89408">
		<tag k="ADDRESS" v="Østkilen 1a, 1621 GRESSVIK" />
		<tag k="amenity" v="kindergarten" />
		<tag k="capacity" v="40" />
		<tag k="max_age" v="5" />
		<tag k="min_age" v="1" />
		<tag k="name" v="Naturbarna avd. Kilen" />
		<tag k="no-barnehage:nsrid" v="973837117" />
		<tag k="operator" v="Naturbarna AS" />
		<tag k="operator:type" v="private" />
	</node>
	<node id="-1935" lat="59.22722" lon="10.82114">
		<tag k="ADDRESS" v="Lillengveien 6, 1623 GRESSVIK" />
		<tag k="amenity" v="kindergarten" />
		<tag k="capacity" v="58" />
		<tag k="max_age" v="5" />
		<tag k="min_age" v="1" />
		<tag k="name" v="Naturbarna avd. Lilleng" />
		<tag k="no-barnehage:nsrid" v="984418353" />
		<tag k="operator" v="Naturbarna AS" />
		<tag k="operator:type" v="private" />
	</node>
	<node id="-1936" lat="59.2744" lon="10.77646">
		<tag k="ADDRESS" v="Saltnesveien 54, 1626 MANSTAD" />
		<tag k="amenity" v="kindergarten" />
		<tag k="capacity" v="30" />
		<tag k="max_age" v="5" />
		<tag k="min_age" v="1" />
		<tag k="name" v="NLM barnehagene avd. Fredtun Kjærre barnehage" />
		<tag k="no-barnehage:nsrid" v="973656546" />
		<tag k="operator" v="Nlm-Barnehagene AS" />
		<tag k="operator:type" v="private" />
	</node>
	<node id="-1937" lat="59.20474" lon="10.88176">
		<tag k="ADDRESS" v="Rødsdalen 2, 1622 GRESSVIK" />
		<tag k="amenity" v="kindergarten" />
		<tag k="capacity" v="26" />
		<tag k="contact:website" v="http://www.fredtun.barnehage.no" />
		<tag k="max_age" v="5" />
		<tag k="min_age" v="1" />
		<tag k="name" v="NLM barnehagene avd. Fredtun barnehage, Rød" />
		<tag k="no-barnehage:nsrid" v="973455958" />
		<tag k="operator" v="Nlm-Barnehagene AS" />
		<tag k="operator:type" v="private" />
	</node>
	<node id="-1938" lat="59.22865" lon="10.95536">
		<tag k="ADDRESS" v="Ilaveien 108, 1605 FREDRIKSTAD" />
		<tag k="amenity" v="kindergarten" />
		<tag k="capacity" v="51" />
		<tag k="contact:website" v="http://noaspark.barnehage.no" />
		<tag k="max_age" v="5" />
		<tag k="min_age" v="1" />
		<tag k="name" v="Noas Park barnehage" />
		<tag k="no-barnehage:nsrid" v="993633208" />
		<tag k="operator" v="Noas Park barnehage AS" />
		<tag k="operator:type" v="private" />
	</node>
	<node id="-1939" lat="59.19537" lon="10.87437">
		<tag k="ADDRESS" v="Krydderveien 15, 1622 GRESSVIK" />
		<tag k="amenity" v="kindergarten" />
		<tag k="capacity" v="58" />
		<tag k="max_age" v="5" />
		<tag k="min_age" v="1" />
		<tag k="name" v="Oksviken barnehage" />
		<tag k="no-barnehage:nsrid" v="973872060" />
		<tag k="operator" v="Fredrikstad kommune" />
		<tag k="operator:type" v="public" />
	</node>
	<node id="-1940" lat="59.25369" lon="11.01083">
		<tag k="ADDRESS" v="Ombergveien 64, 1661 ROLVSØY" />
		<tag k="amenity" v="kindergarten" />
		<tag k="capacity" v="20" />
		<tag k="max_age" v="5" />
		<tag k="min_age" v="1" />
		<tag k="name" v="Omberg gårdsbarnehage" />
		<tag k="no-barnehage:nsrid" v="989042815" />
		<tag k="operator" v="Omberg Gårdsbarnehage AS" />
		<tag k="operator:type" v="private" />
	</node>
	<node id="-1941" lat="59.22544" lon="10.99827">
		<tag k="ADDRESS" v="Roald Amundsens vei 8, 1654 SELLEBAKK" />
		<tag k="amenity" v="kindergarten" />
		<tag k="capacity" v="18" />
		<tag k="max_age" v="5" />
		<tag k="min_age" v="3" />
		<tag k="name" v="Petri barnehage" />
		<tag k="no-barnehage:nsrid" v="923074236" />
		<tag k="operator" v="Fredrikstad kommune" />
		<tag k="operator:type" v="public" />
	</node>
	<node id="-1942" lat="59.30054" lon="10.94682">
		<tag k="ADDRESS" v="Seppoveien 70, 1615 FREDRIKSTAD" />
		<tag k="amenity" v="kindergarten" />
		<tag k="capacity" v="59" />
		<tag k="contact:website" v="http://rambarn.no/" />
		<tag k="max_age" v="5" />
		<tag k="min_age" v="1" />
		<tag k="name" v="Ramsjø gårdsbarnehage" />
		<tag k="no-barnehage:nsrid" v="987013958" />
		<tag k="operator" v="Ramsjø Gårdsbarnehage AS" />
		<tag k="operator:type" v="private" />
	</node>
	<node id="-1943" lat="59.26191" lon="10.99672">
		<tag k="ADDRESS" v="Råkollveien 60, 1664 ROLVSØY" />
		<tag k="amenity" v="kindergarten" />
		<tag k="capacity" v="65" />
		<tag k="max_age" v="5" />
		<tag k="min_age" v="1" />
		<tag k="name" v="Rolvsøy barnehage" />
		<tag k="no-barnehage:nsrid" v="974565730" />
		<tag k="operator" v="Fredrikstad kommune" />
		<tag k="operator:type" v="public" />
	</node>
	<node id="-1944" lat="59.23499" lon="10.97394">
		<tag k="ADDRESS" v="Rosebuen 2, 1617 FREDRIKSTAD" />
		<tag k="amenity" v="kindergarten" />
		<tag k="capacity" v="75" />
		<tag k="contact:website" v="http://roselia.barnehage.no" />
		<tag k="max_age" v="5" />
		<tag k="min_age" v="1" />
		<tag k="name" v="Roselia barnehage" />
		<tag k="no-barnehage:nsrid" v="979993757" />
		<tag k="operator" v="Roselia barnehage Sa" />
		<tag k="operator:type" v="private" />
	</node>
	<node id="-1946" lat="59.21521" lon="10.88805">
		<tag k="ADDRESS" v="Vollebergveien 4, 1621 GRESSVIK" />
		<tag k="amenity" v="kindergarten" />
		<tag k="capacity" v="50" />
		<tag k="max_age" v="5" />
		<tag k="min_age" v="1" />
		<tag k="name" v="Skala barnehage" />
		<tag k="no-barnehage:nsrid" v="987986530" />
		<tag k="operator" v="Skala barnehage AS" />
		<tag k="operator:type" v="private" />
	</node>
	<node id="-1947" lat="59.21432" lon="11.0602">
		<tag k="ADDRESS" v="Hunnbakken 47, 1655 SELLEBAKK" />
		<tag k="amenity" v="kindergarten" />
		<tag k="capacity" v="36" />
		<tag k="max_age" v="5" />
		<tag k="min_age" v="1" />
		<tag k="name" v="Skjærviken barnehage" />
		<tag k="no-barnehage:nsrid" v="993270415" />
		<tag k="operator" v="Skjærviken barnehage AS" />
		<tag k="operator:type" v="private" />
	</node>
	<node id="-1948" lat="59.1991" lon="10.8305">
		<tag k="ADDRESS" v="Halvorsrødveien 34, 1622 GRESSVIK" />
		<tag k="amenity" v="kindergarten" />
		<tag k="capacity" v="31" />
		<tag k="max_age" v="5" />
		<tag k="min_age" v="1" />
		<tag k="name" v="Slevik barnehage" />
		<tag k="no-barnehage:nsrid" v="989000535" />
		<tag k="operator" v="Thelen AS" />
		<tag k="operator:type" v="private" />
	</node>
	<node id="-1949" lat="59.20235" lon="10.9375">
		<tag k="ADDRESS" v="Ulvedalen 2A, 1672 KRÅKERØY" />
		<tag k="amenity" v="kindergarten" />
		<tag k="capacity" v="50" />
		<tag k="max_age" v="5" />
		<tag k="min_age" v="1" />
		<tag k="name" v="Smertulia barnehage" />
		<tag k="no-barnehage:nsrid" v="974565609" />
		<tag k="operator" v="Fredrikstad kommune" />
		<tag k="operator:type" v="public" />
	</node>
	<node id="-1950" lat="59.21894" lon="10.84677">
		<tag k="ADDRESS" v="Kjenneveien 54, 1622 GRESSVIK" />
		<tag k="amenity" v="kindergarten" />
		<tag k="capacity" v="13" />
		<tag k="max_age" v="5" />
		<tag k="min_age" v="1" />
		<tag k="name" v="Solbrekke naturbarnehage" />
		<tag k="no-barnehage:nsrid" v="923074546" />
		<tag k="operator" v="Fredrikstad kommune" />
		<tag k="operator:type" v="public" />
	</node>
	<node id="-1952" lat="59.21332" lon="10.94783">
		<tag k="ADDRESS" v="Speiderveien 7, 1605 FREDRIKSTAD" />
		<tag k="amenity" v="kindergarten" />
		<tag k="capacity" v="40" />
		<tag k="max_age" v="5" />
		<tag k="min_age" v="1" />
		<tag k="name" v="Speiderfjellet barnehage" />
		<tag k="no-barnehage:nsrid" v="917316651" />
		<tag k="operator" v="Fredrikstad kommune" />
		<tag k="operator:type" v="public" />
	</node>
	<node id="-1953" lat="59.21611" lon="10.93586">
		<tag k="ADDRESS" v="Sjømannsgata 16, 1608 FREDRIKSTAD" />
		<tag k="amenity" v="kindergarten" />
		<tag k="capacity" v="30" />
		<tag k="max_age" v="5" />
		<tag k="min_age" v="1" />
		<tag k="name" v="St.hansfjellet barnehage" />
		<tag k="no-barnehage:nsrid" v="916469144" />
		<tag k="operator" v="Fredrikstad kommune" />
		<tag k="operator:type" v="public" />
	</node>
	<node id="-1956" lat="59.18611" lon="11.04961">
		<tag k="ADDRESS" v="Toresvei 2, 1634 GAMLE FREDRIKSTAD" />
		<tag k="amenity" v="kindergarten" />
		<tag k="capacity" v="28" />
		<tag k="max_age" v="5" />
		<tag k="min_age" v="1" />
		<tag k="name" v="Torsnes barnehage" />
		<tag k="no-barnehage:nsrid" v="984255926" />
		<tag k="operator" v="Fredrikstad kommune" />
		<tag k="operator:type" v="public" />
	</node>
	<node id="-1957" lat="59.24302" lon="11.02198">
		<tag k="ADDRESS" v="Roald Amundsens Vei 165, 1658 TORP" />
		<tag k="amenity" v="kindergarten" />
		<tag k="capacity" v="16" />
		<tag k="max_age" v="5" />
		<tag k="min_age" v="1" />
		<tag k="name" v="Trollklubben barnehage avd. Torp" />
		<tag k="no-barnehage:nsrid" v="990914710" />
		<tag k="operator" v="Trollklubben barnehage AS" />
		<tag k="operator:type" v="private" />
	</node>
	<node id="-1958" lat="59.26043" lon="11.10753">
		<tag k="ADDRESS" v="Sarpsborgveien 1126, 1659 TORP" />
		<tag k="amenity" v="kindergarten" />
		<tag k="capacity" v="23" />
		<tag k="max_age" v="5" />
		<tag k="min_age" v="3" />
		<tag k="name" v="Trollklubben barnehage avd. Bilett" />
		<tag k="no-barnehage:nsrid" v="990914761" />
		<tag k="operator" v="Trollklubben barnehage AS" />
		<tag k="operator:type" v="private" />
	</node>
	<node id="-1959" lat="59.26741" lon="11.00577">
		<tag k="ADDRESS" v="Råkollveien 107, 1664 ROLVSØY" />
		<tag k="amenity" v="kindergarten" />
		<tag k="capacity" v="136" />
		<tag k="max_age" v="5" />
		<tag k="min_age" v="1" />
		<tag k="name" v="Trollklubben barnehage avd. Rolvsøy" />
		<tag k="no-barnehage:nsrid" v="990914842" />
		<tag k="operator" v="Trollklubben barnehage AS" />
		<tag k="operator:type" v="private" />
	</node>
	<node id="-1961" lat="59.21555" lon="10.88301">
		<tag k="ADDRESS" v="Trondalsveien 30b, 1621 GRESSVIK" />
		<tag k="amenity" v="kindergarten" />
		<tag k="capacity" v="72" />
		<tag k="max_age" v="5" />
		<tag k="min_age" v="1" />
		<tag k="name" v="Trondalen barnehage" />
		<tag k="no-barnehage:nsrid" v="974197286" />
		<tag k="operator" v="Samvirkebarnehagene Sa" />
		<tag k="operator:type" v="private" />
	</node>
	<node id="-1962" lat="59.22634" lon="10.92497">
		<tag k="ADDRESS" v="Unnebergveien 17, 1613 FREDRIKSTAD" />
		<tag k="amenity" v="kindergarten" />
		<tag k="capacity" v="99" />
		<tag k="max_age" v="5" />
		<tag k="min_age" v="1" />
		<tag k="name" v="Trosvik barnehage" />
		<tag k="no-barnehage:nsrid" v="974565536" />
		<tag k="operator" v="Fredrikstad kommune" />
		<tag k="operator:type" v="public" />
	</node>
	<node id="-1964" lat="59.1991" lon="10.91116">
		<tag k="ADDRESS" v="Tørkopp 2, 1679 KRÅKERØY" />
		<tag k="amenity" v="kindergarten" />
		<tag k="capacity" v="69" />
		<tag k="contact:website" v="http://fus.no/torkopp" />
		<tag k="max_age" v="5" />
		<tag k="min_age" v="1" />
		<tag k="name" v="Tørkopp FUS barnehage" />
		<tag k="no-barnehage:nsrid" v="990258996" />
		<tag k="operator" v="Tørkopp Fus barnehage AS" />
		<tag k="operator:type" v="private" />
	</node>
	<node id="-1965" lat="59.18552" lon="11.05066">
		<tag k="ADDRESS" v="Veelstoppen 4, 1634 GAMLE FREDRIKSTAD" />
		<tag k="amenity" v="kindergarten" />
		<tag k="capacity" v="65" />
		<tag k="contact:website" v="http://www.veelstoppen.no" />
		<tag k="max_age" v="5" />
		<tag k="min_age" v="1" />
		<tag k="name" v="Veelstoppen private barnehage" />
		<tag k="no-barnehage:nsrid" v="989945076" />
		<tag k="operator" v="Veelstoppen Private barnehage AS" />
		<tag k="operator:type" v="private" />
	</node>
	<node id="-1966" lat="59.26643" lon="10.99641">
		<tag k="ADDRESS" v="Fredriks Vei 2, 1665 ROLVSØY" />
		<tag k="amenity" v="kindergarten" />
		<tag k="capacity" v="32" />
		<tag k="contact:website" v="http://veslefrikk-steiner.barnehage.no" />
		<tag k="max_age" v="5" />
		<tag k="min_age" v="1" />
		<tag k="name" v="Veslefrikk steinerbarnehagen" />
		<tag k="no-barnehage:nsrid" v="974156202" />
		<tag k="operator" v="Eierstiftelsen Steinerbarnehagen Veslefrikk" />
		<tag k="operator:type" v="private" />
	</node>
	<node id="-1967" lat="59.24989" lon="10.93504">
		<tag k="ADDRESS" v="Veum Allé 3, 1615 FREDRIKSTAD" />
		<tag k="amenity" v="kindergarten" />
		<tag k="capacity" v="27" />
		<tag k="max_age" v="5" />
		<tag k="min_age" v="1" />
		<tag k="name" v="Villa Øst barnehage" />
		<tag k="no-barnehage:nsrid" v="973454447" />
		<tag k="operator" v="Villa Øst barnehage Sa" />
		<tag k="operator:type" v="private" />
	</node>
	<node id="-1969" lat="59.21733" lon="11.0689">
		<tag k="ADDRESS" v="Haldenveien 130, 1655 SELLEBAKK" />
		<tag k="amenity" v="kindergarten" />
		<tag k="capacity" v="10" />
		<tag k="max_age" v="5" />
		<tag k="min_age" v="1" />
		<tag k="name" v="Vispen private barnehage" />
		<tag k="no-barnehage:nsrid" v="987214244" />
		<tag k="operator" v="Vispen Private barnehage Da" />
		<tag k="operator:type" v="private" />
	</node>
	<node id="-1971" lat="0.0" lon="0.0">
		<tag k="ADDRESS" v="Gamle Kirkevei 7, 1617 FREDRIKSTAD" />
		<tag k="amenity" v="kindergarten" />
		<tag k="capacity" v="102" />
		<tag k="contact:website" v="http://www.barnehagenett.no" />
		<tag k="max_age" v="5" />
		<tag k="min_age" v="1" />
		<tag k="name" v="Wilbergjordet barnehage" />
		<tag k="no-barnehage:nsrid" v="891321252" />
		<tag k="operator" v="Borg Barnehager AS" />
		<tag k="operator:type" v="private" />
	</node>
	<node id="-1972" lat="59.23105" lon="10.89866">
		<tag k="ADDRESS" v="Ørebekkbråten 16, 1624 GRESSVIK" />
		<tag k="amenity" v="kindergarten" />
		<tag k="capacity" v="81" />
		<tag k="contact:website" v="http://orebekk.barnehage.no" />
		<tag k="max_age" v="5" />
		<tag k="min_age" v="1" />
		<tag k="name" v="Ørebekk barnehage / Rs Team" />
		<tag k="no-barnehage:nsrid" v="990899029" />
		<tag k="operator" v="Ørebekk barnehage - Rs Team AS" />
		<tag k="operator:type" v="private" />
	</node>
	<node id="-1973" lat="59.2283" lon="10.94959">
		<tag k="ADDRESS" v="Ilaveien 126, 1605 FREDRIKSTAD" />
		<tag k="amenity" v="kindergarten" />
		<tag k="capacity" v="31" />
		<tag k="max_age" v="5" />
		<tag k="min_age" v="1" />
		<tag k="name" v="Åsebråten barnehage" />
		<tag k="no-barnehage:nsrid" v="823074662" />
		<tag k="operator" v="Fredrikstad kommune" />
		<tag k="operator:type" v="public" />
	</node>
</osm>
