<?xml version="1.0" encoding="UTF-8"?>
<osm generator="osmapis" version="0.6">
	<node id="-1824" lat="60.06845" lon="10.17158">
		<tag k="amenity" v="kindergarten" />
		<tag k="capacity" v="14" />
		<tag k="contact:website" v="http://tyrifjordbarnehage.no" />
		<tag k="max_age" v="5" />
		<tag k="min_age" v="1" />
		<tag k="name" v="Tyrifjorden barnehage" />
		<tag k="no-barnehage:nsrid" v="1025656" />
		<tag k="operator" v="Tyrifjord barnehage" />
		<tag k="operator:type" v="private" />
	</node>
	<node id="-1823" lat="60.09078" lon="10.23485">
		<tag k="amenity" v="kindergarten" />
		<tag k="capacity" v="90" />
		<tag k="contact:website" v="http://www.naturbarnehagen.com" />
		<tag k="max_age" v="5" />
		<tag k="min_age" v="1" />
		<tag k="name" v="Svensrud natur- og idrettsbarnehage" />
		<tag k="no-barnehage:nsrid" v="1015822" />
		<tag k="operator" v="Hole kommune" />
		<tag k="operator:type" v="public" />
	</node>
	<node id="-1822" lat="60.058" lon="10.3121">
		<tag k="amenity" v="kindergarten" />
		<tag k="capacity" v="39" />
		<tag k="max_age" v="5" />
		<tag k="min_age" v="1" />
		<tag k="name" v="Sundvollen oppvekstsenter avd. barnehage" />
		<tag k="no-barnehage:nsrid" v="1017098" />
		<tag k="operator" v="Hole kommune" />
		<tag k="operator:type" v="public" />
	</node>
	<node id="-1821" lat="60.0614" lon="10.3125">
		<tag k="amenity" v="kindergarten" />
		<tag k="capacity" v="41" />
		<tag k="max_age" v="5" />
		<tag k="min_age" v="1" />
		<tag k="name" v="Sundvollen barnehage" />
		<tag k="no-barnehage:nsrid" v="1018003" />
		<tag k="operator" v="Hole kommune" />
		<tag k="operator:type" v="public" />
	</node>
	<node id="-1820" lat="59.9632" lon="10.3479">
		<tag k="amenity" v="kindergarten" />
		<tag k="capacity" v="11" />
		<tag k="max_age" v="5" />
		<tag k="min_age" v="1" />
		<tag k="name" v="Sollihøgda barnehage" />
		<tag k="no-barnehage:nsrid" v="1014701" />
		<tag k="operator" v="Hole kommune" />
		<tag k="operator:type" v="public" />
	</node>
	<node id="-1819" lat="60.0759" lon="10.2675">
		<tag k="amenity" v="kindergarten" />
		<tag k="capacity" v="57" />
		<tag k="max_age" v="5" />
		<tag k="min_age" v="1" />
		<tag k="name" v="Løken barnehage" />
		<tag k="no-barnehage:nsrid" v="1012495" />
		<tag k="operator" v="Hole kommune" />
		<tag k="operator:type" v="public" />
	</node>
	<node id="-1818" lat="60.05414" lon="10.28923">
		<tag k="amenity" v="kindergarten" />
		<tag k="capacity" v="55" />
		<tag k="max_age" v="5" />
		<tag k="min_age" v="1" />
		<tag k="name" v="Læringsverkstedet barnehage avd. Doremi Elstangen" />
		<tag k="no-barnehage:nsrid" v="1025966" />
		<tag k="operator" v="Læringsverkstedet AS" />
		<tag k="operator:type" v="private" />
	</node>
	<node id="-1817" lat="60.1682" lon="10.2564">
		<tag k="amenity" v="kindergarten" />
		<tag k="capacity" v="39" />
		<tag k="max_age" v="5" />
		<tag k="min_age" v="1" />
		<tag k="name" v="Helgelandsmoen barnehage" />
		<tag k="no-barnehage:nsrid" v="1018400" />
		<tag k="operator" v="Hole kommune" />
		<tag k="operator:type" v="public" />
	</node>
	<node id="-1825" lat="60.0802" lon="10.2812">
		<tag k="amenity" v="kindergarten" />
		<tag k="capacity" v="57" />
		<tag k="max_age" v="5" />
		<tag k="min_age" v="1" />
		<tag k="name" v="Vik formingsbarnehage" />
		<tag k="no-barnehage:nsrid" v="1013934" />
		<tag k="operator" v="Hole kommune" />
		<tag k="operator:type" v="public" />
	</node>
</osm>
