<?xml version="1.0" encoding="UTF-8"?>
<osm generator="osmapis" version="0.6">
	<node id="-2336" lat="60.06845" lon="10.17158">
		<tag k="amenity" v="kindergarten" />
		<tag k="capacity" v="13" />
		<tag k="contact:email" v="mmao@frisurf.no" />
		<tag k="contact:phone" v="461 43 551" />
		<tag k="contact:website" v="http://tyrifjordbarnehage.no" />
		<tag k="max_age" v="5" />
		<tag k="min_age" v="1" />
		<tag k="name" v="Tyrifjorden barnehage" />
		<tag k="no-barnehage:nsrid" v="1025656" />
		<tag k="operator" v="Tyrifjord barnehage" />
		<tag k="operator:type" v="private" />
		<tag k="start_date" v="2014-02-25" />
	</node>
	<node id="-2334" lat="60.0803" lon="10.2786">
		<tag k="amenity" v="kindergarten" />
		<tag k="capacity" v="95" />
		<tag k="contact:email" v="knut.emil.kolsto@hole.kommune.no" />
		<tag k="contact:phone" v="32 16 11 88" />
		<tag k="contact:website" v="http://www.naturbarnehagen.com" />
		<tag k="max_age" v="5" />
		<tag k="min_age" v="1" />
		<tag k="name" v="Svensrud Natur- og Idrettsbarnehage" />
		<tag k="no-barnehage:nsrid" v="1015822" />
		<tag k="operator" v="Hole kommune" />
		<tag k="operator:type" v="public" />
		<tag k="start_date" v="1998-08-01" />
	</node>
	<node id="-2333" lat="60.058" lon="10.3121">
		<tag k="amenity" v="kindergarten" />
		<tag k="capacity" v="46" />
		<tag k="contact:email" v="harald.helleseter@hole.kommune.no" />
		<tag k="contact:phone" v="32161260" />
		<tag k="max_age" v="5" />
		<tag k="min_age" v="1" />
		<tag k="name" v="Sundvollen Oppvekstsenter Avdeling Barnehage" />
		<tag k="no-barnehage:nsrid" v="1017098" />
		<tag k="operator" v="Hole kommune" />
		<tag k="operator:type" v="public" />
		<tag k="start_date" v="2006-01-01" />
	</node>
	<node id="-2332" lat="60.0614" lon="10.3125">
		<tag k="amenity" v="kindergarten" />
		<tag k="capacity" v="43" />
		<tag k="contact:email" v="irene.langvandsbraaten@hole.kommune.no" />
		<tag k="contact:phone" v="32159906" />
		<tag k="max_age" v="5" />
		<tag k="min_age" v="1" />
		<tag k="name" v="Sundvollen barnehage" />
		<tag k="no-barnehage:nsrid" v="1018003" />
		<tag k="operator" v="Hole kommune" />
		<tag k="operator:type" v="public" />
		<tag k="start_date" v="1989-01-01" />
	</node>
	<node id="-2331" lat="59.9632" lon="10.3479">
		<tag k="amenity" v="kindergarten" />
		<tag k="capacity" v="25" />
		<tag k="contact:email" v="kjersti.bjerke@hole.kommune.no" />
		<tag k="contact:phone" v="32157615" />
		<tag k="max_age" v="5" />
		<tag k="min_age" v="1" />
		<tag k="name" v="Sollihøgda barnehage" />
		<tag k="no-barnehage:nsrid" v="1014701" />
		<tag k="operator" v="Hole kommune" />
		<tag k="operator:type" v="public" />
		<tag k="start_date" v="1992-01-01" />
	</node>
	<node id="-2330" lat="60.0759" lon="10.2675">
		<tag k="amenity" v="kindergarten" />
		<tag k="capacity" v="67" />
		<tag k="contact:email" v="anne.marie.skjorvold@hole.kommune.no" />
		<tag k="contact:phone" v="32159655" />
		<tag k="max_age" v="5" />
		<tag k="min_age" v="1" />
		<tag k="name" v="Løken barnehage" />
		<tag k="no-barnehage:nsrid" v="1012495" />
		<tag k="operator" v="Hole kommune" />
		<tag k="operator:type" v="public" />
		<tag k="start_date" v="1989-01-01" />
	</node>
	<node id="-2329" lat="60.05414" lon="10.28923">
		<tag k="amenity" v="kindergarten" />
		<tag k="capacity" v="45" />
		<tag k="max_age" v="5" />
		<tag k="min_age" v="1" />
		<tag k="name" v="Læringsverkstedet barnehage Avd Elstangen" />
		<tag k="no-barnehage:nsrid" v="1025966" />
		<tag k="operator" v="Læringsverkstedet AS" />
		<tag k="operator:type" v="private" />
		<tag k="start_date" v="2015-06-01" />
	</node>
	<node id="-2328" lat="60.1682" lon="10.2564">
		<tag k="amenity" v="kindergarten" />
		<tag k="capacity" v="41" />
		<tag k="contact:email" v="live.nesdal@hole.kommune.no" />
		<tag k="contact:phone" v="32160500" />
		<tag k="max_age" v="5" />
		<tag k="min_age" v="1" />
		<tag k="name" v="Helgelandsmoen barnehage" />
		<tag k="no-barnehage:nsrid" v="1018400" />
		<tag k="operator" v="Hole kommune" />
		<tag k="operator:type" v="public" />
		<tag k="start_date" v="2008-07-01" />
	</node>
	<node id="-2337" lat="60.0802" lon="10.2812">
		<tag k="amenity" v="kindergarten" />
		<tag k="capacity" v="61" />
		<tag k="contact:email" v="Sofie.Rodskog@hole.kommune.no" />
		<tag k="contact:phone" v="32161136" />
		<tag k="max_age" v="5" />
		<tag k="min_age" v="1" />
		<tag k="name" v="Vik Formingsbarnehage" />
		<tag k="no-barnehage:nsrid" v="1013934" />
		<tag k="operator" v="Hole kommune" />
		<tag k="operator:type" v="public" />
		<tag k="start_date" v="1990-01-01" />
	</node>
</osm>
