<?xml version="1.0" encoding="UTF-8"?>
<osm generator="osmapis" version="0.6">
	<node id="-2832" lat="59.19739" lon="9.53592">
		<tag k="ADDRESS" v="Rambergvegen 21, 3731 SKIEN" />
		<tag k="amenity" v="kindergarten" />
		<tag k="capacity" v="55" />
		<tag k="max_age" v="5" />
		<tag k="min_age" v="1" />
		<tag k="name" v="Åfoss barnehage" />
		<tag k="no-barnehage:nsrid" v="1016041" />
		<tag k="operator" v="Skien kommune" />
		<tag k="operator:type" v="public" />
	</node>
	<node id="-2830" lat="59.24838" lon="9.58802">
		<tag k="ADDRESS" v="Tuftevegen 18, 3721 SKIEN" />
		<tag k="amenity" v="kindergarten" />
		<tag k="capacity" v="21" />
		<tag k="max_age" v="5" />
		<tag k="min_age" v="1" />
		<tag k="name" v="Tufte barnehage" />
		<tag k="no-barnehage:nsrid" v="1016200" />
		<tag k="operator" v="Skien kommune" />
		<tag k="operator:type" v="public" />
	</node>
	<node id="-2829" lat="59.16618" lon="9.61462">
		<tag k="ADDRESS" v="Lyngbakkvegen 122, 3735 SKIEN" />
		<tag k="amenity" v="kindergarten" />
		<tag k="capacity" v="40" />
		<tag k="contact:website" v="http://troenslivbarnehage.no" />
		<tag k="max_age" v="5" />
		<tag k="min_age" v="1" />
		<tag k="name" v="Troens Liv barnehage" />
		<tag k="no-barnehage:nsrid" v="1016235" />
		<tag k="operator" v="Troens Liv Bibelsenter" />
		<tag k="operator:type" v="private" />
	</node>
	<node id="-2828" lat="59.21135" lon="9.56416">
		<tag k="ADDRESS" v="Tiedemannsjordet 1, 3727 SKIEN" />
		<tag k="amenity" v="kindergarten" />
		<tag k="capacity" v="43" />
		<tag k="max_age" v="5" />
		<tag k="min_age" v="1" />
		<tag k="name" v="Tiedemannsjordet barnehage" />
		<tag k="no-barnehage:nsrid" v="1012690" />
		<tag k="operator" v="Skien kommune" />
		<tag k="operator:type" v="public" />
	</node>
	<node id="-2827" lat="59.17426" lon="9.38218">
		<tag k="ADDRESS" v="Bjørbekkvegen 5, 3729 SKIEN" />
		<tag k="amenity" v="kindergarten" />
		<tag k="capacity" v="27" />
		<tag k="contact:website" v="http://www.melumbarnehage.no" />
		<tag k="max_age" v="5" />
		<tag k="min_age" v="1" />
		<tag k="name" v="Melum barnehage" />
		<tag k="no-barnehage:nsrid" v="1019513" />
		<tag k="operator" v="Melum barnehage Sa" />
		<tag k="operator:type" v="private" />
	</node>
	<node id="-2826" lat="59.18945" lon="9.58441">
		<tag k="ADDRESS" v="Myrvegen 26, 3728 SKIEN" />
		<tag k="amenity" v="kindergarten" />
		<tag k="capacity" v="63" />
		<tag k="contact:website" v="http://www.laringsverkstedet.no" />
		<tag k="max_age" v="5" />
		<tag k="min_age" v="1" />
		<tag k="name" v="Læringsverkstedet barnehage avd. Trollmyra naturbarnehage" />
		<tag k="no-barnehage:nsrid" v="1021565" />
		<tag k="operator" v="Læringsverkstedet AS" />
		<tag k="operator:type" v="private" />
	</node>
	<node id="-2825" lat="59.21141" lon="9.55783">
		<tag k="ADDRESS" v="Gulsetringen 155, 3727 SKIEN" />
		<tag k="amenity" v="kindergarten" />
		<tag k="capacity" v="66" />
		<tag k="contact:website" v="http://www.skien.kommune.no/kollmyrbhg" />
		<tag k="max_age" v="5" />
		<tag k="min_age" v="1" />
		<tag k="name" v="Kollmyr barnehage" />
		<tag k="no-barnehage:nsrid" v="1016038" />
		<tag k="operator" v="Skien kommune" />
		<tag k="operator:type" v="public" />
	</node>
	<node id="-2824" lat="59.22297" lon="9.55428">
		<tag k="ADDRESS" v="Fugleleiken 1, 3742 SKIEN" />
		<tag k="amenity" v="kindergarten" />
		<tag k="capacity" v="37" />
		<tag k="max_age" v="5" />
		<tag k="min_age" v="1" />
		<tag k="name" v="Granåsen barnehage" />
		<tag k="no-barnehage:nsrid" v="1016042" />
		<tag k="operator" v="Skien kommune" />
		<tag k="operator:type" v="public" />
	</node>
	<node id="-2823" lat="59.19352" lon="9.60685">
		<tag k="ADDRESS" v="Kragerøgata 5, 3730 SKIEN" />
		<tag k="amenity" v="kindergarten" />
		<tag k="capacity" v="65" />
		<tag k="max_age" v="5" />
		<tag k="min_age" v="1" />
		<tag k="name" v="Gimsøy barnehage" />
		<tag k="no-barnehage:nsrid" v="1016039" />
		<tag k="operator" v="Skien kommune" />
		<tag k="operator:type" v="public" />
	</node>
	<node id="-2822" lat="59.23738" lon="9.57067">
		<tag k="ADDRESS" v="Århusvegen 319, 3721 SKIEN" />
		<tag k="amenity" v="kindergarten" />
		<tag k="capacity" v="19" />
		<tag k="max_age" v="5" />
		<tag k="min_age" v="1" />
		<tag k="name" v="Fossum barnehage" />
		<tag k="no-barnehage:nsrid" v="1015199" />
		<tag k="operator" v="Skien kommune" />
		<tag k="operator:type" v="public" />
	</node>
	<node id="-2821" lat="59.16822" lon="9.6621">
		<tag k="ADDRESS" v="Borgevegen 43, 3712 SKIEN" />
		<tag k="amenity" v="kindergarten" />
		<tag k="capacity" v="2" />
		<tag k="max_age" v="5" />
		<tag k="min_age" v="3" />
		<tag k="name" v="Enggrav skoles barnehage" />
		<tag k="no-barnehage:nsrid" v="1014919" />
		<tag k="operator" v="Skien kommune" />
		<tag k="operator:type" v="public" />
	</node>
	<node id="-2820" lat="59.16746" lon="9.65196">
		<tag k="ADDRESS" v="Gregorius Dagssons Gate 244, 3712 SKIEN" />
		<tag k="amenity" v="kindergarten" />
		<tag k="capacity" v="62" />
		<tag k="max_age" v="5" />
		<tag k="min_age" v="1" />
		<tag k="name" v="Borgestad barnehage" />
		<tag k="no-barnehage:nsrid" v="1012692" />
		<tag k="operator" v="Skien kommune" />
		<tag k="operator:type" v="public" />
	</node>
	<node id="-2819" lat="59.17957" lon="9.64979">
		<tag k="ADDRESS" v="Ballestadvegen 4, 3713 SKIEN" />
		<tag k="amenity" v="kindergarten" />
		<tag k="capacity" v="32" />
		<tag k="max_age" v="5" />
		<tag k="min_age" v="1" />
		<tag k="name" v="Ballestad barnehage" />
		<tag k="no-barnehage:nsrid" v="1016040" />
		<tag k="operator" v="Skien kommune" />
		<tag k="operator:type" v="public" />
	</node>
</osm>
