<?xml version="1.0" encoding="UTF-8"?>
<osm generator="osmapis" version="0.6">
	<node id="-2789" lat="59.19728" lon="9.570605">
		<tag k="amenity" v="kindergarten" />
		<tag k="capacity" v="10" />
		<tag k="contact:email" v="solvangtrude@gmail.com" />
		<tag k="max_age" v="5" />
		<tag k="min_age" v="1" />
		<tag k="name" v="Varpet Familiebarnehage Ans" />
		<tag k="no-barnehage:nsrid" v="1020684" />
		<tag k="operator" v="Varpet Familiebarnehage Ans" />
		<tag k="operator:type" v="private" />
		<tag k="start_date" v="2006-01-01" />
	</node>
	<node id="-2781" lat="59.23906" lon="9.564949">
		<tag k="amenity" v="kindergarten" />
		<tag k="capacity" v="11" />
		<tag k="contact:email" v="skogstien@sf-nett.no" />
		<tag k="contact:phone" v="91 38 30 31" />
		<tag k="max_age" v="5" />
		<tag k="min_age" v="1" />
		<tag k="name" v="Skogstien Familiebarnehage" />
		<tag k="no-barnehage:nsrid" v="1021528" />
		<tag k="operator" v="Skogstien Familiebarnehage Linda Årvik Andreassen" />
		<tag k="operator:type" v="private" />
		<tag k="start_date" v="2006-09-15" />
	</node>
	<node id="-2771" lat="59.19086" lon="9.611617">
		<tag k="amenity" v="kindergarten" />
		<tag k="capacity" v="11" />
		<tag k="contact:email" v="monica@xtm.no" />
		<tag k="contact:phone" v="35 53 04 40" />
		<tag k="max_age" v="5" />
		<tag k="min_age" v="1" />
		<tag k="name" v="Knøttene Familiebarnehage - Monica Stenberg" />
		<tag k="no-barnehage:nsrid" v="1020336" />
		<tag k="operator" v="Knøttene Familiebarnehage Monica Stenberg" />
		<tag k="operator:type" v="private" />
		<tag k="start_date" v="1996-08-01" />
	</node>
</osm>
