<?xml version="1.0" encoding="UTF-8"?>
<osm generator="osmapis" version="0.6">
	<node id="-2816" lat="59.1974" lon="9.53592">
		<tag k="amenity" v="kindergarten" />
		<tag k="capacity" v="62" />
		<tag k="contact:email" v="afoss.barnehage@skien.kommune.no" />
		<tag k="max_age" v="5" />
		<tag k="min_age" v="1" />
		<tag k="name" v="Åfoss barnehage" />
		<tag k="no-barnehage:nsrid" v="1016041" />
		<tag k="operator" v="Skien kommune" />
		<tag k="operator:type" v="public" />
		<tag k="start_date" v="1989-01-01" />
	</node>
	<node id="-2815" lat="59.2463" lon="9.57163">
		<tag k="amenity" v="kindergarten" />
		<tag k="capacity" v="75" />
		<tag k="contact:email" v="venstop.barnehage@skien.kommune.no" />
		<tag k="max_age" v="5" />
		<tag k="min_age" v="1" />
		<tag k="name" v="Venstøp barnehage" />
		<tag k="no-barnehage:nsrid" v="1017844" />
		<tag k="operator" v="Skien kommune" />
		<tag k="operator:type" v="public" />
		<tag k="start_date" v="2007-06-01" />
	</node>
	<node id="-2813" lat="59.2484" lon="9.58802">
		<tag k="amenity" v="kindergarten" />
		<tag k="capacity" v="22" />
		<tag k="contact:email" v="tufte.barnehage@skien.kommune.no" />
		<tag k="max_age" v="5" />
		<tag k="min_age" v="1" />
		<tag k="name" v="Tufte barnehage" />
		<tag k="no-barnehage:nsrid" v="1016200" />
		<tag k="operator" v="Skien kommune" />
		<tag k="operator:type" v="public" />
		<tag k="start_date" v="1994-08-01" />
	</node>
	<node id="-2812" lat="59.1662" lon="9.61462">
		<tag k="amenity" v="kindergarten" />
		<tag k="capacity" v="37" />
		<tag k="contact:phone" v="035598585" />
		<tag k="max_age" v="5" />
		<tag k="min_age" v="1" />
		<tag k="name" v="Troens Liv barnehage" />
		<tag k="no-barnehage:nsrid" v="1016235" />
		<tag k="operator" v="Troens Liv Bibelsenter" />
		<tag k="operator:type" v="private" />
		<tag k="start_date" v="1994-08-01" />
	</node>
	<node id="-2811" lat="59.2114" lon="9.56415">
		<tag k="amenity" v="kindergarten" />
		<tag k="capacity" v="50" />
		<tag k="contact:email" v="tiedemannsjordet.banrehage@skien.kommune.no" />
		<tag k="contact:phone" v="003027520" />
		<tag k="max_age" v="5" />
		<tag k="min_age" v="1" />
		<tag k="name" v="Tiedemannsjordet barnehage" />
		<tag k="no-barnehage:nsrid" v="1012690" />
		<tag k="operator" v="Skien kommune" />
		<tag k="operator:type" v="public" />
		<tag k="start_date" v="1980-01-24" />
	</node>
	<node id="-2810" lat="59.2105" lon="9.60024">
		<tag k="amenity" v="kindergarten" />
		<tag k="capacity" v="17" />
		<tag k="contact:email" v="barnehagen@tabernaklet.no" />
		<tag k="max_age" v="5" />
		<tag k="min_age" v="1" />
		<tag k="name" v="Tabernaklets barnehage" />
		<tag k="no-barnehage:nsrid" v="1016871" />
		<tag k="operator" v="Pinsekirken Tabernaklet Skien" />
		<tag k="operator:type" v="private" />
		<tag k="start_date" v="1990-01-01" />
	</node>
	<node id="-2809" lat="59.1938" lon="9.5948">
		<tag k="amenity" v="kindergarten" />
		<tag k="capacity" v="52" />
		<tag k="max_age" v="5" />
		<tag k="min_age" v="1" />
		<tag k="name" v="Sykehuset Telemark Hf Trekløveren barnehage" />
		<tag k="no-barnehage:nsrid" v="1016649" />
		<tag k="operator" v="Sykehuset Telemark Hf" />
		<tag k="start_date" v="1989-01-02" />
	</node>
	<node id="-2808" lat="59.2141" lon="9.52645">
		<tag k="amenity" v="kindergarten" />
		<tag k="capacity" v="27" />
		<tag k="contact:email" v="skotfoss.oppvekstsenter@skien.kommune.no" />
		<tag k="max_age" v="5" />
		<tag k="min_age" v="1" />
		<tag k="name" v="Skotfoss Oppvekstsenter Avd barnehage" />
		<tag k="no-barnehage:nsrid" v="1015671" />
		<tag k="operator" v="Skien kommune" />
		<tag k="operator:type" v="public" />
		<tag k="start_date" v="1998-07-21" />
	</node>
	<node id="-2807" lat="59.17914" lon="9.6175">
		<tag k="amenity" v="kindergarten" />
		<tag k="capacity" v="51" />
		<tag k="contact:email" v="b-s-barn@online.no" />
		<tag k="contact:phone" v="35592235" />
		<tag k="max_age" v="5" />
		<tag k="min_age" v="1" />
		<tag k="name" v="Skogmusa barnehage Sa" />
		<tag k="no-barnehage:nsrid" v="1020013" />
		<tag k="operator" v="Skogmusa barnehage Sa" />
		<tag k="operator:type" v="private" />
		<tag k="start_date" v="1991-04-01" />
	</node>
	<node id="-2806" lat="59.17426" lon="9.382174">
		<tag k="amenity" v="kindergarten" />
		<tag k="capacity" v="25" />
		<tag k="contact:email" v="melumbarnehagesa@hotmail.com" />
		<tag k="contact:phone" v="003027520" />
		<tag k="contact:website" v="http://www.melumbarnehage.no" />
		<tag k="max_age" v="5" />
		<tag k="min_age" v="1" />
		<tag k="name" v="Melum barnehage Sa" />
		<tag k="no-barnehage:nsrid" v="1019513" />
		<tag k="operator" v="Melum barnehage Sa" />
		<tag k="operator:type" v="private" />
		<tag k="start_date" v="1978-09-20" />
	</node>
	<node id="-2805" lat="59.192" lon="9.58779">
		<tag k="amenity" v="kindergarten" />
		<tag k="capacity" v="116" />
		<tag k="contact:email" v="post@grep-as.no" />
		<tag k="max_age" v="5" />
		<tag k="min_age" v="1" />
		<tag k="name" v="Maribakkane barnehage" />
		<tag k="no-barnehage:nsrid" v="1016328" />
		<tag k="operator" v="Grep Grenland AS" />
		<tag k="operator:type" v="private" />
		<tag k="start_date" v="2001-11-19" />
	</node>
	<node id="-2804" lat="59.2137" lon="9.59799">
		<tag k="amenity" v="kindergarten" />
		<tag k="capacity" v="67" />
		<tag k="contact:email" v="lundedalen.banrheage@skien.kommune.no" />
		<tag k="contact:phone" v="003027520" />
		<tag k="max_age" v="5" />
		<tag k="min_age" v="1" />
		<tag k="name" v="Lundedalen barnehage" />
		<tag k="no-barnehage:nsrid" v="1012689" />
		<tag k="operator" v="Skien kommune" />
		<tag k="operator:type" v="public" />
		<tag k="start_date" v="1980-01-24" />
	</node>
	<node id="-2803" lat="59.2175" lon="9.56691">
		<tag k="amenity" v="kindergarten" />
		<tag k="capacity" v="61" />
		<tag k="max_age" v="5" />
		<tag k="min_age" v="1" />
		<tag k="name" v="Lille Fot barnehage" />
		<tag k="no-barnehage:nsrid" v="1014003" />
		<tag k="operator" v="Gulset og Skotfoss Sokn" />
		<tag k="operator:type" v="private" />
		<tag k="start_date" v="2009-06-30" />
	</node>
	<node id="-2802" lat="59.1455" lon="9.61354">
		<tag k="amenity" v="kindergarten" />
		<tag k="capacity" v="67" />
		<tag k="contact:email" v="kverndammen.barnehage@skien.kommune.no" />
		<tag k="max_age" v="5" />
		<tag k="min_age" v="1" />
		<tag k="name" v="Kverndammen barnehage" />
		<tag k="no-barnehage:nsrid" v="1016044" />
		<tag k="operator" v="Skien kommune" />
		<tag k="operator:type" v="public" />
		<tag k="start_date" v="1992-01-01" />
	</node>
	<node id="-2801" lat="59.2114" lon="9.55784">
		<tag k="amenity" v="kindergarten" />
		<tag k="capacity" v="70" />
		<tag k="contact:email" v="kollmyr.barnehage@skien.kommune.no" />
		<tag k="max_age" v="5" />
		<tag k="min_age" v="1" />
		<tag k="name" v="Kollmyr barnehage" />
		<tag k="no-barnehage:nsrid" v="1016038" />
		<tag k="operator" v="Skien kommune" />
		<tag k="operator:type" v="public" />
		<tag k="start_date" v="1994-08-01" />
	</node>
	<node id="-2800" lat="59.1482" lon="9.6219">
		<tag k="amenity" v="kindergarten" />
		<tag k="name" v="Klyve Åpen barnehage" />
		<tag k="no-barnehage:nsrid" v="1017117" />
		<tag k="operator" v="Gimsøy og Nenset Sokn" />
		<tag k="operator:type" v="private" />
		<tag k="start_date" v="2005-09-01" />
	</node>
	<node id="-2799" lat="59.1916" lon="9.60193">
		<tag k="amenity" v="kindergarten" />
		<tag k="capacity" v="56" />
		<tag k="contact:email" v="klosterskogen.barnehage@skien.kommune.no" />
		<tag k="max_age" v="5" />
		<tag k="min_age" v="1" />
		<tag k="name" v="Klosterskogen barnehage" />
		<tag k="no-barnehage:nsrid" v="1012687" />
		<tag k="operator" v="Skien kommune" />
		<tag k="operator:type" v="public" />
		<tag k="start_date" v="1991-07-01" />
	</node>
	<node id="-2798" lat="59.2064" lon="9.60052">
		<tag k="amenity" v="kindergarten" />
		<tag k="capacity" v="30" />
		<tag k="contact:email" v="hanken.barnehage@skien.kommune.no" />
		<tag k="max_age" v="5" />
		<tag k="min_age" v="1" />
		<tag k="name" v="Hanken barnehage" />
		<tag k="no-barnehage:nsrid" v="1012693" />
		<tag k="operator" v="Skien kommune" />
		<tag k="operator:type" v="public" />
		<tag k="start_date" v="1998-03-23" />
	</node>
	<node id="-2797" lat="59.2176" lon="9.56051">
		<tag k="amenity" v="kindergarten" />
		<tag k="capacity" v="79" />
		<tag k="contact:email" v="gulset.barnehage@skien.kommune.no" />
		<tag k="max_age" v="5" />
		<tag k="min_age" v="1" />
		<tag k="name" v="Gulset barnehage" />
		<tag k="no-barnehage:nsrid" v="1012688" />
		<tag k="operator" v="Skien kommune" />
		<tag k="operator:type" v="public" />
		<tag k="start_date" v="1976-01-01" />
	</node>
	<node id="-2796" lat="59.1817" lon="9.61555">
		<tag k="amenity" v="kindergarten" />
		<tag k="capacity" v="62" />
		<tag k="contact:email" v="gratenmoen.barnehage@skien.kommune.no" />
		<tag k="contact:phone" v="003027520" />
		<tag k="max_age" v="5" />
		<tag k="min_age" v="1" />
		<tag k="name" v="Gråtenmoen barnehage" />
		<tag k="no-barnehage:nsrid" v="1012691" />
		<tag k="operator" v="Skien kommune" />
		<tag k="operator:type" v="public" />
		<tag k="start_date" v="1989-01-01" />
	</node>
	<node id="-2795" lat="59.223" lon="9.55433">
		<tag k="amenity" v="kindergarten" />
		<tag k="capacity" v="44" />
		<tag k="contact:email" v="granasen.barnehage@skien.kommune.no" />
		<tag k="max_age" v="5" />
		<tag k="min_age" v="1" />
		<tag k="name" v="Granåsen barnehage" />
		<tag k="no-barnehage:nsrid" v="1016042" />
		<tag k="operator" v="Skien kommune" />
		<tag k="operator:type" v="public" />
		<tag k="start_date" v="1989-01-01" />
	</node>
	<node id="-2794" lat="59.1919" lon="9.60157">
		<tag k="amenity" v="kindergarten" />
		<tag k="contact:email" v="gimsoynenset@skien.kommune.no" />
		<tag k="name" v="Gimsøy Åpen barnehage" />
		<tag k="no-barnehage:nsrid" v="1017940" />
		<tag k="operator" v="Gimsøy og Nenset Sokn" />
		<tag k="operator:type" v="private" />
		<tag k="start_date" v="2007-08-01" />
	</node>
	<node id="-2793" lat="59.1935" lon="9.60685">
		<tag k="amenity" v="kindergarten" />
		<tag k="capacity" v="70" />
		<tag k="contact:email" v="gimsoy.barnehage@skien.kommune.no" />
		<tag k="max_age" v="5" />
		<tag k="min_age" v="1" />
		<tag k="name" v="Gimsøy barnehage" />
		<tag k="no-barnehage:nsrid" v="1016039" />
		<tag k="operator" v="Skien kommune" />
		<tag k="operator:type" v="public" />
		<tag k="start_date" v="1994-08-01" />
	</node>
	<node id="-2792" lat="59.2374" lon="9.57066">
		<tag k="amenity" v="kindergarten" />
		<tag k="capacity" v="20" />
		<tag k="max_age" v="5" />
		<tag k="min_age" v="1" />
		<tag k="name" v="Fossum barnehage" />
		<tag k="no-barnehage:nsrid" v="1015199" />
		<tag k="operator" v="Skien kommune" />
		<tag k="operator:type" v="public" />
		<tag k="start_date" v="2012-08-01" />
	</node>
	<node id="-2791" lat="59.1682" lon="9.6621">
		<tag k="amenity" v="kindergarten" />
		<tag k="capacity" v="4" />
		<tag k="contact:email" v="enggrav.skole@skien.kommune.no" />
		<tag k="max_age" v="5" />
		<tag k="min_age" v="1" />
		<tag k="name" v="Enggrav Skoles barnehage" />
		<tag k="no-barnehage:nsrid" v="1014919" />
		<tag k="operator" v="Skien kommune" />
		<tag k="operator:type" v="public" />
		<tag k="start_date" v="1996-04-01" />
	</node>
	<node id="-2790" lat="59.1675" lon="9.65196">
		<tag k="amenity" v="kindergarten" />
		<tag k="capacity" v="60" />
		<tag k="contact:email" v="borgestad.barnehage@skien.kommune.no" />
		<tag k="contact:phone" v="003027520" />
		<tag k="max_age" v="5" />
		<tag k="min_age" v="1" />
		<tag k="name" v="Borgestad barnehage" />
		<tag k="no-barnehage:nsrid" v="1012692" />
		<tag k="operator" v="Skien kommune" />
		<tag k="operator:type" v="public" />
		<tag k="start_date" v="1989-01-01" />
	</node>
	<node id="-2789" lat="59.2092" lon="9.5959">
		<tag k="amenity" v="kindergarten" />
		<tag k="capacity" v="18" />
		<tag k="max_age" v="5" />
		<tag k="min_age" v="1" />
		<tag k="name" v="Betanien barnehage" />
		<tag k="no-barnehage:nsrid" v="1016856" />
		<tag k="operator" v="Stiftelsen Betanien Hospital Skien" />
		<tag k="operator:type" v="private" />
		<tag k="start_date" v="1989-01-01" />
	</node>
	<node id="-2788" lat="59.1792" lon="9.6502">
		<tag k="amenity" v="kindergarten" />
		<tag k="capacity" v="31" />
		<tag k="contact:email" v="ballestad.barnehage@skien.kommune.no" />
		<tag k="max_age" v="5" />
		<tag k="min_age" v="1" />
		<tag k="name" v="Ballestad barnehage" />
		<tag k="no-barnehage:nsrid" v="1016040" />
		<tag k="operator" v="Skien kommune" />
		<tag k="operator:type" v="public" />
		<tag k="start_date" v="1989-01-01" />
	</node>
	<node id="-2787" lat="59.2035" lon="9.59805">
		<tag k="amenity" v="kindergarten" />
		<tag k="capacity" v="72" />
		<tag k="contact:email" v="bakken.barnehage@skien.kommune.no" />
		<tag k="max_age" v="5" />
		<tag k="min_age" v="1" />
		<tag k="name" v="Bakken barnehage" />
		<tag k="no-barnehage:nsrid" v="1016043" />
		<tag k="operator" v="Skien kommune" />
		<tag k="operator:type" v="public" />
		<tag k="start_date" v="1992-01-01" />
	</node>
</osm>
