<?xml version="1.0" encoding="UTF-8"?>
<osm generator="osmapis" version="0.6">
	<node id="-2510" lat="59.73608" lon="10.02538">
		<tag k="ADDRESS" v="Bekkemoen 6, 3050 MJØNDALEN" />
		<tag k="amenity" v="kindergarten" />
		<tag k="capacity" v="62" />
		<tag k="max_age" v="5" />
		<tag k="min_age" v="1" />
		<tag k="name" v="Åsen barnehage" />
		<tag k="no-barnehage:nsrid" v="1025351" />
		<tag k="operator" v="Nedre Eiker kommune" />
		<tag k="operator:type" v="public" />
	</node>
	<node id="-2509" lat="0.0" lon="0.0">
		<tag k="ADDRESS" v="Ullvannsveien, 3054 KROKSTADELVA" />
		<tag k="amenity" v="kindergarten" />
		<tag k="capacity" v="24" />
		<tag k="contact:website" v="http://www.aarbogen.no" />
		<tag k="max_age" v="5" />
		<tag k="min_age" v="1" />
		<tag k="name" v="Årbogen barnehage" />
		<tag k="no-barnehage:nsrid" v="1019974" />
		<tag k="operator" v="Årbogen barnehage" />
		<tag k="operator:type" v="private" />
	</node>
	<node id="-2508" lat="59.7493" lon="10.00801">
		<tag k="ADDRESS" v="Gamle Rådhusgata 5, 3050 MJØNDALEN" />
		<tag k="amenity" v="kindergarten" />
		<tag k="name" v="Åpen barnehage Foreldre/barn Gruppen" />
		<tag k="no-barnehage:nsrid" v="1015865" />
		<tag k="operator" v="Nedre Eiker kommune" />
		<tag k="operator:type" v="public" />
	</node>
	<node id="-2507" lat="59.76046" lon="10.10346">
		<tag k="ADDRESS" v="Lillevinnes 14, 3057 SOLBERGELVA" />
		<tag k="amenity" v="kindergarten" />
		<tag k="capacity" v="46" />
		<tag k="max_age" v="5" />
		<tag k="min_age" v="1" />
		<tag k="name" v="Vinnes barnehage" />
		<tag k="no-barnehage:nsrid" v="1019973" />
		<tag k="operator" v="Vinnes barnehage Sa" />
		<tag k="operator:type" v="private" />
	</node>
	<node id="-2506" lat="59.74596" lon="10.01624">
		<tag k="ADDRESS" v="Hagatjernveien 17, 3050 MJØNDALEN" />
		<tag k="amenity" v="kindergarten" />
		<tag k="capacity" v="91" />
		<tag k="max_age" v="5" />
		<tag k="min_age" v="1" />
		<tag k="name" v="Vassenga barnehage" />
		<tag k="no-barnehage:nsrid" v="1012622" />
		<tag k="operator" v="Nedre Eiker kommune" />
		<tag k="operator:type" v="public" />
	</node>
	<node id="-2505" lat="59.75722" lon="10.035">
		<tag k="ADDRESS" v="Stensethalleen 1, 3055 KROKSTADELVA" />
		<tag k="amenity" v="kindergarten" />
		<tag k="capacity" v="38" />
		<tag k="max_age" v="5" />
		<tag k="min_age" v="1" />
		<tag k="name" v="Stensethalleen barnehage" />
		<tag k="no-barnehage:nsrid" v="1015066" />
		<tag k="operator" v="Nedre Eiker kommune" />
		<tag k="operator:type" v="public" />
	</node>
	<node id="-2504" lat="59.7626" lon="10.03038">
		<tag k="ADDRESS" v="Nordlysveien 11, 3055 KROKSTADELVA" />
		<tag k="amenity" v="kindergarten" />
		<tag k="capacity" v="78" />
		<tag k="contact:website" v="http://stenseth.barnehage.no" />
		<tag k="max_age" v="5" />
		<tag k="min_age" v="1" />
		<tag k="name" v="Stenseth barnehage" />
		<tag k="no-barnehage:nsrid" v="1020895" />
		<tag k="operator" v="Stenseth barnehage Sa" />
		<tag k="operator:type" v="private" />
	</node>
	<node id="-2503" lat="59.76037" lon="9.98804">
		<tag k="ADDRESS" v="Bedehusgata 29, 3055 KROKSTADELVA" />
		<tag k="amenity" v="kindergarten" />
		<tag k="capacity" v="75" />
		<tag k="max_age" v="5" />
		<tag k="min_age" v="1" />
		<tag k="name" v="Stenberghaugen barnehage" />
		<tag k="no-barnehage:nsrid" v="1013434" />
		<tag k="operator" v="Nedre Eiker kommune" />
		<tag k="operator:type" v="public" />
	</node>
	<node id="-2502" lat="59.75233" lon="9.9503">
		<tag k="ADDRESS" v="Nedre Skistadvei, 3053 STEINBERG" />
		<tag k="amenity" v="kindergarten" />
		<tag k="capacity" v="64" />
		<tag k="max_age" v="5" />
		<tag k="min_age" v="1" />
		<tag k="name" v="Steinberg barnehage" />
		<tag k="no-barnehage:nsrid" v="1012621" />
		<tag k="operator" v="Nedre Eiker kommune" />
		<tag k="operator:type" v="public" />
	</node>
	<node id="-2501" lat="59.7579" lon="10.05167">
		<tag k="ADDRESS" v="Gamle Riksvei 137b, 3058 SOLBERGMOEN" />
		<tag k="amenity" v="kindergarten" />
		<tag k="capacity" v="92" />
		<tag k="contact:website" v="http://www.sprellopp.no" />
		<tag k="max_age" v="5" />
		<tag k="min_age" v="1" />
		<tag k="name" v="Solbergmoen barnehage" />
		<tag k="no-barnehage:nsrid" v="1021792" />
		<tag k="operator" v="Solbergmoen barnehage AS" />
		<tag k="operator:type" v="private" />
	</node>
	<node id="-2500" lat="59.7616" lon="10.0986">
		<tag k="ADDRESS" v="Gamle Riksvei 24, 3057 SOLBERGELVA" />
		<tag k="amenity" v="kindergarten" />
		<tag k="capacity" v="101" />
		<tag k="contact:website" v="http://www.sprellopp.no" />
		<tag k="max_age" v="5" />
		<tag k="min_age" v="1" />
		<tag k="name" v="Solbergelva barnehage" />
		<tag k="no-barnehage:nsrid" v="1022285" />
		<tag k="operator" v="Solbergelva barnehage AS" />
		<tag k="operator:type" v="private" />
	</node>
	<node id="-2499" lat="59.7661" lon="10.07261">
		<tag k="ADDRESS" v="Skyttelveien 2, 3057 SOLBERGELVA" />
		<tag k="amenity" v="kindergarten" />
		<tag k="capacity" v="60" />
		<tag k="max_age" v="5" />
		<tag k="min_age" v="1" />
		<tag k="name" v="Skyttelveien barnehage" />
		<tag k="no-barnehage:nsrid" v="1021727" />
		<tag k="operator" v="Skyttelveien barnehage AS" />
		<tag k="operator:type" v="private" />
	</node>
	<node id="-2498" lat="59.75808" lon="10.01648">
		<tag k="ADDRESS" v="Prestebråtveien 2, 3055 KROKSTADELVA" />
		<tag k="amenity" v="kindergarten" />
		<tag k="capacity" v="72" />
		<tag k="max_age" v="5" />
		<tag k="min_age" v="1" />
		<tag k="name" v="Møllenhof barnehage" />
		<tag k="no-barnehage:nsrid" v="1016258" />
		<tag k="operator" v="Nedre Eiker kommune" />
		<tag k="operator:type" v="public" />
	</node>
	<node id="-2497" lat="59.7687" lon="10.00315">
		<tag k="ADDRESS" v="Tyrihans 19, 3055 KROKSTADELVA" />
		<tag k="amenity" v="kindergarten" />
		<tag k="name" v="Markblomsten Camilla Larsen avd. Krokstadelva" />
		<tag k="no-barnehage:nsrid" v="1021472" />
		<tag k="operator" v="Markblomsten Camilla Larsen" />
		<tag k="operator:type" v="private" />
	</node>
	<node id="-2496" lat="59.77024" lon="9.99951">
		<tag k="ADDRESS" v="Tyrihans 2, 3055 KROKSTADELVA" />
		<tag k="amenity" v="kindergarten" />
		<tag k="capacity" v="82" />
		<tag k="max_age" v="5" />
		<tag k="min_age" v="1" />
		<tag k="name" v="Langløkka barnehage" />
		<tag k="no-barnehage:nsrid" v="1016259" />
		<tag k="operator" v="Nedre Eiker kommune" />
		<tag k="operator:type" v="public" />
	</node>
	<node id="-2495" lat="59.75396" lon="10.03962">
		<tag k="ADDRESS" v="Papyrusveien 39, 3050 MJØNDALEN" />
		<tag k="amenity" v="kindergarten" />
		<tag k="name" v="Knerten familiebarnehage" />
		<tag k="no-barnehage:nsrid" v="1021217" />
		<tag k="operator" v="Knerten Familiebarnehage Ann Mari Sandbekk Johansen" />
		<tag k="operator:type" v="private" />
	</node>
	<node id="-2494" lat="59.75036" lon="10.00322">
		<tag k="ADDRESS" v="Evjegata 15, 3050 MJØNDALEN" />
		<tag k="amenity" v="kindergarten" />
		<tag k="capacity" v="75" />
		<tag k="max_age" v="5" />
		<tag k="min_age" v="1" />
		<tag k="name" v="Hatten barnehage" />
		<tag k="no-barnehage:nsrid" v="1016257" />
		<tag k="operator" v="Nedre Eiker kommune" />
		<tag k="operator:type" v="public" />
	</node>
	<node id="-2491" lat="59.763" lon="10.05854">
		<tag k="ADDRESS" v="Liaveien 28, 3058 SOLBERGMOEN" />
		<tag k="amenity" v="kindergarten" />
		<tag k="capacity" v="60" />
		<tag k="max_age" v="5" />
		<tag k="min_age" v="1" />
		<tag k="name" v="Grinde barnehage" />
		<tag k="no-barnehage:nsrid" v="1016256" />
		<tag k="operator" v="Nedre Eiker kommune" />
		<tag k="operator:type" v="public" />
	</node>
	<node id="-2490" lat="59.75059" lon="10.03909">
		<tag k="ADDRESS" v="Eplehagan 1, 3050 MJØNDALEN" />
		<tag k="amenity" v="kindergarten" />
		<tag k="capacity" v="70" />
		<tag k="contact:website" v="http://www.eplehagan.no" />
		<tag k="max_age" v="5" />
		<tag k="min_age" v="1" />
		<tag k="name" v="Eplehagan barnehage" />
		<tag k="no-barnehage:nsrid" v="1020567" />
		<tag k="operator" v="Eplehagan barnehage Sa" />
		<tag k="operator:type" v="private" />
	</node>
	<node id="-2489" lat="59.76016" lon="10.01224">
		<tag k="ADDRESS" v="Eknesveien 13a, 3055 KROKSTADELVA" />
		<tag k="amenity" v="kindergarten" />
		<tag k="capacity" v="32" />
		<tag k="max_age" v="5" />
		<tag k="min_age" v="1" />
		<tag k="name" v="Eknes barnehage" />
		<tag k="no-barnehage:nsrid" v="1021224" />
		<tag k="operator" v="Eknes barnehage AS" />
		<tag k="operator:type" v="private" />
	</node>
	<node id="-2488" lat="59.74629" lon="9.99701">
		<tag k="ADDRESS" v="Bråtaveien 6, 3050 MJØNDALEN" />
		<tag k="amenity" v="kindergarten" />
		<tag k="name" v="Bråta familiebarnehage Jorunn Solli" />
		<tag k="no-barnehage:nsrid" v="1020610" />
		<tag k="operator" v="Bråta Familiebarnehage Jorunn Solli" />
		<tag k="operator:type" v="private" />
	</node>
	<node id="-2487" lat="59.75785" lon="9.95268">
		<tag k="ADDRESS" v="Evjuveien 3, 3053 STEINBERG" />
		<tag k="amenity" v="kindergarten" />
		<tag k="name" v="Barneglede barnehage" />
		<tag k="no-barnehage:nsrid" v="1022489" />
		<tag k="operator" v="Olesya Taranovich" />
		<tag k="operator:type" v="private" />
	</node>
	<node id="-2486" lat="59.74247" lon="10.03137">
		<tag k="ADDRESS" v="Hvitveisbakken 1, 3050 MJØNDALEN" />
		<tag k="amenity" v="kindergarten" />
		<tag k="capacity" v="111" />
		<tag k="contact:website" v="http://bakkefaret.bhg.no" />
		<tag k="max_age" v="5" />
		<tag k="min_age" v="1" />
		<tag k="name" v="Bakkefaret FUS barnehage" />
		<tag k="no-barnehage:nsrid" v="1021640" />
		<tag k="operator" v="Bakkefaret Fus barnehage AS" />
		<tag k="operator:type" v="private" />
	</node>
	<node id="-2485" lat="59.74615" lon="9.99761">
		<tag k="ADDRESS" v="Bråtaveien 4, 3050 MJØNDALEN" />
		<tag k="amenity" v="kindergarten" />
		<tag k="name" v="Askeladden familiebarnehage Hege Bråthen" />
		<tag k="no-barnehage:nsrid" v="1020537" />
		<tag k="operator" v="Askeladden Familiebarnehage Hege Bråthen" />
		<tag k="operator:type" v="private" />
	</node>
</osm>
