<?xml version="1.0" encoding="UTF-8"?>
<osm generator="osmapis" version="0.6">
	<node id="-2432" lat="59.76046" lon="10.10347">
		<tag k="amenity" v="kindergarten" />
		<tag k="capacity" v="52" />
		<tag k="contact:email" v="liv.skjerve@vinnesbarnehage.no" />
		<tag k="contact:phone" v="32 87 05 66" />
		<tag k="max_age" v="5" />
		<tag k="min_age" v="1" />
		<tag k="name" v="Vinnes barnehage Sa" />
		<tag k="no-barnehage:nsrid" v="1019973" />
		<tag k="operator" v="Vinnes barnehage Sa" />
		<tag k="operator:type" v="private" />
		<tag k="start_date" v="1991-01-01" />
	</node>
	<node id="-2430" lat="59.746" lon="10.0162">
		<tag k="amenity" v="kindergarten" />
		<tag k="capacity" v="93" />
		<tag k="contact:email" v="wenche.strom@nedre-eiker.kommune.no" />
		<tag k="contact:phone" v="32 23 28 41" />
		<tag k="max_age" v="5" />
		<tag k="min_age" v="1" />
		<tag k="name" v="Vassenga barnehage" />
		<tag k="no-barnehage:nsrid" v="1012622" />
		<tag k="operator" v="Nedre Eiker kommune" />
		<tag k="operator:type" v="public" />
		<tag k="start_date" v="1989-01-01" />
	</node>
	<node id="-2429" lat="59.7572" lon="10.035">
		<tag k="amenity" v="kindergarten" />
		<tag k="capacity" v="39" />
		<tag k="contact:email" v="leif.disen@neiker.no" />
		<tag k="max_age" v="5" />
		<tag k="min_age" v="1" />
		<tag k="name" v="Stensethalleen barnehage" />
		<tag k="no-barnehage:nsrid" v="1015066" />
		<tag k="operator" v="Nedre Eiker kommune" />
		<tag k="operator:type" v="public" />
		<tag k="start_date" v="2011-01-01" />
	</node>
	<node id="-2428" lat="59.7626" lon="10.03038">
		<tag k="amenity" v="kindergarten" />
		<tag k="capacity" v="78" />
		<tag k="contact:email" v="eirunn@pbl.no" />
		<tag k="contact:phone" v="32 27 32 83" />
		<tag k="contact:website" v="http://stenseth.barnehage.no" />
		<tag k="max_age" v="5" />
		<tag k="min_age" v="1" />
		<tag k="name" v="Stenseth barnehage" />
		<tag k="no-barnehage:nsrid" v="1020895" />
		<tag k="operator" v="Stenseth barnehage Sa" />
		<tag k="operator:type" v="private" />
		<tag k="start_date" v="2003-03-05" />
	</node>
	<node id="-2427" lat="59.7604" lon="9.98803">
		<tag k="amenity" v="kindergarten" />
		<tag k="capacity" v="73" />
		<tag k="contact:email" v="berit.davidsen@nedre-eiker.kommune.no" />
		<tag k="contact:phone" v="46 83 18 44" />
		<tag k="max_age" v="5" />
		<tag k="min_age" v="1" />
		<tag k="name" v="Stenberghaugen barnehage" />
		<tag k="no-barnehage:nsrid" v="1013434" />
		<tag k="operator" v="Nedre Eiker kommune" />
		<tag k="operator:type" v="public" />
		<tag k="start_date" v="2008-03-01" />
	</node>
	<node id="-2426" lat="59.7544" lon="9.95188">
		<tag k="amenity" v="kindergarten" />
		<tag k="capacity" v="62" />
		<tag k="contact:email" v="anne.martha.ness@nedre-eiker.kommune.no" />
		<tag k="contact:phone" v="32 27 37 37" />
		<tag k="max_age" v="5" />
		<tag k="min_age" v="1" />
		<tag k="name" v="Steinberg barnehage" />
		<tag k="no-barnehage:nsrid" v="1012621" />
		<tag k="operator" v="Nedre Eiker kommune" />
		<tag k="operator:type" v="public" />
		<tag k="start_date" v="1989-01-01" />
	</node>
	<node id="-2425" lat="59.75796" lon="10.05179">
		<tag k="amenity" v="kindergarten" />
		<tag k="capacity" v="94" />
		<tag k="contact:email" v="leder@solbergmoen.no" />
		<tag k="contact:phone" v="916 10 450" />
		<tag k="contact:website" v="http://www.sprellopp.no" />
		<tag k="max_age" v="5" />
		<tag k="min_age" v="1" />
		<tag k="name" v="Solbergmoen barnehage AS" />
		<tag k="no-barnehage:nsrid" v="1021792" />
		<tag k="operator" v="Solbergmoen barnehage AS" />
		<tag k="operator:type" v="private" />
		<tag k="start_date" v="2008-04-01" />
	</node>
	<node id="-2424" lat="59.75913" lon="10.05996">
		<tag k="amenity" v="kindergarten" />
		<tag k="capacity" v="84" />
		<tag k="contact:email" v="leder@solbergelva.no" />
		<tag k="contact:phone" v="940 16 950" />
		<tag k="contact:website" v="http://www.sprellopp.no" />
		<tag k="max_age" v="5" />
		<tag k="min_age" v="1" />
		<tag k="name" v="Solbergelva barnehage AS" />
		<tag k="no-barnehage:nsrid" v="1022285" />
		<tag k="operator" v="Solbergelva barnehage AS" />
		<tag k="operator:type" v="private" />
		<tag k="start_date" v="2012-06-06" />
	</node>
	<node id="-2423" lat="59.76609" lon="10.07261">
		<tag k="amenity" v="kindergarten" />
		<tag k="capacity" v="66" />
		<tag k="contact:email" v="venke.sorlie@skyttelveien.no" />
		<tag k="contact:phone" v="32 87 07 50" />
		<tag k="max_age" v="5" />
		<tag k="min_age" v="1" />
		<tag k="name" v="Skyttelveien barnehage" />
		<tag k="no-barnehage:nsrid" v="1021727" />
		<tag k="operator" v="Skyttelveien barnehage AS" />
		<tag k="operator:type" v="private" />
		<tag k="start_date" v="1997-09-01" />
	</node>
	<node id="-2422" lat="59.7581" lon="10.0165">
		<tag k="amenity" v="kindergarten" />
		<tag k="capacity" v="71" />
		<tag k="contact:email" v="mariann.ruo@nedre-eiker.kommune.no" />
		<tag k="contact:phone" v="32 87 95 50" />
		<tag k="max_age" v="5" />
		<tag k="min_age" v="1" />
		<tag k="name" v="Møllenhof barnehage" />
		<tag k="no-barnehage:nsrid" v="1016258" />
		<tag k="operator" v="Nedre Eiker kommune" />
		<tag k="operator:type" v="public" />
		<tag k="start_date" v="1989-01-01" />
	</node>
	<node id="-2421" lat="59.7702" lon="9.9995">
		<tag k="amenity" v="kindergarten" />
		<tag k="capacity" v="83" />
		<tag k="contact:email" v="arnfinn.mikaelsen@nedre-eiker.kommune.no" />
		<tag k="contact:phone" v="32873077" />
		<tag k="max_age" v="5" />
		<tag k="min_age" v="1" />
		<tag k="name" v="Langløkka barnehage" />
		<tag k="no-barnehage:nsrid" v="1016259" />
		<tag k="operator" v="Nedre Eiker kommune" />
		<tag k="operator:type" v="public" />
		<tag k="start_date" v="1990-08-01" />
	</node>
	<node id="-2420" lat="59.7503" lon="10.0032">
		<tag k="amenity" v="kindergarten" />
		<tag k="capacity" v="76" />
		<tag k="contact:email" v="jane.lysaker@nedre-eiker.kommune.no" />
		<tag k="contact:phone" v="32232880" />
		<tag k="max_age" v="5" />
		<tag k="min_age" v="1" />
		<tag k="name" v="Hatten barnehage" />
		<tag k="no-barnehage:nsrid" v="1016257" />
		<tag k="operator" v="Nedre Eiker kommune" />
		<tag k="operator:type" v="public" />
		<tag k="start_date" v="1989-01-01" />
	</node>
	<node id="-2417" lat="59.763" lon="10.0586">
		<tag k="amenity" v="kindergarten" />
		<tag k="capacity" v="76" />
		<tag k="contact:email" v="leif.disen@nedre-eiker.kommune.no" />
		<tag k="contact:phone" v="32272350" />
		<tag k="max_age" v="5" />
		<tag k="min_age" v="1" />
		<tag k="name" v="Grinde barnehage" />
		<tag k="no-barnehage:nsrid" v="1016256" />
		<tag k="operator" v="Nedre Eiker kommune" />
		<tag k="operator:type" v="public" />
		<tag k="start_date" v="1989-01-01" />
	</node>
	<node id="-2416" lat="59.75059" lon="10.03908">
		<tag k="amenity" v="kindergarten" />
		<tag k="capacity" v="70" />
		<tag k="contact:email" v="eplehagan@bine.no" />
		<tag k="contact:phone" v="91671536" />
		<tag k="contact:website" v="http://www.eplehagan.no" />
		<tag k="max_age" v="5" />
		<tag k="min_age" v="1" />
		<tag k="name" v="Eplehagan barnehage" />
		<tag k="no-barnehage:nsrid" v="1020567" />
		<tag k="operator" v="Eplehagan barnehage Sa" />
		<tag k="operator:type" v="private" />
		<tag k="start_date" v="1900-08-01" />
	</node>
	<node id="-2415" lat="59.76025" lon="10.01373">
		<tag k="amenity" v="kindergarten" />
		<tag k="capacity" v="39" />
		<tag k="contact:email" v="testolen@online.no" />
		<tag k="contact:phone" v="32 87 38 89" />
		<tag k="max_age" v="5" />
		<tag k="min_age" v="1" />
		<tag k="name" v="Eknes barnehage AS" />
		<tag k="no-barnehage:nsrid" v="1021224" />
		<tag k="operator" v="Eknes barnehage AS" />
		<tag k="operator:type" v="private" />
		<tag k="start_date" v="1995-06-01" />
	</node>
	<node id="-2414" lat="59.74976" lon="10.01419">
		<tag k="amenity" v="kindergarten" />
		<tag k="capacity" v="122" />
		<tag k="contact:email" v="dl.bakkefaret@bhg.no" />
		<tag k="max_age" v="5" />
		<tag k="min_age" v="1" />
		<tag k="name" v="Bakkefaret Fus barnehage AS" />
		<tag k="no-barnehage:nsrid" v="1021640" />
		<tag k="operator" v="Bakkefaret Fus barnehage AS" />
		<tag k="operator:type" v="private" />
		<tag k="start_date" v="2007-04-17" />
	</node>
	<node id="-2435" lat="59.7361" lon="10.0254">
		<tag k="amenity" v="kindergarten" />
		<tag k="capacity" v="65" />
		<tag k="contact:email" v="ellen.pettersen@Nedre-eiker.kommune.no" />
		<tag k="contact:phone" v="32873615" />
		<tag k="max_age" v="5" />
		<tag k="min_age" v="1" />
		<tag k="name" v="Åsen barnehage" />
		<tag k="no-barnehage:nsrid" v="1025351" />
		<tag k="operator" v="Nedre Eiker kommune" />
		<tag k="operator:type" v="public" />
		<tag k="start_date" v="1989-01-01" />
	</node>
	<node id="-2434" lat="59.76773" lon="9.998966">
		<tag k="amenity" v="kindergarten" />
		<tag k="capacity" v="52" />
		<tag k="contact:email" v="aarbogen@barnehage.no" />
		<tag k="contact:phone" v="32 87 36 47" />
		<tag k="max_age" v="5" />
		<tag k="min_age" v="1" />
		<tag k="name" v="Årbogen barnehage" />
		<tag k="no-barnehage:nsrid" v="1019974" />
		<tag k="operator" v="Årbogen barnehage" />
		<tag k="operator:type" v="private" />
		<tag k="start_date" v="1991-01-01" />
	</node>
	<node id="-2433" lat="59.7493" lon="10.008">
		<tag k="amenity" v="kindergarten" />
		<tag k="contact:email" v="elisabeth.hoybraten@neiker.no" />
		<tag k="name" v="Åpen barnehage Foreldre/barn Gruppen" />
		<tag k="no-barnehage:nsrid" v="1015865" />
		<tag k="operator" v="Nedre Eiker kommune" />
		<tag k="operator:type" v="public" />
		<tag k="start_date" v="1999-03-01" />
	</node>
</osm>
