<?xml version="1.0" encoding="UTF-8"?>
<osm generator="osmapis" version="0.6">
	<node id="-5151" lat="64.02212" lon="11.50126">
		<tag k="amenity" v="kindergarten" />
		<tag k="capacity" v="9" />
		<tag k="contact:email" v="lykkeliten.bhg@hotmail.com" />
		<tag k="contact:phone" v="412 37 276" />
		<tag k="max_age" v="2" />
		<tag k="min_age" v="1" />
		<tag k="name" v="Lykke Liten Familiebarnehage Trude Brandtzæg" />
		<tag k="no-barnehage:nsrid" v="1021851" />
		<tag k="operator" v="Lykke Liten Familiebarnehage Trude Brandtzæg" />
		<tag k="operator:type" v="private" />
		<tag k="start_date" v="2008-08-01" />
	</node>
	<node id="-5158" lat="64.02122" lon="11.54056">
		<tag k="amenity" v="kindergarten" />
		<tag k="capacity" v="9" />
		<tag k="contact:email" v="risgropa.familiebarnehage@ntebb.no" />
		<tag k="contact:phone" v="74 16 45 18" />
		<tag k="max_age" v="2" />
		<tag k="min_age" v="1" />
		<tag k="name" v="Risgropa Familiebarnehage" />
		<tag k="no-barnehage:nsrid" v="1020957" />
		<tag k="operator" v="Karin Wahl Oldren" />
		<tag k="operator:type" v="private" />
		<tag k="start_date" v="2003-08-01" />
	</node>
	<node id="-5156" lat="64.02038" lon="11.4979">
		<tag k="amenity" v="kindergarten" />
		<tag k="capacity" v="8" />
		<tag k="contact:email" v="hilde@taraldsen-regnskap.no" />
		<tag k="max_age" v="2" />
		<tag k="min_age" v="1" />
		<tag k="name" v="Nordsihaugen Familiebarnehage AS" />
		<tag k="no-barnehage:nsrid" v="1021448" />
		<tag k="operator" v="Nordsihaugen Familiebarnehage AS" />
		<tag k="operator:type" v="private" />
		<tag k="start_date" v="1998-02-01" />
	</node>
</osm>
