<?xml version="1.0" encoding="UTF-8"?>
<osm generator="osmapis" version="0.6">
	<node id="-5225" lat="64.0258" lon="11.4864">
		<tag k="amenity" v="kindergarten" />
		<tag k="capacity" v="34" />
		<tag k="contact:email" v="ann.elisabeth.kjoras@steinkjer.kommune.no" />
		<tag k="contact:phone" v="+47 90 97 16 60" />
		<tag k="max_age" v="5" />
		<tag k="min_age" v="1" />
		<tag k="name" v="Vårtun barnehage" />
		<tag k="no-barnehage:nsrid" v="1025405" />
		<tag k="operator" v="Steinkjer kommune" />
		<tag k="operator:type" v="public" />
		<tag k="start_date" v="1976-12-24" />
	</node>
	<node id="-5224" lat="64.00217" lon="11.87314">
		<tag k="amenity" v="kindergarten" />
		<tag k="capacity" v="13" />
		<tag k="contact:email" v="valenbhg@frisurf.no" />
		<tag k="contact:phone" v="+47 074144901" />
		<tag k="contact:website" v="http://www.valenbhg.no" />
		<tag k="max_age" v="5" />
		<tag k="min_age" v="1" />
		<tag k="name" v="Vålen barnehage Sa" />
		<tag k="no-barnehage:nsrid" v="1019498" />
		<tag k="operator" v="Vålen barnehage Sa" />
		<tag k="operator:type" v="private" />
		<tag k="start_date" v="1978-08-30" />
	</node>
	<node id="-5223" lat="64.03374" lon="11.48108">
		<tag k="amenity" v="kindergarten" />
		<tag k="capacity" v="38" />
		<tag k="contact:email" v="hildeagnete.hervik@gmail.com" />
		<tag k="contact:phone" v="+47 74 16 99 10" />
		<tag k="contact:website" v="http://www.vikingenbarnehage.no" />
		<tag k="max_age" v="5" />
		<tag k="min_age" v="1" />
		<tag k="name" v="Vikingen barnehage AS" />
		<tag k="no-barnehage:nsrid" v="1021462" />
		<tag k="operator" v="Vikingen barnehage AS" />
		<tag k="operator:type" v="private" />
		<tag k="start_date" v="2004-10-27" />
	</node>
	<node id="-5222" lat="63.9374" lon="11.424">
		<tag k="amenity" v="kindergarten" />
		<tag k="capacity" v="36" />
		<tag k="contact:email" v="elin-brit.hansen@steinkjer.kommune.no" />
		<tag k="contact:phone" v="+47 90 99 80 18" />
		<tag k="max_age" v="5" />
		<tag k="min_age" v="1" />
		<tag k="name" v="Tufbakken barnehage" />
		<tag k="no-barnehage:nsrid" v="1012568" />
		<tag k="operator" v="Steinkjer kommune" />
		<tag k="operator:type" v="public" />
		<tag k="start_date" v="1992-01-01" />
	</node>
	<node id="-5221" lat="63.9956" lon="11.4738">
		<tag k="amenity" v="kindergarten" />
		<tag k="capacity" v="31" />
		<tag k="contact:email" v="inger-lise.alberg@steinkjer.kommune.no" />
		<tag k="contact:phone" v="+47 90 94 90 48" />
		<tag k="max_age" v="5" />
		<tag k="min_age" v="1" />
		<tag k="name" v="Sørlia barnehage" />
		<tag k="no-barnehage:nsrid" v="1017344" />
		<tag k="operator" v="Steinkjer kommune" />
		<tag k="operator:type" v="public" />
		<tag k="start_date" v="1976-01-01" />
	</node>
	<node id="-5220" lat="64.03767" lon="11.37703">
		<tag k="amenity" v="kindergarten" />
		<tag k="capacity" v="30" />
		<tag k="contact:email" v="hilde@sorbeitstadbarnehage.no" />
		<tag k="contact:phone" v="+47 74 14 77 79" />
		<tag k="max_age" v="5" />
		<tag k="min_age" v="1" />
		<tag k="name" v="Sør-Beitstad barnehage Sa" />
		<tag k="no-barnehage:nsrid" v="1020197" />
		<tag k="operator" v="Sør-Beitstad barnehage Sa" />
		<tag k="operator:type" v="private" />
		<tag k="start_date" v="1976-01-01" />
	</node>
	<node id="-5219" lat="64.0213" lon="11.4578">
		<tag k="amenity" v="kindergarten" />
		<tag k="capacity" v="43" />
		<tag k="contact:email" v="eva.bragstad@steinkjer.kommune.no" />
		<tag k="contact:phone" v="+47 91 38 78 01" />
		<tag k="max_age" v="5" />
		<tag k="min_age" v="1" />
		<tag k="name" v="Søndre Egge barnehage" />
		<tag k="no-barnehage:nsrid" v="1018260" />
		<tag k="operator" v="Steinkjer kommune" />
		<tag k="operator:type" v="public" />
		<tag k="start_date" v="1989-01-01" />
	</node>
	<node id="-5218" lat="64.01455" lon="11.47741">
		<tag k="amenity" v="kindergarten" />
		<tag k="capacity" v="54" />
		<tag k="contact:email" v="trude.lien@steinkjer-montessori.no" />
		<tag k="max_age" v="5" />
		<tag k="min_age" v="1" />
		<tag k="name" v="Steinkjer Montessoribarnehage Sa" />
		<tag k="no-barnehage:nsrid" v="1021366" />
		<tag k="operator" v="Steinkjer Montessoribarnehage Sa" />
		<tag k="operator:type" v="private" />
		<tag k="start_date" v="2005-08-01" />
	</node>
	<node id="-5217" lat="64.0126" lon="11.51205">
		<tag k="amenity" v="kindergarten" />
		<tag k="capacity" v="35" />
		<tag k="contact:email" v="janneaunan@hotmail.com" />
		<tag k="max_age" v="5" />
		<tag k="min_age" v="1" />
		<tag k="name" v="Skjefte barnehage AS" />
		<tag k="no-barnehage:nsrid" v="1021213" />
		<tag k="operator" v="Skjefte barnehage AS" />
		<tag k="operator:type" v="private" />
		<tag k="start_date" v="2005-04-11" />
	</node>
	<node id="-5216" lat="64.011" lon="11.503">
		<tag k="amenity" v="kindergarten" />
		<tag k="capacity" v="55" />
		<tag k="contact:email" v="sissel.oye@steinkjer.kommune.no" />
		<tag k="contact:phone" v="+47 90 89 61 04" />
		<tag k="max_age" v="5" />
		<tag k="min_age" v="1" />
		<tag k="name" v="Sannan barnehage" />
		<tag k="no-barnehage:nsrid" v="1017109" />
		<tag k="operator" v="Steinkjer kommune" />
		<tag k="operator:type" v="public" />
		<tag k="start_date" v="2006-02-01" />
	</node>
	<node id="-5215" lat="64.02658" lon="11.66732">
		<tag k="amenity" v="kindergarten" />
		<tag k="capacity" v="31" />
		<tag k="contact:email" v="roysingbhg@gmail.com" />
		<tag k="contact:phone" v="+47 74144308" />
		<tag k="max_age" v="5" />
		<tag k="min_age" v="1" />
		<tag k="name" v="Røysing barnehage Sa" />
		<tag k="no-barnehage:nsrid" v="1019739" />
		<tag k="operator" v="Røysing barnehage Sa" />
		<tag k="operator:type" v="private" />
		<tag k="start_date" v="1989-01-02" />
	</node>
	<node id="-5213" lat="64.01502" lon="11.49526">
		<tag k="amenity" v="kindergarten" />
		<tag k="capacity" v="60" />
		<tag k="contact:email" v="mari@poppellunden.no" />
		<tag k="contact:phone" v="+47 74 14 39 33" />
		<tag k="contact:website" v="http://www.poppellunden.no" />
		<tag k="max_age" v="5" />
		<tag k="min_age" v="1" />
		<tag k="name" v="Poppellunden barnehage Stiftelse" />
		<tag k="no-barnehage:nsrid" v="1020357" />
		<tag k="operator" v="Poppellunden barnehage Stiftelse" />
		<tag k="operator:type" v="private" />
		<tag k="start_date" v="1996-06-01" />
	</node>
	<node id="-5211" lat="64.0397" lon="11.4885">
		<tag k="amenity" v="kindergarten" />
		<tag k="capacity" v="35" />
		<tag k="contact:email" v="anne.stuevold@steinkjer.kommune.no" />
		<tag k="contact:phone" v="+47 95 80 96 16" />
		<tag k="max_age" v="5" />
		<tag k="min_age" v="1" />
		<tag k="name" v="Nordre Kvam barnehage" />
		<tag k="no-barnehage:nsrid" v="1014746" />
		<tag k="operator" v="Steinkjer kommune" />
		<tag k="operator:type" v="public" />
		<tag k="start_date" v="1992-01-01" />
	</node>
	<node id="-5210" lat="64.011" lon="11.503">
		<tag k="amenity" v="kindergarten" />
		<tag k="capacity" v="18" />
		<tag k="contact:email" v="hilde.sivertsen@studentinord.no" />
		<tag k="contact:phone" v="+47 07763995" />
		<tag k="max_age" v="5" />
		<tag k="min_age" v="1" />
		<tag k="name" v="Nord Studentsamskipnad Avd Studentbarnehagen Steinkjer" />
		<tag k="no-barnehage:nsrid" v="1015994" />
		<tag k="operator" v="Nord Studentsamskipnad" />
		<tag k="operator:type" v="private" />
		<tag k="start_date" v="1992-01-01" />
	</node>
	<node id="-5209" lat="63.91905" lon="11.43292">
		<tag k="amenity" v="kindergarten" />
		<tag k="capacity" v="21" />
		<tag k="contact:email" v="maere1@msn.com" />
		<tag k="max_age" v="5" />
		<tag k="min_age" v="1" />
		<tag k="name" v="Mære Gårdsbarnehage AS" />
		<tag k="no-barnehage:nsrid" v="1021469" />
		<tag k="operator" v="Mære Gårdsbarnehage AS" />
		<tag k="operator:type" v="private" />
		<tag k="start_date" v="2003-08-01" />
	</node>
	<node id="-5208" lat="64.09029" lon="11.71105">
		<tag k="amenity" v="kindergarten" />
		<tag k="capacity" v="48" />
		<tag k="contact:email" v="ann.inger@marisletta.no" />
		<tag k="contact:phone" v="+47 74 16 97 78" />
		<tag k="max_age" v="5" />
		<tag k="min_age" v="1" />
		<tag k="name" v="Marisletta barnehage Sa" />
		<tag k="no-barnehage:nsrid" v="1019806" />
		<tag k="operator" v="Marisletta barnehage Sa" />
		<tag k="operator:type" v="private" />
		<tag k="start_date" v="1989-01-01" />
	</node>
	<node id="-5206" lat="63.9902" lon="11.5024">
		<tag k="amenity" v="kindergarten" />
		<tag k="capacity" v="36" />
		<tag k="contact:email" v="lerkehaugbhg@barnehage.no" />
		<tag k="contact:phone" v="+47 74 16 40 01" />
		<tag k="max_age" v="5" />
		<tag k="min_age" v="1" />
		<tag k="name" v="Lerkehaug barnehage" />
		<tag k="no-barnehage:nsrid" v="1020297" />
		<tag k="operator" v="Lerkehaug barnehage" />
		<tag k="operator:type" v="private" />
		<tag k="start_date" v="1989-01-02" />
	</node>
	<node id="-5205" lat="64.01502" lon="11.49526">
		<tag k="amenity" v="kindergarten" />
		<tag k="capacity" v="27" />
		<tag k="contact:email" v="post@kvambhg.no" />
		<tag k="contact:phone" v="+47 74 14 96 00" />
		<tag k="contact:website" v="http://kvam.barnehageside.no" />
		<tag k="max_age" v="5" />
		<tag k="min_age" v="1" />
		<tag k="name" v="Kvam barnehage Sa" />
		<tag k="no-barnehage:nsrid" v="1020499" />
		<tag k="operator" v="Kvam barnehage Sa" />
		<tag k="operator:type" v="private" />
		<tag k="start_date" v="1998-01-01" />
	</node>
	<node id="-5204" lat="64.01502" lon="11.49526">
		<tag k="amenity" v="kindergarten" />
		<tag k="capacity" v="44" />
		<tag k="contact:email" v="dagolav@kringlabarnehage.no" />
		<tag k="contact:phone" v="+47 74 16 76 42" />
		<tag k="contact:website" v="http://www.kringlabarnehage.no" />
		<tag k="max_age" v="5" />
		<tag k="min_age" v="1" />
		<tag k="name" v="Kringla Friluftsbarnehage AS" />
		<tag k="no-barnehage:nsrid" v="1021973" />
		<tag k="operator" v="Kringla Friluftsbarnehage AS" />
		<tag k="operator:type" v="private" />
		<tag k="start_date" v="2009-09-01" />
	</node>
	<node id="-5203" lat="64.08553" lon="11.3615">
		<tag k="amenity" v="kindergarten" />
		<tag k="capacity" v="14" />
		<tag k="contact:email" v="maria.haugnes@gmail.com" />
		<tag k="contact:phone" v="+47 95 36 92 77" />
		<tag k="max_age" v="5" />
		<tag k="min_age" v="1" />
		<tag k="name" v="Jåddåren Gårdsbarnehage AS" />
		<tag k="no-barnehage:nsrid" v="1022240" />
		<tag k="operator" v="Jåddåren Gårdsbarnehage AS" />
		<tag k="operator:type" v="private" />
		<tag k="start_date" v="2012-01-01" />
	</node>
	<node id="-5202" lat="63.91905" lon="11.43292">
		<tag k="amenity" v="kindergarten" />
		<tag k="capacity" v="48" />
		<tag k="contact:email" v="post@tusshaugen.no" />
		<tag k="contact:phone" v="+47 74 14 30 01" />
		<tag k="max_age" v="5" />
		<tag k="min_age" v="1" />
		<tag k="name" v="Haugtussa barnehage AS" />
		<tag k="no-barnehage:nsrid" v="1021097" />
		<tag k="operator" v="Haugtussa barnehage AS" />
		<tag k="operator:type" v="private" />
		<tag k="start_date" v="2004-07-01" />
	</node>
	<node id="-5201" lat="64.01746" lon="11.51406">
		<tag k="amenity" v="kindergarten" />
		<tag k="capacity" v="59" />
		<tag k="contact:email" v="vegar@guldbergaunetforskole.no" />
		<tag k="max_age" v="5" />
		<tag k="min_age" v="1" />
		<tag k="name" v="Guldbergaunet Førskole AS" />
		<tag k="no-barnehage:nsrid" v="1021798" />
		<tag k="operator" v="Guldbergaunet Førskole AS" />
		<tag k="operator:type" v="private" />
		<tag k="start_date" v="2008-03-12" />
	</node>
	<node id="-5200" lat="63.94938" lon="11.63271">
		<tag k="amenity" v="kindergarten" />
		<tag k="capacity" v="62" />
		<tag k="contact:email" v="dagolav@granstubben.no" />
		<tag k="max_age" v="5" />
		<tag k="min_age" v="1" />
		<tag k="name" v="Granstubben barnehage Henning AS" />
		<tag k="no-barnehage:nsrid" v="1021897" />
		<tag k="operator" v="Granstubben barnehage Henning AS" />
		<tag k="operator:type" v="private" />
		<tag k="start_date" v="2006-01-04" />
	</node>
	<node id="-5199" lat="64.10631" lon="11.57892">
		<tag k="amenity" v="kindergarten" />
		<tag k="capacity" v="33" />
		<tag k="contact:email" v="berntmyrvold@yahoo.no" />
		<tag k="contact:phone" v="+47 74 14 72 35" />
		<tag k="max_age" v="5" />
		<tag k="min_age" v="1" />
		<tag k="name" v="Følling barnehage" />
		<tag k="no-barnehage:nsrid" v="1019505" />
		<tag k="operator" v="Følling barnehage" />
		<tag k="operator:type" v="private" />
		<tag k="start_date" v="1978-07-20" />
	</node>
	<node id="-5198" lat="64.00247" lon="11.49492">
		<tag k="amenity" v="kindergarten" />
		<tag k="capacity" v="37" />
		<tag k="contact:email" v="post@figgabarnehage.no" />
		<tag k="contact:phone" v="+47 92694909" />
		<tag k="contact:website" v="http://www.figgabarnehage.no" />
		<tag k="max_age" v="5" />
		<tag k="min_age" v="1" />
		<tag k="name" v="Figga barnehage" />
		<tag k="no-barnehage:nsrid" v="1020619" />
		<tag k="operator" v="Figga barnehage" />
		<tag k="operator:type" v="private" />
		<tag k="start_date" v="1995-01-19" />
	</node>
	<node id="-5197" lat="64.0219" lon="11.5431">
		<tag k="amenity" v="kindergarten" />
		<tag k="capacity" v="28" />
		<tag k="contact:email" v="eli.saxegaard@steinkjer.kommune.no" />
		<tag k="contact:phone" v="+47 74 14 00 01" />
		<tag k="max_age" v="5" />
		<tag k="min_age" v="1" />
		<tag k="name" v="Fagerheim barnehage" />
		<tag k="no-barnehage:nsrid" v="1014936" />
		<tag k="operator" v="Steinkjer kommune" />
		<tag k="operator:type" v="public" />
		<tag k="start_date" v="1994-08-01" />
	</node>
	<node id="-5196" lat="64.02905" lon="11.54365">
		<tag k="amenity" v="kindergarten" />
		<tag k="capacity" v="35" />
		<tag k="contact:email" v="b-barneh@online.no" />
		<tag k="contact:phone" v="+47 74167877" />
		<tag k="max_age" v="5" />
		<tag k="min_age" v="1" />
		<tag k="name" v="Byafossen Korttidsbarnehage" />
		<tag k="no-barnehage:nsrid" v="1019640" />
		<tag k="operator" v="Byafossen Kortidsbarnehage" />
		<tag k="operator:type" v="private" />
		<tag k="start_date" v="1978-12-21" />
	</node>
	<node id="-5195" lat="64.08553" lon="11.3615">
		<tag k="amenity" v="kindergarten" />
		<tag k="capacity" v="87" />
		<tag k="contact:email" v="post@beitstadbarnehage.no" />
		<tag k="contact:phone" v="+47 74 14 83 40" />
		<tag k="contact:website" v="http://www.beitstadbarnehage.no" />
		<tag k="max_age" v="5" />
		<tag k="min_age" v="1" />
		<tag k="name" v="Beitstad barnehage AS" />
		<tag k="no-barnehage:nsrid" v="1021451" />
		<tag k="operator" v="Beitstad barnehage AS" />
		<tag k="operator:type" v="private" />
		<tag k="start_date" v="2006-06-02" />
	</node>
	<node id="-5194" lat="64.0157" lon="11.5012">
		<tag k="amenity" v="kindergarten" />
		<tag k="capacity" v="42" />
		<tag k="contact:email" v="hanne.skogvold@steinkjer.kommune.no" />
		<tag k="contact:phone" v="+47 90 99 68 87" />
		<tag k="max_age" v="5" />
		<tag k="min_age" v="1" />
		<tag k="name" v="Barnas Hus barnehage" />
		<tag k="no-barnehage:nsrid" v="1018259" />
		<tag k="operator" v="Steinkjer kommune" />
		<tag k="operator:type" v="public" />
		<tag k="start_date" v="1989-01-01" />
	</node>
</osm>
