<?xml version="1.0" encoding="UTF-8"?>
<osm generator="osmapis" version="0.6">
	<node id="-2260" lat="59.66296" lon="10.80635">
		<tag k="ADDRESS" v="Liaveien 20b, 1435 ÅS" />
		<tag k="amenity" v="kindergarten" />
		<tag k="capacity" v="38" />
		<tag k="contact:website" v="http://www.dysterliabarnehage.no" />
		<tag k="max_age" v="5" />
		<tag k="min_age" v="1" />
		<tag k="name" v="Dysterlia barnehage" />
		<tag k="no-barnehage:nsrid" v="974102382" />
		<tag k="operator" v="Dysterlia barnehage Sa" />
		<tag k="operator:type" v="private" />
	</node>
	<node id="-2261" lat="59.66869" lon="10.78061">
		<tag k="ADDRESS" v="Skogveien 16, 1433 ÅS" />
		<tag k="amenity" v="kindergarten" />
		<tag k="capacity" v="65" />
		<tag k="max_age" v="5" />
		<tag k="min_age" v="1" />
		<tag k="name" v="Frydenhaug barnehage" />
		<tag k="no-barnehage:nsrid" v="974603470" />
		<tag k="operator" v="Ås kommune" />
		<tag k="operator:type" v="public" />
	</node>
	<node id="-2262" lat="59.6854" lon="10.81112">
		<tag k="ADDRESS" v="Haugerudveien 7, 1434 ÅS" />
		<tag k="amenity" v="kindergarten" />
		<tag k="capacity" v="51" />
		<tag k="contact:website" v="http://www.hautussasteinbarnehage.no" />
		<tag k="max_age" v="5" />
		<tag k="min_age" v="1" />
		<tag k="name" v="Haugtussa Steinerbarnehage" />
		<tag k="no-barnehage:nsrid" v="973486012" />
		<tag k="operator" v="Stiftelsen Steinerbarnehagene i Ås" />
		<tag k="operator:type" v="private" />
	</node>
	<node id="-2263" lat="59.63295" lon="10.85043">
		<tag k="ADDRESS" v="Vollholen 24, 1435 ÅS" />
		<tag k="amenity" v="kindergarten" />
		<tag k="capacity" v="11" />
		<tag k="contact:website" v="http://www.kroer.barnehageside.no" />
		<tag k="max_age" v="5" />
		<tag k="min_age" v="1" />
		<tag k="name" v="Kroerbarnehagen" />
		<tag k="no-barnehage:nsrid" v="999211240" />
		<tag k="operator" v="Kroerbarnehagen Da" />
		<tag k="operator:type" v="private" />
	</node>
	<node id="-2264" lat="59.74599" lon="10.729">
		<tag k="ADDRESS" v="Strandengveien 12, 1407 VINTERBRO" />
		<tag k="amenity" v="kindergarten" />
		<tag k="capacity" v="42" />
		<tag k="contact:website" v="http://www.lovstad.barnehage.no" />
		<tag k="max_age" v="5" />
		<tag k="min_age" v="1" />
		<tag k="name" v="Løvstad naturbarnehage" />
		<tag k="no-barnehage:nsrid" v="987577401" />
		<tag k="operator" v="Løvstad Naturbarnehage Sa" />
		<tag k="operator:type" v="private" />
	</node>
	<node id="-2265" lat="59.65246" lon="10.79276">
		<tag k="ADDRESS" v="Briskeveien 12, 1430 ÅS" />
		<tag k="amenity" v="kindergarten" />
		<tag k="capacity" v="51" />
		<tag k="max_age" v="5" />
		<tag k="min_age" v="1" />
		<tag k="name" v="Moerlia barnehage" />
		<tag k="no-barnehage:nsrid" v="887913072" />
		<tag k="operator" v="Moerlia barnehage Sa" />
		<tag k="operator:type" v="private" />
	</node>
	<node id="-2266" lat="59.72434" lon="10.75496">
		<tag k="ADDRESS" v="Askehaugveien 87, 1407 VINTERBRO" />
		<tag k="amenity" v="kindergarten" />
		<tag k="capacity" v="30" />
		<tag k="max_age" v="5" />
		<tag k="min_age" v="1" />
		<tag k="name" v="Nordby barnehage" />
		<tag k="no-barnehage:nsrid" v="974603500" />
		<tag k="operator" v="Ås kommune" />
		<tag k="operator:type" v="public" />
	</node>
	<node id="-2267" lat="59.73244" lon="10.75139">
		<tag k="ADDRESS" v="Orrestien 2, 1407 VINTERBRO" />
		<tag k="amenity" v="kindergarten" />
		<tag k="capacity" v="61" />
		<tag k="max_age" v="5" />
		<tag k="min_age" v="1" />
		<tag k="name" v="Orrestien barnehage" />
		<tag k="no-barnehage:nsrid" v="980462242" />
		<tag k="operator" v="Orrestien barnehage AS" />
		<tag k="operator:type" v="private" />
	</node>
	<node id="-2269" lat="59.66211" lon="10.81694">
		<tag k="ADDRESS" v="Gamle Kroervei 53, 1435 ÅS" />
		<tag k="amenity" v="kindergarten" />
		<tag k="capacity" v="55" />
		<tag k="contact:website" v="http://rustadporten.no" />
		<tag k="max_age" v="5" />
		<tag k="min_age" v="1" />
		<tag k="name" v="Rustadporten barnehage" />
		<tag k="no-barnehage:nsrid" v="980482189" />
		<tag k="operator" v="Rustadporten barnehage SA" />
		<tag k="operator:type" v="private" />
	</node>
	<node id="-2270" lat="59.66777" lon="10.80706">
		<tag k="ADDRESS" v="von Øtkens vei 60, 1434 ÅS" />
		<tag k="amenity" v="kindergarten" />
		<tag k="capacity" v="35" />
		<tag k="max_age" v="5" />
		<tag k="min_age" v="1" />
		<tag k="name" v="Rustadskogen barnehage" />
		<tag k="no-barnehage:nsrid" v="974603489" />
		<tag k="operator" v="Ås kommune" />
		<tag k="operator:type" v="public" />
	</node>
	<node id="-2271" lat="59.6552" lon="10.78776">
		<tag k="ADDRESS" v="Ekornveien 50, 1430 ÅS" />
		<tag k="amenity" v="kindergarten" />
		<tag k="capacity" v="35" />
		<tag k="max_age" v="5" />
		<tag k="min_age" v="1" />
		<tag k="name" v="Sagalund barnehage" />
		<tag k="no-barnehage:nsrid" v="974603497" />
		<tag k="operator" v="Ås kommune" />
		<tag k="operator:type" v="public" />
	</node>
	<node id="-2272" lat="59.74343" lon="10.76726">
		<tag k="ADDRESS" v="Sjøskogenveien 25, 1407 VINTERBRO" />
		<tag k="amenity" v="kindergarten" />
		<tag k="capacity" v="56" />
		<tag k="contact:website" v="http://www.sjoskogen.no" />
		<tag k="max_age" v="5" />
		<tag k="min_age" v="1" />
		<tag k="name" v="Sjøskogen foreldrelagsbarnehage" />
		<tag k="no-barnehage:nsrid" v="976015894" />
		<tag k="operator" v="Sjøskogen barnehage Sa" />
		<tag k="operator:type" v="private" />
	</node>
	<node id="-2273" lat="59.71949" lon="10.7928">
		<tag k="ADDRESS" v="Valhallveien 4, 1423 SKI" />
		<tag k="amenity" v="kindergarten" />
		<tag k="capacity" v="144" />
		<tag k="max_age" v="5" />
		<tag k="min_age" v="1" />
		<tag k="name" v="Solbergtunet barnehage" />
		<tag k="no-barnehage:nsrid" v="995613662" />
		<tag k="operator" v="Ås kommune" />
		<tag k="operator:type" v="public" />
	</node>
	<node id="-2274" lat="59.66717" lon="10.78223">
		<tag k="ADDRESS" v="Utveien 23, 1433 ÅS" />
		<tag k="amenity" v="kindergarten" />
		<tag k="capacity" v="35" />
		<tag k="contact:website" v="http://www.kaja.barnehage.no" />
		<tag k="max_age" v="5" />
		<tag k="min_age" v="1" />
		<tag k="name" v="Stiftelsen Kaja barnehage" />
		<tag k="no-barnehage:nsrid" v="980342204" />
		<tag k="operator" v="Stiftelsen Kaja barnehage" />
		<tag k="operator:type" v="private" />
	</node>
	<node id="-2275" lat="59.65034" lon="10.83009">
		<tag k="ADDRESS" v="Danskerudbråten 15, 1435 ÅS" />
		<tag k="amenity" v="kindergarten" />
		<tag k="capacity" v="33" />
		<tag k="contact:website" v="http://www.knertenbarnehage.no" />
		<tag k="max_age" v="5" />
		<tag k="min_age" v="1" />
		<tag k="name" v="Stiftelsen Knerten barnehage" />
		<tag k="no-barnehage:nsrid" v="973489658" />
		<tag k="operator" v="Stiftelsen Knerten barnehage" />
		<tag k="operator:type" v="private" />
	</node>
	<node id="-2276" lat="59.6627" lon="10.78528">
		<tag k="ADDRESS" v="Skoleveien 14, 1430 ÅS" />
		<tag k="amenity" v="kindergarten" />
		<tag k="capacity" v="95" />
		<tag k="max_age" v="5" />
		<tag k="min_age" v="1" />
		<tag k="name" v="Søråsteigen barnehage" />
		<tag k="no-barnehage:nsrid" v="974603179" />
		<tag k="operator" v="Ås kommune" />
		<tag k="operator:type" v="public" />
	</node>
	<node id="-2277" lat="59.71871" lon="10.80673">
		<tag k="ADDRESS" v="Amunds vei 8, 1406 SKI" />
		<tag k="amenity" v="kindergarten" />
		<tag k="capacity" v="38" />
		<tag k="max_age" v="5" />
		<tag k="min_age" v="1" />
		<tag k="name" v="Tamburbakken barnehage" />
		<tag k="no-barnehage:nsrid" v="973500716" />
		<tag k="operator" v="Tamburbakken barnehage" />
		<tag k="operator:type" v="private" />
	</node>
	<node id="-2278" lat="59.6558" lon="10.79274">
		<tag k="ADDRESS" v="Tunveien 13, 1430 ÅS" />
		<tag k="amenity" v="kindergarten" />
		<tag k="capacity" v="60" />
		<tag k="max_age" v="5" />
		<tag k="min_age" v="1" />
		<tag k="name" v="Tunveien barnehage" />
		<tag k="no-barnehage:nsrid" v="993266043" />
		<tag k="operator" v="Ås kommune" />
		<tag k="operator:type" v="public" />
	</node>
	<node id="-2279" lat="59.74247" lon="10.77731">
		<tag k="ADDRESS" v="Gråbeinstien 2, 1407 VINTERBRO" />
		<tag k="amenity" v="kindergarten" />
		<tag k="capacity" v="92" />
		<tag k="max_age" v="5" />
		<tag k="min_age" v="1" />
		<tag k="name" v="Vinterbro barnehage" />
		<tag k="no-barnehage:nsrid" v="990269548" />
		<tag k="operator" v="Ås kommune" />
		<tag k="operator:type" v="public" />
	</node>
	<node id="-2280" lat="59.66777" lon="10.77292">
		<tag k="ADDRESS" v="Utveien 2, 1433 ÅS" />
		<tag k="amenity" v="kindergarten" />
		<tag k="capacity" v="41" />
		<tag k="contact:website" v="http://akebakke.barnehage.no/" />
		<tag k="max_age" v="5" />
		<tag k="min_age" v="1" />
		<tag k="name" v="Åkebakke barnehage" />
		<tag k="no-barnehage:nsrid" v="972290920" />
		<tag k="operator" v="Stiftelsen Åkebakke barnehage" />
		<tag k="operator:type" v="private" />
	</node>
</osm>
