<?xml version="1.0" encoding="UTF-8"?>
<osm generator="osmapis" version="0.6">
	<node id="-3249" lat="58.25479" lon="8.371465">
		<tag k="amenity" v="kindergarten" />
		<tag k="capacity" v="54" />
		<tag k="max_age" v="5" />
		<tag k="min_age" v="1" />
		<tag k="name" v="Villa Snøringsmoen barnehage" />
		<tag k="no-barnehage:nsrid" v="1021887" />
		<tag k="operator" v="Ulna AS" />
		<tag k="operator:type" v="private" />
	</node>
	<node id="-3248" lat="58.1956" lon="8.349099">
		<tag k="amenity" v="kindergarten" />
		<tag k="capacity" v="29" />
		<tag k="max_age" v="5" />
		<tag k="min_age" v="1" />
		<tag k="name" v="Veslekollen gårdsbarnehage" />
		<tag k="no-barnehage:nsrid" v="1021889" />
		<tag k="operator" v="Ulna AS" />
		<tag k="operator:type" v="private" />
	</node>
	<node id="-3247" lat="58.17059" lon="8.246574">
		<tag k="amenity" v="kindergarten" />
		<tag k="capacity" v="21" />
		<tag k="contact:website" v="http://www.tripptrapptresko.no" />
		<tag k="max_age" v="5" />
		<tag k="min_age" v="1" />
		<tag k="name" v="Tripp-trapp-tresko" />
		<tag k="no-barnehage:nsrid" v="1022261" />
		<tag k="operator" v="Tripp-Trapp-Tresko AS" />
		<tag k="operator:type" v="private" />
	</node>
	<node id="-3246" lat="58.249" lon="8.37763">
		<tag k="amenity" v="kindergarten" />
		<tag k="capacity" v="55" />
		<tag k="max_age" v="5" />
		<tag k="min_age" v="1" />
		<tag k="name" v="Prestholt barnehage" />
		<tag k="no-barnehage:nsrid" v="1025315" />
		<tag k="operator" v="Lillesand kommune" />
		<tag k="operator:type" v="public" />
	</node>
	<node id="-3245" lat="58.26015" lon="8.360476">
		<tag k="amenity" v="kindergarten" />
		<tag k="capacity" v="88" />
		<tag k="contact:website" v="http://www.fus.no/moglestu" />
		<tag k="max_age" v="5" />
		<tag k="min_age" v="1" />
		<tag k="name" v="Møglestu FUS barnehage" />
		<tag k="no-barnehage:nsrid" v="1021658" />
		<tag k="operator" v="Møglestu Fus barnehage AS" />
		<tag k="operator:type" v="private" />
	</node>
	<node id="-3244" lat="58.27523" lon="8.415567">
		<tag k="amenity" v="kindergarten" />
		<tag k="capacity" v="65" />
		<tag k="contact:website" v="http://www.laringsverkstedet.no/kaldvell" />
		<tag k="max_age" v="5" />
		<tag k="min_age" v="1" />
		<tag k="name" v="Læringsverkstedet barnehage avd. Kaldvell" />
		<tag k="no-barnehage:nsrid" v="1013560" />
		<tag k="operator" v="Læringsverkstedet AS" />
		<tag k="operator:type" v="private" />
	</node>
	<node id="-3243" lat="58.249" lon="8.37763">
		<tag k="amenity" v="kindergarten" />
		<tag k="name" v="Kalvild åpen barnehage" />
		<tag k="no-barnehage:nsrid" v="1014245" />
		<tag k="operator" v="Brunstad Kristelige Menighet Sørlandet" />
		<tag k="operator:type" v="private" />
	</node>
	<node id="-3242" lat="58.17059" lon="8.246574">
		<tag k="amenity" v="kindergarten" />
		<tag k="capacity" v="16" />
		<tag k="contact:website" v="http://hovag.barnehage.no/Hjem" />
		<tag k="max_age" v="5" />
		<tag k="min_age" v="1" />
		<tag k="name" v="Høvåg barnehage" />
		<tag k="no-barnehage:nsrid" v="1021133" />
		<tag k="operator" v="Høvåg Herredshus" />
		<tag k="operator:type" v="private" />
	</node>
	<node id="-3240" lat="58.17229" lon="8.242565">
		<tag k="amenity" v="kindergarten" />
		<tag k="capacity" v="50" />
		<tag k="contact:website" v="http://www.framsynbarnehage.no/" />
		<tag k="max_age" v="5" />
		<tag k="min_age" v="1" />
		<tag k="name" v="Framsyn barnehage" />
		<tag k="no-barnehage:nsrid" v="1012925" />
		<tag k="operator" v="Lillesand kommune" />
		<tag k="operator:type" v="public" />
	</node>
	<node id="-3239" lat="58.2454" lon="8.35933">
		<tag k="amenity" v="kindergarten" />
		<tag k="capacity" v="60" />
		<tag k="max_age" v="5" />
		<tag k="min_age" v="1" />
		<tag k="name" v="Borketun barnehage" />
		<tag k="no-barnehage:nsrid" v="1016209" />
		<tag k="operator" v="Lillesand kommune" />
		<tag k="operator:type" v="public" />
	</node>
	<node id="-3238" lat="58.249" lon="8.37763">
		<tag k="amenity" v="kindergarten" />
		<tag k="capacity" v="77" />
		<tag k="max_age" v="5" />
		<tag k="min_age" v="1" />
		<tag k="name" v="Blåbæråsen barnehage" />
		<tag k="no-barnehage:nsrid" v="1014201" />
		<tag k="operator" v="Lillesand kommune" />
		<tag k="operator:type" v="public" />
	</node>
	<node id="-3237" lat="58.25205" lon="8.382759">
		<tag k="amenity" v="kindergarten" />
		<tag k="capacity" v="32" />
		<tag k="max_age" v="5" />
		<tag k="min_age" v="1" />
		<tag k="name" v="Bergstø barnehage" />
		<tag k="no-barnehage:nsrid" v="1019802" />
		<tag k="operator" v="Bergstø barnehage Sa" />
		<tag k="operator:type" v="private" />
	</node>
	<node id="-3236" lat="58.2603" lon="8.3977">
		<tag k="amenity" v="kindergarten" />
		<tag k="capacity" v="57" />
		<tag k="max_age" v="5" />
		<tag k="min_age" v="1" />
		<tag k="name" v="Avigo avd. barnehage" />
		<tag k="no-barnehage:nsrid" v="1017244" />
		<tag k="operator" v="Avigo AS" />
		<tag k="operator:type" v="private" />
	</node>
</osm>
