<?xml version="1.0" encoding="UTF-8"?>
<osm generator="osmapis" version="0.6">
	<node id="-3480" lat="59.13596" lon="10.22387">
		<tag k="ADDRESS" v="Sandarveien 6, 3215 SANDEFJORD" />
		<tag k="amenity" v="kindergarten" />
		<tag k="capacity" v="49" />
		<tag k="max_age" v="5" />
		<tag k="min_age" v="1" />
		<tag k="name" v="Barnas Have" />
		<tag k="no-barnehage:nsrid" v="874198722" />
		<tag k="operator" v="Barnas Have Avdeling Sentrum AS" />
		<tag k="operator:type" v="private" />
	</node>
	<node id="-3481" lat="59.13152" lon="10.19997">
		<tag k="ADDRESS" v="Stadionveien 14, 3214 SANDEFJORD" />
		<tag k="amenity" v="kindergarten" />
		<tag k="capacity" v="36" />
		<tag k="contact:website" v="http://pingeline.barnehage.no" />
		<tag k="max_age" v="5" />
		<tag k="min_age" v="1" />
		<tag k="name" v="Barnas Have avd. Bugården" />
		<tag k="no-barnehage:nsrid" v="973490125" />
		<tag k="operator" v="Barnas Have Avdeling Bugården AS" />
		<tag k="operator:type" v="private" />
	</node>
	<node id="-3482" lat="59.22303" lon="10.33835">
		<tag k="ADDRESS" v="Solnesveien 6, 3159 MELSOMVIK" />
		<tag k="amenity" v="kindergarten" />
		<tag k="capacity" v="51" />
		<tag k="contact:website" v="http://www.sandefjord.kommune.no" />
		<tag k="max_age" v="5" />
		<tag k="min_age" v="3" />
		<tag k="name" v="Barnas Hus barnehage" />
		<tag k="no-barnehage:nsrid" v="975322254" />
		<tag k="operator" v="Sandefjord kommune" />
		<tag k="operator:type" v="public" />
	</node>
	<node id="-3483" lat="59.14492" lon="10.22392">
		<tag k="ADDRESS" v="Tors vei 7A, 3216 SANDEFJORD" />
		<tag k="amenity" v="kindergarten" />
		<tag k="capacity" v="51" />
		<tag k="max_age" v="5" />
		<tag k="min_age" v="1" />
		<tag k="name" v="Breidablikk kanvas-barnehage" />
		<tag k="no-barnehage:nsrid" v="973076345" />
		<tag k="operator" v="Stiftelsen Kanvas" />
		<tag k="operator:type" v="private" />
	</node>
	<node id="-3484" lat="59.13184" lon="10.19967">
		<tag k="ADDRESS" v="Stadionveien 10, 3214 SANDEFJORD" />
		<tag k="amenity" v="kindergarten" />
		<tag k="capacity" v="37" />
		<tag k="max_age" v="5" />
		<tag k="min_age" v="1" />
		<tag k="name" v="Bugården barnehage" />
		<tag k="no-barnehage:nsrid" v="974594935" />
		<tag k="operator" v="Sandefjord kommune" />
		<tag k="operator:type" v="public" />
	</node>
	<node id="-3485" lat="59.2917" lon="10.24631">
		<tag k="ADDRESS" v="Fuskegata 9, 3158 ANDEBU" />
		<tag k="amenity" v="kindergarten" />
		<tag k="capacity" v="41" />
		<tag k="contact:website" v="http://www.sandefjord.kommune.no" />
		<tag k="max_age" v="5" />
		<tag k="min_age" v="1" />
		<tag k="name" v="Elverhøy barnehage" />
		<tag k="no-barnehage:nsrid" v="975306879" />
		<tag k="operator" v="Sandefjord kommune" />
		<tag k="operator:type" v="public" />
	</node>
	<node id="-3486" lat="59.13227" lon="10.24337">
		<tag k="ADDRESS" v="Gokstadryggen 6, 3217 SANDEFJORD" />
		<tag k="amenity" v="kindergarten" />
		<tag k="capacity" v="18" />
		<tag k="max_age" v="5" />
		<tag k="min_age" v="1" />
		<tag k="name" v="Epleblomsten Steinerbarnehage i Sandefjord" />
		<tag k="no-barnehage:nsrid" v="973740806" />
		<tag k="operator" v="Rudolf Steinerbarnehagen i Sandefjord" />
		<tag k="operator:type" v="private" />
	</node>
	<node id="-3487" lat="59.1585" lon="10.22165">
		<tag k="ADDRESS" v="Lingelemveien 84, 3225 SANDEFJORD" />
		<tag k="amenity" v="kindergarten" />
		<tag k="capacity" v="155" />
		<tag k="contact:website" v="http://www.espira.no" />
		<tag k="max_age" v="5" />
		<tag k="min_age" v="1" />
		<tag k="name" v="Espira Åbol barnehage" />
		<tag k="no-barnehage:nsrid" v="992843551" />
		<tag k="operator" v="Espira Åbol AS" />
		<tag k="operator:type" v="private" />
	</node>
	<node id="-3488" lat="59.18784" lon="10.30998">
		<tag k="ADDRESS" v="Feenveien 202, 3160 STOKKE" />
		<tag k="amenity" v="kindergarten" />
		<tag k="capacity" v="43" />
		<tag k="contact:website" v="http://www.sandefjord.kommune.no" />
		<tag k="max_age" v="5" />
		<tag k="min_age" v="1" />
		<tag k="name" v="Feen barnehage" />
		<tag k="no-barnehage:nsrid" v="995388278" />
		<tag k="operator" v="Sandefjord kommune" />
		<tag k="operator:type" v="public" />
	</node>
	<node id="-3489" lat="59.22006" lon="10.29338">
		<tag k="ADDRESS" v="Jevnakerveien 20, 3160 STOKKE" />
		<tag k="amenity" v="kindergarten" />
		<tag k="capacity" v="80" />
		<tag k="contact:website" v="http://www.stokke.kommune.no" />
		<tag k="max_age" v="5" />
		<tag k="min_age" v="1" />
		<tag k="name" v="Frydenberg barnehage" />
		<tag k="no-barnehage:nsrid" v="975322246" />
		<tag k="operator" v="Sandefjord kommune" />
		<tag k="operator:type" v="public" />
	</node>
	<node id="-3490" lat="59.11403" lon="10.17465">
		<tag k="ADDRESS" v="Furustadveien 61, 3232 SANDEFJORD" />
		<tag k="amenity" v="kindergarten" />
		<tag k="capacity" v="40" />
		<tag k="contact:website" v="http://www.furustad-barnehage.no" />
		<tag k="max_age" v="5" />
		<tag k="min_age" v="1" />
		<tag k="name" v="Furustad barnehage" />
		<tag k="no-barnehage:nsrid" v="973483285" />
		<tag k="operator" v="Furustad barnehage SA" />
		<tag k="operator:type" v="private" />
	</node>
	<node id="-3491" lat="59.1133" lon="10.25491">
		<tag k="ADDRESS" v="Vesterøyveien 131, 3219 SANDEFJORD" />
		<tag k="amenity" v="kindergarten" />
		<tag k="capacity" v="27" />
		<tag k="max_age" v="5" />
		<tag k="min_age" v="1" />
		<tag k="name" v="Gapahuken barnehage" />
		<tag k="no-barnehage:nsrid" v="982140315" />
		<tag k="operator" v="Gapahuken barnehage AS" />
		<tag k="operator:type" v="private" />
	</node>
	<node id="-3492" lat="59.12751" lon="10.27095">
		<tag k="ADDRESS" v="Nordre Gjekstadskog 1, 3236 SANDEFJORD" />
		<tag k="amenity" v="kindergarten" />
		<tag k="capacity" v="48" />
		<tag k="max_age" v="5" />
		<tag k="min_age" v="1" />
		<tag k="name" v="Gjekstad kanvas-barnehage" />
		<tag k="no-barnehage:nsrid" v="973076337" />
		<tag k="operator" v="Stiftelsen Kanvas" />
		<tag k="operator:type" v="private" />
	</node>
	<node id="-3493" lat="59.2316" lon="10.27583">
		<tag k="ADDRESS" v="Gjennestadtunet 75, 3160 STOKKE" />
		<tag k="amenity" v="kindergarten" />
		<tag k="capacity" v="71" />
		<tag k="contact:website" v="http://www.gjennestadbarnehage.no" />
		<tag k="max_age" v="5" />
		<tag k="min_age" v="1" />
		<tag k="name" v="Gjennestad barnehage" />
		<tag k="no-barnehage:nsrid" v="975036456" />
		<tag k="operator" v="Gjennestad barnehage" />
		<tag k="operator:type" v="private" />
	</node>
	<node id="-3494" lat="59.30966" lon="10.19867">
		<tag k="ADDRESS" v="Høgenhallveien 7, 3158 ANDEBU" />
		<tag k="amenity" v="kindergarten" />
		<tag k="capacity" v="68" />
		<tag k="max_age" v="5" />
		<tag k="min_age" v="1" />
		<tag k="name" v="Gravdal barnehage" />
		<tag k="no-barnehage:nsrid" v="891547072" />
		<tag k="operator" v="Sandefjord kommune" />
		<tag k="operator:type" v="public" />
	</node>
	<node id="-3495" lat="59.14534" lon="10.19061">
		<tag k="ADDRESS" v="Beintegata 16, 3221 SANDEFJORD" />
		<tag k="amenity" v="kindergarten" />
		<tag k="capacity" v="38" />
		<tag k="max_age" v="5" />
		<tag k="min_age" v="1" />
		<tag k="name" v="Haukerød barnehage" />
		<tag k="no-barnehage:nsrid" v="974594943" />
		<tag k="operator" v="Sandefjord kommune" />
		<tag k="operator:type" v="public" />
	</node>
	<node id="-3496" lat="59.26331" lon="10.21296">
		<tag k="ADDRESS" v="Årholtveien 11, 3160 STOKKE" />
		<tag k="amenity" v="kindergarten" />
		<tag k="capacity" v="40" />
		<tag k="max_age" v="5" />
		<tag k="min_age" v="1" />
		<tag k="name" v="Holtegrenda gårdsbarnehage" />
		<tag k="no-barnehage:nsrid" v="990041032" />
		<tag k="operator" v="Holtegrenda gårdsbarnehage AS" />
		<tag k="operator:type" v="private" />
	</node>
	<node id="-3497" lat="59.17184" lon="10.21486">
		<tag k="ADDRESS" v="Hunsrødgrenda 1, 3241 SANDEFJORD" />
		<tag k="amenity" v="kindergarten" />
		<tag k="capacity" v="96" />
		<tag k="contact:website" v="http://barnehagene.no/" />
		<tag k="max_age" v="5" />
		<tag k="min_age" v="1" />
		<tag k="name" v="Hunsrød Fevang barnehage avd. Hunsrødgrenda" />
		<tag k="no-barnehage:nsrid" v="981501667" />
		<tag k="operator" v="Hunsrød-Fevang barnehage Sa" />
		<tag k="operator:type" v="private" />
	</node>
	<node id="-3498" lat="59.13215" lon="10.27427">
		<tag k="ADDRESS" v="Myreskauen 20, 3218 SANDEFJORD" />
		<tag k="amenity" v="kindergarten" />
		<tag k="capacity" v="32" />
		<tag k="max_age" v="5" />
		<tag k="min_age" v="1" />
		<tag k="name" v="Høgenhall barnehage" />
		<tag k="no-barnehage:nsrid" v="973490141" />
		<tag k="operator" v="Høgenhall barnehage Sa" />
		<tag k="operator:type" v="private" />
	</node>
	<node id="-3499" lat="59.35785" lon="10.14194">
		<tag k="ADDRESS" v="Heimdalsåsen 5, 3158 ANDEBU" />
		<tag k="amenity" v="kindergarten" />
		<tag k="capacity" v="42" />
		<tag k="contact:website" v="http://Heidi.Riis.Hov@sandefjord.kommune.no" />
		<tag k="max_age" v="5" />
		<tag k="min_age" v="1" />
		<tag k="name" v="Høyjord barnehage" />
		<tag k="no-barnehage:nsrid" v="982383927" />
		<tag k="operator" v="Sandefjord kommune" />
		<tag k="operator:type" v="public" />
	</node>
	<node id="-3500" lat="59.13282" lon="10.20035">
		<tag k="ADDRESS" v="Kapteinsvingen 21, 3214 SANDEFJORD" />
		<tag k="amenity" v="kindergarten" />
		<tag k="capacity" v="28" />
		<tag k="max_age" v="5" />
		<tag k="min_age" v="1" />
		<tag k="name" v="Kapteinløkka barnehage" />
		<tag k="no-barnehage:nsrid" v="973758659" />
		<tag k="operator" v="Sandefjord kommune" />
		<tag k="operator:type" v="public" />
	</node>
	<node id="-3501" lat="59.13681" lon="10.1894">
		<tag k="ADDRESS" v="Nygårdsveien 50, 3214 SANDEFJORD" />
		<tag k="amenity" v="kindergarten" />
		<tag k="capacity" v="49" />
		<tag k="max_age" v="5" />
		<tag k="min_age" v="1" />
		<tag k="name" v="Karisletta kanvas-barnehage" />
		<tag k="no-barnehage:nsrid" v="973076329" />
		<tag k="operator" v="Stiftelsen Kanvas" />
		<tag k="operator:type" v="private" />
	</node>
	<node id="-3502" lat="59.12993" lon="10.21388">
		<tag k="ADDRESS" v="Kathrineborggata 16, 3213 SANDEFJORD" />
		<tag k="amenity" v="kindergarten" />
		<tag k="capacity" v="41" />
		<tag k="max_age" v="5" />
		<tag k="min_age" v="1" />
		<tag k="name" v="Kathrines Have" />
		<tag k="no-barnehage:nsrid" v="991620281" />
		<tag k="operator" v="Kathrines Have AS" />
		<tag k="operator:type" v="private" />
	</node>
	<node id="-3503" lat="59.21668" lon="10.13875">
		<tag k="ADDRESS" v="Sagaveien 1A, 3243 KODAL" />
		<tag k="amenity" v="kindergarten" />
		<tag k="capacity" v="71" />
		<tag k="max_age" v="5" />
		<tag k="min_age" v="1" />
		<tag k="name" v="Kodal barnehage" />
		<tag k="no-barnehage:nsrid" v="975322211" />
		<tag k="operator" v="Sandefjord kommune" />
		<tag k="operator:type" v="public" />
	</node>
	<node id="-3504" lat="59.13218" lon="10.18212">
		<tag k="ADDRESS" v="Tennisveien 19, 3244 SANDEFJORD" />
		<tag k="amenity" v="kindergarten" />
		<tag k="capacity" v="71" />
		<tag k="max_age" v="5" />
		<tag k="min_age" v="1" />
		<tag k="name" v="Krokemoa barnehage" />
		<tag k="no-barnehage:nsrid" v="974594889" />
		<tag k="operator" v="Sandefjord kommune" />
		<tag k="operator:type" v="public" />
	</node>
	<node id="-3505" lat="59.13058" lon="10.18371">
		<tag k="ADDRESS" v="Lauras vei 3, 3244 SANDEFJORD" />
		<tag k="amenity" v="kindergarten" />
		<tag k="capacity" v="49" />
		<tag k="contact:website" v="http://krokenskogen.kanvas.no/" />
		<tag k="max_age" v="5" />
		<tag k="min_age" v="1" />
		<tag k="name" v="Krokenskogen kanvas-barnehage" />
		<tag k="no-barnehage:nsrid" v="980357686" />
		<tag k="operator" v="Stiftelsen Kanvas" />
		<tag k="operator:type" v="private" />
	</node>
	<node id="-3506" lat="59.12992" lon="10.17553">
		<tag k="ADDRESS" v="Krokenveien 101, 3232 SANDEFJORD" />
		<tag k="amenity" v="kindergarten" />
		<tag k="capacity" v="25" />
		<tag k="max_age" v="5" />
		<tag k="min_age" v="1" />
		<tag k="name" v="Krokusen barnehage" />
		<tag k="no-barnehage:nsrid" v="988215872" />
		<tag k="operator" v="Krokusen barnehage AS" />
		<tag k="operator:type" v="private" />
	</node>
	<node id="-3507" lat="59.08866" lon="10.21181">
		<tag k="ADDRESS" v="Teksleåsen 3, 3231 SANDEFJORD" />
		<tag k="amenity" v="kindergarten" />
		<tag k="capacity" v="50" />
		<tag k="max_age" v="5" />
		<tag k="min_age" v="1" />
		<tag k="name" v="Kulturbarnehagen Noahs Ark" />
		<tag k="no-barnehage:nsrid" v="994233262" />
		<tag k="operator" v="Stiftelsen Sandefjord Menighetspleie og kirkesenter" />
		<tag k="operator:type" v="private" />
	</node>
	<node id="-3508" lat="59.11796" lon="10.28253">
		<tag k="ADDRESS" v="Skjellvikaveien 6, 3237 SANDEFJORD" />
		<tag k="amenity" v="kindergarten" />
		<tag k="capacity" v="40" />
		<tag k="contact:website" v="http://lahelle.barnehage.no" />
		<tag k="max_age" v="5" />
		<tag k="min_age" v="1" />
		<tag k="name" v="Lahelle barnehage Horieh Yegani-behambari" />
		<tag k="no-barnehage:nsrid" v="887734062" />
		<tag k="operator" v="Lahelle barnehage Horieh Yegani-Behambari" />
		<tag k="operator:type" v="private" />
	</node>
	<node id="-3509" lat="59.1541" lon="10.30378">
		<tag k="ADDRESS" v="Helgerødveien 210, 3233 SANDEFJORD" />
		<tag k="amenity" v="kindergarten" />
		<tag k="capacity" v="67" />
		<tag k="max_age" v="5" />
		<tag k="min_age" v="1" />
		<tag k="name" v="Læringsverkstedet barnehage avd. Helgerød barnehage" />
		<tag k="no-barnehage:nsrid" v="973435442" />
		<tag k="operator" v="Læringsverkstedet AS" />
		<tag k="operator:type" v="private" />
	</node>
	<node id="-3510" lat="59.11182" lon="10.23817">
		<tag k="ADDRESS" v="Veradammen 21, 3219 SANDEFJORD" />
		<tag k="amenity" v="kindergarten" />
		<tag k="capacity" v="92" />
		<tag k="max_age" v="5" />
		<tag k="min_age" v="1" />
		<tag k="name" v="Læringsverkstedet barnehage Veraåsen barnehage" />
		<tag k="no-barnehage:nsrid" v="995006456" />
		<tag k="operator" v="Læringsverkstedet AS" />
		<tag k="operator:type" v="private" />
	</node>
	<node id="-3511" lat="59.17917" lon="10.17573">
		<tag k="ADDRESS" v="Bjørndalsveien 3, 3220 SANDEFJORD" />
		<tag k="amenity" v="kindergarten" />
		<tag k="capacity" v="78" />
		<tag k="max_age" v="5" />
		<tag k="min_age" v="1" />
		<tag k="name" v="Læringsverkstedet barnehage avd. Napperød naturbarnehage" />
		<tag k="no-barnehage:nsrid" v="989755498" />
		<tag k="operator" v="Læringsverkstedet AS" />
		<tag k="operator:type" v="private" />
	</node>
	<node id="-3512" lat="59.16434" lon="10.21627">
		<tag k="ADDRESS" v="Bottenveien 5, 3241 SANDEFJORD" />
		<tag k="amenity" v="kindergarten" />
		<tag k="capacity" v="50" />
		<tag k="contact:website" v="http://www.lokkabarnehage.no" />
		<tag k="max_age" v="5" />
		<tag k="min_age" v="1" />
		<tag k="name" v="Løkka og Knøttetreff barnehage Sandefjord" />
		<tag k="no-barnehage:nsrid" v="992618108" />
		<tag k="operator" v="Løkka barnehage Sandefjord AS" />
		<tag k="operator:type" v="private" />
	</node>
	<node id="-3513" lat="59.14149" lon="10.20721">
		<tag k="ADDRESS" v="Mo terrasse 14, 3215 SANDEFJORD" />
		<tag k="amenity" v="kindergarten" />
		<tag k="capacity" v="76" />
		<tag k="max_age" v="5" />
		<tag k="min_age" v="1" />
		<tag k="name" v="Modalen barnehage" />
		<tag k="no-barnehage:nsrid" v="992467142" />
		<tag k="operator" v="Sandefjord kommune" />
		<tag k="operator:type" v="public" />
	</node>
	<node id="-3514" lat="59.14339" lon="10.21227">
		<tag k="ADDRESS" v="Mokollveien 30, 3226 SANDEFJORD" />
		<tag k="amenity" v="kindergarten" />
		<tag k="capacity" v="58" />
		<tag k="max_age" v="5" />
		<tag k="min_age" v="1" />
		<tag k="name" v="Mokollen barnehage" />
		<tag k="no-barnehage:nsrid" v="974183536" />
		<tag k="operator" v="Mokollen barnehage AS" />
		<tag k="operator:type" v="private" />
	</node>
	<node id="-3515" lat="0.0" lon="0.0">
		<tag k="ADDRESS" v="Møyland, 3158 ANDEBU" />
		<tag k="amenity" v="kindergarten" />
		<tag k="capacity" v="60" />
		<tag k="max_age" v="5" />
		<tag k="min_age" v="1" />
		<tag k="name" v="Møyland barnehage" />
		<tag k="no-barnehage:nsrid" v="988013447" />
		<tag k="operator" v="Sandefjord kommune" />
		<tag k="operator:type" v="public" />
	</node>
	<node id="-3516" lat="59.22029" lon="10.24337">
		<tag k="ADDRESS" v="Undelstvedtveien 66, 3160 STOKKE" />
		<tag k="amenity" v="kindergarten" />
		<tag k="capacity" v="23" />
		<tag k="contact:website" v="http://www.hoppensprett.no/Barnehager/Vaare-barnehager/Sandefjord-kommune/Hoppensprett-Naturkameratene-Stok" />
		<tag k="max_age" v="5" />
		<tag k="min_age" v="1" />
		<tag k="name" v="Naturkameratene" />
		<tag k="no-barnehage:nsrid" v="980113272" />
		<tag k="operator" v="Hoppensprett AS" />
		<tag k="operator:type" v="private" />
	</node>
	<node id="-3517" lat="59.1358" lon="10.23727">
		<tag k="ADDRESS" v="Høyåsveien 22B, 3216 SANDEFJORD" />
		<tag k="amenity" v="kindergarten" />
		<tag k="capacity" v="21" />
		<tag k="max_age" v="5" />
		<tag k="min_age" v="1" />
		<tag k="name" v="Prestekragen barnehage" />
		<tag k="no-barnehage:nsrid" v="985034850" />
		<tag k="operator" v="Prestekragen barnehage AS" />
		<tag k="operator:type" v="private" />
	</node>
	<node id="-3518" lat="59.11589" lon="10.2125">
		<tag k="ADDRESS" v="Haukeveien 8, 3212 SANDEFJORD" />
		<tag k="amenity" v="kindergarten" />
		<tag k="capacity" v="48" />
		<tag k="max_age" v="5" />
		<tag k="min_age" v="1" />
		<tag k="name" v="Ranvik barnehage" />
		<tag k="no-barnehage:nsrid" v="974594897" />
		<tag k="operator" v="Sandefjord kommune" />
		<tag k="operator:type" v="public" />
	</node>
	<node id="-3519" lat="59.12214" lon="10.25515">
		<tag k="ADDRESS" v="Vardeveien 50, 3227 SANDEFJORD" />
		<tag k="amenity" v="kindergarten" />
		<tag k="capacity" v="51" />
		<tag k="max_age" v="5" />
		<tag k="min_age" v="1" />
		<tag k="name" v="Ringkollen barnehage" />
		<tag k="no-barnehage:nsrid" v="974594870" />
		<tag k="operator" v="Sandefjord kommune" />
		<tag k="operator:type" v="public" />
	</node>
	<node id="-3520" lat="59.13175" lon="10.17117">
		<tag k="ADDRESS" v="Krokemoveien 126A, 3223 SANDEFJORD" />
		<tag k="amenity" v="kindergarten" />
		<tag k="name" v="Sandefjord kommune åpen barnehage Kroken" />
		<tag k="no-barnehage:nsrid" v="976668006" />
		<tag k="operator" v="Sandefjord kommune" />
		<tag k="operator:type" v="public" />
	</node>
	<node id="-3521" lat="59.12995" lon="10.21971">
		<tag k="ADDRESS" v="Søebergs gate 4, 3211 SANDEFJORD" />
		<tag k="amenity" v="kindergarten" />
		<tag k="name" v="Sandefjord kommune åpen barnehage Sentrum" />
		<tag k="no-barnehage:nsrid" v="989750623" />
		<tag k="operator" v="Sandefjord kommune" />
		<tag k="operator:type" v="public" />
	</node>
	<node id="-3522" lat="59.22697" lon="10.10257">
		<tag k="ADDRESS" v="Gamle Bjørndalvei 5, 3243 KODAL" />
		<tag k="amenity" v="kindergarten" />
		<tag k="capacity" v="49" />
		<tag k="max_age" v="5" />
		<tag k="min_age" v="1" />
		<tag k="name" v="Smiehavna gårdsbarnehage" />
		<tag k="no-barnehage:nsrid" v="985874727" />
		<tag k="operator" v="Smiehavna Gårdsbarnehage AS" />
		<tag k="operator:type" v="private" />
	</node>
	<node id="-3523" lat="59.10624" lon="10.20977">
		<tag k="ADDRESS" v="Soleveien 65, 3209 SANDEFJORD" />
		<tag k="amenity" v="kindergarten" />
		<tag k="capacity" v="143" />
		<tag k="max_age" v="5" />
		<tag k="min_age" v="1" />
		<tag k="name" v="Sole barnehage" />
		<tag k="no-barnehage:nsrid" v="973490133" />
		<tag k="operator" v="Sole barnehage SA" />
		<tag k="operator:type" v="private" />
	</node>
	<node id="-3524" lat="59.10912" lon="10.20828">
		<tag k="ADDRESS" v="Haneholmveien 126, 3209 SANDEFJORD" />
		<tag k="amenity" v="kindergarten" />
		<tag k="capacity" v="19" />
		<tag k="contact:website" v="http://www.soltoppenbarnehage.no" />
		<tag k="max_age" v="5" />
		<tag k="min_age" v="1" />
		<tag k="name" v="Soltoppen barnehage" />
		<tag k="no-barnehage:nsrid" v="988653519" />
		<tag k="operator" v="Soltoppen barnehage AS" />
		<tag k="operator:type" v="private" />
	</node>
	<node id="-3525" lat="59.13417" lon="10.2107">
		<tag k="ADDRESS" v="Skiringssalveien 28, 3208 SANDEFJORD" />
		<tag k="amenity" v="kindergarten" />
		<tag k="capacity" v="84" />
		<tag k="max_age" v="5" />
		<tag k="min_age" v="1" />
		<tag k="name" v="Solvang barnehage" />
		<tag k="no-barnehage:nsrid" v="973448633" />
		<tag k="operator" v="Solvang barnehage Sa" />
		<tag k="operator:type" v="private" />
	</node>
	<node id="-3526" lat="59.12004" lon="10.23137">
		<tag k="ADDRESS" v="Framnesveien 7, 3222 SANDEFJORD" />
		<tag k="amenity" v="kindergarten" />
		<tag k="capacity" v="22" />
		<tag k="contact:website" v="http://www.skagerak.org" />
		<tag k="max_age" v="5" />
		<tag k="min_age" v="3" />
		<tag k="name" v="Stiftelsen Skagerak International School, Kindergarten" />
		<tag k="no-barnehage:nsrid" v="998923808" />
		<tag k="operator" v="Stiftelsen Skagerak International School, Kindergarten" />
		<tag k="operator:type" v="private" />
	</node>
	<node id="-3527" lat="59.14105" lon="10.1941">
		<tag k="ADDRESS" v="Feltspatveien 6B, 3221 SANDEFJORD" />
		<tag k="amenity" v="kindergarten" />
		<tag k="capacity" v="48" />
		<tag k="max_age" v="5" />
		<tag k="min_age" v="1" />
		<tag k="name" v="Svartås barnehage" />
		<tag k="no-barnehage:nsrid" v="974594919" />
		<tag k="operator" v="Sandefjord kommune" />
		<tag k="operator:type" v="public" />
	</node>
	<node id="-3528" lat="59.14561" lon="10.23073">
		<tag k="ADDRESS" v="Øvre Sverdstadvei 4, 3216 SANDEFJORD" />
		<tag k="amenity" v="kindergarten" />
		<tag k="capacity" v="28" />
		<tag k="max_age" v="5" />
		<tag k="min_age" v="1" />
		<tag k="name" v="Sverstad barnehage" />
		<tag k="no-barnehage:nsrid" v="990020310" />
		<tag k="operator" v="Sverstad barnehage AS" />
		<tag k="operator:type" v="private" />
	</node>
	<node id="-3529" lat="59.13136" lon="10.26766">
		<tag k="ADDRESS" v="Gjekstadveien 75, 3218 SANDEFJORD" />
		<tag k="amenity" v="kindergarten" />
		<tag k="capacity" v="13" />
		<tag k="contact:website" v="http://www.toppenbhg.com" />
		<tag k="max_age" v="5" />
		<tag k="min_age" v="1" />
		<tag k="name" v="Toppen barnehage" />
		<tag k="no-barnehage:nsrid" v="973512080" />
		<tag k="operator" v="Toppen barnehage AS" />
		<tag k="operator:type" v="private" />
	</node>
	<node id="-3530" lat="59.22787" lon="10.33198">
		<tag k="ADDRESS" v="Fjellyveien 2, 3159 MELSOMVIK" />
		<tag k="amenity" v="kindergarten" />
		<tag k="capacity" v="21" />
		<tag k="contact:website" v="http://www.sandefjord.kommune.no" />
		<tag k="max_age" v="2" />
		<tag k="min_age" v="1" />
		<tag k="name" v="Trekanten barnehage" />
		<tag k="no-barnehage:nsrid" v="975306887" />
		<tag k="operator" v="Sandefjord kommune" />
		<tag k="operator:type" v="public" />
	</node>
	<node id="-3531" lat="59.14178" lon="10.22191">
		<tag k="ADDRESS" v="Trudvangveien 24, 3216 SANDEFJORD" />
		<tag k="amenity" v="kindergarten" />
		<tag k="capacity" v="72" />
		<tag k="max_age" v="5" />
		<tag k="min_age" v="1" />
		<tag k="name" v="Trudvang barnehage" />
		<tag k="no-barnehage:nsrid" v="974594862" />
		<tag k="operator" v="Sandefjord kommune" />
		<tag k="operator:type" v="public" />
	</node>
	<node id="-3532" lat="59.22263" lon="10.31059">
		<tag k="ADDRESS" v="Arne Garborgs vei 15, 3160 STOKKE" />
		<tag k="amenity" v="kindergarten" />
		<tag k="capacity" v="67" />
		<tag k="contact:website" v="http://www.sandefjord.kommune.no" />
		<tag k="max_age" v="5" />
		<tag k="min_age" v="1" />
		<tag k="name" v="Tuften barnehage" />
		<tag k="no-barnehage:nsrid" v="987203129" />
		<tag k="operator" v="Sandefjord kommune" />
		<tag k="operator:type" v="public" />
	</node>
	<node id="-3533" lat="59.12193" lon="10.25801">
		<tag k="ADDRESS" v="Vardeveien 50B, 3227 SANDEFJORD" />
		<tag k="amenity" v="kindergarten" />
		<tag k="capacity" v="62" />
		<tag k="max_age" v="5" />
		<tag k="min_age" v="1" />
		<tag k="name" v="Vardenlia barnehage" />
		<tag k="no-barnehage:nsrid" v="974594900" />
		<tag k="operator" v="Sandefjord kommune" />
		<tag k="operator:type" v="public" />
	</node>
	<node id="-3534" lat="59.21747" lon="10.30887">
		<tag k="ADDRESS" v="Søndre Villavei 3, 3160 STOKKE" />
		<tag k="amenity" v="kindergarten" />
		<tag k="capacity" v="51" />
		<tag k="contact:website" v="http://www.velle.no" />
		<tag k="max_age" v="5" />
		<tag k="min_age" v="1" />
		<tag k="name" v="Vellebarnehagene avd. Olaløkka barnehage" />
		<tag k="no-barnehage:nsrid" v="976668138" />
		<tag k="operator" v="Vellebarnehagene AS" />
		<tag k="operator:type" v="private" />
	</node>
	<node id="-3535" lat="59.15011" lon="10.18487">
		<tag k="ADDRESS" v="Hemsbakken 6, 3242 SANDEFJORD" />
		<tag k="amenity" v="kindergarten" />
		<tag k="capacity" v="103" />
		<tag k="contact:website" v="http://veslehaven.no" />
		<tag k="max_age" v="5" />
		<tag k="min_age" v="1" />
		<tag k="name" v="Veslehaven barnehage" />
		<tag k="no-barnehage:nsrid" v="983414508" />
		<tag k="operator" v="Veslehaven barnehage AS" />
		<tag k="operator:type" v="private" />
	</node>
	<node id="-3536" lat="59.11959" lon="10.23954">
		<tag k="ADDRESS" v="Øvre Huvikvei 11A, 3222 SANDEFJORD" />
		<tag k="amenity" v="kindergarten" />
		<tag k="capacity" v="39" />
		<tag k="max_age" v="5" />
		<tag k="min_age" v="1" />
		<tag k="name" v="Vesterøy menighetsbarnehage" />
		<tag k="no-barnehage:nsrid" v="973469940" />
		<tag k="operator" v="Sandefjord Kirkelige Fellesråd" />
		<tag k="operator:type" v="private" />
	</node>
	<node id="-3537" lat="0.0" lon="0.0">
		<tag k="ADDRESS" v="VESTERÅT, 3158 ANDEBU" />
		<tag k="amenity" v="kindergarten" />
		<tag k="capacity" v="34" />
		<tag k="max_age" v="5" />
		<tag k="min_age" v="1" />
		<tag k="name" v="Vesteråt barnehage" />
		<tag k="no-barnehage:nsrid" v="975306852" />
		<tag k="operator" v="Sandefjord kommune" />
		<tag k="operator:type" v="public" />
	</node>
	<node id="-3538" lat="59.12001" lon="10.24311">
		<tag k="ADDRESS" v="Østerliveien 3, 3219 SANDEFJORD" />
		<tag k="amenity" v="kindergarten" />
		<tag k="capacity" v="24" />
		<tag k="contact:website" v="http://villavillekulla.barnehage.no" />
		<tag k="max_age" v="5" />
		<tag k="min_age" v="1" />
		<tag k="name" v="Villa Villekulla barnehage" />
		<tag k="no-barnehage:nsrid" v="988723428" />
		<tag k="operator" v="Villa Villekulla barnehage AS" />
		<tag k="operator:type" v="private" />
	</node>
	<node id="-3539" lat="59.10439" lon="10.28855">
		<tag k="ADDRESS" v="Hjelmbybakken 10, 3237 SANDEFJORD" />
		<tag k="amenity" v="kindergarten" />
		<tag k="capacity" v="41" />
		<tag k="contact:website" v="http://www.naturbarnehage.no" />
		<tag k="max_age" v="5" />
		<tag k="min_age" v="1" />
		<tag k="name" v="Østerøy naturbarnehage" />
		<tag k="no-barnehage:nsrid" v="973482971" />
		<tag k="operator" v="Østerøy Naturbarnehage Sa" />
		<tag k="operator:type" v="private" />
	</node>
	<node id="-3540" lat="59.08771" lon="10.21014">
		<tag k="ADDRESS" v="Teksleåsen 9, 3231 SANDEFJORD" />
		<tag k="amenity" v="kindergarten" />
		<tag k="capacity" v="37" />
		<tag k="max_age" v="5" />
		<tag k="min_age" v="1" />
		<tag k="name" v="Åsane barnehage" />
		<tag k="no-barnehage:nsrid" v="974594951" />
		<tag k="operator" v="Sandefjord kommune" />
		<tag k="operator:type" v="public" />
	</node>
</osm>
