<?xml version="1.0" encoding="UTF-8"?>
<osm version="0.6" generator="osmapis">
	<node lat="59.7171" lon="10.15316" id="-2616">
		<tag k="ADDRESS" v="Gramsborgveien 3, 3032 DRAMMEN" />
		<tag k="amenity" v="kindergarten" />
		<tag k="capacity" v="21" />
		<tag k="max_age" v="5" />
		<tag k="min_age" v="1" />
		<tag k="name" v="Amicus barnehage" />
		<tag k="no-barnehage:nsrid" v="976780086" />
		<tag k="operator" v="Konnerud Sokn" />
		<tag k="operator:type" v="private" />
	</node>
	<node lat="59.76186" lon="10.12549" id="-2617">
		<tag k="ADDRESS" v="Dalegårdsveien 74, 3028 DRAMMEN" />
		<tag k="amenity" v="kindergarten" />
		<tag k="capacity" v="51" />
		<tag k="max_age" v="5" />
		<tag k="min_age" v="1" />
		<tag k="name" v="Aronsløkka barnehage" />
		<tag k="no-barnehage:nsrid" v="975317684" />
		<tag k="operator" v="Drammen kommune" />
		<tag k="operator:type" v="public" />
	</node>
	<node lat="59.75013" lon="10.16756" id="-2618">
		<tag k="ADDRESS" v="Nedre Kiøsterudsgate 11B, 3023 DRAMMEN" />
		<tag k="amenity" v="kindergarten" />
		<tag k="capacity" v="72" />
		<tag k="max_age" v="5" />
		<tag k="min_age" v="1" />
		<tag k="name" v="Bacheparken barnehage" />
		<tag k="no-barnehage:nsrid" v="975306003" />
		<tag k="operator" v="Drammen kommune" />
		<tag k="operator:type" v="public" />
	</node>
	<node lat="59.74247" lon="10.03137" id="-2619">
		<tag k="ADDRESS" v="Hvitveisbakken 1, 3050 MJØNDALEN" />
		<tag k="amenity" v="kindergarten" />
		<tag k="capacity" v="117" />
		<tag k="contact:website" v="http://bakkefaret.bhg.no" />
		<tag k="max_age" v="5" />
		<tag k="min_age" v="1" />
		<tag k="name" v="Bakkefaret FUS barnehage" />
		<tag k="no-barnehage:nsrid" v="991209557" />
		<tag k="operator" v="Bakkefaret Fus barnehage AS" />
		<tag k="operator:type" v="private" />
	</node>
	<node lat="59.72661" lon="10.24282" id="-2620">
		<tag k="ADDRESS" v="Gamle Kongevei 116, 3040 DRAMMEN" />
		<tag k="amenity" v="kindergarten" />
		<tag k="capacity" v="20" />
		<tag k="max_age" v="5" />
		<tag k="min_age" v="1" />
		<tag k="name" v="Baltazar menighetsbarnehage" />
		<tag k="no-barnehage:nsrid" v="973335073" />
		<tag k="operator" v="Baltazar menighetsbarnehage AS" />
		<tag k="operator:type" v="private" />
	</node>
	<node lat="59.73041" lon="10.23556" id="-2621">
		<tag k="ADDRESS" v="Kirkebakken 1, 3040 DRAMMEN" />
		<tag k="amenity" v="kindergarten" />
		<tag k="name" v="Baltazar menighetsbarnehage åpen barnehage" />
		<tag k="no-barnehage:nsrid" v="932564033" />
		<tag k="operator" v="Tangen og Strømsø Sokn" />
		<tag k="operator:type" v="private" />
	</node>
	<node lat="59.54839" lon="10.38244" id="-2622">
		<tag k="ADDRESS" v="Bergeråsveien 2, 3075 BERGER" />
		<tag k="amenity" v="kindergarten" />
		<tag k="capacity" v="48" />
		<tag k="contact:website" v="http://www.drammen.kommune.no/tjenester/barnehage/barnehagene-i-drammen/berger-barnehage/" />
		<tag k="max_age" v="5" />
		<tag k="min_age" v="1" />
		<tag k="name" v="Berger barnehage" />
		<tag k="no-barnehage:nsrid" v="973765051" />
		<tag k="operator" v="Drammen kommune" />
		<tag k="operator:type" v="public" />
	</node>
	<node lat="59.73034" lon="10.2029" id="-2623">
		<tag k="ADDRESS" v="Sigurds gate 14, 3043 DRAMMEN" />
		<tag k="amenity" v="kindergarten" />
		<tag k="capacity" v="66" />
		<tag k="max_age" v="5" />
		<tag k="min_age" v="1" />
		<tag k="name" v="Bikkjestykket barnehage" />
		<tag k="no-barnehage:nsrid" v="990805466" />
		<tag k="operator" v="Drammen kommune" />
		<tag k="operator:type" v="public" />
	</node>
	<node lat="59.72904" lon="10.14843" id="-2624">
		<tag k="ADDRESS" v="Vargveien 21, 3030 DRAMMEN" />
		<tag k="amenity" v="kindergarten" />
		<tag k="capacity" v="35" />
		<tag k="contact:website" v="http://www.btoppen.no" />
		<tag k="max_age" v="5" />
		<tag k="min_age" v="1" />
		<tag k="name" v="Blåbærtoppen barnehage" />
		<tag k="no-barnehage:nsrid" v="973843605" />
		<tag k="operator" v="Blåbærtoppen barnehage SA" />
		<tag k="operator:type" v="private" />
	</node>
	<node lat="59.74137" lon="10.2191" id="-2625">
		<tag k="ADDRESS" v="Sankt Halvards gate 1K, 3015 DRAMMEN" />
		<tag k="amenity" v="kindergarten" />
		<tag k="capacity" v="40" />
		<tag k="contact:website" v="http://bragernesstrandbarnehage.no" />
		<tag k="max_age" v="5" />
		<tag k="min_age" v="1" />
		<tag k="name" v="Bragernes Strand barnehage" />
		<tag k="no-barnehage:nsrid" v="992250216" />
		<tag k="operator" v="Bragernes Strand barnehage AS" />
		<tag k="operator:type" v="private" />
	</node>
	<node lat="59.7462" lon="10.21543" id="-2626">
		<tag k="ADDRESS" v="Løkkebergveien 6, 3014 DRAMMEN" />
		<tag k="amenity" v="kindergarten" />
		<tag k="capacity" v="28" />
		<tag k="max_age" v="5" />
		<tag k="min_age" v="3" />
		<tag k="name" v="Brannposten barnehage" />
		<tag k="no-barnehage:nsrid" v="975306011" />
		<tag k="operator" v="Drammen kommune" />
		<tag k="operator:type" v="public" />
	</node>
	<node lat="59.76205" lon="10.11617" id="-2627">
		<tag k="ADDRESS" v="Kristian brenners vei 170, 3029 DRAMMEN" />
		<tag k="amenity" v="kindergarten" />
		<tag k="capacity" v="71" />
		<tag k="contact:website" v="http://www.brottet.barnehage.no" />
		<tag k="max_age" v="5" />
		<tag k="min_age" v="1" />
		<tag k="name" v="Brøttet barnehage" />
		<tag k="no-barnehage:nsrid" v="988289388" />
		<tag k="operator" v="Brøttet barnehage SA" />
		<tag k="operator:type" v="private" />
	</node>
	<node lat="59.75856" lon="10.13368" id="-2628">
		<tag k="ADDRESS" v="Dalegårdsveien 24, 3028 DRAMMEN" />
		<tag k="amenity" v="kindergarten" />
		<tag k="capacity" v="58" />
		<tag k="max_age" v="5" />
		<tag k="min_age" v="1" />
		<tag k="name" v="Dalegårdsveien barnehage" />
		<tag k="no-barnehage:nsrid" v="875306022" />
		<tag k="operator" v="Drammen kommune" />
		<tag k="operator:type" v="public" />
	</node>
	<node lat="59.74964" lon="10.19425" id="-2629">
		<tag k="ADDRESS" v="Wergelands gate 12, 3019 DRAMMEN" />
		<tag k="amenity" v="kindergarten" />
		<tag k="capacity" v="56" />
		<tag k="max_age" v="5" />
		<tag k="min_age" v="1" />
		<tag k="name" v="Dampsentralen barnehage" />
		<tag k="no-barnehage:nsrid" v="995613514" />
		<tag k="operator" v="Drammen kommune" />
		<tag k="operator:type" v="public" />
	</node>
	<node lat="59.73368" lon="10.19689" id="-2630">
		<tag k="ADDRESS" v="Skolegata 19, 3046 DRAMMEN" />
		<tag k="amenity" v="kindergarten" />
		<tag k="capacity" v="68" />
		<tag k="max_age" v="5" />
		<tag k="min_age" v="1" />
		<tag k="name" v="Danvik barnehage" />
		<tag k="no-barnehage:nsrid" v="975306038" />
		<tag k="operator" v="Drammen kommune" />
		<tag k="operator:type" v="public" />
	</node>
	<node lat="59.72403" lon="10.20246" id="-2631">
		<tag k="ADDRESS" v="Drafnkollen 70, 3042 DRAMMEN" />
		<tag k="amenity" v="kindergarten" />
		<tag k="capacity" v="70" />
		<tag k="contact:website" v="http://fus.no/drafnkollen" />
		<tag k="max_age" v="5" />
		<tag k="min_age" v="1" />
		<tag k="name" v="Drafnkollen FUS barnehage" />
		<tag k="no-barnehage:nsrid" v="973494651" />
		<tag k="operator" v="Drafnkollen Fus barnehage AS" />
		<tag k="operator:type" v="private" />
	</node>
	<node lat="59.62814" lon="10.39664" id="-2632">
		<tag k="ADDRESS" v="Markveien 34, 3060 SVELVIK" />
		<tag k="amenity" v="kindergarten" />
		<tag k="capacity" v="72" />
		<tag k="max_age" v="5" />
		<tag k="min_age" v="1" />
		<tag k="name" v="Ebbestad barnehage" />
		<tag k="no-barnehage:nsrid" v="978606156" />
		<tag k="operator" v="Drammen kommune" />
		<tag k="operator:type" v="public" />
	</node>
	<node lat="59.75068" lon="10.17817" id="-2633">
		<tag k="ADDRESS" v="Hotvetveien 33, 3018 DRAMMEN" />
		<tag k="amenity" v="kindergarten" />
		<tag k="capacity" v="50" />
		<tag k="contact:website" v="http://www.ekornheia.barnehage.no" />
		<tag k="max_age" v="5" />
		<tag k="min_age" v="1" />
		<tag k="name" v="Ekornheia barnehage" />
		<tag k="no-barnehage:nsrid" v="973485377" />
		<tag k="operator" v="Ekornheia barnehage SA" />
		<tag k="operator:type" v="private" />
	</node>
	<node lat="59.75059" lon="10.03909" id="-2634">
		<tag k="ADDRESS" v="Eplehagan 1, 3050 MJØNDALEN" />
		<tag k="amenity" v="kindergarten" />
		<tag k="capacity" v="70" />
		<tag k="contact:website" v="http://www.eplehagan.no" />
		<tag k="max_age" v="5" />
		<tag k="min_age" v="1" />
		<tag k="name" v="Eplehagan barnehage" />
		<tag k="no-barnehage:nsrid" v="980761819" />
		<tag k="operator" v="Eplehagan barnehage SA" />
		<tag k="operator:type" v="private" />
	</node>
	<node lat="59.71577" lon="10.156" id="-2635">
		<tag k="ADDRESS" v="Pettersvollen 31, 3032 DRAMMEN" />
		<tag k="amenity" v="kindergarten" />
		<tag k="capacity" v="76" />
		<tag k="contact:website" v="http://www.espira.no" />
		<tag k="max_age" v="5" />
		<tag k="min_age" v="1" />
		<tag k="name" v="Espira Gåserud barnehage" />
		<tag k="no-barnehage:nsrid" v="984453361" />
		<tag k="operator" v="Espira Gåserud AS" />
		<tag k="operator:type" v="private" />
	</node>
	<node lat="59.70164" lon="10.2681" id="-2636">
		<tag k="ADDRESS" v="Kniveveien 55, 3036 DRAMMEN" />
		<tag k="amenity" v="kindergarten" />
		<tag k="capacity" v="110" />
		<tag k="contact:website" v="http://www.espira.no" />
		<tag k="max_age" v="5" />
		<tag k="min_age" v="1" />
		<tag k="name" v="Espira Kniveåsen barnehage" />
		<tag k="no-barnehage:nsrid" v="990393125" />
		<tag k="operator" v="Espira Kniveåsen AS" />
		<tag k="operator:type" v="private" />
	</node>
	<node lat="59.71975" lon="10.16266" id="-2637">
		<tag k="ADDRESS" v="Djupdalsveien 227, 3033 DRAMMEN" />
		<tag k="amenity" v="kindergarten" />
		<tag k="capacity" v="77" />
		<tag k="contact:website" v="http://www.espira.no" />
		<tag k="max_age" v="5" />
		<tag k="min_age" v="1" />
		<tag k="name" v="Espira Torsbergskogen barnehage" />
		<tag k="no-barnehage:nsrid" v="991414258" />
		<tag k="operator" v="Espira Torsbergskogen AS" />
		<tag k="operator:type" v="private" />
	</node>
	<node lat="59.73195" lon="10.13788" id="-2638">
		<tag k="ADDRESS" v="Stollen 5, 3030 DRAMMEN" />
		<tag k="amenity" v="kindergarten" />
		<tag k="capacity" v="117" />
		<tag k="contact:website" v="http://www.espira.no" />
		<tag k="max_age" v="5" />
		<tag k="min_age" v="1" />
		<tag k="name" v="Espira Vannverksdammen barnehage" />
		<tag k="no-barnehage:nsrid" v="990393478" />
		<tag k="operator" v="Espira Vannverksdammen AS" />
		<tag k="operator:type" v="private" />
	</node>
	<node lat="59.71677" lon="10.2235" id="-2639">
		<tag k="ADDRESS" v="Fjellsveien 5, 3035 DRAMMEN" />
		<tag k="amenity" v="kindergarten" />
		<tag k="capacity" v="89" />
		<tag k="max_age" v="5" />
		<tag k="min_age" v="1" />
		<tag k="name" v="Fjell barnehage" />
		<tag k="no-barnehage:nsrid" v="975306046" />
		<tag k="operator" v="Drammen kommune" />
		<tag k="operator:type" v="public" />
	</node>
	<node lat="59.71851" lon="10.22401" id="-2640">
		<tag k="ADDRESS" v="Laurits Grønlands vei 33, 3035 DRAMMEN" />
		<tag k="amenity" v="kindergarten" />
		<tag k="capacity" v="60" />
		<tag k="max_age" v="5" />
		<tag k="min_age" v="1" />
		<tag k="name" v="Fjellhagen barnehage" />
		<tag k="no-barnehage:nsrid" v="975306054" />
		<tag k="operator" v="Drammen kommune" />
		<tag k="operator:type" v="public" />
	</node>
	<node lat="59.74519" lon="10.23039" id="-2641">
		<tag k="ADDRESS" v="Ilebergveien 21, 3011 DRAMMEN" />
		<tag k="amenity" v="kindergarten" />
		<tag k="capacity" v="26" />
		<tag k="max_age" v="5" />
		<tag k="min_age" v="1" />
		<tag k="name" v="Fjellheim velkomstbarnehage" />
		<tag k="no-barnehage:nsrid" v="929118790" />
		<tag k="operator" v="Drammen kommune" />
		<tag k="operator:type" v="public" />
	</node>
	<node lat="59.763" lon="10.05854" id="-2642">
		<tag k="ADDRESS" v="Liaveien 28, 3058 SOLBERGMOEN" />
		<tag k="amenity" v="kindergarten" />
		<tag k="capacity" v="71" />
		<tag k="max_age" v="5" />
		<tag k="min_age" v="1" />
		<tag k="name" v="Grinde barnehage" />
		<tag k="no-barnehage:nsrid" v="974544237" />
		<tag k="operator" v="Drammen kommune" />
		<tag k="operator:type" v="public" />
	</node>
	<node lat="59.74731" lon="10.15718" id="-2643">
		<tag k="ADDRESS" v="Øvre Eikervei 30, 3048 DRAMMEN" />
		<tag k="amenity" v="kindergarten" />
		<tag k="capacity" v="84" />
		<tag k="max_age" v="5" />
		<tag k="min_age" v="1" />
		<tag k="name" v="Gulskogen barnehage avd. Øvre Eikervei" />
		<tag k="no-barnehage:nsrid" v="991702253" />
		<tag k="operator" v="Drammen kommune" />
		<tag k="operator:type" v="public" />
	</node>
	<node lat="59.74546" lon="10.15374" id="-2644">
		<tag k="ADDRESS" v="Rødgata 24, 3048 DRAMMEN" />
		<tag k="amenity" v="kindergarten" />
		<tag k="capacity" v="30" />
		<tag k="max_age" v="5" />
		<tag k="min_age" v="1" />
		<tag k="name" v="Gulskogen barnehage avd. Rødgata" />
		<tag k="no-barnehage:nsrid" v="975306062" />
		<tag k="operator" v="Drammen kommune" />
		<tag k="operator:type" v="public" />
	</node>
	<node lat="59.75036" lon="10.00322" id="-2647">
		<tag k="ADDRESS" v="Evjegata 15, 3050 MJØNDALEN" />
		<tag k="amenity" v="kindergarten" />
		<tag k="capacity" v="77" />
		<tag k="max_age" v="5" />
		<tag k="min_age" v="1" />
		<tag k="name" v="Hatten barnehage" />
		<tag k="no-barnehage:nsrid" v="974544245" />
		<tag k="operator" v="Drammen kommune" />
		<tag k="operator:type" v="public" />
	</node>
	<node lat="59.7276" lon="10.24124" id="-2648">
		<tag k="ADDRESS" v="Gamle Kongevei 107, 3040 DRAMMEN" />
		<tag k="amenity" v="kindergarten" />
		<tag k="capacity" v="54" />
		<tag k="contact:website" v="http://hedensrud.barnehage.no/" />
		<tag k="max_age" v="5" />
		<tag k="min_age" v="1" />
		<tag k="name" v="Hedensrud barnehage" />
		<tag k="no-barnehage:nsrid" v="972291145" />
		<tag k="operator" v="Hedensrud barnehage SA" />
		<tag k="operator:type" v="private" />
	</node>
	<node lat="59.71535" lon="10.26377" id="-2649">
		<tag k="ADDRESS" v="Helleristningen 45, 3038 DRAMMEN" />
		<tag k="amenity" v="kindergarten" />
		<tag k="capacity" v="14" />
		<tag k="max_age" v="5" />
		<tag k="min_age" v="1" />
		<tag k="name" v="Helleristningen barnehage Bente Hennum" />
		<tag k="no-barnehage:nsrid" v="976816307" />
		<tag k="operator" v="Helleristningen barnehage Bente Hennum" />
		<tag k="operator:type" v="private" />
	</node>
	<node lat="59.70675" lon="10.15734" id="-2650">
		<tag k="ADDRESS" v="Jarlsbergveien 203, 3032 DRAMMEN" />
		<tag k="amenity" v="kindergarten" />
		<tag k="capacity" v="97" />
		<tag k="max_age" v="5" />
		<tag k="min_age" v="1" />
		<tag k="name" v="Jordbrekkskogen barnehage" />
		<tag k="no-barnehage:nsrid" v="975306070" />
		<tag k="operator" v="Drammen kommune" />
		<tag k="operator:type" v="public" />
	</node>
	<node lat="59.74237" lon="10.14816" id="-2651">
		<tag k="ADDRESS" v="Skogliveien 142, 3047 DRAMMEN" />
		<tag k="amenity" v="kindergarten" />
		<tag k="capacity" v="64" />
		<tag k="max_age" v="5" />
		<tag k="min_age" v="1" />
		<tag k="name" v="Kjerraten barnehage" />
		<tag k="no-barnehage:nsrid" v="980003698" />
		<tag k="operator" v="Kjerraten barnehage SA" />
		<tag k="operator:type" v="private" />
	</node>
	<node lat="59.75531" lon="10.20274" id="-2652">
		<tag k="ADDRESS" v="Slettåsen 25, 3014 DRAMMEN" />
		<tag k="amenity" v="kindergarten" />
		<tag k="capacity" v="61" />
		<tag k="contact:website" v="http://www.klokkergaarden.barnehage.no" />
		<tag k="max_age" v="5" />
		<tag k="min_age" v="1" />
		<tag k="name" v="Klokkergarden barnehage" />
		<tag k="no-barnehage:nsrid" v="990580685" />
		<tag k="operator" v="Klokkergaarden Kultur- og naturbarnehage AS" />
		<tag k="operator:type" v="private" />
	</node>
	<node lat="59.72861" lon="10.22977" id="-2653">
		<tag k="ADDRESS" v="Kobbervikveien 10, 3040 DRAMMEN" />
		<tag k="amenity" v="kindergarten" />
		<tag k="capacity" v="81" />
		<tag k="contact:website" v="http://www.drammen.kommune.no" />
		<tag k="max_age" v="5" />
		<tag k="min_age" v="1" />
		<tag k="name" v="Kobbervik gård barnehage" />
		<tag k="no-barnehage:nsrid" v="911696037" />
		<tag k="operator" v="Drammen kommune" />
		<tag k="operator:type" v="public" />
	</node>
	<node lat="59.77024" lon="9.99951" id="-2654">
		<tag k="ADDRESS" v="Tyrihans 2, 3055 KROKSTADELVA" />
		<tag k="amenity" v="kindergarten" />
		<tag k="capacity" v="55" />
		<tag k="max_age" v="5" />
		<tag k="min_age" v="1" />
		<tag k="name" v="Langløkka barnehage" />
		<tag k="no-barnehage:nsrid" v="974544261" />
		<tag k="operator" v="Drammen kommune" />
		<tag k="operator:type" v="public" />
	</node>
	<node lat="59.74768" lon="10.19945" id="-2655">
		<tag k="ADDRESS" v="Amtmand Bangs gate 8, 3019 DRAMMEN" />
		<tag k="amenity" v="kindergarten" />
		<tag k="capacity" v="44" />
		<tag k="max_age" v="5" />
		<tag k="min_age" v="1" />
		<tag k="name" v="Lilleløkka barnehage" />
		<tag k="no-barnehage:nsrid" v="890147712" />
		<tag k="operator" v="Drammen kommune" />
		<tag k="operator:type" v="public" />
	</node>
	<node lat="59.71989" lon="10.2649" id="-2656">
		<tag k="ADDRESS" v="Hans Langbachs vei 1, 3039 DRAMMEN" />
		<tag k="amenity" v="kindergarten" />
		<tag k="capacity" v="70" />
		<tag k="contact:website" v="http://laringsverkstedet.no/barnehage/nostodden" />
		<tag k="max_age" v="5" />
		<tag k="min_age" v="1" />
		<tag k="name" v="Læringsverkstedet Nøstodden barnehage" />
		<tag k="no-barnehage:nsrid" v="991652493" />
		<tag k="operator" v="Læringsverkstedet Nøstodden barnehage AS" />
		<tag k="operator:type" v="private" />
	</node>
	<node lat="59.68613" lon="10.21658" id="-2657">
		<tag k="ADDRESS" v="Jarlsbergveien 716, 3039 DRAMMEN" />
		<tag k="amenity" v="kindergarten" />
		<tag k="capacity" v="76" />
		<tag k="contact:website" v="http://laringsverkstedet.no/barnehage/skoger" />
		<tag k="max_age" v="5" />
		<tag k="min_age" v="1" />
		<tag k="name" v="Læringsverkstedet Skoger barnehage" />
		<tag k="no-barnehage:nsrid" v="997700953" />
		<tag k="operator" v="Læringsverkstedet Skoger barnehage AS" />
		<tag k="operator:type" v="private" />
	</node>
	<node lat="59.74762" lon="10.22509" id="-2658">
		<tag k="ADDRESS" v="Lammers gate 22, 3014 DRAMMEN" />
		<tag k="amenity" v="kindergarten" />
		<tag k="capacity" v="43" />
		<tag k="max_age" v="5" />
		<tag k="min_age" v="1" />
		<tag k="name" v="Løkkebergene Vels barnehage" />
		<tag k="no-barnehage:nsrid" v="973383051" />
		<tag k="operator" v="Løkkebergene Vels barnehage" />
		<tag k="operator:type" v="private" />
	</node>
	<node lat="59.75808" lon="10.01648" id="-2660">
		<tag k="ADDRESS" v="Prestebråtveien 2, 3055 KROKSTADELVA" />
		<tag k="amenity" v="kindergarten" />
		<tag k="capacity" v="69" />
		<tag k="contact:website" v="http://www.drammen.kommune.no" />
		<tag k="max_age" v="5" />
		<tag k="min_age" v="1" />
		<tag k="name" v="Møllenhof barnehage" />
		<tag k="no-barnehage:nsrid" v="974544253" />
		<tag k="operator" v="Drammen kommune" />
		<tag k="operator:type" v="public" />
	</node>
	<node lat="59.71603" lon="10.25967" id="-2661">
		<tag k="ADDRESS" v="Nordbyveien 57B, 3038 DRAMMEN" />
		<tag k="amenity" v="kindergarten" />
		<tag k="capacity" v="64" />
		<tag k="max_age" v="5" />
		<tag k="min_age" v="1" />
		<tag k="name" v="Nordbylunden barnehage" />
		<tag k="no-barnehage:nsrid" v="975306119" />
		<tag k="operator" v="Drammen kommune" />
		<tag k="operator:type" v="public" />
	</node>
	<node lat="59.75375" lon="10.11974" id="-2662">
		<tag k="ADDRESS" v="Buskerudveien 172, 3027 DRAMMEN" />
		<tag k="amenity" v="kindergarten" />
		<tag k="capacity" v="101" />
		<tag k="contact:website" v="http://bekkevollen.norlandiabarnehagene.no" />
		<tag k="max_age" v="5" />
		<tag k="min_age" v="1" />
		<tag k="name" v="Norlandia Bekkevollen sprelloppbarnehage" />
		<tag k="no-barnehage:nsrid" v="992760877" />
		<tag k="operator" v="Norlandia Bekkevollen barnehage AS" />
		<tag k="operator:type" v="private" />
	</node>
	<node lat="59.7661" lon="10.07261" id="-2663">
		<tag k="ADDRESS" v="Skyttelveien 2, 3057 SOLBERGELVA" />
		<tag k="amenity" v="kindergarten" />
		<tag k="capacity" v="69" />
		<tag k="max_age" v="5" />
		<tag k="min_age" v="1" />
		<tag k="name" v="Norlandia Skyttelveien barnehage" />
		<tag k="no-barnehage:nsrid" v="977490685" />
		<tag k="operator" v="Norlandia Skyttelveien barnehage AS" />
		<tag k="operator:type" v="private" />
	</node>
	<node lat="59.7616" lon="10.0986" id="-2664">
		<tag k="ADDRESS" v="Gamle Riksvei 24, 3057 SOLBERGELVA" />
		<tag k="amenity" v="kindergarten" />
		<tag k="capacity" v="116" />
		<tag k="contact:website" v="http://norlandiabarnehagene.no/solbergelva/" />
		<tag k="max_age" v="5" />
		<tag k="min_age" v="1" />
		<tag k="name" v="Norlandia Solbergelva sprelloppbarnehage" />
		<tag k="no-barnehage:nsrid" v="998572533" />
		<tag k="operator" v="Norlandia Solbergelva barnehage AS" />
		<tag k="operator:type" v="private" />
	</node>
	<node lat="59.7579" lon="10.05167" id="-2665">
		<tag k="ADDRESS" v="Gamle Riksvei 137B, 3058 SOLBERGMOEN" />
		<tag k="amenity" v="kindergarten" />
		<tag k="capacity" v="92" />
		<tag k="contact:website" v="http://norlandiabarnehagene.no/solbergmoen/" />
		<tag k="max_age" v="5" />
		<tag k="min_age" v="1" />
		<tag k="name" v="Norlandia Solbergmoen sprelloppbarnehage" />
		<tag k="no-barnehage:nsrid" v="992536535" />
		<tag k="operator" v="Norlandia Solbergmoen barnehage AS" />
		<tag k="operator:type" v="private" />
	</node>
	<node lat="59.75722" lon="10.035" id="-2666">
		<tag k="ADDRESS" v="Stensethalleen 1, 3055 KROKSTADELVA" />
		<tag k="amenity" v="kindergarten" />
		<tag k="capacity" v="37" />
		<tag k="contact:website" v="http://montessoribarnehage-drammen.no" />
		<tag k="max_age" v="5" />
		<tag k="min_age" v="1" />
		<tag k="name" v="Norlights montessoribarnehage Drammen" />
		<tag k="no-barnehage:nsrid" v="996215350" />
		<tag k="operator" v="Norlights montessoribarnehage Drammen AS" />
		<tag k="operator:type" v="private" />
	</node>
	<node lat="59.74562" lon="10.19452" id="-2667">
		<tag k="ADDRESS" v="Øvre Storgate 18, 3018 DRAMMEN" />
		<tag k="amenity" v="kindergarten" />
		<tag k="capacity" v="103" />
		<tag k="max_age" v="5" />
		<tag k="min_age" v="1" />
		<tag k="name" v="Parktunet barnehage" />
		<tag k="no-barnehage:nsrid" v="975306127" />
		<tag k="operator" v="Drammen kommune" />
		<tag k="operator:type" v="public" />
	</node>
	<node lat="59.75152" lon="10.13492" id="-2668">
		<tag k="ADDRESS" v="Farmen nedre 6, 3024 DRAMMEN" />
		<tag k="amenity" v="kindergarten" />
		<tag k="capacity" v="31" />
		<tag k="contact:website" v="http://tryggheim-drammen.barnehage.no/" />
		<tag k="max_age" v="5" />
		<tag k="min_age" v="1" />
		<tag k="name" v="Preg barnehager Åssiden" />
		<tag k="no-barnehage:nsrid" v="974142791" />
		<tag k="operator" v="Preg barnehager Åssiden AS" />
		<tag k="operator:type" v="private" />
	</node>
	<node lat="59.71769" lon="10.15814" id="-2669">
		<tag k="ADDRESS" v="Røyseplassen 12B, 3033 DRAMMEN" />
		<tag k="amenity" v="kindergarten" />
		<tag k="capacity" v="47" />
		<tag k="contact:website" v="http://www.royseplassen.no/" />
		<tag k="max_age" v="5" />
		<tag k="min_age" v="1" />
		<tag k="name" v="Røyseplassen barnehage" />
		<tag k="no-barnehage:nsrid" v="973497820" />
		<tag k="operator" v="Røyseplassen barnehage SA" />
		<tag k="operator:type" v="private" />
	</node>
	<node lat="59.71766" lon="10.22239" id="-2670">
		<tag k="ADDRESS" v="Laurits Grønlands vei 28, 3035 DRAMMEN" />
		<tag k="amenity" v="kindergarten" />
		<tag k="capacity" v="75" />
		<tag k="contact:website" v="http://fus.no/senterbarnehagen" />
		<tag k="max_age" v="5" />
		<tag k="min_age" v="1" />
		<tag k="name" v="Senterbarnehagen FUS" />
		<tag k="no-barnehage:nsrid" v="992828188" />
		<tag k="operator" v="Senterbarnehagen Fus AS" />
		<tag k="operator:type" v="private" />
	</node>
	<node lat="59.72041" lon="10.2207" id="-2671">
		<tag k="ADDRESS" v="Laurits Grønlands vei 12, 3035 DRAMMEN" />
		<tag k="amenity" v="kindergarten" />
		<tag k="capacity" v="68" />
		<tag k="contact:website" v="http://skattekisten.net" />
		<tag k="max_age" v="5" />
		<tag k="min_age" v="1" />
		<tag k="name" v="Skattekisten barnehage" />
		<tag k="no-barnehage:nsrid" v="986620796" />
		<tag k="operator" v="Skattekisten barnehage SA" />
		<tag k="operator:type" v="private" />
	</node>
	<node lat="59.75727" lon="10.13011" id="-2672">
		<tag k="ADDRESS" v="Bolstadhagen 6, 3028 DRAMMEN" />
		<tag k="amenity" v="kindergarten" />
		<tag k="capacity" v="48" />
		<tag k="max_age" v="5" />
		<tag k="min_age" v="1" />
		<tag k="name" v="Solhagen Rudolf Steiner barnehage" />
		<tag k="no-barnehage:nsrid" v="988993174" />
		<tag k="operator" v="Stiftelsen Bolstadhagen 6" />
		<tag k="operator:type" v="private" />
	</node>
	<node lat="59.7241" lon="10.13484" id="-2673">
		<tag k="ADDRESS" v="Hauanveien 37, 3031 DRAMMEN" />
		<tag k="amenity" v="kindergarten" />
		<tag k="capacity" v="80" />
		<tag k="max_age" v="5" />
		<tag k="min_age" v="1" />
		<tag k="name" v="Solhaugen barnehage" />
		<tag k="no-barnehage:nsrid" v="980050971" />
		<tag k="operator" v="Drammen kommune" />
		<tag k="operator:type" v="public" />
	</node>
	<node lat="59.73675" lon="10.20589" id="-2674">
		<tag k="ADDRESS" v="Mallinggata 1, 3044 DRAMMEN" />
		<tag k="amenity" v="kindergarten" />
		<tag k="capacity" v="44" />
		<tag k="max_age" v="5" />
		<tag k="min_age" v="1" />
		<tag k="name" v="Solstreif Rudolf Steiner barnehage" />
		<tag k="no-barnehage:nsrid" v="973469789" />
		<tag k="operator" v="Stiftelsen Mallinggata 1" />
		<tag k="operator:type" v="private" />
	</node>
	<node lat="59.72765" lon="10.23893" id="-2675">
		<tag k="ADDRESS" v="Tors vei 4, 3040 DRAMMEN" />
		<tag k="amenity" v="kindergarten" />
		<tag k="capacity" v="61" />
		<tag k="max_age" v="5" />
		<tag k="min_age" v="1" />
		<tag k="name" v="St. Hansberget barnehage" />
		<tag k="no-barnehage:nsrid" v="975306135" />
		<tag k="operator" v="Drammen kommune" />
		<tag k="operator:type" v="public" />
	</node>
	<node lat="59.75847" lon="9.96058" id="-2676">
		<tag k="ADDRESS" v="Nedre Skistadvei 5, 3053 STEINBERG" />
		<tag k="amenity" v="kindergarten" />
		<tag k="capacity" v="63" />
		<tag k="max_age" v="5" />
		<tag k="min_age" v="1" />
		<tag k="name" v="Steinberg barnehage" />
		<tag k="no-barnehage:nsrid" v="974544288" />
		<tag k="operator" v="Drammen kommune" />
		<tag k="operator:type" v="public" />
	</node>
	<node lat="59.76037" lon="9.98804" id="-2677">
		<tag k="ADDRESS" v="Bedehusgata 29, 3055 KROKSTADELVA" />
		<tag k="amenity" v="kindergarten" />
		<tag k="capacity" v="63" />
		<tag k="max_age" v="5" />
		<tag k="min_age" v="1" />
		<tag k="name" v="Stenberghaugen barnehage" />
		<tag k="no-barnehage:nsrid" v="892124612" />
		<tag k="operator" v="Drammen kommune" />
		<tag k="operator:type" v="public" />
	</node>
	<node lat="59.7626" lon="10.03038" id="-2678">
		<tag k="ADDRESS" v="Nordlysveien 11, 3055 KROKSTADELVA" />
		<tag k="amenity" v="kindergarten" />
		<tag k="capacity" v="72" />
		<tag k="contact:website" v="http://stenseth.barnehage.no" />
		<tag k="max_age" v="5" />
		<tag k="min_age" v="1" />
		<tag k="name" v="Stenseth barnehage" />
		<tag k="no-barnehage:nsrid" v="985473730" />
		<tag k="operator" v="Stenseth barnehage SA" />
		<tag k="operator:type" v="private" />
	</node>
	<node lat="59.73785" lon="10.18531" id="-2679">
		<tag k="ADDRESS" v="Lassebakken 2, 3046 DRAMMEN" />
		<tag k="amenity" v="kindergarten" />
		<tag k="capacity" v="40" />
		<tag k="max_age" v="5" />
		<tag k="min_age" v="1" />
		<tag k="name" v="Stiftelsen Lassebakken barnehage" />
		<tag k="no-barnehage:nsrid" v="973472321" />
		<tag k="operator" v="Stiftelsen Lassebakken barnehage" />
		<tag k="operator:type" v="private" />
	</node>
	<node lat="59.7159" lon="10.26105" id="-2680">
		<tag k="ADDRESS" v="Nordbyveien 59, 3038 DRAMMEN" />
		<tag k="amenity" v="kindergarten" />
		<tag k="capacity" v="60" />
		<tag k="max_age" v="5" />
		<tag k="min_age" v="1" />
		<tag k="name" v="Stiftelsen Nordby gård barnehage" />
		<tag k="no-barnehage:nsrid" v="973494368" />
		<tag k="operator" v="Stiftelsen Nordby Gård barnehage" />
		<tag k="operator:type" v="private" />
	</node>
	<node lat="59.73385" lon="10.2045" id="-2681">
		<tag k="ADDRESS" v="Knoffs gate 20, 3044 DRAMMEN" />
		<tag k="amenity" v="kindergarten" />
		<tag k="capacity" v="96" />
		<tag k="max_age" v="5" />
		<tag k="min_age" v="1" />
		<tag k="name" v="Strømsø barnehage" />
		<tag k="no-barnehage:nsrid" v="975320685" />
		<tag k="operator" v="Drammen kommune" />
		<tag k="operator:type" v="public" />
	</node>
	<node lat="59.68945" lon="10.3375" id="-2683">
		<tag k="ADDRESS" v="Svelvikveien 700, 3060 SVELVIK" />
		<tag k="amenity" v="kindergarten" />
		<tag k="capacity" v="77" />
		<tag k="max_age" v="5" />
		<tag k="min_age" v="1" />
		<tag k="name" v="Støa barnehage" />
		<tag k="no-barnehage:nsrid" v="975306755" />
		<tag k="operator" v="Drammen kommune" />
		<tag k="operator:type" v="public" />
	</node>
	<node lat="59.71442" lon="10.14996" id="-2684">
		<tag k="ADDRESS" v="Torsbergveien 15, 3032 DRAMMEN" />
		<tag k="amenity" v="kindergarten" />
		<tag k="capacity" v="63" />
		<tag k="max_age" v="5" />
		<tag k="min_age" v="1" />
		<tag k="name" v="Svensedammen barnehage" />
		<tag k="no-barnehage:nsrid" v="975322785" />
		<tag k="operator" v="Drammen kommune" />
		<tag k="operator:type" v="public" />
	</node>
	<node lat="59.74947" lon="10.19201" id="-2685">
		<tag k="ADDRESS" v="Heyerdahls gate 9, 3019 DRAMMEN" />
		<tag k="amenity" v="kindergarten" />
		<tag k="capacity" v="93" />
		<tag k="max_age" v="5" />
		<tag k="min_age" v="1" />
		<tag k="name" v="Sørbyløkka barnehage" />
		<tag k="no-barnehage:nsrid" v="974631423" />
		<tag k="operator" v="Drammen kommune" />
		<tag k="operator:type" v="public" />
	</node>
	<node lat="59.74663" lon="10.15664" id="-2686">
		<tag k="ADDRESS" v="Øvre Eikervei 25, 3048 DRAMMEN" />
		<tag k="amenity" v="kindergarten" />
		<tag k="capacity" v="72" />
		<tag k="contact:website" v="http://tekna.barnehage.no" />
		<tag k="max_age" v="5" />
		<tag k="min_age" v="1" />
		<tag k="name" v="Teknabarnehagen Tellus" />
		<tag k="no-barnehage:nsrid" v="973469797" />
		<tag k="operator" v="Stiftelsen Teknabarnehagene Drammen" />
		<tag k="operator:type" v="private" />
	</node>
	<node lat="59.61131" lon="10.39833" id="-2687">
		<tag k="ADDRESS" v="Sivles vei 14, 3060 SVELVIK" />
		<tag k="amenity" v="kindergarten" />
		<tag k="capacity" v="55" />
		<tag k="max_age" v="5" />
		<tag k="min_age" v="1" />
		<tag k="name" v="Tømmerås barnehage" />
		<tag k="no-barnehage:nsrid" v="986213678" />
		<tag k="operator" v="Tømmerås barnehage SA" />
		<tag k="operator:type" v="private" />
	</node>
	<node lat="59.74596" lon="10.01624" id="-2688">
		<tag k="ADDRESS" v="Hagatjernveien 17, 3050 MJØNDALEN" />
		<tag k="amenity" v="kindergarten" />
		<tag k="capacity" v="82" />
		<tag k="max_age" v="5" />
		<tag k="min_age" v="1" />
		<tag k="name" v="Vassenga barnehage" />
		<tag k="no-barnehage:nsrid" v="974544296" />
		<tag k="operator" v="Drammen kommune" />
		<tag k="operator:type" v="public" />
	</node>
	<node lat="59.76046" lon="10.10346" id="-2689">
		<tag k="ADDRESS" v="Lillevinnes 14, 3057 SOLBERGELVA" />
		<tag k="amenity" v="kindergarten" />
		<tag k="capacity" v="42" />
		<tag k="contact:website" v="http://vinnesbarnehage.no" />
		<tag k="max_age" v="5" />
		<tag k="min_age" v="1" />
		<tag k="name" v="Vinnes barnehage" />
		<tag k="no-barnehage:nsrid" v="972241415" />
		<tag k="operator" v="Vinnes barnehage SA" />
		<tag k="operator:type" v="private" />
	</node>
	<node lat="59.75162" lon="10.16934" id="-2690">
		<tag k="ADDRESS" v="Hotvetveien 112, 3023 DRAMMEN" />
		<tag k="amenity" v="kindergarten" />
		<tag k="capacity" v="61" />
		<tag k="max_age" v="5" />
		<tag k="min_age" v="1" />
		<tag k="name" v="Øren andelsbarnehage" />
		<tag k="no-barnehage:nsrid" v="982675723" />
		<tag k="operator" v="Øren Andelslag SA" />
		<tag k="operator:type" v="private" />
	</node>
	<node lat="59.77393" lon="10.00089" id="-2691">
		<tag k="ADDRESS" v="Ulevannsveien 60, 3055 KROKSTADELVA" />
		<tag k="amenity" v="kindergarten" />
		<tag k="capacity" v="57" />
		<tag k="contact:website" v="http://www.aarbogen.no" />
		<tag k="max_age" v="5" />
		<tag k="min_age" v="1" />
		<tag k="name" v="Årbogen barnehage" />
		<tag k="no-barnehage:nsrid" v="973489542" />
		<tag k="operator" v="Årbogen barnehage" />
		<tag k="operator:type" v="private" />
	</node>
	<node lat="59.73608" lon="10.02538" id="-2692">
		<tag k="ADDRESS" v="Bekkemoen 6, 3050 MJØNDALEN" />
		<tag k="amenity" v="kindergarten" />
		<tag k="capacity" v="66" />
		<tag k="max_age" v="5" />
		<tag k="min_age" v="1" />
		<tag k="name" v="Åsen barnehage" />
		<tag k="no-barnehage:nsrid" v="874544272" />
		<tag k="operator" v="Drammen kommune" />
		<tag k="operator:type" v="public" />
	</node>
	<node lat="59.75911" lon="10.13398" id="-2694">
		<tag k="ADDRESS" v="Dalegårdsveien 24B, 3028 DRAMMEN" />
		<tag k="amenity" v="kindergarten" />
		<tag k="capacity" v="30" />
		<tag k="contact:website" v="http://www.aslokka.barnehage.no" />
		<tag k="max_age" v="5" />
		<tag k="min_age" v="1" />
		<tag k="name" v="Åsløkka barnehage" />
		<tag k="no-barnehage:nsrid" v="973469800" />
		<tag k="operator" v="Åssiden Kvinne og Familielag" />
		<tag k="operator:type" v="private" />
	</node>
	<node lat="59.75205" lon="10.14513" id="-2695">
		<tag k="ADDRESS" v="Vårveien 5, 3024 DRAMMEN" />
		<tag k="amenity" v="kindergarten" />
		<tag k="capacity" v="46" />
		<tag k="max_age" v="5" />
		<tag k="min_age" v="1" />
		<tag k="name" v="Åssiden barnehage" />
		<tag k="no-barnehage:nsrid" v="975324966" />
		<tag k="operator" v="Drammen kommune" />
		<tag k="operator:type" v="public" />
	</node>
</osm>
