<?xml version="1.0" encoding="UTF-8"?>
<osm generator="osmapis" version="0.6">
	<node id="-4256" lat="58.77454" lon="5.7249">
		<tag k="ADDRESS" v="Kvernelandsvegen 92, 4355 KVERNALAND" />
		<tag k="amenity" v="kindergarten" />
		<tag k="capacity" v="37" />
		<tag k="max_age" v="5" />
		<tag k="min_age" v="1" />
		<tag k="name" v="NLM barnehagene avd. Frøyland barnehage" />
		<tag k="no-barnehage:nsrid" v="1016190" />
		<tag k="operator" v="Nlm-Barnehagene AS" />
		<tag k="operator:type" v="private" />
	</node>
	<node id="-4255" lat="0.0" lon="0.0">
		<tag k="ADDRESS" v="Monsanutvegen 4, 4340 BRYNE" />
		<tag k="amenity" v="kindergarten" />
		<tag k="capacity" v="57" />
		<tag k="max_age" v="5" />
		<tag k="min_age" v="1" />
		<tag k="name" v="Monsanut barnehage" />
		<tag k="no-barnehage:nsrid" v="1014727" />
		<tag k="operator" v="Time kommune" />
		<tag k="operator:type" v="public" />
	</node>
	<node id="-4254" lat="58.73073" lon="5.67821">
		<tag k="ADDRESS" v="Norheim Lonarmyrvegen 1, 4345 BRYNE" />
		<tag k="amenity" v="kindergarten" />
		<tag k="capacity" v="58" />
		<tag k="contact:website" v="http://www.minibarnehage.no/maurtua" />
		<tag k="max_age" v="5" />
		<tag k="min_age" v="1" />
		<tag k="name" v="Maurtuå barnehage" />
		<tag k="no-barnehage:nsrid" v="1015467" />
		<tag k="operator" v="Time kommune" />
		<tag k="operator:type" v="public" />
	</node>
	<node id="-4253" lat="58.73367" lon="5.73419">
		<tag k="ADDRESS" v="Sentervollen 29, 4347 LYE" />
		<tag k="amenity" v="kindergarten" />
		<tag k="capacity" v="41" />
		<tag k="max_age" v="5" />
		<tag k="min_age" v="1" />
		<tag k="name" v="Lyefjell barnehage" />
		<tag k="no-barnehage:nsrid" v="1018087" />
		<tag k="operator" v="Time kommune" />
		<tag k="operator:type" v="public" />
	</node>
	<node id="-4252" lat="58.77594" lon="5.72749">
		<tag k="ADDRESS" v="Holmebakken 45, 4355 KVERNALAND" />
		<tag k="amenity" v="kindergarten" />
		<tag k="capacity" v="119" />
		<tag k="max_age" v="5" />
		<tag k="min_age" v="1" />
		<tag k="name" v="Kvernaland barnehage" />
		<tag k="no-barnehage:nsrid" v="1018590" />
		<tag k="operator" v="Time kommune" />
		<tag k="operator:type" v="public" />
	</node>
	<node id="-4251" lat="58.73005" lon="5.67764">
		<tag k="ADDRESS" v="Lonarmyrvegen 18, 4345 BRYNE" />
		<tag k="amenity" v="kindergarten" />
		<tag k="capacity" v="84" />
		<tag k="max_age" v="5" />
		<tag k="min_age" v="1" />
		<tag k="name" v="Jærbarnehagen FUS" />
		<tag k="no-barnehage:nsrid" v="1021612" />
		<tag k="operator" v="Jærbarnehagen Fus AS" />
		<tag k="operator:type" v="private" />
	</node>
	<node id="-4250" lat="0.0" lon="0.0">
		<tag k="ADDRESS" v="Haugland, 4346 BRYNE" />
		<tag k="amenity" v="kindergarten" />
		<tag k="capacity" v="45" />
		<tag k="contact:website" v="http://minbarnehage.no/haugland" />
		<tag k="max_age" v="5" />
		<tag k="min_age" v="1" />
		<tag k="name" v="Haugland gardsbarnehage" />
		<tag k="no-barnehage:nsrid" v="1020647" />
		<tag k="operator" v="Haugland Gardsbarnehage" />
		<tag k="operator:type" v="private" />
	</node>
	<node id="-4249" lat="58.7745438" lon="5.72489643">
		<tag k="ADDRESS" v="V/ Nlm-Barnehagene AS Avd. Frøyland barnehage Kvernelandsvegen 92, 4355 KVERNALAND" />
		<tag k="amenity" v="kindergarten" />
		<tag k="name" v="Frøylandsparken barnehage" />
		<tag k="no-barnehage:nsrid" v="2000175" />
		<tag k="operator" v="Frøylandsparken barnehage AS" />
		<tag k="operator:type" v="private" />
	</node>
	<node id="-4248" lat="58.72733" lon="5.64198">
		<tag k="ADDRESS" v="Linevegen 19, 4340 BRYNE" />
		<tag k="amenity" v="kindergarten" />
		<tag k="capacity" v="105" />
		<tag k="contact:website" v="http://www.espira.no" />
		<tag k="max_age" v="5" />
		<tag k="min_age" v="1" />
		<tag k="name" v="Espira Ree barnehage" />
		<tag k="no-barnehage:nsrid" v="1021405" />
		<tag k="operator" v="Espira Ree AS" />
		<tag k="operator:type" v="private" />
	</node>
	<node id="-4247" lat="58.72737" lon="5.66384">
		<tag k="ADDRESS" v="Eivindsholen 15, 4345 BRYNE" />
		<tag k="amenity" v="kindergarten" />
		<tag k="capacity" v="91" />
		<tag k="contact:website" v="http://www.eivindsholenbarnehage.no" />
		<tag k="max_age" v="5" />
		<tag k="min_age" v="1" />
		<tag k="name" v="Eivindsholen FUS barnehage" />
		<tag k="no-barnehage:nsrid" v="1021574" />
		<tag k="operator" v="Eivindsholen Fus barnehage AS" />
		<tag k="operator:type" v="private" />
	</node>
	<node id="-4246" lat="58.7376" lon="5.65055">
		<tag k="ADDRESS" v="Vardheivegen 4, 4340 BRYNE" />
		<tag k="amenity" v="kindergarten" />
		<tag k="name" v="Brynelunden Opne barnehage" />
		<tag k="no-barnehage:nsrid" v="1012583" />
		<tag k="operator" v="Time kommune" />
		<tag k="operator:type" v="public" />
	</node>
	<node id="-4245" lat="58.73722" lon="5.64469">
		<tag k="ADDRESS" v="Brynevegen 9, 4340 BRYNE" />
		<tag k="amenity" v="kindergarten" />
		<tag k="capacity" v="22" />
		<tag k="max_age" v="5" />
		<tag k="min_age" v="1" />
		<tag k="name" v="Barnehagen i Bryne Kyrkje" />
		<tag k="no-barnehage:nsrid" v="1025316" />
		<tag k="operator" v="Time Kyrkjelege Fellesråd" />
		<tag k="operator:type" v="private" />
	</node>
	<node id="-4244" lat="58.72844" lon="5.64256">
		<tag k="ADDRESS" v="Soleiestien 2, 4340 BRYNE" />
		<tag k="amenity" v="kindergarten" />
		<tag k="capacity" v="74" />
		<tag k="max_age" v="5" />
		<tag k="min_age" v="1" />
		<tag k="name" v="Austbø barnehage" />
		<tag k="no-barnehage:nsrid" v="1017366" />
		<tag k="operator" v="Time kommune" />
		<tag k="operator:type" v="public" />
	</node>
	<node id="-4265" lat="58.78289" lon="5.71908">
		<tag k="ADDRESS" v="Theodor Dahls Veg 68, 4355 KVERNALAND" />
		<tag k="amenity" v="kindergarten" />
		<tag k="capacity" v="62" />
		<tag k="max_age" v="5" />
		<tag k="min_age" v="1" />
		<tag k="name" v="Ådalen barnehage" />
		<tag k="no-barnehage:nsrid" v="1014885" />
		<tag k="operator" v="Time kommune" />
		<tag k="operator:type" v="public" />
	</node>
	<node id="-4264" lat="58.72913" lon="5.70931">
		<tag k="ADDRESS" v="Vestlyvegen 117, 4347 LYE" />
		<tag k="amenity" v="kindergarten" />
		<tag k="capacity" v="114" />
		<tag k="max_age" v="5" />
		<tag k="min_age" v="1" />
		<tag k="name" v="Vestly idrettsbarnehage" />
		<tag k="no-barnehage:nsrid" v="1015153" />
		<tag k="operator" v="Time kommune" />
		<tag k="operator:type" v="public" />
	</node>
	<node id="-4263" lat="58.68756" lon="5.76851">
		<tag k="ADDRESS" v="Sælandsvegen 21, 4342 UNDHEIM" />
		<tag k="amenity" v="kindergarten" />
		<tag k="capacity" v="69" />
		<tag k="max_age" v="5" />
		<tag k="min_age" v="1" />
		<tag k="name" v="Undheim barnehage" />
		<tag k="no-barnehage:nsrid" v="1016203" />
		<tag k="operator" v="Time Kyrkjelege Fellesråd" />
		<tag k="operator:type" v="private" />
	</node>
	<node id="-4262" lat="58.72896" lon="5.65909">
		<tag k="ADDRESS" v="Kjeldevegen 1, 4344 BRYNE" />
		<tag k="amenity" v="kindergarten" />
		<tag k="capacity" v="37" />
		<tag k="max_age" v="5" />
		<tag k="min_age" v="1" />
		<tag k="name" v="Trollongane barnehage" />
		<tag k="no-barnehage:nsrid" v="1015448" />
		<tag k="operator" v="Time kommune" />
		<tag k="operator:type" v="public" />
	</node>
	<node id="-4261" lat="58.73061" lon="5.64135">
		<tag k="ADDRESS" v="Linevegen 1, 4340 BRYNE" />
		<tag k="amenity" v="kindergarten" />
		<tag k="capacity" v="80" />
		<tag k="contact:website" v="http://spodarbakken.no" />
		<tag k="max_age" v="5" />
		<tag k="min_age" v="1" />
		<tag k="name" v="Spødarbakken barnehage" />
		<tag k="no-barnehage:nsrid" v="1021083" />
		<tag k="operator" v="Spødarbakken barnehage Sa" />
		<tag k="operator:type" v="private" />
	</node>
	<node id="-4260" lat="58.73281" lon="5.73762">
		<tag k="ADDRESS" v="Kvartsvegen 3, 4347 LYE" />
		<tag k="amenity" v="kindergarten" />
		<tag k="capacity" v="18" />
		<tag k="max_age" v="5" />
		<tag k="min_age" v="1" />
		<tag k="name" v="Sporvongane barnehage" />
		<tag k="no-barnehage:nsrid" v="1021261" />
		<tag k="operator" v="Jæren privat Omsorg AS" />
		<tag k="operator:type" v="private" />
	</node>
	<node id="-4259" lat="58.73357" lon="5.64053">
		<tag k="ADDRESS" v="Skulegata 25c, 4340 BRYNE" />
		<tag k="amenity" v="kindergarten" />
		<tag k="max_age" v="5" />
		<tag k="min_age" v="1" />
		<tag k="name" v="Skulegata barnehage" />
		<tag k="no-barnehage:nsrid" v="1021629" />
		<tag k="operator" v="Skulegata barnehage AS" />
		<tag k="operator:type" v="private" />
	</node>
	<node id="-4258" lat="58.73243" lon="5.66613">
		<tag k="ADDRESS" v="Kvålevegen 2, 4345 BRYNE" />
		<tag k="amenity" v="kindergarten" />
		<tag k="capacity" v="59" />
		<tag k="max_age" v="5" />
		<tag k="min_age" v="1" />
		<tag k="name" v="Nyland barnehage" />
		<tag k="no-barnehage:nsrid" v="1018088" />
		<tag k="operator" v="Time kommune" />
		<tag k="operator:type" v="public" />
	</node>
</osm>
