<?xml version="1.0" encoding="UTF-8"?>
<osm generator="osmapis" version="0.6">
	<node id="-3552" lat="58.7285" lon="5.64257">
		<tag k="amenity" v="kindergarten" />
		<tag k="capacity" v="75" />
		<tag k="contact:email" v="annette.johnsen.salte@time.kommune.no" />
		<tag k="contact:phone" v="+47 51776470" />
		<tag k="max_age" v="5" />
		<tag k="min_age" v="1" />
		<tag k="name" v="Austbø barnehage" />
		<tag k="no-barnehage:nsrid" v="1017366" />
		<tag k="operator" v="Time kommune" />
		<tag k="operator:type" v="public" />
		<tag k="start_date" v="1976-01-01" />
	</node>
	<node id="-3572" lat="58.7829" lon="5.71908">
		<tag k="amenity" v="kindergarten" />
		<tag k="capacity" v="67" />
		<tag k="contact:email" v="ellen.marie.svendsvoll@time.kommune.no" />
		<tag k="max_age" v="5" />
		<tag k="min_age" v="1" />
		<tag k="name" v="Ådalen barnehage" />
		<tag k="no-barnehage:nsrid" v="1014885" />
		<tag k="operator" v="Time kommune" />
		<tag k="operator:type" v="public" />
		<tag k="start_date" v="1996-01-01" />
	</node>
	<node id="-3571" lat="58.7331" lon="5.73471">
		<tag k="amenity" v="kindergarten" />
		<tag k="capacity" v="128" />
		<tag k="contact:email" v="Alvhild.aksnes@time.kommune.no" />
		<tag k="max_age" v="5" />
		<tag k="min_age" v="1" />
		<tag k="name" v="Vestly Idrettsbarnehage" />
		<tag k="no-barnehage:nsrid" v="1015153" />
		<tag k="operator" v="Time kommune" />
		<tag k="operator:type" v="public" />
		<tag k="start_date" v="2012-08-01" />
	</node>
	<node id="-3570" lat="58.6825" lon="5.7783">
		<tag k="amenity" v="kindergarten" />
		<tag k="capacity" v="68" />
		<tag k="contact:email" v="undhbarn@time-kyrkja.no" />
		<tag k="contact:phone" v="+47 51 48 45 81" />
		<tag k="max_age" v="5" />
		<tag k="min_age" v="1" />
		<tag k="name" v="Undheim barnehage" />
		<tag k="no-barnehage:nsrid" v="1016203" />
		<tag k="operator" v="Time Kyrkjelege Fellesråd" />
		<tag k="operator:type" v="private" />
		<tag k="start_date" v="1989-01-01" />
	</node>
	<node id="-3569" lat="58.7288" lon="5.65935">
		<tag k="amenity" v="kindergarten" />
		<tag k="capacity" v="55" />
		<tag k="contact:email" v="tor.inge.pettersen@time.kommune.no" />
		<tag k="contact:phone" v="+47 51 48 52 37" />
		<tag k="max_age" v="5" />
		<tag k="min_age" v="1" />
		<tag k="name" v="Trollongane barnehage" />
		<tag k="no-barnehage:nsrid" v="1015448" />
		<tag k="operator" v="Time kommune" />
		<tag k="operator:type" v="public" />
		<tag k="start_date" v="1989-01-02" />
	</node>
	<node id="-3568" lat="58.73061" lon="5.641356">
		<tag k="amenity" v="kindergarten" />
		<tag k="capacity" v="81" />
		<tag k="contact:email" v="julie@spodarbakken.no" />
		<tag k="contact:phone" v="+47 51486700" />
		<tag k="contact:website" v="http://spodarbakken.no" />
		<tag k="max_age" v="5" />
		<tag k="min_age" v="1" />
		<tag k="name" v="Spødarbakken barnehage Sa" />
		<tag k="no-barnehage:nsrid" v="1021083" />
		<tag k="operator" v="Spødarbakken barnehage Sa" />
		<tag k="operator:type" v="private" />
		<tag k="start_date" v="2004-05-25" />
	</node>
	<node id="-3567" lat="58.73785" lon="5.739809">
		<tag k="amenity" v="kindergarten" />
		<tag k="capacity" v="14" />
		<tag k="contact:email" v="sporvongane@time-kyrkja.no" />
		<tag k="contact:phone" v="+47 51 48 52 68" />
		<tag k="max_age" v="5" />
		<tag k="min_age" v="1" />
		<tag k="name" v="Sporvongane barnehage" />
		<tag k="no-barnehage:nsrid" v="1021261" />
		<tag k="operator" v="Time Kyrkjelege Fellesråd" />
		<tag k="operator:type" v="private" />
		<tag k="start_date" v="2005-07-25" />
	</node>
	<node id="-3566" lat="58.73356" lon="5.640521">
		<tag k="amenity" v="kindergarten" />
		<tag k="capacity" v="24" />
		<tag k="contact:email" v="trine@daatland.net" />
		<tag k="contact:phone" v="+47 51 48 35 72" />
		<tag k="max_age" v="5" />
		<tag k="min_age" v="1" />
		<tag k="name" v="Skulegata barnehage AS" />
		<tag k="no-barnehage:nsrid" v="1021629" />
		<tag k="operator" v="Skulegata barnehage AS" />
		<tag k="operator:type" v="private" />
		<tag k="start_date" v="2007-04-23" />
	</node>
	<node id="-3565" lat="58.7324" lon="5.66613">
		<tag k="amenity" v="kindergarten" />
		<tag k="capacity" v="59" />
		<tag k="contact:email" v="siri.ogaard@time.kommune.no" />
		<tag k="max_age" v="5" />
		<tag k="min_age" v="1" />
		<tag k="name" v="Nyland barnehage" />
		<tag k="no-barnehage:nsrid" v="1018088" />
		<tag k="operator" v="Time kommune" />
		<tag k="operator:type" v="public" />
		<tag k="start_date" v="1989-01-01" />
	</node>
	<node id="-3563" lat="58.7745" lon="5.7249">
		<tag k="amenity" v="kindergarten" />
		<tag k="capacity" v="39" />
		<tag k="contact:email" v="froyland@barnehage.no" />
		<tag k="contact:phone" v="+47 51 48 54 21" />
		<tag k="max_age" v="5" />
		<tag k="min_age" v="1" />
		<tag k="name" v="Nlm Barnehagene AS Avd Frøyland Barnehage" />
		<tag k="no-barnehage:nsrid" v="1016190" />
		<tag k="operator" v="Nlm-Barnehagene AS" />
		<tag k="operator:type" v="private" />
		<tag k="start_date" v="1982-01-01" />
	</node>
	<node id="-3562" lat="58.7407" lon="5.74181">
		<tag k="amenity" v="kindergarten" />
		<tag k="capacity" v="69" />
		<tag k="contact:email" v="linda.hansen@time.kommune.no" />
		<tag k="max_age" v="5" />
		<tag k="min_age" v="1" />
		<tag k="name" v="Monsanut barnehage" />
		<tag k="no-barnehage:nsrid" v="1014727" />
		<tag k="operator" v="Time kommune" />
		<tag k="operator:type" v="public" />
		<tag k="start_date" v="1992-01-01" />
	</node>
	<node id="-3561" lat="58.73072" lon="5.678239">
		<tag k="amenity" v="kindergarten" />
		<tag k="capacity" v="59" />
		<tag k="contact:email" v="marianne.byberg@time.kommune.no" />
		<tag k="contact:phone" v="+47 51 48 03 80" />
		<tag k="contact:website" v="http://www.minibarnehage.no/maurtua" />
		<tag k="max_age" v="5" />
		<tag k="min_age" v="1" />
		<tag k="name" v="Maurtuå barnehage" />
		<tag k="no-barnehage:nsrid" v="1015467" />
		<tag k="operator" v="Time kommune" />
		<tag k="operator:type" v="public" />
		<tag k="start_date" v="1991-08-01" />
	</node>
	<node id="-3560" lat="58.7337" lon="5.73419">
		<tag k="amenity" v="kindergarten" />
		<tag k="capacity" v="39" />
		<tag k="contact:email" v="berit.time.bo@time.kommune.no" />
		<tag k="contact:phone" v="+47 51 48 82 74" />
		<tag k="max_age" v="5" />
		<tag k="min_age" v="1" />
		<tag k="name" v="Lyefjell barnehage" />
		<tag k="no-barnehage:nsrid" v="1018087" />
		<tag k="operator" v="Time kommune" />
		<tag k="operator:type" v="public" />
		<tag k="start_date" v="1989-01-01" />
	</node>
	<node id="-3559" lat="58.7747" lon="5.72656">
		<tag k="amenity" v="kindergarten" />
		<tag k="capacity" v="124" />
		<tag k="contact:email" v="maria.tjaum.eimstad@time.kommune.no" />
		<tag k="max_age" v="5" />
		<tag k="min_age" v="1" />
		<tag k="name" v="Kvernaland barnehage" />
		<tag k="no-barnehage:nsrid" v="1018590" />
		<tag k="operator" v="Time kommune" />
		<tag k="operator:type" v="public" />
		<tag k="start_date" v="2009-03-01" />
	</node>
	<node id="-3558" lat="58.72989" lon="5.677595">
		<tag k="amenity" v="kindergarten" />
		<tag k="capacity" v="82" />
		<tag k="contact:email" v="dl.jaerbarnehagen@bhg.no" />
		<tag k="contact:phone" v="+47 51 77 09 40" />
		<tag k="max_age" v="5" />
		<tag k="min_age" v="1" />
		<tag k="name" v="Jærbarnehagen Fus AS" />
		<tag k="no-barnehage:nsrid" v="1021612" />
		<tag k="operator" v="Jærbarnehagen Fus AS" />
		<tag k="operator:type" v="private" />
		<tag k="start_date" v="2007-03-15" />
	</node>
	<node id="-3557" lat="58.69207" lon="5.644266">
		<tag k="amenity" v="kindergarten" />
		<tag k="capacity" v="43" />
		<tag k="contact:email" v="hauglandgbhg@gmail.com" />
		<tag k="contact:phone" v="+47 51 48 20 29" />
		<tag k="contact:website" v="http://minbarnehage.no/haugland" />
		<tag k="max_age" v="5" />
		<tag k="min_age" v="1" />
		<tag k="name" v="Haugland Gardsbarnehage" />
		<tag k="no-barnehage:nsrid" v="1020647" />
		<tag k="operator" v="Haugland Gardsbarnehage" />
		<tag k="operator:type" v="private" />
		<tag k="start_date" v="2000-08-07" />
	</node>
	<node id="-3556" lat="58.72717" lon="5.642149">
		<tag k="amenity" v="kindergarten" />
		<tag k="capacity" v="105" />
		<tag k="contact:email" v="styrer@ree.espira.no" />
		<tag k="contact:phone" v="+47 52 84 50 20" />
		<tag k="contact:website" v="http://www.espira.no" />
		<tag k="max_age" v="5" />
		<tag k="min_age" v="1" />
		<tag k="name" v="Espira Ree barnehage" />
		<tag k="no-barnehage:nsrid" v="1021405" />
		<tag k="operator" v="Espira Ree AS" />
		<tag k="operator:type" v="private" />
		<tag k="start_date" v="2006-03-08" />
	</node>
	<node id="-3555" lat="58.72737" lon="5.663833">
		<tag k="amenity" v="kindergarten" />
		<tag k="capacity" v="90" />
		<tag k="contact:email" v="dl.eivindsholen@bhg.no" />
		<tag k="contact:phone" v="+47 40006508" />
		<tag k="contact:website" v="http://www.eivindsholenbarnehage.no" />
		<tag k="max_age" v="5" />
		<tag k="min_age" v="1" />
		<tag k="name" v="Eivindsholen Fus barnehage AS" />
		<tag k="no-barnehage:nsrid" v="1021574" />
		<tag k="operator" v="Eivindsholen Fus barnehage AS" />
		<tag k="operator:type" v="private" />
		<tag k="start_date" v="2007-01-17" />
	</node>
	<node id="-3554" lat="58.7376" lon="5.65055">
		<tag k="amenity" v="kindergarten" />
		<tag k="contact:email" v="marit.almas.kindervaag@time.kommune.no" />
		<tag k="name" v="Brynelunden Opne barnehage" />
		<tag k="no-barnehage:nsrid" v="1012583" />
		<tag k="operator" v="Time kommune" />
		<tag k="operator:type" v="public" />
		<tag k="start_date" v="1996-01-01" />
	</node>
	<node id="-3553" lat="58.7372" lon="5.64469">
		<tag k="amenity" v="kindergarten" />
		<tag k="capacity" v="21" />
		<tag k="contact:email" v="bibk@time-kyrkja.no" />
		<tag k="contact:phone" v="+47 044828680" />
		<tag k="max_age" v="5" />
		<tag k="min_age" v="1" />
		<tag k="name" v="Barnehagen i Bryne Kyrkje" />
		<tag k="no-barnehage:nsrid" v="1025316" />
		<tag k="operator" v="Time Kyrkjelege Fellesråd" />
		<tag k="operator:type" v="private" />
		<tag k="start_date" v="1989-01-01" />
	</node>
</osm>
