<?xml version="1.0" encoding="UTF-8"?>
<osm version="0.6" generator="osmapis">
	<node lat="60.05949" lon="5.6435" id="-4341">
		<tag k="ADDRESS" v="Lundavegen 159, 5690 LUNDEGREND" />
		<tag k="amenity" v="kindergarten" />
		<tag k="capacity" v="47" />
		<tag k="max_age" v="5" />
		<tag k="min_age" v="1" />
		<tag k="name" v="Lunde barnehage" />
		<tag k="no-barnehage:nsrid" v="976618580" />
		<tag k="operator" v="Tysnes kommune" />
		<tag k="operator:type" v="public" />
	</node>
	<node lat="0.0" lon="0.0" id="-4342">
		<tag k="ADDRESS" v=", 5694 ONARHEIM" />
		<tag k="amenity" v="kindergarten" />
		<tag k="capacity" v="27" />
		<tag k="max_age" v="5" />
		<tag k="min_age" v="1" />
		<tag k="name" v="Onarheim barnehage" />
		<tag k="no-barnehage:nsrid" v="975308766" />
		<tag k="operator" v="Tysnes kommune" />
		<tag k="operator:type" v="public" />
	</node>
	<node lat="60.01235" lon="5.50918" id="-4343">
		<tag k="ADDRESS" v="Dalsvegen 7, 5685 UGGDAL" />
		<tag k="amenity" v="kindergarten" />
		<tag k="capacity" v="62" />
		<tag k="max_age" v="5" />
		<tag k="min_age" v="1" />
		<tag k="name" v="Stjernereiso barnehage" />
		<tag k="no-barnehage:nsrid" v="994470426" />
		<tag k="operator" v="Tysnes kommune" />
		<tag k="operator:type" v="public" />
	</node>
	<node lat="60.03876" lon="5.5208" id="-4344">
		<tag k="ADDRESS" v="Vågsmarka 31, 5680 TYSNES" />
		<tag k="amenity" v="kindergarten" />
		<tag k="capacity" v="28" />
		<tag k="max_age" v="5" />
		<tag k="min_age" v="1" />
		<tag k="name" v="Vågsmarka barnehage" />
		<tag k="no-barnehage:nsrid" v="975308812" />
		<tag k="operator" v="Tysnes kommune" />
		<tag k="operator:type" v="public" />
	</node>
</osm>
