<?xml version="1.0" encoding="UTF-8"?>
<osm generator="osmapis" version="0.6">
	<node id="-3104" lat="58.82876" lon="5.73108">
		<tag k="ADDRESS" v="Harahaugane 2, 4320 SANDNES" />
		<tag k="amenity" v="kindergarten" />
		<tag k="capacity" v="90" />
		<tag k="max_age" v="5" />
		<tag k="min_age" v="1" />
		<tag k="name" v="Sørbø barnehage Nord" />
		<tag k="no-barnehage:nsrid" v="2000191" />
		<tag k="operator" v="Sandnes kommune" />
		<tag k="operator:type" v="public" />
	</node>
	<node id="-3103" lat="58.86741" lon="5.69603">
		<tag k="ADDRESS" v="Sandnesveien 246, 4312 SANDNES" />
		<tag k="amenity" v="kindergarten" />
		<tag k="capacity" v="20" />
		<tag k="max_age" v="5" />
		<tag k="min_age" v="3" />
		<tag k="name" v="Soma gård naturbarnehage" />
		<tag k="no-barnehage:nsrid" v="1020703" />
		<tag k="operator" v="Herredsvela Private barnehage" />
		<tag k="operator:type" v="private" />
	</node>
	<node id="-3102" lat="58.87945" lon="5.72758">
		<tag k="ADDRESS" v="Porsmyrveien 7, 4314 SANDNES" />
		<tag k="amenity" v="kindergarten" />
		<tag k="capacity" v="43" />
		<tag k="max_age" v="5" />
		<tag k="min_age" v="1" />
		<tag k="name" v="Rabalder barnehage" />
		<tag k="no-barnehage:nsrid" v="1020327" />
		<tag k="operator" v="Rabalder barnehage Da" />
		<tag k="operator:type" v="private" />
	</node>
	<node id="-3101" lat="58.87962" lon="5.73142">
		<tag k="ADDRESS" v="Porsholen 2a, 4314 SANDNES" />
		<tag k="amenity" v="kindergarten" />
		<tag k="capacity" v="30" />
		<tag k="contact:website" v="http://www.myrsnipa.barnehage.no" />
		<tag k="max_age" v="5" />
		<tag k="min_age" v="1" />
		<tag k="name" v="Myrsnipa barnehage" />
		<tag k="no-barnehage:nsrid" v="1020320" />
		<tag k="operator" v="Porsholen 2 Sa" />
		<tag k="operator:type" v="private" />
	</node>
	<node id="-3100" lat="58.83194" lon="5.6578">
		<tag k="ADDRESS" v="Heigreveien 401, 4312 SANDNES" />
		<tag k="amenity" v="kindergarten" />
		<tag k="capacity" v="76" />
		<tag k="contact:website" v="http://www.laringsverkstedet.no/julebygda" />
		<tag k="max_age" v="5" />
		<tag k="min_age" v="1" />
		<tag k="name" v="Læringsverkstedet barnehage avd. Julebygda" />
		<tag k="no-barnehage:nsrid" v="1015070" />
		<tag k="operator" v="Læringsverkstedet AS" />
		<tag k="operator:type" v="private" />
	</node>
	<node id="-3099" lat="58.92776" lon="5.85494">
		<tag k="ADDRESS" v="Amboltveien 2, 4311 HOMMERSÅK" />
		<tag k="amenity" v="kindergarten" />
		<tag k="name" v="Knøttene åpen barnehage" />
		<tag k="no-barnehage:nsrid" v="1015878" />
		<tag k="operator" v="Sandnes Kirkelige Fellesråd" />
		<tag k="operator:type" v="private" />
	</node>
	<node id="-3098" lat="58.85481" lon="5.75594">
		<tag k="ADDRESS" v="Skoleveien 1, 4328 SANDNES" />
		<tag k="amenity" v="kindergarten" />
		<tag k="max_age" v="5" />
		<tag k="min_age" v="1" />
		<tag k="name" v="Hana barnehage" />
		<tag k="no-barnehage:nsrid" v="1015114" />
		<tag k="operator" v="Sandnes kommune" />
		<tag k="operator:type" v="public" />
	</node>
	<node id="-3097" lat="58.97088" lon="5.736084">
		<tag k="amenity" v="kindergarten" />
		<tag k="name" v="Esso-ansattes barnehage" />
		<tag k="no-barnehage:nsrid" v="1020466" />
		<tag k="operator" v="Esso-Ansattes barnehage" />
		<tag k="operator:type" v="private" />
	</node>
	<node id="-3096" lat="58.88793" lon="5.72532">
		<tag k="ADDRESS" v="Midtbergmyrå 6, 4313 SANDNES" />
		<tag k="amenity" v="kindergarten" />
		<tag k="capacity" v="92" />
		<tag k="contact:website" v="http://www.espira.no" />
		<tag k="max_age" v="5" />
		<tag k="min_age" v="1" />
		<tag k="name" v="Espira Lura barnehage" />
		<tag k="no-barnehage:nsrid" v="1022028" />
		<tag k="operator" v="Espira Barnehager AS" />
		<tag k="operator:type" v="private" />
	</node>
	<node id="-3095" lat="58.81981" lon="5.74794">
		<tag k="ADDRESS" v="Lyngholen 2, 4324 SANDNES" />
		<tag k="amenity" v="kindergarten" />
		<tag k="capacity" v="76" />
		<tag k="contact:website" v="http://www.bogafjellbakken.no" />
		<tag k="max_age" v="5" />
		<tag k="min_age" v="1" />
		<tag k="name" v="Bogafjellbakken naturbarnehage" />
		<tag k="no-barnehage:nsrid" v="1020839" />
		<tag k="operator" v="Bogafjellbakken Naturbarnehage Sa" />
		<tag k="operator:type" v="private" />
	</node>
	<node id="-3094" lat="58.87109" lon="5.72185">
		<tag k="ADDRESS" v="Gamle Somavei 26, 4313 SANDNES" />
		<tag k="amenity" v="kindergarten" />
		<tag k="capacity" v="92" />
		<tag k="contact:website" v="http://www.aktiv-barnehage.no" />
		<tag k="max_age" v="5" />
		<tag k="min_age" v="1" />
		<tag k="name" v="Aktiv barnehage" />
		<tag k="no-barnehage:nsrid" v="1019779" />
		<tag k="operator" v="Aktive Foreldre Sa" />
		<tag k="operator:type" v="private" />
	</node>
	<node id="-3106" lat="0.0" lon="0.0">
		<tag k="ADDRESS" v="Varatunhagen 54, 4317 SANDNES" />
		<tag k="amenity" v="kindergarten" />
		<tag k="capacity" v="110" />
		<tag k="max_age" v="5" />
		<tag k="min_age" v="1" />
		<tag k="name" v="Varatun barnehage Varatunhagen" />
		<tag k="no-barnehage:nsrid" v="2000192" />
		<tag k="operator" v="Sandnes kommune" />
		<tag k="operator:type" v="public" />
	</node>
	<node id="-3105" lat="58.86409" lon="5.75776">
		<tag k="ADDRESS" v="Åsveien 124, 4328 SANDNES" />
		<tag k="amenity" v="kindergarten" />
		<tag k="name" v="Tripp Trapp åpen barnehage" />
		<tag k="no-barnehage:nsrid" v="1016896" />
		<tag k="operator" v="Sandnes Kirkelige Fellesråd" />
		<tag k="operator:type" v="private" />
	</node>
</osm>
