<?xml version="1.0" encoding="UTF-8"?>
<osm generator="osmapis" version="0.6">
	<node id="-3424" lat="58.854" lon="5.76798">
		<tag k="amenity" v="kindergarten" />
		<tag k="capacity" v="124" />
		<tag k="contact:email" v="oygard.barnehage@sandnes.kommune.no" />
		<tag k="max_age" v="5" />
		<tag k="min_age" v="1" />
		<tag k="name" v="Øygard barnehage" />
		<tag k="no-barnehage:nsrid" v="1016439" />
		<tag k="operator" v="Sandnes kommune" />
		<tag k="operator:type" v="public" />
		<tag k="start_date" v="2002-10-01" />
	</node>
	<node id="-3423" lat="58.85572" lon="5.77371">
		<tag k="amenity" v="kindergarten" />
		<tag k="capacity" v="106" />
		<tag k="contact:email" v="post@vatnekrossen.no" />
		<tag k="contact:phone" v="+47 47250400" />
		<tag k="contact:website" v="http://www.vatnekrossen.no" />
		<tag k="max_age" v="5" />
		<tag k="min_age" v="1" />
		<tag k="name" v="Vatnekrossen barnehage AS" />
		<tag k="no-barnehage:nsrid" v="1021367" />
		<tag k="operator" v="Vatnekrossen barnehage AS" />
		<tag k="operator:type" v="private" />
		<tag k="start_date" v="2006-01-12" />
	</node>
	<node id="-3422" lat="58.8635" lon="5.79016">
		<tag k="amenity" v="kindergarten" />
		<tag k="capacity" v="27" />
		<tag k="contact:email" v="katrine.lilleland@sandnes.kommune.no" />
		<tag k="max_age" v="5" />
		<tag k="min_age" v="1" />
		<tag k="name" v="Vatne barnehage" />
		<tag k="no-barnehage:nsrid" v="1012894" />
		<tag k="operator" v="Sandnes kommune" />
		<tag k="operator:type" v="public" />
		<tag k="start_date" v="1989-01-01" />
	</node>
	<node id="-3421" lat="58.8652" lon="5.73501">
		<tag k="amenity" v="kindergarten" />
		<tag k="capacity" v="249" />
		<tag k="contact:email" v="anne.may.jonassen@sandnes.kommune.no" />
		<tag k="contact:phone" v="+47 51664382" />
		<tag k="max_age" v="5" />
		<tag k="min_age" v="1" />
		<tag k="name" v="Varatun barnehage" />
		<tag k="no-barnehage:nsrid" v="1025372" />
		<tag k="operator" v="Sandnes kommune" />
		<tag k="operator:type" v="public" />
		<tag k="start_date" v="1989-01-01" />
	</node>
	<node id="-3420" lat="58.81752" lon="5.74374">
		<tag k="amenity" v="kindergarten" />
		<tag k="capacity" v="71" />
		<tag k="contact:email" v="dl.utsiktenvest@bhg.no" />
		<tag k="max_age" v="5" />
		<tag k="min_age" v="1" />
		<tag k="name" v="Utsikten Vest Fus barnehage AS" />
		<tag k="no-barnehage:nsrid" v="1021177" />
		<tag k="operator" v="Utsikten Vest Fus barnehage AS" />
		<tag k="operator:type" v="private" />
		<tag k="start_date" v="2004-10-28" />
	</node>
	<node id="-3419" lat="58.8557" lon="5.73241">
		<tag k="amenity" v="kindergarten" />
		<tag k="capacity" v="58" />
		<tag k="contact:email" v="monica.hetland@sandnes.kommune.no" />
		<tag k="contact:phone" v="+47 51 66 50 88" />
		<tag k="max_age" v="5" />
		<tag k="min_age" v="1" />
		<tag k="name" v="Trones barnehage" />
		<tag k="no-barnehage:nsrid" v="1016067" />
		<tag k="operator" v="Sandnes kommune" />
		<tag k="operator:type" v="public" />
		<tag k="start_date" v="1993-08-01" />
	</node>
	<node id="-3418" lat="58.92524" lon="5.842785">
		<tag k="amenity" v="kindergarten" />
		<tag k="capacity" v="65" />
		<tag k="contact:email" v="laila@trollhaugen-barnehage.no" />
		<tag k="contact:phone" v="+47 51 62 45 00" />
		<tag k="contact:website" v="http://www.trollhaugen-barnehage.no" />
		<tag k="max_age" v="5" />
		<tag k="min_age" v="1" />
		<tag k="name" v="Trollhaugen Foreldrelagsbarnehage Sa" />
		<tag k="no-barnehage:nsrid" v="1021003" />
		<tag k="operator" v="Trollhaugen Foreldrelagsbarnehage Sa" />
		<tag k="operator:type" v="private" />
		<tag k="start_date" v="2004-01-08" />
	</node>
	<node id="-3417" lat="58.8641" lon="5.75777">
		<tag k="amenity" v="kindergarten" />
		<tag k="contact:email" v="tripp.trapp@sandnes.kirken.no" />
		<tag k="contact:phone" v="+47 51 68 58 30" />
		<tag k="name" v="Tripp Trapp Åpen barnehage" />
		<tag k="no-barnehage:nsrid" v="1016896" />
		<tag k="operator" v="Sandnes Kirkelige Fellesråd" />
		<tag k="operator:type" v="private" />
		<tag k="start_date" v="1993-08-01" />
	</node>
	<node id="-3416" lat="58.81111" lon="5.72363">
		<tag k="amenity" v="kindergarten" />
		<tag k="capacity" v="160" />
		<tag k="contact:email" v="anne.brit.haukland@sandnes.kommune.no" />
		<tag k="max_age" v="5" />
		<tag k="min_age" v="1" />
		<tag k="name" v="Sørbø barnehage" />
		<tag k="no-barnehage:nsrid" v="1025445" />
		<tag k="operator" v="Sandnes kommune" />
		<tag k="operator:type" v="public" />
		<tag k="start_date" v="2014-08-01" />
	</node>
	<node id="-3415" lat="58.85345" lon="5.731674">
		<tag k="amenity" v="kindergarten" />
		<tag k="capacity" v="56" />
		<tag k="contact:email" v="dl.sviland@bhg.no" />
		<tag k="contact:phone" v="+47 481 88 707" />
		<tag k="max_age" v="5" />
		<tag k="min_age" v="1" />
		<tag k="name" v="Sviland Fus barnehage AS" />
		<tag k="no-barnehage:nsrid" v="1021740" />
		<tag k="operator" v="Sviland Fus barnehage AS" />
		<tag k="operator:type" v="private" />
		<tag k="start_date" v="2007-11-21" />
	</node>
	<node id="-3414" lat="58.8901" lon="5.70916">
		<tag k="amenity" v="kindergarten" />
		<tag k="capacity" v="78" />
		<tag k="contact:email" v="dl.svanholmen@kanvas.no" />
		<tag k="max_age" v="5" />
		<tag k="min_age" v="1" />
		<tag k="name" v="Svanholmen Kanvas-Barnehage" />
		<tag k="no-barnehage:nsrid" v="1016069" />
		<tag k="operator" v="Stiftelsen Kanvas" />
		<tag k="operator:type" v="private" />
		<tag k="start_date" v="1989-08-01" />
	</node>
	<node id="-3413" lat="58.8366" lon="5.75493">
		<tag k="amenity" v="kindergarten" />
		<tag k="capacity" v="153" />
		<tag k="contact:email" v="kontor@laringsverkstedet.no" />
		<tag k="contact:phone" v="+47 63 94 62 50" />
		<tag k="max_age" v="5" />
		<tag k="min_age" v="1" />
		<tag k="name" v="Strutsen Et Pedagogisk Barnesenter AS" />
		<tag k="no-barnehage:nsrid" v="1009241" />
		<tag k="operator" v="Strutsen Et Pedagogisk Barnesenter AS" />
		<tag k="operator:type" v="private" />
		<tag k="start_date" v="2003-09-29" />
	</node>
	<node id="-3412" lat="58.8469" lon="5.70922">
		<tag k="amenity" v="kindergarten" />
		<tag k="capacity" v="65" />
		<tag k="contact:email" v="tove.carlsen.ellingsen@sandnes.kommune.no" />
		<tag k="contact:phone" v="+47 51 97 91 10" />
		<tag k="max_age" v="5" />
		<tag k="min_age" v="1" />
		<tag k="name" v="Stangelandsforen barnehage" />
		<tag k="no-barnehage:nsrid" v="1015742" />
		<tag k="operator" v="Sandnes kommune" />
		<tag k="operator:type" v="public" />
		<tag k="start_date" v="1999-05-01" />
	</node>
	<node id="-3411" lat="58.851" lon="5.71957">
		<tag k="amenity" v="kindergarten" />
		<tag k="capacity" v="63" />
		<tag k="contact:email" v="stangeland.bhg@sandnes.kommune.no" />
		<tag k="contact:phone" v="+47 47909924" />
		<tag k="max_age" v="5" />
		<tag k="min_age" v="1" />
		<tag k="name" v="Stangeland barnehage" />
		<tag k="no-barnehage:nsrid" v="1012893" />
		<tag k="operator" v="Sandnes kommune" />
		<tag k="operator:type" v="public" />
		<tag k="start_date" v="1989-01-01" />
	</node>
	<node id="-3410" lat="58.86741" lon="5.696022">
		<tag k="amenity" v="kindergarten" />
		<tag k="capacity" v="21" />
		<tag k="contact:email" v="naturbhg@start.no" />
		<tag k="max_age" v="5" />
		<tag k="min_age" v="3" />
		<tag k="name" v="Soma Gård Naturbarnehage" />
		<tag k="no-barnehage:nsrid" v="1020703" />
		<tag k="operator" v="Herredsvela Private barnehage" />
		<tag k="operator:type" v="private" />
		<tag k="start_date" v="2001-03-07" />
	</node>
	<node id="-3409" lat="58.8634" lon="5.72287">
		<tag k="amenity" v="kindergarten" />
		<tag k="capacity" v="70" />
		<tag k="contact:email" v="trine-lise.bredland@sandnes.kommune.no" />
		<tag k="contact:phone" v="+47 51 97 26 60" />
		<tag k="max_age" v="5" />
		<tag k="min_age" v="1" />
		<tag k="name" v="Smeaheia barnehage" />
		<tag k="no-barnehage:nsrid" v="1016307" />
		<tag k="operator" v="Sandnes kommune" />
		<tag k="operator:type" v="public" />
		<tag k="start_date" v="2001-08-06" />
	</node>
	<node id="-3408" lat="58.84196" lon="5.772519">
		<tag k="amenity" v="kindergarten" />
		<tag k="capacity" v="53" />
		<tag k="contact:email" v="post@skaarliabarnehage.no" />
		<tag k="contact:phone" v="+47 97760787" />
		<tag k="max_age" v="5" />
		<tag k="min_age" v="1" />
		<tag k="name" v="Skaarlia barnehage Sa" />
		<tag k="no-barnehage:nsrid" v="1020731" />
		<tag k="operator" v="Skaarlia barnehage Sa" />
		<tag k="operator:type" v="private" />
		<tag k="start_date" v="2001-06-27" />
	</node>
	<node id="-3407" lat="58.8412" lon="5.71548">
		<tag k="amenity" v="kindergarten" />
		<tag k="capacity" v="220" />
		<tag k="contact:email" v="ingrid.andersen@sandnes.kommune.no" />
		<tag k="max_age" v="5" />
		<tag k="min_age" v="1" />
		<tag k="name" v="Sandvedhaugen barnehage" />
		<tag k="no-barnehage:nsrid" v="1018476" />
		<tag k="operator" v="Sandnes kommune" />
		<tag k="operator:type" v="public" />
		<tag k="start_date" v="2008-07-01" />
	</node>
	<node id="-3406" lat="58.8398" lon="5.71452">
		<tag k="amenity" v="kindergarten" />
		<tag k="capacity" v="64" />
		<tag k="contact:email" v="annette.ovedal@sandnes.kommune.no" />
		<tag k="contact:phone" v="+47 51336450" />
		<tag k="contact:website" v="http://www.sandnes.kommune.no/barnehager/sandved/" />
		<tag k="max_age" v="5" />
		<tag k="min_age" v="1" />
		<tag k="name" v="Sandved barnehage" />
		<tag k="no-barnehage:nsrid" v="1012892" />
		<tag k="operator" v="Sandnes kommune" />
		<tag k="operator:type" v="public" />
		<tag k="start_date" v="1989-01-01" />
	</node>
	<node id="-3405" lat="58.87074" lon="5.766661">
		<tag k="amenity" v="kindergarten" />
		<tag k="capacity" v="55" />
		<tag k="contact:email" v="post@sandtoppen.no" />
		<tag k="contact:phone" v="+47 93893656" />
		<tag k="contact:website" v="http://www.sandtoppen.no" />
		<tag k="max_age" v="5" />
		<tag k="min_age" v="1" />
		<tag k="name" v="Sandtoppen Naturbarnehage AS" />
		<tag k="no-barnehage:nsrid" v="1021539" />
		<tag k="operator" v="Sandtoppen Naturbarnehage AS" />
		<tag k="operator:type" v="private" />
		<tag k="start_date" v="2011-01-01" />
	</node>
	<node id="-3404" lat="58.84265" lon="5.733544">
		<tag k="amenity" v="kindergarten" />
		<tag k="name" v="Sandnes kommune Rekrutteringstjeneste/vikarpool" />
		<tag k="no-barnehage:nsrid" v="2000114" />
		<tag k="operator" v="Sandnes kommune" />
		<tag k="operator:type" v="public" />
		<tag k="start_date" v="2015-06-01" />
	</node>
	<node id="-3403" lat="58.8469" lon="5.72681">
		<tag k="amenity" v="kindergarten" />
		<tag k="capacity" v="92" />
		<tag k="contact:email" v="mary-ann.lye-vaaland.kvitli@sandnes.kommune.no" />
		<tag k="contact:phone" v="+47 51 97 73 70" />
		<tag k="max_age" v="5" />
		<tag k="min_age" v="1" />
		<tag k="name" v="Rådhusmarka barnehage" />
		<tag k="no-barnehage:nsrid" v="1018477" />
		<tag k="operator" v="Sandnes kommune" />
		<tag k="operator:type" v="public" />
		<tag k="start_date" v="2008-07-01" />
	</node>
	<node id="-3402" lat="58.804" lon="5.726459">
		<tag k="amenity" v="kindergarten" />
		<tag k="capacity" v="55" />
		<tag k="contact:email" v="post@royrvik-gard.no" />
		<tag k="contact:phone" v="+47 482 60 317" />
		<tag k="contact:website" v="http://royrvik-gard.no" />
		<tag k="max_age" v="5" />
		<tag k="min_age" v="1" />
		<tag k="name" v="Røyrvik Gårdsbarnehage AS" />
		<tag k="no-barnehage:nsrid" v="1021690" />
		<tag k="operator" v="Røyrvik Gårdsbarnehage AS" />
		<tag k="operator:type" v="private" />
		<tag k="start_date" v="2007-07-13" />
	</node>
	<node id="-3401" lat="58.8836" lon="5.74668">
		<tag k="amenity" v="kindergarten" />
		<tag k="capacity" v="62" />
		<tag k="contact:email" v="heidi.lund.haukalid@sandnes.kommune.no" />
		<tag k="contact:phone" v="+47 51 63 31 55" />
		<tag k="max_age" v="5" />
		<tag k="min_age" v="1" />
		<tag k="name" v="Rissebærstraen barnehage" />
		<tag k="no-barnehage:nsrid" v="1015603" />
		<tag k="operator" v="Sandnes kommune" />
		<tag k="operator:type" v="public" />
		<tag k="start_date" v="1997-12-01" />
	</node>
	<node id="-3400" lat="58.9234" lon="5.84748">
		<tag k="amenity" v="kindergarten" />
		<tag k="capacity" v="56" />
		<tag k="contact:email" v="hilde.iren.torgersen@sandnes.kommune.no" />
		<tag k="contact:phone" v="+47 51 68 97 11" />
		<tag k="max_age" v="5" />
		<tag k="min_age" v="1" />
		<tag k="name" v="Riska barnehage" />
		<tag k="no-barnehage:nsrid" v="1012891" />
		<tag k="operator" v="Sandnes kommune" />
		<tag k="operator:type" v="public" />
		<tag k="start_date" v="1989-01-01" />
	</node>
	<node id="-3399" lat="58.87945" lon="5.727581">
		<tag k="amenity" v="kindergarten" />
		<tag k="capacity" v="44" />
		<tag k="contact:email" v="rabald-b@online.no" />
		<tag k="contact:phone" v="+47 51 67 72 56" />
		<tag k="max_age" v="5" />
		<tag k="min_age" v="1" />
		<tag k="name" v="Rabalder barnehage Da" />
		<tag k="no-barnehage:nsrid" v="1020327" />
		<tag k="operator" v="Rabalder barnehage Da" />
		<tag k="operator:type" v="private" />
		<tag k="start_date" v="1990-10-01" />
	</node>
	<node id="-3398" lat="58.8815" lon="5.73651">
		<tag k="amenity" v="kindergarten" />
		<tag k="capacity" v="81" />
		<tag k="contact:email" v="goril.petersen@sandnes.kommune.no" />
		<tag k="contact:phone" v="+47 51 63 33 50" />
		<tag k="max_age" v="5" />
		<tag k="min_age" v="1" />
		<tag k="name" v="Porsholen barnehage" />
		<tag k="no-barnehage:nsrid" v="1012895" />
		<tag k="operator" v="Sandnes kommune" />
		<tag k="operator:type" v="public" />
		<tag k="start_date" v="1989-01-01" />
	</node>
	<node id="-3397" lat="58.81183" lon="5.686254">
		<tag k="amenity" v="kindergarten" />
		<tag k="capacity" v="66" />
		<tag k="contact:email" v="post@osa-gaard.no" />
		<tag k="max_age" v="5" />
		<tag k="min_age" v="1" />
		<tag k="name" v="Osa Gårdsbarnehage AS" />
		<tag k="no-barnehage:nsrid" v="1021592" />
		<tag k="operator" v="Osa Gårdsbarnehage AS" />
		<tag k="operator:type" v="private" />
		<tag k="start_date" v="2007-02-13" />
	</node>
	<node id="-3396" lat="58.86253" lon="5.719218">
		<tag k="amenity" v="kindergarten" />
		<tag k="capacity" v="76" />
		<tag k="contact:email" v="post@ormaskogen.no" />
		<tag k="max_age" v="5" />
		<tag k="min_age" v="1" />
		<tag k="name" v="Ormaskogen barnehage" />
		<tag k="no-barnehage:nsrid" v="1020914" />
		<tag k="operator" v="Ormaskogen barnehage Sa" />
		<tag k="operator:type" v="private" />
		<tag k="start_date" v="2003-05-05" />
	</node>
	<node id="-3395" lat="58.8784" lon="5.72913">
		<tag k="amenity" v="kindergarten" />
		<tag k="capacity" v="50" />
		<tag k="contact:email" v="margrethe.byrkjedal@lyse.net" />
		<tag k="contact:phone" v="+47 51 29 43 52" />
		<tag k="max_age" v="5" />
		<tag k="min_age" v="1" />
		<tag k="name" v="Nlm Barnehagene AS Avd Lube Barnehage" />
		<tag k="no-barnehage:nsrid" v="1017868" />
		<tag k="operator" v="Nlm-Barnehagene AS" />
		<tag k="operator:type" v="private" />
		<tag k="start_date" v="2007-08-01" />
	</node>
	<node id="-3394" lat="58.87962" lon="5.731427">
		<tag k="amenity" v="kindergarten" />
		<tag k="capacity" v="26" />
		<tag k="contact:email" v="dl.myrsnipa@barnehage.no" />
		<tag k="contact:phone" v="+47 57 63 07 20" />
		<tag k="contact:website" v="http://www.myrsnipa.barnehage.no" />
		<tag k="max_age" v="5" />
		<tag k="min_age" v="1" />
		<tag k="name" v="Myrsnipa barnehage" />
		<tag k="no-barnehage:nsrid" v="1020320" />
		<tag k="operator" v="Porsholen 2 Sa" />
		<tag k="operator:type" v="private" />
		<tag k="start_date" v="1989-01-02" />
	</node>
	<node id="-3393" lat="58.8848" lon="5.73451">
		<tag k="amenity" v="kindergarten" />
		<tag k="capacity" v="50" />
		<tag k="contact:email" v="solveig.fredriksen@sandnes.kommune.no" />
		<tag k="contact:phone" v="+47 51 33 64 30" />
		<tag k="max_age" v="5" />
		<tag k="min_age" v="1" />
		<tag k="name" v="Myklaberget barnehage" />
		<tag k="no-barnehage:nsrid" v="1016068" />
		<tag k="operator" v="Sandnes kommune" />
		<tag k="operator:type" v="public" />
		<tag k="start_date" v="1990-01-01" />
	</node>
	<node id="-3392" lat="58.91508" lon="5.833864">
		<tag k="amenity" v="kindergarten" />
		<tag k="capacity" v="106" />
		<tag k="contact:email" v="dl.maudland@bhg.no" />
		<tag k="contact:phone" v="+47 51 62 85 30" />
		<tag k="max_age" v="5" />
		<tag k="min_age" v="1" />
		<tag k="name" v="Maudland Fus barnehage AS Avd Maudlandsveien" />
		<tag k="no-barnehage:nsrid" v="1020350" />
		<tag k="operator" v="Maudland Fus barnehage AS" />
		<tag k="operator:type" v="private" />
		<tag k="start_date" v="1996-05-01" />
	</node>
	<node id="-3391" lat="58.8319" lon="5.6578">
		<tag k="amenity" v="kindergarten" />
		<tag k="capacity" v="85" />
		<tag k="contact:email" v="bhg.julebygda@laringsverkstedet.no" />
		<tag k="contact:phone" v="+47 97997220" />
		<tag k="contact:website" v="http://www.laringsverkstedet.no/julebygda" />
		<tag k="max_age" v="5" />
		<tag k="min_age" v="1" />
		<tag k="name" v="Læringsverkstedet barnehage Avd Julebygda" />
		<tag k="no-barnehage:nsrid" v="1015070" />
		<tag k="operator" v="Læringsverkstedet AS" />
		<tag k="operator:type" v="private" />
		<tag k="start_date" v="2012-01-01" />
	</node>
	<node id="-3390" lat="58.8201" lon="5.705833">
		<tag k="amenity" v="kindergarten" />
		<tag k="capacity" v="76" />
		<tag k="contact:email" v="dl.lundehagen@bhg.no" />
		<tag k="contact:phone" v="+47 51 97 43 00" />
		<tag k="max_age" v="5" />
		<tag k="min_age" v="1" />
		<tag k="name" v="Lundehagen Fus barnehage AS" />
		<tag k="no-barnehage:nsrid" v="1021359" />
		<tag k="operator" v="Lundehagen Fus barnehage AS" />
		<tag k="operator:type" v="private" />
		<tag k="start_date" v="2005-11-22" />
	</node>
	<node id="-3389" lat="58.82639" lon="5.723667">
		<tag k="amenity" v="kindergarten" />
		<tag k="capacity" v="59" />
		<tag k="contact:email" v="post@lundegardbarnehage.no" />
		<tag k="contact:phone" v="+47 51 66 99 10" />
		<tag k="contact:website" v="http://www.minbarnehage/lundgard.no" />
		<tag k="max_age" v="5" />
		<tag k="min_age" v="1" />
		<tag k="name" v="Lundegård barnehage Sa" />
		<tag k="no-barnehage:nsrid" v="1020858" />
		<tag k="operator" v="Lundegård barnehage Sa" />
		<tag k="operator:type" v="private" />
		<tag k="start_date" v="1965-12-31" />
	</node>
	<node id="-3388" lat="58.9235" lon="5.84244">
		<tag k="amenity" v="kindergarten" />
		<tag k="capacity" v="54" />
		<tag k="contact:email" v="post@lekeland-barnehage.no" />
		<tag k="max_age" v="5" />
		<tag k="min_age" v="1" />
		<tag k="name" v="Lekeland barnehage" />
		<tag k="no-barnehage:nsrid" v="1017001" />
		<tag k="operator" v="Pinsemenigheten Betel" />
		<tag k="operator:type" v="private" />
		<tag k="start_date" v="2005-10-31" />
	</node>
	<node id="-3387" lat="58.85383" lon="5.737176">
		<tag k="amenity" v="kindergarten" />
		<tag k="capacity" v="43" />
		<tag k="max_age" v="5" />
		<tag k="min_age" v="1" />
		<tag k="name" v="Langgata barnehage" />
		<tag k="no-barnehage:nsrid" v="1026602" />
		<tag k="operator" v="Sandnes kommune" />
		<tag k="operator:type" v="public" />
		<tag k="start_date" v="2016-06-15" />
	</node>
	<node id="-3386" lat="58.81111" lon="5.72363">
		<tag k="amenity" v="kindergarten" />
		<tag k="capacity" v="87" />
		<tag k="contact:email" v="post@kreativbarnehage.no" />
		<tag k="max_age" v="5" />
		<tag k="min_age" v="1" />
		<tag k="name" v="Kreativ barnehage Hove" />
		<tag k="no-barnehage:nsrid" v="1026202" />
		<tag k="operator" v="Kreativ barnehage AS" />
		<tag k="operator:type" v="private" />
		<tag k="start_date" v="2014-08-01" />
	</node>
	<node id="-3385" lat="58.81401" lon="5.747521">
		<tag k="amenity" v="kindergarten" />
		<tag k="capacity" v="85" />
		<tag k="contact:email" v="lisbeth@kreativbarnehage.no" />
		<tag k="contact:phone" v="+47 51 66 17 18" />
		<tag k="max_age" v="5" />
		<tag k="min_age" v="1" />
		<tag k="name" v="Kreativ barnehage Bogafjell" />
		<tag k="no-barnehage:nsrid" v="1021195" />
		<tag k="operator" v="Kreativ barnehage AS" />
		<tag k="operator:type" v="private" />
		<tag k="start_date" v="2002-08-20" />
	</node>
	<node id="-3384" lat="58.9278" lon="5.85494">
		<tag k="amenity" v="kindergarten" />
		<tag k="contact:email" v="heidi.sinnes@sandnes.kirken.no" />
		<tag k="contact:phone" v="+47 51 68 82 36" />
		<tag k="name" v="Knøttene Åpen barnehage" />
		<tag k="no-barnehage:nsrid" v="1015878" />
		<tag k="operator" v="Sandnes Kirkelige Fellesråd" />
		<tag k="operator:type" v="private" />
		<tag k="start_date" v="2000-01-01" />
	</node>
	<node id="-3383" lat="58.8596" lon="5.72087">
		<tag k="amenity" v="kindergarten" />
		<tag k="capacity" v="99" />
		<tag k="contact:email" v="mari-ann.johannesen.solstrand@sandnes.kommune.no" />
		<tag k="contact:phone" v="+47 51665456" />
		<tag k="max_age" v="5" />
		<tag k="min_age" v="1" />
		<tag k="name" v="Jønningheia barnehage" />
		<tag k="no-barnehage:nsrid" v="1012890" />
		<tag k="operator" v="Sandnes kommune" />
		<tag k="operator:type" v="public" />
		<tag k="start_date" v="1989-01-01" />
	</node>
	<node id="-3382" lat="58.84319" lon="5.75752">
		<tag k="amenity" v="kindergarten" />
		<tag k="capacity" v="77" />
		<tag k="contact:email" v="dl.iglemyr@bhg.no" />
		<tag k="max_age" v="5" />
		<tag k="min_age" v="1" />
		<tag k="name" v="Iglemyr Fus barnehage AS" />
		<tag k="no-barnehage:nsrid" v="1021360" />
		<tag k="operator" v="Iglemyr Fus barnehage AS" />
		<tag k="operator:type" v="private" />
		<tag k="start_date" v="2005-11-23" />
	</node>
	<node id="-3381" lat="58.82525" lon="5.752916">
		<tag k="amenity" v="kindergarten" />
		<tag k="capacity" v="57" />
		<tag k="contact:email" v="dl.habet@bhg.no" />
		<tag k="contact:phone" v="+47 51 62 15 99" />
		<tag k="contact:website" v="http://www.haabet-barnehage.no" />
		<tag k="max_age" v="5" />
		<tag k="min_age" v="1" />
		<tag k="name" v="Håbet Fus Friluftsbarnehage AS" />
		<tag k="no-barnehage:nsrid" v="1020129" />
		<tag k="operator" v="Håbet Fus Friluftsbarnehage AS" />
		<tag k="operator:type" v="private" />
		<tag k="start_date" v="1993-10-24" />
	</node>
	<node id="-3380" lat="58.82525" lon="5.752916">
		<tag k="amenity" v="kindergarten" />
		<tag k="capacity" v="69" />
		<tag k="contact:email" v="haabafjell.idrettsbarnehage@gmail.com" />
		<tag k="contact:phone" v="+47 51 97 11 80" />
		<tag k="contact:website" v="http://www.minbarnehage.no/idrettsbarnehage" />
		<tag k="max_age" v="5" />
		<tag k="min_age" v="1" />
		<tag k="name" v="Håbafjell Idrettsbarnehage" />
		<tag k="no-barnehage:nsrid" v="1020561" />
		<tag k="operator" v="Håbafjell Idrettsbarnehage Sa" />
		<tag k="operator:type" v="private" />
		<tag k="start_date" v="1999-08-01" />
	</node>
	<node id="-3379" lat="58.8956" lon="6.01187">
		<tag k="amenity" v="kindergarten" />
		<tag k="capacity" v="50" />
		<tag k="contact:email" v="vibeke.fossdal@sandnes.kommune.no" />
		<tag k="contact:phone" v="+47 51 67 06 91" />
		<tag k="max_age" v="5" />
		<tag k="min_age" v="1" />
		<tag k="name" v="Høle barnehage" />
		<tag k="no-barnehage:nsrid" v="1012897" />
		<tag k="operator" v="Sandnes kommune" />
		<tag k="operator:type" v="public" />
		<tag k="start_date" v="1989-01-01" />
	</node>
	<node id="-3378" lat="58.9276" lon="5.84809">
		<tag k="amenity" v="kindergarten" />
		<tag k="capacity" v="53" />
		<tag k="contact:email" v="astrid.svebestad@sandnes.kommune.no" />
		<tag k="contact:phone" v="+47 51 68 88 75" />
		<tag k="max_age" v="5" />
		<tag k="min_age" v="1" />
		<tag k="name" v="Hommersåk barnehage" />
		<tag k="no-barnehage:nsrid" v="1012888" />
		<tag k="operator" v="Sandnes kommune" />
		<tag k="operator:type" v="public" />
		<tag k="start_date" v="1989-01-01" />
	</node>
	<node id="-3377" lat="58.84996" lon="5.706501">
		<tag k="amenity" v="kindergarten" />
		<tag k="capacity" v="64" />
		<tag k="contact:email" v="post@hansoggrete.com" />
		<tag k="contact:phone" v="+47 51 62 81 11" />
		<tag k="max_age" v="5" />
		<tag k="min_age" v="1" />
		<tag k="name" v="Hans og Grete barnehage Sa" />
		<tag k="no-barnehage:nsrid" v="1020006" />
		<tag k="operator" v="Hans og Grete barnehage Sa" />
		<tag k="operator:type" v="private" />
		<tag k="start_date" v="1991-07-01" />
	</node>
	<node id="-3376" lat="58.8548" lon="5.75594">
		<tag k="amenity" v="kindergarten" />
		<tag k="capacity" v="81" />
		<tag k="contact:email" v="eldbjorg.synnove.helland@sandnes.kommune.no" />
		<tag k="max_age" v="5" />
		<tag k="min_age" v="1" />
		<tag k="name" v="Hana barnehage" />
		<tag k="no-barnehage:nsrid" v="1015114" />
		<tag k="operator" v="Sandnes kommune" />
		<tag k="operator:type" v="public" />
		<tag k="start_date" v="2012-06-01" />
	</node>
	<node id="-3375" lat="58.87205" lon="5.73209">
		<tag k="amenity" v="kindergarten" />
		<tag k="capacity" v="50" />
		<tag k="contact:email" v="inger.thorsen@haaholenbarnehage.no" />
		<tag k="contact:phone" v="+47 51 62 42 39" />
		<tag k="contact:website" v="http://www.haaholenbarnehage.no" />
		<tag k="max_age" v="5" />
		<tag k="min_age" v="1" />
		<tag k="name" v="Haholen barnehage" />
		<tag k="no-barnehage:nsrid" v="1019813" />
		<tag k="operator" v="Håholen barnehage" />
		<tag k="operator:type" v="private" />
		<tag k="start_date" v="1989-01-01" />
	</node>
	<node id="-3374" lat="58.8483" lon="5.74376">
		<tag k="amenity" v="kindergarten" />
		<tag k="capacity" v="44" />
		<tag k="contact:email" v="norunn.garvik@sandnes.kommune.no" />
		<tag k="contact:phone" v="+47 51 33 64 10" />
		<tag k="max_age" v="5" />
		<tag k="min_age" v="1" />
		<tag k="name" v="Gravarslia barnehage" />
		<tag k="no-barnehage:nsrid" v="1025367" />
		<tag k="operator" v="Sandnes kommune" />
		<tag k="operator:type" v="public" />
		<tag k="start_date" v="1989-01-02" />
	</node>
	<node id="-3373" lat="58.8201" lon="5.7162">
		<tag k="amenity" v="kindergarten" />
		<tag k="capacity" v="68" />
		<tag k="contact:email" v="ruth.stabel.berg@sandnes.kommune.no" />
		<tag k="contact:phone" v="+47 51673209" />
		<tag k="max_age" v="5" />
		<tag k="min_age" v="1" />
		<tag k="name" v="Ganddal barnehage" />
		<tag k="no-barnehage:nsrid" v="1025377" />
		<tag k="operator" v="Sandnes kommune" />
		<tag k="operator:type" v="public" />
		<tag k="start_date" v="1989-01-01" />
	</node>
	<node id="-3372" lat="58.7839" lon="5.81413">
		<tag k="amenity" v="kindergarten" />
		<tag k="capacity" v="104" />
		<tag k="contact:email" v="astrid.sandvik@sandnes.kommune.no" />
		<tag k="contact:phone" v="+47 51 60 31 50" />
		<tag k="max_age" v="5" />
		<tag k="min_age" v="1" />
		<tag k="name" v="Figgjo barnehage" />
		<tag k="no-barnehage:nsrid" v="1015533" />
		<tag k="operator" v="Sandnes kommune" />
		<tag k="operator:type" v="public" />
		<tag k="start_date" v="1978-02-03" />
	</node>
	<node id="-3371" lat="58.81207" lon="5.738414">
		<tag k="amenity" v="kindergarten" />
		<tag k="capacity" v="104" />
		<tag k="contact:email" v="styrer@vagletjorn.espira.no" />
		<tag k="contact:phone" v="+47 52 84 50 20" />
		<tag k="contact:website" v="http://www.espira.no" />
		<tag k="max_age" v="5" />
		<tag k="min_age" v="1" />
		<tag k="name" v="Espira Vagletjørn barnehage" />
		<tag k="no-barnehage:nsrid" v="1021444" />
		<tag k="operator" v="Espira Vagletjørn AS" />
		<tag k="operator:type" v="private" />
		<tag k="start_date" v="2006-05-09" />
	</node>
	<node id="-3370" lat="58.87008" lon="5.765859">
		<tag k="amenity" v="kindergarten" />
		<tag k="capacity" v="70" />
		<tag k="contact:email" v="post@espira.no" />
		<tag k="contact:phone" v="+47 52 84 50 20" />
		<tag k="contact:website" v="http://www.espira.no" />
		<tag k="max_age" v="5" />
		<tag k="min_age" v="1" />
		<tag k="name" v="Espira Taremareby barnehage" />
		<tag k="no-barnehage:nsrid" v="1020193" />
		<tag k="operator" v="Espira Taremareby AS" />
		<tag k="operator:type" v="private" />
		<tag k="start_date" v="1995-12-31" />
	</node>
	<node id="-3369" lat="58.88794" lon="5.725324">
		<tag k="amenity" v="kindergarten" />
		<tag k="capacity" v="72" />
		<tag k="contact:email" v="styrer@lura.espira.no" />
		<tag k="contact:phone" v="+47 52 84 50 20" />
		<tag k="contact:website" v="http://www.espira.no" />
		<tag k="max_age" v="5" />
		<tag k="min_age" v="1" />
		<tag k="name" v="Espira Lura barnehage" />
		<tag k="no-barnehage:nsrid" v="1022028" />
		<tag k="operator" v="Espira Barnehager AS" />
		<tag k="operator:type" v="private" />
		<tag k="start_date" v="1993-06-11" />
	</node>
	<node id="-3368" lat="58.83223" lon="5.706913">
		<tag k="amenity" v="kindergarten" />
		<tag k="capacity" v="120" />
		<tag k="contact:email" v="styrer@krystallveien.espira.no" />
		<tag k="contact:website" v="http://www.espira.no" />
		<tag k="max_age" v="5" />
		<tag k="min_age" v="1" />
		<tag k="name" v="Espira Krystallveien barnehage" />
		<tag k="no-barnehage:nsrid" v="1021789" />
		<tag k="operator" v="Espira Krystallveien AS" />
		<tag k="operator:type" v="private" />
		<tag k="start_date" v="2008-03-19" />
	</node>
	<node id="-3367" lat="58.78743" lon="5.813989">
		<tag k="amenity" v="kindergarten" />
		<tag k="capacity" v="25" />
		<tag k="contact:email" v="toevert@start.no" />
		<tag k="max_age" v="5" />
		<tag k="min_age" v="1" />
		<tag k="name" v="Engleongane barnehage AS" />
		<tag k="no-barnehage:nsrid" v="1021642" />
		<tag k="operator" v="Engleongane barnehage AS" />
		<tag k="operator:type" v="private" />
		<tag k="start_date" v="2007-07-31" />
	</node>
	<node id="-3366" lat="58.92351" lon="5.837306">
		<tag k="amenity" v="kindergarten" />
		<tag k="capacity" v="58" />
		<tag k="contact:email" v="post@eikenotta.no" />
		<tag k="contact:phone" v="+47 51 68 88 70" />
		<tag k="contact:website" v="http://www.eikenotta.no" />
		<tag k="max_age" v="5" />
		<tag k="min_age" v="1" />
		<tag k="name" v="Eikenøtta Naturbarnehage AS" />
		<tag k="no-barnehage:nsrid" v="1021319" />
		<tag k="operator" v="Eikenøtta Naturbarnehage AS" />
		<tag k="operator:type" v="private" />
		<tag k="start_date" v="2005-10-11" />
	</node>
	<node id="-3365" lat="58.8166" lon="5.753724">
		<tag k="amenity" v="kindergarten" />
		<tag k="capacity" v="68" />
		<tag k="contact:email" v="post@buggeland-barnehage.no" />
		<tag k="contact:phone" v="+47 51 66 84 40" />
		<tag k="contact:website" v="http://www.buggeland-barnehage.no" />
		<tag k="max_age" v="5" />
		<tag k="min_age" v="1" />
		<tag k="name" v="Buggeland barnehage" />
		<tag k="no-barnehage:nsrid" v="1021148" />
		<tag k="operator" v="Buggeland barnehage Sa" />
		<tag k="operator:type" v="private" />
		<tag k="start_date" v="2004-10-28" />
	</node>
	<node id="-3364" lat="58.847" lon="5.72543">
		<tag k="amenity" v="kindergarten" />
		<tag k="capacity" v="185" />
		<tag k="contact:email" v="brueland.barnehage@sandnes.kommune.no" />
		<tag k="contact:phone" v="+47 51 68 03 25" />
		<tag k="contact:website" v="http://www.sandnes.kommune.no/bruelandbhg" />
		<tag k="max_age" v="5" />
		<tag k="min_age" v="1" />
		<tag k="name" v="Brueland barnehage" />
		<tag k="no-barnehage:nsrid" v="1012898" />
		<tag k="operator" v="Sandnes kommune" />
		<tag k="operator:type" v="public" />
		<tag k="start_date" v="1991-08-01" />
	</node>
	<node id="-3363" lat="58.85345" lon="5.731674">
		<tag k="amenity" v="kindergarten" />
		<tag k="capacity" v="68" />
		<tag k="contact:email" v="kjell@bratteborg.no" />
		<tag k="contact:phone" v="+47 475 26 840" />
		<tag k="contact:website" v="http://www.bratteborg.no" />
		<tag k="max_age" v="5" />
		<tag k="min_age" v="1" />
		<tag k="name" v="Bratteborg barnehage AS" />
		<tag k="no-barnehage:nsrid" v="1021958" />
		<tag k="operator" v="Bratteborg barnehage AS" />
		<tag k="operator:type" v="private" />
		<tag k="start_date" v="2009-06-01" />
	</node>
	<node id="-3362" lat="58.81981" lon="5.747932">
		<tag k="amenity" v="kindergarten" />
		<tag k="capacity" v="76" />
		<tag k="contact:email" v="post@bogafjellbakken.no" />
		<tag k="contact:phone" v="+47 51 97 77 88" />
		<tag k="contact:website" v="http://www.bogafjellbakken.no" />
		<tag k="max_age" v="5" />
		<tag k="min_age" v="1" />
		<tag k="name" v="Bogafjellbakken Naturbarnehage Sa" />
		<tag k="no-barnehage:nsrid" v="1020839" />
		<tag k="operator" v="Bogafjellbakken Naturbarnehage Sa" />
		<tag k="operator:type" v="private" />
		<tag k="start_date" v="2002-03-01" />
	</node>
	<node id="-3361" lat="58.8206" lon="5.74616">
		<tag k="amenity" v="kindergarten" />
		<tag k="contact:email" v="gunnlaug.nilsen@sandnes.kirken.no" />
		<tag k="contact:phone" v="+47 47 47 23 55" />
		<tag k="name" v="Bogafjell Åpne barnehage" />
		<tag k="no-barnehage:nsrid" v="1014080" />
		<tag k="operator" v="Bogafjell Sokn" />
		<tag k="operator:type" v="private" />
		<tag k="start_date" v="2009-01-01" />
	</node>
	<node id="-3360" lat="58.8441" lon="5.75772">
		<tag k="amenity" v="kindergarten" />
		<tag k="capacity" v="76" />
		<tag k="contact:email" v="austraatt.barnehage@sandnes.kommune.no" />
		<tag k="contact:phone" v="+47 51665160" />
		<tag k="max_age" v="5" />
		<tag k="min_age" v="1" />
		<tag k="name" v="Austrått barnehage" />
		<tag k="no-barnehage:nsrid" v="1012889" />
		<tag k="operator" v="Sandnes kommune" />
		<tag k="operator:type" v="public" />
		<tag k="start_date" v="1989-01-01" />
	</node>
	<node id="-3359" lat="58.8644" lon="5.76251">
		<tag k="amenity" v="kindergarten" />
		<tag k="capacity" v="42" />
		<tag k="contact:email" v="ann.kristin.gausel@sandnes.kommune.no" />
		<tag k="contact:phone" v="+47 57 97 24 30" />
		<tag k="max_age" v="5" />
		<tag k="min_age" v="1" />
		<tag k="name" v="Asperholen barnehage" />
		<tag k="no-barnehage:nsrid" v="1012896" />
		<tag k="operator" v="Sandnes kommune" />
		<tag k="operator:type" v="public" />
		<tag k="start_date" v="1989-01-01" />
	</node>
	<node id="-3358" lat="58.87109" lon="5.721845">
		<tag k="amenity" v="kindergarten" />
		<tag k="capacity" v="95" />
		<tag k="contact:email" v="ingeleiv@aktiv-barnehage.no" />
		<tag k="contact:phone" v="+47 51 68 09 90" />
		<tag k="contact:website" v="http://www.aktiv-barnehage.no" />
		<tag k="max_age" v="5" />
		<tag k="min_age" v="1" />
		<tag k="name" v="Aktiv barnehage" />
		<tag k="no-barnehage:nsrid" v="1019779" />
		<tag k="operator" v="Aktive Foreldre Sa" />
		<tag k="operator:type" v="private" />
		<tag k="start_date" v="1989-01-01" />
	</node>
</osm>
