<?xml version="1.0" encoding="UTF-8"?>
<osm generator="osmapis" version="0.6">
	<node id="-4539" lat="60.58854" lon="5.52389">
		<tag k="ADDRESS" v="Osterøyvegen 2691, 5283 FOTLANDSVÅG" />
		<tag k="amenity" v="kindergarten" />
		<tag k="capacity" v="29" />
		<tag k="contact:website" v="http://osteroy.kommune.no/innhald/barnehage/barnehagane-vare2/fotlandsvag-barnehage/" />
		<tag k="max_age" v="5" />
		<tag k="min_age" v="1" />
		<tag k="name" v="Fotlandsvåg barnehage" />
		<tag k="no-barnehage:nsrid" v="982764017" />
		<tag k="operator" v="Osterøy kommune" />
		<tag k="operator:type" v="public" />
	</node>
	<node id="-4540" lat="60.50554" lon="5.471523">
		<tag k="ADDRESS" v=", 5281 VALESTRANDSFOSSEN" />
		<tag k="amenity" v="kindergarten" />
		<tag k="capacity" v="72" />
		<tag k="contact:website" v="http://osteroy.kommune.no/innhald/barnehage/barnehagane-vare2/hauge-barnehage/" />
		<tag k="max_age" v="5" />
		<tag k="min_age" v="1" />
		<tag k="name" v="Hauge barnehage" />
		<tag k="no-barnehage:nsrid" v="975309207" />
		<tag k="operator" v="Osterøy kommune" />
		<tag k="operator:type" v="public" />
	</node>
	<node id="-4541" lat="0.0" lon="0.0">
		<tag k="ADDRESS" v=", 5286 HAUS" />
		<tag k="amenity" v="kindergarten" />
		<tag k="capacity" v="76" />
		<tag k="max_age" v="5" />
		<tag k="min_age" v="1" />
		<tag k="name" v="Haus barnehage" />
		<tag k="no-barnehage:nsrid" v="975321290" />
		<tag k="operator" v="Osterøy kommune" />
		<tag k="operator:type" v="public" />
	</node>
	<node id="-4542" lat="60.52378" lon="5.51111">
		<tag k="ADDRESS" v="Rambergsvegen 213, 5282 LONEVÅG" />
		<tag k="amenity" v="kindergarten" />
		<tag k="capacity" v="116" />
		<tag k="contact:website" v="http://osteroy.kommune.no/innhald/barnehage/barnehagane-vare2/lonevag-barnehage/" />
		<tag k="max_age" v="5" />
		<tag k="min_age" v="1" />
		<tag k="name" v="Lonevåg barnehage" />
		<tag k="no-barnehage:nsrid" v="975309193" />
		<tag k="operator" v="Osterøy kommune" />
		<tag k="operator:type" v="public" />
	</node>
	<node id="-4543" lat="60.57019" lon="5.48548">
		<tag k="ADDRESS" v="Tveitavegen 65, 5282 LONEVÅG" />
		<tag k="amenity" v="kindergarten" />
		<tag k="capacity" v="16" />
		<tag k="contact:website" v="http://osteroy.kommune.no/innhald/barnehage/barnehagane-vare2/mjosvagen-barnehage/" />
		<tag k="max_age" v="5" />
		<tag k="min_age" v="1" />
		<tag k="name" v="Mjøsdalen barnehage" />
		<tag k="no-barnehage:nsrid" v="976873416" />
		<tag k="operator" v="Osterøy kommune" />
		<tag k="operator:type" v="public" />
	</node>
	<node id="-4544" lat="60.49333" lon="5.51635">
		<tag k="ADDRESS" v="Vevlevegen 213, 5281 VALESTRANDSFOSSEN" />
		<tag k="amenity" v="kindergarten" />
		<tag k="capacity" v="38" />
		<tag k="contact:website" v="http://www.friluftsbarnehage.no/" />
		<tag k="max_age" v="5" />
		<tag k="min_age" v="1" />
		<tag k="name" v="Osterøy gårds og friluftsbarnehage" />
		<tag k="no-barnehage:nsrid" v="986878327" />
		<tag k="operator" v="Osterøy Gårds og Friluftsbarnehage AS" />
		<tag k="operator:type" v="private" />
	</node>
	<node id="-4545" lat="60.50733" lon="5.42742">
		<tag k="ADDRESS" v="Eidsgotene 53, 5281 VALESTRANDSFOSSEN" />
		<tag k="amenity" v="kindergarten" />
		<tag k="capacity" v="67" />
		<tag k="contact:website" v="http://reppenbarnehage.no" />
		<tag k="max_age" v="5" />
		<tag k="min_age" v="1" />
		<tag k="name" v="Reppen barnehage" />
		<tag k="no-barnehage:nsrid" v="976295307" />
		<tag k="operator" v="Reppen barnehage AS" />
		<tag k="operator:type" v="private" />
	</node>
	<node id="-4546" lat="60.50563" lon="5.4282">
		<tag k="ADDRESS" v="Eidsbakkane 42, 5281 VALESTRANDSFOSSEN" />
		<tag k="amenity" v="kindergarten" />
		<tag k="capacity" v="33" />
		<tag k="contact:website" v="http://osteroy.kommune.no/innhald/barnehage/barnehagane-vare2/valestrand-barnehage/" />
		<tag k="max_age" v="5" />
		<tag k="min_age" v="1" />
		<tag k="name" v="Valestrand barnehage" />
		<tag k="no-barnehage:nsrid" v="975322041" />
		<tag k="operator" v="Osterøy kommune" />
		<tag k="operator:type" v="public" />
	</node>
</osm>
