<?xml version="1.0" encoding="UTF-8"?>
<osm generator="osmapis" version="0.6">
	<node id="-484" lat="59.926" lon="10.4513">
		<tag k="amenity" v="kindergarten" />
		<tag k="capacity" v="32" />
		<tag k="max_age" v="5" />
		<tag k="min_age" v="1" />
		<tag k="name" v="Ståvi barnehage avd. Skui" />
		<tag k="no-barnehage:nsrid" v="1012669" />
		<tag k="operator" v="Bærum kommune" />
		<tag k="operator:type" v="public" />
	</node>
	<node id="-483" lat="59.9068" lon="10.4733">
		<tag k="amenity" v="kindergarten" />
		<tag k="capacity" v="31" />
		<tag k="contact:website" v="http://www.baerum.kommune.no/tjenester/barnehage/alle-barnehager/stavi-barnehage" />
		<tag k="max_age" v="5" />
		<tag k="min_age" v="1" />
		<tag k="name" v="Ståvi barnehage avd. Borkenhagen" />
		<tag k="no-barnehage:nsrid" v="1012649" />
		<tag k="operator" v="Bærum kommune" />
		<tag k="operator:type" v="public" />
	</node>
	<node id="-482" lat="59.89991" lon="10.59283">
		<tag k="amenity" v="kindergarten" />
		<tag k="capacity" v="48" />
		<tag k="contact:website" v="http://strand-barnehage.no" />
		<tag k="max_age" v="5" />
		<tag k="min_age" v="1" />
		<tag k="name" v="Strand barnehage" />
		<tag k="no-barnehage:nsrid" v="1019648" />
		<tag k="operator" v="Strand barnehage Sa" />
		<tag k="operator:type" v="private" />
	</node>
	<node id="-481" lat="59.8944" lon="10.6114">
		<tag k="amenity" v="kindergarten" />
		<tag k="capacity" v="134" />
		<tag k="max_age" v="5" />
		<tag k="min_age" v="1" />
		<tag k="name" v="Storøya barnehage" />
		<tag k="no-barnehage:nsrid" v="1018564" />
		<tag k="operator" v="Bærum kommune" />
		<tag k="operator:type" v="public" />
	</node>
	<node id="-480" lat="59.9205" lon="10.6247">
		<tag k="amenity" v="kindergarten" />
		<tag k="capacity" v="38" />
		<tag k="max_age" v="5" />
		<tag k="min_age" v="1" />
		<tag k="name" v="Storenga barnehage" />
		<tag k="no-barnehage:nsrid" v="1016667" />
		<tag k="operator" v="Storenga barnehage og Storenga Familiebarnehage Sa" />
		<tag k="operator:type" v="private" />
	</node>
	<node id="-478" lat="59.90814" lon="10.60316">
		<tag k="amenity" v="kindergarten" />
		<tag k="capacity" v="39" />
		<tag k="contact:website" v="http://stabekktunet.no" />
		<tag k="max_age" v="5" />
		<tag k="min_age" v="1" />
		<tag k="name" v="Stiftelsen Stabekktunet barnehage" />
		<tag k="no-barnehage:nsrid" v="1020313" />
		<tag k="operator" v="Stiftelsen Stabekktunet barnehage" />
		<tag k="operator:type" v="private" />
	</node>
	<node id="-477" lat="59.87883" lon="10.49501">
		<tag k="amenity" v="kindergarten" />
		<tag k="capacity" v="33" />
		<tag k="contact:website" v="http://sollia.barnehage.no" />
		<tag k="max_age" v="5" />
		<tag k="min_age" v="1" />
		<tag k="name" v="Stiftelsen Sollia barnehage" />
		<tag k="no-barnehage:nsrid" v="1020050" />
		<tag k="operator" v="Stiftelsen Sollia barnehage" />
		<tag k="operator:type" v="private" />
	</node>
	<node id="-476" lat="59.88896" lon="10.56073">
		<tag k="amenity" v="kindergarten" />
		<tag k="capacity" v="56" />
		<tag k="contact:website" v="http://www.dnvbarnehage.no" />
		<tag k="max_age" v="5" />
		<tag k="min_age" v="1" />
		<tag k="name" v="Stiftelsen Det Norske Veritas barnehage" />
		<tag k="no-barnehage:nsrid" v="1020709" />
		<tag k="operator" v="Stiftelsen Det Norske Veritas barnehage" />
		<tag k="operator:type" v="private" />
	</node>
	<node id="-475" lat="59.93" lon="10.6057">
		<tag k="amenity" v="kindergarten" />
		<tag k="capacity" v="53" />
		<tag k="max_age" v="5" />
		<tag k="min_age" v="1" />
		<tag k="name" v="Stiftelsen Almeskogen Steinerbarnehage" />
		<tag k="no-barnehage:nsrid" v="1016222" />
		<tag k="operator" v="Stiftelsen Almeskogen Steinerbarnehage" />
		<tag k="operator:type" v="private" />
	</node>
	<node id="-473" lat="59.9038" lon="10.5887">
		<tag k="amenity" v="kindergarten" />
		<tag k="capacity" v="59" />
		<tag k="max_age" v="5" />
		<tag k="min_age" v="1" />
		<tag k="name" v="Stabekk barnehage avd. Stabekk" />
		<tag k="no-barnehage:nsrid" v="1012667" />
		<tag k="operator" v="Bærum kommune" />
		<tag k="operator:type" v="public" />
	</node>
	<node id="-472" lat="59.8806" lon="10.6089">
		<tag k="amenity" v="kindergarten" />
		<tag k="capacity" v="24" />
		<tag k="contact:website" v="http://www.snaroyabarnehage.no" />
		<tag k="max_age" v="5" />
		<tag k="min_age" v="1" />
		<tag k="name" v="Snarøya barnehage" />
		<tag k="no-barnehage:nsrid" v="1015527" />
		<tag k="operator" v="Skaubo AS" />
		<tag k="operator:type" v="private" />
	</node>
	<node id="-471" lat="59.9451" lon="10.5042">
		<tag k="amenity" v="kindergarten" />
		<tag k="capacity" v="50" />
		<tag k="max_age" v="5" />
		<tag k="min_age" v="1" />
		<tag k="name" v="Sleiverud barnehage" />
		<tag k="no-barnehage:nsrid" v="1012675" />
		<tag k="operator" v="Bærum kommune" />
		<tag k="operator:type" v="public" />
	</node>
	<node id="-470" lat="59.9092" lon="10.5946">
		<tag k="amenity" v="kindergarten" />
		<tag k="capacity" v="61" />
		<tag k="max_age" v="5" />
		<tag k="min_age" v="1" />
		<tag k="name" v="Skogveien barnehage" />
		<tag k="no-barnehage:nsrid" v="1012674" />
		<tag k="operator" v="Bærum kommune" />
		<tag k="operator:type" v="public" />
	</node>
	<node id="-469" lat="59.9283" lon="10.622">
		<tag k="amenity" v="kindergarten" />
		<tag k="capacity" v="40" />
		<tag k="max_age" v="5" />
		<tag k="min_age" v="1" />
		<tag k="name" v="Skaubo barnehage" />
		<tag k="no-barnehage:nsrid" v="1014988" />
		<tag k="operator" v="Skaubo AS" />
		<tag k="operator:type" v="private" />
	</node>
	<node id="-468" lat="59.94567" lon="10.49446">
		<tag k="amenity" v="kindergarten" />
		<tag k="capacity" v="15" />
		<tag k="contact:website" v="http://www.skarva-barnehage.no" />
		<tag k="max_age" v="5" />
		<tag k="min_age" v="1" />
		<tag k="name" v="Skarva grendehus avd. barnehage" />
		<tag k="no-barnehage:nsrid" v="1020048" />
		<tag k="operator" v="Skarva barnehage Sa" />
		<tag k="operator:type" v="private" />
	</node>
	<node id="-466" lat="59.93422" lon="10.62744">
		<tag k="amenity" v="kindergarten" />
		<tag k="capacity" v="45" />
		<tag k="contact:website" v="http://www.ruglandveien.no" />
		<tag k="max_age" v="5" />
		<tag k="min_age" v="1" />
		<tag k="name" v="Ruglandveien barnehage" />
		<tag k="no-barnehage:nsrid" v="1019874" />
		<tag k="operator" v="Ruglandsveien barnehage Sa" />
		<tag k="operator:type" v="private" />
	</node>
	<node id="-464" lat="59.9164" lon="10.59336">
		<tag k="amenity" v="kindergarten" />
		<tag k="capacity" v="92" />
		<tag k="max_age" v="5" />
		<tag k="min_age" v="1" />
		<tag k="name" v="Ringstabekk FUS barnehage" />
		<tag k="no-barnehage:nsrid" v="1021908" />
		<tag k="operator" v="Ringstabekk Fus barnehage AS" />
		<tag k="operator:type" v="private" />
	</node>
	<node id="-463" lat="59.9622" lon="10.474">
		<tag k="amenity" v="kindergarten" />
		<tag k="capacity" v="98" />
		<tag k="contact:website" v="http://reddiken.kanvas.no" />
		<tag k="max_age" v="5" />
		<tag k="min_age" v="1" />
		<tag k="name" v="Reddiken Kanvas-barnehage" />
		<tag k="no-barnehage:nsrid" v="1017683" />
		<tag k="operator" v="Stiftelsen Kanvas" />
		<tag k="operator:type" v="private" />
	</node>
	<node id="-461" lat="59.8957" lon="10.576">
		<tag k="amenity" v="kindergarten" />
		<tag k="capacity" v="51" />
		<tag k="max_age" v="5" />
		<tag k="min_age" v="1" />
		<tag k="name" v="Plahtejordet barnehage" />
		<tag k="no-barnehage:nsrid" v="1012659" />
		<tag k="operator" v="Bærum kommune" />
		<tag k="operator:type" v="public" />
	</node>
	<node id="-460" lat="59.9111" lon="10.4923">
		<tag k="amenity" v="kindergarten" />
		<tag k="capacity" v="63" />
		<tag k="max_age" v="5" />
		<tag k="min_age" v="1" />
		<tag k="name" v="Piruetten Kanvas-barnehage" />
		<tag k="no-barnehage:nsrid" v="1017704" />
		<tag k="operator" v="Stiftelsen Kanvas" />
		<tag k="operator:type" v="private" />
	</node>
	<node id="-459" lat="59.89171" lon="10.5607">
		<tag k="amenity" v="kindergarten" />
		<tag k="capacity" v="75" />
		<tag k="contact:website" v="http://www.oddenskogen.barnehage.no" />
		<tag k="max_age" v="5" />
		<tag k="min_age" v="1" />
		<tag k="name" v="Oddenskogen barnehage" />
		<tag k="no-barnehage:nsrid" v="1020289" />
		<tag k="operator" v="Oddenskogen barnehage Sa" />
		<tag k="operator:type" v="private" />
	</node>
	<node id="-439" lat="59.89723" lon="10.63238">
		<tag k="amenity" v="kindergarten" />
		<tag k="capacity" v="111" />
		<tag k="contact:website" v="http://sjoflyhavna.norlandiabarnehagene.no" />
		<tag k="max_age" v="5" />
		<tag k="min_age" v="1" />
		<tag k="name" v="Norlandia Sjøflyhavna avd. barnehage" />
		<tag k="no-barnehage:nsrid" v="1026201" />
		<tag k="operator" v="Norlandia Sjøflyhavna AS" />
		<tag k="operator:type" v="private" />
	</node>
	<node id="-437" lat="59.8885" lon="10.623">
		<tag k="amenity" v="kindergarten" />
		<tag k="capacity" v="110" />
		<tag k="max_age" v="5" />
		<tag k="min_age" v="1" />
		<tag k="name" v="Nansenparken barnehage" />
		<tag k="no-barnehage:nsrid" v="1012650" />
		<tag k="operator" v="Bærum kommune" />
		<tag k="operator:type" v="public" />
	</node>
	<node id="-436" lat="59.925" lon="10.588">
		<tag k="amenity" v="kindergarten" />
		<tag k="capacity" v="44" />
		<tag k="max_age" v="5" />
		<tag k="min_age" v="1" />
		<tag k="name" v="Nadderudskogen barnehage avd. Nadderud" />
		<tag k="no-barnehage:nsrid" v="1012641" />
		<tag k="operator" v="Bærum kommune" />
		<tag k="operator:type" v="public" />
	</node>
	<node id="-435" lat="59.9192" lon="10.5747">
		<tag k="amenity" v="kindergarten" />
		<tag k="capacity" v="40" />
		<tag k="contact:website" v="http://www.baerum.kommune.no/tjenester/barnehage/alle-barnehager/nadderudskogen-barnehage/" />
		<tag k="max_age" v="5" />
		<tag k="min_age" v="1" />
		<tag k="name" v="Nadderudskogen barnehage avd. Gjønnesskogen" />
		<tag k="no-barnehage:nsrid" v="1012671" />
		<tag k="operator" v="Bærum kommune" />
		<tag k="operator:type" v="public" />
	</node>
	<node id="-434" lat="59.91881" lon="10.57074">
		<tag k="amenity" v="kindergarten" />
		<tag k="capacity" v="20" />
		<tag k="max_age" v="5" />
		<tag k="min_age" v="1" />
		<tag k="name" v="Myrsnipa barnehage" />
		<tag k="no-barnehage:nsrid" v="1019681" />
		<tag k="operator" v="Myrsnipa Naturbarnehage Sa" />
		<tag k="operator:type" v="private" />
	</node>
	<node id="-432" lat="59.8978" lon="10.5075">
		<tag k="amenity" v="kindergarten" />
		<tag k="capacity" v="50" />
		<tag k="max_age" v="5" />
		<tag k="min_age" v="1" />
		<tag k="name" v="Martina Hansens Hospital personalbarnehagen" />
		<tag k="no-barnehage:nsrid" v="1025345" />
		<tag k="operator" v="Martina Hansens Hospital AS" />
		<tag k="operator:type" v="private" />
	</node>
	<node id="-431" lat="59.90158" lon="10.48965">
		<tag k="amenity" v="kindergarten" />
		<tag k="capacity" v="48" />
		<tag k="max_age" v="5" />
		<tag k="min_age" v="1" />
		<tag k="name" v="Marihøna barnehage" />
		<tag k="no-barnehage:nsrid" v="1020459" />
		<tag k="operator" v="Marihøna barnehage Sa" />
		<tag k="operator:type" v="private" />
	</node>
	<node id="-430" lat="59.9443" lon="10.5991">
		<tag k="amenity" v="kindergarten" />
		<tag k="capacity" v="103" />
		<tag k="max_age" v="5" />
		<tag k="min_age" v="1" />
		<tag k="name" v="Lønnås barnehage" />
		<tag k="no-barnehage:nsrid" v="1012655" />
		<tag k="operator" v="Bærum kommune" />
		<tag k="operator:type" v="public" />
	</node>
	<node id="-429" lat="59.90741" lon="10.6282">
		<tag k="amenity" v="kindergarten" />
		<tag k="capacity" v="92" />
		<tag k="contact:website" v="http://laringsverkstedet.no/barnehage/jar-idrettsbarnehage" />
		<tag k="max_age" v="5" />
		<tag k="min_age" v="1" />
		<tag k="name" v="Læringsverkstedet barnehage avd. Jar idrettsbarnehage" />
		<tag k="no-barnehage:nsrid" v="1022339" />
		<tag k="operator" v="Læringsverkstedet AS" />
		<tag k="operator:type" v="private" />
	</node>
	<node id="-428" lat="59.9164" lon="10.57347">
		<tag k="amenity" v="kindergarten" />
		<tag k="capacity" v="108" />
		<tag k="max_age" v="5" />
		<tag k="min_age" v="1" />
		<tag k="name" v="Læringsverkstedet barnehage avd. Haslum idrettsbarnehage" />
		<tag k="no-barnehage:nsrid" v="1021783" />
		<tag k="operator" v="Læringsverkstedet AS" />
		<tag k="operator:type" v="private" />
	</node>
	<node id="-427" lat="59.90741" lon="10.6282">
		<tag k="amenity" v="kindergarten" />
		<tag k="capacity" v="149" />
		<tag k="contact:website" v="http://www.laringsverkstdet.no" />
		<tag k="max_age" v="5" />
		<tag k="min_age" v="1" />
		<tag k="name" v="Læringsverkstedet barnehage avd. Fornebu idrettsbarnehage" />
		<tag k="no-barnehage:nsrid" v="1025942" />
		<tag k="operator" v="Læringsverkstedet AS" />
		<tag k="operator:type" v="private" />
	</node>
	<node id="-426" lat="59.90701" lon="10.62746">
		<tag k="amenity" v="kindergarten" />
		<tag k="capacity" v="99" />
		<tag k="max_age" v="5" />
		<tag k="min_age" v="1" />
		<tag k="name" v="Lysaker idrettsbarnehage" />
		<tag k="no-barnehage:nsrid" v="1022099" />
		<tag k="operator" v="Lysaker Idrettsbarnehage AS" />
		<tag k="operator:type" v="private" />
	</node>
	<node id="-425" lat="59.9421" lon="10.5046">
		<tag k="amenity" v="kindergarten" />
		<tag k="capacity" v="16" />
		<tag k="contact:website" v="http://www.lommedalenmenighetsbarnehage.no" />
		<tag k="max_age" v="5" />
		<tag k="min_age" v="1" />
		<tag k="name" v="Lommedalen menighets barnehage" />
		<tag k="no-barnehage:nsrid" v="1015789" />
		<tag k="operator" v="Lommedalen Sokn" />
		<tag k="operator:type" v="private" />
	</node>
	<node id="-424" lat="59.9553" lon="10.4814">
		<tag k="amenity" v="kindergarten" />
		<tag k="capacity" v="53" />
		<tag k="contact:website" v="http://www.baerum.kommune.no/tjenester/barnehage/alle-barnehager/lommedalen-barnehage/" />
		<tag k="max_age" v="5" />
		<tag k="min_age" v="1" />
		<tag k="name" v="Lommedalen barnehage avd. Krydsby" />
		<tag k="no-barnehage:nsrid" v="1012660" />
		<tag k="operator" v="Bærum kommune" />
		<tag k="operator:type" v="public" />
	</node>
	<node id="-423" lat="59.949" lon="10.5122">
		<tag k="amenity" v="kindergarten" />
		<tag k="capacity" v="39" />
		<tag k="contact:website" v="http://www.baerum.kommune.no/tjenester/barnehage/alle-barnehager/lommedalen-barnehage/" />
		<tag k="max_age" v="5" />
		<tag k="min_age" v="1" />
		<tag k="name" v="Lommedalen barnehage avd. Bærums Verk" />
		<tag k="no-barnehage:nsrid" v="1013242" />
		<tag k="operator" v="Bærum kommune" />
		<tag k="operator:type" v="public" />
	</node>
	<node id="-421" lat="59.8915" lon="10.49047">
		<tag k="amenity" v="kindergarten" />
		<tag k="capacity" v="18" />
		<tag k="contact:website" v="http://www.lillejong.no" />
		<tag k="max_age" v="2" />
		<tag k="min_age" v="1" />
		<tag k="name" v="Lille-jong barnehage" />
		<tag k="no-barnehage:nsrid" v="1020257" />
		<tag k="operator" v="Lille-Jong barnehage Sa" />
		<tag k="operator:type" v="private" />
	</node>
	<node id="-420" lat="59.9015" lon="10.5115">
		<tag k="amenity" v="kindergarten" />
		<tag k="capacity" v="41" />
		<tag k="max_age" v="5" />
		<tag k="min_age" v="1" />
		<tag k="name" v="Lillehagen barnehage avd. Helgerud" />
		<tag k="no-barnehage:nsrid" v="1012640" />
		<tag k="operator" v="Bærum kommune" />
		<tag k="operator:type" v="public" />
	</node>
	<node id="-419" lat="59.9051" lon="10.5446">
		<tag k="amenity" v="kindergarten" />
		<tag k="capacity" v="92" />
		<tag k="max_age" v="5" />
		<tag k="min_age" v="1" />
		<tag k="name" v="Lillehagen barnehage" />
		<tag k="no-barnehage:nsrid" v="1025348" />
		<tag k="operator" v="Bærum kommune" />
		<tag k="operator:type" v="public" />
	</node>
	<node id="-416" lat="59.93685" lon="10.61269">
		<tag k="amenity" v="kindergarten" />
		<tag k="capacity" v="25" />
		<tag k="max_age" v="5" />
		<tag k="min_age" v="1" />
		<tag k="name" v="Lijordet barnehage" />
		<tag k="no-barnehage:nsrid" v="1019517" />
		<tag k="operator" v="Eikeli-Lijordet Kvinne- og Familielag" />
		<tag k="operator:type" v="private" />
	</node>
	<node id="-414" lat="59.91803" lon="10.50526">
		<tag k="amenity" v="kindergarten" />
		<tag k="capacity" v="60" />
		<tag k="contact:website" v="http://www.kolsastrollet.no" />
		<tag k="max_age" v="5" />
		<tag k="min_age" v="1" />
		<tag k="name" v="Kolsåstrollet barnehage" />
		<tag k="no-barnehage:nsrid" v="1020661" />
		<tag k="operator" v="Kolsåstrollet barnehage" />
		<tag k="operator:type" v="private" />
	</node>
	<node id="-413" lat="59.9145" lon="10.5092">
		<tag k="amenity" v="kindergarten" />
		<tag k="capacity" v="28" />
		<tag k="max_age" v="2" />
		<tag k="min_age" v="1" />
		<tag k="name" v="Kolsås barnehage avd. Småbarnshuset" />
		<tag k="no-barnehage:nsrid" v="1017643" />
		<tag k="operator" v="Bærum kommune" />
		<tag k="operator:type" v="public" />
	</node>
	<node id="-412" lat="59.9145" lon="10.5092">
		<tag k="amenity" v="kindergarten" />
		<tag k="capacity" v="12" />
		<tag k="max_age" v="5" />
		<tag k="min_age" v="3" />
		<tag k="name" v="Kolsås barnehage avd. Knerten" />
		<tag k="no-barnehage:nsrid" v="1017642" />
		<tag k="operator" v="Bærum kommune" />
		<tag k="operator:type" v="public" />
	</node>
	<node id="-411" lat="59.9145" lon="10.5092">
		<tag k="amenity" v="kindergarten" />
		<tag k="capacity" v="59" />
		<tag k="max_age" v="5" />
		<tag k="min_age" v="1" />
		<tag k="name" v="Kolsås barnehage avd. Hovedhuset" />
		<tag k="no-barnehage:nsrid" v="1012657" />
		<tag k="operator" v="Bærum kommune" />
		<tag k="operator:type" v="public" />
	</node>
	<node id="-410" lat="59.89449" lon="10.57144">
		<tag k="amenity" v="kindergarten" />
		<tag k="capacity" v="27" />
		<tag k="contact:website" v="http://kloverenga.barnehage.no" />
		<tag k="max_age" v="5" />
		<tag k="min_age" v="1" />
		<tag k="name" v="Kløverenga barnehage" />
		<tag k="no-barnehage:nsrid" v="1020424" />
		<tag k="operator" v="Kløverenga Kvinne- og Familielag" />
		<tag k="operator:type" v="private" />
	</node>
	<node id="-409" lat="59.9065" lon="10.47487">
		<tag k="amenity" v="kindergarten" />
		<tag k="capacity" v="34" />
		<tag k="contact:website" v="http://www.kbfb.no" />
		<tag k="max_age" v="5" />
		<tag k="min_age" v="1" />
		<tag k="name" v="Kirkerudbakken barnehage" />
		<tag k="no-barnehage:nsrid" v="1019832" />
		<tag k="operator" v="Kirkerudbakken Friluftsbarnehage Sa" />
		<tag k="operator:type" v="private" />
	</node>
	<node id="-407" lat="59.8867" lon="10.509">
		<tag k="amenity" v="kindergarten" />
		<tag k="capacity" v="118" />
		<tag k="max_age" v="5" />
		<tag k="min_age" v="1" />
		<tag k="name" v="Jongskollen barnehage" />
		<tag k="no-barnehage:nsrid" v="1012666" />
		<tag k="operator" v="Bærum kommune" />
		<tag k="operator:type" v="public" />
	</node>
	<node id="-406" lat="59.9205" lon="10.6247">
		<tag k="amenity" v="kindergarten" />
		<tag k="capacity" v="68" />
		<tag k="max_age" v="5" />
		<tag k="min_age" v="1" />
		<tag k="name" v="Jarenga barnehage" />
		<tag k="no-barnehage:nsrid" v="1018329" />
		<tag k="operator" v="Bærum kommune" />
		<tag k="operator:type" v="public" />
	</node>
	<node id="-405" lat="59.91956" lon="10.6111">
		<tag k="amenity" v="kindergarten" />
		<tag k="capacity" v="57" />
		<tag k="max_age" v="5" />
		<tag k="min_age" v="1" />
		<tag k="name" v="Jar FUS barnehage" />
		<tag k="no-barnehage:nsrid" v="1021386" />
		<tag k="operator" v="Jar Fus barnehage AS" />
		<tag k="operator:type" v="private" />
	</node>
	<node id="-404" lat="59.89614" lon="10.52193">
		<tag k="amenity" v="kindergarten" />
		<tag k="capacity" v="23" />
		<tag k="max_age" v="5" />
		<tag k="min_age" v="1" />
		<tag k="name" v="International Montessori Preschool barnehage" />
		<tag k="no-barnehage:nsrid" v="1019677" />
		<tag k="operator" v="International Montessori Preschool Sa" />
		<tag k="operator:type" v="private" />
	</node>
	<node id="-403" lat="59.9026" lon="10.5732">
		<tag k="amenity" v="kindergarten" />
		<tag k="capacity" v="146" />
		<tag k="max_age" v="5" />
		<tag k="min_age" v="1" />
		<tag k="name" v="Høvik barnehage Hovedhus" />
		<tag k="no-barnehage:nsrid" v="1012653" />
		<tag k="operator" v="Bærum kommune" />
		<tag k="operator:type" v="public" />
	</node>
	<node id="-402" lat="59.9242" lon="10.5876">
		<tag k="amenity" v="kindergarten" />
		<tag k="capacity" v="96" />
		<tag k="contact:website" v="http://www.norlandiabarnehagene.no" />
		<tag k="max_age" v="5" />
		<tag k="min_age" v="1" />
		<tag k="name" v="Huskestua barnehage" />
		<tag k="no-barnehage:nsrid" v="1016579" />
		<tag k="operator" v="Norlandia Barnehagene AS" />
		<tag k="operator:type" v="private" />
	</node>
	<node id="-401" lat="59.8903" lon="10.6214">
		<tag k="amenity" v="kindergarten" />
		<tag k="capacity" v="118" />
		<tag k="max_age" v="5" />
		<tag k="min_age" v="1" />
		<tag k="name" v="Hundsund barnehage" />
		<tag k="no-barnehage:nsrid" v="1018349" />
		<tag k="operator" v="Bærum kommune" />
		<tag k="operator:type" v="public" />
	</node>
	<node id="-400" lat="59.9357" lon="10.5866">
		<tag k="amenity" v="kindergarten" />
		<tag k="capacity" v="90" />
		<tag k="max_age" v="5" />
		<tag k="min_age" v="1" />
		<tag k="name" v="Hosle barnehage avd. Hosle" />
		<tag k="no-barnehage:nsrid" v="1013176" />
		<tag k="operator" v="Bærum kommune" />
		<tag k="operator:type" v="public" />
	</node>
	<node id="-399" lat="59.91564" lon="10.46471">
		<tag k="amenity" v="kindergarten" />
		<tag k="capacity" v="171" />
		<tag k="max_age" v="5" />
		<tag k="min_age" v="1" />
		<tag k="name" v="Hornienga FUS barnehage" />
		<tag k="no-barnehage:nsrid" v="1021876" />
		<tag k="operator" v="Hornienga Fus barnehage AS" />
		<tag k="operator:type" v="private" />
	</node>
	<node id="-398" lat="59.947" lon="10.5147">
		<tag k="amenity" v="kindergarten" />
		<tag k="capacity" v="56" />
		<tag k="max_age" v="5" />
		<tag k="min_age" v="1" />
		<tag k="name" v="Helset barnehage avd. Skollerudveien" />
		<tag k="no-barnehage:nsrid" v="1012677" />
		<tag k="operator" v="Bærum kommune" />
		<tag k="operator:type" v="public" />
	</node>
	<node id="-397" lat="59.9439" lon="10.5135">
		<tag k="amenity" v="kindergarten" />
		<tag k="capacity" v="42" />
		<tag k="max_age" v="5" />
		<tag k="min_age" v="1" />
		<tag k="name" v="Helset barnehage avd. Helset" />
		<tag k="no-barnehage:nsrid" v="1012673" />
		<tag k="operator" v="Bærum kommune" />
		<tag k="operator:type" v="public" />
	</node>
	<node id="-396" lat="59.90288" lon="10.51409">
		<tag k="amenity" v="kindergarten" />
		<tag k="capacity" v="19" />
		<tag k="max_age" v="5" />
		<tag k="min_age" v="1" />
		<tag k="name" v="Helgerud menighets barnehage" />
		<tag k="no-barnehage:nsrid" v="1022023" />
		<tag k="operator" v="Helgerud Menighetsbarnehage AS" />
		<tag k="operator:type" v="private" />
	</node>
	<node id="-395" lat="59.914" lon="10.5682">
		<tag k="amenity" v="kindergarten" />
		<tag k="capacity" v="55" />
		<tag k="max_age" v="5" />
		<tag k="min_age" v="1" />
		<tag k="name" v="Haslum barnehage avd. Øvre Haslum" />
		<tag k="no-barnehage:nsrid" v="1016205" />
		<tag k="operator" v="Bærum kommune" />
		<tag k="operator:type" v="public" />
	</node>
	<node id="-394" lat="59.9147" lon="10.567">
		<tag k="amenity" v="kindergarten" />
		<tag k="capacity" v="28" />
		<tag k="max_age" v="2" />
		<tag k="min_age" v="1" />
		<tag k="name" v="Haslum barnehage avd. Nedre Haslum" />
		<tag k="no-barnehage:nsrid" v="1014204" />
		<tag k="operator" v="Bærum kommune" />
		<tag k="operator:type" v="public" />
	</node>
	<node id="-390" lat="59.94104" lon="10.49391">
		<tag k="amenity" v="kindergarten" />
		<tag k="capacity" v="11" />
		<tag k="max_age" v="5" />
		<tag k="min_age" v="1" />
		<tag k="name" v="Gulltoppen barnehage" />
		<tag k="no-barnehage:nsrid" v="1020166" />
		<tag k="operator" v="Gulltoppen barnehage" />
		<tag k="operator:type" v="private" />
	</node>
	<node id="-389" lat="59.941" lon="10.493">
		<tag k="amenity" v="kindergarten" />
		<tag k="capacity" v="52" />
		<tag k="max_age" v="5" />
		<tag k="min_age" v="1" />
		<tag k="name" v="Gullhaug barnehage" />
		<tag k="no-barnehage:nsrid" v="1012647" />
		<tag k="operator" v="Bærum kommune" />
		<tag k="operator:type" v="public" />
	</node>
	<node id="-388" lat="59.959" lon="10.627">
		<tag k="amenity" v="kindergarten" />
		<tag k="capacity" v="32" />
		<tag k="contact:website" v="http://www.baerum.kommune.no/grini" />
		<tag k="max_age" v="5" />
		<tag k="min_age" v="1" />
		<tag k="name" v="Grini barnehage avd. Fossum" />
		<tag k="no-barnehage:nsrid" v="1012668" />
		<tag k="operator" v="Bærum kommune" />
		<tag k="operator:type" v="public" />
	</node>
	<node id="-387" lat="59.9474" lon="10.6212">
		<tag k="amenity" v="kindergarten" />
		<tag k="capacity" v="55" />
		<tag k="contact:website" v="http://www.baerum.kommune.no/grini" />
		<tag k="max_age" v="5" />
		<tag k="min_age" v="1" />
		<tag k="name" v="Grini barnehage avd. Briskehaugen" />
		<tag k="no-barnehage:nsrid" v="1012665" />
		<tag k="operator" v="Bærum kommune" />
		<tag k="operator:type" v="public" />
	</node>
	<node id="-385" lat="59.94442" lon="10.49399">
		<tag k="amenity" v="kindergarten" />
		<tag k="capacity" v="53" />
		<tag k="max_age" v="5" />
		<tag k="min_age" v="1" />
		<tag k="name" v="Grindaberget barnehage" />
		<tag k="no-barnehage:nsrid" v="1020281" />
		<tag k="operator" v="Grindaberget barnehage Sa" />
		<tag k="operator:type" v="private" />
	</node>
	<node id="-384" lat="59.9342" lon="10.6219">
		<tag k="amenity" v="kindergarten" />
		<tag k="capacity" v="15" />
		<tag k="max_age" v="5" />
		<tag k="min_age" v="1" />
		<tag k="name" v="Grav barnehage avd. Øvrevoll" />
		<tag k="no-barnehage:nsrid" v="1015528" />
		<tag k="operator" v="Bærum kommune" />
		<tag k="operator:type" v="public" />
	</node>
	<node id="-383" lat="59.932" lon="10.6025">
		<tag k="amenity" v="kindergarten" />
		<tag k="capacity" v="54" />
		<tag k="contact:website" v="http://www.baerum.kommune.no/tjenester/barnehage/alle-barnehager/grav-barnehage/" />
		<tag k="max_age" v="5" />
		<tag k="min_age" v="1" />
		<tag k="name" v="Grav barnehage avd. Liom" />
		<tag k="no-barnehage:nsrid" v="1012646" />
		<tag k="operator" v="Bærum kommune" />
		<tag k="operator:type" v="public" />
	</node>
	<node id="-382" lat="59.932" lon="10.4824">
		<tag k="amenity" v="kindergarten" />
		<tag k="capacity" v="18" />
		<tag k="max_age" v="5" />
		<tag k="min_age" v="3" />
		<tag k="name" v="Gommerud barnehage avd. Idrett" />
		<tag k="no-barnehage:nsrid" v="1017893" />
		<tag k="operator" v="Bærum kommune" />
		<tag k="operator:type" v="public" />
	</node>
	<node id="-381" lat="59.9286" lon="10.4813">
		<tag k="amenity" v="kindergarten" />
		<tag k="capacity" v="90" />
		<tag k="max_age" v="5" />
		<tag k="min_age" v="1" />
		<tag k="name" v="Gommerud barnehage" />
		<tag k="no-barnehage:nsrid" v="1012644" />
		<tag k="operator" v="Bærum kommune" />
		<tag k="operator:type" v="public" />
	</node>
	<node id="-380" lat="59.9258" lon="10.4996">
		<tag k="amenity" v="kindergarten" />
		<tag k="capacity" v="12" />
		<tag k="max_age" v="5" />
		<tag k="min_age" v="3" />
		<tag k="name" v="Glitre barnehage avd. Soppen" />
		<tag k="no-barnehage:nsrid" v="1018499" />
		<tag k="operator" v="Bærum kommune" />
		<tag k="operator:type" v="public" />
	</node>
	<node id="-379" lat="59.9295" lon="10.5012">
		<tag k="amenity" v="kindergarten" />
		<tag k="capacity" v="44" />
		<tag k="max_age" v="5" />
		<tag k="min_age" v="1" />
		<tag k="name" v="Glitre barnehage avd. Løkenlia" />
		<tag k="no-barnehage:nsrid" v="1012661" />
		<tag k="operator" v="Bærum kommune" />
		<tag k="operator:type" v="public" />
	</node>
	<node id="-378" lat="59.9276" lon="10.4917">
		<tag k="amenity" v="kindergarten" />
		<tag k="capacity" v="53" />
		<tag k="max_age" v="5" />
		<tag k="min_age" v="1" />
		<tag k="name" v="Glitre barnehage avd. Langeleiken" />
		<tag k="no-barnehage:nsrid" v="1012658" />
		<tag k="operator" v="Bærum kommune" />
		<tag k="operator:type" v="public" />
	</node>
	<node id="-377" lat="59.9297" lon="10.4876">
		<tag k="amenity" v="kindergarten" />
		<tag k="capacity" v="57" />
		<tag k="max_age" v="5" />
		<tag k="min_age" v="1" />
		<tag k="name" v="Glitre barnehage avd. Bakkeplassen" />
		<tag k="no-barnehage:nsrid" v="1012654" />
		<tag k="operator" v="Bærum kommune" />
		<tag k="operator:type" v="public" />
	</node>
	<node id="-376" lat="59.8928" lon="10.569">
		<tag k="amenity" v="kindergarten" />
		<tag k="capacity" v="104" />
		<tag k="max_age" v="5" />
		<tag k="min_age" v="1" />
		<tag k="name" v="Glassverket barnehage" />
		<tag k="no-barnehage:nsrid" v="1016578" />
		<tag k="operator" v="Norlandia Barnehagene AS" />
		<tag k="operator:type" v="private" />
	</node>
	<node id="-375" lat="59.9089" lon="10.53031">
		<tag k="amenity" v="kindergarten" />
		<tag k="capacity" v="55" />
		<tag k="contact:website" v="http://www.gjettumbarnehage.no" />
		<tag k="max_age" v="5" />
		<tag k="min_age" v="1" />
		<tag k="name" v="Gjettum barnehage" />
		<tag k="no-barnehage:nsrid" v="1020205" />
		<tag k="operator" v="Gjettum barnehage Sa" />
		<tag k="operator:type" v="private" />
	</node>
	<node id="-374" lat="59.9135" lon="10.5922">
		<tag k="amenity" v="kindergarten" />
		<tag k="capacity" v="8" />
		<tag k="max_age" v="5" />
		<tag k="min_age" v="1" />
		<tag k="name" v="Gartnerveien barnehage og Habilitering" />
		<tag k="no-barnehage:nsrid" v="1015532" />
		<tag k="operator" v="N.K.S. Gartnerveien barnehage AS" />
		<tag k="operator:type" v="private" />
	</node>
	<node id="-373" lat="59.9404" lon="10.6106">
		<tag k="amenity" v="kindergarten" />
		<tag k="capacity" v="41" />
		<tag k="max_age" v="5" />
		<tag k="min_age" v="1" />
		<tag k="name" v="Fururabben barnehage" />
		<tag k="no-barnehage:nsrid" v="1025354" />
		<tag k="operator" v="Bærum kommune" />
		<tag k="operator:type" v="public" />
	</node>
	<node id="-372" lat="59.9222" lon="10.5773">
		<tag k="amenity" v="kindergarten" />
		<tag k="capacity" v="41" />
		<tag k="contact:website" v="http://www.furubarnehage.no" />
		<tag k="max_age" v="5" />
		<tag k="min_age" v="1" />
		<tag k="name" v="Furu barnehage" />
		<tag k="no-barnehage:nsrid" v="1013142" />
		<tag k="operator" v="Skaubo AS" />
		<tag k="operator:type" v="private" />
	</node>
	<node id="-371" lat="59.89443" lon="10.61135">
		<tag k="amenity" v="kindergarten" />
		<tag k="capacity" v="117" />
		<tag k="max_age" v="5" />
		<tag k="min_age" v="1" />
		<tag k="name" v="Forneburingen barnehage" />
		<tag k="no-barnehage:nsrid" v="1026459" />
		<tag k="operator" v="Bærum kommune" />
		<tag k="operator:type" v="public" />
	</node>
	<node id="-370" lat="59.87706" lon="10.60561">
		<tag k="amenity" v="kindergarten" />
		<tag k="capacity" v="36" />
		<tag k="max_age" v="5" />
		<tag k="min_age" v="1" />
		<tag k="name" v="Flåklypa barnehage" />
		<tag k="no-barnehage:nsrid" v="1020391" />
		<tag k="operator" v="Snarøya Kvinne- og Familielag" />
		<tag k="operator:type" v="private" />
	</node>
	<node id="-369" lat="59.89768" lon="10.57666">
		<tag k="amenity" v="kindergarten" />
		<tag k="capacity" v="147" />
		<tag k="contact:website" v="http://www.fjordveienbarnehage.no" />
		<tag k="max_age" v="5" />
		<tag k="min_age" v="1" />
		<tag k="name" v="Fjordveien barnehage" />
		<tag k="no-barnehage:nsrid" v="1026021" />
		<tag k="operator" v="Ulna AS" />
		<tag k="operator:type" v="private" />
	</node>
	<node id="-368" lat="59.8978" lon="10.5141">
		<tag k="amenity" v="kindergarten" />
		<tag k="capacity" v="58" />
		<tag k="contact:website" v="http://evje.espira.no" />
		<tag k="max_age" v="5" />
		<tag k="min_age" v="1" />
		<tag k="name" v="Espira Evje barnehage avd. Skogholtet" />
		<tag k="no-barnehage:nsrid" v="1015768" />
		<tag k="operator" v="Espira Evje AS" />
		<tag k="operator:type" v="private" />
	</node>
	<node id="-367" lat="59.8978" lon="10.5134">
		<tag k="amenity" v="kindergarten" />
		<tag k="capacity" v="56" />
		<tag k="max_age" v="5" />
		<tag k="min_age" v="1" />
		<tag k="name" v="Espira Evje barnehage avd. Nøtteskogen" />
		<tag k="no-barnehage:nsrid" v="1015767" />
		<tag k="operator" v="Espira Evje AS" />
		<tag k="operator:type" v="private" />
	</node>
	<node id="-366" lat="59.8974" lon="10.5126">
		<tag k="amenity" v="kindergarten" />
		<tag k="capacity" v="53" />
		<tag k="contact:website" v="http://evje.espira.no" />
		<tag k="max_age" v="5" />
		<tag k="min_age" v="1" />
		<tag k="name" v="Espira Evje barnehage avd. Blåveisbakken" />
		<tag k="no-barnehage:nsrid" v="1015769" />
		<tag k="operator" v="Espira Evje AS" />
		<tag k="operator:type" v="private" />
	</node>
	<node id="-365" lat="59.89683" lon="10.52493">
		<tag k="amenity" v="kindergarten" />
		<tag k="capacity" v="49" />
		<tag k="contact:website" v="http://epleskogen.barnehage.no" />
		<tag k="max_age" v="5" />
		<tag k="min_age" v="1" />
		<tag k="name" v="Epleskogen barnehage" />
		<tag k="no-barnehage:nsrid" v="1020504" />
		<tag k="operator" v="Epleskogen barnehage Sa" />
		<tag k="operator:type" v="private" />
	</node>
	<node id="-364" lat="59.8969" lon="10.4927">
		<tag k="amenity" v="kindergarten" />
		<tag k="capacity" v="52" />
		<tag k="contact:website" v="http://www.baerum.kommune.no" />
		<tag k="max_age" v="5" />
		<tag k="min_age" v="1" />
		<tag k="name" v="Emma Hjorth barnehage" />
		<tag k="no-barnehage:nsrid" v="1013177" />
		<tag k="operator" v="Bærum kommune" />
		<tag k="operator:type" v="public" />
	</node>
	<node id="-363" lat="59.92493" lon="10.57141">
		<tag k="amenity" v="kindergarten" />
		<tag k="capacity" v="80" />
		<tag k="max_age" v="5" />
		<tag k="min_age" v="1" />
		<tag k="name" v="Ekrekroken barnehage" />
		<tag k="no-barnehage:nsrid" v="1020551" />
		<tag k="operator" v="Ekrekroken barnehage Sa" />
		<tag k="operator:type" v="private" />
	</node>
	<node id="-362" lat="59.91002" lon="10.57226">
		<tag k="amenity" v="kindergarten" />
		<tag k="capacity" v="54" />
		<tag k="max_age" v="5" />
		<tag k="min_age" v="1" />
		<tag k="name" v="Ekebergparken barnehage" />
		<tag k="no-barnehage:nsrid" v="1019691" />
		<tag k="operator" v="Gjønnes Kvinne- og Familielag" />
		<tag k="operator:type" v="private" />
	</node>
	<node id="-361" lat="59.94682" lon="10.62058">
		<tag k="amenity" v="kindergarten" />
		<tag k="capacity" v="55" />
		<tag k="contact:website" v="http://www.eiksmarkabarnehage.no" />
		<tag k="max_age" v="5" />
		<tag k="min_age" v="1" />
		<tag k="name" v="Eiksmarka foreldrelagsbarnehage" />
		<tag k="no-barnehage:nsrid" v="1020384" />
		<tag k="operator" v="Eiksmarka Foreldrelagsbarnehage Sa" />
		<tag k="operator:type" v="private" />
	</node>
	<node id="-360" lat="59.9349" lon="10.5998">
		<tag k="amenity" v="kindergarten" />
		<tag k="capacity" v="93" />
		<tag k="max_age" v="5" />
		<tag k="min_age" v="1" />
		<tag k="name" v="Eikelia barnehage" />
		<tag k="no-barnehage:nsrid" v="1012652" />
		<tag k="operator" v="Bærum kommune" />
		<tag k="operator:type" v="public" />
	</node>
	<node id="-359" lat="59.94668" lon="10.61922">
		<tag k="amenity" v="kindergarten" />
		<tag k="capacity" v="34" />
		<tag k="max_age" v="5" />
		<tag k="min_age" v="1" />
		<tag k="name" v="Eikebo barnehage" />
		<tag k="no-barnehage:nsrid" v="1019649" />
		<tag k="operator" v="Eikebo barnehage Sa" />
		<tag k="operator:type" v="private" />
	</node>
	<node id="-358" lat="59.9014" lon="10.5042">
		<tag k="amenity" v="kindergarten" />
		<tag k="capacity" v="84" />
		<tag k="max_age" v="5" />
		<tag k="min_age" v="1" />
		<tag k="name" v="Dønski barnehage" />
		<tag k="no-barnehage:nsrid" v="1018583" />
		<tag k="operator" v="Bærum kommune" />
		<tag k="operator:type" v="public" />
	</node>
	<node id="-357" lat="59.89384" lon="10.54141">
		<tag k="amenity" v="kindergarten" />
		<tag k="capacity" v="17" />
		<tag k="max_age" v="5" />
		<tag k="min_age" v="1" />
		<tag k="name" v="Damstua barnehage" />
		<tag k="no-barnehage:nsrid" v="1019643" />
		<tag k="operator" v="Blommenholm Familieforening" />
		<tag k="operator:type" v="private" />
	</node>
	<node id="-356" lat="59.93224" lon="10.56185">
		<tag k="amenity" v="kindergarten" />
		<tag k="capacity" v="97" />
		<tag k="max_age" v="5" />
		<tag k="min_age" v="1" />
		<tag k="name" v="Bærumsmarka FUS barnehage" />
		<tag k="no-barnehage:nsrid" v="1021732" />
		<tag k="operator" v="Bærumsmarka Fus barnehage AS" />
		<tag k="operator:type" v="private" />
	</node>
	<node id="-355" lat="59.90828" lon="10.52566">
		<tag k="amenity" v="kindergarten" />
		<tag k="capacity" v="27" />
		<tag k="contact:website" v="http://www.blaveiskroken.no" />
		<tag k="max_age" v="5" />
		<tag k="min_age" v="1" />
		<tag k="name" v="Blåveiskroken barnehage" />
		<tag k="no-barnehage:nsrid" v="1019854" />
		<tag k="operator" v="Blåveiskroken barnehage" />
		<tag k="operator:type" v="private" />
	</node>
	<node id="-352" lat="59.89389" lon="10.54079">
		<tag k="amenity" v="kindergarten" />
		<tag k="capacity" v="14" />
		<tag k="max_age" v="5" />
		<tag k="min_age" v="1" />
		<tag k="name" v="Blommenholm barnehage" />
		<tag k="no-barnehage:nsrid" v="1020367" />
		<tag k="operator" v="Blommenholm barnehage Sa" />
		<tag k="operator:type" v="private" />
	</node>
	<node id="-351" lat="59.93026" lon="10.44888">
		<tag k="amenity" v="kindergarten" />
		<tag k="capacity" v="25" />
		<tag k="contact:website" v="http://berghoff.no" />
		<tag k="max_age" v="5" />
		<tag k="min_age" v="1" />
		<tag k="name" v="Berghoff barnehage" />
		<tag k="no-barnehage:nsrid" v="1019786" />
		<tag k="operator" v="Stiftelsen Berghoff barnehage" />
		<tag k="operator:type" v="private" />
	</node>
	<node id="-350" lat="59.9274" lon="10.4718">
		<tag k="amenity" v="kindergarten" />
		<tag k="capacity" v="98" />
		<tag k="max_age" v="5" />
		<tag k="min_age" v="1" />
		<tag k="name" v="Berger barnehage" />
		<tag k="no-barnehage:nsrid" v="1012648" />
		<tag k="operator" v="Bærum kommune" />
		<tag k="operator:type" v="public" />
	</node>
	<node id="-349" lat="59.9204" lon="10.5864">
		<tag k="amenity" v="kindergarten" />
		<tag k="capacity" v="156" />
		<tag k="max_age" v="5" />
		<tag k="min_age" v="1" />
		<tag k="name" v="Bekkestua Kanvas-barnehage" />
		<tag k="no-barnehage:nsrid" v="1017178" />
		<tag k="operator" v="Stiftelsen Kanvas" />
		<tag k="operator:type" v="private" />
	</node>
	<node id="-348" lat="59.93407" lon="10.47034">
		<tag k="amenity" v="kindergarten" />
		<tag k="capacity" v="14" />
		<tag k="max_age" v="5" />
		<tag k="min_age" v="1" />
		<tag k="name" v="Barnelåven Janne Rosenlind" />
		<tag k="no-barnehage:nsrid" v="1019785" />
		<tag k="operator" v="Barnelåven Janne Rosenlind" />
		<tag k="operator:type" v="private" />
	</node>
	<node id="-347" lat="59.9342" lon="10.6246">
		<tag k="amenity" v="kindergarten" />
		<tag k="capacity" v="31" />
		<tag k="max_age" v="5" />
		<tag k="min_age" v="1" />
		<tag k="name" v="Barnehagenvår Lindebergveien" />
		<tag k="no-barnehage:nsrid" v="1015657" />
		<tag k="operator" v="Mazut AS" />
		<tag k="operator:type" v="private" />
	</node>
	<node id="-346" lat="59.956" lon="10.6069">
		<tag k="amenity" v="kindergarten" />
		<tag k="capacity" v="63" />
		<tag k="max_age" v="5" />
		<tag k="min_age" v="1" />
		<tag k="name" v="Barnehagenvår Fossum terrasse" />
		<tag k="no-barnehage:nsrid" v="1013024" />
		<tag k="operator" v="Basaltveien 20 AS" />
		<tag k="operator:type" v="private" />
	</node>
	<node id="-345" lat="59.959" lon="10.6265">
		<tag k="amenity" v="kindergarten" />
		<tag k="capacity" v="30" />
		<tag k="max_age" v="5" />
		<tag k="min_age" v="1" />
		<tag k="name" v="Barnehagenvår Fossum grendehus" />
		<tag k="no-barnehage:nsrid" v="1015658" />
		<tag k="operator" v="Mazut AS" />
		<tag k="operator:type" v="private" />
	</node>
	<node id="-344" lat="59.94175" lon="10.58616">
		<tag k="amenity" v="kindergarten" />
		<tag k="capacity" v="109" />
		<tag k="max_age" v="5" />
		<tag k="min_age" v="1" />
		<tag k="name" v="Barnehagenvår Hosletoppen" />
		<tag k="no-barnehage:nsrid" v="1025883" />
		<tag k="operator" v="Theas Bærum AS" />
		<tag k="operator:type" v="private" />
	</node>
	<node id="-343" lat="59.90748" lon="10.63089">
		<tag k="amenity" v="kindergarten" />
		<tag k="capacity" v="54" />
		<tag k="contact:website" v="http://www.vier.no" />
		<tag k="max_age" v="5" />
		<tag k="min_age" v="1" />
		<tag k="name" v="Barnehagen Vier" />
		<tag k="no-barnehage:nsrid" v="1020960" />
		<tag k="operator" v="Barnehagen Vier Sa" />
		<tag k="operator:type" v="private" />
	</node>
	<node id="-342" lat="59.90688" lon="10.57962">
		<tag k="amenity" v="kindergarten" />
		<tag k="capacity" v="31" />
		<tag k="max_age" v="5" />
		<tag k="min_age" v="1" />
		<tag k="name" v="Barnas Hus" />
		<tag k="no-barnehage:nsrid" v="1020606" />
		<tag k="operator" v="Barnas Hus AS" />
		<tag k="operator:type" v="private" />
	</node>
	<node id="-341" lat="59.8943" lon="10.4902">
		<tag k="amenity" v="kindergarten" />
		<tag k="capacity" v="27" />
		<tag k="max_age" v="5" />
		<tag k="min_age" v="1" />
		<tag k="name" v="Arba avd. Kløverbakken barnehage" />
		<tag k="no-barnehage:nsrid" v="1014909" />
		<tag k="operator" v="Arba AS" />
		<tag k="operator:type" v="private" />
	</node>
	<node id="-340" lat="59.9123" lon="10.6022">
		<tag k="amenity" v="kindergarten" />
		<tag k="capacity" v="58" />
		<tag k="contact:website" v="http://aktivitetsbarnehagen.barnehage.no/Hjem" />
		<tag k="max_age" v="5" />
		<tag k="min_age" v="1" />
		<tag k="name" v="Aktivitetsbarnehagen" />
		<tag k="no-barnehage:nsrid" v="1021009" />
		<tag k="operator" v="Aktivitetsbarnehagen AS" />
		<tag k="operator:type" v="private" />
	</node>
</osm>
