<?xml version="1.0" encoding="UTF-8"?>
<osm generator="osmapis" version="0.6">
	<node id="-364" lat="59.92282" lon="10.55887">
		<tag k="amenity" v="kindergarten" />
		<tag k="capacity" v="8" />
		<tag k="max_age" v="5" />
		<tag k="min_age" v="1" />
		<tag k="name" v="Blåklokken Fam barnehage avd. Haslum terrasse" />
		<tag k="no-barnehage:nsrid" v="1013267" />
		<tag k="operator" v="Blåklokken Fam barnehage Rehnvall" />
		<tag k="operator:type" v="private" />
	</node>
	<node id="-485" lat="59.88129" lon="10.6099">
		<tag k="amenity" v="kindergarten" />
		<tag k="capacity" v="8" />
		<tag k="max_age" v="2" />
		<tag k="min_age" v="1" />
		<tag k="name" v="Tusseladden familiebarnehage" />
		<tag k="no-barnehage:nsrid" v="1020842" />
		<tag k="operator" v="Tusseladden Familiebarnehage Ans" />
		<tag k="operator:type" v="private" />
	</node>
	<node id="-484" lat="59.90593" lon="10.56926">
		<tag k="amenity" v="kindergarten" />
		<tag k="capacity" v="8" />
		<tag k="max_age" v="2" />
		<tag k="min_age" v="1" />
		<tag k="name" v="Trygg Start familiebarnehage avd. Ramstadåsveien" />
		<tag k="no-barnehage:nsrid" v="1017937" />
		<tag k="operator" v="Trygg Start V/håkon Sletnes" />
		<tag k="operator:type" v="private" />
	</node>
	<node id="-483" lat="59.93847" lon="10.58718">
		<tag k="amenity" v="kindergarten" />
		<tag k="capacity" v="8" />
		<tag k="max_age" v="2" />
		<tag k="min_age" v="1" />
		<tag k="name" v="Trygg Start familiebarnehage avd. Grevlingåsen" />
		<tag k="no-barnehage:nsrid" v="1018323" />
		<tag k="operator" v="Trygg Start V/håkon Sletnes" />
		<tag k="operator:type" v="private" />
	</node>
	<node id="-482" lat="59.90049" lon="10.55772">
		<tag k="amenity" v="kindergarten" />
		<tag k="capacity" v="8" />
		<tag k="max_age" v="2" />
		<tag k="min_age" v="1" />
		<tag k="name" v="Trygg Start familiebarnehage avd. Blommenholmveien" />
		<tag k="no-barnehage:nsrid" v="1014309" />
		<tag k="operator" v="Trygg Start V/håkon Sletnes" />
		<tag k="operator:type" v="private" />
	</node>
	<node id="-481" lat="59.89401" lon="10.48868">
		<tag k="amenity" v="kindergarten" />
		<tag k="capacity" v="8" />
		<tag k="max_age" v="2" />
		<tag k="min_age" v="1" />
		<tag k="name" v="Trygg Start familebarnehage avd. Emma Hjort" />
		<tag k="no-barnehage:nsrid" v="1020843" />
		<tag k="operator" v="Trygg Start V/håkon Sletnes" />
		<tag k="operator:type" v="private" />
	</node>
	<node id="-475" lat="59.90491" lon="10.60419">
		<tag k="amenity" v="kindergarten" />
		<tag k="capacity" v="8" />
		<tag k="max_age" v="2" />
		<tag k="min_age" v="1" />
		<tag k="name" v="Sukkerspinn familiebarnehage" />
		<tag k="no-barnehage:nsrid" v="1021682" />
		<tag k="operator" v="Sukkerspinn Familiebarnehage Da" />
		<tag k="operator:type" v="private" />
	</node>
	<node id="-470" lat="59.91678" lon="10.61663">
		<tag k="amenity" v="kindergarten" />
		<tag k="capacity" v="8" />
		<tag k="max_age" v="2" />
		<tag k="min_age" v="1" />
		<tag k="name" v="Storeng familiebarnehage" />
		<tag k="no-barnehage:nsrid" v="1020940" />
		<tag k="operator" v="Storeng Familiebarnehage Da" />
		<tag k="operator:type" v="private" />
	</node>
	<node id="-462" lat="59.90993" lon="10.46751">
		<tag k="amenity" v="kindergarten" />
		<tag k="capacity" v="4" />
		<tag k="max_age" v="2" />
		<tag k="min_age" v="1" />
		<tag k="name" v="Rådyrhagen" />
		<tag k="no-barnehage:nsrid" v="1022267" />
		<tag k="operator" v="Rådyrhagen AS" />
		<tag k="operator:type" v="private" />
	</node>
	<node id="-461" lat="59.9173" lon="10.5642">
		<tag k="amenity" v="kindergarten" />
		<tag k="capacity" v="8" />
		<tag k="max_age" v="2" />
		<tag k="min_age" v="1" />
		<tag k="name" v="Rugekassen avd. Bærum" />
		<tag k="no-barnehage:nsrid" v="1013423" />
		<tag k="operator" v="Kapelo AS" />
		<tag k="operator:type" v="private" />
	</node>
	<node id="-458" lat="59.90825" lon="10.55829">
		<tag k="amenity" v="kindergarten" />
		<tag k="capacity" v="8" />
		<tag k="max_age" v="2" />
		<tag k="min_age" v="1" />
		<tag k="name" v="Prestekragen familiebarnehage" />
		<tag k="no-barnehage:nsrid" v="1020271" />
		<tag k="operator" v="Prestekragen Familiebarnehage V/ Anette Øverås" />
		<tag k="operator:type" v="private" />
	</node>
	<node id="-454" lat="59.94664" lon="10.60668">
		<tag k="amenity" v="kindergarten" />
		<tag k="capacity" v="8" />
		<tag k="contact:website" v="http://www.Familiebarnehage.no" />
		<tag k="max_age" v="2" />
		<tag k="min_age" v="1" />
		<tag k="name" v="Nøtteliten familiebarnehager avd. Østeråsbakken" />
		<tag k="no-barnehage:nsrid" v="1025448" />
		<tag k="operator" v="Nøtteliten Familiebarnehager AS" />
		<tag k="operator:type" v="private" />
	</node>
	<node id="-453" lat="59.92" lon="10.56926">
		<tag k="amenity" v="kindergarten" />
		<tag k="capacity" v="8" />
		<tag k="contact:website" v="http://www.Familiebarnehage.no" />
		<tag k="max_age" v="2" />
		<tag k="min_age" v="1" />
		<tag k="name" v="Nøtteliten familiebarnehager avd. Tveterlia" />
		<tag k="no-barnehage:nsrid" v="1015598" />
		<tag k="operator" v="Nøtteliten Familiebarnehager AS" />
		<tag k="operator:type" v="private" />
	</node>
	<node id="-452" lat="59.88671" lon="10.62147">
		<tag k="amenity" v="kindergarten" />
		<tag k="capacity" v="6" />
		<tag k="contact:website" v="http://www.Familiebarnehage.no" />
		<tag k="max_age" v="2" />
		<tag k="min_age" v="1" />
		<tag k="name" v="Nøtteliten familiebarnehager avd. Snarøyveien" />
		<tag k="no-barnehage:nsrid" v="1015212" />
		<tag k="operator" v="Nøtteliten Familiebarnehager AS" />
		<tag k="operator:type" v="private" />
	</node>
	<node id="-451" lat="59.9026" lon="10.54252">
		<tag k="amenity" v="kindergarten" />
		<tag k="capacity" v="8" />
		<tag k="contact:website" v="http://www.Familiebarnehage.no" />
		<tag k="max_age" v="2" />
		<tag k="min_age" v="1" />
		<tag k="name" v="Nøtteliten familiebarnehager avd. Lillehagveien" />
		<tag k="no-barnehage:nsrid" v="1013492" />
		<tag k="operator" v="Nøtteliten Familiebarnehager AS" />
		<tag k="operator:type" v="private" />
	</node>
	<node id="-450" lat="59.91121" lon="10.57638">
		<tag k="amenity" v="kindergarten" />
		<tag k="capacity" v="8" />
		<tag k="contact:website" v="http://www.Familiebarnehage.no" />
		<tag k="max_age" v="2" />
		<tag k="min_age" v="1" />
		<tag k="name" v="Nøtteliten familiebarnehager avd. Høvikveien" />
		<tag k="no-barnehage:nsrid" v="1025449" />
		<tag k="operator" v="Nøtteliten Familiebarnehager AS" />
		<tag k="operator:type" v="private" />
	</node>
	<node id="-449" lat="59.94904" lon="10.5171">
		<tag k="amenity" v="kindergarten" />
		<tag k="capacity" v="6" />
		<tag k="contact:website" v="http://www.Familiebarnehage.no" />
		<tag k="max_age" v="2" />
		<tag k="min_age" v="1" />
		<tag k="name" v="Nøtteliten familiebarnehager avd. Hestekleiva" />
		<tag k="no-barnehage:nsrid" v="1015601" />
		<tag k="operator" v="Nøtteliten Familiebarnehager AS" />
		<tag k="operator:type" v="private" />
	</node>
	<node id="-448" lat="59.93576" lon="10.62041">
		<tag k="amenity" v="kindergarten" />
		<tag k="capacity" v="8" />
		<tag k="contact:website" v="http://www.Familiebarnehage.no" />
		<tag k="max_age" v="2" />
		<tag k="min_age" v="1" />
		<tag k="name" v="Nøtteliten familiebarnehager avd. Velliveien" />
		<tag k="no-barnehage:nsrid" v="1016360" />
		<tag k="operator" v="Nøtteliten Familiebarnehager AS" />
		<tag k="operator:type" v="private" />
	</node>
	<node id="-447" lat="59.90195" lon="10.59562">
		<tag k="amenity" v="kindergarten" />
		<tag k="capacity" v="7" />
		<tag k="contact:website" v="http://www.familiebarnehage.no" />
		<tag k="max_age" v="2" />
		<tag k="min_age" v="1" />
		<tag k="name" v="Nøtteliten familiebarnehager avd. Strandalleen" />
		<tag k="no-barnehage:nsrid" v="1025815" />
		<tag k="operator" v="Nøtteliten Familiebarnehager AS" />
		<tag k="operator:type" v="private" />
	</node>
	<node id="-446" lat="59.91902" lon="10.62208">
		<tag k="amenity" v="kindergarten" />
		<tag k="capacity" v="8" />
		<tag k="contact:website" v="http://www.Familiebarnehage.no" />
		<tag k="max_age" v="2" />
		<tag k="min_age" v="1" />
		<tag k="name" v="Nøtteliten familiebarnehager avd. Storengveien" />
		<tag k="no-barnehage:nsrid" v="1015599" />
		<tag k="operator" v="Nøtteliten Familiebarnehager AS" />
		<tag k="operator:type" v="private" />
	</node>
	<node id="-445" lat="59.90277" lon="10.5997">
		<tag k="amenity" v="kindergarten" />
		<tag k="capacity" v="8" />
		<tag k="contact:website" v="http://www.Familiebarnehage.no" />
		<tag k="max_age" v="2" />
		<tag k="min_age" v="1" />
		<tag k="name" v="Nøtteliten familiebarnehager avd. Micheletvei" />
		<tag k="no-barnehage:nsrid" v="1016355" />
		<tag k="operator" v="Nøtteliten Familiebarnehager AS" />
		<tag k="operator:type" v="private" />
	</node>
	<node id="-444" lat="59.9082" lon="10.57009">
		<tag k="amenity" v="kindergarten" />
		<tag k="capacity" v="8" />
		<tag k="contact:website" v="http://www.Familiebarnehage.no" />
		<tag k="max_age" v="2" />
		<tag k="min_age" v="1" />
		<tag k="name" v="Nøtteliten familiebarnehager avd. Hans Øverlandsvei" />
		<tag k="no-barnehage:nsrid" v="1016574" />
		<tag k="operator" v="Nøtteliten Familiebarnehager AS" />
		<tag k="operator:type" v="private" />
	</node>
	<node id="-443" lat="59.89965" lon="10.52998">
		<tag k="amenity" v="kindergarten" />
		<tag k="capacity" v="8" />
		<tag k="contact:website" v="http://www.Familiebarnehage.no" />
		<tag k="max_age" v="2" />
		<tag k="min_age" v="1" />
		<tag k="name" v="Nøtteliten familiebarnehager avd. Gamle Solbergvei" />
		<tag k="no-barnehage:nsrid" v="1013146" />
		<tag k="operator" v="Nøtteliten Familiebarnehager AS" />
		<tag k="operator:type" v="private" />
	</node>
	<node id="-442" lat="59.90669" lon="10.59302">
		<tag k="amenity" v="kindergarten" />
		<tag k="capacity" v="2" />
		<tag k="contact:website" v="http://www.Familiebarnehage.no" />
		<tag k="max_age" v="2" />
		<tag k="min_age" v="1" />
		<tag k="name" v="Nøtteliten familiebarnehager avd. Gamle Drammensvei" />
		<tag k="no-barnehage:nsrid" v="1015600" />
		<tag k="operator" v="Nøtteliten Familiebarnehager AS" />
		<tag k="operator:type" v="private" />
	</node>
	<node id="-441" lat="59.91305" lon="10.60067">
		<tag k="amenity" v="kindergarten" />
		<tag k="capacity" v="8" />
		<tag k="max_age" v="2" />
		<tag k="min_age" v="1" />
		<tag k="name" v="Nøtteliten familiebarnehager avd. Festningsveien" />
		<tag k="no-barnehage:nsrid" v="1016358" />
		<tag k="operator" v="Nøtteliten Familiebarnehager AS" />
		<tag k="operator:type" v="private" />
	</node>
	<node id="-440" lat="59.89864" lon="10.58587">
		<tag k="amenity" v="kindergarten" />
		<tag k="capacity" v="8" />
		<tag k="contact:website" v="http://www.Familiebarnehage.no" />
		<tag k="max_age" v="2" />
		<tag k="min_age" v="1" />
		<tag k="name" v="Nøtteliten familiebarnehager avd. Fagerstrandveien" />
		<tag k="no-barnehage:nsrid" v="1016357" />
		<tag k="operator" v="Nøtteliten Familiebarnehager AS" />
		<tag k="operator:type" v="private" />
	</node>
	<node id="-435" lat="59.91479" lon="10.60622">
		<tag k="amenity" v="kindergarten" />
		<tag k="capacity" v="8" />
		<tag k="max_age" v="2" />
		<tag k="min_age" v="1" />
		<tag k="name" v="Miniputten familiebarnehage" />
		<tag k="no-barnehage:nsrid" v="1020886" />
		<tag k="operator" v="Miniputten Familiebarnehage Da" />
		<tag k="operator:type" v="private" />
	</node>
	<node id="-425" lat="59.8999" lon="10.562">
		<tag k="amenity" v="kindergarten" />
		<tag k="capacity" v="7" />
		<tag k="max_age" v="2" />
		<tag k="min_age" v="1" />
		<tag k="name" v="Lindegaard familebarnehage" />
		<tag k="no-barnehage:nsrid" v="1015905" />
		<tag k="operator" v="Tårnsvalen barnehage AS" />
		<tag k="operator:type" v="private" />
	</node>
	<node id="-422" lat="59.94921" lon="10.62581">
		<tag k="amenity" v="kindergarten" />
		<tag k="capacity" v="8" />
		<tag k="contact:website" v="http://www.liljabhg.com" />
		<tag k="max_age" v="2" />
		<tag k="min_age" v="1" />
		<tag k="name" v="Lilja familiebarnehage avd. Grinistubben 6" />
		<tag k="no-barnehage:nsrid" v="1013615" />
		<tag k="operator" v="Lilja Familiebarnehage Da" />
		<tag k="operator:type" v="private" />
	</node>
	<node id="-421" lat="59.9496" lon="10.6245">
		<tag k="amenity" v="kindergarten" />
		<tag k="capacity" v="8" />
		<tag k="contact:website" v="http://www.liljabhg.com" />
		<tag k="max_age" v="2" />
		<tag k="min_age" v="1" />
		<tag k="name" v="Lilja familiebarnehage avd. Grinistubben 2" />
		<tag k="no-barnehage:nsrid" v="1018459" />
		<tag k="operator" v="Lilja Familiebarnehage Da" />
		<tag k="operator:type" v="private" />
	</node>
	<node id="-419" lat="59.92534" lon="10.60556">
		<tag k="amenity" v="kindergarten" />
		<tag k="capacity" v="8" />
		<tag k="max_age" v="2" />
		<tag k="min_age" v="1" />
		<tag k="name" v="Krokus familiebarnehage" />
		<tag k="no-barnehage:nsrid" v="1020885" />
		<tag k="operator" v="Krokus Familiebarnehage Da" />
		<tag k="operator:type" v="private" />
	</node>
	<node id="-413" lat="59.90809" lon="10.55892">
		<tag k="amenity" v="kindergarten" />
		<tag k="capacity" v="8" />
		<tag k="max_age" v="2" />
		<tag k="min_age" v="1" />
		<tag k="name" v="Kamilleblom familebarnehage" />
		<tag k="no-barnehage:nsrid" v="1020348" />
		<tag k="operator" v="Kamilleblom Familebarnehage Camilla Thorsen Kulsrud" />
		<tag k="operator:type" v="private" />
	</node>
	<node id="-398" lat="59.94146" lon="10.62541">
		<tag k="amenity" v="kindergarten" />
		<tag k="capacity" v="8" />
		<tag k="max_age" v="2" />
		<tag k="min_age" v="1" />
		<tag k="name" v="Gullungene familiebarnehage avd. Vollsveien" />
		<tag k="no-barnehage:nsrid" v="1018382" />
		<tag k="operator" v="Gullungene Familiebarnehage Mona K Axelsen" />
		<tag k="operator:type" v="private" />
	</node>
	<node id="-397" lat="59.91397" lon="10.62777">
		<tag k="amenity" v="kindergarten" />
		<tag k="capacity" v="8" />
		<tag k="max_age" v="2" />
		<tag k="min_age" v="1" />
		<tag k="name" v="Gullungene familiebarnehage avd. Nordraaks Vei" />
		<tag k="no-barnehage:nsrid" v="1013293" />
		<tag k="operator" v="Gullungene Familiebarnehage Mona K Axelsen" />
		<tag k="operator:type" v="private" />
	</node>
</osm>
