<?xml version="1.0" encoding="UTF-8"?>
<osm generator="osmapis" version="0.6">
	<node id="-478" lat="59.94682" lon="10.62058">
		<tag k="amenity" v="kindergarten" />
		<tag k="capacity" v="55" />
		<tag k="contact:email" v="ellen@eiksmarkabarnehage.no" />
		<tag k="contact:phone" v="+47 67 15 76 07" />
		<tag k="contact:website" v="http://www.eiksmarkabarnehage.no" />
		<tag k="max_age" v="5" />
		<tag k="min_age" v="1" />
		<tag k="name" v="Eiksmarka Foreldrelagsbarnehage" />
		<tag k="no-barnehage:nsrid" v="1020384" />
		<tag k="operator" v="Eiksmarka Foreldrelagsbarnehage Sa" />
		<tag k="operator:type" v="private" />
		<tag k="start_date" v="1997-08-31" />
	</node>
	<node id="-477" lat="59.9349" lon="10.5998">
		<tag k="amenity" v="kindergarten" />
		<tag k="capacity" v="110" />
		<tag k="contact:email" v="nina.millestad@baerum.kommune.no" />
		<tag k="max_age" v="5" />
		<tag k="min_age" v="1" />
		<tag k="name" v="Eikelia barnehage" />
		<tag k="no-barnehage:nsrid" v="1012652" />
		<tag k="operator" v="Bærum kommune" />
		<tag k="operator:type" v="public" />
		<tag k="start_date" v="1989-01-02" />
	</node>
	<node id="-476" lat="59.94668" lon="10.61922">
		<tag k="amenity" v="kindergarten" />
		<tag k="capacity" v="30" />
		<tag k="contact:email" v="eikebobarnehage@gmail.com" />
		<tag k="contact:phone" v="+47 67144469" />
		<tag k="max_age" v="5" />
		<tag k="min_age" v="1" />
		<tag k="name" v="Eikebo barnehage" />
		<tag k="no-barnehage:nsrid" v="1019649" />
		<tag k="operator" v="Eikebo barnehage Sa" />
		<tag k="operator:type" v="private" />
		<tag k="start_date" v="1988-01-01" />
	</node>
	<node id="-475" lat="59.9014" lon="10.5042">
		<tag k="amenity" v="kindergarten" />
		<tag k="capacity" v="100" />
		<tag k="contact:email" v="elizabeta.sovik@baerum.kommune.no" />
		<tag k="max_age" v="5" />
		<tag k="min_age" v="1" />
		<tag k="name" v="Dønski barnehage" />
		<tag k="no-barnehage:nsrid" v="1018583" />
		<tag k="operator" v="Bærum kommune" />
		<tag k="operator:type" v="public" />
		<tag k="start_date" v="2009-03-01" />
	</node>
	<node id="-474" lat="59.89384" lon="10.54141">
		<tag k="amenity" v="kindergarten" />
		<tag k="capacity" v="18" />
		<tag k="contact:email" v="barnas@damstua.no" />
		<tag k="contact:phone" v="+47 67546282" />
		<tag k="max_age" v="5" />
		<tag k="min_age" v="3" />
		<tag k="name" v="Damstua barnehage" />
		<tag k="no-barnehage:nsrid" v="1019643" />
		<tag k="operator" v="Blommenholm Familieforening" />
		<tag k="operator:type" v="private" />
		<tag k="start_date" v="1978-09-07" />
	</node>
	<node id="-473" lat="59.89723" lon="10.63238">
		<tag k="amenity" v="kindergarten" />
		<tag k="capacity" v="6" />
		<tag k="contact:email" v="kari@childplanet.no" />
		<tag k="max_age" v="2" />
		<tag k="min_age" v="1" />
		<tag k="name" v="Child Planet, Atlantis barnehage AS" />
		<tag k="no-barnehage:nsrid" v="1026201" />
		<tag k="operator" v="Child Planet, Atlantis barnehage AS" />
		<tag k="operator:type" v="private" />
		<tag k="start_date" v="2015-07-01" />
	</node>
	<node id="-472" lat="59.93224" lon="10.56185">
		<tag k="amenity" v="kindergarten" />
		<tag k="capacity" v="88" />
		<tag k="contact:email" v="dl.baerumsmarka@bhg.no" />
		<tag k="max_age" v="5" />
		<tag k="min_age" v="1" />
		<tag k="name" v="Bærumsmarka Fus barnehage AS" />
		<tag k="no-barnehage:nsrid" v="1021732" />
		<tag k="operator" v="Bærumsmarka Fus barnehage AS" />
		<tag k="operator:type" v="private" />
		<tag k="start_date" v="2012-10-01" />
	</node>
	<node id="-471" lat="59.90828" lon="10.52566">
		<tag k="amenity" v="kindergarten" />
		<tag k="capacity" v="27" />
		<tag k="contact:email" v="styrer@blaveiskroken.no" />
		<tag k="contact:phone" v="+47 67544295" />
		<tag k="contact:website" v="http://www.blaveiskroken.no" />
		<tag k="max_age" v="5" />
		<tag k="min_age" v="1" />
		<tag k="name" v="Blåveiskroken barnehage" />
		<tag k="no-barnehage:nsrid" v="1019854" />
		<tag k="operator" v="Blåveiskroken barnehage" />
		<tag k="operator:type" v="private" />
		<tag k="start_date" v="1989-01-02" />
	</node>
	<node id="-466" lat="59.89389" lon="10.54079">
		<tag k="amenity" v="kindergarten" />
		<tag k="capacity" v="16" />
		<tag k="contact:email" v="barnehage@blomhav.no" />
		<tag k="contact:phone" v="+47 67 54 27 67" />
		<tag k="max_age" v="5" />
		<tag k="min_age" v="1" />
		<tag k="name" v="Blommenholm barnehage" />
		<tag k="no-barnehage:nsrid" v="1020367" />
		<tag k="operator" v="Blommenholm barnehage Sa" />
		<tag k="operator:type" v="private" />
		<tag k="start_date" v="1995-02-22" />
	</node>
	<node id="-465" lat="59.93026" lon="10.44888">
		<tag k="amenity" v="kindergarten" />
		<tag k="capacity" v="26" />
		<tag k="contact:email" v="wibeke@berghoff.no" />
		<tag k="contact:phone" v="+47 67 13 04 23" />
		<tag k="contact:website" v="http://berghoff.no" />
		<tag k="max_age" v="5" />
		<tag k="min_age" v="1" />
		<tag k="name" v="Berghoff barnehage" />
		<tag k="no-barnehage:nsrid" v="1019786" />
		<tag k="operator" v="Stiftelsen Berghoff barnehage" />
		<tag k="operator:type" v="private" />
		<tag k="start_date" v="1989-01-02" />
	</node>
	<node id="-464" lat="59.9274" lon="10.4718">
		<tag k="amenity" v="kindergarten" />
		<tag k="capacity" v="78" />
		<tag k="contact:email" v="norun.mortensen@baerum.kommune.no" />
		<tag k="max_age" v="5" />
		<tag k="min_age" v="1" />
		<tag k="name" v="Berger barnehage" />
		<tag k="no-barnehage:nsrid" v="1012648" />
		<tag k="operator" v="Bærum kommune" />
		<tag k="operator:type" v="public" />
		<tag k="start_date" v="1976-01-01" />
	</node>
	<node id="-463" lat="59.9279" lon="10.4845">
		<tag k="amenity" v="kindergarten" />
		<tag k="capacity" v="13" />
		<tag k="max_age" v="5" />
		<tag k="min_age" v="1" />
		<tag k="name" v="Belset barnehage Avd Skytten" />
		<tag k="no-barnehage:nsrid" v="1012643" />
		<tag k="operator" v="Bærum kommune" />
		<tag k="operator:type" v="public" />
		<tag k="start_date" v="1976-01-01" />
	</node>
	<node id="-462" lat="59.9297" lon="10.4876">
		<tag k="amenity" v="kindergarten" />
		<tag k="capacity" v="17" />
		<tag k="contact:email" v="magnhild.storrosten@baerum.kommune.no" />
		<tag k="max_age" v="5" />
		<tag k="min_age" v="1" />
		<tag k="name" v="Belset barnehage Avd Belset" />
		<tag k="no-barnehage:nsrid" v="1012642" />
		<tag k="operator" v="Bærum kommune" />
		<tag k="operator:type" v="public" />
		<tag k="start_date" v="1976-01-01" />
	</node>
	<node id="-461" lat="59.9297" lon="10.4876">
		<tag k="amenity" v="kindergarten" />
		<tag k="capacity" v="58" />
		<tag k="contact:email" v="magnhild.storrosten@baerum.kommune.no" />
		<tag k="max_age" v="5" />
		<tag k="min_age" v="1" />
		<tag k="name" v="Belset barnehage Avd Bakkeplassen" />
		<tag k="no-barnehage:nsrid" v="1012654" />
		<tag k="operator" v="Bærum kommune" />
		<tag k="operator:type" v="public" />
		<tag k="start_date" v="1976-01-01" />
	</node>
	<node id="-460" lat="59.9204" lon="10.5864">
		<tag k="amenity" v="kindergarten" />
		<tag k="capacity" v="157" />
		<tag k="contact:email" v="bekkestua@kanvas.no" />
		<tag k="max_age" v="5" />
		<tag k="min_age" v="1" />
		<tag k="name" v="Bekkestua Kanvas-Barnehage" />
		<tag k="no-barnehage:nsrid" v="1017178" />
		<tag k="operator" v="Stiftelsen Kanvas" />
		<tag k="operator:type" v="private" />
		<tag k="start_date" v="2006-08-01" />
	</node>
	<node id="-459" lat="59.93407" lon="10.47034">
		<tag k="amenity" v="kindergarten" />
		<tag k="capacity" v="12" />
		<tag k="contact:email" v="janne@rosenlind.no" />
		<tag k="contact:phone" v="+47 67 13 91 52" />
		<tag k="max_age" v="5" />
		<tag k="min_age" v="1" />
		<tag k="name" v="Barnelåven Janne Rosenlind" />
		<tag k="no-barnehage:nsrid" v="1019785" />
		<tag k="operator" v="Barnelåven Janne Rosenlind" />
		<tag k="operator:type" v="private" />
		<tag k="start_date" v="2005-11-08" />
	</node>
	<node id="-458" lat="59.9342" lon="10.6246">
		<tag k="amenity" v="kindergarten" />
		<tag k="capacity" v="31" />
		<tag k="contact:email" v="hanne@barnehagenvaar.no" />
		<tag k="max_age" v="5" />
		<tag k="min_age" v="1" />
		<tag k="name" v="Barnehagenvår Lindebergveien" />
		<tag k="no-barnehage:nsrid" v="1015657" />
		<tag k="operator" v="Theas Bærum AS" />
		<tag k="operator:type" v="private" />
		<tag k="start_date" v="1997-08-01" />
	</node>
	<node id="-457" lat="59.94175" lon="10.58616">
		<tag k="amenity" v="kindergarten" />
		<tag k="capacity" v="103" />
		<tag k="contact:email" v="hanne@barnehagenvaar.no" />
		<tag k="max_age" v="5" />
		<tag k="min_age" v="1" />
		<tag k="name" v="Barnehagenvår Hosletoppen" />
		<tag k="no-barnehage:nsrid" v="1025883" />
		<tag k="operator" v="Theas Bærum AS" />
		<tag k="operator:type" v="private" />
		<tag k="start_date" v="2015-05-04" />
	</node>
	<node id="-456" lat="59.956" lon="10.6069">
		<tag k="amenity" v="kindergarten" />
		<tag k="capacity" v="61" />
		<tag k="contact:email" v="hanne@barnehagenvaar.no" />
		<tag k="max_age" v="5" />
		<tag k="min_age" v="1" />
		<tag k="name" v="Barnehagenvår Fossum Terrasse" />
		<tag k="no-barnehage:nsrid" v="1013024" />
		<tag k="operator" v="Theas Bærum AS" />
		<tag k="operator:type" v="private" />
		<tag k="start_date" v="2004-01-01" />
	</node>
	<node id="-455" lat="59.959" lon="10.6265">
		<tag k="amenity" v="kindergarten" />
		<tag k="capacity" v="30" />
		<tag k="contact:email" v="hanne@barnehagenvaar.no" />
		<tag k="max_age" v="5" />
		<tag k="min_age" v="1" />
		<tag k="name" v="Barnehagenvår Fossum Grendehus" />
		<tag k="no-barnehage:nsrid" v="1015658" />
		<tag k="operator" v="Theas Bærum AS" />
		<tag k="operator:type" v="private" />
		<tag k="start_date" v="1997-08-01" />
	</node>
	<node id="-454" lat="59.90748" lon="10.63089">
		<tag k="amenity" v="kindergarten" />
		<tag k="capacity" v="54" />
		<tag k="contact:email" v="bente@vier.no" />
		<tag k="contact:phone" v="+47 67 12 99 60" />
		<tag k="contact:website" v="http://www.vier.no" />
		<tag k="max_age" v="5" />
		<tag k="min_age" v="1" />
		<tag k="name" v="Barnehagen Vier Sa" />
		<tag k="no-barnehage:nsrid" v="1020960" />
		<tag k="operator" v="Barnehagen Vier Sa" />
		<tag k="operator:type" v="private" />
		<tag k="start_date" v="2003-09-02" />
	</node>
	<node id="-453" lat="59.90688" lon="10.57962">
		<tag k="amenity" v="kindergarten" />
		<tag k="capacity" v="31" />
		<tag k="contact:email" v="favoritzack@hotmail.com" />
		<tag k="contact:phone" v="+47 67531809" />
		<tag k="max_age" v="5" />
		<tag k="min_age" v="1" />
		<tag k="name" v="Barnas Hus AS" />
		<tag k="no-barnehage:nsrid" v="1020606" />
		<tag k="operator" v="Barnas Hus AS" />
		<tag k="operator:type" v="private" />
		<tag k="start_date" v="1994-08-01" />
	</node>
	<node id="-452" lat="59.92379" lon="10.5903">
		<tag k="amenity" v="kindergarten" />
		<tag k="capacity" v="30" />
		<tag k="contact:email" v="balder@barnehage.no" />
		<tag k="contact:phone" v="+47 67 12 51 12" />
		<tag k="max_age" v="5" />
		<tag k="min_age" v="1" />
		<tag k="name" v="Balder barnehage Sa" />
		<tag k="no-barnehage:nsrid" v="1019784" />
		<tag k="operator" v="Balder barnehage Sa" />
		<tag k="operator:type" v="private" />
		<tag k="start_date" v="1989-01-02" />
	</node>
	<node id="-451" lat="59.8943" lon="10.4902">
		<tag k="amenity" v="kindergarten" />
		<tag k="capacity" v="29" />
		<tag k="contact:email" v="est@arba.no" />
		<tag k="max_age" v="5" />
		<tag k="min_age" v="1" />
		<tag k="name" v="Arba Inkludering AS Avd Kløverbakken barnehage" />
		<tag k="no-barnehage:nsrid" v="1014909" />
		<tag k="operator" v="Arba Inkludering AS" />
		<tag k="operator:type" v="private" />
		<tag k="start_date" v="1995-08-01" />
	</node>
	<node id="-450" lat="59.9123" lon="10.6022">
		<tag k="amenity" v="kindergarten" />
		<tag k="capacity" v="57" />
		<tag k="contact:email" v="postmaster@aktivitetsbarnehagen.no" />
		<tag k="contact:phone" v="+47 67 12 54 02" />
		<tag k="max_age" v="5" />
		<tag k="min_age" v="1" />
		<tag k="name" v="Aktivitetsbarnehagen AS" />
		<tag k="no-barnehage:nsrid" v="1021009" />
		<tag k="operator" v="Aktivitetsbarnehagen AS" />
		<tag k="operator:type" v="private" />
		<tag k="start_date" v="2003-09-15" />
	</node>
</osm>
