<?xml version="1.0" encoding="UTF-8"?>
<osm version="0.6" generator="osmapis">
	<node lat="69.02539" lon="23.0699" id="-5380">
		<tag k="ADDRESS" v="Bredbuktnesveien 54, 9522 KAUTOKEINO" />
		<tag k="amenity" v="kindergarten" />
		<tag k="capacity" v="41" />
		<tag k="max_age" v="5" />
		<tag k="min_age" v="1" />
		<tag k="name" v="Beazedievva barnehage" />
		<tag k="no-barnehage:nsrid" v="975313964" />
		<tag k="operator" v="Guovdageainnu Suohkan / Kautokeino kommune" />
		<tag k="operator:type" v="public" />
	</node>
	<node lat="0.0" lon="0.0" id="-5381">
		<tag k="ADDRESS" v="Gahkkorcorru 1, 9520 KAUTOKEINO" />
		<tag k="amenity" v="kindergarten" />
		<tag k="capacity" v="34" />
		<tag k="contact:website" v="http://siif.no" />
		<tag k="max_age" v="5" />
		<tag k="min_age" v="1" />
		<tag k="name" v="Gahkkorcorru Mánáidgárdi" />
		<tag k="no-barnehage:nsrid" v="975036537" />
		<tag k="operator" v="Sis Finnmarkku Studeanttaid Ovttastus Sso" />
		<tag k="operator:type" v="private" />
	</node>
	<node lat="69.00079" lon="23.05993" id="-5382">
		<tag k="ADDRESS" v="Gartnetmaras 1, 9520 KAUTOKEINO" />
		<tag k="amenity" v="kindergarten" />
		<tag k="capacity" v="33" />
		<tag k="max_age" v="5" />
		<tag k="min_age" v="1" />
		<tag k="name" v="Gartnetluohkka barnehage" />
		<tag k="no-barnehage:nsrid" v="975315800" />
		<tag k="operator" v="Guovdageainnu Suohkan / Kautokeino kommune" />
		<tag k="operator:type" v="public" />
	</node>
	<node lat="69.0118" lon="23.04332" id="-5383">
		<tag k="ADDRESS" v="Bredbuktnesveien 6, 9522 KAUTOKEINO" />
		<tag k="amenity" v="kindergarten" />
		<tag k="capacity" v="26" />
		<tag k="max_age" v="5" />
		<tag k="min_age" v="1" />
		<tag k="name" v="Gili barnehage" />
		<tag k="no-barnehage:nsrid" v="975324389" />
		<tag k="operator" v="Guovdageainnu Suohkan / Kautokeino kommune" />
		<tag k="operator:type" v="public" />
	</node>
	<node lat="0.0" lon="0.0" id="-5384">
		<tag k="ADDRESS" v=", 9525 MAZE" />
		<tag k="amenity" v="kindergarten" />
		<tag k="capacity" v="6" />
		<tag k="max_age" v="5" />
		<tag k="min_age" v="1" />
		<tag k="name" v="Maze barnehage" />
		<tag k="no-barnehage:nsrid" v="975313972" />
		<tag k="operator" v="Guovdageainnu Suohkan / Kautokeino kommune" />
		<tag k="operator:type" v="public" />
	</node>
	<node lat="69.02753" lon="23.05664" id="-5385">
		<tag k="ADDRESS" v="c/o Mosconsult Holding As Beazejeaggi 1, 9522 KAUTOKEINO" />
		<tag k="amenity" v="kindergarten" />
		<tag k="name" v="Mos Mánáidgárddit" />
		<tag k="no-barnehage:nsrid" v="932259508" />
		<tag k="operator" v="Mos Mánáidgárddit AS" />
		<tag k="operator:type" v="private" />
	</node>
	<node lat="69.00233" lon="23.0583" id="-5386">
		<tag k="ADDRESS" v="Gartnetluohkká 7, 9520 KAUTOKEINO" />
		<tag k="amenity" v="kindergarten" />
		<tag k="capacity" v="14" />
		<tag k="max_age" v="5" />
		<tag k="min_age" v="1" />
		<tag k="name" v="Nuortamielli Mánáidgárdi" />
		<tag k="no-barnehage:nsrid" v="993576131" />
		<tag k="operator" v="Nuortamielli Mánáidgárdi AS" />
		<tag k="operator:type" v="private" />
	</node>
</osm>
