<?xml version="1.0" encoding="UTF-8"?>
<osm generator="osmapis" version="0.6">
	<node id="-2638" lat="59.0877" lon="10.2101">
		<tag k="amenity" v="kindergarten" />
		<tag k="capacity" v="39" />
		<tag k="contact:email" v="asane.barnehage@sandefjord.kommune.no" />
		<tag k="contact:phone" v="33 41 79 80" />
		<tag k="max_age" v="5" />
		<tag k="min_age" v="1" />
		<tag k="name" v="Åsane barnehage" />
		<tag k="no-barnehage:nsrid" v="1012860" />
		<tag k="operator" v="Sandefjord kommune" />
		<tag k="operator:type" v="public" />
		<tag k="start_date" v="1989-01-01" />
	</node>
	<node id="-2637" lat="59.10427" lon="10.2882">
		<tag k="amenity" v="kindergarten" />
		<tag k="capacity" v="38" />
		<tag k="contact:email" v="styrer@naturbarnehage.no" />
		<tag k="contact:phone" v="33 45 14 45" />
		<tag k="contact:website" v="http://www.naturbarnehage.no" />
		<tag k="max_age" v="5" />
		<tag k="min_age" v="1" />
		<tag k="name" v="Østerøy Naturbarnehage Sa" />
		<tag k="no-barnehage:nsrid" v="1019899" />
		<tag k="operator" v="Østerøy Naturbarnehage Sa" />
		<tag k="operator:type" v="private" />
		<tag k="start_date" v="1990-08-01" />
	</node>
	<node id="-2636" lat="59.12001" lon="10.2431">
		<tag k="amenity" v="kindergarten" />
		<tag k="capacity" v="26" />
		<tag k="contact:phone" v="33 45 16 00" />
		<tag k="max_age" v="5" />
		<tag k="min_age" v="1" />
		<tag k="name" v="Villa Villekulla barnehage AS" />
		<tag k="no-barnehage:nsrid" v="1021959" />
		<tag k="operator" v="Villa Villekulla barnehage AS" />
		<tag k="operator:type" v="private" />
		<tag k="start_date" v="2005-10-01" />
	</node>
	<node id="-2635" lat="59.1196" lon="10.2395">
		<tag k="amenity" v="kindergarten" />
		<tag k="capacity" v="41" />
		<tag k="contact:email" v="bhgvesteroy@sandefjord.kirken.no" />
		<tag k="contact:phone" v="33 42 34 19" />
		<tag k="max_age" v="5" />
		<tag k="min_age" v="1" />
		<tag k="name" v="Vesterøy Menighetsbarnehage" />
		<tag k="no-barnehage:nsrid" v="1015939" />
		<tag k="operator" v="Vesterøy Sokn" />
		<tag k="operator:type" v="private" />
		<tag k="start_date" v="1989-01-01" />
	</node>
	<node id="-2634" lat="59.15011" lon="10.18486">
		<tag k="amenity" v="kindergarten" />
		<tag k="capacity" v="104" />
		<tag k="contact:email" v="post@veslehaven.no" />
		<tag k="contact:phone" v="33 42 18 40" />
		<tag k="contact:website" v="http://veslehaven.no" />
		<tag k="max_age" v="5" />
		<tag k="min_age" v="1" />
		<tag k="name" v="Veslehaven barnehage AS" />
		<tag k="no-barnehage:nsrid" v="1020720" />
		<tag k="operator" v="Veslehaven barnehage AS" />
		<tag k="operator:type" v="private" />
		<tag k="start_date" v="2001-08-01" />
	</node>
	<node id="-2633" lat="59.13131" lon="10.21659">
		<tag k="amenity" v="kindergarten" />
		<tag k="capacity" v="93" />
		<tag k="contact:email" v="vera@barnehagedrift.no" />
		<tag k="contact:phone" v="33 44 79 00" />
		<tag k="contact:website" v="http://www.barnehagemagasinet.no" />
		<tag k="max_age" v="5" />
		<tag k="min_age" v="1" />
		<tag k="name" v="Veraåsen barnehage AS" />
		<tag k="no-barnehage:nsrid" v="1022013" />
		<tag k="operator" v="Veraåsen barnehage AS" />
		<tag k="operator:type" v="private" />
		<tag k="start_date" v="2009-12-10" />
	</node>
	<node id="-2632" lat="59.1219" lon="10.2579">
		<tag k="amenity" v="kindergarten" />
		<tag k="capacity" v="53" />
		<tag k="contact:email" v="vardenlia.barnehage@sandefjord.kommune.no" />
		<tag k="contact:phone" v="33 41 79 50" />
		<tag k="max_age" v="5" />
		<tag k="min_age" v="1" />
		<tag k="name" v="Vardenlia barnehage" />
		<tag k="no-barnehage:nsrid" v="1012856" />
		<tag k="operator" v="Sandefjord kommune" />
		<tag k="operator:type" v="public" />
		<tag k="start_date" v="1989-01-01" />
	</node>
	<node id="-2631" lat="59.1418" lon="10.2219">
		<tag k="amenity" v="kindergarten" />
		<tag k="capacity" v="71" />
		<tag k="contact:email" v="trudvang.barnehage@sandefjord.kommune.no" />
		<tag k="contact:phone" v="33 41 79 30" />
		<tag k="max_age" v="5" />
		<tag k="min_age" v="1" />
		<tag k="name" v="Trudvang barnehage" />
		<tag k="no-barnehage:nsrid" v="1012852" />
		<tag k="operator" v="Sandefjord kommune" />
		<tag k="operator:type" v="public" />
		<tag k="start_date" v="1976-01-01" />
	</node>
	<node id="-2630" lat="59.13137" lon="10.26767">
		<tag k="amenity" v="kindergarten" />
		<tag k="capacity" v="12" />
		<tag k="contact:email" v="post@toppenbhg.com" />
		<tag k="contact:phone" v="33 45 08 95" />
		<tag k="contact:website" v="http://www.toppenbhg.com" />
		<tag k="max_age" v="5" />
		<tag k="min_age" v="1" />
		<tag k="name" v="Toppen barnehage AS" />
		<tag k="no-barnehage:nsrid" v="1021794" />
		<tag k="operator" v="Toppen barnehage AS" />
		<tag k="operator:type" v="private" />
		<tag k="start_date" v="1994-08-08" />
	</node>
	<node id="-2629" lat="59.13977" lon="10.23149">
		<tag k="amenity" v="kindergarten" />
		<tag k="capacity" v="27" />
		<tag k="max_age" v="5" />
		<tag k="min_age" v="1" />
		<tag k="name" v="Sverstad barnehage AS" />
		<tag k="no-barnehage:nsrid" v="1021467" />
		<tag k="operator" v="Sverstad barnehage AS" />
		<tag k="operator:type" v="private" />
		<tag k="start_date" v="2006-06-19" />
	</node>
	<node id="-2628" lat="59.141" lon="10.1941">
		<tag k="amenity" v="kindergarten" />
		<tag k="capacity" v="50" />
		<tag k="contact:email" v="svartas.barnehage@sandefjord.kommune.no" />
		<tag k="contact:phone" v="33 41 79 20" />
		<tag k="max_age" v="5" />
		<tag k="min_age" v="1" />
		<tag k="name" v="Svartås barnehage" />
		<tag k="no-barnehage:nsrid" v="1012857" />
		<tag k="operator" v="Sandefjord kommune" />
		<tag k="operator:type" v="public" />
		<tag k="start_date" v="1989-01-01" />
	</node>
	<node id="-2627" lat="59.11978" lon="10.23106">
		<tag k="amenity" v="kindergarten" />
		<tag k="capacity" v="18" />
		<tag k="contact:email" v="admin@skagerak.org" />
		<tag k="contact:phone" v="33 45 65 00" />
		<tag k="contact:website" v="http://www.skagerak.org" />
		<tag k="max_age" v="5" />
		<tag k="min_age" v="3" />
		<tag k="name" v="Stiftelsen Skagerak International School, Kindergarten" />
		<tag k="no-barnehage:nsrid" v="1022317" />
		<tag k="operator" v="Stiftelsen Skagerak International School, Kindergarten" />
		<tag k="operator:type" v="private" />
		<tag k="start_date" v="2012-10-02" />
	</node>
	<node id="-2626" lat="59.13455" lon="10.21067">
		<tag k="amenity" v="kindergarten" />
		<tag k="capacity" v="92" />
		<tag k="contact:phone" v="33 48 94 50" />
		<tag k="max_age" v="5" />
		<tag k="min_age" v="1" />
		<tag k="name" v="Solvang barnehage Sa" />
		<tag k="no-barnehage:nsrid" v="1019652" />
		<tag k="operator" v="Solvang barnehage Sa" />
		<tag k="operator:type" v="private" />
		<tag k="start_date" v="1988-01-01" />
	</node>
	<node id="-2625" lat="59.10914" lon="10.20823">
		<tag k="amenity" v="kindergarten" />
		<tag k="capacity" v="19" />
		<tag k="contact:email" v="post@soltoppenbarnehage.no" />
		<tag k="contact:phone" v="92 49 27 55" />
		<tag k="contact:website" v="http://www.soltoppenbarnehage.no" />
		<tag k="max_age" v="5" />
		<tag k="min_age" v="1" />
		<tag k="name" v="Soltoppen barnehage AS" />
		<tag k="no-barnehage:nsrid" v="1021306" />
		<tag k="operator" v="Soltoppen barnehage AS" />
		<tag k="operator:type" v="private" />
		<tag k="start_date" v="2005-09-01" />
	</node>
	<node id="-2624" lat="59.10616" lon="10.20986">
		<tag k="amenity" v="kindergarten" />
		<tag k="capacity" v="139" />
		<tag k="contact:phone" v="33 42 63 50" />
		<tag k="max_age" v="5" />
		<tag k="min_age" v="1" />
		<tag k="name" v="Sole barnehage Sa" />
		<tag k="no-barnehage:nsrid" v="1020060" />
		<tag k="operator" v="Sole barnehage Sa" />
		<tag k="operator:type" v="private" />
		<tag k="start_date" v="1991-10-14" />
	</node>
	<node id="-2623" lat="59.13" lon="10.2197">
		<tag k="amenity" v="kindergarten" />
		<tag k="contact:email" v="sandefjord.apen.barnehage@sandefjord.kommune.no" />
		<tag k="contact:phone" v="33 41 66 20" />
		<tag k="name" v="Sandefjord kommune Åpen barnehage Sentrum" />
		<tag k="no-barnehage:nsrid" v="1017146" />
		<tag k="operator" v="Sandefjord kommune" />
		<tag k="operator:type" v="public" />
		<tag k="start_date" v="2006-01-01" />
	</node>
	<node id="-2622" lat="59.1221" lon="10.2552">
		<tag k="amenity" v="kindergarten" />
		<tag k="capacity" v="51" />
		<tag k="contact:email" v="ringkollen.barnehage@sandefjord.kommune.no" />
		<tag k="contact:phone" v="33 41 79 50" />
		<tag k="max_age" v="5" />
		<tag k="min_age" v="1" />
		<tag k="name" v="Ringkollen barnehage" />
		<tag k="no-barnehage:nsrid" v="1012853" />
		<tag k="operator" v="Sandefjord kommune" />
		<tag k="operator:type" v="public" />
		<tag k="start_date" v="1989-01-01" />
	</node>
	<node id="-2621" lat="59.1159" lon="10.2125">
		<tag k="amenity" v="kindergarten" />
		<tag k="capacity" v="50" />
		<tag k="contact:email" v="ranvik.barnehage@sandefjord.kommune.no" />
		<tag k="contact:phone" v="33 41 78 70" />
		<tag k="max_age" v="5" />
		<tag k="min_age" v="1" />
		<tag k="name" v="Ranvik barnehage" />
		<tag k="no-barnehage:nsrid" v="1012855" />
		<tag k="operator" v="Sandefjord kommune" />
		<tag k="operator:type" v="public" />
		<tag k="start_date" v="1976-01-01" />
	</node>
	<node id="-2620" lat="59.1358" lon="10.2373">
		<tag k="amenity" v="kindergarten" />
		<tag k="capacity" v="23" />
		<tag k="max_age" v="5" />
		<tag k="min_age" v="1" />
		<tag k="name" v="Prestekragen barnehage AS" />
		<tag k="no-barnehage:nsrid" v="1016446" />
		<tag k="operator" v="Prestekragen barnehage AS" />
		<tag k="operator:type" v="private" />
		<tag k="start_date" v="2002-10-29" />
	</node>
	<node id="-2619" lat="59.13149" lon="10.19991">
		<tag k="amenity" v="kindergarten" />
		<tag k="capacity" v="37" />
		<tag k="contact:email" v="pingeline@barnehage.no" />
		<tag k="contact:phone" v="33 47 74 14" />
		<tag k="contact:website" v="http://pingeline.barnehage.no" />
		<tag k="max_age" v="5" />
		<tag k="min_age" v="1" />
		<tag k="name" v="Pingeline barnehage" />
		<tag k="no-barnehage:nsrid" v="1020059" />
		<tag k="operator" v="Pingeline barnehage Sa" />
		<tag k="operator:type" v="private" />
		<tag k="start_date" v="1991-08-01" />
	</node>
	<node id="-2618" lat="59.17921" lon="10.17575">
		<tag k="amenity" v="kindergarten" />
		<tag k="capacity" v="80" />
		<tag k="contact:email" v="post@napperodnaturbarnehage.no" />
		<tag k="contact:phone" v="33 48 10 40" />
		<tag k="contact:website" v="http://www.napperodnaturbarnehage.no" />
		<tag k="max_age" v="5" />
		<tag k="min_age" v="1" />
		<tag k="name" v="Napperød Naturbarnehage AS" />
		<tag k="no-barnehage:nsrid" v="1021429" />
		<tag k="operator" v="Napperød Naturbarnehage AS" />
		<tag k="operator:type" v="private" />
		<tag k="start_date" v="2007-01-02" />
	</node>
	<node id="-2617" lat="59.08959" lon="10.21902">
		<tag k="amenity" v="kindergarten" />
		<tag k="capacity" v="55" />
		<tag k="contact:phone" v="033462209" />
		<tag k="max_age" v="5" />
		<tag k="min_age" v="1" />
		<tag k="name" v="Mokollen barnehage AS" />
		<tag k="no-barnehage:nsrid" v="1020138" />
		<tag k="operator" v="Mokollen barnehage AS" />
		<tag k="operator:type" v="private" />
		<tag k="start_date" v="1989-01-02" />
	</node>
	<node id="-2616" lat="59.1415" lon="10.2072">
		<tag k="amenity" v="kindergarten" />
		<tag k="capacity" v="78" />
		<tag k="contact:email" v="modalen.barnehage@sandefjord.kommune.no" />
		<tag k="contact:phone" v="33 41 92 20" />
		<tag k="max_age" v="5" />
		<tag k="min_age" v="1" />
		<tag k="name" v="Modalen barnehage" />
		<tag k="no-barnehage:nsrid" v="1018355" />
		<tag k="operator" v="Sandefjord kommune" />
		<tag k="operator:type" v="public" />
		<tag k="start_date" v="2008-04-01" />
	</node>
	<node id="-2615" lat="59.1642" lon="10.2166">
		<tag k="amenity" v="kindergarten" />
		<tag k="capacity" v="51" />
		<tag k="max_age" v="5" />
		<tag k="min_age" v="1" />
		<tag k="name" v="Løkka og Knøttetreff barnehage Sandefjord" />
		<tag k="no-barnehage:nsrid" v="1018389" />
		<tag k="operator" v="Løkka barnehage Sandefjord AS" />
		<tag k="operator:type" v="private" />
		<tag k="start_date" v="2008-05-01" />
	</node>
	<node id="-2614" lat="59.11787" lon="10.28245">
		<tag k="amenity" v="kindergarten" />
		<tag k="capacity" v="39" />
		<tag k="contact:phone" v="33 47 28 00" />
		<tag k="max_age" v="5" />
		<tag k="min_age" v="1" />
		<tag k="name" v="Lahelle barnehage Horieh Yegani-Behambari" />
		<tag k="no-barnehage:nsrid" v="1021164" />
		<tag k="operator" v="Lahelle barnehage Horieh Yegani-Behambari" />
		<tag k="operator:type" v="private" />
		<tag k="start_date" v="2005-08-01" />
	</node>
	<node id="-2613" lat="59.0887" lon="10.2118">
		<tag k="amenity" v="kindergarten" />
		<tag k="capacity" v="62" />
		<tag k="contact:email" v="bergem@advokathuset.no" />
		<tag k="contact:phone" v="33 46 91 60" />
		<tag k="max_age" v="5" />
		<tag k="min_age" v="1" />
		<tag k="name" v="Kulturbarnehagen Noahs Ark" />
		<tag k="no-barnehage:nsrid" v="1014000" />
		<tag k="operator" v="Stiftelsen Sandefjord Menighetspleie og Kirkesenter" />
		<tag k="operator:type" v="private" />
		<tag k="start_date" v="2009-06-01" />
	</node>
	<node id="-2612" lat="59.1404" lon="10.2237">
		<tag k="amenity" v="kindergarten" />
		<tag k="capacity" v="25" />
		<tag k="max_age" v="5" />
		<tag k="min_age" v="1" />
		<tag k="name" v="Krokusen barnehage" />
		<tag k="no-barnehage:nsrid" v="1013235" />
		<tag k="operator" v="Oppvekst og Kultur AS" />
		<tag k="operator:type" v="private" />
		<tag k="start_date" v="2005-05-09" />
	</node>
	<node id="-2611" lat="59.1306" lon="10.1837">
		<tag k="amenity" v="kindergarten" />
		<tag k="capacity" v="47" />
		<tag k="max_age" v="5" />
		<tag k="min_age" v="1" />
		<tag k="name" v="Krokenskogen Kanvas-Barnehage" />
		<tag k="no-barnehage:nsrid" v="1015707" />
		<tag k="operator" v="Stiftelsen Kanvas" />
		<tag k="operator:type" v="private" />
		<tag k="start_date" v="1998-08-01" />
	</node>
	<node id="-2610" lat="59.1318" lon="10.1712">
		<tag k="amenity" v="kindergarten" />
		<tag k="name" v="Kroken Korttidsbarnehage" />
		<tag k="no-barnehage:nsrid" v="1014881" />
		<tag k="operator" v="Sandefjord kommune" />
		<tag k="operator:type" v="public" />
		<tag k="start_date" v="1996-01-01" />
	</node>
	<node id="-2609" lat="59.1322" lon="10.1821">
		<tag k="amenity" v="kindergarten" />
		<tag k="capacity" v="75" />
		<tag k="contact:email" v="krokemoa.barnehage@sandefjord.kommune.no" />
		<tag k="contact:phone" v="33 41 78 30" />
		<tag k="max_age" v="5" />
		<tag k="min_age" v="1" />
		<tag k="name" v="Krokemoa barnehage" />
		<tag k="no-barnehage:nsrid" v="1012854" />
		<tag k="operator" v="Sandefjord kommune" />
		<tag k="operator:type" v="public" />
		<tag k="start_date" v="1976-01-01" />
	</node>
	<node id="-2608" lat="59.12991" lon="10.21388">
		<tag k="amenity" v="kindergarten" />
		<tag k="capacity" v="44" />
		<tag k="contact:phone" v="33 47 49 60" />
		<tag k="max_age" v="5" />
		<tag k="min_age" v="1" />
		<tag k="name" v="Kathrines Have AS" />
		<tag k="no-barnehage:nsrid" v="1020395" />
		<tag k="operator" v="Kathrines Have AS" />
		<tag k="operator:type" v="private" />
		<tag k="start_date" v="2007-01-01" />
	</node>
	<node id="-2607" lat="59.1368" lon="10.1894">
		<tag k="amenity" v="kindergarten" />
		<tag k="capacity" v="56" />
		<tag k="contact:phone" v="22 40 58 40" />
		<tag k="max_age" v="5" />
		<tag k="min_age" v="1" />
		<tag k="name" v="Karisletta Kanvas-Barnehage" />
		<tag k="no-barnehage:nsrid" v="1015476" />
		<tag k="operator" v="Stiftelsen Kanvas" />
		<tag k="operator:type" v="private" />
		<tag k="start_date" v="1989-01-01" />
	</node>
	<node id="-2606" lat="59.1328" lon="10.2004">
		<tag k="amenity" v="kindergarten" />
		<tag k="capacity" v="27" />
		<tag k="contact:email" v="kapteinlokka.barnehage@sandefjord.kommune.no" />
		<tag k="contact:phone" v="33 41 92 10" />
		<tag k="max_age" v="5" />
		<tag k="min_age" v="1" />
		<tag k="name" v="Kapteinløkka barnehage" />
		<tag k="no-barnehage:nsrid" v="1016031" />
		<tag k="operator" v="Sandefjord kommune" />
		<tag k="operator:type" v="public" />
		<tag k="start_date" v="1993-08-01" />
	</node>
	<node id="-2605" lat="59.13215" lon="10.27427">
		<tag k="amenity" v="kindergarten" />
		<tag k="capacity" v="27" />
		<tag k="contact:phone" v="33 45 15 70" />
		<tag k="max_age" v="5" />
		<tag k="min_age" v="1" />
		<tag k="name" v="Høgenhall barnehage Sa" />
		<tag k="no-barnehage:nsrid" v="1020061" />
		<tag k="operator" v="Høgenhall barnehage Sa" />
		<tag k="operator:type" v="private" />
		<tag k="start_date" v="1991-02-01" />
	</node>
	<node id="-2604" lat="59.19112" lon="10.23308">
		<tag k="amenity" v="kindergarten" />
		<tag k="contact:email" v="post@hunsrod-bhg.no" />
		<tag k="name" v="Hunsrød-Fevang barnehage Sa Avd Lingelemveien" />
		<tag k="no-barnehage:nsrid" v="1026105" />
		<tag k="operator" v="Hunsrød-Fevang barnehage Sa" />
		<tag k="operator:type" v="private" />
		<tag k="start_date" v="2001-09-04" />
	</node>
	<node id="-2603" lat="59.17185" lon="10.21495">
		<tag k="amenity" v="kindergarten" />
		<tag k="capacity" v="100" />
		<tag k="contact:phone" v="33 42 75 80" />
		<tag k="max_age" v="5" />
		<tag k="min_age" v="1" />
		<tag k="name" v="Hunsrød-Fefang barnehage Sa Avd Hunsrødgrenda" />
		<tag k="no-barnehage:nsrid" v="1020612" />
		<tag k="operator" v="Hunsrød-Fevang barnehage Sa" />
		<tag k="operator:type" v="private" />
		<tag k="start_date" v="2000-08-01" />
	</node>
	<node id="-2602" lat="59.15453" lon="10.30396">
		<tag k="amenity" v="kindergarten" />
		<tag k="capacity" v="65" />
		<tag k="contact:phone" v="33 45 30 40" />
		<tag k="max_age" v="5" />
		<tag k="min_age" v="1" />
		<tag k="name" v="Helgerød barnehage" />
		<tag k="no-barnehage:nsrid" v="1020765" />
		<tag k="operator" v="Helgerød barnehage AS" />
		<tag k="operator:type" v="private" />
		<tag k="start_date" v="1987-08-01" />
	</node>
	<node id="-2601" lat="59.1453" lon="10.1908">
		<tag k="amenity" v="kindergarten" />
		<tag k="capacity" v="40" />
		<tag k="contact:email" v="haukerod.barnehage@sandefjord.kommune.no" />
		<tag k="contact:phone" v="33 41 78 00" />
		<tag k="max_age" v="5" />
		<tag k="min_age" v="1" />
		<tag k="name" v="Haukerød barnehage" />
		<tag k="no-barnehage:nsrid" v="1012859" />
		<tag k="operator" v="Sandefjord kommune" />
		<tag k="operator:type" v="public" />
		<tag k="start_date" v="1976-01-01" />
	</node>
	<node id="-2600" lat="59.1221" lon="10.2591">
		<tag k="amenity" v="kindergarten" />
		<tag k="contact:email" v="grenda.barnehage@sandefjord.kommune.no" />
		<tag k="contact:phone" v="33 41 79 60" />
		<tag k="name" v="Grenda barnehage" />
		<tag k="no-barnehage:nsrid" v="1015583" />
		<tag k="operator" v="Sandefjord kommune" />
		<tag k="operator:type" v="public" />
		<tag k="start_date" v="1997-03-01" />
	</node>
	<node id="-2599" lat="59.1275" lon="10.2711">
		<tag k="amenity" v="kindergarten" />
		<tag k="capacity" v="46" />
		<tag k="contact:phone" v="22 40 58 40" />
		<tag k="max_age" v="5" />
		<tag k="min_age" v="1" />
		<tag k="name" v="Gjekstad Kanvas-Barnehage" />
		<tag k="no-barnehage:nsrid" v="1015477" />
		<tag k="operator" v="Stiftelsen Kanvas" />
		<tag k="operator:type" v="private" />
		<tag k="start_date" v="1992-11-01" />
	</node>
	<node id="-2598" lat="59.11331" lon="10.25491">
		<tag k="amenity" v="kindergarten" />
		<tag k="capacity" v="26" />
		<tag k="contact:email" v="post@gapahuken.info" />
		<tag k="contact:phone" v="33 47 25 99" />
		<tag k="max_age" v="5" />
		<tag k="min_age" v="1" />
		<tag k="name" v="Gapahuken barnehage AS" />
		<tag k="no-barnehage:nsrid" v="1021042" />
		<tag k="operator" v="Gapahuken barnehage AS" />
		<tag k="operator:type" v="private" />
		<tag k="start_date" v="2000-08-01" />
	</node>
	<node id="-2597" lat="59.11403" lon="10.17464">
		<tag k="amenity" v="kindergarten" />
		<tag k="capacity" v="41" />
		<tag k="contact:email" v="post@furustad-barnehage.no" />
		<tag k="contact:phone" v="033459112" />
		<tag k="contact:website" v="http://www.furustad-barnehage.no" />
		<tag k="max_age" v="5" />
		<tag k="min_age" v="1" />
		<tag k="name" v="Furustad barnehage Sa" />
		<tag k="no-barnehage:nsrid" v="1019903" />
		<tag k="operator" v="Furustad barnehage Sa" />
		<tag k="operator:type" v="private" />
		<tag k="start_date" v="1990-04-01" />
	</node>
	<node id="-2596" lat="59.15154" lon="10.219">
		<tag k="amenity" v="kindergarten" />
		<tag k="capacity" v="141" />
		<tag k="contact:email" v="post@espira.no" />
		<tag k="contact:phone" v="52 84 50 20" />
		<tag k="contact:website" v="http://www.espira.no" />
		<tag k="max_age" v="5" />
		<tag k="min_age" v="1" />
		<tag k="name" v="Espira Åbol barnehage" />
		<tag k="no-barnehage:nsrid" v="1021833" />
		<tag k="operator" v="Espira Åbol AS" />
		<tag k="operator:type" v="private" />
		<tag k="start_date" v="2008-06-04" />
	</node>
	<node id="-2595" lat="59.13229" lon="10.24334">
		<tag k="amenity" v="kindergarten" />
		<tag k="capacity" v="18" />
		<tag k="contact:phone" v="33461520" />
		<tag k="max_age" v="5" />
		<tag k="min_age" v="1" />
		<tag k="name" v="Epleblomsten Steinerbarnehage i Sandefjord" />
		<tag k="no-barnehage:nsrid" v="1020310" />
		<tag k="operator" v="Rudolf Steinerbarnehagen i Sandefjord" />
		<tag k="operator:type" v="private" />
		<tag k="start_date" v="1995-02-22" />
	</node>
	<node id="-2594" lat="59.1318" lon="10.1997">
		<tag k="amenity" v="kindergarten" />
		<tag k="capacity" v="38" />
		<tag k="contact:email" v="bugaarden.barnehage@sandefjord.kommune.no" />
		<tag k="contact:phone" v="33 41 92 00" />
		<tag k="max_age" v="5" />
		<tag k="min_age" v="1" />
		<tag k="name" v="Bugården barnehage" />
		<tag k="no-barnehage:nsrid" v="1012858" />
		<tag k="operator" v="Sandefjord kommune" />
		<tag k="operator:type" v="public" />
		<tag k="start_date" v="1976-01-01" />
	</node>
	<node id="-2593" lat="59.1319" lon="10.243">
		<tag k="amenity" v="kindergarten" />
		<tag k="capacity" v="27" />
		<tag k="contact:email" v="breili.barnehage@sandefjord.kommune.no" />
		<tag k="contact:phone" v="33 41 77 60" />
		<tag k="max_age" v="5" />
		<tag k="min_age" v="1" />
		<tag k="name" v="Breili barnehage" />
		<tag k="no-barnehage:nsrid" v="1015766" />
		<tag k="operator" v="Sandefjord kommune" />
		<tag k="operator:type" v="public" />
		<tag k="start_date" v="1999-08-01" />
	</node>
	<node id="-2592" lat="59.1449" lon="10.2239">
		<tag k="amenity" v="kindergarten" />
		<tag k="capacity" v="49" />
		<tag k="contact:phone" v="22 40 58 40" />
		<tag k="max_age" v="5" />
		<tag k="min_age" v="1" />
		<tag k="name" v="Breidablikk Kanvas-Barnehage" />
		<tag k="no-barnehage:nsrid" v="1015478" />
		<tag k="operator" v="Stiftelsen Kanvas" />
		<tag k="operator:type" v="private" />
		<tag k="start_date" v="1989-01-02" />
	</node>
	<node id="-2591" lat="59.13597" lon="10.22382">
		<tag k="amenity" v="kindergarten" />
		<tag k="capacity" v="48" />
		<tag k="contact:phone" v="33 46 29 74" />
		<tag k="max_age" v="5" />
		<tag k="min_age" v="1" />
		<tag k="name" v="Barnas Have A/s" />
		<tag k="no-barnehage:nsrid" v="1021554" />
		<tag k="operator" v="Barnas Have AS" />
		<tag k="operator:type" v="private" />
		<tag k="start_date" v="1991-08-09" />
	</node>
</osm>
