<?xml version="1.0" encoding="UTF-8"?>
<osm generator="osmapis" version="0.6">
	<node id="-4171" lat="60.6334" lon="6.43775">
		<tag k="amenity" v="kindergarten" />
		<tag k="capacity" v="106" />
		<tag k="contact:email" v="voss.barnehage@voss.kommune.no" />
		<tag k="max_age" v="5" />
		<tag k="min_age" v="1" />
		<tag k="name" v="Voss barnehage" />
		<tag k="no-barnehage:nsrid" v="1014032" />
		<tag k="operator" v="Voss kommune" />
		<tag k="operator:type" v="public" />
		<tag k="start_date" v="2009-08-10" />
	</node>
	<node id="-4170" lat="60.6794" lon="6.59287">
		<tag k="amenity" v="kindergarten" />
		<tag k="capacity" v="24" />
		<tag k="max_age" v="5" />
		<tag k="min_age" v="1" />
		<tag k="name" v="Raundalen barnehage" />
		<tag k="no-barnehage:nsrid" v="1012848" />
		<tag k="operator" v="Voss kommune" />
		<tag k="operator:type" v="public" />
		<tag k="start_date" v="1989-01-01" />
	</node>
	<node id="-4169" lat="60.6321" lon="6.42537">
		<tag k="amenity" v="kindergarten" />
		<tag k="capacity" v="76" />
		<tag k="contact:email" v="postmottak@voss.kommune.no" />
		<tag k="contact:phone" v="56 51 47 70" />
		<tag k="max_age" v="5" />
		<tag k="min_age" v="1" />
		<tag k="name" v="Lundhaugen barnehage" />
		<tag k="no-barnehage:nsrid" v="1012849" />
		<tag k="operator" v="Voss kommune" />
		<tag k="operator:type" v="public" />
		<tag k="start_date" v="1976-01-01" />
	</node>
	<node id="-4168" lat="60.6387" lon="6.42245">
		<tag k="amenity" v="kindergarten" />
		<tag k="capacity" v="51" />
		<tag k="max_age" v="5" />
		<tag k="min_age" v="1" />
		<tag k="name" v="Hagahaugen barnehage" />
		<tag k="no-barnehage:nsrid" v="1014282" />
		<tag k="operator" v="Voss kommune" />
		<tag k="operator:type" v="public" />
		<tag k="start_date" v="2011-04-01" />
	</node>
	<node id="-4167" lat="60.6148" lon="6.4203">
		<tag k="amenity" v="kindergarten" />
		<tag k="capacity" v="37" />
		<tag k="contact:email" v="gjernes.barnehage@voss.kommune.no" />
		<tag k="contact:phone" v="56512093" />
		<tag k="max_age" v="5" />
		<tag k="min_age" v="1" />
		<tag k="name" v="Gjernes barnehage" />
		<tag k="no-barnehage:nsrid" v="1012850" />
		<tag k="operator" v="Voss kommune" />
		<tag k="operator:type" v="public" />
		<tag k="start_date" v="1979-01-04" />
	</node>
	<node id="-4166" lat="60.6278" lon="6.31598">
		<tag k="amenity" v="kindergarten" />
		<tag k="capacity" v="32" />
		<tag k="contact:email" v="bulken.barnehage@voss.kommune.no" />
		<tag k="contact:phone" v="56514219" />
		<tag k="max_age" v="5" />
		<tag k="min_age" v="1" />
		<tag k="name" v="Bulken barnehage" />
		<tag k="no-barnehage:nsrid" v="1016198" />
		<tag k="operator" v="Voss kommune" />
		<tag k="operator:type" v="public" />
		<tag k="start_date" v="1988-04-01" />
	</node>
	<node id="-4165" lat="60.6117" lon="6.54309">
		<tag k="amenity" v="kindergarten" />
		<tag k="capacity" v="60" />
		<tag k="contact:email" v="bjorgamarka.barnehage@voss.kommune.no" />
		<tag k="contact:phone" v="56 51 00 47" />
		<tag k="max_age" v="5" />
		<tag k="min_age" v="1" />
		<tag k="name" v="BjÃ¸rgamarka barnehage" />
		<tag k="no-barnehage:nsrid" v="1012851" />
		<tag k="operator" v="Voss kommune" />
		<tag k="operator:type" v="public" />
		<tag k="start_date" v="1989-01-01" />
	</node>
</osm>
