<?xml version="1.0" encoding="UTF-8"?>
<osm version="0.6" generator="osmapis">
	<node lat="59.62688" lon="11.02326" id="-1891">
		<tag k="ADDRESS" v="Kristianiaveien 5, 1823 KNAPSTAD" />
		<tag k="amenity" v="kindergarten" />
		<tag k="capacity" v="86" />
		<tag k="max_age" v="5" />
		<tag k="min_age" v="1" />
		<tag k="name" v="Bekkeblomen barnehage" />
		<tag k="no-barnehage:nsrid" v="973346199" />
		<tag k="operator" v="Indre Østfold kommune" />
		<tag k="operator:type" v="public" />
	</node>
	<node lat="59.61517" lon="11.06342" id="-1892">
		<tag k="ADDRESS" v="Roselundveien 2, 1820 SPYDEBERG" />
		<tag k="amenity" v="kindergarten" />
		<tag k="capacity" v="104" />
		<tag k="max_age" v="5" />
		<tag k="min_age" v="1" />
		<tag k="name" v="Blomsterenga barnehage" />
		<tag k="no-barnehage:nsrid" v="999112110" />
		<tag k="operator" v="Indre Østfold kommune" />
		<tag k="operator:type" v="public" />
	</node>
	<node lat="59.6552" lon="10.99685" id="-1893">
		<tag k="ADDRESS" v="Tolfshusveien 53, 1825 TOMTER" />
		<tag k="amenity" v="kindergarten" />
		<tag k="capacity" v="70" />
		<tag k="max_age" v="5" />
		<tag k="min_age" v="1" />
		<tag k="name" v="Brødholt FUS barnehage" />
		<tag k="no-barnehage:nsrid" v="995031256" />
		<tag k="operator" v="Brødholt Fus barnehage AS" />
		<tag k="operator:type" v="private" />
	</node>
	<node lat="59.69079" lon="11.29468" id="-1894">
		<tag k="ADDRESS" v="Båstadveien 488, 1866 BÅSTAD" />
		<tag k="amenity" v="kindergarten" />
		<tag k="capacity" v="82" />
		<tag k="max_age" v="5" />
		<tag k="min_age" v="1" />
		<tag k="name" v="Båstad barnehage" />
		<tag k="no-barnehage:nsrid" v="976635892" />
		<tag k="operator" v="Indre Østfold kommune" />
		<tag k="operator:type" v="public" />
	</node>
	<node lat="59.5735" lon="11.28608" id="-1895">
		<tag k="ADDRESS" v="Edwin Ruuds vei 4, 1850 MYSEN" />
		<tag k="amenity" v="kindergarten" />
		<tag k="capacity" v="74" />
		<tag k="max_age" v="5" />
		<tag k="min_age" v="1" />
		<tag k="name" v="Edwin Ruuds barnehage" />
		<tag k="no-barnehage:nsrid" v="974577739" />
		<tag k="operator" v="Indre Østfold kommune" />
		<tag k="operator:type" v="public" />
	</node>
	<node lat="59.59219" lon="11.17889" id="-1896">
		<tag k="ADDRESS" v="Vinkelveien 28, 1807 ASKIM" />
		<tag k="amenity" v="kindergarten" />
		<tag k="capacity" v="130" />
		<tag k="max_age" v="5" />
		<tag k="min_age" v="1" />
		<tag k="name" v="Eid barnehage" />
		<tag k="no-barnehage:nsrid" v="919264020" />
		<tag k="operator" v="Indre Østfold kommune" />
		<tag k="operator:type" v="public" />
	</node>
	<node lat="59.567" lon="11.3365" id="-1897">
		<tag k="ADDRESS" v="Vardeveien 72, 1850 MYSEN" />
		<tag k="amenity" v="kindergarten" />
		<tag k="capacity" v="82" />
		<tag k="contact:website" v="http://www.espira.no" />
		<tag k="max_age" v="5" />
		<tag k="min_age" v="1" />
		<tag k="name" v="Espira Høytorp Fort barnehage" />
		<tag k="no-barnehage:nsrid" v="988745405" />
		<tag k="operator" v="Espira Høytorp Fort AS" />
		<tag k="operator:type" v="private" />
	</node>
	<node lat="59.61772" lon="11.06594" id="-1898">
		<tag k="ADDRESS" v="Nordmyrstubben 25, 1820 SPYDEBERG" />
		<tag k="amenity" v="kindergarten" />
		<tag k="capacity" v="84" />
		<tag k="contact:website" v="http://www.espira.no" />
		<tag k="max_age" v="5" />
		<tag k="min_age" v="1" />
		<tag k="name" v="Espira Løvestad barnehage" />
		<tag k="no-barnehage:nsrid" v="992843578" />
		<tag k="operator" v="Espira Løvestad AS" />
		<tag k="operator:type" v="private" />
	</node>
	<node lat="59.55522" lon="11.34101" id="-1899">
		<tag k="ADDRESS" v="Opsahlveien 41, 1850 MYSEN" />
		<tag k="amenity" v="kindergarten" />
		<tag k="capacity" v="91" />
		<tag k="contact:website" v="http://opsahl.espira.no/" />
		<tag k="max_age" v="5" />
		<tag k="min_age" v="1" />
		<tag k="name" v="Espira Opsahl barnehage" />
		<tag k="no-barnehage:nsrid" v="985881820" />
		<tag k="operator" v="Espira Opsahl AS" />
		<tag k="operator:type" v="private" />
	</node>
	<node lat="59.58331" lon="11.15657" id="-1900">
		<tag k="ADDRESS" v="Skolegata 15, 1831 ASKIM" />
		<tag k="amenity" v="kindergarten" />
		<tag k="capacity" v="110" />
		<tag k="contact:website" v="http://www.espira.no" />
		<tag k="max_age" v="5" />
		<tag k="min_age" v="1" />
		<tag k="name" v="Espira skolegata barnehage" />
		<tag k="no-barnehage:nsrid" v="975295559" />
		<tag k="operator" v="Espira Skolegata AS" />
		<tag k="operator:type" v="private" />
	</node>
	<node lat="59.61564" lon="11.4116" id="-1901">
		<tag k="ADDRESS" v="Kroksundveien 62, 1860 TRØGSTAD" />
		<tag k="amenity" v="kindergarten" />
		<tag k="capacity" v="26" />
		<tag k="max_age" v="5" />
		<tag k="min_age" v="1" />
		<tag k="name" v="Havnås barnehage" />
		<tag k="no-barnehage:nsrid" v="990295891" />
		<tag k="operator" v="Indre Østfold kommune" />
		<tag k="operator:type" v="public" />
	</node>
	<node lat="59.59219" lon="11.17889" id="-1902">
		<tag k="ADDRESS" v="Vinkelveien 28, 1807 ASKIM" />
		<tag k="amenity" v="kindergarten" />
		<tag k="name" v="Indre Østfold kommune åpen barnehage" />
		<tag k="no-barnehage:nsrid" v="979331835" />
		<tag k="operator" v="Indre Østfold kommune" />
		<tag k="operator:type" v="public" />
	</node>
	<node lat="59.63727" lon="11.31206" id="-1903">
		<tag k="ADDRESS" v="Trøgstadveien 1200, 1860 TRØGSTAD" />
		<tag k="amenity" v="kindergarten" />
		<tag k="capacity" v="38" />
		<tag k="max_age" v="5" />
		<tag k="min_age" v="1" />
		<tag k="name" v="Kirkestallen barnehage" />
		<tag k="no-barnehage:nsrid" v="973454544" />
		<tag k="operator" v="Menighetsbarnehagen i Trøgstad AS" />
		<tag k="operator:type" v="private" />
	</node>
	<node lat="59.65778" lon="10.99795" id="-1904">
		<tag k="ADDRESS" v="Tolfshusveien 14, 1825 TOMTER" />
		<tag k="amenity" v="kindergarten" />
		<tag k="capacity" v="15" />
		<tag k="contact:website" v="http://Www.knollogtottbarnehage.no" />
		<tag k="max_age" v="5" />
		<tag k="min_age" v="1" />
		<tag k="name" v="Knoll og Tott barnehage Jørn-thomas Gaaseby" />
		<tag k="no-barnehage:nsrid" v="974321254" />
		<tag k="operator" v="Knoll og Tott barnehage Jørn-Thomas Gaaseby" />
		<tag k="operator:type" v="private" />
	</node>
	<node lat="59.54205" lon="11.39665" id="-1905">
		<tag k="ADDRESS" v="Faugliveien 151, 1852 MYSEN" />
		<tag k="amenity" v="kindergarten" />
		<tag k="capacity" v="53" />
		<tag k="contact:website" v="http://www.linneabarnehage.no" />
		<tag k="max_age" v="5" />
		<tag k="min_age" v="1" />
		<tag k="name" v="Linnéa natur- og gårdsbarnehage" />
		<tag k="no-barnehage:nsrid" v="993912751" />
		<tag k="operator" v="Linnéa Natur- og gårdsbarnehage AS" />
		<tag k="operator:type" v="private" />
	</node>
	<node lat="59.59063" lon="11.17676" id="-1906">
		<tag k="ADDRESS" v="Museumsveien 27, 1807 ASKIM" />
		<tag k="amenity" v="kindergarten" />
		<tag k="capacity" v="30" />
		<tag k="contact:website" v="http://laringsverkstedet.no/barnehage/læringsverkstedet-askim-menighets-barnehage" />
		<tag k="max_age" v="5" />
		<tag k="min_age" v="1" />
		<tag k="name" v="Læringsverkstedet Askim Solkollen barnehage" />
		<tag k="no-barnehage:nsrid" v="974702886" />
		<tag k="operator" v="Læringsverkstedet Askim Solkollen barnehage AS" />
		<tag k="operator:type" v="private" />
	</node>
	<node lat="59.62399" lon="11.03223" id="-1907">
		<tag k="ADDRESS" v="Knapstadveien 17, 1823 KNAPSTAD" />
		<tag k="amenity" v="kindergarten" />
		<tag k="capacity" v="29" />
		<tag k="max_age" v="5" />
		<tag k="min_age" v="1" />
		<tag k="name" v="Læringsverkstedet Knapstad barnehage" />
		<tag k="no-barnehage:nsrid" v="973652885" />
		<tag k="operator" v="Læringsverkstedet Knapstad barnehage AS" />
		<tag k="operator:type" v="private" />
	</node>
	<node lat="59.66493" lon="10.99779" id="-1908">
		<tag k="ADDRESS" v="Skogfaret 59, 1825 TOMTER" />
		<tag k="amenity" v="kindergarten" />
		<tag k="capacity" v="78" />
		<tag k="max_age" v="5" />
		<tag k="min_age" v="1" />
		<tag k="name" v="Læringsverkstedet Nordre Øyen barnehage" />
		<tag k="no-barnehage:nsrid" v="988348899" />
		<tag k="operator" v="Læringsverkstedet Nordre Øyen barnehage AS" />
		<tag k="operator:type" v="private" />
	</node>
	<node lat="59.5818" lon="11.15899" id="-1909">
		<tag k="ADDRESS" v="Roald Amundsens gate 1, 1831 ASKIM" />
		<tag k="amenity" v="kindergarten" />
		<tag k="capacity" v="34" />
		<tag k="max_age" v="5" />
		<tag k="min_age" v="1" />
		<tag k="name" v="Misjonskirken barnehage" />
		<tag k="no-barnehage:nsrid" v="973074245" />
		<tag k="operator" v="Misjonskirken barnehage" />
		<tag k="operator:type" v="private" />
	</node>
	<node lat="59.58658" lon="11.1607" id="-1910">
		<tag k="ADDRESS" v="Prestenggata 1, 1807 ASKIM" />
		<tag k="amenity" v="kindergarten" />
		<tag k="capacity" v="104" />
		<tag k="max_age" v="5" />
		<tag k="min_age" v="1" />
		<tag k="name" v="Prestenga barnehage" />
		<tag k="no-barnehage:nsrid" v="973722271" />
		<tag k="operator" v="Indre Østfold kommune" />
		<tag k="operator:type" v="public" />
	</node>
	<node lat="59.55718" lon="10.84583" id="-1912">
		<tag k="ADDRESS" v="Trollveien 14, 1827 HOBØL" />
		<tag k="amenity" v="kindergarten" />
		<tag k="capacity" v="51" />
		<tag k="max_age" v="5" />
		<tag k="min_age" v="1" />
		<tag k="name" v="Ringvoll barnehage" />
		<tag k="no-barnehage:nsrid" v="875301632" />
		<tag k="operator" v="Indre Østfold kommune" />
		<tag k="operator:type" v="public" />
	</node>
	<node lat="59.59012" lon="11.12767" id="-1913">
		<tag k="ADDRESS" v="Gramveien 65, 1832 ASKIM" />
		<tag k="amenity" v="kindergarten" />
		<tag k="capacity" v="114" />
		<tag k="max_age" v="5" />
		<tag k="min_age" v="1" />
		<tag k="name" v="Rom barnehage" />
		<tag k="no-barnehage:nsrid" v="975319717" />
		<tag k="operator" v="Indre Østfold kommune" />
		<tag k="operator:type" v="public" />
	</node>
	<node lat="59.63796" lon="11.32516" id="-1914">
		<tag k="ADDRESS" v="Idrettsveien 14, 1860 TRØGSTAD" />
		<tag k="amenity" v="kindergarten" />
		<tag k="capacity" v="80" />
		<tag k="max_age" v="5" />
		<tag k="min_age" v="1" />
		<tag k="name" v="Skjønhaug barnehage" />
		<tag k="no-barnehage:nsrid" v="973587331" />
		<tag k="operator" v="Indre Østfold kommune" />
		<tag k="operator:type" v="public" />
	</node>
	<node lat="59.50682" lon="11.35732" id="-1915">
		<tag k="ADDRESS" v="Trømborgveien 502, 1852 MYSEN" />
		<tag k="amenity" v="kindergarten" />
		<tag k="capacity" v="52" />
		<tag k="contact:website" v="http://skogstjerna.no/index.html" />
		<tag k="max_age" v="5" />
		<tag k="min_age" v="1" />
		<tag k="name" v="Skogstjerna natur og menighetsbarnehage" />
		<tag k="no-barnehage:nsrid" v="979781857" />
		<tag k="operator" v="Skogstjerna Natur og menighetsbarnehage" />
		<tag k="operator:type" v="private" />
	</node>
	<node lat="59.58361" lon="11.06725" id="-1916">
		<tag k="ADDRESS" v="Dæhliveien 1, 1821 SPYDEBERG" />
		<tag k="amenity" v="kindergarten" />
		<tag k="capacity" v="54" />
		<tag k="contact:website" v="http://solbakken-spydeberg.barnehage.no/" />
		<tag k="max_age" v="5" />
		<tag k="min_age" v="1" />
		<tag k="name" v="Solbakken barnehage" />
		<tag k="no-barnehage:nsrid" v="973498525" />
		<tag k="operator" v="Solbakken barnehage" />
		<tag k="operator:type" v="private" />
	</node>
	<node lat="59.61534" lon="11.08953" id="-1917">
		<tag k="ADDRESS" v="Glendeveien 22, 1820 SPYDEBERG" />
		<tag k="amenity" v="kindergarten" />
		<tag k="capacity" v="41" />
		<tag k="contact:website" v="http://www.solsiden.barnehage.no" />
		<tag k="max_age" v="5" />
		<tag k="min_age" v="1" />
		<tag k="name" v="Solsiden barnehage" />
		<tag k="no-barnehage:nsrid" v="971634073" />
		<tag k="operator" v="Solsiden barnehage SA" />
		<tag k="operator:type" v="private" />
	</node>
	<node lat="59.58594" lon="11.12719" id="-1918">
		<tag k="ADDRESS" v="Osloveien 120, 1815 ASKIM" />
		<tag k="amenity" v="kindergarten" />
		<tag k="capacity" v="32" />
		<tag k="contact:website" v="http://steinerskoleniindreostfold.com" />
		<tag k="max_age" v="5" />
		<tag k="min_age" v="1" />
		<tag k="name" v="Stiftelsen Gullhaugen Steinerbarnehage" />
		<tag k="no-barnehage:nsrid" v="981098749" />
		<tag k="operator" v="Stiftelsen Gullhaugen steinerbarnehage" />
		<tag k="operator:type" v="private" />
	</node>
	<node lat="59.59616" lon="11.13322" id="-1919">
		<tag k="ADDRESS" v="Langnesveien 133, 1815 ASKIM" />
		<tag k="amenity" v="kindergarten" />
		<tag k="capacity" v="38" />
		<tag k="contact:website" v="http://www.ilen.no" />
		<tag k="max_age" v="5" />
		<tag k="min_age" v="1" />
		<tag k="name" v="Stubbeskogen naturbarnehage" />
		<tag k="no-barnehage:nsrid" v="989800795" />
		<tag k="operator" v="Stubbeskogen naturbarnehage AS" />
		<tag k="operator:type" v="private" />
	</node>
	<node lat="59.54892" lon="11.35736" id="-1920">
		<tag k="ADDRESS" v="Susebakkeveien 12, 1850 MYSEN" />
		<tag k="amenity" v="kindergarten" />
		<tag k="capacity" v="91" />
		<tag k="max_age" v="5" />
		<tag k="min_age" v="1" />
		<tag k="name" v="Susebakke barnehage" />
		<tag k="no-barnehage:nsrid" v="891833962" />
		<tag k="operator" v="Indre Østfold kommune" />
		<tag k="operator:type" v="public" />
	</node>
	<node lat="59.55245" lon="11.34408" id="-1921">
		<tag k="ADDRESS" v="Kirkåsveien 1B, 1850 MYSEN" />
		<tag k="amenity" v="kindergarten" />
		<tag k="capacity" v="53" />
		<tag k="max_age" v="5" />
		<tag k="min_age" v="1" />
		<tag k="name" v="Symra barnehage" />
		<tag k="no-barnehage:nsrid" v="974577755" />
		<tag k="operator" v="Indre Østfold kommune" />
		<tag k="operator:type" v="public" />
	</node>
	<node lat="0.0" lon="0.0" id="-1922">
		<tag k="ADDRESS" v="Symreveien 5, 1825 TOMTER" />
		<tag k="amenity" v="kindergarten" />
		<tag k="capacity" v="31" />
		<tag k="max_age" v="5" />
		<tag k="min_age" v="1" />
		<tag k="name" v="Symrelunden barnehage" />
		<tag k="no-barnehage:nsrid" v="993420387" />
		<tag k="operator" v="Indre Østfold kommune" />
		<tag k="operator:type" v="public" />
	</node>
	<node lat="59.59087" lon="11.19029" id="-1923">
		<tag k="ADDRESS" v="Enerveien 14, 1812 ASKIM" />
		<tag k="amenity" v="kindergarten" />
		<tag k="capacity" v="125" />
		<tag k="max_age" v="5" />
		<tag k="min_age" v="1" />
		<tag k="name" v="Trippestadlia barnehage" />
		<tag k="no-barnehage:nsrid" v="975295575" />
		<tag k="operator" v="Indre Østfold kommune" />
		<tag k="operator:type" v="public" />
	</node>
	<node lat="59.60593" lon="11.07465" id="-1924">
		<tag k="ADDRESS" v="Grååsveien 6, 1820 SPYDEBERG" />
		<tag k="amenity" v="kindergarten" />
		<tag k="capacity" v="53" />
		<tag k="contact:website" v="http://www.tyttebaret.barnehage.no" />
		<tag k="max_age" v="5" />
		<tag k="min_age" v="1" />
		<tag k="name" v="Tyttebæret barnehage" />
		<tag k="no-barnehage:nsrid" v="985094268" />
		<tag k="operator" v="Tyttebæret barnehage SA" />
		<tag k="operator:type" v="private" />
	</node>
</osm>
