<?xml version="1.0" encoding="UTF-8"?>
<osm generator="osmapis" version="0.6">
	<node id="-3020" lat="60.21252" lon="10.71052">
		<tag k="ADDRESS" v="Skolevegen 2, 2743 HARESTUA" />
		<tag k="amenity" v="kindergarten" />
		<tag k="capacity" v="72" />
		<tag k="max_age" v="5" />
		<tag k="min_age" v="1" />
		<tag k="name" v="Eventyrskogen barnehage" />
		<tag k="no-barnehage:nsrid" v="975321975" />
		<tag k="operator" v="Lunner kommune" />
		<tag k="operator:type" v="public" />
	</node>
	<node id="-3022" lat="0.0" lon="0.0">
		<tag k="ADDRESS" v=", 2742 GRUA" />
		<tag k="amenity" v="kindergarten" />
		<tag k="capacity" v="33" />
		<tag k="max_age" v="5" />
		<tag k="min_age" v="1" />
		<tag k="name" v="Gamleskolen barnehage" />
		<tag k="no-barnehage:nsrid" v="975324923" />
		<tag k="operator" v="Lunner kommune" />
		<tag k="operator:type" v="public" />
	</node>
	<node id="-3023" lat="60.30526" lon="10.49188">
		<tag k="ADDRESS" v="Løkengutua 55, 2720 GRINDVOLL" />
		<tag k="amenity" v="kindergarten" />
		<tag k="capacity" v="28" />
		<tag k="max_age" v="5" />
		<tag k="min_age" v="1" />
		<tag k="name" v="Grindvoll barnehage" />
		<tag k="no-barnehage:nsrid" v="982929504" />
		<tag k="operator" v="Grindvoll barnehage AS" />
		<tag k="operator:type" v="private" />
	</node>
	<node id="-3024" lat="60.26113" lon="10.67017">
		<tag k="ADDRESS" v="Hadelandsvegen 1691, 2742 GRUA" />
		<tag k="amenity" v="kindergarten" />
		<tag k="capacity" v="54" />
		<tag k="contact:website" v="http://www.gruabarnehage.no" />
		<tag k="max_age" v="5" />
		<tag k="min_age" v="1" />
		<tag k="name" v="Grua barnehage" />
		<tag k="no-barnehage:nsrid" v="912531481" />
		<tag k="operator" v="Grua barnehage Lene Nordberg" />
		<tag k="operator:type" v="private" />
	</node>
	<node id="-3025" lat="0.0" lon="0.0">
		<tag k="ADDRESS" v="Elvefaret 20, 2743 HARESTUA" />
		<tag k="amenity" v="kindergarten" />
		<tag k="capacity" v="53" />
		<tag k="max_age" v="5" />
		<tag k="min_age" v="1" />
		<tag k="name" v="Harestua Arena barnehage" />
		<tag k="no-barnehage:nsrid" v="917333564" />
		<tag k="operator" v="Lunner kommune" />
		<tag k="operator:type" v="public" />
	</node>
	<node id="-3026" lat="60.28871" lon="10.56471">
		<tag k="ADDRESS" v="Randsfjordlinna 296, 2730 LUNNER" />
		<tag k="amenity" v="kindergarten" />
		<tag k="capacity" v="83" />
		<tag k="max_age" v="5" />
		<tag k="min_age" v="1" />
		<tag k="name" v="Kalvsjø barnehage" />
		<tag k="no-barnehage:nsrid" v="975303705" />
		<tag k="operator" v="Lunner kommune" />
		<tag k="operator:type" v="public" />
	</node>
	<node id="-3027" lat="0.0" lon="0.0">
		<tag k="ADDRESS" v="Sagbråtan 42, 2740 ROA" />
		<tag k="amenity" v="kindergarten" />
		<tag k="capacity" v="39" />
		<tag k="max_age" v="5" />
		<tag k="min_age" v="1" />
		<tag k="name" v="Roa barnehage" />
		<tag k="no-barnehage:nsrid" v="975303721" />
		<tag k="operator" v="Lunner kommune" />
		<tag k="operator:type" v="public" />
	</node>
	<node id="-3028" lat="60.30151" lon="10.5741">
		<tag k="ADDRESS" v="Kjørkevegen 43, 2730 LUNNER" />
		<tag k="amenity" v="kindergarten" />
		<tag k="capacity" v="24" />
		<tag k="max_age" v="5" />
		<tag k="min_age" v="1" />
		<tag k="name" v="Småtjern naturbarnehage" />
		<tag k="no-barnehage:nsrid" v="983539718" />
		<tag k="operator" v="Småtjern Naturbarnehage AS" />
		<tag k="operator:type" v="private" />
	</node>
	<node id="-3031" lat="60.27906" lon="10.63447">
		<tag k="ADDRESS" v="Åsvegen, 2740 ROA" />
		<tag k="amenity" v="kindergarten" />
		<tag k="capacity" v="18" />
		<tag k="max_age" v="5" />
		<tag k="min_age" v="1" />
		<tag k="name" v="Åstroll familiebarnehage" />
		<tag k="no-barnehage:nsrid" v="994914707" />
		<tag k="operator" v="Åstroll Naturbarnehage V/rita Fægri" />
		<tag k="operator:type" v="private" />
	</node>
</osm>
