<?xml version="1.0" encoding="UTF-8"?>
<osm generator="osmapis" version="0.6">
	<node id="-3316" lat="58.29074" lon="7.777582">
		<tag k="amenity" v="kindergarten" />
		<tag k="capacity" v="37" />
		<tag k="max_age" v="5" />
		<tag k="min_age" v="1" />
		<tag k="name" v="Øverbø Opplæringskontor AS" />
		<tag k="no-barnehage:nsrid" v="1020565" />
		<tag k="operator" v="Øvrebø Opplæringskontor AS" />
		<tag k="operator:type" v="private" />
		<tag k="start_date" v="1999-12-15" />
	</node>
	<node id="-3315" lat="58.2679" lon="7.95927">
		<tag k="amenity" v="kindergarten" />
		<tag k="capacity" v="103" />
		<tag k="max_age" v="5" />
		<tag k="min_age" v="1" />
		<tag k="name" v="Solsletta barnehage" />
		<tag k="no-barnehage:nsrid" v="1013259" />
		<tag k="operator" v="Vennesla kommune" />
		<tag k="operator:type" v="public" />
		<tag k="start_date" v="2005-08-01" />
	</node>
	<node id="-3314" lat="58.2571" lon="7.986815">
		<tag k="amenity" v="kindergarten" />
		<tag k="capacity" v="105" />
		<tag k="contact:phone" v="38 15 62 29" />
		<tag k="max_age" v="5" />
		<tag k="min_age" v="1" />
		<tag k="name" v="Snømyra barnehage" />
		<tag k="no-barnehage:nsrid" v="1020451" />
		<tag k="operator" v="Snømyra barnehage Sa" />
		<tag k="operator:type" v="private" />
		<tag k="start_date" v="1993-02-01" />
	</node>
	<node id="-3313" lat="58.2647" lon="7.94975">
		<tag k="amenity" v="kindergarten" />
		<tag k="capacity" v="93" />
		<tag k="max_age" v="5" />
		<tag k="min_age" v="1" />
		<tag k="name" v="Smååsane barnehage" />
		<tag k="no-barnehage:nsrid" v="1017794" />
		<tag k="operator" v="Vennesla kommune" />
		<tag k="operator:type" v="public" />
		<tag k="start_date" v="2007-08-27" />
	</node>
	<node id="-3312" lat="58.252" lon="7.96364">
		<tag k="amenity" v="kindergarten" />
		<tag k="capacity" v="93" />
		<tag k="max_age" v="5" />
		<tag k="min_age" v="1" />
		<tag k="name" v="Mariknotten barnehage" />
		<tag k="no-barnehage:nsrid" v="1016957" />
		<tag k="operator" v="Filadelfiamenigheten Vennesla" />
		<tag k="operator:type" v="private" />
		<tag k="start_date" v="2004-08-25" />
	</node>
	<node id="-3311" lat="58.2511" lon="7.98649">
		<tag k="amenity" v="kindergarten" />
		<tag k="capacity" v="77" />
		<tag k="max_age" v="5" />
		<tag k="min_age" v="1" />
		<tag k="name" v="Læringsverkstedet barnehage Avd Vennesla" />
		<tag k="no-barnehage:nsrid" v="1013485" />
		<tag k="operator" v="Læringsverkstedet AS" />
		<tag k="operator:type" v="private" />
		<tag k="start_date" v="2010-03-01" />
	</node>
	<node id="-3310" lat="58.2737" lon="7.96802">
		<tag k="amenity" v="kindergarten" />
		<tag k="capacity" v="24" />
		<tag k="contact:phone" v="38 15 72 00" />
		<tag k="max_age" v="5" />
		<tag k="min_age" v="1" />
		<tag k="name" v="Læringsverkstedet barnehage Avd Søndagsbakken Barnehage" />
		<tag k="no-barnehage:nsrid" v="1015578" />
		<tag k="operator" v="Læringsverkstedet AS" />
		<tag k="operator:type" v="private" />
		<tag k="start_date" v="1989-01-02" />
	</node>
	<node id="-3309" lat="58.2705" lon="7.97702">
		<tag k="amenity" v="kindergarten" />
		<tag k="capacity" v="32" />
		<tag k="max_age" v="5" />
		<tag k="min_age" v="1" />
		<tag k="name" v="Læringsverkstedet barnehage Avd Erkleiv Barnehage" />
		<tag k="no-barnehage:nsrid" v="1016776" />
		<tag k="operator" v="Læringsverkstedet AS" />
		<tag k="operator:type" v="private" />
		<tag k="start_date" v="1995-08-01" />
	</node>
	<node id="-3308" lat="58.275" lon="7.96759">
		<tag k="amenity" v="kindergarten" />
		<tag k="capacity" v="93" />
		<tag k="max_age" v="5" />
		<tag k="min_age" v="1" />
		<tag k="name" v="Klokkerstua barnehage" />
		<tag k="no-barnehage:nsrid" v="1017471" />
		<tag k="operator" v="Vennesla kommune" />
		<tag k="operator:type" v="public" />
		<tag k="start_date" v="1982-01-01" />
	</node>
	<node id="-3306" lat="58.28864" lon="7.985339">
		<tag k="amenity" v="kindergarten" />
		<tag k="capacity" v="21" />
		<tag k="max_age" v="5" />
		<tag k="min_age" v="1" />
		<tag k="name" v="Hompetiten barnehage AS" />
		<tag k="no-barnehage:nsrid" v="1022253" />
		<tag k="operator" v="Hompetiten barnehage AS" />
		<tag k="operator:type" v="private" />
		<tag k="start_date" v="2007-05-02" />
	</node>
	<node id="-3305" lat="58.28309" lon="7.976286">
		<tag k="amenity" v="kindergarten" />
		<tag k="capacity" v="25" />
		<tag k="contact:email" v="harestuaas@gmail.com" />
		<tag k="contact:phone" v="38 15 82 27" />
		<tag k="max_age" v="5" />
		<tag k="min_age" v="1" />
		<tag k="name" v="Harestua barnehage AS" />
		<tag k="no-barnehage:nsrid" v="1021843" />
		<tag k="operator" v="Harestua barnehage AS" />
		<tag k="operator:type" v="private" />
		<tag k="start_date" v="1995-08-01" />
	</node>
	<node id="-3304" lat="58.3715" lon="7.75571">
		<tag k="amenity" v="kindergarten" />
		<tag k="capacity" v="55" />
		<tag k="max_age" v="5" />
		<tag k="min_age" v="1" />
		<tag k="name" v="Eikeland Oppvekstsenter Avdeling Barnehage" />
		<tag k="no-barnehage:nsrid" v="1015090" />
		<tag k="operator" v="Vennesla kommune" />
		<tag k="operator:type" v="public" />
		<tag k="start_date" v="2012-01-01" />
	</node>
	<node id="-3303" lat="58.29549" lon="7.840703">
		<tag k="amenity" v="kindergarten" />
		<tag k="capacity" v="102" />
		<tag k="contact:email" v="dl.djupmyra@bhg.no" />
		<tag k="contact:phone" v="38 13 96 69" />
		<tag k="max_age" v="5" />
		<tag k="min_age" v="1" />
		<tag k="name" v="Djupmyra Fus barnehage Sa" />
		<tag k="no-barnehage:nsrid" v="1020915" />
		<tag k="operator" v="Djupmyra Fus barnehage Sa" />
		<tag k="operator:type" v="private" />
		<tag k="start_date" v="2002-02-21" />
	</node>
	<node id="-3301" lat="58.2659" lon="7.9577">
		<tag k="amenity" v="kindergarten" />
		<tag k="capacity" v="62" />
		<tag k="contact:email" v="barnebhg@frisurf.no" />
		<tag k="contact:phone" v="38 15 92 37" />
		<tag k="max_age" v="5" />
		<tag k="min_age" v="1" />
		<tag k="name" v="Barnestua barnehage" />
		<tag k="no-barnehage:nsrid" v="1016754" />
		<tag k="operator" v="Vennesla Sokn" />
		<tag k="operator:type" v="private" />
		<tag k="start_date" v="1989-01-02" />
	</node>
</osm>
