<?xml version="1.0" encoding="UTF-8"?>
<osm generator="osmapis" version="0.6">
	<node id="-3460" lat="0.0" lon="0.0">
		<tag k="ADDRESS" v=", 7177 REVSNES" />
		<tag k="amenity" v="kindergarten" />
		<tag k="capacity" v="25" />
		<tag k="max_age" v="5" />
		<tag k="min_age" v="1" />
		<tag k="name" v="Stokksund barnehage" />
		<tag k="no-barnehage:nsrid" v="1013946" />
		<tag k="operator" v="Åfjord kommune" />
		<tag k="operator:type" v="public" />
	</node>
	<node id="-3459" lat="63.96849" lon="10.21926">
		<tag k="ADDRESS" v="Prestgårdslia 2, 7170 ÅFJORD" />
		<tag k="amenity" v="kindergarten" />
		<tag k="capacity" v="45" />
		<tag k="max_age" v="5" />
		<tag k="min_age" v="1" />
		<tag k="name" v="NLM barnehagene avd. Heggli barnehage" />
		<tag k="no-barnehage:nsrid" v="1015550" />
		<tag k="operator" v="Nlm-Barnehagene AS" />
		<tag k="operator:type" v="private" />
	</node>
	<node id="-3458" lat="63.96782" lon="10.21839">
		<tag k="ADDRESS" v="Gammelvegen 4, 7170 ÅFJORD" />
		<tag k="amenity" v="kindergarten" />
		<tag k="capacity" v="71" />
		<tag k="max_age" v="5" />
		<tag k="min_age" v="1" />
		<tag k="name" v="Maribo barnehage" />
		<tag k="no-barnehage:nsrid" v="1025337" />
		<tag k="operator" v="Åfjord kommune" />
		<tag k="operator:type" v="public" />
	</node>
	<node id="-3457" lat="0.0" lon="0.0">
		<tag k="ADDRESS" v=", 7170 ÅFJORD" />
		<tag k="amenity" v="kindergarten" />
		<tag k="capacity" v="35" />
		<tag k="max_age" v="5" />
		<tag k="min_age" v="1" />
		<tag k="name" v="By barnehage" />
		<tag k="no-barnehage:nsrid" v="1012591" />
		<tag k="operator" v="Åfjord kommune" />
		<tag k="operator:type" v="public" />
	</node>
</osm>
