<?xml version="1.0" encoding="UTF-8"?>
<osm generator="osmapis" version="0.6">
	<node id="-3195" lat="60.67738" lon="11.83472">
		<tag k="ADDRESS" v="Vålbekkdalen 4, 2436 VÅLER I SOLØR" />
		<tag k="amenity" v="kindergarten" />
		<tag k="capacity" v="62" />
		<tag k="contact:website" v="http://furunabben.barnehageside.no" />
		<tag k="max_age" v="5" />
		<tag k="min_age" v="1" />
		<tag k="name" v="Furunabben barnehage" />
		<tag k="no-barnehage:nsrid" v="873455942" />
		<tag k="operator" v="Furunabben barnehage Sa" />
		<tag k="operator:type" v="private" />
	</node>
	<node id="-3196" lat="60.72956" lon="11.82181">
		<tag k="ADDRESS" v="Audenbyjordet 19, 2435 BRASKEREIDFOSS" />
		<tag k="amenity" v="kindergarten" />
		<tag k="capacity" v="33" />
		<tag k="max_age" v="5" />
		<tag k="min_age" v="1" />
		<tag k="name" v="Nordhagen barnehage" />
		<tag k="no-barnehage:nsrid" v="975323048" />
		<tag k="operator" v="Våler kommune" />
		<tag k="operator:type" v="public" />
	</node>
	<node id="-3197" lat="60.74797" lon="11.87017">
		<tag k="ADDRESS" v="Kantorivegen 1, 2435 BRASKEREIDFOSS" />
		<tag k="amenity" v="kindergarten" />
		<tag k="capacity" v="11" />
		<tag k="max_age" v="5" />
		<tag k="min_age" v="1" />
		<tag k="name" v="Tøråsen naturbarnehage" />
		<tag k="no-barnehage:nsrid" v="873468912" />
		<tag k="operator" v="Tøråsen naturbarnehage" />
		<tag k="operator:type" v="private" />
	</node>
	<node id="-3198" lat="60.6716" lon="11.8298">
		<tag k="ADDRESS" v="Skolevegen 17, 2436 VÅLER I SOLØR" />
		<tag k="amenity" v="kindergarten" />
		<tag k="capacity" v="29" />
		<tag k="max_age" v="5" />
		<tag k="min_age" v="1" />
		<tag k="name" v="Vålbyen barnehage" />
		<tag k="no-barnehage:nsrid" v="975302598" />
		<tag k="operator" v="Våler kommune" />
		<tag k="operator:type" v="public" />
	</node>
</osm>
