<?xml version="1.0" encoding="UTF-8"?>
<osm generator="osmapis" version="0.6">
	<node id="-800" lat="59.95792" lon="11.06381">
		<tag k="amenity" v="kindergarten" />
		<tag k="capacity" v="4" />
		<tag k="contact:website" v="http://www.facebook.com/search/top/?q=mariannes%20knerten%20familiebarnehage" />
		<tag k="max_age" v="2" />
		<tag k="min_age" v="1" />
		<tag k="name" v="Knerten familiebarnehage" />
		<tag k="no-barnehage:nsrid" v="1020822" />
		<tag k="operator" v="Knerten Familiebarnehage Marianne Worren" />
		<tag k="operator:type" v="private" />
	</node>
	<node id="-798" lat="59.96647" lon="11.05587">
		<tag k="amenity" v="kindergarten" />
		<tag k="capacity" v="4" />
		<tag k="max_age" v="2" />
		<tag k="min_age" v="1" />
		<tag k="name" v="Kanutten familiebarnehage Bremnes" />
		<tag k="no-barnehage:nsrid" v="1020303" />
		<tag k="operator" v="Kanutten Familiebarnehage May-Liss Peggy Bremnes" />
		<tag k="operator:type" v="private" />
	</node>
	<node id="-797" lat="59.96748" lon="10.99677">
		<tag k="amenity" v="kindergarten" />
		<tag k="capacity" v="4" />
		<tag k="max_age" v="2" />
		<tag k="min_age" v="1" />
		<tag k="name" v="Hundremeterskogen familiebarnehage" />
		<tag k="no-barnehage:nsrid" v="1020652" />
		<tag k="operator" v="Hundremeterskogen Familiebarnehage, avd Rosenknoppen, Mette Helen Haugen Johnsen" />
		<tag k="operator:type" v="private" />
	</node>
	<node id="-795" lat="59.98474" lon="11.04031">
		<tag k="amenity" v="kindergarten" />
		<tag k="capacity" v="4" />
		<tag k="contact:website" v="http://www.borgersen.biz" />
		<tag k="max_age" v="2" />
		<tag k="min_age" v="1" />
		<tag k="name" v="Hakkebakkeskogen familiebarnehage Elisabeth Borgersen" />
		<tag k="no-barnehage:nsrid" v="1021313" />
		<tag k="operator" v="Hakkebakkeskogen Familiebarnehage Elisabeth Borgersen" />
		<tag k="operator:type" v="private" />
	</node>
	<node id="-822" lat="59.95679" lon="11.01884">
		<tag k="amenity" v="kindergarten" />
		<tag k="capacity" v="4" />
		<tag k="max_age" v="2" />
		<tag k="min_age" v="1" />
		<tag k="name" v="Svanen familie barnehage Mahnaz Hosseini" />
		<tag k="no-barnehage:nsrid" v="1020349" />
		<tag k="operator" v="Svanen Familie barnehage Mahnaz Hosseini" />
		<tag k="operator:type" v="private" />
	</node>
	<node id="-788" lat="59.95957" lon="10.98948">
		<tag k="amenity" v="kindergarten" />
		<tag k="capacity" v="10" />
		<tag k="max_age" v="5" />
		<tag k="min_age" v="1" />
		<tag k="name" v="Bitteliten familiebarnehage Trine Dahl" />
		<tag k="no-barnehage:nsrid" v="1020760" />
		<tag k="operator" v="Bitteliten Familiebarnehage Trine Dahl" />
		<tag k="operator:type" v="private" />
	</node>
	<node id="-819" lat="59.95346" lon="11.01747">
		<tag k="amenity" v="kindergarten" />
		<tag k="capacity" v="4" />
		<tag k="max_age" v="2" />
		<tag k="min_age" v="1" />
		<tag k="name" v="Stalsberg familiebarnehage Tott" />
		<tag k="no-barnehage:nsrid" v="1021325" />
		<tag k="operator" v="Stalsberg Fam. barnehage Avd. Tott Anne Karin Fredheim" />
		<tag k="operator:type" v="private" />
	</node>
	<node id="-816" lat="59.95734" lon="10.99219">
		<tag k="amenity" v="kindergarten" />
		<tag k="capacity" v="4" />
		<tag k="max_age" v="2" />
		<tag k="min_age" v="1" />
		<tag k="name" v="Sesam familiebarnehage avd. Pelikan Naziha Nouri" />
		<tag k="no-barnehage:nsrid" v="1021171" />
		<tag k="operator" v="Sesam Familiebarnehage Avd. Pelikan Naziha Nouri" />
		<tag k="operator:type" v="private" />
	</node>
	<node id="-813" lat="59.94157" lon="11.01452">
		<tag k="amenity" v="kindergarten" />
		<tag k="capacity" v="10" />
		<tag k="max_age" v="5" />
		<tag k="min_age" v="1" />
		<tag k="name" v="Portveien familiebarnehage" />
		<tag k="no-barnehage:nsrid" v="1020844" />
		<tag k="operator" v="Portveien Familiebarnehage AS" />
		<tag k="operator:type" v="private" />
	</node>
	<node id="-804" lat="59.97128" lon="11.05426">
		<tag k="amenity" v="kindergarten" />
		<tag k="capacity" v="8" />
		<tag k="max_age" v="2" />
		<tag k="min_age" v="1" />
		<tag k="name" v="Lille Krabat familiebarnehage avd. Kjeller" />
		<tag k="no-barnehage:nsrid" v="1015745" />
		<tag k="operator" v="Lille Krabat Aina Lie" />
		<tag k="operator:type" v="private" />
	</node>
</osm>
