<?xml version="1.0" encoding="UTF-8"?>
<osm generator="osmapis" version="0.6">
	<node id="-679" lat="59.9494" lon="11.0173">
		<tag k="amenity" v="kindergarten" />
		<tag k="capacity" v="91" />
		<tag k="max_age" v="5" />
		<tag k="min_age" v="1" />
		<tag k="name" v="Strømmmen kommunale barnehage" />
		<tag k="no-barnehage:nsrid" v="1012683" />
		<tag k="operator" v="Skedsmo kommune" />
		<tag k="operator:type" v="public" />
	</node>
	<node id="-678" lat="59.994" lon="11.0384">
		<tag k="amenity" v="kindergarten" />
		<tag k="capacity" v="103" />
		<tag k="max_age" v="5" />
		<tag k="min_age" v="1" />
		<tag k="name" v="Sten-tærud barnehage" />
		<tag k="no-barnehage:nsrid" v="1017049" />
		<tag k="operator" v="Norlandia Barnehagene AS" />
		<tag k="operator:type" v="private" />
	</node>
	<node id="-676" lat="59.9957" lon="11.0233">
		<tag k="amenity" v="kindergarten" />
		<tag k="capacity" v="57" />
		<tag k="max_age" v="5" />
		<tag k="min_age" v="1" />
		<tag k="name" v="Solhaug barnehage" />
		<tag k="no-barnehage:nsrid" v="1015613" />
		<tag k="operator" v="Romerike Barnehager Sa" />
		<tag k="operator:type" v="private" />
	</node>
	<node id="-675" lat="59.99893" lon="11.02068">
		<tag k="amenity" v="kindergarten" />
		<tag k="capacity" v="88" />
		<tag k="max_age" v="5" />
		<tag k="min_age" v="1" />
		<tag k="name" v="Skolsegglia FUS barnehage" />
		<tag k="no-barnehage:nsrid" v="1021223" />
		<tag k="operator" v="Skolsegglia Fus barnehage AS" />
		<tag k="operator:type" v="private" />
	</node>
	<node id="-673" lat="59.947" lon="11.0001">
		<tag k="amenity" v="kindergarten" />
		<tag k="capacity" v="122" />
		<tag k="max_age" v="5" />
		<tag k="min_age" v="1" />
		<tag k="name" v="Sagelva barnehage" />
		<tag k="no-barnehage:nsrid" v="1018414" />
		<tag k="operator" v="Skedsmo kommune" />
		<tag k="operator:type" v="public" />
	</node>
	<node id="-672" lat="59.975" lon="11.0475">
		<tag k="amenity" v="kindergarten" />
		<tag k="capacity" v="216" />
		<tag k="max_age" v="5" />
		<tag k="min_age" v="1" />
		<tag k="name" v="Riisløkka barnehage" />
		<tag k="no-barnehage:nsrid" v="1016960" />
		<tag k="operator" v="Skedsmo kommune" />
		<tag k="operator:type" v="public" />
	</node>
	<node id="-670" lat="59.9548" lon="11.0459">
		<tag k="amenity" v="kindergarten" />
		<tag k="name" v="Normisjon Lillestrøm åpen barnehage" />
		<tag k="no-barnehage:nsrid" v="1013140" />
		<tag k="operator" v="Normisjon Lillestrøm" />
		<tag k="operator:type" v="private" />
	</node>
	<node id="-669" lat="59.9513" lon="11.0139">
		<tag k="amenity" v="kindergarten" />
		<tag k="capacity" v="27" />
		<tag k="max_age" v="5" />
		<tag k="min_age" v="1" />
		<tag k="name" v="Noas Ark barnehage" />
		<tag k="no-barnehage:nsrid" v="1015474" />
		<tag k="operator" v="Strømmen Sokn" />
		<tag k="operator:type" v="private" />
	</node>
	<node id="-668" lat="59.962" lon="11.0526">
		<tag k="amenity" v="kindergarten" />
		<tag k="capacity" v="54" />
		<tag k="max_age" v="5" />
		<tag k="min_age" v="1" />
		<tag k="name" v="Måsan barnehage" />
		<tag k="no-barnehage:nsrid" v="1016009" />
		<tag k="operator" v="Skedsmo kommune" />
		<tag k="operator:type" v="public" />
	</node>
	<node id="-667" lat="59.9725" lon="10.9976">
		<tag k="amenity" v="kindergarten" />
		<tag k="capacity" v="72" />
		<tag k="max_age" v="5" />
		<tag k="min_age" v="1" />
		<tag k="name" v="Melby barnehage" />
		<tag k="no-barnehage:nsrid" v="1016006" />
		<tag k="operator" v="Skedsmo kommune" />
		<tag k="operator:type" v="public" />
	</node>
	<node id="-666" lat="59.95901" lon="10.99496">
		<tag k="amenity" v="kindergarten" />
		<tag k="capacity" v="86" />
		<tag k="max_age" v="5" />
		<tag k="min_age" v="1" />
		<tag k="name" v="Løvehjerte FUS barnehage" />
		<tag k="no-barnehage:nsrid" v="1020792" />
		<tag k="operator" v="Løvehjerte Fus barnehage AS" />
		<tag k="operator:type" v="private" />
	</node>
	<node id="-665" lat="59.9727" lon="10.9939">
		<tag k="amenity" v="kindergarten" />
		<tag k="capacity" v="175" />
		<tag k="max_age" v="5" />
		<tag k="min_age" v="1" />
		<tag k="name" v="Linbråten barnehage" />
		<tag k="no-barnehage:nsrid" v="1018347" />
		<tag k="operator" v="Skedsmo kommune" />
		<tag k="operator:type" v="public" />
	</node>
	<node id="-664" lat="59.9541" lon="11.063">
		<tag k="amenity" v="kindergarten" />
		<tag k="capacity" v="78" />
		<tag k="contact:website" v="http://www.skedsmo.kommune.no/Skole-og-barnehage/Finn-barnehage/Lillestrom-barnehage/" />
		<tag k="max_age" v="5" />
		<tag k="min_age" v="1" />
		<tag k="name" v="Lillestrøm barnehage" />
		<tag k="no-barnehage:nsrid" v="1016010" />
		<tag k="operator" v="Skedsmo kommune" />
		<tag k="operator:type" v="public" />
	</node>
	<node id="-663" lat="59.95271" lon="11.0755">
		<tag k="amenity" v="kindergarten" />
		<tag k="capacity" v="83" />
		<tag k="contact:website" v="http://www.lillehagen.bhg.no" />
		<tag k="max_age" v="5" />
		<tag k="min_age" v="1" />
		<tag k="name" v="Lillehagen FUS barnehage" />
		<tag k="no-barnehage:nsrid" v="1020791" />
		<tag k="operator" v="Lillehagen Fus barnehage AS" />
		<tag k="operator:type" v="private" />
	</node>
	<node id="-661" lat="59.97261" lon="10.97375">
		<tag k="amenity" v="kindergarten" />
		<tag k="capacity" v="28" />
		<tag k="contact:website" v="http://lahaug.barnehageside.no" />
		<tag k="max_age" v="5" />
		<tag k="min_age" v="1" />
		<tag k="name" v="Lahaug gårds- og naturbarnehage" />
		<tag k="no-barnehage:nsrid" v="1020828" />
		<tag k="operator" v="Lahaug Gårds- og Naturbarnehage AS" />
		<tag k="operator:type" v="private" />
	</node>
	<node id="-660" lat="59.98398" lon="10.98253">
		<tag k="amenity" v="kindergarten" />
		<tag k="capacity" v="60" />
		<tag k="max_age" v="5" />
		<tag k="min_age" v="1" />
		<tag k="name" v="Kragerud barnehage" />
		<tag k="no-barnehage:nsrid" v="1021696" />
		<tag k="operator" v="Kragerud barnehage AS" />
		<tag k="operator:type" v="private" />
	</node>
	<node id="-659" lat="60.006" lon="11.0339">
		<tag k="amenity" v="kindergarten" />
		<tag k="capacity" v="79" />
		<tag k="max_age" v="5" />
		<tag k="min_age" v="1" />
		<tag k="name" v="Korshagen kommunale barnehage" />
		<tag k="no-barnehage:nsrid" v="1012682" />
		<tag k="operator" v="Skedsmo kommune" />
		<tag k="operator:type" v="public" />
	</node>
	<node id="-657" lat="59.9681" lon="11.0553">
		<tag k="amenity" v="kindergarten" />
		<tag k="capacity" v="146" />
		<tag k="max_age" v="5" />
		<tag k="min_age" v="1" />
		<tag k="name" v="Kjeller barnehage" />
		<tag k="no-barnehage:nsrid" v="1012681" />
		<tag k="operator" v="Skedsmo kommune" />
		<tag k="operator:type" v="public" />
	</node>
	<node id="-654" lat="59.98732" lon="11.03947">
		<tag k="amenity" v="kindergarten" />
		<tag k="capacity" v="59" />
		<tag k="max_age" v="5" />
		<tag k="min_age" v="1" />
		<tag k="name" v="Holthagen barnehage" />
		<tag k="no-barnehage:nsrid" v="1019923" />
		<tag k="operator" v="Holthagen barnehage Sa" />
		<tag k="operator:type" v="private" />
	</node>
	<node id="-652" lat="59.9451" lon="11.0174">
		<tag k="amenity" v="kindergarten" />
		<tag k="capacity" v="54" />
		<tag k="max_age" v="5" />
		<tag k="min_age" v="1" />
		<tag k="name" v="Hagan barnehage" />
		<tag k="no-barnehage:nsrid" v="1012680" />
		<tag k="operator" v="Skedsmo kommune" />
		<tag k="operator:type" v="public" />
	</node>
	<node id="-651" lat="59.9584" lon="11.0303">
		<tag k="amenity" v="kindergarten" />
		<tag k="capacity" v="68" />
		<tag k="max_age" v="5" />
		<tag k="min_age" v="1" />
		<tag k="name" v="Furulund barnehage" />
		<tag k="no-barnehage:nsrid" v="1016435" />
		<tag k="operator" v="Norlandia Barnehagene AS" />
		<tag k="operator:type" v="private" />
	</node>
	<node id="-650" lat="59.97683" lon="11.03469">
		<tag k="amenity" v="kindergarten" />
		<tag k="capacity" v="133" />
		<tag k="contact:website" v="http://kunnskapsbyen.espira.no/" />
		<tag k="max_age" v="5" />
		<tag k="min_age" v="1" />
		<tag k="name" v="Espira Kunnskapsbyen barnehage" />
		<tag k="no-barnehage:nsrid" v="1020394" />
		<tag k="operator" v="Espira Barnehager AS" />
		<tag k="operator:type" v="private" />
	</node>
	<node id="-649" lat="59.9454" lon="11.0139">
		<tag k="amenity" v="kindergarten" />
		<tag k="capacity" v="129" />
		<tag k="max_age" v="5" />
		<tag k="min_age" v="1" />
		<tag k="name" v="Bråtejorde barnehage" />
		<tag k="no-barnehage:nsrid" v="1017854" />
		<tag k="operator" v="Skedsmo kommune" />
		<tag k="operator:type" v="public" />
	</node>
	<node id="-648" lat="59.99682" lon="11.01966">
		<tag k="amenity" v="kindergarten" />
		<tag k="capacity" v="83" />
		<tag k="max_age" v="5" />
		<tag k="min_age" v="1" />
		<tag k="name" v="Brånåstoppen FUS barnehage" />
		<tag k="no-barnehage:nsrid" v="1020782" />
		<tag k="operator" v="Brånåstoppen Fus barnehage AS" />
		<tag k="operator:type" v="private" />
	</node>
	<node id="-647" lat="59.9654" lon="10.9953">
		<tag k="amenity" v="kindergarten" />
		<tag k="capacity" v="72" />
		<tag k="max_age" v="5" />
		<tag k="min_age" v="1" />
		<tag k="name" v="Breidablikk kommunale barnehage" />
		<tag k="no-barnehage:nsrid" v="1016011" />
		<tag k="operator" v="Skedsmo kommune" />
		<tag k="operator:type" v="public" />
	</node>
	<node id="-645" lat="59.9932" lon="11.1083">
		<tag k="amenity" v="kindergarten" />
		<tag k="capacity" v="77" />
		<tag k="max_age" v="5" />
		<tag k="min_age" v="1" />
		<tag k="name" v="Asak Kommunal barnehage" />
		<tag k="no-barnehage:nsrid" v="1016004" />
		<tag k="operator" v="Skedsmo kommune" />
		<tag k="operator:type" v="public" />
	</node>
</osm>
