<?xml version="1.0" encoding="UTF-8"?>
<osm generator="osmapis" version="0.6">
	<node id="-878" lat="60.012" lon="11.0343">
		<tag k="amenity" v="kindergarten" />
		<tag k="capacity" v="50" />
		<tag k="contact:email" v="MereteH@skedsmo.kommune.no" />
		<tag k="max_age" v="5" />
		<tag k="min_age" v="1" />
		<tag k="name" v="Åsenhagen barnehage" />
		<tag k="no-barnehage:nsrid" v="1016007" />
		<tag k="operator" v="Skedsmo kommune" />
		<tag k="operator:type" v="public" />
		<tag k="start_date" v="1988-04-01" />
	</node>
	<node id="-877" lat="59.9548" lon="11.0459">
		<tag k="amenity" v="kindergarten" />
		<tag k="contact:email" v="sissel@vattoy.com" />
		<tag k="contact:phone" v="63 80 21 61" />
		<tag k="name" v="Åpen barnehage Normisjon Lillestrøm" />
		<tag k="no-barnehage:nsrid" v="1013140" />
		<tag k="operator" v="Normisjon Region Øst" />
		<tag k="operator:type" v="private" />
		<tag k="start_date" v="1999-03-01" />
	</node>
	<node id="-876" lat="59.9644" lon="11.0456">
		<tag k="amenity" v="kindergarten" />
		<tag k="capacity" v="80" />
		<tag k="contact:email" v="kristinem@skedsmo.kommune.no" />
		<tag k="max_age" v="5" />
		<tag k="min_age" v="1" />
		<tag k="name" v="Volla barnehage" />
		<tag k="no-barnehage:nsrid" v="1016005" />
		<tag k="operator" v="Skedsmo kommune" />
		<tag k="operator:type" v="public" />
		<tag k="start_date" v="1988-04-01" />
	</node>
	<node id="-875" lat="59.9917" lon="11.0377">
		<tag k="amenity" v="kindergarten" />
		<tag k="capacity" v="57" />
		<tag k="contact:email" v="vestvollenbarnehage@skedsmo.kommune.no" />
		<tag k="max_age" v="5" />
		<tag k="min_age" v="1" />
		<tag k="name" v="Vestvollen barnehage" />
		<tag k="no-barnehage:nsrid" v="1012684" />
		<tag k="operator" v="Skedsmo kommune" />
		<tag k="operator:type" v="public" />
		<tag k="start_date" v="1990-01-01" />
	</node>
	<node id="-874" lat="60.0122" lon="11.0473">
		<tag k="amenity" v="kindergarten" />
		<tag k="capacity" v="77" />
		<tag k="contact:email" v="trineh@skedsmo.kommune.no" />
		<tag k="max_age" v="5" />
		<tag k="min_age" v="1" />
		<tag k="name" v="Vardeåsen Nærmiljøsenter Avd Barnehage" />
		<tag k="no-barnehage:nsrid" v="1015722" />
		<tag k="operator" v="Skedsmo kommune" />
		<tag k="operator:type" v="public" />
		<tag k="start_date" v="1999-01-01" />
	</node>
	<node id="-873" lat="60.0201" lon="11.0498">
		<tag k="amenity" v="kindergarten" />
		<tag k="capacity" v="57" />
		<tag k="contact:email" v="romerike@barnehage.no" />
		<tag k="contact:phone" v="40 00 28 80" />
		<tag k="max_age" v="5" />
		<tag k="min_age" v="1" />
		<tag k="name" v="Varden Priv barnehage" />
		<tag k="no-barnehage:nsrid" v="1012581" />
		<tag k="operator" v="Romerike barnehage Sa" />
		<tag k="operator:type" v="private" />
		<tag k="start_date" v="1996-09-01" />
	</node>
	<node id="-872" lat="59.97006" lon="11.00038">
		<tag k="amenity" v="kindergarten" />
		<tag k="capacity" v="15" />
		<tag k="contact:email" v="valstadtoppen@gmail.com" />
		<tag k="max_age" v="5" />
		<tag k="min_age" v="1" />
		<tag k="name" v="Valstadtoppen Korttidsbarnehage" />
		<tag k="no-barnehage:nsrid" v="1020637" />
		<tag k="operator" v="Valstadtoppen Korttidsbarnehage" />
		<tag k="operator:type" v="private" />
		<tag k="start_date" v="1982-01-01" />
	</node>
	<node id="-871" lat="59.9706" lon="10.9961">
		<tag k="amenity" v="kindergarten" />
		<tag k="capacity" v="64" />
		<tag k="contact:email" v="tonraad@skedsmo.kommune.no" />
		<tag k="max_age" v="5" />
		<tag k="min_age" v="1" />
		<tag k="name" v="Uglebakken barnehage" />
		<tag k="no-barnehage:nsrid" v="1016008" />
		<tag k="operator" v="Skedsmo kommune" />
		<tag k="operator:type" v="public" />
		<tag k="start_date" v="1988-04-01" />
	</node>
	<node id="-870" lat="60.0082" lon="11.0159">
		<tag k="amenity" v="kindergarten" />
		<tag k="capacity" v="42" />
		<tag k="contact:email" v="meretek@skedsmo.kommune.no" />
		<tag k="max_age" v="5" />
		<tag k="min_age" v="1" />
		<tag k="name" v="Tæruddalen barnehage" />
		<tag k="no-barnehage:nsrid" v="1016003" />
		<tag k="operator" v="Skedsmo kommune" />
		<tag k="operator:type" v="public" />
		<tag k="start_date" v="1988-04-01" />
	</node>
	<node id="-869" lat="59.98477" lon="11.03462">
		<tag k="amenity" v="kindergarten" />
		<tag k="capacity" v="63" />
		<tag k="contact:email" v="toppen@barnehage.no" />
		<tag k="contact:phone" v="64 83 80 60" />
		<tag k="contact:website" v="http://toppen.barnehage.no" />
		<tag k="max_age" v="5" />
		<tag k="min_age" v="1" />
		<tag k="name" v="Toppen barnehage" />
		<tag k="no-barnehage:nsrid" v="1019920" />
		<tag k="operator" v="Skedsmo Barnehager Sa" />
		<tag k="operator:type" v="private" />
		<tag k="start_date" v="1990-07-30" />
	</node>
	<node id="-868" lat="59.95865" lon="11.04693">
		<tag k="amenity" v="kindergarten" />
		<tag k="capacity" v="15" />
		<tag k="contact:email" v="solepytt@online.no" />
		<tag k="contact:phone" v="63 80 21 33" />
		<tag k="max_age" v="5" />
		<tag k="min_age" v="1" />
		<tag k="name" v="Sølepytten barnehage Da" />
		<tag k="no-barnehage:nsrid" v="1020746" />
		<tag k="operator" v="Sølepytten barnehage Da" />
		<tag k="operator:type" v="private" />
		<tag k="start_date" v="2001-08-01" />
	</node>
	<node id="-866" lat="59.9494" lon="11.0173">
		<tag k="amenity" v="kindergarten" />
		<tag k="capacity" v="90" />
		<tag k="contact:email" v="sisbaa@skedsmo.kommune.no" />
		<tag k="max_age" v="5" />
		<tag k="min_age" v="1" />
		<tag k="name" v="Strømmmen Kommunale barnehage" />
		<tag k="no-barnehage:nsrid" v="1012683" />
		<tag k="operator" v="Skedsmo kommune" />
		<tag k="operator:type" v="public" />
		<tag k="start_date" v="1988-04-01" />
	</node>
	<node id="-865" lat="59.994" lon="11.0384">
		<tag k="amenity" v="kindergarten" />
		<tag k="capacity" v="111" />
		<tag k="contact:email" v="sten-tarud.bhg@norlandiabarnehagene.no" />
		<tag k="max_age" v="5" />
		<tag k="min_age" v="1" />
		<tag k="name" v="Sten-Tærud barnehage" />
		<tag k="no-barnehage:nsrid" v="1017049" />
		<tag k="operator" v="Norlandia Barnehagene AS" />
		<tag k="operator:type" v="private" />
		<tag k="start_date" v="2006-03-22" />
	</node>
	<node id="-862" lat="59.9454" lon="11.0139">
		<tag k="amenity" v="kindergarten" />
		<tag k="capacity" v="99" />
		<tag k="contact:email" v="greedva@skedsmo.kommune.no" />
		<tag k="max_age" v="5" />
		<tag k="min_age" v="1" />
		<tag k="name" v="Stalsberg barnehage" />
		<tag k="no-barnehage:nsrid" v="1017854" />
		<tag k="operator" v="Skedsmo kommune" />
		<tag k="operator:type" v="public" />
		<tag k="start_date" v="2007-08-01" />
	</node>
	<node id="-861" lat="59.9957" lon="11.0233">
		<tag k="amenity" v="kindergarten" />
		<tag k="capacity" v="56" />
		<tag k="contact:email" v="romerike@barnehage.no" />
		<tag k="contact:phone" v="40 00 28 80" />
		<tag k="max_age" v="5" />
		<tag k="min_age" v="1" />
		<tag k="name" v="Solhaug barnehage" />
		<tag k="no-barnehage:nsrid" v="1015613" />
		<tag k="operator" v="Romerike barnehage Sa" />
		<tag k="operator:type" v="private" />
		<tag k="start_date" v="1998-02-03" />
	</node>
	<node id="-860" lat="59.99893" lon="11.02068">
		<tag k="amenity" v="kindergarten" />
		<tag k="capacity" v="83" />
		<tag k="contact:email" v="dl.skolsegglia@bhg.no" />
		<tag k="max_age" v="5" />
		<tag k="min_age" v="1" />
		<tag k="name" v="Skolsegglia Fus barnehage AS" />
		<tag k="no-barnehage:nsrid" v="1021223" />
		<tag k="operator" v="Skolsegglia Fus barnehage AS" />
		<tag k="operator:type" v="private" />
		<tag k="start_date" v="2005-04-11" />
	</node>
	<node id="-858" lat="59.947" lon="11.0001">
		<tag k="amenity" v="kindergarten" />
		<tag k="capacity" v="122" />
		<tag k="contact:email" v="janrye@skedsmo.kommune.no" />
		<tag k="max_age" v="5" />
		<tag k="min_age" v="1" />
		<tag k="name" v="Sagelva barnehage" />
		<tag k="no-barnehage:nsrid" v="1018414" />
		<tag k="operator" v="Skedsmo kommune" />
		<tag k="operator:type" v="public" />
		<tag k="start_date" v="2008-06-01" />
	</node>
	<node id="-857" lat="59.975" lon="11.0475">
		<tag k="amenity" v="kindergarten" />
		<tag k="capacity" v="181" />
		<tag k="contact:email" v="ninah@skedsmo.kommune.no" />
		<tag k="max_age" v="5" />
		<tag k="min_age" v="1" />
		<tag k="name" v="Riisløkka barnehage" />
		<tag k="no-barnehage:nsrid" v="1016960" />
		<tag k="operator" v="Skedsmo kommune" />
		<tag k="operator:type" v="public" />
		<tag k="start_date" v="2005-08-01" />
	</node>
	<node id="-855" lat="59.9513" lon="11.0139">
		<tag k="amenity" v="kindergarten" />
		<tag k="capacity" v="27" />
		<tag k="contact:email" v="noahsark@skedsmo.kirken.no" />
		<tag k="contact:phone" v="63816027" />
		<tag k="max_age" v="5" />
		<tag k="min_age" v="1" />
		<tag k="name" v="Noas Ark barnehage" />
		<tag k="no-barnehage:nsrid" v="1015474" />
		<tag k="operator" v="Strømmen Sokn" />
		<tag k="operator:type" v="private" />
		<tag k="start_date" v="1989-01-02" />
	</node>
	<node id="-854" lat="59.962" lon="11.0526">
		<tag k="amenity" v="kindergarten" />
		<tag k="capacity" v="54" />
		<tag k="contact:email" v="gjertrudt@skedsmo.kommune.no" />
		<tag k="max_age" v="5" />
		<tag k="min_age" v="1" />
		<tag k="name" v="Måsan barnehage" />
		<tag k="no-barnehage:nsrid" v="1016009" />
		<tag k="operator" v="Skedsmo kommune" />
		<tag k="operator:type" v="public" />
		<tag k="start_date" v="1988-04-01" />
	</node>
	<node id="-853" lat="59.9725" lon="10.9976">
		<tag k="amenity" v="kindergarten" />
		<tag k="capacity" v="72" />
		<tag k="contact:email" v="ingerlr@skedsmo.kommune.no" />
		<tag k="max_age" v="5" />
		<tag k="min_age" v="1" />
		<tag k="name" v="Melby barnehage" />
		<tag k="no-barnehage:nsrid" v="1016006" />
		<tag k="operator" v="Skedsmo kommune" />
		<tag k="operator:type" v="public" />
		<tag k="start_date" v="1988-04-01" />
	</node>
	<node id="-852" lat="59.95901" lon="10.99496">
		<tag k="amenity" v="kindergarten" />
		<tag k="capacity" v="89" />
		<tag k="contact:email" v="dl.lovehjerte@bhg.no" />
		<tag k="contact:phone" v="64 83 34 00" />
		<tag k="max_age" v="5" />
		<tag k="min_age" v="1" />
		<tag k="name" v="Løvehjerte Fus barnehage AS" />
		<tag k="no-barnehage:nsrid" v="1020792" />
		<tag k="operator" v="Løvehjerte Fus barnehage AS" />
		<tag k="operator:type" v="private" />
		<tag k="start_date" v="2002-03-07" />
	</node>
	<node id="-851" lat="59.9727" lon="10.9939">
		<tag k="amenity" v="kindergarten" />
		<tag k="capacity" v="169" />
		<tag k="contact:email" v="lensun@skedsmo.kommune.no" />
		<tag k="max_age" v="5" />
		<tag k="min_age" v="1" />
		<tag k="name" v="Linbråten barnehage" />
		<tag k="no-barnehage:nsrid" v="1018347" />
		<tag k="operator" v="Skedsmo kommune" />
		<tag k="operator:type" v="public" />
		<tag k="start_date" v="2008-08-01" />
	</node>
	<node id="-850" lat="59.9541" lon="11.063">
		<tag k="amenity" v="kindergarten" />
		<tag k="capacity" v="75" />
		<tag k="contact:email" v="carinaw@skedsmo.kommune.no" />
		<tag k="contact:phone" v="63 89 56 50" />
		<tag k="contact:website" v="http://www.skedsmo.kommune.no/Skole-og-barnehage/Finn-barnehage/Lillestrom-barnehage/" />
		<tag k="max_age" v="5" />
		<tag k="min_age" v="1" />
		<tag k="name" v="Lillestrøm barnehage" />
		<tag k="no-barnehage:nsrid" v="1016010" />
		<tag k="operator" v="Skedsmo kommune" />
		<tag k="operator:type" v="public" />
		<tag k="start_date" v="1988-04-01" />
	</node>
	<node id="-849" lat="59.95271" lon="11.0755">
		<tag k="amenity" v="kindergarten" />
		<tag k="capacity" v="88" />
		<tag k="contact:email" v="dl.lillehagen@bhg.no" />
		<tag k="contact:phone" v="63 80 07 60" />
		<tag k="contact:website" v="http://www.lillehagen.bhg.no" />
		<tag k="max_age" v="5" />
		<tag k="min_age" v="1" />
		<tag k="name" v="Lillehagen Fus barnehage AS" />
		<tag k="no-barnehage:nsrid" v="1020791" />
		<tag k="operator" v="Lillehagen Fus barnehage AS" />
		<tag k="operator:type" v="private" />
		<tag k="start_date" v="2002-03-07" />
	</node>
	<node id="-846" lat="59.97261" lon="10.97375">
		<tag k="amenity" v="kindergarten" />
		<tag k="capacity" v="33" />
		<tag k="contact:email" v="onaturba@online.no" />
		<tag k="contact:phone" v="63 84 29 20" />
		<tag k="max_age" v="5" />
		<tag k="min_age" v="1" />
		<tag k="name" v="Lahaug Gårds- og Naturbarnehage AS" />
		<tag k="no-barnehage:nsrid" v="1020828" />
		<tag k="operator" v="Lahaug Gårds- og Naturbarnehage AS" />
		<tag k="operator:type" v="private" />
		<tag k="start_date" v="2002-08-01" />
	</node>
	<node id="-845" lat="59.98398" lon="10.98253">
		<tag k="amenity" v="kindergarten" />
		<tag k="capacity" v="65" />
		<tag k="contact:email" v="SusanneH@kragerud-barnehage.no" />
		<tag k="contact:phone" v="90747297" />
		<tag k="max_age" v="5" />
		<tag k="min_age" v="1" />
		<tag k="name" v="Kragerud barnehage AS" />
		<tag k="no-barnehage:nsrid" v="1021696" />
		<tag k="operator" v="Kragerud barnehage AS" />
		<tag k="operator:type" v="private" />
		<tag k="start_date" v="2007-08-03" />
	</node>
	<node id="-844" lat="60.006" lon="11.0339">
		<tag k="amenity" v="kindergarten" />
		<tag k="capacity" v="80" />
		<tag k="contact:email" v="ninao@skedsmo.kommune.no" />
		<tag k="max_age" v="5" />
		<tag k="min_age" v="1" />
		<tag k="name" v="Korshagen Kommunale barnehage" />
		<tag k="no-barnehage:nsrid" v="1012682" />
		<tag k="operator" v="Skedsmo kommune" />
		<tag k="operator:type" v="public" />
		<tag k="start_date" v="1988-04-01" />
	</node>
	<node id="-842" lat="59.9681" lon="11.0553">
		<tag k="amenity" v="kindergarten" />
		<tag k="capacity" v="155" />
		<tag k="contact:email" v="benpaix@skedsmo.kommune.no" />
		<tag k="max_age" v="5" />
		<tag k="min_age" v="1" />
		<tag k="name" v="Kjeller barnehage" />
		<tag k="no-barnehage:nsrid" v="1012681" />
		<tag k="operator" v="Skedsmo kommune" />
		<tag k="operator:type" v="public" />
		<tag k="start_date" v="1988-04-01" />
	</node>
	<node id="-839" lat="59.98732" lon="11.03947">
		<tag k="amenity" v="kindergarten" />
		<tag k="capacity" v="60" />
		<tag k="contact:email" v="styrer@holthagen.no" />
		<tag k="contact:phone" v="63 87 97 95" />
		<tag k="max_age" v="5" />
		<tag k="min_age" v="1" />
		<tag k="name" v="Holthagen barnehage" />
		<tag k="no-barnehage:nsrid" v="1019923" />
		<tag k="operator" v="Holthagen barnehage Sa" />
		<tag k="operator:type" v="private" />
		<tag k="start_date" v="1990-01-03" />
	</node>
	<node id="-837" lat="59.9451" lon="11.0174">
		<tag k="amenity" v="kindergarten" />
		<tag k="capacity" v="55" />
		<tag k="contact:email" v="HilAbr@skedsmo.kommune.no" />
		<tag k="contact:phone" v="63 81 51 15" />
		<tag k="max_age" v="5" />
		<tag k="min_age" v="1" />
		<tag k="name" v="Hagan barnehage" />
		<tag k="no-barnehage:nsrid" v="1012680" />
		<tag k="operator" v="Skedsmo kommune" />
		<tag k="operator:type" v="public" />
		<tag k="start_date" v="1988-04-01" />
	</node>
	<node id="-836" lat="59.9584" lon="11.0303">
		<tag k="amenity" v="kindergarten" />
		<tag k="capacity" v="69" />
		<tag k="contact:email" v="furulund.bhg@norlandiabarnehagene.no" />
		<tag k="max_age" v="5" />
		<tag k="min_age" v="1" />
		<tag k="name" v="Furulund barnehage" />
		<tag k="no-barnehage:nsrid" v="1016435" />
		<tag k="operator" v="Norlandia Barnehagene AS" />
		<tag k="operator:type" v="private" />
		<tag k="start_date" v="2003-02-01" />
	</node>
	<node id="-835" lat="59.97683" lon="11.03469">
		<tag k="amenity" v="kindergarten" />
		<tag k="capacity" v="131" />
		<tag k="contact:email" v="styrer@kunnskapsbyen.espira.no" />
		<tag k="contact:phone" v="52 84 50 20" />
		<tag k="contact:website" v="http://www.espira.no" />
		<tag k="max_age" v="5" />
		<tag k="min_age" v="1" />
		<tag k="name" v="Espira Kunnskapsbyen barnehage" />
		<tag k="no-barnehage:nsrid" v="1020394" />
		<tag k="operator" v="Espira Barnehager AS" />
		<tag k="operator:type" v="private" />
		<tag k="start_date" v="1996-12-17" />
	</node>
	<node id="-834" lat="59.99682" lon="11.01966">
		<tag k="amenity" v="kindergarten" />
		<tag k="capacity" v="83" />
		<tag k="contact:email" v="dl.branastoppen@bhg.no" />
		<tag k="contact:phone" v="63 87 68 90" />
		<tag k="max_age" v="5" />
		<tag k="min_age" v="1" />
		<tag k="name" v="Brånåstoppen Fus barnehage" />
		<tag k="no-barnehage:nsrid" v="1020782" />
		<tag k="operator" v="Brånåstoppen Fus barnehage AS" />
		<tag k="operator:type" v="private" />
		<tag k="start_date" v="2002-02-25" />
	</node>
	<node id="-833" lat="59.9654" lon="10.9953">
		<tag k="amenity" v="kindergarten" />
		<tag k="capacity" v="72" />
		<tag k="contact:email" v="maritsa@skedsmo.kommune.no" />
		<tag k="contact:phone" v="66 93 80 70" />
		<tag k="max_age" v="5" />
		<tag k="min_age" v="1" />
		<tag k="name" v="Breidablikk Kommunale barnehage" />
		<tag k="no-barnehage:nsrid" v="1016011" />
		<tag k="operator" v="Skedsmo kommune" />
		<tag k="operator:type" v="public" />
		<tag k="start_date" v="1988-04-01" />
	</node>
	<node id="-831" lat="59.9932" lon="11.1083">
		<tag k="amenity" v="kindergarten" />
		<tag k="capacity" v="82" />
		<tag k="contact:email" v="annc@skedsmo.kommune.no" />
		<tag k="contact:phone" v="64 83 87 60" />
		<tag k="max_age" v="5" />
		<tag k="min_age" v="1" />
		<tag k="name" v="Asak Kommunal barnehage" />
		<tag k="no-barnehage:nsrid" v="1016004" />
		<tag k="operator" v="Skedsmo kommune" />
		<tag k="operator:type" v="public" />
		<tag k="start_date" v="1988-04-01" />
	</node>
</osm>
