<?xml version="1.0" encoding="UTF-8"?>
<osm generator="osmapis" version="0.6">
	<node id="-3384" lat="62.73711" lon="7.1047">
		<tag k="ADDRESS" v="Britvegen 6, 6410 MOLDE" />
		<tag k="amenity" v="kindergarten" />
		<tag k="capacity" v="43" />
		<tag k="max_age" v="5" />
		<tag k="min_age" v="1" />
		<tag k="name" v="Studentsamskipnaden i Molde Molde barnehage" />
		<tag k="no-barnehage:nsrid" v="1014822" />
		<tag k="operator" v="Studentsamskipnaden i Molde" />
		<tag k="operator:type" v="private" />
	</node>
	<node id="-3383" lat="0.0" lon="0.0">
		<tag k="ADDRESS" v="Solemdal, 6456 SKÅLA" />
		<tag k="amenity" v="kindergarten" />
		<tag k="capacity" v="23" />
		<tag k="max_age" v="5" />
		<tag k="min_age" v="1" />
		<tag k="name" v="Solemdal barnehage" />
		<tag k="no-barnehage:nsrid" v="1019722" />
		<tag k="operator" v="Solemdal Velforening" />
		<tag k="operator:type" v="private" />
	</node>
	<node id="-3382" lat="0.0" lon="0.0">
		<tag k="ADDRESS" v="Mordal, 6409 MOLDE" />
		<tag k="amenity" v="kindergarten" />
		<tag k="capacity" v="11" />
		<tag k="max_age" v="5" />
		<tag k="min_age" v="1" />
		<tag k="name" v="Mordalstua barnehage" />
		<tag k="no-barnehage:nsrid" v="1020689" />
		<tag k="operator" v="Brunstad Kristelige Menighet Molde" />
		<tag k="operator:type" v="private" />
	</node>
	<node id="-3381" lat="62.75434" lon="7.2914">
		<tag k="ADDRESS" v="Årølivegen 47, 6421 MOLDE" />
		<tag k="amenity" v="kindergarten" />
		<tag k="capacity" v="106" />
		<tag k="contact:website" v="http://www.arolia.espira.no" />
		<tag k="max_age" v="5" />
		<tag k="min_age" v="1" />
		<tag k="name" v="Espira Årølia barnehage" />
		<tag k="no-barnehage:nsrid" v="1022223" />
		<tag k="operator" v="Espira Barnehager AS" />
		<tag k="operator:type" v="private" />
	</node>
</osm>
