<?xml version="1.0" encoding="UTF-8"?>
<osm generator="osmapis" version="0.6">
	<node id="-4480" lat="62.7403" lon="7.13321">
		<tag k="amenity" v="kindergarten" />
		<tag k="capacity" v="110" />
		<tag k="contact:phone" v="71201430" />
		<tag k="max_age" v="5" />
		<tag k="min_age" v="1" />
		<tag k="name" v="Ceciliefryd barnehage" />
		<tag k="no-barnehage:nsrid" v="1016083" />
		<tag k="operator" v="Mobarn Sa" />
		<tag k="operator:type" v="private" />
		<tag k="start_date" v="1993-08-01" />
	</node>
	<node id="-4479" lat="62.7314" lon="7.29174">
		<tag k="amenity" v="kindergarten" />
		<tag k="capacity" v="38" />
		<tag k="max_age" v="5" />
		<tag k="min_age" v="1" />
		<tag k="name" v="Bolsøya barnehage" />
		<tag k="no-barnehage:nsrid" v="1016995" />
		<tag k="operator" v="Mobarn Sa" />
		<tag k="operator:type" v="private" />
		<tag k="start_date" v="2006-01-03" />
	</node>
	<node id="-4478" lat="62.7376" lon="7.11793">
		<tag k="amenity" v="kindergarten" />
		<tag k="capacity" v="38" />
		<tag k="contact:email" v="styrer@indremisjonensbarnehage.no" />
		<tag k="contact:phone" v="71 25 42 52" />
		<tag k="max_age" v="5" />
		<tag k="min_age" v="1" />
		<tag k="name" v="Bjørset barnehage" />
		<tag k="no-barnehage:nsrid" v="1015558" />
		<tag k="operator" v="Molde Indremisjon" />
		<tag k="operator:type" v="private" />
		<tag k="start_date" v="1982-01-01" />
	</node>
	<node id="-4477" lat="62.7389" lon="7.14312">
		<tag k="amenity" v="kindergarten" />
		<tag k="capacity" v="71" />
		<tag k="contact:phone" v="712520209" />
		<tag k="max_age" v="5" />
		<tag k="min_age" v="1" />
		<tag k="name" v="Barnas Hus" />
		<tag k="no-barnehage:nsrid" v="1016928" />
		<tag k="operator" v="Molde kommune" />
		<tag k="operator:type" v="public" />
		<tag k="start_date" v="1965-12-31" />
	</node>
	<node id="-4476" lat="62.7384" lon="7.17376">
		<tag k="amenity" v="kindergarten" />
		<tag k="capacity" v="20" />
		<tag k="contact:phone" v="71251999" />
		<tag k="max_age" v="5" />
		<tag k="min_age" v="1" />
		<tag k="name" v="Banehaugen barnehage" />
		<tag k="no-barnehage:nsrid" v="1015516" />
		<tag k="operator" v="Molde kommune" />
		<tag k="operator:type" v="public" />
		<tag k="start_date" v="1965-12-31" />
	</node>
	<node id="-4501" lat="62.7457" lon="7.22397">
		<tag k="amenity" v="kindergarten" />
		<tag k="capacity" v="21" />
		<tag k="max_age" v="5" />
		<tag k="min_age" v="1" />
		<tag k="name" v="Øvre Bergmo barnehage" />
		<tag k="no-barnehage:nsrid" v="1016902" />
		<tag k="operator" v="Molde kommune" />
		<tag k="operator:type" v="public" />
		<tag k="start_date" v="1976-12-24" />
	</node>
	<node id="-4500" lat="62.746" lon="7.21243">
		<tag k="amenity" v="kindergarten" />
		<tag k="capacity" v="115" />
		<tag k="max_age" v="5" />
		<tag k="min_age" v="1" />
		<tag k="name" v="Øverland barnehage" />
		<tag k="no-barnehage:nsrid" v="1016212" />
		<tag k="operator" v="Mobarn Sa" />
		<tag k="operator:type" v="private" />
		<tag k="start_date" v="1989-01-02" />
	</node>
	<node id="-4499" lat="62.7131" lon="7.42349">
		<tag k="amenity" v="kindergarten" />
		<tag k="capacity" v="60" />
		<tag k="max_age" v="5" />
		<tag k="min_age" v="1" />
		<tag k="name" v="Vågsetra barnehage" />
		<tag k="no-barnehage:nsrid" v="1016223" />
		<tag k="operator" v="Mobarn Sa" />
		<tag k="operator:type" v="private" />
		<tag k="start_date" v="1992-01-01" />
	</node>
	<node id="-4498" lat="62.75195" lon="7.18145">
		<tag k="amenity" v="kindergarten" />
		<tag k="capacity" v="22" />
		<tag k="contact:email" v="bos-sas@online.no" />
		<tag k="contact:phone" v="71 21 61 00" />
		<tag k="max_age" v="5" />
		<tag k="min_age" v="1" />
		<tag k="name" v="Tranebæret AS" />
		<tag k="no-barnehage:nsrid" v="1020948" />
		<tag k="operator" v="Tranebæret AS" />
		<tag k="operator:type" v="private" />
		<tag k="start_date" v="2000-08-01" />
	</node>
	<node id="-4497" lat="62.7371" lon="7.1047">
		<tag k="amenity" v="kindergarten" />
		<tag k="capacity" v="44" />
		<tag k="contact:phone" v="41069004" />
		<tag k="max_age" v="5" />
		<tag k="min_age" v="1" />
		<tag k="name" v="Studentsamskipnaden i Molde Si Molde" />
		<tag k="no-barnehage:nsrid" v="1014822" />
		<tag k="operator" v="Studentsamskipnaden i Molde" />
		<tag k="operator:type" v="private" />
		<tag k="start_date" v="1995-08-01" />
	</node>
	<node id="-4496" lat="62.7357" lon="7.15038">
		<tag k="amenity" v="kindergarten" />
		<tag k="capacity" v="42" />
		<tag k="contact:phone" v="072537330" />
		<tag k="max_age" v="5" />
		<tag k="min_age" v="1" />
		<tag k="name" v="St Sunniva barnehage" />
		<tag k="no-barnehage:nsrid" v="1016725" />
		<tag k="operator" v="Molde kommune" />
		<tag k="operator:type" v="public" />
		<tag k="start_date" v="1988-04-01" />
	</node>
	<node id="-4495" lat="62.75837" lon="7.515281">
		<tag k="amenity" v="kindergarten" />
		<tag k="capacity" v="23" />
		<tag k="contact:phone" v="71 24 72 21" />
		<tag k="max_age" v="5" />
		<tag k="min_age" v="1" />
		<tag k="name" v="Solemdal barnehage" />
		<tag k="no-barnehage:nsrid" v="1019722" />
		<tag k="operator" v="Solemdal Velforening" />
		<tag k="operator:type" v="private" />
		<tag k="start_date" v="1989-01-02" />
	</node>
	<node id="-4494" lat="62.6598" lon="7.28966">
		<tag k="amenity" v="kindergarten" />
		<tag k="capacity" v="5" />
		<tag k="contact:email" v="sekken.skole@molde.kommune.no" />
		<tag k="max_age" v="5" />
		<tag k="min_age" v="1" />
		<tag k="name" v="Sekken Oppvekstsenter Avd barnehage" />
		<tag k="no-barnehage:nsrid" v="1014979" />
		<tag k="operator" v="Molde kommune" />
		<tag k="operator:type" v="public" />
		<tag k="start_date" v="1997-03-01" />
	</node>
	<node id="-4493" lat="62.7531" lon="7.24028">
		<tag k="amenity" v="kindergarten" />
		<tag k="capacity" v="54" />
		<tag k="max_age" v="5" />
		<tag k="min_age" v="1" />
		<tag k="name" v="Norbyen barnehage" />
		<tag k="no-barnehage:nsrid" v="1016208" />
		<tag k="operator" v="Mobarn Sa" />
		<tag k="operator:type" v="private" />
		<tag k="start_date" v="1989-01-01" />
	</node>
	<node id="-4492" lat="62.75244" lon="7.219546">
		<tag k="amenity" v="kindergarten" />
		<tag k="capacity" v="17" />
		<tag k="contact:phone" v="71253388" />
		<tag k="max_age" v="5" />
		<tag k="min_age" v="1" />
		<tag k="name" v="Mårskrenten barnehage" />
		<tag k="no-barnehage:nsrid" v="1020390" />
		<tag k="operator" v="Mårskrenten Borettslag" />
		<tag k="operator:type" v="private" />
		<tag k="start_date" v="1990-04-01" />
	</node>
	<node id="-4491" lat="62.73724" lon="7.16073">
		<tag k="amenity" v="kindergarten" />
		<tag k="capacity" v="17" />
		<tag k="max_age" v="5" />
		<tag k="min_age" v="1" />
		<tag k="name" v="Mordalstua barnehage" />
		<tag k="no-barnehage:nsrid" v="1020689" />
		<tag k="operator" v="Brunstad Kristelige Menighet Molde" />
		<tag k="operator:type" v="private" />
		<tag k="start_date" v="2009-12-01" />
	</node>
	<node id="-4490" lat="62.7371" lon="7.13131">
		<tag k="amenity" v="kindergarten" />
		<tag k="capacity" v="126" />
		<tag k="max_age" v="5" />
		<tag k="min_age" v="1" />
		<tag k="name" v="Lillekollen barnehage" />
		<tag k="no-barnehage:nsrid" v="1016726" />
		<tag k="operator" v="Molde kommune" />
		<tag k="operator:type" v="public" />
		<tag k="start_date" v="1989-01-02" />
	</node>
	<node id="-4489" lat="62.7427" lon="7.17906">
		<tag k="amenity" v="kindergarten" />
		<tag k="capacity" v="33" />
		<tag k="contact:phone" v="71 11 26 20" />
		<tag k="max_age" v="5" />
		<tag k="min_age" v="1" />
		<tag k="name" v="Langmyra barnehage" />
		<tag k="no-barnehage:nsrid" v="1016760" />
		<tag k="operator" v="Molde kommune" />
		<tag k="operator:type" v="public" />
		<tag k="start_date" v="1965-12-31" />
	</node>
	<node id="-4488" lat="62.7365" lon="7.09676">
		<tag k="amenity" v="kindergarten" />
		<tag k="capacity" v="56" />
		<tag k="max_age" v="5" />
		<tag k="min_age" v="1" />
		<tag k="name" v="Kvam barnehage" />
		<tag k="no-barnehage:nsrid" v="1018168" />
		<tag k="operator" v="Molde kommune" />
		<tag k="operator:type" v="public" />
		<tag k="start_date" v="1989-01-01" />
	</node>
	<node id="-4487" lat="62.74986" lon="7.264608">
		<tag k="amenity" v="kindergarten" />
		<tag k="capacity" v="66" />
		<tag k="max_age" v="5" />
		<tag k="min_age" v="1" />
		<tag k="name" v="Krohnstad Montessori barnehage AS" />
		<tag k="no-barnehage:nsrid" v="1021201" />
		<tag k="operator" v="Krohnstad Montessori barnehage AS" />
		<tag k="operator:type" v="private" />
		<tag k="start_date" v="2001-08-20" />
	</node>
	<node id="-4486" lat="62.7958" lon="7.66163">
		<tag k="amenity" v="kindergarten" />
		<tag k="capacity" v="33" />
		<tag k="contact:phone" v="71 11 26 91" />
		<tag k="max_age" v="5" />
		<tag k="min_age" v="1" />
		<tag k="name" v="Kleive Oppvekstsenter Avd Barnehage" />
		<tag k="no-barnehage:nsrid" v="1025350" />
		<tag k="operator" v="Molde kommune" />
		<tag k="operator:type" v="public" />
		<tag k="start_date" v="1995-03-12" />
	</node>
	<node id="-4485" lat="62.7497" lon="7.18729">
		<tag k="amenity" v="kindergarten" />
		<tag k="capacity" v="72" />
		<tag k="max_age" v="5" />
		<tag k="min_age" v="1" />
		<tag k="name" v="Høgnakken barnehage" />
		<tag k="no-barnehage:nsrid" v="1016577" />
		<tag k="operator" v="Mobarn Sa" />
		<tag k="operator:type" v="private" />
		<tag k="start_date" v="2003-08-01" />
	</node>
	<node id="-4484" lat="62.7833" lon="7.50681">
		<tag k="amenity" v="kindergarten" />
		<tag k="capacity" v="85" />
		<tag k="max_age" v="5" />
		<tag k="min_age" v="1" />
		<tag k="name" v="Hjelset barnehage" />
		<tag k="no-barnehage:nsrid" v="1017486" />
		<tag k="operator" v="Molde kommune" />
		<tag k="operator:type" v="public" />
		<tag k="start_date" v="1988-04-01" />
	</node>
	<node id="-4483" lat="62.7529" lon="7.20519">
		<tag k="amenity" v="kindergarten" />
		<tag k="capacity" v="90" />
		<tag k="max_age" v="5" />
		<tag k="min_age" v="1" />
		<tag k="name" v="Hauglegda barnehage" />
		<tag k="no-barnehage:nsrid" v="1014777" />
		<tag k="operator" v="Molde kommune" />
		<tag k="operator:type" v="public" />
		<tag k="start_date" v="1993-08-01" />
	</node>
	<node id="-4482" lat="62.745" lon="7.15797">
		<tag k="amenity" v="kindergarten" />
		<tag k="capacity" v="76" />
		<tag k="max_age" v="5" />
		<tag k="min_age" v="1" />
		<tag k="name" v="Hatlelia barnehage" />
		<tag k="no-barnehage:nsrid" v="1025415" />
		<tag k="operator" v="Molde kommune" />
		<tag k="operator:type" v="public" />
		<tag k="start_date" v="1976-01-01" />
	</node>
	<node id="-4481" lat="62.7537" lon="7.273355">
		<tag k="amenity" v="kindergarten" />
		<tag k="capacity" v="116" />
		<tag k="contact:email" v="post@espira.no" />
		<tag k="contact:phone" v="52 84 50 20" />
		<tag k="contact:website" v="http://www.espira.no" />
		<tag k="max_age" v="5" />
		<tag k="min_age" v="1" />
		<tag k="name" v="Espira Årølia barnehage" />
		<tag k="no-barnehage:nsrid" v="1022223" />
		<tag k="operator" v="Espira Barnehager AS" />
		<tag k="operator:type" v="private" />
		<tag k="start_date" v="2011-10-04" />
	</node>
</osm>
