<?xml version="1.0" encoding="UTF-8"?>
<osm generator="osmapis" version="0.6">
	<node id="-831" lat="59.91991" lon="10.96181">
		<tag k="amenity" v="kindergarten" />
		<tag k="capacity" v="4" />
		<tag k="max_age" v="2" />
		<tag k="min_age" v="1" />
		<tag k="name" v="Småknøttene familiebarnehage" />
		<tag k="no-barnehage:nsrid" v="1021028" />
		<tag k="operator" v="Småknøttene Familiebarnehage Cathrine Stokmann Solberg" />
		<tag k="operator:type" v="private" />
	</node>
	<node id="-798" lat="59.94456" lon="10.9459">
		<tag k="amenity" v="kindergarten" />
		<tag k="capacity" v="8" />
		<tag k="max_age" v="2" />
		<tag k="min_age" v="1" />
		<tag k="name" v="Bambi familiebarnehage" />
		<tag k="no-barnehage:nsrid" v="1020754" />
		<tag k="operator" v="Bambi privat Familiebarnehage Avd.1 Songyl Kisin" />
		<tag k="operator:type" v="private" />
	</node>
	<node id="-825" lat="59.93756" lon="10.96085">
		<tag k="amenity" v="kindergarten" />
		<tag k="capacity" v="4" />
		<tag k="max_age" v="2" />
		<tag k="min_age" v="1" />
		<tag k="name" v="Lørenskog familiebarnehage" />
		<tag k="no-barnehage:nsrid" v="1020757" />
		<tag k="operator" v="Lørenskog Familiebarnehage Anne Grethe Solheim Varga" />
		<tag k="operator:type" v="private" />
	</node>
	<node id="-821" lat="59.92599" lon="10.95015">
		<tag k="amenity" v="kindergarten" />
		<tag k="capacity" v="8" />
		<tag k="max_age" v="2" />
		<tag k="min_age" v="1" />
		<tag k="name" v="Luna familiebarnehage avd. Skårer" />
		<tag k="no-barnehage:nsrid" v="2000100" />
		<tag k="operator" v="Luna Familiebarnehage V/helle Slott Hitchinson" />
		<tag k="operator:type" v="private" />
	</node>
	<node id="-820" lat="59.94728" lon="10.9886">
		<tag k="amenity" v="kindergarten" />
		<tag k="capacity" v="8" />
		<tag k="max_age" v="2" />
		<tag k="min_age" v="1" />
		<tag k="name" v="Luna familiebarnehage avd. Fjellhamar" />
		<tag k="no-barnehage:nsrid" v="1021257" />
		<tag k="operator" v="Luna Familiebarnehage V/helle Slott Hitchinson" />
		<tag k="operator:type" v="private" />
	</node>
	<node id="-819" lat="59.94734" lon="10.98954">
		<tag k="amenity" v="kindergarten" />
		<tag k="capacity" v="4" />
		<tag k="max_age" v="2" />
		<tag k="min_age" v="1" />
		<tag k="name" v="Lille Stjerne familiebarnehage" />
		<tag k="no-barnehage:nsrid" v="1021338" />
		<tag k="operator" v="Lille Stjerne Familiebarnehage Elizabeth Myhre Berntzen" />
		<tag k="operator:type" v="private" />
	</node>
	<node id="-818" lat="59.93969" lon="10.95734">
		<tag k="amenity" v="kindergarten" />
		<tag k="capacity" v="4" />
		<tag k="max_age" v="2" />
		<tag k="min_age" v="1" />
		<tag k="name" v="Langgrunna private familiebarnehage" />
		<tag k="no-barnehage:nsrid" v="1021074" />
		<tag k="operator" v="Langgrunna Familie barnehage Emine Bitmez" />
		<tag k="operator:type" v="private" />
	</node>
	<node id="-815" lat="59.91363" lon="10.95999">
		<tag k="amenity" v="kindergarten" />
		<tag k="capacity" v="4" />
		<tag k="max_age" v="2" />
		<tag k="min_age" v="1" />
		<tag k="name" v="Kløverhagen familiebarnehage 2 Inger Elisabeth Bjørnsrud Olaussen" />
		<tag k="no-barnehage:nsrid" v="1021477" />
		<tag k="operator" v="Kløverhagen Familiebarnehage 2 Inger Elisabeth Bjørnsrud Olaussen" />
		<tag k="operator:type" v="private" />
	</node>
	<node id="-814" lat="59.91586" lon="10.96758">
		<tag k="amenity" v="kindergarten" />
		<tag k="capacity" v="4" />
		<tag k="max_age" v="2" />
		<tag k="min_age" v="1" />
		<tag k="name" v="Kløverhagen 1 Eva Maritha Stolp Olaussen" />
		<tag k="no-barnehage:nsrid" v="1020787" />
		<tag k="operator" v="Kløverhagen 1 Eva Maritha Stolp Olaussen" />
		<tag k="operator:type" v="private" />
	</node>
	<node id="-810" lat="59.91529" lon="10.9288">
		<tag k="amenity" v="kindergarten" />
		<tag k="capacity" v="4" />
		<tag k="max_age" v="2" />
		<tag k="min_age" v="1" />
		<tag k="name" v="Hundremeterskogen familiebarnehage" />
		<tag k="no-barnehage:nsrid" v="1020354" />
		<tag k="operator" v="Hundremeterskogen Familiebarnehage avd Ole Brum Eva Fougli Holmsen" />
		<tag k="operator:type" v="private" />
	</node>
	<node id="-809" lat="59.91991" lon="10.96181">
		<tag k="amenity" v="kindergarten" />
		<tag k="capacity" v="4" />
		<tag k="max_age" v="2" />
		<tag k="min_age" v="1" />
		<tag k="name" v="Gülserens familiebarnehage" />
		<tag k="no-barnehage:nsrid" v="1021522" />
		<tag k="operator" v="Gülserens Familiebarnehage Gülseren Køkyer" />
		<tag k="operator:type" v="private" />
	</node>
	<node id="-833" lat="59.92652" lon="10.95241">
		<tag k="amenity" v="kindergarten" />
		<tag k="capacity" v="4" />
		<tag k="max_age" v="5" />
		<tag k="min_age" v="1" />
		<tag k="name" v="Solheim familiebarnehage" />
		<tag k="no-barnehage:nsrid" v="1020352" />
		<tag k="operator" v="Solheim Familiebarnehage Nr 2 Monica Ellefsen" />
		<tag k="operator:type" v="private" />
	</node>
</osm>
