<?xml version="1.0" encoding="UTF-8"?>
<osm generator="osmapis" version="0.6">
	<node id="-843" lat="59.91936" lon="10.94527">
		<tag k="amenity" v="kindergarten" />
		<tag k="capacity" v="77" />
		<tag k="max_age" v="5" />
		<tag k="min_age" v="1" />
		<tag k="name" v="Åsheimskog FUS barnehage" />
		<tag k="no-barnehage:nsrid" v="1021238" />
		<tag k="operator" v="Åsheimskog Fus barnehage AS" />
		<tag k="operator:type" v="private" />
	</node>
	<node id="-842" lat="59.94869" lon="10.9894">
		<tag k="amenity" v="kindergarten" />
		<tag k="name" v="Xtra Hjelpen Eva" />
		<tag k="no-barnehage:nsrid" v="1021014" />
		<tag k="operator" v="Xtra Hjelpen E. Sitje" />
		<tag k="operator:type" v="private" />
	</node>
	<node id="-841" lat="59.93414" lon="10.96457">
		<tag k="amenity" v="kindergarten" />
		<tag k="capacity" v="50" />
		<tag k="contact:website" v="http://vangen.barnehage.no" />
		<tag k="max_age" v="5" />
		<tag k="min_age" v="1" />
		<tag k="name" v="Vangen barnehage" />
		<tag k="no-barnehage:nsrid" v="1019914" />
		<tag k="operator" v="Vangen barnehage Sa" />
		<tag k="operator:type" v="private" />
	</node>
	<node id="-840" lat="59.91375" lon="10.93646">
		<tag k="amenity" v="kindergarten" />
		<tag k="capacity" v="61" />
		<tag k="max_age" v="5" />
		<tag k="min_age" v="1" />
		<tag k="name" v="Vallerud barnehage" />
		<tag k="no-barnehage:nsrid" v="1017541" />
		<tag k="operator" v="Lørenskog kommune" />
		<tag k="operator:type" v="public" />
	</node>
	<node id="-839" lat="59.94206" lon="10.97705">
		<tag k="amenity" v="kindergarten" />
		<tag k="capacity" v="50" />
		<tag k="max_age" v="5" />
		<tag k="min_age" v="1" />
		<tag k="name" v="Tre Troll" />
		<tag k="no-barnehage:nsrid" v="1016539" />
		<tag k="operator" v="Norlandia Barnehagene AS" />
		<tag k="operator:type" v="private" />
	</node>
	<node id="-838" lat="59.91872" lon="10.94365">
		<tag k="amenity" v="kindergarten" />
		<tag k="capacity" v="30" />
		<tag k="max_age" v="5" />
		<tag k="min_age" v="1" />
		<tag k="name" v="Takt og Tone" />
		<tag k="no-barnehage:nsrid" v="1022283" />
		<tag k="operator" v="Takt og Tone AS" />
		<tag k="operator:type" v="private" />
	</node>
	<node id="-837" lat="0.0" lon="0.0">
		<tag k="amenity" v="kindergarten" />
		<tag k="capacity" v="28" />
		<tag k="max_age" v="5" />
		<tag k="min_age" v="1" />
		<tag k="name" v="Takt og Tone" />
		<tag k="no-barnehage:nsrid" v="1020616" />
		<tag k="operator" v="Takt og Tone Unni Sørenbye" />
		<tag k="operator:type" v="private" />
	</node>
	<node id="-836" lat="59.91837" lon="10.9716">
		<tag k="amenity" v="kindergarten" />
		<tag k="capacity" v="53" />
		<tag k="contact:website" v="http://www.sorlibarnehage.no" />
		<tag k="max_age" v="5" />
		<tag k="min_age" v="1" />
		<tag k="name" v="Sørli barnehage" />
		<tag k="no-barnehage:nsrid" v="1019931" />
		<tag k="operator" v="Sørli barnehage Sa" />
		<tag k="operator:type" v="private" />
	</node>
	<node id="-835" lat="59.9136" lon="10.93817">
		<tag k="amenity" v="kindergarten" />
		<tag k="capacity" v="55" />
		<tag k="max_age" v="5" />
		<tag k="min_age" v="1" />
		<tag k="name" v="Stiftelsen Idavollen Steinerbarnehage" />
		<tag k="no-barnehage:nsrid" v="1019764" />
		<tag k="operator" v="Stiftelsen Idavollen Steinerbarnehage" />
		<tag k="operator:type" v="private" />
	</node>
	<node id="-833" lat="59.9243" lon="10.95516">
		<tag k="amenity" v="kindergarten" />
		<tag k="capacity" v="76" />
		<tag k="max_age" v="5" />
		<tag k="min_age" v="1" />
		<tag k="name" v="Solheim barnehage" />
		<tag k="no-barnehage:nsrid" v="1017540" />
		<tag k="operator" v="Lørenskog kommune" />
		<tag k="operator:type" v="public" />
	</node>
	<node id="-831" lat="0.0" lon="0.0">
		<tag k="amenity" v="kindergarten" />
		<tag k="capacity" v="27" />
		<tag k="max_age" v="5" />
		<tag k="min_age" v="1" />
		<tag k="name" v="Skårungen barnehave" />
		<tag k="no-barnehage:nsrid" v="1019512" />
		<tag k="operator" v="Skårungen Barnehave Sa" />
		<tag k="operator:type" v="private" />
	</node>
	<node id="-830" lat="59.92796" lon="10.94593">
		<tag k="amenity" v="kindergarten" />
		<tag k="capacity" v="90" />
		<tag k="max_age" v="5" />
		<tag k="min_age" v="1" />
		<tag k="name" v="Rolvsrud barnehage" />
		<tag k="no-barnehage:nsrid" v="1013256" />
		<tag k="operator" v="Lørenskog kommune" />
		<tag k="operator:type" v="public" />
	</node>
	<node id="-829" lat="0.0" lon="0.0">
		<tag k="amenity" v="kindergarten" />
		<tag k="capacity" v="46" />
		<tag k="contact:website" v="http://regnbuenbarnehage.net" />
		<tag k="max_age" v="5" />
		<tag k="min_age" v="1" />
		<tag k="name" v="Regnbuen barnehage Lørenskog" />
		<tag k="no-barnehage:nsrid" v="1022057" />
		<tag k="operator" v="Regnbuen barnehage Lørenskog" />
		<tag k="operator:type" v="private" />
	</node>
	<node id="-828" lat="59.92312" lon="10.94055">
		<tag k="amenity" v="kindergarten" />
		<tag k="capacity" v="111" />
		<tag k="max_age" v="5" />
		<tag k="min_age" v="1" />
		<tag k="name" v="Rasta barnehage" />
		<tag k="no-barnehage:nsrid" v="1017539" />
		<tag k="operator" v="Lørenskog kommune" />
		<tag k="operator:type" v="public" />
	</node>
	<node id="-827" lat="59.91246" lon="10.97504">
		<tag k="amenity" v="kindergarten" />
		<tag k="capacity" v="53" />
		<tag k="contact:website" v="http://www.nesaasenbarnehage.no" />
		<tag k="max_age" v="5" />
		<tag k="min_age" v="1" />
		<tag k="name" v="Nesåsen barnehage" />
		<tag k="no-barnehage:nsrid" v="1020779" />
		<tag k="operator" v="Nesåsen barnehage Sa" />
		<tag k="operator:type" v="private" />
	</node>
	<node id="-825" lat="59.91919" lon="10.96052">
		<tag k="amenity" v="kindergarten" />
		<tag k="capacity" v="56" />
		<tag k="max_age" v="5" />
		<tag k="min_age" v="1" />
		<tag k="name" v="Løkenåsen barnehage" />
		<tag k="no-barnehage:nsrid" v="1017538" />
		<tag k="operator" v="Lørenskog kommune" />
		<tag k="operator:type" v="public" />
	</node>
	<node id="-824" lat="59.91539" lon="10.96049">
		<tag k="amenity" v="kindergarten" />
		<tag k="capacity" v="90" />
		<tag k="max_age" v="5" />
		<tag k="min_age" v="1" />
		<tag k="name" v="Løken barnehage" />
		<tag k="no-barnehage:nsrid" v="1017537" />
		<tag k="operator" v="Lørenskog kommune" />
		<tag k="operator:type" v="public" />
	</node>
	<node id="-823" lat="59.94267" lon="10.95719">
		<tag k="amenity" v="kindergarten" />
		<tag k="capacity" v="46" />
		<tag k="max_age" v="5" />
		<tag k="min_age" v="1" />
		<tag k="name" v="Læringsverkstedet barnehage avd. Margaretalia" />
		<tag k="no-barnehage:nsrid" v="1020301" />
		<tag k="operator" v="Læringsverkstedet AS" />
		<tag k="operator:type" v="private" />
	</node>
	<node id="-818" lat="59.93299" lon="11.01848">
		<tag k="amenity" v="kindergarten" />
		<tag k="capacity" v="83" />
		<tag k="max_age" v="5" />
		<tag k="min_age" v="1" />
		<tag k="name" v="Kurland barnehage" />
		<tag k="no-barnehage:nsrid" v="1013911" />
		<tag k="operator" v="Lørenskog kommune" />
		<tag k="operator:type" v="public" />
	</node>
	<node id="-817" lat="59.92868" lon="10.92802">
		<tag k="amenity" v="kindergarten" />
		<tag k="contact:website" v="http://knertenfamiliebarnehage.no" />
		<tag k="max_age" v="2" />
		<tag k="min_age" v="1" />
		<tag k="name" v="Knerten familiebarnehage" />
		<tag k="no-barnehage:nsrid" v="1020274" />
		<tag k="operator" v="Knerten Familiebarnehage Monika Roger" />
		<tag k="operator:type" v="private" />
	</node>
	<node id="-814" lat="59.92446" lon="10.94993">
		<tag k="amenity" v="kindergarten" />
		<tag k="capacity" v="22" />
		<tag k="max_age" v="5" />
		<tag k="min_age" v="1" />
		<tag k="name" v="Klubben barnehage" />
		<tag k="no-barnehage:nsrid" v="1014707" />
		<tag k="operator" v="Lørenskog kommune" />
		<tag k="operator:type" v="public" />
	</node>
	<node id="-813" lat="0.0" lon="0.0">
		<tag k="amenity" v="kindergarten" />
		<tag k="capacity" v="87" />
		<tag k="max_age" v="5" />
		<tag k="min_age" v="1" />
		<tag k="name" v="Kjenn barnehage" />
		<tag k="no-barnehage:nsrid" v="1013788" />
		<tag k="operator" v="Lørenskog kommune" />
		<tag k="operator:type" v="public" />
	</node>
	<node id="-812" lat="59.91497" lon="10.92895">
		<tag k="amenity" v="kindergarten" />
		<tag k="max_age" v="2" />
		<tag k="min_age" v="1" />
		<tag k="name" v="Hundremeterskogen familiebarnehage Nasse Nøff" />
		<tag k="no-barnehage:nsrid" v="1020355" />
		<tag k="operator" v="Hundremeterskogen Familiebarnehage avd Nasse Nøff Marianne O Knardahl" />
		<tag k="operator:type" v="private" />
	</node>
	<node id="-809" lat="59.94503" lon="10.98756">
		<tag k="amenity" v="kindergarten" />
		<tag k="capacity" v="83" />
		<tag k="max_age" v="5" />
		<tag k="min_age" v="1" />
		<tag k="name" v="Grønlia barnehage" />
		<tag k="no-barnehage:nsrid" v="1017536" />
		<tag k="operator" v="Lørenskog kommune" />
		<tag k="operator:type" v="public" />
	</node>
	<node id="-808" lat="59.9431" lon="10.9547">
		<tag k="amenity" v="kindergarten" />
		<tag k="capacity" v="104" />
		<tag k="max_age" v="5" />
		<tag k="min_age" v="1" />
		<tag k="name" v="Framtia barnehage" />
		<tag k="no-barnehage:nsrid" v="2000085" />
		<tag k="operator" v="Lørenskog kommune" />
		<tag k="operator:type" v="public" />
	</node>
	<node id="-807" lat="59.93605" lon="10.97603">
		<tag k="amenity" v="kindergarten" />
		<tag k="capacity" v="71" />
		<tag k="max_age" v="5" />
		<tag k="min_age" v="1" />
		<tag k="name" v="Fjellsrud barnehage" />
		<tag k="no-barnehage:nsrid" v="1014795" />
		<tag k="operator" v="Lørenskog kommune" />
		<tag k="operator:type" v="public" />
	</node>
	<node id="-806" lat="59.94049" lon="10.98678">
		<tag k="amenity" v="kindergarten" />
		<tag k="capacity" v="33" />
		<tag k="max_age" v="5" />
		<tag k="min_age" v="1" />
		<tag k="name" v="Fjellhamar gård barnehage" />
		<tag k="no-barnehage:nsrid" v="2000276" />
		<tag k="operator" v="Lørenskog kommune" />
		<tag k="operator:type" v="public" />
	</node>
	<node id="-805" lat="59.94057" lon="10.97683">
		<tag k="amenity" v="kindergarten" />
		<tag k="capacity" v="75" />
		<tag k="max_age" v="5" />
		<tag k="min_age" v="1" />
		<tag k="name" v="Fjellhamar barnehage" />
		<tag k="no-barnehage:nsrid" v="1017535" />
		<tag k="operator" v="Lørenskog kommune" />
		<tag k="operator:type" v="public" />
	</node>
	<node id="-804" lat="59.91248" lon="10.96605">
		<tag k="amenity" v="kindergarten" />
		<tag k="capacity" v="56" />
		<tag k="max_age" v="5" />
		<tag k="min_age" v="1" />
		<tag k="name" v="Finstad barnehage" />
		<tag k="no-barnehage:nsrid" v="1017534" />
		<tag k="operator" v="Lørenskog kommune" />
		<tag k="operator:type" v="public" />
	</node>
	<node id="-803" lat="59.92303" lon="10.93947">
		<tag k="amenity" v="kindergarten" />
		<tag k="capacity" v="65" />
		<tag k="max_age" v="5" />
		<tag k="min_age" v="1" />
		<tag k="name" v="Eventyrstua barnehage" />
		<tag k="no-barnehage:nsrid" v="1017841" />
		<tag k="operator" v="Lørenskog kommune" />
		<tag k="operator:type" v="public" />
	</node>
	<node id="-802" lat="59.94016" lon="11.0108">
		<tag k="amenity" v="kindergarten" />
		<tag k="capacity" v="86" />
		<tag k="max_age" v="5" />
		<tag k="min_age" v="1" />
		<tag k="name" v="Bårliskogen barnehage" />
		<tag k="no-barnehage:nsrid" v="1018362" />
		<tag k="operator" v="Lørenskog kommune" />
		<tag k="operator:type" v="public" />
	</node>
	<node id="-801" lat="59.93991" lon="10.98268">
		<tag k="amenity" v="kindergarten" />
		<tag k="capacity" v="20" />
		<tag k="max_age" v="5" />
		<tag k="min_age" v="3" />
		<tag k="name" v="Bruget barnehage" />
		<tag k="no-barnehage:nsrid" v="1014796" />
		<tag k="operator" v="Lørenskog kommune" />
		<tag k="operator:type" v="public" />
	</node>
	<node id="-800" lat="0.0" lon="0.0">
		<tag k="amenity" v="kindergarten" />
		<tag k="capacity" v="64" />
		<tag k="max_age" v="5" />
		<tag k="min_age" v="1" />
		<tag k="name" v="Benterud barnehage" />
		<tag k="no-barnehage:nsrid" v="1015749" />
		<tag k="operator" v="Lørenskog kommune" />
		<tag k="operator:type" v="public" />
	</node>
	<node id="-798" lat="59.93147" lon="10.9892">
		<tag k="amenity" v="kindergarten" />
		<tag k="capacity" v="66" />
		<tag k="max_age" v="5" />
		<tag k="min_age" v="1" />
		<tag k="name" v="Ahus Nordbyhagen barnehage 5" />
		<tag k="no-barnehage:nsrid" v="1012957" />
		<tag k="operator" v="Akershus Universitetssykehus Hf" />
		<tag k="operator:type" v="private" />
	</node>
	<node id="-797" lat="59.93221" lon="10.98919">
		<tag k="amenity" v="kindergarten" />
		<tag k="capacity" v="70" />
		<tag k="max_age" v="5" />
		<tag k="min_age" v="1" />
		<tag k="name" v="Ahus Nordbyhagen barnehage 4" />
		<tag k="no-barnehage:nsrid" v="1012956" />
		<tag k="operator" v="Akershus Universitetssykehus Hf" />
		<tag k="operator:type" v="private" />
	</node>
	<node id="-796" lat="59.932" lon="10.99035">
		<tag k="amenity" v="kindergarten" />
		<tag k="capacity" v="77" />
		<tag k="max_age" v="5" />
		<tag k="min_age" v="1" />
		<tag k="name" v="Ahus Nordbyhagen barnehage 3" />
		<tag k="no-barnehage:nsrid" v="1012955" />
		<tag k="operator" v="Akershus Universitetssykehus Hf" />
		<tag k="operator:type" v="private" />
	</node>
	<node id="-795" lat="59.93092" lon="10.99111">
		<tag k="amenity" v="kindergarten" />
		<tag k="capacity" v="57" />
		<tag k="max_age" v="5" />
		<tag k="min_age" v="1" />
		<tag k="name" v="Ahus Nordbyhagen barnehage 2" />
		<tag k="no-barnehage:nsrid" v="1012954" />
		<tag k="operator" v="Akershus Universitetssykehus Hf" />
		<tag k="operator:type" v="private" />
	</node>
	<node id="-794" lat="59.93133" lon="10.99089">
		<tag k="amenity" v="kindergarten" />
		<tag k="capacity" v="60" />
		<tag k="max_age" v="5" />
		<tag k="min_age" v="1" />
		<tag k="name" v="Ahus Nordbyhagen barnehage 1" />
		<tag k="no-barnehage:nsrid" v="1016669" />
		<tag k="operator" v="Akershus Universitetssykehus Hf" />
		<tag k="operator:type" v="private" />
	</node>
</osm>
