<?xml version="1.0" encoding="UTF-8"?>
<osm generator="osmapis" version="0.6">
	<node id="-11" lat="59.9186" lon="10.9522">
		<tag k="amenity" v="kindergarten" />
		<tag k="capacity" v="67" />
		<tag k="contact:email" v="kgj@lorenskog.kommune.no" />
		<tag k="contact:phone" v="67 93 45 27" />
		<tag k="max_age" v="5" />
		<tag k="min_age" v="1" />
		<tag k="name" v="Eventyrstua barnehage" />
		<tag k="no-barnehage:nsrid" v="1017841" />
		<tag k="operator" v="Lørenskog kommune" />
		<tag k="operator:type" v="public" />
		<tag k="start_date" v="2007-08-01" />
	</node>
	<node id="-47" lat="59.91935" lon="10.94526">
		<tag k="amenity" v="kindergarten" />
		<tag k="capacity" v="78" />
		<tag k="contact:email" v="dl.aasheimskog@bhg.no" />
		<tag k="contact:phone" v="67 92 18 00" />
		<tag k="max_age" v="5" />
		<tag k="min_age" v="1" />
		<tag k="name" v="Åsheimskog Fus barnehage AS" />
		<tag k="no-barnehage:nsrid" v="1021238" />
		<tag k="operator" v="Åsheimskog Fus barnehage AS" />
		<tag k="operator:type" v="private" />
		<tag k="start_date" v="2005-05-11" />
	</node>
	<node id="-46" lat="59.93414" lon="10.96457">
		<tag k="amenity" v="kindergarten" />
		<tag k="capacity" v="50" />
		<tag k="contact:email" v="vangen@barnehage.no" />
		<tag k="contact:phone" v="67 97 51 50" />
		<tag k="contact:website" v="http://vangen.barnehage.no" />
		<tag k="max_age" v="5" />
		<tag k="min_age" v="1" />
		<tag k="name" v="Vangen barnehage Sa" />
		<tag k="no-barnehage:nsrid" v="1019914" />
		<tag k="operator" v="Vangen barnehage Sa" />
		<tag k="operator:type" v="private" />
		<tag k="start_date" v="1990-10-01" />
	</node>
	<node id="-45" lat="59.9138" lon="10.9365">
		<tag k="amenity" v="kindergarten" />
		<tag k="capacity" v="62" />
		<tag k="contact:email" v="vabh@lorenskog.kommune.no" />
		<tag k="contact:phone" v="67 98 21 80" />
		<tag k="max_age" v="5" />
		<tag k="min_age" v="1" />
		<tag k="name" v="Vallerud barnehage" />
		<tag k="no-barnehage:nsrid" v="1017541" />
		<tag k="operator" v="Lørenskog kommune" />
		<tag k="operator:type" v="public" />
		<tag k="start_date" v="1988-04-01" />
	</node>
	<node id="-44" lat="59.9421" lon="10.9771">
		<tag k="amenity" v="kindergarten" />
		<tag k="capacity" v="49" />
		<tag k="contact:phone" v="67 90 60 32" />
		<tag k="max_age" v="5" />
		<tag k="min_age" v="1" />
		<tag k="name" v="Tre Troll" />
		<tag k="no-barnehage:nsrid" v="1016539" />
		<tag k="operator" v="Norlandia Barnehagene AS" />
		<tag k="operator:type" v="private" />
		<tag k="start_date" v="2003-05-20" />
	</node>
	<node id="-43" lat="59.91872" lon="10.94365">
		<tag k="amenity" v="kindergarten" />
		<tag k="capacity" v="30" />
		<tag k="max_age" v="5" />
		<tag k="min_age" v="1" />
		<tag k="name" v="Takt og Tone AS" />
		<tag k="no-barnehage:nsrid" v="1022283" />
		<tag k="operator" v="Takt og Tone AS" />
		<tag k="operator:type" v="private" />
		<tag k="start_date" v="1999-11-01" />
	</node>
	<node id="-42" lat="59.92428" lon="10.93051">
		<tag k="amenity" v="kindergarten" />
		<tag k="capacity" v="29" />
		<tag k="contact:email" v="taktogtone@epost.no" />
		<tag k="max_age" v="5" />
		<tag k="min_age" v="1" />
		<tag k="name" v="Takt og Tone Avd Vestadveien" />
		<tag k="no-barnehage:nsrid" v="1020616" />
		<tag k="operator" v="Takt og Tone Unni Sørenbye" />
		<tag k="operator:type" v="private" />
		<tag k="start_date" v="2008-02-01" />
	</node>
	<node id="-41" lat="59.91837" lon="10.97159">
		<tag k="amenity" v="kindergarten" />
		<tag k="capacity" v="63" />
		<tag k="contact:email" v="soerlibarnehage@c2i.net" />
		<tag k="contact:phone" v="67 97 31 74" />
		<tag k="contact:website" v="http://www.sorlibarnehage.no" />
		<tag k="max_age" v="5" />
		<tag k="min_age" v="1" />
		<tag k="name" v="Sørli barnehage" />
		<tag k="no-barnehage:nsrid" v="1019931" />
		<tag k="operator" v="Sørli barnehage Sa" />
		<tag k="operator:type" v="private" />
		<tag k="start_date" v="1990-01-01" />
	</node>
	<node id="-40" lat="59.9136" lon="10.93817">
		<tag k="amenity" v="kindergarten" />
		<tag k="capacity" v="45" />
		<tag k="contact:phone" v="67901222" />
		<tag k="max_age" v="5" />
		<tag k="min_age" v="1" />
		<tag k="name" v="Stift Idavollen Steinerbarnehage" />
		<tag k="no-barnehage:nsrid" v="1019764" />
		<tag k="operator" v="Stiftelsen Idavollen Steinerbarnehage" />
		<tag k="operator:type" v="private" />
		<tag k="start_date" v="1989-01-02" />
	</node>
	<node id="-38" lat="59.9243" lon="10.9552">
		<tag k="amenity" v="kindergarten" />
		<tag k="capacity" v="77" />
		<tag k="contact:email" v="sobh@lorenskog.kommune.no" />
		<tag k="contact:phone" v="67 93 45 85" />
		<tag k="max_age" v="5" />
		<tag k="min_age" v="1" />
		<tag k="name" v="Solheim barnehage" />
		<tag k="no-barnehage:nsrid" v="1017540" />
		<tag k="operator" v="Lørenskog kommune" />
		<tag k="operator:type" v="public" />
		<tag k="start_date" v="1988-04-01" />
	</node>
	<node id="-36" lat="59.91923" lon="10.96094">
		<tag k="amenity" v="kindergarten" />
		<tag k="capacity" v="25" />
		<tag k="contact:phone" v="67 97 06 43" />
		<tag k="max_age" v="5" />
		<tag k="min_age" v="1" />
		<tag k="name" v="Skårungen Barnehave Sa" />
		<tag k="no-barnehage:nsrid" v="1019512" />
		<tag k="operator" v="Skårungen Barnehave Sa" />
		<tag k="operator:type" v="private" />
		<tag k="start_date" v="1978-08-28" />
	</node>
	<node id="-35" lat="59.928" lon="10.9459">
		<tag k="amenity" v="kindergarten" />
		<tag k="capacity" v="93" />
		<tag k="contact:email" v="robbh@lorenskog.kommune.no" />
		<tag k="contact:phone" v="67 20 17 50" />
		<tag k="max_age" v="5" />
		<tag k="min_age" v="1" />
		<tag k="name" v="Rolvsrud barnehage" />
		<tag k="no-barnehage:nsrid" v="1013256" />
		<tag k="operator" v="Lørenskog kommune" />
		<tag k="operator:type" v="public" />
		<tag k="start_date" v="2005-08-01" />
	</node>
	<node id="-34" lat="59.93113" lon="10.9291">
		<tag k="amenity" v="kindergarten" />
		<tag k="capacity" v="45" />
		<tag k="contact:email" v="post@regnbuebarnehage.org" />
		<tag k="contact:phone" v="67 92 23 03" />
		<tag k="contact:website" v="http://regnbuenbarnehage.net" />
		<tag k="max_age" v="5" />
		<tag k="min_age" v="1" />
		<tag k="name" v="Regnbuen barnehage Lørenskog" />
		<tag k="no-barnehage:nsrid" v="1022057" />
		<tag k="operator" v="Regnbuen barnehage Lørenskog" />
		<tag k="operator:type" v="private" />
		<tag k="start_date" v="2003-08-01" />
	</node>
	<node id="-33" lat="59.9231" lon="10.9406">
		<tag k="amenity" v="kindergarten" />
		<tag k="capacity" v="82" />
		<tag k="contact:email" v="rabh@lorenskog.kommune.no" />
		<tag k="contact:phone" v="67 93 47 90" />
		<tag k="max_age" v="5" />
		<tag k="min_age" v="1" />
		<tag k="name" v="Rasta barnehage" />
		<tag k="no-barnehage:nsrid" v="1017539" />
		<tag k="operator" v="Lørenskog kommune" />
		<tag k="operator:type" v="public" />
		<tag k="start_date" v="1988-04-01" />
	</node>
	<node id="-32" lat="59.91246" lon="10.97503">
		<tag k="amenity" v="kindergarten" />
		<tag k="capacity" v="54" />
		<tag k="contact:email" v="nesaasen.barnehage@online.no" />
		<tag k="contact:phone" v="67 98 91 20" />
		<tag k="contact:website" v="http://www.nesaasenbarnehage.no" />
		<tag k="max_age" v="5" />
		<tag k="min_age" v="1" />
		<tag k="name" v="Nesåsen barnehage Sa" />
		<tag k="no-barnehage:nsrid" v="1020779" />
		<tag k="operator" v="Nesåsen barnehage Sa" />
		<tag k="operator:type" v="private" />
		<tag k="start_date" v="2002-02-15" />
	</node>
	<node id="-30" lat="59.9192" lon="10.9605">
		<tag k="amenity" v="kindergarten" />
		<tag k="capacity" v="58" />
		<tag k="contact:email" v="lokb@lorenskog.kommune.no" />
		<tag k="contact:phone" v="67 98 21 60" />
		<tag k="max_age" v="5" />
		<tag k="min_age" v="1" />
		<tag k="name" v="Løkenåsen barnehage" />
		<tag k="no-barnehage:nsrid" v="1017538" />
		<tag k="operator" v="Lørenskog kommune" />
		<tag k="operator:type" v="public" />
		<tag k="start_date" v="1988-04-01" />
	</node>
	<node id="-29" lat="59.9154" lon="10.9605">
		<tag k="amenity" v="kindergarten" />
		<tag k="capacity" v="89" />
		<tag k="contact:email" v="lobh@lorenskog.kommune.no" />
		<tag k="contact:phone" v="67 92 97 91" />
		<tag k="max_age" v="5" />
		<tag k="min_age" v="1" />
		<tag k="name" v="Løken barnehage" />
		<tag k="no-barnehage:nsrid" v="1017537" />
		<tag k="operator" v="Lørenskog kommune" />
		<tag k="operator:type" v="public" />
		<tag k="start_date" v="1988-04-01" />
	</node>
	<node id="-25" lat="59.933" lon="11.0185">
		<tag k="amenity" v="kindergarten" />
		<tag k="capacity" v="83" />
		<tag k="contact:email" v="kubh@lorenskog.kommune.no" />
		<tag k="contact:phone" v="67 98 21 50" />
		<tag k="max_age" v="5" />
		<tag k="min_age" v="1" />
		<tag k="name" v="Kurland barnehage" />
		<tag k="no-barnehage:nsrid" v="1013911" />
		<tag k="operator" v="Lørenskog kommune" />
		<tag k="operator:type" v="public" />
		<tag k="start_date" v="1989-08-22" />
	</node>
	<node id="-20" lat="59.9245" lon="10.9499">
		<tag k="amenity" v="kindergarten" />
		<tag k="capacity" v="22" />
		<tag k="contact:email" v="klbh@lorenskog.kommune.no" />
		<tag k="contact:phone" v="67 92 98 06" />
		<tag k="max_age" v="5" />
		<tag k="min_age" v="1" />
		<tag k="name" v="Klubben barnehage" />
		<tag k="no-barnehage:nsrid" v="1014707" />
		<tag k="operator" v="Lørenskog kommune" />
		<tag k="operator:type" v="public" />
		<tag k="start_date" v="1992-08-01" />
	</node>
	<node id="-19" lat="59.9289" lon="10.9599">
		<tag k="amenity" v="kindergarten" />
		<tag k="capacity" v="88" />
		<tag k="contact:email" v="kjbh@lorenskog.kommune.no" />
		<tag k="contact:phone" v="67 93 45 40" />
		<tag k="max_age" v="5" />
		<tag k="min_age" v="1" />
		<tag k="name" v="Kjenn barnehage" />
		<tag k="no-barnehage:nsrid" v="1013788" />
		<tag k="operator" v="Lørenskog kommune" />
		<tag k="operator:type" v="public" />
		<tag k="start_date" v="1989-01-02" />
	</node>
	<node id="-15" lat="59.945" lon="10.9876">
		<tag k="amenity" v="kindergarten" />
		<tag k="capacity" v="83" />
		<tag k="contact:email" v="grbh@lorenskog.kommune.no" />
		<tag k="contact:phone" v="67 98 21 30" />
		<tag k="max_age" v="5" />
		<tag k="min_age" v="1" />
		<tag k="name" v="Grønlia barnehage" />
		<tag k="no-barnehage:nsrid" v="1017536" />
		<tag k="operator" v="Lørenskog kommune" />
		<tag k="operator:type" v="public" />
		<tag k="start_date" v="1988-04-01" />
	</node>
	<node id="-14" lat="59.9361" lon="10.976">
		<tag k="amenity" v="kindergarten" />
		<tag k="capacity" v="75" />
		<tag k="contact:email" v="fjellsrud.barnehage@lorenskog.kommune.no" />
		<tag k="contact:phone" v="67 20 17 75" />
		<tag k="max_age" v="5" />
		<tag k="min_age" v="1" />
		<tag k="name" v="Fjellsrud barnehage" />
		<tag k="no-barnehage:nsrid" v="1014795" />
		<tag k="operator" v="Lørenskog kommune" />
		<tag k="operator:type" v="public" />
		<tag k="start_date" v="1993-08-01" />
	</node>
	<node id="-13" lat="59.9406" lon="10.9768">
		<tag k="amenity" v="kindergarten" />
		<tag k="capacity" v="50" />
		<tag k="contact:email" v="fjbh@lorenskog.kommune.no" />
		<tag k="contact:phone" v="67 98 21 10" />
		<tag k="max_age" v="5" />
		<tag k="min_age" v="1" />
		<tag k="name" v="Fjellhamar barnehage" />
		<tag k="no-barnehage:nsrid" v="1017535" />
		<tag k="operator" v="Lørenskog kommune" />
		<tag k="operator:type" v="public" />
		<tag k="start_date" v="1988-04-01" />
	</node>
	<node id="-12" lat="59.9122" lon="10.9653">
		<tag k="amenity" v="kindergarten" />
		<tag k="capacity" v="57" />
		<tag k="contact:email" v="fibh@lorenskog.kommune.no" />
		<tag k="contact:phone" v="67 98 21 00" />
		<tag k="max_age" v="5" />
		<tag k="min_age" v="1" />
		<tag k="name" v="Finstad barnehage" />
		<tag k="no-barnehage:nsrid" v="1017534" />
		<tag k="operator" v="Lørenskog kommune" />
		<tag k="operator:type" v="public" />
		<tag k="start_date" v="1988-04-01" />
	</node>
	<node id="-2" lat="59.9309" lon="10.9911">
		<tag k="amenity" v="kindergarten" />
		<tag k="capacity" v="51" />
		<tag k="max_age" v="5" />
		<tag k="min_age" v="1" />
		<tag k="name" v="Ahus - barnehage 2" />
		<tag k="no-barnehage:nsrid" v="1012954" />
		<tag k="operator" v="Akershus Universitetssykehus Hf" />
		<tag k="start_date" v="2003-01-01" />
	</node>
	<node id="-9" lat="59.9402" lon="11.0108">
		<tag k="amenity" v="kindergarten" />
		<tag k="capacity" v="86" />
		<tag k="contact:email" v="bsbh@lorenskog.kommune.no" />
		<tag k="contact:phone" v="67 93 45 20" />
		<tag k="max_age" v="5" />
		<tag k="min_age" v="1" />
		<tag k="name" v="Bårliskogen barnehage" />
		<tag k="no-barnehage:nsrid" v="1018362" />
		<tag k="operator" v="Lørenskog kommune" />
		<tag k="operator:type" v="public" />
		<tag k="start_date" v="2008-04-03" />
	</node>
	<node id="-8" lat="59.9399" lon="10.9827">
		<tag k="amenity" v="kindergarten" />
		<tag k="capacity" v="20" />
		<tag k="contact:email" v="brbh@lorenskog.kommune.no" />
		<tag k="contact:phone" v="67 92 96 90" />
		<tag k="max_age" v="5" />
		<tag k="min_age" v="3" />
		<tag k="name" v="Bruget barnehage" />
		<tag k="no-barnehage:nsrid" v="1014796" />
		<tag k="operator" v="Lørenskog kommune" />
		<tag k="operator:type" v="public" />
		<tag k="start_date" v="1993-08-01" />
	</node>
	<node id="-7" lat="59.918" lon="10.9514">
		<tag k="amenity" v="kindergarten" />
		<tag k="capacity" v="64" />
		<tag k="contact:email" v="bebh@lorenskog.kommune.no" />
		<tag k="contact:phone" v="67 92 49 65" />
		<tag k="max_age" v="5" />
		<tag k="min_age" v="1" />
		<tag k="name" v="Benterud barnehage" />
		<tag k="no-barnehage:nsrid" v="1015749" />
		<tag k="operator" v="Lørenskog kommune" />
		<tag k="operator:type" v="public" />
		<tag k="start_date" v="1999-01-01" />
	</node>
	<node id="-5" lat="59.9315" lon="10.9892">
		<tag k="amenity" v="kindergarten" />
		<tag k="capacity" v="58" />
		<tag k="max_age" v="5" />
		<tag k="min_age" v="1" />
		<tag k="name" v="Ahus - barnehage 5" />
		<tag k="no-barnehage:nsrid" v="1012957" />
		<tag k="operator" v="Akershus Universitetssykehus Hf" />
		<tag k="start_date" v="2003-01-01" />
	</node>
	<node id="-4" lat="59.9322" lon="10.9892">
		<tag k="amenity" v="kindergarten" />
		<tag k="capacity" v="61" />
		<tag k="max_age" v="5" />
		<tag k="min_age" v="1" />
		<tag k="name" v="Ahus - barnehage 4" />
		<tag k="no-barnehage:nsrid" v="1012956" />
		<tag k="operator" v="Akershus Universitetssykehus Hf" />
		<tag k="start_date" v="2003-01-01" />
	</node>
	<node id="-3" lat="59.932" lon="10.9904">
		<tag k="amenity" v="kindergarten" />
		<tag k="capacity" v="61" />
		<tag k="max_age" v="5" />
		<tag k="min_age" v="1" />
		<tag k="name" v="Ahus - barnehage 3" />
		<tag k="no-barnehage:nsrid" v="1012955" />
		<tag k="operator" v="Akershus Universitetssykehus Hf" />
		<tag k="start_date" v="2003-01-01" />
	</node>
	<node id="-1" lat="59.9313" lon="10.9909">
		<tag k="amenity" v="kindergarten" />
		<tag k="capacity" v="56" />
		<tag k="contact:phone" v="067928234" />
		<tag k="max_age" v="5" />
		<tag k="min_age" v="1" />
		<tag k="name" v="Ahus - barnehage 1" />
		<tag k="no-barnehage:nsrid" v="1016669" />
		<tag k="operator" v="Akershus Universitetssykehus Hf" />
		<tag k="start_date" v="1983-11-09" />
	</node>
</osm>
