<?xml version="1.0" encoding="UTF-8"?>
<osm generator="osmapis" version="0.6">
	<node id="-800" lat="59.91991" lon="10.96181">
		<tag k="amenity" v="kindergarten" />
		<tag k="capacity" v="4" />
		<tag k="contact:email" v="bka@lorenskog.kommune.no" />
		<tag k="contact:phone" v="+47 47351942" />
		<tag k="max_age" v="2" />
		<tag k="min_age" v="1" />
		<tag k="name" v="Gülserens Familiebarnehage" />
		<tag k="no-barnehage:nsrid" v="1021522" />
		<tag k="operator" v="Gülserens Familiebarnehage Gülseren Køkyer" />
		<tag k="operator:type" v="private" />
		<tag k="start_date" v="2006-08-01" />
	</node>
	<node id="-794" lat="59.92599" lon="10.95014">
		<tag k="amenity" v="kindergarten" />
		<tag k="capacity" v="8" />
		<tag k="contact:email" v="dukkestuenfb@hotmail.com" />
		<tag k="max_age" v="2" />
		<tag k="min_age" v="1" />
		<tag k="name" v="Dukkestuen Familiebarnehage Da Avd Torbjørnsvei" />
		<tag k="no-barnehage:nsrid" v="1020944" />
		<tag k="operator" v="Dukkestuen Familiebarnehage Da" />
		<tag k="operator:type" v="private" />
		<tag k="start_date" v="2005-03-01" />
	</node>
	<node id="-823" lat="59.92651" lon="10.95241">
		<tag k="amenity" v="kindergarten" />
		<tag k="capacity" v="4" />
		<tag k="contact:email" v="moellef@online.no" />
		<tag k="max_age" v="2" />
		<tag k="min_age" v="1" />
		<tag k="name" v="Solheim Familiebarnehage" />
		<tag k="no-barnehage:nsrid" v="1020352" />
		<tag k="operator" v="Solheim Familiebarnehage Nr 2 Monica Ellefsen" />
		<tag k="operator:type" v="private" />
		<tag k="start_date" v="2009-01-01" />
	</node>
	<node id="-790" lat="59.94456" lon="10.94591">
		<tag k="amenity" v="kindergarten" />
		<tag k="capacity" v="8" />
		<tag k="contact:email" v="esc@lorenskog.kommune.no" />
		<tag k="contact:phone" v="+47 90825351" />
		<tag k="max_age" v="2" />
		<tag k="min_age" v="1" />
		<tag k="name" v="Bambi Familiebarnehage" />
		<tag k="no-barnehage:nsrid" v="1020754" />
		<tag k="operator" v="Bambi privat Familiebarnehage Avd.1 Songyl Kisin" />
		<tag k="operator:type" v="private" />
		<tag k="start_date" v="2005-08-01" />
	</node>
	<node id="-821" lat="59.91991" lon="10.96181">
		<tag k="amenity" v="kindergarten" />
		<tag k="capacity" v="4" />
		<tag k="contact:email" v="bka@lorenskog.kommune.no" />
		<tag k="contact:phone" v="+47 45614597" />
		<tag k="max_age" v="2" />
		<tag k="min_age" v="1" />
		<tag k="name" v="Småknøttene Familiebarnehage" />
		<tag k="no-barnehage:nsrid" v="1021028" />
		<tag k="operator" v="Småknøttene Familiebarnehage Cathrine Stokmann Solberg" />
		<tag k="operator:type" v="private" />
		<tag k="start_date" v="2004-05-01" />
	</node>
	<node id="-815" lat="59.93756" lon="10.96084">
		<tag k="amenity" v="kindergarten" />
		<tag k="capacity" v="4" />
		<tag k="contact:email" v="lorenskogfambarnehage@gmail.com" />
		<tag k="max_age" v="2" />
		<tag k="min_age" v="1" />
		<tag k="name" v="Lørenskog Familiebarnehage" />
		<tag k="no-barnehage:nsrid" v="1020757" />
		<tag k="operator" v="Lørenskog Familiebarnehage Anne Grethe Solheim Varga" />
		<tag k="operator:type" v="private" />
		<tag k="start_date" v="2009-01-01" />
	</node>
	<node id="-811" lat="59.94728" lon="10.9886">
		<tag k="amenity" v="kindergarten" />
		<tag k="capacity" v="8" />
		<tag k="contact:email" v="hitch@live.no" />
		<tag k="contact:phone" v="+47 67 97 51 90" />
		<tag k="max_age" v="2" />
		<tag k="min_age" v="1" />
		<tag k="name" v="Luna Familiebarnehage" />
		<tag k="no-barnehage:nsrid" v="1021257" />
		<tag k="operator" v="Luna Familiebarnehage V/helle Slott Hitchinson" />
		<tag k="operator:type" v="private" />
		<tag k="start_date" v="2005-08-01" />
	</node>
	<node id="-810" lat="59.94734" lon="10.98955">
		<tag k="amenity" v="kindergarten" />
		<tag k="capacity" v="4" />
		<tag k="contact:email" v="elizabeth.berntzen@vikenfiber.no" />
		<tag k="contact:phone" v="+47 67 97 11 70" />
		<tag k="max_age" v="2" />
		<tag k="min_age" v="1" />
		<tag k="name" v="Lille Stjerne Familiebarnehage" />
		<tag k="no-barnehage:nsrid" v="1021338" />
		<tag k="operator" v="Lille Stjerne Familiebarnehage Elizabeth Myhre Berntzen" />
		<tag k="operator:type" v="private" />
		<tag k="start_date" v="2005-11-01" />
	</node>
	<node id="-809" lat="59.93968" lon="10.95734">
		<tag k="amenity" v="kindergarten" />
		<tag k="capacity" v="4" />
		<tag k="contact:email" v="enverbitmez@gmail.com" />
		<tag k="contact:phone" v="+47 67 97 22 15" />
		<tag k="max_age" v="2" />
		<tag k="min_age" v="1" />
		<tag k="name" v="Langgrunna Private Familiebarnehage" />
		<tag k="no-barnehage:nsrid" v="1021074" />
		<tag k="operator" v="Langgrunna Familie barnehage Emine Bitmez" />
		<tag k="operator:type" v="private" />
		<tag k="start_date" v="2004-05-01" />
	</node>
	<node id="-807" lat="59.92041" lon="10.93655">
		<tag k="amenity" v="kindergarten" />
		<tag k="capacity" v="4" />
		<tag k="contact:email" v="mon-ro@online.no" />
		<tag k="max_age" v="2" />
		<tag k="min_age" v="1" />
		<tag k="name" v="Knerten Familiebarnehage Avdeling 1" />
		<tag k="no-barnehage:nsrid" v="1020274" />
		<tag k="operator" v="Knerten Familiebarnehage avd 1 Monica Roger Hansen" />
		<tag k="operator:type" v="private" />
		<tag k="start_date" v="2009-01-01" />
	</node>
	<node id="-806" lat="59.91363" lon="10.96">
		<tag k="amenity" v="kindergarten" />
		<tag k="capacity" v="4" />
		<tag k="contact:email" v="inger.olaussen@hotmail.no" />
		<tag k="contact:phone" v="+47 67 97 33 66" />
		<tag k="max_age" v="5" />
		<tag k="min_age" v="1" />
		<tag k="name" v="Kløverhagen Familiebarnehage 2 Inger Elisabeth Bjørnsrud Olaussen" />
		<tag k="no-barnehage:nsrid" v="1021477" />
		<tag k="operator" v="Kløverhagen Familiebarnehage 2 Inger Elisabeth Bjørnsrud Olaussen" />
		<tag k="operator:type" v="private" />
		<tag k="start_date" v="2006-08-01" />
	</node>
	<node id="-805" lat="59.91587" lon="10.96758">
		<tag k="amenity" v="kindergarten" />
		<tag k="capacity" v="4" />
		<tag k="contact:email" v="heb-72@hotmail.com" />
		<tag k="contact:phone" v="+47 67 97 28 33" />
		<tag k="max_age" v="2" />
		<tag k="min_age" v="1" />
		<tag k="name" v="Kløverhagen Familiebarnehage" />
		<tag k="no-barnehage:nsrid" v="1020787" />
		<tag k="operator" v="Kløverhagen Familiebarnehage Berntsen" />
		<tag k="operator:type" v="private" />
		<tag k="start_date" v="2002-03-01" />
	</node>
	<node id="-802" lat="59.91497" lon="10.92895">
		<tag k="amenity" v="kindergarten" />
		<tag k="capacity" v="4" />
		<tag k="contact:email" v="marianneolberg@hotmail.com" />
		<tag k="max_age" v="2" />
		<tag k="min_age" v="1" />
		<tag k="name" v="Hundremeterskogen Familiebarnehage Avd Nasse Nøff" />
		<tag k="no-barnehage:nsrid" v="1020355" />
		<tag k="operator" v="Hundremeterskogen Familiebarnehage avd Nasse Nøff Marianne O Knardahl" />
		<tag k="operator:type" v="private" />
		<tag k="start_date" v="2009-01-01" />
	</node>
	<node id="-801" lat="59.91528" lon="10.9288">
		<tag k="amenity" v="kindergarten" />
		<tag k="capacity" v="4" />
		<tag k="contact:email" v="evafholmsen@hotmail.com" />
		<tag k="max_age" v="2" />
		<tag k="min_age" v="1" />
		<tag k="name" v="Hundremeterskogen Familiebarnehage" />
		<tag k="no-barnehage:nsrid" v="1020354" />
		<tag k="operator" v="Hundremeterskogen Familiebarnehage avd Ole Brum Eva Fougli Holmsen" />
		<tag k="operator:type" v="private" />
		<tag k="start_date" v="2009-01-01" />
	</node>
</osm>
