<?xml version="1.0" encoding="UTF-8"?>
<osm generator="osmapis" version="0.6">
	<node id="-5069" lat="62.5712" lon="11.3751">
		<tag k="amenity" v="kindergarten" />
		<tag k="capacity" v="36" />
		<tag k="contact:email" v="monika.engen@roros.kommune.no" />
		<tag k="contact:phone" v="72410429" />
		<tag k="max_age" v="5" />
		<tag k="min_age" v="1" />
		<tag k="name" v="Øya barnehage" />
		<tag k="no-barnehage:nsrid" v="1016877" />
		<tag k="operator" v="Røros kommune" />
		<tag k="operator:type" v="public" />
		<tag k="start_date" v="1990-01-01" />
	</node>
	<node id="-5068" lat="62.5725" lon="11.3985">
		<tag k="amenity" v="kindergarten" />
		<tag k="capacity" v="31" />
		<tag k="contact:email" v="jo.inge.indset@roros.kommune.no" />
		<tag k="contact:phone" v="72419838" />
		<tag k="max_age" v="5" />
		<tag k="min_age" v="1" />
		<tag k="name" v="Ysterhagaen barnehage" />
		<tag k="no-barnehage:nsrid" v="1012701" />
		<tag k="operator" v="Røros kommune" />
		<tag k="operator:type" v="public" />
		<tag k="start_date" v="1989-01-01" />
	</node>
	<node id="-5067" lat="62.564" lon="11.37564">
		<tag k="amenity" v="kindergarten" />
		<tag k="capacity" v="34" />
		<tag k="contact:email" v="post@stenbrottet.no" />
		<tag k="contact:phone" v="72412933" />
		<tag k="max_age" v="5" />
		<tag k="min_age" v="1" />
		<tag k="name" v="Stenbråttet barnehage Sa" />
		<tag k="no-barnehage:nsrid" v="1019738" />
		<tag k="operator" v="Stenbråttet barnehage Sa" />
		<tag k="operator:type" v="private" />
		<tag k="start_date" v="1989-01-02" />
	</node>
	<node id="-5066" lat="62.5772" lon="11.3721">
		<tag k="amenity" v="kindergarten" />
		<tag k="capacity" v="64" />
		<tag k="contact:email" v="unni.sandnes@roros.kommune.no" />
		<tag k="contact:phone" v="72419839" />
		<tag k="max_age" v="5" />
		<tag k="min_age" v="1" />
		<tag k="name" v="Kvitsanden barnehage" />
		<tag k="no-barnehage:nsrid" v="1012702" />
		<tag k="operator" v="Røros kommune" />
		<tag k="operator:type" v="public" />
		<tag k="start_date" v="1989-01-01" />
	</node>
	<node id="-5065" lat="62.6728" lon="11.4241">
		<tag k="amenity" v="kindergarten" />
		<tag k="capacity" v="17" />
		<tag k="contact:email" v="marit.haltli.nysetvoll@roros.kommune.no" />
		<tag k="contact:phone" v="72419830" />
		<tag k="max_age" v="5" />
		<tag k="min_age" v="1" />
		<tag k="name" v="Glåmos barnehage" />
		<tag k="no-barnehage:nsrid" v="1016204" />
		<tag k="operator" v="Røros kommune" />
		<tag k="operator:type" v="public" />
		<tag k="start_date" v="1989-01-01" />
	</node>
	<node id="-5064" lat="62.57481" lon="11.38411">
		<tag k="amenity" v="kindergarten" />
		<tag k="capacity" v="16" />
		<tag k="contact:email" v="post@galaavolden.no" />
		<tag k="max_age" v="5" />
		<tag k="min_age" v="1" />
		<tag k="name" v="Galåen Naturbarnehage AS" />
		<tag k="no-barnehage:nsrid" v="1021115" />
		<tag k="operator" v="Galåen Naturbarnehage AS" />
		<tag k="operator:type" v="private" />
		<tag k="start_date" v="1989-01-01" />
	</node>
	<node id="-5063" lat="62.6472" lon="11.8669">
		<tag k="amenity" v="kindergarten" />
		<tag k="capacity" v="12" />
		<tag k="contact:email" v="maja.horven@roros.kommune.no" />
		<tag k="contact:phone" v="73406016" />
		<tag k="max_age" v="5" />
		<tag k="min_age" v="1" />
		<tag k="name" v="Brekken barnehage" />
		<tag k="no-barnehage:nsrid" v="1012703" />
		<tag k="operator" v="Røros kommune" />
		<tag k="operator:type" v="public" />
		<tag k="start_date" v="1989-01-01" />
	</node>
</osm>
