<?xml version="1.0" encoding="UTF-8"?>
<osm generator="osmapis" version="0.6">
	<node id="-5489" lat="62.6721" lon="8.56042">
		<tag k="amenity" v="kindergarten" />
		<tag k="capacity" v="39" />
		<tag k="max_age" v="5" />
		<tag k="min_age" v="1" />
		<tag k="name" v="Villabyen barnehage" />
		<tag k="no-barnehage:nsrid" v="1016608" />
		<tag k="operator" v="Sunndal kommune" />
		<tag k="operator:type" v="public" />
	</node>
	<node id="-5488" lat="62.66633" lon="8.53306">
		<tag k="amenity" v="kindergarten" />
		<tag k="capacity" v="71" />
		<tag k="max_age" v="5" />
		<tag k="min_age" v="1" />
		<tag k="name" v="Tredal barnehage" />
		<tag k="no-barnehage:nsrid" v="1016606" />
		<tag k="operator" v="Sunndal kommune" />
		<tag k="operator:type" v="public" />
	</node>
	<node id="-5487" lat="0.0" lon="0.0">
		<tag k="amenity" v="kindergarten" />
		<tag k="capacity" v="67" />
		<tag k="max_age" v="5" />
		<tag k="min_age" v="1" />
		<tag k="name" v="Stortuva barnehage" />
		<tag k="no-barnehage:nsrid" v="1014990" />
		<tag k="operator" v="Sunndal kommune" />
		<tag k="operator:type" v="public" />
	</node>
	<node id="-5486" lat="62.67011" lon="8.57749">
		<tag k="amenity" v="kindergarten" />
		<tag k="capacity" v="94" />
		<tag k="max_age" v="5" />
		<tag k="min_age" v="1" />
		<tag k="name" v="Holten barnehage" />
		<tag k="no-barnehage:nsrid" v="1016605" />
		<tag k="operator" v="Sunndal kommune" />
		<tag k="operator:type" v="public" />
	</node>
	<node id="-5485" lat="62.65848" lon="8.63765">
		<tag k="amenity" v="kindergarten" />
		<tag k="capacity" v="68" />
		<tag k="max_age" v="5" />
		<tag k="min_age" v="1" />
		<tag k="name" v="Holssand barnehage" />
		<tag k="no-barnehage:nsrid" v="2000105" />
		<tag k="operator" v="Sunndal kommune" />
		<tag k="operator:type" v="public" />
	</node>
	<node id="-5484" lat="62.54787" lon="9.11275">
		<tag k="amenity" v="kindergarten" />
		<tag k="capacity" v="11" />
		<tag k="max_age" v="5" />
		<tag k="min_age" v="1" />
		<tag k="name" v="GjÃ¸ra oppvekstsenter avd. barnehage" />
		<tag k="no-barnehage:nsrid" v="1025674" />
		<tag k="operator" v="Sunndal kommune" />
		<tag k="operator:type" v="public" />
	</node>
	<node id="-5483" lat="62.6704" lon="8.55424">
		<tag k="amenity" v="kindergarten" />
		<tag k="max_age" v="5" />
		<tag k="min_age" v="1" />
		<tag k="name" v="Bikuben barnehage" />
		<tag k="no-barnehage:nsrid" v="1017144" />
		<tag k="operator" v="Sunndal kommune" />
		<tag k="operator:type" v="public" />
	</node>
</osm>
