<?xml version="1.0" encoding="UTF-8"?>
<osm generator="osmapis" version="0.6">
	<node id="-4699" lat="62.6721" lon="8.56042">
		<tag k="amenity" v="kindergarten" />
		<tag k="capacity" v="48" />
		<tag k="contact:email" v="silje.alise.ness@sunndal.kommune.no" />
		<tag k="contact:phone" v="71 69 93 40" />
		<tag k="max_age" v="5" />
		<tag k="min_age" v="1" />
		<tag k="name" v="Villabyen barnehage" />
		<tag k="no-barnehage:nsrid" v="1016608" />
		<tag k="operator" v="Sunndal kommune" />
		<tag k="operator:type" v="public" />
		<tag k="start_date" v="1991-08-01" />
	</node>
	<node id="-4698" lat="62.6663" lon="8.53307">
		<tag k="amenity" v="kindergarten" />
		<tag k="capacity" v="60" />
		<tag k="contact:email" v="postmottak.tredal.barnehage@sunndal.kommune.no" />
		<tag k="contact:phone" v="71 69 28 70" />
		<tag k="max_age" v="5" />
		<tag k="min_age" v="1" />
		<tag k="name" v="Tredal barnehage" />
		<tag k="no-barnehage:nsrid" v="1016606" />
		<tag k="operator" v="Sunndal kommune" />
		<tag k="operator:type" v="public" />
		<tag k="start_date" v="1977-09-01" />
	</node>
	<node id="-4697" lat="62.7659" lon="8.53659">
		<tag k="amenity" v="kindergarten" />
		<tag k="capacity" v="52" />
		<tag k="contact:email" v="randi.dorrum@sunndal.kommune.no" />
		<tag k="contact:phone" v="71 69 68 53" />
		<tag k="max_age" v="5" />
		<tag k="min_age" v="1" />
		<tag k="name" v="Stortuva barnehage" />
		<tag k="no-barnehage:nsrid" v="1014990" />
		<tag k="operator" v="Sunndal kommune" />
		<tag k="operator:type" v="public" />
		<tag k="start_date" v="1997-01-01" />
	</node>
	<node id="-4696" lat="62.644" lon="8.72995">
		<tag k="amenity" v="kindergarten" />
		<tag k="capacity" v="36" />
		<tag k="contact:email" v="kristin.borset@sunndal.kommune.no" />
		<tag k="contact:phone" v="71 69 93 25" />
		<tag k="max_age" v="5" />
		<tag k="min_age" v="1" />
		<tag k="name" v="Malurten barnehage" />
		<tag k="no-barnehage:nsrid" v="1016607" />
		<tag k="operator" v="Sunndal kommune" />
		<tag k="operator:type" v="public" />
		<tag k="start_date" v="1988-04-01" />
	</node>
	<node id="-4695" lat="62.6701" lon="8.57748">
		<tag k="amenity" v="kindergarten" />
		<tag k="capacity" v="92" />
		<tag k="contact:email" v="ingeborg.johansen@sunndal.kommune.no" />
		<tag k="contact:phone" v="71 69 22 69" />
		<tag k="max_age" v="5" />
		<tag k="min_age" v="1" />
		<tag k="name" v="Holten barnehage" />
		<tag k="no-barnehage:nsrid" v="1016605" />
		<tag k="operator" v="Sunndal kommune" />
		<tag k="operator:type" v="public" />
		<tag k="start_date" v="1965-12-31" />
	</node>
	<node id="-4694" lat="62.54787" lon="9.112748">
		<tag k="amenity" v="kindergarten" />
		<tag k="capacity" v="17" />
		<tag k="contact:email" v="ole.bruseth@sunndal.kommune.no" />
		<tag k="contact:phone" v="71 69 94 35" />
		<tag k="max_age" v="5" />
		<tag k="min_age" v="1" />
		<tag k="name" v="GjÃ¸ra Oppvekstsenter Avd barnehage" />
		<tag k="no-barnehage:nsrid" v="1025674" />
		<tag k="operator" v="Sunndal kommune" />
		<tag k="operator:type" v="public" />
		<tag k="start_date" v="1988-04-01" />
	</node>
	<node id="-4693" lat="62.6704" lon="8.55424">
		<tag k="amenity" v="kindergarten" />
		<tag k="capacity" v="21" />
		<tag k="contact:email" v="berit.aaasen@sunndal.kommune.no" />
		<tag k="contact:phone" v="71 69 93 10" />
		<tag k="max_age" v="5" />
		<tag k="min_age" v="1" />
		<tag k="name" v="Bikuben barnehage" />
		<tag k="no-barnehage:nsrid" v="1017144" />
		<tag k="operator" v="Sunndal kommune" />
		<tag k="operator:type" v="public" />
		<tag k="start_date" v="2006-01-01" />
	</node>
</osm>
