<?xml version="1.0" encoding="UTF-8"?>
<osm generator="osmapis" version="0.6">
	<node id="-3392" lat="62.48044" lon="6.37741">
		<tag k="ADDRESS" v="Nyelvmyrvegen 11, 6019 ÅLESUND" />
		<tag k="amenity" v="kindergarten" />
		<tag k="capacity" v="135" />
		<tag k="max_age" v="5" />
		<tag k="min_age" v="1" />
		<tag k="name" v="Læringsverkstedet barnehage avd. Olsvika" />
		<tag k="no-barnehage:nsrid" v="1021641" />
		<tag k="operator" v="Læringsverkstedet AS" />
		<tag k="operator:type" v="private" />
	</node>
	<node id="-3391" lat="62.47203" lon="6.17826">
		<tag k="ADDRESS" v="Fjellgata 55, 6007 ÅLESUND" />
		<tag k="amenity" v="kindergarten" />
		<tag k="capacity" v="30" />
		<tag k="max_age" v="5" />
		<tag k="min_age" v="1" />
		<tag k="name" v="Klipra barnehage" />
		<tag k="no-barnehage:nsrid" v="1019724" />
		<tag k="operator" v="Klipra barnehage Sa" />
		<tag k="operator:type" v="private" />
	</node>
	<node id="-3390" lat="62.45507" lon="6.10532">
		<tag k="ADDRESS" v="Stavnesvegen 96, 6006 ÅLESUND" />
		<tag k="amenity" v="kindergarten" />
		<tag k="name" v="Hessa barnehage" />
		<tag k="no-barnehage:nsrid" v="1015942" />
		<tag k="operator" v="Ålesund kommune" />
		<tag k="operator:type" v="public" />
	</node>
	<node id="-3388" lat="62.47607" lon="6.19277">
		<tag k="ADDRESS" v="Kråmyrvegen 3, 6007 ÅLESUND" />
		<tag k="amenity" v="kindergarten" />
		<tag k="capacity" v="34" />
		<tag k="max_age" v="5" />
		<tag k="min_age" v="1" />
		<tag k="name" v="Fjelltun barnehage" />
		<tag k="no-barnehage:nsrid" v="1016839" />
		<tag k="operator" v="Ålesund Barnehager Sa" />
		<tag k="operator:type" v="private" />
	</node>
	<node id="-3387" lat="0.0" lon="0.0">
		<tag k="ADDRESS" v="Hoffland, 6057 ELLINGSØY" />
		<tag k="amenity" v="kindergarten" />
		<tag k="capacity" v="87" />
		<tag k="max_age" v="5" />
		<tag k="min_age" v="1" />
		<tag k="name" v="Ellingsøy barnehage" />
		<tag k="no-barnehage:nsrid" v="1012969" />
		<tag k="operator" v="Ålesund kommune" />
		<tag k="operator:type" v="public" />
	</node>
	<node id="-3386" lat="62.46601" lon="6.34496">
		<tag k="ADDRESS" v="Breivikvegen 5, 6018 ÅLESUND" />
		<tag k="amenity" v="kindergarten" />
		<tag k="capacity" v="36" />
		<tag k="max_age" v="5" />
		<tag k="min_age" v="1" />
		<tag k="name" v="Brisk barnehage" />
		<tag k="no-barnehage:nsrid" v="1018580" />
		<tag k="operator" v="Brisk kompetansesenter AS" />
		<tag k="operator:type" v="private" />
	</node>
	<node id="-3385" lat="62.46497" lon="6.23247">
		<tag k="ADDRESS" v="Borgundgavlen 51, 6015 ÅLESUND" />
		<tag k="amenity" v="kindergarten" />
		<tag k="capacity" v="26" />
		<tag k="max_age" v="5" />
		<tag k="min_age" v="1" />
		<tag k="name" v="Borgund menighetsbarnehage" />
		<tag k="no-barnehage:nsrid" v="1016761" />
		<tag k="operator" v="Borgund Sokn" />
		<tag k="operator:type" v="private" />
	</node>
	<node id="-3404" lat="62.4606" lon="6.3356">
		<tag k="ADDRESS" v="Borgundfjordvegen 78, 6017 ÅLESUND" />
		<tag k="amenity" v="kindergarten" />
		<tag k="capacity" v="36" />
		<tag k="max_age" v="5" />
		<tag k="min_age" v="1" />
		<tag k="name" v="Åsestranda barnehage" />
		<tag k="no-barnehage:nsrid" v="1019977" />
		<tag k="operator" v="Åsestranda barnehage Sa" />
		<tag k="operator:type" v="private" />
	</node>
	<node id="-3403" lat="0.0" lon="0.0">
		<tag k="ADDRESS" v=", 6018 ÅLESUND" />
		<tag k="amenity" v="kindergarten" />
		<tag k="capacity" v="36" />
		<tag k="max_age" v="5" />
		<tag k="min_age" v="1" />
		<tag k="name" v="Åsemulen barnehage" />
		<tag k="no-barnehage:nsrid" v="1014946" />
		<tag k="operator" v="Ålesund kommune" />
		<tag k="operator:type" v="public" />
	</node>
	<node id="-3402" lat="62.46389" lon="6.31819">
		<tag k="ADDRESS" v="Øvre Geilegrend 12, 6017 ÅLESUND" />
		<tag k="amenity" v="kindergarten" />
		<tag k="capacity" v="80" />
		<tag k="max_age" v="5" />
		<tag k="min_age" v="1" />
		<tag k="name" v="Åse barnehage" />
		<tag k="no-barnehage:nsrid" v="1020963" />
		<tag k="operator" v="Åse barnehage AS" />
		<tag k="operator:type" v="private" />
	</node>
	<node id="-3401" lat="62.46161" lon="6.36134">
		<tag k="ADDRESS" v="Liljedahlvegen 21, 6010 ÅLESUND" />
		<tag k="amenity" v="kindergarten" />
		<tag k="capacity" v="54" />
		<tag k="max_age" v="5" />
		<tag k="min_age" v="1" />
		<tag k="name" v="Tommeliten barnehage" />
		<tag k="no-barnehage:nsrid" v="1019884" />
		<tag k="operator" v="Tommeliten Fus barnehage AS" />
		<tag k="operator:type" v="private" />
	</node>
	<node id="-3400" lat="62.50461" lon="6.40395">
		<tag k="ADDRESS" v="Lyngholmvegen 253, 6057 ELLINGSØY" />
		<tag k="amenity" v="kindergarten" />
		<tag k="capacity" v="14" />
		<tag k="max_age" v="5" />
		<tag k="min_age" v="1" />
		<tag k="name" v="Stokke barnehage" />
		<tag k="no-barnehage:nsrid" v="1018182" />
		<tag k="operator" v="Ålesund kommune" />
		<tag k="operator:type" v="public" />
	</node>
	<node id="-3399" lat="62.45796" lon="6.15023">
		<tag k="ADDRESS" v="Skolemestervegen 50, 6006 ÅLESUND" />
		<tag k="amenity" v="kindergarten" />
		<tag k="capacity" v="54" />
		<tag k="contact:website" v="http://www.slinningen.barnehage.no" />
		<tag k="max_age" v="5" />
		<tag k="min_age" v="1" />
		<tag k="name" v="Slinningen barnehage" />
		<tag k="no-barnehage:nsrid" v="1020851" />
		<tag k="operator" v="Slinningen barnehage Sa" />
		<tag k="operator:type" v="private" />
	</node>
	<node id="-3398" lat="62.4651" lon="6.11199">
		<tag k="ADDRESS" v="Harhauggata 41, 6006 ÅLESUND" />
		<tag k="amenity" v="kindergarten" />
		<tag k="capacity" v="60" />
		<tag k="max_age" v="5" />
		<tag k="min_age" v="1" />
		<tag k="name" v="Skarbøvik barnehage" />
		<tag k="no-barnehage:nsrid" v="1018180" />
		<tag k="operator" v="Ålesund kommune" />
		<tag k="operator:type" v="public" />
	</node>
	<node id="-3397" lat="0.0" lon="0.0">
		<tag k="ADDRESS" v="Hatlaskaret 19, 6016 ÅLESUND" />
		<tag k="amenity" v="kindergarten" />
		<tag k="capacity" v="28" />
		<tag k="max_age" v="5" />
		<tag k="min_age" v="1" />
		<tag k="name" v="Ratvikåsen barnehage" />
		<tag k="no-barnehage:nsrid" v="1018179" />
		<tag k="operator" v="Ålesund kommune" />
		<tag k="operator:type" v="public" />
	</node>
	<node id="-3396" lat="62.4348" lon="6.35044">
		<tag k="ADDRESS" v="Vegsundvegen 62, 6020 ÅLESUND" />
		<tag k="amenity" v="kindergarten" />
		<tag k="capacity" v="62" />
		<tag k="max_age" v="5" />
		<tag k="min_age" v="1" />
		<tag k="name" v="Rabbevågen barnehage" />
		<tag k="no-barnehage:nsrid" v="1018516" />
		<tag k="operator" v="Ålesund kommune" />
		<tag k="operator:type" v="public" />
	</node>
	<node id="-3395" lat="62.43378" lon="6.4008">
		<tag k="ADDRESS" v="Ramsvika 1, 6012 ÅLESUND" />
		<tag k="amenity" v="kindergarten" />
		<tag k="capacity" v="41" />
		<tag k="contact:website" v="http://www.puskhola.barnehage.no" />
		<tag k="max_age" v="5" />
		<tag k="min_age" v="1" />
		<tag k="name" v="Puskhola barnehage" />
		<tag k="no-barnehage:nsrid" v="1019918" />
		<tag k="operator" v="Puskhola barnehage Sa" />
		<tag k="operator:type" v="private" />
	</node>
	<node id="-3394" lat="62.47382" lon="6.15949">
		<tag k="ADDRESS" v="Losgata 2, 6002 ÅLESUND" />
		<tag k="amenity" v="kindergarten" />
		<tag k="capacity" v="46" />
		<tag k="max_age" v="5" />
		<tag k="min_age" v="1" />
		<tag k="name" v="Midtbyen barnehage" />
		<tag k="no-barnehage:nsrid" v="1018177" />
		<tag k="operator" v="Ålesund kommune" />
		<tag k="operator:type" v="public" />
	</node>
	<node id="-3393" lat="62.45833" lon="6.36561">
		<tag k="ADDRESS" v="Mogensvegen 41, 6010 ÅLESUND" />
		<tag k="amenity" v="kindergarten" />
		<tag k="capacity" v="43" />
		<tag k="contact:website" v="http://laringsverkstedet.no/barnehage/skogheim" />
		<tag k="max_age" v="5" />
		<tag k="min_age" v="1" />
		<tag k="name" v="Læringsverkstedet barnehage avd. Skogheim" />
		<tag k="no-barnehage:nsrid" v="1021541" />
		<tag k="operator" v="Læringsverkstedet AS" />
		<tag k="operator:type" v="private" />
	</node>
</osm>
