<?xml version="1.0" encoding="UTF-8"?>
<osm generator="osmapis" version="0.6">
	<node id="-4473" lat="62.46068" lon="6.335534">
		<tag k="amenity" v="kindergarten" />
		<tag k="capacity" v="35" />
		<tag k="contact:email" v="post@aasestranda.no" />
		<tag k="contact:phone" v="+47 71 40 22 15" />
		<tag k="max_age" v="5" />
		<tag k="min_age" v="1" />
		<tag k="name" v="Åsestranda barnehage Sa" />
		<tag k="no-barnehage:nsrid" v="1019977" />
		<tag k="operator" v="Åsestranda barnehage Sa" />
		<tag k="operator:type" v="private" />
		<tag k="start_date" v="1991-01-01" />
	</node>
	<node id="-4472" lat="62.4733" lon="6.35424">
		<tag k="amenity" v="kindergarten" />
		<tag k="capacity" v="35" />
		<tag k="contact:email" v="synnove.holen@alesund.kommune.no" />
		<tag k="contact:phone" v="+47 70 14 73 22" />
		<tag k="max_age" v="5" />
		<tag k="min_age" v="1" />
		<tag k="name" v="Åsemulen barnehage" />
		<tag k="no-barnehage:nsrid" v="1014946" />
		<tag k="operator" v="Ålesund kommune" />
		<tag k="operator:type" v="public" />
		<tag k="start_date" v="1994-08-01" />
	</node>
	<node id="-4471" lat="62.46386" lon="6.318233">
		<tag k="amenity" v="kindergarten" />
		<tag k="capacity" v="82" />
		<tag k="contact:email" v="leder.ase@asebarne.no" />
		<tag k="contact:phone" v="+47 70 17 86 20" />
		<tag k="max_age" v="5" />
		<tag k="min_age" v="1" />
		<tag k="name" v="Åse barnehage AS" />
		<tag k="no-barnehage:nsrid" v="1020963" />
		<tag k="operator" v="Åse barnehage AS" />
		<tag k="operator:type" v="private" />
		<tag k="start_date" v="1989-01-01" />
	</node>
	<node id="-4470" lat="62.46051" lon="6.372622">
		<tag k="amenity" v="kindergarten" />
		<tag k="capacity" v="56" />
		<tag k="contact:email" v="styrer.veslefrikk@barnehage.no" />
		<tag k="contact:phone" v="+47 70 14 47 10" />
		<tag k="contact:website" v="http://veslefrikk.barnehage.no" />
		<tag k="max_age" v="5" />
		<tag k="min_age" v="1" />
		<tag k="name" v="Veslefrikk barnehage Ålesund Sa" />
		<tag k="no-barnehage:nsrid" v="1019815" />
		<tag k="operator" v="Veslefrikk barnehage Ålesund Sa" />
		<tag k="operator:type" v="private" />
		<tag k="start_date" v="1989-01-02" />
	</node>
	<node id="-4469" lat="62.43513" lon="6.351233">
		<tag k="amenity" v="kindergarten" />
		<tag k="capacity" v="69" />
		<tag k="contact:email" v="postmaster@vegsundbhg.no" />
		<tag k="contact:phone" v="+47 70 14 43 44" />
		<tag k="max_age" v="5" />
		<tag k="min_age" v="1" />
		<tag k="name" v="Vegsund barnehage Sa" />
		<tag k="no-barnehage:nsrid" v="1021084" />
		<tag k="operator" v="Vegsund barnehage Sa" />
		<tag k="operator:type" v="private" />
		<tag k="start_date" v="2003-10-14" />
	</node>
	<node id="-4468" lat="62.46782" lon="6.248304">
		<tag k="amenity" v="kindergarten" />
		<tag k="capacity" v="120" />
		<tag k="contact:email" v="post@trollbarna.no" />
		<tag k="contact:phone" v="+47 70 17 44 60" />
		<tag k="max_age" v="5" />
		<tag k="min_age" v="1" />
		<tag k="name" v="Trollhaugen barnehage AS" />
		<tag k="no-barnehage:nsrid" v="1021141" />
		<tag k="operator" v="Trollhaugen barnehage AS" />
		<tag k="operator:type" v="private" />
		<tag k="start_date" v="1995-02-23" />
	</node>
	<node id="-4467" lat="62.4759" lon="6.24719">
		<tag k="amenity" v="kindergarten" />
		<tag k="capacity" v="30" />
		<tag k="contact:email" v="alv@opuscapita.no" />
		<tag k="contact:phone" v="+47 70125691" />
		<tag k="max_age" v="5" />
		<tag k="min_age" v="1" />
		<tag k="name" v="Torvteigen barnehage" />
		<tag k="no-barnehage:nsrid" v="1016215" />
		<tag k="operator" v="Ålesund Barnehager Sa" />
		<tag k="operator:type" v="private" />
		<tag k="start_date" v="1990-08-22" />
	</node>
	<node id="-4466" lat="62.46162" lon="6.361334">
		<tag k="amenity" v="kindergarten" />
		<tag k="capacity" v="53" />
		<tag k="contact:email" v="dl.tommeliten@bhg.no" />
		<tag k="contact:phone" v="+47 70 14 58 05" />
		<tag k="max_age" v="5" />
		<tag k="min_age" v="1" />
		<tag k="name" v="Tommeliten barnehage" />
		<tag k="no-barnehage:nsrid" v="1019884" />
		<tag k="operator" v="Tommeliten Fus barnehage AS" />
		<tag k="operator:type" v="private" />
		<tag k="start_date" v="1990-04-01" />
	</node>
	<node id="-4465" lat="62.4721" lon="6.14356">
		<tag k="amenity" v="kindergarten" />
		<tag k="capacity" v="64" />
		<tag k="contact:email" v="storhaugenbh@alesund.kommune.no" />
		<tag k="contact:phone" v="+47 70162390" />
		<tag k="max_age" v="5" />
		<tag k="min_age" v="1" />
		<tag k="name" v="Storhaugen barnehage" />
		<tag k="no-barnehage:nsrid" v="1018181" />
		<tag k="operator" v="Ålesund kommune" />
		<tag k="operator:type" v="public" />
		<tag k="start_date" v="1989-01-01" />
	</node>
	<node id="-4464" lat="62.501" lon="6.28497">
		<tag k="amenity" v="kindergarten" />
		<tag k="capacity" v="17" />
		<tag k="contact:email" v="stokkebh@alesund.kommune.no" />
		<tag k="contact:phone" v="+47 70 16 20 00" />
		<tag k="max_age" v="5" />
		<tag k="min_age" v="1" />
		<tag k="name" v="Stokke barnehage" />
		<tag k="no-barnehage:nsrid" v="1018182" />
		<tag k="operator" v="Ålesund kommune" />
		<tag k="operator:type" v="public" />
		<tag k="start_date" v="1989-01-01" />
	</node>
	<node id="-4463" lat="62.47396" lon="6.237101">
		<tag k="amenity" v="kindergarten" />
		<tag k="capacity" v="29" />
		<tag k="contact:email" v="stjerneoye@stjerneoye.no" />
		<tag k="contact:phone" v="+47 071281330" />
		<tag k="max_age" v="5" />
		<tag k="min_age" v="1" />
		<tag k="name" v="Stiftelsen Rudolf Steinerbarnehagen Stjerneøye" />
		<tag k="no-barnehage:nsrid" v="1019767" />
		<tag k="operator" v="Stiftelsen Rudolf Steinerbarnehagen Stjerneøye" />
		<tag k="operator:type" v="private" />
		<tag k="start_date" v="1989-01-02" />
	</node>
	<node id="-4462" lat="62.501" lon="6.28497">
		<tag k="amenity" v="kindergarten" />
		<tag k="capacity" v="28" />
		<tag k="contact:email" v="slotsvik.menighetsbarnehage@kirken-aalesund.no" />
		<tag k="contact:phone" v="+47 70 16 53 66" />
		<tag k="max_age" v="5" />
		<tag k="min_age" v="1" />
		<tag k="name" v="Slotsvik Menighetsbarnehage" />
		<tag k="no-barnehage:nsrid" v="1016744" />
		<tag k="operator" v="Ellingsøy Sokn" />
		<tag k="operator:type" v="private" />
		<tag k="start_date" v="1989-01-02" />
	</node>
	<node id="-4461" lat="62.45796" lon="6.150232">
		<tag k="amenity" v="kindergarten" />
		<tag k="capacity" v="55" />
		<tag k="contact:email" v="styrer@slinningen.no" />
		<tag k="contact:phone" v="+47 70 12 13 47" />
		<tag k="contact:website" v="http://www.slinningen.barnehage.no" />
		<tag k="max_age" v="5" />
		<tag k="min_age" v="1" />
		<tag k="name" v="Slinningen barnehage Sa" />
		<tag k="no-barnehage:nsrid" v="1020851" />
		<tag k="operator" v="Slinningen barnehage Sa" />
		<tag k="operator:type" v="private" />
		<tag k="start_date" v="2002-09-05" />
	</node>
	<node id="-4460" lat="62.45016" lon="6.362793">
		<tag k="amenity" v="kindergarten" />
		<tag k="capacity" v="67" />
		<tag k="contact:email" v="skothaugen@barnehage.no" />
		<tag k="contact:phone" v="+47 70 17 28 70" />
		<tag k="contact:website" v="http://www.skothaugen.barnehage.no" />
		<tag k="max_age" v="5" />
		<tag k="min_age" v="1" />
		<tag k="name" v="Skåthaugen barnehage Sa" />
		<tag k="no-barnehage:nsrid" v="1020711" />
		<tag k="operator" v="Skåthaugen barnehage Sa" />
		<tag k="operator:type" v="private" />
		<tag k="start_date" v="2000-11-07" />
	</node>
	<node id="-4459" lat="62.4652" lon="6.11145">
		<tag k="amenity" v="kindergarten" />
		<tag k="capacity" v="60" />
		<tag k="contact:email" v="skarbovikbh@alesund.kommune.no" />
		<tag k="contact:phone" v="+47 70165070" />
		<tag k="max_age" v="5" />
		<tag k="min_age" v="1" />
		<tag k="name" v="Skarbøvik barnehage" />
		<tag k="no-barnehage:nsrid" v="1018180" />
		<tag k="operator" v="Ålesund kommune" />
		<tag k="operator:type" v="public" />
		<tag k="start_date" v="1989-01-01" />
	</node>
	<node id="-4458" lat="62.4614" lon="6.26714">
		<tag k="amenity" v="kindergarten" />
		<tag k="capacity" v="27" />
		<tag k="contact:email" v="olaug.drablos@alesund.kommune.no" />
		<tag k="contact:phone" v="+47 70163655" />
		<tag k="max_age" v="5" />
		<tag k="min_age" v="1" />
		<tag k="name" v="Ratvikåsen barnehage" />
		<tag k="no-barnehage:nsrid" v="1018179" />
		<tag k="operator" v="Ålesund kommune" />
		<tag k="operator:type" v="public" />
		<tag k="start_date" v="1989-01-01" />
	</node>
	<node id="-4457" lat="62.4348" lon="6.35045">
		<tag k="amenity" v="kindergarten" />
		<tag k="capacity" v="63" />
		<tag k="contact:email" v="solgunn.skudal@alesund.kommune.no" />
		<tag k="max_age" v="5" />
		<tag k="min_age" v="1" />
		<tag k="name" v="Rabbevågen barnehage" />
		<tag k="no-barnehage:nsrid" v="1018516" />
		<tag k="operator" v="Ålesund kommune" />
		<tag k="operator:type" v="public" />
		<tag k="start_date" v="2008-12-01" />
	</node>
	<node id="-4456" lat="62.43355" lon="6.392825">
		<tag k="amenity" v="kindergarten" />
		<tag k="capacity" v="39" />
		<tag k="contact:email" v="post@puskhola.no" />
		<tag k="contact:phone" v="+47 70 14 23 20" />
		<tag k="contact:website" v="http://www.puskhola.barnehage.no" />
		<tag k="max_age" v="5" />
		<tag k="min_age" v="1" />
		<tag k="name" v="Puskhola barnehage" />
		<tag k="no-barnehage:nsrid" v="1019918" />
		<tag k="operator" v="Puskhola barnehage Sa" />
		<tag k="operator:type" v="private" />
		<tag k="start_date" v="1990-08-01" />
	</node>
	<node id="-4455" lat="62.474" lon="6.2248">
		<tag k="amenity" v="kindergarten" />
		<tag k="capacity" v="48" />
		<tag k="contact:email" v="grethe.sofie.furmyr@alesund.kommune.no" />
		<tag k="contact:phone" v="+47 70162495" />
		<tag k="max_age" v="5" />
		<tag k="min_age" v="1" />
		<tag k="name" v="Nørve barnehage" />
		<tag k="no-barnehage:nsrid" v="1018178" />
		<tag k="operator" v="Ålesund kommune" />
		<tag k="operator:type" v="public" />
		<tag k="start_date" v="1989-01-01" />
	</node>
	<node id="-4454" lat="62.4631" lon="6.33123">
		<tag k="amenity" v="kindergarten" />
		<tag k="capacity" v="59" />
		<tag k="contact:email" v="tryggheim.alesund@nlmbhg.no" />
		<tag k="contact:phone" v="+47 70 14 25 22" />
		<tag k="max_age" v="5" />
		<tag k="min_age" v="1" />
		<tag k="name" v="Nlm Barnehagene AS Avd Tryggheim Barnehage Ålesund" />
		<tag k="no-barnehage:nsrid" v="1016178" />
		<tag k="operator" v="Nlm-Barnehagene AS" />
		<tag k="operator:type" v="private" />
		<tag k="start_date" v="1977-08-30" />
	</node>
	<node id="-4453" lat="62.4735" lon="6.15922">
		<tag k="amenity" v="kindergarten" />
		<tag k="capacity" v="44" />
		<tag k="contact:email" v="merete.haugseth@alesund.kommune.no" />
		<tag k="contact:phone" v="+47 70162795" />
		<tag k="max_age" v="5" />
		<tag k="min_age" v="1" />
		<tag k="name" v="Midtbyen barnehage" />
		<tag k="no-barnehage:nsrid" v="1018177" />
		<tag k="operator" v="Ålesund kommune" />
		<tag k="operator:type" v="public" />
		<tag k="start_date" v="1989-01-01" />
	</node>
	<node id="-4452" lat="62.45841" lon="6.365602">
		<tag k="amenity" v="kindergarten" />
		<tag k="capacity" v="42" />
		<tag k="contact:email" v="kontor@laringsverkstedet.no" />
		<tag k="max_age" v="5" />
		<tag k="min_age" v="1" />
		<tag k="name" v="Læringsverkstedet barnehage Skogheim" />
		<tag k="no-barnehage:nsrid" v="1021541" />
		<tag k="operator" v="Læringsverkstedet Skogheim barnehage AS" />
		<tag k="operator:type" v="private" />
		<tag k="start_date" v="2006-11-01" />
	</node>
	<node id="-4451" lat="62.48044" lon="6.377409">
		<tag k="amenity" v="kindergarten" />
		<tag k="capacity" v="160" />
		<tag k="contact:email" v="kontor@laringsverkstedet.no" />
		<tag k="max_age" v="5" />
		<tag k="min_age" v="1" />
		<tag k="name" v="Læringsverkstedet barnehage Olsvika" />
		<tag k="no-barnehage:nsrid" v="1021641" />
		<tag k="operator" v="Læringsverkstedet Olsvika barnehage AS" />
		<tag k="operator:type" v="private" />
		<tag k="start_date" v="2007-04-26" />
	</node>
	<node id="-4450" lat="62.4639" lon="6.31893">
		<tag k="amenity" v="kindergarten" />
		<tag k="capacity" v="36" />
		<tag k="contact:email" v="lykkeliten@ludens.no" />
		<tag k="max_age" v="5" />
		<tag k="min_age" v="1" />
		<tag k="name" v="Lykkeliten barnehage" />
		<tag k="no-barnehage:nsrid" v="1018584" />
		<tag k="operator" v="Ludens Norge AS" />
		<tag k="operator:type" v="private" />
		<tag k="start_date" v="2009-01-01" />
	</node>
	<node id="-4449" lat="62.4678" lon="6.30698">
		<tag k="amenity" v="kindergarten" />
		<tag k="capacity" v="44" />
		<tag k="contact:email" v="turid.lunde@alesund.kommune.no" />
		<tag k="contact:phone" v="+47 70162655" />
		<tag k="max_age" v="5" />
		<tag k="min_age" v="1" />
		<tag k="name" v="Lerstad barnehage" />
		<tag k="no-barnehage:nsrid" v="1012517" />
		<tag k="operator" v="Ålesund kommune" />
		<tag k="operator:type" v="public" />
		<tag k="start_date" v="1989-01-01" />
	</node>
	<node id="-4448" lat="62.469" lon="6.12909">
		<tag k="amenity" v="kindergarten" />
		<tag k="capacity" v="39" />
		<tag k="contact:email" v="Eldrid.Olsvik.Howden@alesund.kommune.no" />
		<tag k="max_age" v="5" />
		<tag k="min_age" v="1" />
		<tag k="name" v="Kvennaneset barnehage" />
		<tag k="no-barnehage:nsrid" v="1017781" />
		<tag k="operator" v="Ålesund kommune" />
		<tag k="operator:type" v="public" />
		<tag k="start_date" v="2007-08-01" />
	</node>
	<node id="-4447" lat="62.47203" lon="6.178254">
		<tag k="amenity" v="kindergarten" />
		<tag k="capacity" v="30" />
		<tag k="contact:email" v="anne@klipra-barnehage.no" />
		<tag k="contact:phone" v="+47 70 16 49 99" />
		<tag k="max_age" v="5" />
		<tag k="min_age" v="1" />
		<tag k="name" v="Klipra barnehage Sa" />
		<tag k="no-barnehage:nsrid" v="1019724" />
		<tag k="operator" v="Klipra barnehage Sa" />
		<tag k="operator:type" v="private" />
		<tag k="start_date" v="1989-01-02" />
	</node>
	<node id="-4446" lat="62.4721" lon="6.180091">
		<tag k="amenity" v="kindergarten" />
		<tag k="capacity" v="34" />
		<tag k="contact:email" v="styrer.jugendby@barnehage.no" />
		<tag k="contact:phone" v="+47 926 32 233" />
		<tag k="max_age" v="5" />
		<tag k="min_age" v="1" />
		<tag k="name" v="Jugendby barnehage AS" />
		<tag k="no-barnehage:nsrid" v="1021846" />
		<tag k="operator" v="Jugendby barnehage AS" />
		<tag k="operator:type" v="private" />
		<tag k="start_date" v="2008-07-23" />
	</node>
	<node id="-4445" lat="62.469" lon="6.35912">
		<tag k="amenity" v="kindergarten" />
		<tag k="capacity" v="97" />
		<tag k="contact:email" v="leder.hogvoll@gnistbarnehager.no" />
		<tag k="max_age" v="5" />
		<tag k="min_age" v="1" />
		<tag k="name" v="Høgvoll barnehage" />
		<tag k="no-barnehage:nsrid" v="1013206" />
		<tag k="operator" v="Gnist Barnehager Høgvoll AS" />
		<tag k="operator:type" v="private" />
		<tag k="start_date" v="2005-08-27" />
	</node>
	<node id="-4444" lat="62.44009" lon="6.366557">
		<tag k="amenity" v="kindergarten" />
		<tag k="capacity" v="62" />
		<tag k="contact:email" v="styrer@heimdalen.no" />
		<tag k="contact:phone" v="+47 70 16 98 00" />
		<tag k="max_age" v="5" />
		<tag k="min_age" v="1" />
		<tag k="name" v="Heimdalen barnehage Ba" />
		<tag k="no-barnehage:nsrid" v="1020724" />
		<tag k="operator" v="Heimdalen barnehage Sa" />
		<tag k="operator:type" v="private" />
		<tag k="start_date" v="2000-12-31" />
	</node>
	<node id="-4442" lat="62.46405" lon="6.26456">
		<tag k="amenity" v="kindergarten" />
		<tag k="capacity" v="79" />
		<tag k="contact:email" v="leder.ratvika@gnistbarnehager.no" />
		<tag k="contact:phone" v="+47 40 00 65 96" />
		<tag k="contact:website" v="http://www.gnistbarnehager.no" />
		<tag k="max_age" v="5" />
		<tag k="min_age" v="1" />
		<tag k="name" v="Gnist Barnehager Ratvika" />
		<tag k="no-barnehage:nsrid" v="1022083" />
		<tag k="operator" v="Gnist Barnehager Ratvika AS" />
		<tag k="operator:type" v="private" />
		<tag k="start_date" v="2010-07-06" />
	</node>
	<node id="-4441" lat="62.45783" lon="6.133958">
		<tag k="amenity" v="kindergarten" />
		<tag k="capacity" v="112" />
		<tag k="contact:email" v="leder.hessa@gnistbarnehager.no" />
		<tag k="contact:phone" v="+47 40 00 65 96" />
		<tag k="contact:website" v="http://www.gnistbarnehager.no" />
		<tag k="max_age" v="5" />
		<tag k="min_age" v="1" />
		<tag k="name" v="Gnist Barnehager Hessa AS" />
		<tag k="no-barnehage:nsrid" v="1021402" />
		<tag k="operator" v="Gnist Barnehager Hessa AS" />
		<tag k="operator:type" v="private" />
		<tag k="start_date" v="2006-02-07" />
	</node>
	<node id="-4440" lat="62.43025" lon="6.422814">
		<tag k="amenity" v="kindergarten" />
		<tag k="capacity" v="126" />
		<tag k="contact:email" v="leder.flisnes@gnistbarnehager.no" />
		<tag k="contact:phone" v="+47 40 00 65 96" />
		<tag k="contact:website" v="http://www.gnistbarnehager.no" />
		<tag k="max_age" v="5" />
		<tag k="min_age" v="1" />
		<tag k="name" v="Gnist Barnehager Flisnes AS" />
		<tag k="no-barnehage:nsrid" v="1021874" />
		<tag k="operator" v="Gnist Barnehager Flisnes AS" />
		<tag k="operator:type" v="private" />
		<tag k="start_date" v="2008-09-23" />
	</node>
	<node id="-4439" lat="62.4659" lon="6.3783">
		<tag k="amenity" v="kindergarten" />
		<tag k="capacity" v="80" />
		<tag k="contact:email" v="fremmerholenbh@alesund.kommune.no" />
		<tag k="contact:phone" v="+47 70164620" />
		<tag k="max_age" v="5" />
		<tag k="min_age" v="1" />
		<tag k="name" v="Fremmerholen barnehage" />
		<tag k="no-barnehage:nsrid" v="1018176" />
		<tag k="operator" v="Ålesund kommune" />
		<tag k="operator:type" v="public" />
		<tag k="start_date" v="1989-01-01" />
	</node>
	<node id="-4438" lat="62.4759" lon="6.19416">
		<tag k="amenity" v="kindergarten" />
		<tag k="capacity" v="30" />
		<tag k="contact:email" v="vidar.myrvoll@obos.no" />
		<tag k="max_age" v="5" />
		<tag k="min_age" v="1" />
		<tag k="name" v="Fjelltun barnehage" />
		<tag k="no-barnehage:nsrid" v="1016839" />
		<tag k="operator" v="Ålesund Barnehager Sa" />
		<tag k="operator:type" v="private" />
		<tag k="start_date" v="1993-08-01" />
	</node>
	<node id="-4437" lat="62.4749" lon="6.22177">
		<tag k="amenity" v="kindergarten" />
		<tag k="capacity" v="77" />
		<tag k="contact:email" v="guro.thoresen@alesund.kommune.no" />
		<tag k="contact:phone" v="+47 70 16 20 00" />
		<tag k="max_age" v="5" />
		<tag k="min_age" v="1" />
		<tag k="name" v="Fagerlia barnehage" />
		<tag k="no-barnehage:nsrid" v="1014947" />
		<tag k="operator" v="Ålesund kommune" />
		<tag k="operator:type" v="public" />
		<tag k="start_date" v="1994-08-01" />
	</node>
	<node id="-4436" lat="62.4931" lon="6.19248">
		<tag k="amenity" v="kindergarten" />
		<tag k="capacity" v="77" />
		<tag k="contact:email" v="haldis.gundersen@alesund.kommune.no" />
		<tag k="contact:phone" v="+47 70 16 35 70" />
		<tag k="max_age" v="5" />
		<tag k="min_age" v="1" />
		<tag k="name" v="Ellingsøy barnehage" />
		<tag k="no-barnehage:nsrid" v="1012969" />
		<tag k="operator" v="Ålesund kommune" />
		<tag k="operator:type" v="public" />
		<tag k="start_date" v="2004-01-02" />
	</node>
	<node id="-4435" lat="62.43745" lon="6.454747">
		<tag k="amenity" v="kindergarten" />
		<tag k="capacity" v="102" />
		<tag k="contact:email" v="solvi@ebbegarden.com" />
		<tag k="contact:phone" v="+47 70 16 93 50" />
		<tag k="max_age" v="5" />
		<tag k="min_age" v="1" />
		<tag k="name" v="Ebbegarden barnehage Sa" />
		<tag k="no-barnehage:nsrid" v="1020847" />
		<tag k="operator" v="Ebbegarden barnehage Sa" />
		<tag k="operator:type" v="private" />
		<tag k="start_date" v="2003-05-01" />
	</node>
	<node id="-4434" lat="62.4661" lon="6.34502">
		<tag k="amenity" v="kindergarten" />
		<tag k="capacity" v="37" />
		<tag k="contact:email" v="yvonne@brisk.no" />
		<tag k="max_age" v="5" />
		<tag k="min_age" v="1" />
		<tag k="name" v="Brisk barnehage" />
		<tag k="no-barnehage:nsrid" v="1018580" />
		<tag k="operator" v="Brisk kompetansesenter AS" />
		<tag k="operator:type" v="private" />
		<tag k="start_date" v="2008-01-01" />
	</node>
	<node id="-4433" lat="62.47233" lon="6.211439">
		<tag k="amenity" v="kindergarten" />
		<tag k="capacity" v="37" />
		<tag k="contact:email" v="mettand@yahoo.no" />
		<tag k="max_age" v="5" />
		<tag k="min_age" v="1" />
		<tag k="name" v="Borgundvegen barnehage AS" />
		<tag k="no-barnehage:nsrid" v="1022284" />
		<tag k="operator" v="Borgundveien barnehage AS" />
		<tag k="operator:type" v="private" />
		<tag k="start_date" v="1989-01-02" />
	</node>
	<node id="-4432" lat="62.465" lon="6.23248">
		<tag k="amenity" v="kindergarten" />
		<tag k="capacity" v="24" />
		<tag k="contact:email" v="borgund.barnehage@kirken-aalesund.no" />
		<tag k="contact:phone" v="+47 40198068" />
		<tag k="max_age" v="5" />
		<tag k="min_age" v="1" />
		<tag k="name" v="Borgund Menighetsbarnehage" />
		<tag k="no-barnehage:nsrid" v="1016761" />
		<tag k="operator" v="Borgund Sokn" />
		<tag k="operator:type" v="private" />
		<tag k="start_date" v="1989-01-02" />
	</node>
	<node id="-4431" lat="62.44074" lon="6.386357">
		<tag k="amenity" v="kindergarten" />
		<tag k="capacity" v="76" />
		<tag k="contact:email" v="mail@blindheimbarnehage.no" />
		<tag k="contact:phone" v="+47 70 14 77 66" />
		<tag k="contact:website" v="http://www.blindheimbarnehage.no" />
		<tag k="max_age" v="5" />
		<tag k="min_age" v="1" />
		<tag k="name" v="Blindheim barnehage AS" />
		<tag k="no-barnehage:nsrid" v="1020288" />
		<tag k="operator" v="Blindheim barnehage AS" />
		<tag k="operator:type" v="private" />
		<tag k="start_date" v="1990-01-01" />
	</node>
	<node id="-4430" lat="62.47378" lon="6.237233">
		<tag k="amenity" v="kindergarten" />
		<tag k="capacity" v="79" />
		<tag k="contact:email" v="post@barnashage.com" />
		<tag k="contact:phone" v="+47 70 13 06 03" />
		<tag k="contact:website" v="http://www.barnashage.com" />
		<tag k="max_age" v="5" />
		<tag k="min_age" v="1" />
		<tag k="name" v="Barnas Hage Larsgården Sa" />
		<tag k="no-barnehage:nsrid" v="1020805" />
		<tag k="operator" v="Barnas Hage Larsgården Sa" />
		<tag k="operator:type" v="private" />
		<tag k="start_date" v="2002-12-01" />
	</node>
	<node id="-4429" lat="62.478" lon="6.37907">
		<tag k="amenity" v="kindergarten" />
		<tag k="capacity" v="16" />
		<tag k="contact:email" v="heidi.lillevold@gmail.com" />
		<tag k="contact:phone" v="+47 70 14 32 95" />
		<tag k="max_age" v="2" />
		<tag k="min_age" v="1" />
		<tag k="name" v="Askepott barnehage" />
		<tag k="no-barnehage:nsrid" v="1016480" />
		<tag k="operator" v="Ludens Norge AS" />
		<tag k="operator:type" v="private" />
		<tag k="start_date" v="2003-01-01" />
	</node>
</osm>
