<?xml version="1.0" encoding="UTF-8"?>
<osm generator="osmapis" version="0.6">
	<node id="-4526" lat="62.45916" lon="6.266164">
		<tag k="amenity" v="kindergarten" />
		<tag k="capacity" v="10" />
		<tag k="contact:email" v="gu-r-v@online.no" />
		<tag k="contact:phone" v="70 15 41 16" />
		<tag k="max_age" v="5" />
		<tag k="min_age" v="1" />
		<tag k="name" v="Hatlahaugen Familiebarnehage V/gunn Berit Rødstøl" />
		<tag k="no-barnehage:nsrid" v="1020772" />
		<tag k="operator" v="Hatlahaugen Familiebarnehage V/gunn Berit Rødstøl" />
		<tag k="operator:type" v="private" />
		<tag k="start_date" v="2002-01-24" />
	</node>
	<node id="-4537" lat="62.47223" lon="6.184795">
		<tag k="amenity" v="kindergarten" />
		<tag k="capacity" v="10" />
		<tag k="max_age" v="5" />
		<tag k="min_age" v="1" />
		<tag k="name" v="Marihøna Familiebarnehage M Wiig" />
		<tag k="no-barnehage:nsrid" v="1020938" />
		<tag k="operator" v="Marihøna Familiebarnehage M Wiig" />
		<tag k="operator:type" v="private" />
		<tag k="start_date" v="2003-07-04" />
	</node>
</osm>
