<?xml version="1.0" encoding="UTF-8"?>
<osm generator="osmapis" version="0.6">
	<node id="-3791" lat="59.60437" lon="5.808005">
		<tag k="amenity" v="kindergarten" />
		<tag k="capacity" v="107" />
		<tag k="contact:email" v="dl.olensjoen@bhg.no" />
		<tag k="contact:phone" v="+47 53 76 62 20" />
		<tag k="max_age" v="5" />
		<tag k="min_age" v="1" />
		<tag k="name" v="Ølensjøen Fus barnehage AS" />
		<tag k="no-barnehage:nsrid" v="1021077" />
		<tag k="operator" v="Ølensjøen Fus barnehage AS" />
		<tag k="operator:type" v="private" />
		<tag k="start_date" v="2004-06-08" />
	</node>
	<node id="-3790" lat="59.5971" lon="5.74267">
		<tag k="amenity" v="kindergarten" />
		<tag k="capacity" v="51" />
		<tag k="contact:email" v="sofie.haugland@vindafjord.kommune.no" />
		<tag k="contact:phone" v="+47 53655880" />
		<tag k="max_age" v="5" />
		<tag k="min_age" v="1" />
		<tag k="name" v="Vågen barnehage" />
		<tag k="no-barnehage:nsrid" v="1018104" />
		<tag k="operator" v="Vindafjord kommune" />
		<tag k="operator:type" v="public" />
		<tag k="start_date" v="1989-01-01" />
	</node>
	<node id="-3789" lat="59.49694" lon="5.903713">
		<tag k="amenity" v="kindergarten" />
		<tag k="capacity" v="40" />
		<tag k="contact:email" v="dl.vikedal@bhg.no" />
		<tag k="contact:phone" v="+47 477 03 332" />
		<tag k="max_age" v="5" />
		<tag k="min_age" v="1" />
		<tag k="name" v="Vikedal Fus barnehage AS" />
		<tag k="no-barnehage:nsrid" v="1021824" />
		<tag k="operator" v="Vikedal Fus barnehage AS" />
		<tag k="operator:type" v="private" />
		<tag k="start_date" v="2008-05-27" />
	</node>
	<node id="-3788" lat="59.5948" lon="5.59121">
		<tag k="amenity" v="kindergarten" />
		<tag k="capacity" v="16" />
		<tag k="contact:email" v="anne.marte.waage.tveit@vindafjord.kommune.no" />
		<tag k="max_age" v="5" />
		<tag k="min_age" v="1" />
		<tag k="name" v="Vikebygd barnehage" />
		<tag k="no-barnehage:nsrid" v="1017401" />
		<tag k="operator" v="Vindafjord kommune" />
		<tag k="operator:type" v="public" />
		<tag k="start_date" v="1978-11-03" />
	</node>
	<node id="-3787" lat="59.5436" lon="5.71126">
		<tag k="amenity" v="kindergarten" />
		<tag k="capacity" v="48" />
		<tag k="contact:email" v="kristin.tveit.beiermann@vindafjord.kommune.no" />
		<tag k="contact:phone" v="+47 53 65 58 75" />
		<tag k="max_age" v="5" />
		<tag k="min_age" v="1" />
		<tag k="name" v="Vats barnehage" />
		<tag k="no-barnehage:nsrid" v="1012941" />
		<tag k="operator" v="Vindafjord kommune" />
		<tag k="operator:type" v="public" />
		<tag k="start_date" v="1976-01-01" />
	</node>
	<node id="-3786" lat="59.50387" lon="5.589005">
		<tag k="amenity" v="kindergarten" />
		<tag k="capacity" v="96" />
		<tag k="contact:email" v="liv.herborg.wold@vindafjord.kommune.no" />
		<tag k="contact:phone" v="+47 53655870" />
		<tag k="max_age" v="5" />
		<tag k="min_age" v="1" />
		<tag k="name" v="Skjold barnehage" />
		<tag k="no-barnehage:nsrid" v="1012942" />
		<tag k="operator" v="Vindafjord kommune" />
		<tag k="operator:type" v="public" />
		<tag k="start_date" v="1976-01-01" />
	</node>
	<node id="-3785" lat="59.5451" lon="5.85751">
		<tag k="amenity" v="kindergarten" />
		<tag k="capacity" v="70" />
		<tag k="contact:email" v="sandeid.barnehage@vindafjord.kommune.no" />
		<tag k="contact:phone" v="+47 53655885" />
		<tag k="max_age" v="5" />
		<tag k="min_age" v="1" />
		<tag k="name" v="Sandeid barnehage" />
		<tag k="no-barnehage:nsrid" v="1012940" />
		<tag k="operator" v="Vindafjord kommune" />
		<tag k="operator:type" v="public" />
		<tag k="start_date" v="1976-01-01" />
	</node>
	<node id="-3784" lat="59.47593" lon="5.734939">
		<tag k="amenity" v="kindergarten" />
		<tag k="capacity" v="32" />
		<tag k="contact:email" v="ashild@syncpost.no" />
		<tag k="contact:phone" v="+47 53 76 88 69" />
		<tag k="max_age" v="5" />
		<tag k="min_age" v="1" />
		<tag k="name" v="Nausthaugen barnehage AS" />
		<tag k="no-barnehage:nsrid" v="1021702" />
		<tag k="operator" v="Nausthaugen barnehage AS" />
		<tag k="operator:type" v="private" />
		<tag k="start_date" v="1989-01-02" />
	</node>
	<node id="-3783" lat="59.4856" lon="5.98174">
		<tag k="amenity" v="kindergarten" />
		<tag k="capacity" v="15" />
		<tag k="contact:email" v="steinar.holthe@vindafjord.kommune.no" />
		<tag k="max_age" v="5" />
		<tag k="min_age" v="1" />
		<tag k="name" v="Imsland barnehage" />
		<tag k="no-barnehage:nsrid" v="1016277" />
		<tag k="operator" v="Vindafjord kommune" />
		<tag k="operator:type" v="public" />
		<tag k="start_date" v="2000-08-01" />
	</node>
	<node id="-3782" lat="59.6633" lon="5.65249">
		<tag k="amenity" v="kindergarten" />
		<tag k="capacity" v="25" />
		<tag k="contact:email" v="gunnar.norenes@vindafjord.kommune.no" />
		<tag k="max_age" v="5" />
		<tag k="min_age" v="1" />
		<tag k="name" v="Bjoa barnehage" />
		<tag k="no-barnehage:nsrid" v="1017400" />
		<tag k="operator" v="Vindafjord kommune" />
		<tag k="operator:type" v="public" />
		<tag k="start_date" v="1978-11-03" />
	</node>
</osm>
