<?xml version="1.0" encoding="UTF-8"?>
<osm generator="osmapis" version="0.6">
	<node id="-2859" lat="59.8811" lon="8.6515">
		<tag k="amenity" v="kindergarten" />
		<tag k="capacity" v="36" />
		<tag k="contact:email" v="anne.kristine.oyaland.nyiri@tinn.kommune.no" />
		<tag k="contact:phone" v="+47 35 08 26 91" />
		<tag k="contact:website" v="http://anne.kristine.oyaland.nyiri@tinn.kommune.no" />
		<tag k="max_age" v="5" />
		<tag k="min_age" v="1" />
		<tag k="name" v="Øverland barnehage" />
		<tag k="no-barnehage:nsrid" v="1012630" />
		<tag k="operator" v="Tinn kommune" />
		<tag k="operator:type" v="public" />
		<tag k="start_date" v="1990-01-01" />
	</node>
	<node id="-2858" lat="59.98637" lon="8.736458">
		<tag k="amenity" v="kindergarten" />
		<tag k="capacity" v="54" />
		<tag k="contact:email" v="post@velsetun.com" />
		<tag k="contact:phone" v="+47 35 09 74 49" />
		<tag k="max_age" v="5" />
		<tag k="min_age" v="1" />
		<tag k="name" v="Vesletun barnehage" />
		<tag k="no-barnehage:nsrid" v="1019879" />
		<tag k="operator" v="Vesletun barnehage" />
		<tag k="operator:type" v="private" />
		<tag k="start_date" v="1989-01-01" />
	</node>
	<node id="-2857" lat="59.88" lon="8.62112">
		<tag k="amenity" v="kindergarten" />
		<tag k="capacity" v="53" />
		<tag k="contact:email" v="liv_jorunn.kramviken@tinn.kommune.no" />
		<tag k="contact:phone" v="+47 35 08 26 70" />
		<tag k="max_age" v="5" />
		<tag k="min_age" v="1" />
		<tag k="name" v="Skibakkesletta barnehage" />
		<tag k="no-barnehage:nsrid" v="1012628" />
		<tag k="operator" v="Tinn kommune" />
		<tag k="operator:type" v="public" />
		<tag k="start_date" v="1989-01-01" />
	</node>
	<node id="-2856" lat="59.852" lon="9.03016">
		<tag k="amenity" v="kindergarten" />
		<tag k="capacity" v="11" />
		<tag k="contact:email" v="helene.bakka@tinn.kommune.no" />
		<tag k="contact:phone" v="+47 35 08 28 10" />
		<tag k="max_age" v="5" />
		<tag k="min_age" v="1" />
		<tag k="name" v="Hovin barnehage" />
		<tag k="no-barnehage:nsrid" v="1014921" />
		<tag k="operator" v="Tinn kommune" />
		<tag k="operator:type" v="public" />
		<tag k="start_date" v="1996-04-01" />
	</node>
	<node id="-2855" lat="59.9987" lon="8.8316">
		<tag k="amenity" v="kindergarten" />
		<tag k="capacity" v="38" />
		<tag k="contact:email" v="ann_helen.eide@tinn.kommune.no" />
		<tag k="contact:phone" v="+47 35 08 27 00" />
		<tag k="max_age" v="5" />
		<tag k="min_age" v="1" />
		<tag k="name" v="Furuheim barnehage" />
		<tag k="no-barnehage:nsrid" v="1012627" />
		<tag k="operator" v="Tinn kommune" />
		<tag k="operator:type" v="public" />
		<tag k="start_date" v="1989-01-01" />
	</node>
	<node id="-2854" lat="59.8884" lon="8.6892">
		<tag k="amenity" v="kindergarten" />
		<tag k="capacity" v="35" />
		<tag k="contact:email" v="ashild.langeland@tinn.kommune.no" />
		<tag k="contact:phone" v="+47 35 08 26 80" />
		<tag k="max_age" v="5" />
		<tag k="min_age" v="1" />
		<tag k="name" v="Dale Bakhus barnehage" />
		<tag k="no-barnehage:nsrid" v="1012629" />
		<tag k="operator" v="Tinn kommune" />
		<tag k="operator:type" v="public" />
		<tag k="start_date" v="1989-01-01" />
	</node>
	<node id="-2853" lat="59.8797" lon="8.59745">
		<tag k="amenity" v="kindergarten" />
		<tag k="capacity" v="41" />
		<tag k="contact:email" v="maria.helland@tinn.kommune.no" />
		<tag k="contact:phone" v="+47 35 08 26 60" />
		<tag k="max_age" v="5" />
		<tag k="min_age" v="1" />
		<tag k="name" v="Bøen barnehage" />
		<tag k="no-barnehage:nsrid" v="1016048" />
		<tag k="operator" v="Tinn kommune" />
		<tag k="operator:type" v="public" />
		<tag k="start_date" v="1993-08-01" />
	</node>
</osm>
