<?xml version="1.0" encoding="UTF-8"?>
<osm generator="osmapis" version="0.6">
	<node id="-3344" lat="60.41455" lon="10.58969">
		<tag k="ADDRESS" v="Emsevegen 115, 2770 JAREN" />
		<tag k="amenity" v="kindergarten" />
		<tag k="capacity" v="10" />
		<tag k="max_age" v="2" />
		<tag k="min_age" v="1" />
		<tag k="name" v="Emsetrolla familiebarnehage" />
		<tag k="no-barnehage:nsrid" v="985085536" />
		<tag k="operator" v="Skapalen Familiebarnehage" />
		<tag k="operator:type" v="private" />
	</node>
	<node id="-3347" lat="60.39295" lon="10.56042">
		<tag k="ADDRESS" v="Rådhusvegen 39, 2770 JAREN" />
		<tag k="amenity" v="kindergarten" />
		<tag k="capacity" v="28" />
		<tag k="max_age" v="5" />
		<tag k="min_age" v="1" />
		<tag k="name" v="Gran kommune familiebarnehage" />
		<tag k="no-barnehage:nsrid" v="975315185" />
		<tag k="operator" v="Gran kommune" />
		<tag k="operator:type" v="public" />
	</node>
	<node id="-3348" lat="60.39666" lon="10.56486">
		<tag k="ADDRESS" v="Movegen 31, 2770 JAREN" />
		<tag k="amenity" v="kindergarten" />
		<tag k="capacity" v="9" />
		<tag k="max_age" v="2" />
		<tag k="min_age" v="1" />
		<tag k="name" v="Knærten familiebarnehage Linda Merete Bakken" />
		<tag k="no-barnehage:nsrid" v="984810946" />
		<tag k="operator" v="Knærten Familiebarnehage Linda Merete Bakken" />
		<tag k="operator:type" v="private" />
	</node>
</osm>
