<?xml version="1.0" encoding="UTF-8"?>
<osm version="0.6" generator="osmapis">
	<node lat="60.41285" lon="10.50686" id="-3259">
		<tag k="ADDRESS" v="Brurbakkvegen 34, 2760 BRANDBU" />
		<tag k="amenity" v="kindergarten" />
		<tag k="capacity" v="36" />
		<tag k="max_age" v="5" />
		<tag k="min_age" v="1" />
		<tag k="name" v="Bergseng bondegårds-barnehage" />
		<tag k="no-barnehage:nsrid" v="973982729" />
		<tag k="operator" v="Bergseng bondegårds-barnehage AS" />
		<tag k="operator:type" v="private" />
	</node>
	<node lat="60.51583" lon="10.29741" id="-3260">
		<tag k="ADDRESS" v="Skolevegen 8, 3522 BJONEROA" />
		<tag k="amenity" v="kindergarten" />
		<tag k="capacity" v="11" />
		<tag k="max_age" v="5" />
		<tag k="min_age" v="1" />
		<tag k="name" v="Bjoneroa barnehage" />
		<tag k="no-barnehage:nsrid" v="875303732" />
		<tag k="operator" v="Gran kommune" />
		<tag k="operator:type" v="public" />
	</node>
	<node lat="60.46507" lon="10.4858" id="-3261">
		<tag k="ADDRESS" v="Bleikenvegen 75, 2760 BRANDBU" />
		<tag k="amenity" v="kindergarten" />
		<tag k="capacity" v="22" />
		<tag k="max_age" v="5" />
		<tag k="min_age" v="1" />
		<tag k="name" v="Bjørklund barnehage" />
		<tag k="no-barnehage:nsrid" v="975303748" />
		<tag k="operator" v="Gran kommune" />
		<tag k="operator:type" v="public" />
	</node>
	<node lat="60.34068" lon="10.59646" id="-3263">
		<tag k="ADDRESS" v="Moldengutua 4, 2750 GRAN" />
		<tag k="amenity" v="kindergarten" />
		<tag k="capacity" v="63" />
		<tag k="contact:website" v="http://www.espira.no" />
		<tag k="max_age" v="5" />
		<tag k="min_age" v="1" />
		<tag k="name" v="Espira Romholt barnehage" />
		<tag k="no-barnehage:nsrid" v="888484582" />
		<tag k="operator" v="Espira Romholt AS" />
		<tag k="operator:type" v="private" />
	</node>
	<node lat="60.40316" lon="10.53448" id="-3264">
		<tag k="ADDRESS" v="Røysumslinna 2, 2770 JAREN" />
		<tag k="amenity" v="kindergarten" />
		<tag k="capacity" v="87" />
		<tag k="max_age" v="5" />
		<tag k="min_age" v="1" />
		<tag k="name" v="Fagerlund barnehage" />
		<tag k="no-barnehage:nsrid" v="991726004" />
		<tag k="operator" v="Gran kommune" />
		<tag k="operator:type" v="public" />
	</node>
	<node lat="0.0" lon="0.0" id="-3267">
		<tag k="ADDRESS" v="Skirstadgutua 11, 2750 GRAN" />
		<tag k="amenity" v="kindergarten" />
		<tag k="capacity" v="25" />
		<tag k="max_age" v="5" />
		<tag k="min_age" v="1" />
		<tag k="name" v="Leikvoll barnehage" />
		<tag k="no-barnehage:nsrid" v="975300927" />
		<tag k="operator" v="Gran kommune" />
		<tag k="operator:type" v="public" />
	</node>
	<node lat="60.41145" lon="10.50289" id="-3268">
		<tag k="ADDRESS" v="Markatun 1, 2760 BRANDBU" />
		<tag k="amenity" v="kindergarten" />
		<tag k="capacity" v="39" />
		<tag k="max_age" v="5" />
		<tag k="min_age" v="1" />
		<tag k="name" v="Marka barnehage" />
		<tag k="no-barnehage:nsrid" v="875321692" />
		<tag k="operator" v="Gran kommune" />
		<tag k="operator:type" v="public" />
	</node>
	<node lat="60.33434" lon="10.53693" id="-3269">
		<tag k="ADDRESS" v="Gagnumsvegen 20, 2750 GRAN" />
		<tag k="amenity" v="kindergarten" />
		<tag k="capacity" v="36" />
		<tag k="contact:website" v="http://www.rakalauv.barnehageside.no" />
		<tag k="max_age" v="5" />
		<tag k="min_age" v="1" />
		<tag k="name" v="Rakalauv barnehage" />
		<tag k="no-barnehage:nsrid" v="975337170" />
		<tag k="operator" v="Rakalauv barnehage SA" />
		<tag k="operator:type" v="private" />
	</node>
	<node lat="60.39157" lon="10.52833" id="-3270">
		<tag k="ADDRESS" v="Røysumslinna 43, 2770 JAREN" />
		<tag k="amenity" v="kindergarten" />
		<tag k="capacity" v="28" />
		<tag k="max_age" v="5" />
		<tag k="min_age" v="1" />
		<tag k="name" v="Røysum barnehage" />
		<tag k="no-barnehage:nsrid" v="973469770" />
		<tag k="operator" v="Diakonistiftelsen Røysum" />
		<tag k="operator:type" v="private" />
	</node>
	<node lat="60.38271" lon="10.57688" id="-3271">
		<tag k="ADDRESS" v="Nordre Ålsvegen 86, 2750 GRAN" />
		<tag k="amenity" v="kindergarten" />
		<tag k="capacity" v="44" />
		<tag k="max_age" v="5" />
		<tag k="min_age" v="1" />
		<tag k="name" v="Solheim barnehage" />
		<tag k="no-barnehage:nsrid" v="975303780" />
		<tag k="operator" v="Gran kommune" />
		<tag k="operator:type" v="public" />
	</node>
	<node lat="0.0" lon="0.0" id="-3272">
		<tag k="ADDRESS" v="Brynsås, 2770 JAREN" />
		<tag k="amenity" v="kindergarten" />
		<tag k="capacity" v="33" />
		<tag k="max_age" v="5" />
		<tag k="min_age" v="1" />
		<tag k="name" v="Solsida Barnebeite" />
		<tag k="no-barnehage:nsrid" v="984543921" />
		<tag k="operator" v="Solsida Barnebeite AS" />
		<tag k="operator:type" v="private" />
	</node>
	<node lat="60.41283" lon="10.54981" id="-3273">
		<tag k="ADDRESS" v="Trulserudvegen 2, 2770 JAREN" />
		<tag k="amenity" v="kindergarten" />
		<tag k="capacity" v="71" />
		<tag k="contact:website" v="http://www.trulserudenga.no" />
		<tag k="max_age" v="5" />
		<tag k="min_age" v="1" />
		<tag k="name" v="Trulserudenga barnehage" />
		<tag k="no-barnehage:nsrid" v="885466532" />
		<tag k="operator" v="Trulserudenga barnehage SA" />
		<tag k="operator:type" v="private" />
	</node>
</osm>
