<?xml version="1.0" encoding="UTF-8"?>
<osm version="0.6" generator="osmapis">
	<node lat="60.78727" lon="11.11287" id="-3077">
		<tag k="ADDRESS" v="Søster Borghilds veg 30, 2312 OTTESTAD" />
		<tag k="amenity" v="kindergarten" />
		<tag k="capacity" v="81" />
		<tag k="max_age" v="5" />
		<tag k="min_age" v="1" />
		<tag k="name" v="Barnas Rett barnehage" />
		<tag k="no-barnehage:nsrid" v="973455885" />
		<tag k="operator" v="Barnas Rett barnehage SA" />
		<tag k="operator:type" v="private" />
	</node>
	<node lat="0.0" lon="0.0" id="-3078">
		<tag k="ADDRESS" v="Åkershagan, 2312 OTTESTAD" />
		<tag k="amenity" v="kindergarten" />
		<tag k="capacity" v="35" />
		<tag k="max_age" v="5" />
		<tag k="min_age" v="1" />
		<tag k="name" v="Bekkelaget barnehage" />
		<tag k="no-barnehage:nsrid" v="993452580" />
		<tag k="operator" v="Stiftelsen Ungdom i Oppdrag barnehager" />
		<tag k="operator:type" v="private" />
	</node>
	<node lat="60.7156" lon="11.18457" id="-3079">
		<tag k="ADDRESS" v="Dragonvegen 15, 2335 STANGE" />
		<tag k="amenity" v="kindergarten" />
		<tag k="capacity" v="46" />
		<tag k="max_age" v="5" />
		<tag k="min_age" v="1" />
		<tag k="name" v="Enerhaugen barnehage" />
		<tag k="no-barnehage:nsrid" v="975302415" />
		<tag k="operator" v="Stange kommune" />
		<tag k="operator:type" v="public" />
	</node>
	<node lat="0.0" lon="0.0" id="-3080">
		<tag k="ADDRESS" v=", 2338 ESPA" />
		<tag k="amenity" v="kindergarten" />
		<tag k="capacity" v="22" />
		<tag k="max_age" v="5" />
		<tag k="min_age" v="1" />
		<tag k="name" v="Espa skole og barnehage avd. barnehage" />
		<tag k="no-barnehage:nsrid" v="975302423" />
		<tag k="operator" v="Stange kommune" />
		<tag k="operator:type" v="public" />
	</node>
	<node lat="60.73935" lon="11.13256" id="-3081">
		<tag k="ADDRESS" v="Grimerudvegen 71, 2312 OTTESTAD" />
		<tag k="amenity" v="kindergarten" />
		<tag k="capacity" v="38" />
		<tag k="max_age" v="5" />
		<tag k="min_age" v="1" />
		<tag k="name" v="Grimerud barnehage" />
		<tag k="no-barnehage:nsrid" v="983577180" />
		<tag k="operator" v="Stiftelsen Ungdom i Oppdrag barnehager" />
		<tag k="operator:type" v="private" />
	</node>
	<node lat="60.77378" lon="11.1237" id="-3082">
		<tag k="ADDRESS" v="Skaunvegen 14, 2312 OTTESTAD" />
		<tag k="amenity" v="kindergarten" />
		<tag k="capacity" v="43" />
		<tag k="max_age" v="5" />
		<tag k="min_age" v="1" />
		<tag k="name" v="Hoberg barnehage" />
		<tag k="no-barnehage:nsrid" v="975295982" />
		<tag k="operator" v="Stange kommune" />
		<tag k="operator:type" v="public" />
	</node>
	<node lat="60.77269" lon="11.13795" id="-3083">
		<tag k="ADDRESS" v="Holmlundvegen 70, 2312 OTTESTAD" />
		<tag k="amenity" v="kindergarten" />
		<tag k="capacity" v="82" />
		<tag k="max_age" v="5" />
		<tag k="min_age" v="1" />
		<tag k="name" v="Holmlund barnehage" />
		<tag k="no-barnehage:nsrid" v="975302474" />
		<tag k="operator" v="Stange kommune" />
		<tag k="operator:type" v="public" />
	</node>
	<node lat="60.73407" lon="11.17782" id="-3084">
		<tag k="ADDRESS" v="Stangevegen 925, 2335 STANGE" />
		<tag k="amenity" v="kindergarten" />
		<tag k="capacity" v="77" />
		<tag k="contact:website" v="http://www.kausvol.no" />
		<tag k="max_age" v="5" />
		<tag k="min_age" v="1" />
		<tag k="name" v="Kausvol gardsbarnehage" />
		<tag k="no-barnehage:nsrid" v="989570137" />
		<tag k="operator" v="Kausvol gardsbarnehage AS" />
		<tag k="operator:type" v="private" />
	</node>
	<node lat="60.71487" lon="11.19651" id="-3085">
		<tag k="ADDRESS" v="Jernbanegata 19, 2335 STANGE" />
		<tag k="amenity" v="kindergarten" />
		<tag k="capacity" v="118" />
		<tag k="max_age" v="5" />
		<tag k="min_age" v="1" />
		<tag k="name" v="Læringsverkstedet barnehage avd. Nerby" />
		<tag k="no-barnehage:nsrid" v="973469703" />
		<tag k="operator" v="Læringsverkstedet AS" />
		<tag k="operator:type" v="private" />
	</node>
	<node lat="60.76978" lon="11.21582" id="-3086">
		<tag k="ADDRESS" v="Jønsbergvegen 55, 2344 ILSENG" />
		<tag k="amenity" v="kindergarten" />
		<tag k="capacity" v="55" />
		<tag k="max_age" v="5" />
		<tag k="min_age" v="1" />
		<tag k="name" v="Læringsverkstedet barnehage avd. Ilseng" />
		<tag k="no-barnehage:nsrid" v="881117592" />
		<tag k="operator" v="Læringsverkstedet AS" />
		<tag k="operator:type" v="private" />
	</node>
	<node lat="60.71367" lon="11.20778" id="-3087">
		<tag k="ADDRESS" v="Navneberget 19, 2335 STANGE" />
		<tag k="amenity" v="kindergarten" />
		<tag k="capacity" v="46" />
		<tag k="max_age" v="5" />
		<tag k="min_age" v="1" />
		<tag k="name" v="Navneberget barnehage" />
		<tag k="no-barnehage:nsrid" v="975302466" />
		<tag k="operator" v="Stange kommune" />
		<tag k="operator:type" v="public" />
	</node>
	<node lat="60.77513" lon="11.09605" id="-3088">
		<tag k="ADDRESS" v="Nedre Tømte 27, 2312 OTTESTAD" />
		<tag k="amenity" v="kindergarten" />
		<tag k="capacity" v="76" />
		<tag k="max_age" v="5" />
		<tag k="min_age" v="1" />
		<tag k="name" v="Nedre Tømte barnehage" />
		<tag k="no-barnehage:nsrid" v="922937680" />
		<tag k="operator" v="Stange kommune" />
		<tag k="operator:type" v="public" />
	</node>
	<node lat="0.0" lon="0.0" id="-3089">
		<tag k="ADDRESS" v="Momyrvegen, 2334 ROMEDAL" />
		<tag k="amenity" v="kindergarten" />
		<tag k="capacity" v="53" />
		<tag k="max_age" v="5" />
		<tag k="min_age" v="1" />
		<tag k="name" v="Romedal barnehage" />
		<tag k="no-barnehage:nsrid" v="975298876" />
		<tag k="operator" v="Stange kommune" />
		<tag k="operator:type" v="public" />
	</node>
	<node lat="60.74645" lon="11.13696" id="-3090">
		<tag k="ADDRESS" v="Grimerudvegen 8, 2312 OTTESTAD" />
		<tag k="amenity" v="kindergarten" />
		<tag k="capacity" v="39" />
		<tag k="max_age" v="5" />
		<tag k="min_age" v="1" />
		<tag k="name" v="Solvang barnehage" />
		<tag k="no-barnehage:nsrid" v="979975899" />
		<tag k="operator" v="Solvang barnehage AS" />
		<tag k="operator:type" v="private" />
	</node>
	<node lat="60.77671" lon="11.10253" id="-3091">
		<tag k="ADDRESS" v="Rudolf Steiners veg 42, 2312 OTTESTAD" />
		<tag k="amenity" v="kindergarten" />
		<tag k="capacity" v="74" />
		<tag k="contact:website" v="http://www.steinerbarnehagenpaahedemarken.com" />
		<tag k="max_age" v="5" />
		<tag k="min_age" v="1" />
		<tag k="name" v="Stiftelsen steinerbarnehagen på Hedemarken" />
		<tag k="no-barnehage:nsrid" v="971484241" />
		<tag k="operator" v="Stiftelsen Steinerbarnehagen på Hedemarken" />
		<tag k="operator:type" v="private" />
	</node>
	<node lat="60.61589" lon="11.26045" id="-3092">
		<tag k="ADDRESS" v="Refling Hagens veg 51, 2337 TANGEN" />
		<tag k="amenity" v="kindergarten" />
		<tag k="capacity" v="42" />
		<tag k="max_age" v="5" />
		<tag k="min_age" v="1" />
		<tag k="name" v="Tangen barnehage" />
		<tag k="no-barnehage:nsrid" v="973348914" />
		<tag k="operator" v="Stange kommune" />
		<tag k="operator:type" v="public" />
	</node>
	<node lat="60.78711" lon="11.11126" id="-3093">
		<tag k="ADDRESS" v="Løvstadvegen 10, 2312 OTTESTAD" />
		<tag k="amenity" v="kindergarten" />
		<tag k="capacity" v="76" />
		<tag k="contact:website" v="http://www.utsiktenbarnehage.no" />
		<tag k="max_age" v="5" />
		<tag k="min_age" v="1" />
		<tag k="name" v="Utsikten barnehage" />
		<tag k="no-barnehage:nsrid" v="973474898" />
		<tag k="operator" v="Utsikten barnehage Ottestad SA" />
		<tag k="operator:type" v="private" />
	</node>
	<node lat="60.68225" lon="11.34081" id="-3094">
		<tag k="ADDRESS" v="Nordlundvegen 12, 2330 VALLSET" />
		<tag k="amenity" v="kindergarten" />
		<tag k="capacity" v="54" />
		<tag k="max_age" v="5" />
		<tag k="min_age" v="1" />
		<tag k="name" v="Vallset barnehage" />
		<tag k="no-barnehage:nsrid" v="976639804" />
		<tag k="operator" v="Stange kommune" />
		<tag k="operator:type" v="public" />
	</node>
	<node lat="60.74077" lon="11.36623" id="-3095">
		<tag k="ADDRESS" v="Oldervegen 3, 2332 ÅSVANG" />
		<tag k="amenity" v="kindergarten" />
		<tag k="capacity" v="37" />
		<tag k="max_age" v="5" />
		<tag k="min_age" v="1" />
		<tag k="name" v="Åsbygda barnehage" />
		<tag k="no-barnehage:nsrid" v="975302431" />
		<tag k="operator" v="Stange kommune" />
		<tag k="operator:type" v="public" />
	</node>
</osm>
