<?xml version="1.0" encoding="UTF-8"?>
<osm generator="osmapis" version="0.6">
	<node id="-2088" lat="59.47341" lon="11.6566">
		<tag k="ADDRESS" v="Idrettsparkveien 3, 1870 ØRJE" />
		<tag k="amenity" v="kindergarten" />
		<tag k="capacity" v="53" />
		<tag k="max_age" v="5" />
		<tag k="min_age" v="1" />
		<tag k="name" v="Trollhaugen barnehage" />
		<tag k="no-barnehage:nsrid" v="974602199" />
		<tag k="operator" v="Marker kommune" />
		<tag k="operator:type" v="public" />
	</node>
	<node id="-2089" lat="59.47917" lon="11.65642">
		<tag k="ADDRESS" v="Myraveien 13, 1870 ØRJE" />
		<tag k="amenity" v="kindergarten" />
		<tag k="capacity" v="52" />
		<tag k="max_age" v="5" />
		<tag k="min_age" v="1" />
		<tag k="name" v="Tussilago barnehage Grete Klund Ørken" />
		<tag k="no-barnehage:nsrid" v="986614109" />
		<tag k="operator" v="Tussilago barnehage Grete Klund Ørken" />
		<tag k="operator:type" v="private" />
	</node>
	<node id="-2090" lat="59.41835" lon="11.66713">
		<tag k="ADDRESS" v="Haldenveien 720, 1870 ØRJE" />
		<tag k="amenity" v="kindergarten" />
		<tag k="capacity" v="29" />
		<tag k="max_age" v="5" />
		<tag k="min_age" v="1" />
		<tag k="name" v="Øymark barnehage" />
		<tag k="no-barnehage:nsrid" v="973454528" />
		<tag k="operator" v="Øymark barnehage" />
		<tag k="operator:type" v="private" />
	</node>
</osm>
