<?xml version="1.0" encoding="UTF-8"?>
<osm version="0.6" generator="osmapis">
	<node lat="60.95287" lon="10.60969" id="-2928">
		<tag k="ADDRESS" v="Snippvegen 4, 2836 BIRI" />
		<tag k="amenity" v="kindergarten" />
		<tag k="capacity" v="57" />
		<tag k="contact:website" v="http://www.gjovik.kommune.no/biribarnehage/" />
		<tag k="max_age" v="5" />
		<tag k="min_age" v="1" />
		<tag k="name" v="Biri barnehage" />
		<tag k="no-barnehage:nsrid" v="975303039" />
		<tag k="operator" v="Gjøvik kommune" />
		<tag k="operator:type" v="public" />
	</node>
	<node lat="60.77011" lon="10.70654" id="-2929">
		<tag k="ADDRESS" v="Bondelivegen 12, 2816 GJØVIK" />
		<tag k="amenity" v="kindergarten" />
		<tag k="name" v="Bondelia barnehage" />
		<tag k="no-barnehage:nsrid" v="932132680" />
		<tag k="operator" v="Gjøvik kommune" />
		<tag k="operator:type" v="public" />
	</node>
	<node lat="60.80029" lon="10.59507" id="-2930">
		<tag k="ADDRESS" v="Nedrevegen 6, 2822 BYBRUA" />
		<tag k="amenity" v="kindergarten" />
		<tag k="capacity" v="55" />
		<tag k="max_age" v="5" />
		<tag k="min_age" v="1" />
		<tag k="name" v="Bybrua FUS barnehage" />
		<tag k="no-barnehage:nsrid" v="995293382" />
		<tag k="operator" v="Bybrua Fus barnehage AS" />
		<tag k="operator:type" v="private" />
	</node>
	<node lat="60.95056" lon="10.6256" id="-2931">
		<tag k="ADDRESS" v="Disetsvingen 1, 2836 BIRI" />
		<tag k="amenity" v="kindergarten" />
		<tag k="capacity" v="57" />
		<tag k="max_age" v="5" />
		<tag k="min_age" v="1" />
		<tag k="name" v="Diseth FUS barnehage" />
		<tag k="no-barnehage:nsrid" v="990896399" />
		<tag k="operator" v="Diseth Fus barnehage AS" />
		<tag k="operator:type" v="private" />
	</node>
	<node lat="60.78862" lon="10.69844" id="-2932">
		<tag k="ADDRESS" v="Østre Totenveg 10, 2816 GJØVIK" />
		<tag k="amenity" v="kindergarten" />
		<tag k="capacity" v="53" />
		<tag k="contact:website" v="http://fredvika.steinerbarnehage.no" />
		<tag k="max_age" v="5" />
		<tag k="min_age" v="1" />
		<tag k="name" v="Fredvika Steinerbarnehage" />
		<tag k="no-barnehage:nsrid" v="976891554" />
		<tag k="operator" v="Stiftelsen Fredvika steinerbarnehage" />
		<tag k="operator:type" v="private" />
	</node>
	<node lat="60.79639" lon="10.68525" id="-2933">
		<tag k="ADDRESS" v="Skolegata 7, 2821 GJØVIK" />
		<tag k="amenity" v="kindergarten" />
		<tag k="capacity" v="110" />
		<tag k="max_age" v="5" />
		<tag k="min_age" v="1" />
		<tag k="name" v="Gjøvik barnehage" />
		<tag k="no-barnehage:nsrid" v="875303082" />
		<tag k="operator" v="Gjøvik kommune" />
		<tag k="operator:type" v="public" />
	</node>
	<node lat="60.79137" lon="10.66948" id="-2934">
		<tag k="ADDRESS" v="Torgeir Forseths veg 14, 2821 GJØVIK" />
		<tag k="amenity" v="kindergarten" />
		<tag k="capacity" v="49" />
		<tag k="contact:website" v="http://www.100meter.no" />
		<tag k="max_age" v="5" />
		<tag k="min_age" v="1" />
		<tag k="name" v="Hundremeterskogen barnehage" />
		<tag k="no-barnehage:nsrid" v="983472907" />
		<tag k="operator" v="Hundremeterskogen barnehage Gjøvik SA" />
		<tag k="operator:type" v="private" />
	</node>
	<node lat="60.79478" lon="10.66877" id="-2935">
		<tag k="ADDRESS" v="Mathias Topps veg 19, 2821 GJØVIK" />
		<tag k="amenity" v="kindergarten" />
		<tag k="capacity" v="43" />
		<tag k="max_age" v="5" />
		<tag k="min_age" v="1" />
		<tag k="name" v="Hunnshovde barnehage" />
		<tag k="no-barnehage:nsrid" v="975303101" />
		<tag k="operator" v="Gjøvik kommune" />
		<tag k="operator:type" v="public" />
	</node>
	<node lat="60.78789" lon="10.63739" id="-2936">
		<tag k="ADDRESS" v="Rådyrvegen 4, 2827 HUNNDALEN" />
		<tag k="amenity" v="kindergarten" />
		<tag k="capacity" v="50" />
		<tag k="contact:website" v="http://huskestua.no" />
		<tag k="max_age" v="5" />
		<tag k="min_age" v="1" />
		<tag k="name" v="Huskestua barnehage" />
		<tag k="no-barnehage:nsrid" v="972240087" />
		<tag k="operator" v="Huskestua barnehage Hunndalen SA" />
		<tag k="operator:type" v="private" />
	</node>
	<node lat="0.0" lon="0.0" id="-2937">
		<tag k="ADDRESS" v="F. L. Suhrs veg 3, 2819 GJØVIK" />
		<tag k="amenity" v="kindergarten" />
		<tag k="capacity" v="50" />
		<tag k="max_age" v="5" />
		<tag k="min_age" v="1" />
		<tag k="name" v="Kråkjordet barnehage" />
		<tag k="no-barnehage:nsrid" v="975303128" />
		<tag k="operator" v="Gjøvik kommune" />
		<tag k="operator:type" v="public" />
	</node>
	<node lat="60.77385" lon="10.66695" id="-2938">
		<tag k="ADDRESS" v="Kvartsvegen 5, 2818 GJØVIK" />
		<tag k="amenity" v="kindergarten" />
		<tag k="capacity" v="56" />
		<tag k="max_age" v="5" />
		<tag k="min_age" v="1" />
		<tag k="name" v="Kvartsvegen barnehage" />
		<tag k="no-barnehage:nsrid" v="988604038" />
		<tag k="operator" v="Gjøvik kommune" />
		<tag k="operator:type" v="public" />
	</node>
	<node lat="60.8047" lon="10.67874" id="-2939">
		<tag k="ADDRESS" v="Kyrre Grepps gate 21, 2819 GJØVIK" />
		<tag k="amenity" v="kindergarten" />
		<tag k="capacity" v="66" />
		<tag k="max_age" v="5" />
		<tag k="min_age" v="1" />
		<tag k="name" v="Lissomskogen barnehage" />
		<tag k="no-barnehage:nsrid" v="990028427" />
		<tag k="operator" v="Gjøvik kommune" />
		<tag k="operator:type" v="public" />
	</node>
	<node lat="60.77427" lon="10.67283" id="-2940">
		<tag k="ADDRESS" v="Engehaugen 15, 2818 GJØVIK" />
		<tag k="amenity" v="kindergarten" />
		<tag k="capacity" v="51" />
		<tag k="contact:website" v="http://www.marihoena.barnehage.no" />
		<tag k="max_age" v="5" />
		<tag k="min_age" v="1" />
		<tag k="name" v="Marihøna barnehage" />
		<tag k="no-barnehage:nsrid" v="972290637" />
		<tag k="operator" v="Marihøna barnehage SA" />
		<tag k="operator:type" v="private" />
	</node>
	<node lat="60.79369" lon="10.62907" id="-2941">
		<tag k="ADDRESS" v="Lyngvegen 9, 2827 HUNNDALEN" />
		<tag k="amenity" v="kindergarten" />
		<tag k="capacity" v="46" />
		<tag k="max_age" v="5" />
		<tag k="min_age" v="1" />
		<tag k="name" v="Marka barnehage" />
		<tag k="no-barnehage:nsrid" v="975321185" />
		<tag k="operator" v="Gjøvik kommune" />
		<tag k="operator:type" v="public" />
	</node>
	<node lat="60.78549" lon="10.64687" id="-2942">
		<tag k="ADDRESS" v="Nyvegen 28, 2827 HUNNDALEN" />
		<tag k="amenity" v="kindergarten" />
		<tag k="capacity" v="36" />
		<tag k="max_age" v="5" />
		<tag k="min_age" v="1" />
		<tag k="name" v="Misjonshusets barnehage" />
		<tag k="no-barnehage:nsrid" v="974156318" />
		<tag k="operator" v="Misjonshusets barnehage" />
		<tag k="operator:type" v="private" />
	</node>
	<node lat="60.82295" lon="10.66461" id="-2943">
		<tag k="ADDRESS" v="Monssvevegen 8, 2825 GJØVIK" />
		<tag k="amenity" v="kindergarten" />
		<tag k="capacity" v="59" />
		<tag k="max_age" v="5" />
		<tag k="min_age" v="1" />
		<tag k="name" v="Monssveen barnehage" />
		<tag k="no-barnehage:nsrid" v="885550142" />
		<tag k="operator" v="Monssveen barnehage SA" />
		<tag k="operator:type" v="private" />
	</node>
	<node lat="60.93963" lon="10.62135" id="-2944">
		<tag k="ADDRESS" v="Austadroa 20, 2836 BIRI" />
		<tag k="amenity" v="kindergarten" />
		<tag k="capacity" v="35" />
		<tag k="max_age" v="5" />
		<tag k="min_age" v="1" />
		<tag k="name" v="Nordby gårdsbarnehage Biri" />
		<tag k="no-barnehage:nsrid" v="918137122" />
		<tag k="operator" v="Nordby gårdsbarnehage Biri AS" />
		<tag k="operator:type" v="private" />
	</node>
	<node lat="60.88649" lon="10.65353" id="-2945">
		<tag k="ADDRESS" v="Snertingdalsvegen 150, 2836 BIRI" />
		<tag k="amenity" v="kindergarten" />
		<tag k="capacity" v="33" />
		<tag k="max_age" v="5" />
		<tag k="min_age" v="1" />
		<tag k="name" v="Rolidbakken FUS barnehage" />
		<tag k="no-barnehage:nsrid" v="931166492" />
		<tag k="operator" v="Rolidbakken Fus barnehage AS" />
		<tag k="operator:type" v="private" />
	</node>
	<node lat="60.788" lon="10.68031" id="-2946">
		<tag k="ADDRESS" v="Teknologivegen 18, 2815 GJØVIK" />
		<tag k="amenity" v="kindergarten" />
		<tag k="capacity" v="35" />
		<tag k="contact:website" v="http://www.sit.no/gjovik/barn" />
		<tag k="max_age" v="5" />
		<tag k="min_age" v="1" />
		<tag k="name" v="Sit Soppen studentbarnehage" />
		<tag k="no-barnehage:nsrid" v="973128515" />
		<tag k="operator" v="Sit Soppen studentbarnehage AS" />
		<tag k="operator:type" v="private" />
	</node>
	<node lat="60.87691" lon="10.40288" id="-2947">
		<tag k="ADDRESS" v="Myrheimvegen 6, 2838 SNERTINGDAL" />
		<tag k="amenity" v="kindergarten" />
		<tag k="capacity" v="58" />
		<tag k="max_age" v="5" />
		<tag k="min_age" v="1" />
		<tag k="name" v="Skonnordtjernet barnehage" />
		<tag k="no-barnehage:nsrid" v="991010548" />
		<tag k="operator" v="Skonnordtjernet barnehage AS" />
		<tag k="operator:type" v="private" />
	</node>
	<node lat="60.77407" lon="10.66861" id="-2948">
		<tag k="ADDRESS" v="Gjennomfaret 4, 2818 GJØVIK" />
		<tag k="amenity" v="kindergarten" />
		<tag k="capacity" v="61" />
		<tag k="max_age" v="5" />
		<tag k="min_age" v="1" />
		<tag k="name" v="Sørbyen barnehage" />
		<tag k="no-barnehage:nsrid" v="973456458" />
		<tag k="operator" v="Sørbyen barnehage AS" />
		<tag k="operator:type" v="private" />
	</node>
	<node lat="60.78931" lon="10.68833" id="-2949">
		<tag k="ADDRESS" v="Haakons gate 19, 2815 GJØVIK" />
		<tag k="amenity" v="kindergarten" />
		<tag k="capacity" v="64" />
		<tag k="contact:website" v="http://www.gjovik.kommune.no/tongjordetbarnehage/" />
		<tag k="max_age" v="5" />
		<tag k="min_age" v="1" />
		<tag k="name" v="Tongjordet barnehage" />
		<tag k="no-barnehage:nsrid" v="974631628" />
		<tag k="operator" v="Gjøvik kommune" />
		<tag k="operator:type" v="public" />
	</node>
	<node lat="0.0" lon="0.0" id="-2950">
		<tag k="ADDRESS" v="Hunnsvegen 27, 2819 GJØVIK" />
		<tag k="amenity" v="kindergarten" />
		<tag k="capacity" v="27" />
		<tag k="max_age" v="5" />
		<tag k="min_age" v="1" />
		<tag k="name" v="Trollhaugen barnehage" />
		<tag k="no-barnehage:nsrid" v="973382942" />
		<tag k="operator" v="Trollhaugen Barnehagestiftelse" />
		<tag k="operator:type" v="private" />
	</node>
	<node lat="60.77252" lon="10.69086" id="-2951">
		<tag k="ADDRESS" v="Mimes veg 5, 2817 GJØVIK" />
		<tag k="amenity" v="kindergarten" />
		<tag k="capacity" v="44" />
		<tag k="max_age" v="5" />
		<tag k="min_age" v="1" />
		<tag k="name" v="Vindingstad barnehage" />
		<tag k="no-barnehage:nsrid" v="975303209" />
		<tag k="operator" v="Gjøvik kommune" />
		<tag k="operator:type" v="public" />
	</node>
	<node lat="60.7614" lon="10.69709" id="-2952">
		<tag k="ADDRESS" v="Vestre Totenveg 511, 2817 GJØVIK" />
		<tag k="amenity" v="kindergarten" />
		<tag k="capacity" v="22" />
		<tag k="max_age" v="5" />
		<tag k="min_age" v="1" />
		<tag k="name" v="Østby gårdsbarnehage" />
		<tag k="no-barnehage:nsrid" v="986112448" />
		<tag k="operator" v="Østby gårdsbarnehage AS" />
		<tag k="operator:type" v="private" />
	</node>
</osm>
