<?xml version="1.0" encoding="UTF-8"?>
<osm generator="osmapis" version="0.6">
	<node id="-4896" lat="0.0" lon="0.0">
		<tag k="amenity" v="kindergarten" />
		<tag k="capacity" v="11" />
		<tag k="max_age" v="5" />
		<tag k="min_age" v="1" />
		<tag k="name" v="Kolbeinsvik barnehage" />
		<tag k="no-barnehage:nsrid" v="1019636" />
		<tag k="operator" v="Kolbeinsvik barnehage" />
		<tag k="operator:type" v="private" />
	</node>
	<node id="-4895" lat="0.0" lon="0.0">
		<tag k="amenity" v="kindergarten" />
		<tag k="capacity" v="13" />
		<tag k="contact:website" v="http://www.hoppensprett.no" />
		<tag k="max_age" v="5" />
		<tag k="min_age" v="1" />
		<tag k="name" v="Hoppensprett Vinnes" />
		<tag k="no-barnehage:nsrid" v="1021759" />
		<tag k="operator" v="Hoppensprett Vinnes AS" />
		<tag k="operator:type" v="private" />
	</node>
	<node id="-4894" lat="60.10191" lon="5.22088">
		<tag k="amenity" v="kindergarten" />
		<tag k="capacity" v="34" />
		<tag k="contact:website" v="http://eventus.barnehage.no" />
		<tag k="max_age" v="5" />
		<tag k="min_age" v="1" />
		<tag k="name" v="Eventus Haugland barnehage" />
		<tag k="no-barnehage:nsrid" v="1021166" />
		<tag k="operator" v="Hoppensprett Haugland Gårdsbarnehage AS" />
		<tag k="operator:type" v="private" />
	</node>
	<node id="-4893" lat="60.09793" lon="5.21931">
		<tag k="amenity" v="kindergarten" />
		<tag k="contact:website" v="http://www.eventusbarnehage.no" />
		<tag k="max_age" v="5" />
		<tag k="min_age" v="1" />
		<tag k="name" v="Eventus Sol-li barnehage" />
		<tag k="no-barnehage:nsrid" v="2000201" />
		<tag k="operator" v="Eventus Sol-Li barnehage AS" />
		<tag k="operator:type" v="private" />
	</node>
	<node id="-4892" lat="60.00368" lon="5.20065">
		<tag k="amenity" v="kindergarten" />
		<tag k="capacity" v="89" />
		<tag k="contact:website" v="http://www.fus.no/bekkjarvik" />
		<tag k="max_age" v="5" />
		<tag k="min_age" v="1" />
		<tag k="name" v="Bekkjarvik Maritime barnehage" />
		<tag k="no-barnehage:nsrid" v="1021510" />
		<tag k="operator" v="Bekkjarvik Maritime Fus barnehage AS" />
		<tag k="operator:type" v="private" />
	</node>
	<node id="-4899" lat="60.09632" lon="5.22532">
		<tag k="amenity" v="kindergarten" />
		<tag k="capacity" v="63" />
		<tag k="max_age" v="5" />
		<tag k="min_age" v="1" />
		<tag k="name" v="Storebø FUS barnehage" />
		<tag k="no-barnehage:nsrid" v="1022161" />
		<tag k="operator" v="Storebø Fus barnehage AS" />
		<tag k="operator:type" v="private" />
	</node>
	<node id="-4898" lat="60.10079" lon="5.16982">
		<tag k="amenity" v="kindergarten" />
		<tag k="capacity" v="79" />
		<tag k="max_age" v="5" />
		<tag k="min_age" v="1" />
		<tag k="name" v="Sjøliv FUS barnehage" />
		<tag k="no-barnehage:nsrid" v="1021509" />
		<tag k="operator" v="Sjøliv Fus barnehage AS" />
		<tag k="operator:type" v="private" />
	</node>
	<node id="-4897" lat="60.07498" lon="5.19373">
		<tag k="amenity" v="kindergarten" />
		<tag k="capacity" v="7" />
		<tag k="max_age" v="5" />
		<tag k="min_age" v="1" />
		<tag k="name" v="Lyngtua barnehage" />
		<tag k="no-barnehage:nsrid" v="1008327" />
		<tag k="operator" v="Drønen/rostøy Husmorlag" />
		<tag k="operator:type" v="private" />
	</node>
</osm>
