<?xml version="1.0" encoding="UTF-8"?>
<osm generator="osmapis" version="0.6">
	<node id="-4200" lat="60.04213" lon="5.202227">
		<tag k="amenity" v="kindergarten" />
		<tag k="capacity" v="29" />
		<tag k="contact:phone" v="56184480" />
		<tag k="max_age" v="5" />
		<tag k="min_age" v="1" />
		<tag k="name" v="Kolbeinsvik barnehage" />
		<tag k="no-barnehage:nsrid" v="1019636" />
		<tag k="operator" v="Kolbeinsvik barnehage" />
		<tag k="operator:type" v="private" />
		<tag k="start_date" v="1982-01-01" />
	</node>
	<node id="-4199" lat="60.09295" lon="5.231794">
		<tag k="amenity" v="kindergarten" />
		<tag k="capacity" v="30" />
		<tag k="max_age" v="5" />
		<tag k="min_age" v="1" />
		<tag k="name" v="Haugland Gards- og Friluftsbarnehage AS" />
		<tag k="no-barnehage:nsrid" v="1021166" />
		<tag k="operator" v="Haugland Gards- og Friluftsbarnehage AS" />
		<tag k="operator:type" v="private" />
		<tag k="start_date" v="2002-11-22" />
	</node>
	<node id="-4198" lat="60.00952" lon="5.261395">
		<tag k="amenity" v="kindergarten" />
		<tag k="capacity" v="26" />
		<tag k="contact:email" v="smatroll@lysglimt.net" />
		<tag k="contact:phone" v="55 08 46 75" />
		<tag k="max_age" v="5" />
		<tag k="min_age" v="1" />
		<tag k="name" v="Fri-Ma AS Småtroll barnehage" />
		<tag k="no-barnehage:nsrid" v="1021759" />
		<tag k="operator" v="Fri-Ma AS" />
		<tag k="operator:type" v="private" />
		<tag k="start_date" v="2008-01-01" />
	</node>
	<node id="-4197" lat="60.00808" lon="5.200568">
		<tag k="amenity" v="kindergarten" />
		<tag k="capacity" v="67" />
		<tag k="contact:email" v="dl.bekkjarvik@hg.no" />
		<tag k="contact:phone" v="55 08 21 94" />
		<tag k="contact:website" v="http://www.bekkjarvik.bhg.no" />
		<tag k="max_age" v="5" />
		<tag k="min_age" v="1" />
		<tag k="name" v="Bekkjarvik Maritime barnehage" />
		<tag k="no-barnehage:nsrid" v="1021510" />
		<tag k="operator" v="Bekkjarvik Maritime Fus barnehage AS" />
		<tag k="operator:type" v="private" />
		<tag k="start_date" v="1989-01-01" />
	</node>
	<node id="-4201" lat="60.11628" lon="5.146499">
		<tag k="amenity" v="kindergarten" />
		<tag k="capacity" v="79" />
		<tag k="contact:email" v="dl.makkhamn@bhg.no" />
		<tag k="contact:phone" v="55 08 21 92" />
		<tag k="max_age" v="5" />
		<tag k="min_age" v="1" />
		<tag k="name" v="Sjøliv barnehage" />
		<tag k="no-barnehage:nsrid" v="1021509" />
		<tag k="operator" v="Sjøliv Fus barnehage AS" />
		<tag k="operator:type" v="private" />
		<tag k="start_date" v="1989-01-02" />
	</node>
</osm>
