<?xml version="1.0" encoding="UTF-8"?>
<osm generator="osmapis" version="0.6">
	<node id="-1976" lat="62.1086" lon="10.6359">
		<tag k="amenity" v="kindergarten" />
		<tag k="capacity" v="40" />
		<tag k="contact:email" v="silje.thoresen.tannaaneset@alvdal.kommune.no" />
		<tag k="max_age" v="5" />
		<tag k="min_age" v="1" />
		<tag k="name" v="Plassen barnehage" />
		<tag k="no-barnehage:nsrid" v="1025500" />
		<tag k="operator" v="Alvdal kommune" />
		<tag k="operator:type" v="public" />
		<tag k="start_date" v="1988-04-01" />
	</node>
	<node id="-1978" lat="62.1086" lon="10.6359">
		<tag k="amenity" v="kindergarten" />
		<tag k="capacity" v="71" />
		<tag k="contact:email" v="silje.thoresen.tannaaneset@alvdal.kommune.no" />
		<tag k="max_age" v="5" />
		<tag k="min_age" v="1" />
		<tag k="name" v="Ã˜wretun barnehage" />
		<tag k="no-barnehage:nsrid" v="1017598" />
		<tag k="operator" v="Alvdal kommune" />
		<tag k="operator:type" v="public" />
		<tag k="start_date" v="1988-04-01" />
	</node>
	<node id="-1977" lat="62.1086" lon="10.63586">
		<tag k="amenity" v="kindergarten" />
		<tag k="capacity" v="23" />
		<tag k="contact:email" v="cecilie@sivil-sara.no" />
		<tag k="contact:phone" v="62 12 22 70" />
		<tag k="contact:website" v="http://www.sivil-sara.no" />
		<tag k="max_age" v="5" />
		<tag k="min_age" v="1" />
		<tag k="name" v="Sivil-Saras Eventyr barnehage Sa" />
		<tag k="no-barnehage:nsrid" v="1021990" />
		<tag k="operator" v="Sivil-Saras Eventyr barnehage Sa" />
		<tag k="operator:type" v="private" />
		<tag k="start_date" v="2009-09-24" />
	</node>
</osm>
