<?xml version="1.0" encoding="UTF-8"?>
<osm generator="osmapis" version="0.6">
	<node id="-3718" lat="60.012" lon="5.50833">
		<tag k="amenity" v="kindergarten" />
		<tag k="capacity" v="66" />
		<tag k="max_age" v="5" />
		<tag k="min_age" v="1" />
		<tag k="name" v="Stjernereiso barnehage" />
		<tag k="no-barnehage:nsrid" v="1014053" />
		<tag k="operator" v="Tysnes kommune" />
		<tag k="operator:type" v="public" />
	</node>
	<node id="-3717" lat="59.95" lon="5.62789">
		<tag k="amenity" v="kindergarten" />
		<tag k="capacity" v="27" />
		<tag k="max_age" v="5" />
		<tag k="min_age" v="1" />
		<tag k="name" v="Onarheim barnehage" />
		<tag k="no-barnehage:nsrid" v="1018107" />
		<tag k="operator" v="Tysnes kommune" />
		<tag k="operator:type" v="public" />
	</node>
	<node id="-3716" lat="60.0594" lon="5.64303">
		<tag k="amenity" v="kindergarten" />
		<tag k="capacity" v="30" />
		<tag k="max_age" v="5" />
		<tag k="min_age" v="1" />
		<tag k="name" v="Lunde barnehage" />
		<tag k="no-barnehage:nsrid" v="1014869" />
		<tag k="operator" v="Tysnes kommune" />
		<tag k="operator:type" v="public" />
	</node>
</osm>
