<?xml version="1.0" encoding="UTF-8"?>
<osm generator="osmapis" version="0.6">
	<node id="-4078" lat="60.0388" lon="5.52079">
		<tag k="amenity" v="kindergarten" />
		<tag k="capacity" v="29" />
		<tag k="contact:email" v="eldbjorg.knudsen@tysnesoppvekst.no" />
		<tag k="contact:phone" v="+47 53 43 15 78" />
		<tag k="max_age" v="5" />
		<tag k="min_age" v="1" />
		<tag k="name" v="VÃ¥gsmarka barnehage" />
		<tag k="no-barnehage:nsrid" v="1018108" />
		<tag k="operator" v="Tysnes kommune" />
		<tag k="operator:type" v="public" />
		<tag k="start_date" v="1989-01-01" />
	</node>
	<node id="-4077" lat="60.012" lon="5.50833">
		<tag k="amenity" v="kindergarten" />
		<tag k="capacity" v="64" />
		<tag k="contact:email" v="gerd.kongsvik@tysnesoppvekst.no" />
		<tag k="max_age" v="5" />
		<tag k="min_age" v="1" />
		<tag k="name" v="Stjernereiso barnehage" />
		<tag k="no-barnehage:nsrid" v="1014053" />
		<tag k="operator" v="Tysnes kommune" />
		<tag k="operator:type" v="public" />
		<tag k="start_date" v="2009-08-01" />
	</node>
	<node id="-4076" lat="59.95" lon="5.62789">
		<tag k="amenity" v="kindergarten" />
		<tag k="capacity" v="27" />
		<tag k="contact:email" v="wenche.fagerbakk@tysnesoppvekst.no" />
		<tag k="contact:phone" v="+47 53 42 50 50" />
		<tag k="max_age" v="5" />
		<tag k="min_age" v="1" />
		<tag k="name" v="Onarheim barnehage" />
		<tag k="no-barnehage:nsrid" v="1018107" />
		<tag k="operator" v="Tysnes kommune" />
		<tag k="operator:type" v="public" />
		<tag k="start_date" v="1989-01-01" />
	</node>
	<node id="-4075" lat="60.0594" lon="5.64303">
		<tag k="amenity" v="kindergarten" />
		<tag k="capacity" v="22" />
		<tag k="contact:email" v="wenche.fagerbakk@tysnesbarnehagane.no" />
		<tag k="contact:phone" v="+47 53 43 30 71" />
		<tag k="max_age" v="5" />
		<tag k="min_age" v="1" />
		<tag k="name" v="Lunde barnehage" />
		<tag k="no-barnehage:nsrid" v="1014869" />
		<tag k="operator" v="Tysnes kommune" />
		<tag k="operator:type" v="public" />
		<tag k="start_date" v="1996-07-31" />
	</node>
</osm>
