<?xml version="1.0" encoding="UTF-8"?>
<osm generator="osmapis" version="0.6">
	<node id="-1720" lat="60.41187" lon="5.21246">
		<tag k="ADDRESS" v="Tøssedalen 22, 5300 KLEPPESTØ" />
		<tag k="amenity" v="kindergarten" />
		<tag k="capacity" v="19" />
		<tag k="max_age" v="5" />
		<tag k="min_age" v="1" />
		<tag k="name" v="Ø Kleppe barnehage" />
		<tag k="no-barnehage:nsrid" v="1022078" />
		<tag k="operator" v="Ø. Kleppe barnehage AS" />
		<tag k="operator:type" v="private" />
	</node>
	<node id="-1719" lat="60.45315" lon="5.13129">
		<tag k="ADDRESS" v="Kollevågvegen 201, 5310 HAUGLANDSHELLA" />
		<tag k="amenity" v="kindergarten" />
		<tag k="capacity" v="59" />
		<tag k="max_age" v="5" />
		<tag k="min_age" v="1" />
		<tag k="name" v="Tveit barnehage" />
		<tag k="no-barnehage:nsrid" v="1018119" />
		<tag k="operator" v="Askøy kommune" />
		<tag k="operator:type" v="public" />
	</node>
	<node id="-1718" lat="60.50882" lon="5.07704">
		<tag k="ADDRESS" v="Berlandsvegen 44, 5314 KJERRGARDEN" />
		<tag k="amenity" v="kindergarten" />
		<tag k="capacity" v="31" />
		<tag k="contact:website" v="http://askoy.kommune.no/fagavdeling-barnehage/kommunale-barnehager/traeet-barnehage" />
		<tag k="max_age" v="5" />
		<tag k="min_age" v="1" />
		<tag k="name" v="Træet barnehage" />
		<tag k="no-barnehage:nsrid" v="1013896" />
		<tag k="operator" v="Askøy kommune" />
		<tag k="operator:type" v="public" />
	</node>
	<node id="-1717" lat="60.40614" lon="5.19066">
		<tag k="ADDRESS" v="Krokåsdalen 1, 5302 STRUSSHAMN" />
		<tag k="amenity" v="kindergarten" />
		<tag k="capacity" v="52" />
		<tag k="contact:website" v="http://strusshamn.barnehage.no/" />
		<tag k="max_age" v="5" />
		<tag k="min_age" v="1" />
		<tag k="name" v="Strusshamn barnehage" />
		<tag k="no-barnehage:nsrid" v="1020191" />
		<tag k="operator" v="Strusshamn barnehage Sa" />
		<tag k="operator:type" v="private" />
	</node>
	<node id="-1716" lat="60.4563" lon="5.15321">
		<tag k="ADDRESS" v="Ravnangervegen 396, 5310 HAUGLANDSHELLA" />
		<tag k="amenity" v="kindergarten" />
		<tag k="capacity" v="44" />
		<tag k="contact:website" v="http://www.ravnanger.barnehage.no" />
		<tag k="max_age" v="5" />
		<tag k="min_age" v="1" />
		<tag k="name" v="Ravnanger barnehage" />
		<tag k="no-barnehage:nsrid" v="1020475" />
		<tag k="operator" v="Ravnanger barnehage AS" />
		<tag k="operator:type" v="private" />
	</node>
	<node id="-1715" lat="60.43668" lon="5.05125">
		<tag k="ADDRESS" v="Ramsøyvegen 214, 5310 HAUGLANDSHELLA" />
		<tag k="amenity" v="kindergarten" />
		<tag k="capacity" v="24" />
		<tag k="contact:website" v="http://askoy.kommune.no/barnehage/kommunale-barnehager/ramsoy-barnehage" />
		<tag k="max_age" v="5" />
		<tag k="min_age" v="1" />
		<tag k="name" v="Ramsøy barnehage" />
		<tag k="no-barnehage:nsrid" v="1017217" />
		<tag k="operator" v="Askøy kommune" />
		<tag k="operator:type" v="public" />
	</node>
	<node id="-1714" lat="60.4091" lon="5.17888">
		<tag k="ADDRESS" v="Follesevegen 97, 5302 STRUSSHAMN" />
		<tag k="amenity" v="kindergarten" />
		<tag k="capacity" v="98" />
		<tag k="contact:website" v="http://www.skogenbarnehage.no" />
		<tag k="max_age" v="5" />
		<tag k="min_age" v="1" />
		<tag k="name" v="Nab Skogen barnehage" />
		<tag k="no-barnehage:nsrid" v="1022208" />
		<tag k="operator" v="Nab Skogen barnehage AS" />
		<tag k="operator:type" v="private" />
	</node>
	<node id="-1713" lat="0.0" lon="0.0">
		<tag k="ADDRESS" v="Myrane, 5300 KLEPPESTØ" />
		<tag k="amenity" v="kindergarten" />
		<tag k="capacity" v="49" />
		<tag k="max_age" v="5" />
		<tag k="min_age" v="1" />
		<tag k="name" v="Myrane Kanvas-barnehage" />
		<tag k="no-barnehage:nsrid" v="1015489" />
		<tag k="operator" v="Stiftelsen Kanvas" />
		<tag k="operator:type" v="private" />
	</node>
	<node id="-1712" lat="60.42675" lon="5.18921">
		<tag k="ADDRESS" v="Ospedalen 268, 5308 KLEPPESTØ" />
		<tag k="amenity" v="kindergarten" />
		<tag k="capacity" v="57" />
		<tag k="contact:website" v="http://laringsverkstedet.no/barnehage/du-og-jeg-sor" />
		<tag k="max_age" v="5" />
		<tag k="min_age" v="1" />
		<tag k="name" v="Læringsverkstedet Du og Jeg Sør" />
		<tag k="no-barnehage:nsrid" v="1013210" />
		<tag k="operator" v="Du og Jeg Krokåsfeltet Nord AS" />
		<tag k="operator:type" v="private" />
	</node>
	<node id="-1711" lat="60.4264" lon="5.18544">
		<tag k="ADDRESS" v="Ospedalen 239, 5308 KLEPPESTØ" />
		<tag k="amenity" v="kindergarten" />
		<tag k="capacity" v="67" />
		<tag k="contact:website" v="http://laringsverkstedet.no/laringsverkstedet-du-og-jeg-nord" />
		<tag k="max_age" v="5" />
		<tag k="min_age" v="1" />
		<tag k="name" v="Læringsverkstedet Du og Jeg Nord" />
		<tag k="no-barnehage:nsrid" v="1015824" />
		<tag k="operator" v="Du og Jeg Krokåsfeltet Nord AS" />
		<tag k="operator:type" v="private" />
	</node>
	<node id="-1710" lat="60.42688" lon="5.14521">
		<tag k="ADDRESS" v="Løftet 66, 5304 HETLEVIK" />
		<tag k="amenity" v="kindergarten" />
		<tag k="capacity" v="69" />
		<tag k="contact:website" v="http://laringsverkstedet.no/barnehage/soltun" />
		<tag k="max_age" v="5" />
		<tag k="min_age" v="1" />
		<tag k="name" v="Læringsverkstedet barnehage avd. Soltun" />
		<tag k="no-barnehage:nsrid" v="1021950" />
		<tag k="operator" v="Læringsverkstedet AS" />
		<tag k="operator:type" v="private" />
	</node>
	<node id="-1709" lat="60.42803" lon="5.18936">
		<tag k="ADDRESS" v="Rostaliene 6, 5308 KLEPPESTØ" />
		<tag k="amenity" v="kindergarten" />
		<tag k="capacity" v="123" />
		<tag k="contact:website" v="http://www.laringsverkstedet.no/laringsverkestedet-du-og-jeg-juvik" />
		<tag k="max_age" v="5" />
		<tag k="min_age" v="1" />
		<tag k="name" v="Læringsverkstedet barnehage avd. Du og Jeg Juvik" />
		<tag k="no-barnehage:nsrid" v="1021893" />
		<tag k="operator" v="Læringsverkstedet AS" />
		<tag k="operator:type" v="private" />
	</node>
	<node id="-1708" lat="60.42315" lon="5.19907">
		<tag k="ADDRESS" v="Kleppevegen 124, 5308 KLEPPESTØ" />
		<tag k="amenity" v="kindergarten" />
		<tag k="capacity" v="94" />
		<tag k="max_age" v="5" />
		<tag k="min_age" v="1" />
		<tag k="name" v="Læringsverkstedet barnehage avd. Kleppe" />
		<tag k="no-barnehage:nsrid" v="1021179" />
		<tag k="operator" v="Læringsverkstedet AS" />
		<tag k="operator:type" v="private" />
	</node>
	<node id="-1707" lat="60.4528" lon="5.12854">
		<tag k="ADDRESS" v="Kollevågvegen 221, 5310 HAUGLANDSHELLA" />
		<tag k="amenity" v="kindergarten" />
		<tag k="capacity" v="82" />
		<tag k="contact:website" v="http://fus.no/lykketrollet" />
		<tag k="max_age" v="5" />
		<tag k="min_age" v="1" />
		<tag k="name" v="Lykketrollet FUS barnehage" />
		<tag k="no-barnehage:nsrid" v="1021220" />
		<tag k="operator" v="Lykketrollet Fus barnehage AS" />
		<tag k="operator:type" v="private" />
	</node>
	<node id="-1706" lat="60.41331" lon="5.21889">
		<tag k="ADDRESS" v="Ranavegen 9, 5300 KLEPPESTØ" />
		<tag k="amenity" v="kindergarten" />
		<tag k="capacity" v="91" />
		<tag k="max_age" v="5" />
		<tag k="min_age" v="1" />
		<tag k="name" v="Kleppestø barnehage" />
		<tag k="no-barnehage:nsrid" v="1025408" />
		<tag k="operator" v="Askøy kommune" />
		<tag k="operator:type" v="public" />
	</node>
	<node id="-1705" lat="0.0" lon="0.0">
		<tag k="ADDRESS" v="Hundetjønna, 5310 HAUGLANDSHELLA" />
		<tag k="amenity" v="kindergarten" />
		<tag k="name" v="Hundetjønna FUS barnehage" />
		<tag k="no-barnehage:nsrid" v="1022038" />
		<tag k="operator" v="Hundetjønna Fus barnehage AS" />
		<tag k="operator:type" v="private" />
	</node>
	<node id="-1704" lat="60.45414" lon="5.15754">
		<tag k="ADDRESS" v="Hauglandsmyra 54, 5310 HAUGLANDSHELLA" />
		<tag k="amenity" v="kindergarten" />
		<tag k="capacity" v="64" />
		<tag k="contact:website" v="http://hauglandgaard.barnehage.no/" />
		<tag k="max_age" v="5" />
		<tag k="min_age" v="1" />
		<tag k="name" v="Haugland gårdsbarnehage Askøy" />
		<tag k="no-barnehage:nsrid" v="1021712" />
		<tag k="operator" v="Haugland Gårdsbarnehage Askøy AS" />
		<tag k="operator:type" v="private" />
	</node>
	<node id="-1703" lat="60.42007" lon="5.20094">
		<tag k="ADDRESS" v="Kvernhusdalen 72b, 5308 KLEPPESTØ" />
		<tag k="amenity" v="kindergarten" />
		<tag k="capacity" v="40" />
		<tag k="contact:website" v="http://Haugen.barnehage.no" />
		<tag k="max_age" v="5" />
		<tag k="min_age" v="1" />
		<tag k="name" v="Haugen barnehage natur og Friluftsliv" />
		<tag k="no-barnehage:nsrid" v="1020920" />
		<tag k="operator" v="Haugen barnehage AS" />
		<tag k="operator:type" v="private" />
	</node>
	<node id="-1702" lat="60.45285" lon="5.09185">
		<tag k="ADDRESS" v="Hanøyvegen 377, 5310 HAUGLANDSHELLA" />
		<tag k="amenity" v="kindergarten" />
		<tag k="capacity" v="36" />
		<tag k="contact:website" v="http://askoy.kommune.no/fagavdeling-barnehage/kommunale-barnehager/hanoy-forum-barnehage" />
		<tag k="max_age" v="5" />
		<tag k="min_age" v="1" />
		<tag k="name" v="Hanøy barnehage" />
		<tag k="no-barnehage:nsrid" v="1014715" />
		<tag k="operator" v="Askøy kommune" />
		<tag k="operator:type" v="public" />
	</node>
	<node id="-1701" lat="60.40889" lon="5.18481">
		<tag k="ADDRESS" v="Follesevegen 77, 5302 STRUSSHAMN" />
		<tag k="amenity" v="kindergarten" />
		<tag k="capacity" v="169" />
		<tag k="contact:website" v="http://www.gnistbarnehager.no" />
		<tag k="max_age" v="5" />
		<tag k="min_age" v="1" />
		<tag k="name" v="Gnist barnehager Skogstunet" />
		<tag k="no-barnehage:nsrid" v="1021947" />
		<tag k="operator" v="Gnist Barnehager Skogstunet AS" />
		<tag k="operator:type" v="private" />
	</node>
	<node id="-1700" lat="60.44708" lon="5.22493">
		<tag k="ADDRESS" v="Strømsnes, 5306 ERDAL" />
		<tag k="amenity" v="kindergarten" />
		<tag k="capacity" v="73" />
		<tag k="max_age" v="5" />
		<tag k="min_age" v="1" />
		<tag k="name" v="Furuly barnehage" />
		<tag k="no-barnehage:nsrid" v="1015506" />
		<tag k="operator" v="Askøy kommune" />
		<tag k="operator:type" v="public" />
	</node>
	<node id="-1699" lat="60.5254" lon="5.02949">
		<tag k="ADDRESS" v="Furehaugen, 5314 KJERRGARDEN" />
		<tag k="amenity" v="kindergarten" />
		<tag k="capacity" v="55" />
		<tag k="max_age" v="5" />
		<tag k="min_age" v="1" />
		<tag k="name" v="Furehaugen barnehage" />
		<tag k="no-barnehage:nsrid" v="1021695" />
		<tag k="operator" v="Furehaugen barnehage AS" />
		<tag k="operator:type" v="private" />
	</node>
	<node id="-1698" lat="60.44582" lon="5.22186">
		<tag k="ADDRESS" v="Grensedalen, 5306 ERDAL" />
		<tag k="amenity" v="kindergarten" />
		<tag k="capacity" v="109" />
		<tag k="contact:website" v="http://www.fridahuset.no" />
		<tag k="max_age" v="5" />
		<tag k="min_age" v="1" />
		<tag k="name" v="Fridahuset" />
		<tag k="no-barnehage:nsrid" v="1021317" />
		<tag k="operator" v="Fridahuset AS" />
		<tag k="operator:type" v="private" />
	</node>
	<node id="-1697" lat="60.41944" lon="5.23923">
		<tag k="ADDRESS" v="Florvågvegen 77, 5305 FLORVÅG" />
		<tag k="amenity" v="kindergarten" />
		<tag k="capacity" v="68" />
		<tag k="max_age" v="5" />
		<tag k="min_age" v="1" />
		<tag k="name" v="Florvåg barnehage" />
		<tag k="no-barnehage:nsrid" v="1025378" />
		<tag k="operator" v="Askøy kommune" />
		<tag k="operator:type" v="public" />
	</node>
	<node id="-1696" lat="60.40437" lon="5.20975">
		<tag k="ADDRESS" v="Stongafjellsvegen 40, 5301 KLEPPESTØ" />
		<tag k="amenity" v="kindergarten" />
		<tag k="capacity" v="115" />
		<tag k="contact:website" v="http://espira.no/barnehage/espira-stongafjellet/?gclid=EAIaIQobChMIlPDVy6C_5wIViISyCh2ErAlBEAAYASAAEgJKAvD_" />
		<tag k="max_age" v="5" />
		<tag k="min_age" v="1" />
		<tag k="name" v="Espira Stongafjellet barnehage" />
		<tag k="no-barnehage:nsrid" v="1021445" />
		<tag k="operator" v="Espira Stongafjellet AS" />
		<tag k="operator:type" v="private" />
	</node>
	<node id="-1695" lat="60.44897" lon="5.20318">
		<tag k="ADDRESS" v="Steinråsa 5, 5306 ERDAL" />
		<tag k="amenity" v="kindergarten" />
		<tag k="capacity" v="61" />
		<tag k="max_age" v="5" />
		<tag k="min_age" v="1" />
		<tag k="name" v="Erdal barnehage" />
		<tag k="no-barnehage:nsrid" v="1012868" />
		<tag k="operator" v="Askøy kommune" />
		<tag k="operator:type" v="public" />
	</node>
	<node id="-1694" lat="60.43158" lon="5.23454">
		<tag k="ADDRESS" v="Storskarhaugen 6, 5305 FLORVÅG" />
		<tag k="amenity" v="kindergarten" />
		<tag k="capacity" v="81" />
		<tag k="max_age" v="5" />
		<tag k="min_age" v="1" />
		<tag k="name" v="Bakarvågen FUS barnehage" />
		<tag k="no-barnehage:nsrid" v="1021809" />
		<tag k="operator" v="Bakarvågen Fus barnehage AS" />
		<tag k="operator:type" v="private" />
	</node>
	<node id="-1693" lat="60.41276" lon="5.23095">
		<tag k="ADDRESS" v="Florvågvegen 6, 5300 KLEPPESTØ" />
		<tag k="amenity" v="kindergarten" />
		<tag k="name" v="Askøy kommune Vikarer Ekstrahjelp barnehage" />
		<tag k="no-barnehage:nsrid" v="1022352" />
		<tag k="operator" v="Askøy kommune" />
		<tag k="operator:type" v="public" />
	</node>
	<node id="-1692" lat="60.46407" lon="5.15052">
		<tag k="ADDRESS" v="Rindadalsvegen 37, 5310 HAUGLANDSHELLA" />
		<tag k="amenity" v="kindergarten" />
		<tag k="capacity" v="40" />
		<tag k="contact:website" v="http://askoy.kommune.no/fagavdeling-barnehage/kommunale-barnehager/hanoy-forum-barnehage" />
		<tag k="max_age" v="5" />
		<tag k="min_age" v="1" />
		<tag k="name" v="Askøy Forum barnehage" />
		<tag k="no-barnehage:nsrid" v="1017218" />
		<tag k="operator" v="Askøy kommune" />
		<tag k="operator:type" v="public" />
	</node>
	<node id="-1691" lat="60.4849" lon="5.21134">
		<tag k="ADDRESS" v="Askvegen 463, 5307 ASK" />
		<tag k="amenity" v="kindergarten" />
		<tag k="capacity" v="88" />
		<tag k="max_age" v="5" />
		<tag k="min_age" v="1" />
		<tag k="name" v="Ask barnehage" />
		<tag k="no-barnehage:nsrid" v="1014890" />
		<tag k="operator" v="Askøy kommune" />
		<tag k="operator:type" v="public" />
	</node>
</osm>
