<?xml version="1.0" encoding="UTF-8"?>
<osm version="0.6" generator="osmapis">
	<node lat="0.0" lon="0.0" id="-3975">
		<tag k="ADDRESS" v="Alfred Skaiåsveg, 4735 EVJE" />
		<tag k="amenity" v="kindergarten" />
		<tag k="capacity" v="15" />
		<tag k="max_age" v="5" />
		<tag k="min_age" v="1" />
		<tag k="name" v="Babuschka barnehage" />
		<tag k="no-barnehage:nsrid" v="973512943" />
		<tag k="operator" v="Babuschka barnehage AS" />
		<tag k="operator:type" v="private" />
	</node>
	<node lat="58.5684" lon="7.76477" id="-3976">
		<tag k="ADDRESS" v="Dåsvannsdalen 22, 4737 HORNNES" />
		<tag k="amenity" v="kindergarten" />
		<tag k="capacity" v="53" />
		<tag k="contact:website" v="http://www.e-h.kommune.no/hornnes-barnehage.393677.no.html" />
		<tag k="max_age" v="5" />
		<tag k="min_age" v="1" />
		<tag k="name" v="Hornnes barnehage" />
		<tag k="no-barnehage:nsrid" v="975307557" />
		<tag k="operator" v="Evje og Hornnes kommune" />
		<tag k="operator:type" v="public" />
	</node>
	<node lat="0.0" lon="0.0" id="-3977">
		<tag k="ADDRESS" v="Oddeskogen, 4735 EVJE" />
		<tag k="amenity" v="kindergarten" />
		<tag k="capacity" v="99" />
		<tag k="contact:website" v="http://www.e-h.kommune.no/oddeskogen-barnehage.393678.no.html" />
		<tag k="max_age" v="5" />
		<tag k="min_age" v="1" />
		<tag k="name" v="Oddeskogen barnehage" />
		<tag k="no-barnehage:nsrid" v="875315412" />
		<tag k="operator" v="Evje og Hornnes kommune" />
		<tag k="operator:type" v="public" />
	</node>
</osm>
