<?xml version="1.0" encoding="UTF-8"?>
<osm generator="osmapis" version="0.6">
	<node id="-3536" lat="0.0" lon="0.0">
		<tag k="ADDRESS" v="Konsvikosen 63, 8752 KONSVIKOSEN" />
		<tag k="amenity" v="kindergarten" />
		<tag k="capacity" v="17" />
		<tag k="max_age" v="5" />
		<tag k="min_age" v="1" />
		<tag k="name" v="Konsvik barnehage" />
		<tag k="no-barnehage:nsrid" v="1017384" />
		<tag k="operator" v="Lurøy kommune" />
		<tag k="operator:type" v="public" />
	</node>
	<node id="-3538" lat="0.0" lon="0.0">
		<tag k="ADDRESS" v="Sleneset 187, 8762 SLENESET" />
		<tag k="amenity" v="kindergarten" />
		<tag k="capacity" v="12" />
		<tag k="max_age" v="5" />
		<tag k="min_age" v="1" />
		<tag k="name" v="Sleneset barnehage" />
		<tag k="no-barnehage:nsrid" v="1017385" />
		<tag k="operator" v="Lurøy kommune" />
		<tag k="operator:type" v="public" />
	</node>
	<node id="-3537" lat="66.39754" lon="12.86866">
		<tag k="ADDRESS" v="Onøyveien 107, 8766 LURØY" />
		<tag k="amenity" v="kindergarten" />
		<tag k="capacity" v="10" />
		<tag k="max_age" v="5" />
		<tag k="min_age" v="1" />
		<tag k="name" v="Onøy barnehage" />
		<tag k="no-barnehage:nsrid" v="1017339" />
		<tag k="operator" v="Lurøy kommune" />
		<tag k="operator:type" v="public" />
	</node>
</osm>
