<?xml version="1.0" encoding="UTF-8"?>
<osm generator="osmapis" version="0.6">
	<node id="-5595" lat="66.3627" lon="12.5955">
		<tag k="amenity" v="kindergarten" />
		<tag k="capacity" v="10" />
		<tag k="contact:email" v="sleneset.barnehage@luroy.kommune.no" />
		<tag k="contact:phone" v="+47 75094257" />
		<tag k="max_age" v="5" />
		<tag k="min_age" v="1" />
		<tag k="name" v="Sleneset barnehage" />
		<tag k="no-barnehage:nsrid" v="1017385" />
		<tag k="operator" v="Lurøy kommune" />
		<tag k="operator:type" v="public" />
		<tag k="start_date" v="1978-09-14" />
	</node>
	<node id="-5594" lat="66.4185" lon="12.8494">
		<tag k="amenity" v="kindergarten" />
		<tag k="capacity" v="21" />
		<tag k="contact:email" v="onlur.barnehage@luroy.kommune.no" />
		<tag k="contact:phone" v="+47 75093786" />
		<tag k="max_age" v="5" />
		<tag k="min_age" v="1" />
		<tag k="name" v="Lurøy/onøy barnehage" />
		<tag k="no-barnehage:nsrid" v="1017339" />
		<tag k="operator" v="Lurøy kommune" />
		<tag k="operator:type" v="public" />
		<tag k="start_date" v="1977-08-01" />
	</node>
	<node id="-5593" lat="66.3641" lon="12.3371">
		<tag k="amenity" v="kindergarten" />
		<tag k="capacity" v="45" />
		<tag k="contact:email" v="lovund.barnehage@luroy.kommune.no" />
		<tag k="contact:phone" v="+47 75094545" />
		<tag k="max_age" v="5" />
		<tag k="min_age" v="1" />
		<tag k="name" v="Lovund barnehage" />
		<tag k="no-barnehage:nsrid" v="1013667" />
		<tag k="operator" v="Lurøy kommune" />
		<tag k="operator:type" v="public" />
		<tag k="start_date" v="1989-01-01" />
	</node>
	<node id="-5592" lat="66.4862" lon="12.9478">
		<tag k="amenity" v="kindergarten" />
		<tag k="capacity" v="9" />
		<tag k="contact:email" v="kva.oppv.adm@luroy.kommune.no" />
		<tag k="contact:phone" v="+47 75 09 18 68" />
		<tag k="max_age" v="5" />
		<tag k="min_age" v="1" />
		<tag k="name" v="Kvarøy Oppvekstsenter barnehage" />
		<tag k="no-barnehage:nsrid" v="1018554" />
		<tag k="operator" v="Lurøy kommune" />
		<tag k="operator:type" v="public" />
		<tag k="start_date" v="2008-01-01" />
	</node>
	<node id="-5591" lat="66.4996" lon="13.0985">
		<tag k="amenity" v="kindergarten" />
		<tag k="capacity" v="16" />
		<tag k="contact:email" v="konsvik.barnehage@luroy.kommune.no" />
		<tag k="contact:phone" v="+47 75 09 18 88" />
		<tag k="max_age" v="5" />
		<tag k="min_age" v="1" />
		<tag k="name" v="Konsvik barnehage" />
		<tag k="no-barnehage:nsrid" v="1017384" />
		<tag k="operator" v="Lurøy kommune" />
		<tag k="operator:type" v="public" />
		<tag k="start_date" v="1978-09-14" />
	</node>
	<node id="-5590" lat="66.407" lon="13.1588">
		<tag k="amenity" v="kindergarten" />
		<tag k="capacity" v="14" />
		<tag k="contact:email" v="aldersund.barnehage@luroy.kommune.no" />
		<tag k="contact:phone" v="+47 75 09 16 28" />
		<tag k="max_age" v="5" />
		<tag k="min_age" v="1" />
		<tag k="name" v="Aldersund Oppvekstsenter barnehage" />
		<tag k="no-barnehage:nsrid" v="1017338" />
		<tag k="operator" v="Lurøy kommune" />
		<tag k="operator:type" v="public" />
		<tag k="start_date" v="1975-01-01" />
	</node>
</osm>
