<?xml version="1.0" encoding="UTF-8"?>
<osm version="0.6" generator="osmapis">
	<node lat="63.23034" lon="10.23347" id="-4992">
		<tag k="ADDRESS" v="Kregnesvegen 290, 7228 KVÅL" />
		<tag k="amenity" v="kindergarten" />
		<tag k="capacity" v="4" />
		<tag k="contact:website" v="http://buanfamiliebarnehage.no" />
		<tag k="max_age" v="2" />
		<tag k="min_age" v="1" />
		<tag k="name" v="Buan familiebarnehage Karin Langland Reinsbakk" />
		<tag k="no-barnehage:nsrid" v="994225898" />
		<tag k="operator" v="Buan Familiebarnehage Karin Langland Reinsbakk" />
		<tag k="operator:type" v="private" />
	</node>
	<node lat="63.29214" lon="10.25424" id="-4999">
		<tag k="ADDRESS" v="Stabells veg 17, 7224 MELHUS" />
		<tag k="amenity" v="kindergarten" />
		<tag k="capacity" v="8" />
		<tag k="contact:website" v="http://www.facebook.com/humla.familiebarnehage/" />
		<tag k="max_age" v="2" />
		<tag k="min_age" v="1" />
		<tag k="name" v="Humla familiebarnehage" />
		<tag k="no-barnehage:nsrid" v="995513471" />
		<tag k="operator" v="Humla familiebarnehage Da" />
		<tag k="operator:type" v="private" />
	</node>
	<node lat="63.28718" lon="10.28821" id="-5008">
		<tag k="ADDRESS" v="Høyeggen 62, 7224 MELHUS" />
		<tag k="amenity" v="kindergarten" />
		<tag k="capacity" v="8" />
		<tag k="max_age" v="2" />
		<tag k="min_age" v="1" />
		<tag k="name" v="Trolltoppen familiebarnehage" />
		<tag k="no-barnehage:nsrid" v="992210249" />
		<tag k="operator" v="Trolltoppen familiebarnehage Da" />
		<tag k="operator:type" v="private" />
	</node>
</osm>
