<?xml version="1.0" encoding="UTF-8"?>
<osm generator="osmapis" version="0.6">
	<node id="-2992" lat="63.2677" lon="10.233">
		<tag k="ADDRESS" v="Klemmets Veg 270, 7227 GIMSE" />
		<tag k="amenity" v="kindergarten" />
		<tag k="capacity" v="87" />
		<tag k="contact:website" v="http://laringsverkstedet.no/brekkasen-idrettsbarnehage" />
		<tag k="max_age" v="5" />
		<tag k="min_age" v="1" />
		<tag k="name" v="Læringsverkstedet barnehage avd. Brekkåsen idrettsbarnehage" />
		<tag k="no-barnehage:nsrid" v="1021605" />
		<tag k="operator" v="Læringsverkstedet AS" />
		<tag k="operator:type" v="private" />
	</node>
	<node id="-2991" lat="0.0" lon="0.0">
		<tag k="ADDRESS" v="Lyngenveien, 7232 LUNDAMO" />
		<tag k="amenity" v="kindergarten" />
		<tag k="name" v="Lyngenveien barnehage Kjersti Borg Nilsen" />
		<tag k="no-barnehage:nsrid" v="1020962" />
		<tag k="operator" v="Lyngenveien barnehage Kjersti Borg Nilsen" />
		<tag k="operator:type" v="private" />
	</node>
	<node id="-2990" lat="63.28549" lon="10.26584">
		<tag k="ADDRESS" v="Martin Tranmæls Veg 56, 7224 MELHUS" />
		<tag k="amenity" v="kindergarten" />
		<tag k="capacity" v="52" />
		<tag k="contact:website" v="http://www.elvebakkenmontessoribhg.no" />
		<tag k="max_age" v="5" />
		<tag k="min_age" v="1" />
		<tag k="name" v="Elvebakken montessoribarnehage" />
		<tag k="no-barnehage:nsrid" v="1020834" />
		<tag k="operator" v="Elvebakken Montessoribarnehage Sa" />
		<tag k="operator:type" v="private" />
	</node>
	<node id="-2993" lat="63.28762" lon="10.28811">
		<tag k="ADDRESS" v="Høyeggen 66, 7224 MELHUS" />
		<tag k="amenity" v="kindergarten" />
		<tag k="name" v="Utsikten barnehage Janne Rogstad" />
		<tag k="no-barnehage:nsrid" v="1020934" />
		<tag k="operator" v="Utsikten barnehage Janne Rogstad" />
		<tag k="operator:type" v="private" />
	</node>
</osm>
