<?xml version="1.0" encoding="UTF-8"?>
<osm version="0.6" generator="osmapis">
	<node lat="0.0" lon="0.0" id="-4635">
		<tag k="ADDRESS" v=", 6730 DAVIK" />
		<tag k="amenity" v="kindergarten" />
		<tag k="capacity" v="6" />
		<tag k="max_age" v="5" />
		<tag k="min_age" v="3" />
		<tag k="name" v="Davik oppvekst barnehage" />
		<tag k="no-barnehage:nsrid" v="986647406" />
		<tag k="operator" v="Bremanger kommune" />
		<tag k="operator:type" v="public" />
	</node>
	<node lat="0.0" lon="0.0" id="-4636">
		<tag k="ADDRESS" v="Sentrum, 6729 KALVÅG" />
		<tag k="amenity" v="kindergarten" />
		<tag k="capacity" v="33" />
		<tag k="max_age" v="5" />
		<tag k="min_age" v="1" />
		<tag k="name" v="Kalvåg oppvekst Kalvåg barnehage" />
		<tag k="no-barnehage:nsrid" v="974592126" />
		<tag k="operator" v="Bremanger kommune" />
		<tag k="operator:type" v="public" />
	</node>
	<node lat="0.0" lon="0.0" id="-4637">
		<tag k="ADDRESS" v=", 6734 RUGSUND" />
		<tag k="amenity" v="kindergarten" />
		<tag k="capacity" v="8" />
		<tag k="max_age" v="5" />
		<tag k="min_age" v="1" />
		<tag k="name" v="Kolset oppvekst barnehage" />
		<tag k="no-barnehage:nsrid" v="974592118" />
		<tag k="operator" v="Bremanger kommune" />
		<tag k="operator:type" v="public" />
	</node>
	<node lat="0.0" lon="0.0" id="-4638">
		<tag k="ADDRESS" v=", 6727 BREMANGER" />
		<tag k="amenity" v="kindergarten" />
		<tag k="capacity" v="26" />
		<tag k="max_age" v="5" />
		<tag k="min_age" v="1" />
		<tag k="name" v="Stasjonen barnehage" />
		<tag k="no-barnehage:nsrid" v="974592096" />
		<tag k="operator" v="Bremanger kommune" />
		<tag k="operator:type" v="public" />
	</node>
	<node lat="61.76332" lon="5.26064" id="-4639">
		<tag k="ADDRESS" v="Erlevegen 2, 6723 SVELGEN" />
		<tag k="amenity" v="kindergarten" />
		<tag k="capacity" v="14" />
		<tag k="max_age" v="2" />
		<tag k="min_age" v="1" />
		<tag k="name" v="Svelgen oppvekst Langeneset barnehage" />
		<tag k="no-barnehage:nsrid" v="974592088" />
		<tag k="operator" v="Bremanger kommune" />
		<tag k="operator:type" v="public" />
	</node>
	<node lat="61.76632" lon="5.28644" id="-4640">
		<tag k="ADDRESS" v="Gunnar Schjelderups veg 31, 6723 SVELGEN" />
		<tag k="amenity" v="kindergarten" />
		<tag k="capacity" v="41" />
		<tag k="max_age" v="5" />
		<tag k="min_age" v="1" />
		<tag k="name" v="Svelgen oppvekst Svelgen barnehage" />
		<tag k="no-barnehage:nsrid" v="874592072" />
		<tag k="operator" v="Bremanger kommune" />
		<tag k="operator:type" v="public" />
	</node>
	<node lat="0.0" lon="0.0" id="-4641">
		<tag k="ADDRESS" v=", 6737 ÅLFOTEN" />
		<tag k="amenity" v="kindergarten" />
		<tag k="capacity" v="10" />
		<tag k="max_age" v="5" />
		<tag k="min_age" v="1" />
		<tag k="name" v="Ålfoten oppvekstsenter barnehage" />
		<tag k="no-barnehage:nsrid" v="874592102" />
		<tag k="operator" v="Bremanger kommune" />
		<tag k="operator:type" v="public" />
	</node>
</osm>
