<?xml version="1.0" encoding="UTF-8"?>
<osm generator="osmapis" version="0.6">
	<node id="-4080" lat="59.79347" lon="5.188193">
		<tag k="amenity" v="kindergarten" />
		<tag k="capacity" v="182" />
		<tag k="contact:email" v="maurtuba@online.no" />
		<tag k="contact:phone" v="53 42 89 99" />
		<tag k="max_age" v="5" />
		<tag k="min_age" v="1" />
		<tag k="name" v="Maurtua barnehage Bømlo Sa" />
		<tag k="no-barnehage:nsrid" v="1019659" />
		<tag k="operator" v="Maurtua barnehage Bømlo Sa" />
		<tag k="operator:type" v="private" />
		<tag k="start_date" v="1988-04-01" />
	</node>
	<node id="-4079" lat="59.60445" lon="5.210959">
		<tag k="amenity" v="kindergarten" />
		<tag k="capacity" v="65" />
		<tag k="contact:email" v="langevaag@barnehage.no" />
		<tag k="contact:phone" v="53 42 87 70" />
		<tag k="contact:website" v="http://www.langevaag.barnehage.no" />
		<tag k="max_age" v="5" />
		<tag k="min_age" v="1" />
		<tag k="name" v="Langevåg barnehage" />
		<tag k="no-barnehage:nsrid" v="1020732" />
		<tag k="operator" v="Langevåg barnehage Sa" />
		<tag k="operator:type" v="private" />
		<tag k="start_date" v="2005-01-01" />
	</node>
	<node id="-4078" lat="59.79428" lon="5.185323">
		<tag k="amenity" v="kindergarten" />
		<tag k="capacity" v="147" />
		<tag k="contact:email" v="post@espira.no" />
		<tag k="contact:phone" v="52 84 50 20" />
		<tag k="contact:website" v="http://www.espira.no" />
		<tag k="max_age" v="5" />
		<tag k="min_age" v="1" />
		<tag k="name" v="Espira Salamonskogen barnehage" />
		<tag k="no-barnehage:nsrid" v="1021400" />
		<tag k="operator" v="Espira Salamonskogen AS" />
		<tag k="operator:type" v="private" />
		<tag k="start_date" v="2006-02-10" />
	</node>
	<node id="-4077" lat="59.81635" lon="5.263042">
		<tag k="amenity" v="kindergarten" />
		<tag k="capacity" v="83" />
		<tag k="contact:email" v="rub.barn@c2i.net" />
		<tag k="contact:phone" v="53 42 82 80" />
		<tag k="contact:website" v="http://www.espira.no" />
		<tag k="max_age" v="5" />
		<tag k="min_age" v="1" />
		<tag k="name" v="Espira Rubbestadneset barnehage" />
		<tag k="no-barnehage:nsrid" v="1021733" />
		<tag k="operator" v="Espira Rubbestadneset AS" />
		<tag k="operator:type" v="private" />
		<tag k="start_date" v="2001-01-01" />
	</node>
	<node id="-4076" lat="59.69918" lon="5.385784">
		<tag k="amenity" v="kindergarten" />
		<tag k="capacity" v="120" />
		<tag k="contact:email" v="post@espira.no" />
		<tag k="contact:phone" v="52 84 50 20" />
		<tag k="contact:website" v="http://www.espira.no" />
		<tag k="max_age" v="5" />
		<tag k="min_age" v="1" />
		<tag k="name" v="Espira Moster barnehage" />
		<tag k="no-barnehage:nsrid" v="1021047" />
		<tag k="operator" v="Espira Barnehager AS" />
		<tag k="operator:type" v="private" />
		<tag k="start_date" v="2004-05-05" />
	</node>
	<node id="-4075" lat="59.80735" lon="5.177809">
		<tag k="amenity" v="kindergarten" />
		<tag k="capacity" v="73" />
		<tag k="contact:email" v="post@espira.no" />
		<tag k="contact:phone" v="53 42 49 42" />
		<tag k="contact:website" v="http://www.espira.no" />
		<tag k="max_age" v="5" />
		<tag k="min_age" v="1" />
		<tag k="name" v="Espira Hollund barnehage" />
		<tag k="no-barnehage:nsrid" v="1019864" />
		<tag k="operator" v="Espira Barnehager AS" />
		<tag k="operator:type" v="private" />
		<tag k="start_date" v="1989-07-31" />
	</node>
	<node id="-4074" lat="59.71465" lon="5.213337">
		<tag k="amenity" v="kindergarten" />
		<tag k="capacity" v="51" />
		<tag k="contact:email" v="post@espira.no" />
		<tag k="contact:phone" v="53 42 54 93" />
		<tag k="max_age" v="5" />
		<tag k="min_age" v="1" />
		<tag k="name" v="Espira Finnås barnehage" />
		<tag k="no-barnehage:nsrid" v="1022007" />
		<tag k="operator" v="Espira Barnehager AS" />
		<tag k="operator:type" v="private" />
		<tag k="start_date" v="1989-01-02" />
	</node>
	<node id="-4073" lat="59.69918" lon="5.385784">
		<tag k="amenity" v="kindergarten" />
		<tag k="capacity" v="34" />
		<tag k="contact:email" v="breiflabben@haugnett.no" />
		<tag k="contact:phone" v="53 22 32 30" />
		<tag k="max_age" v="5" />
		<tag k="min_age" v="1" />
		<tag k="name" v="Breiflabben barnehage AS" />
		<tag k="no-barnehage:nsrid" v="1021929" />
		<tag k="operator" v="Breiflabben barnehage AS" />
		<tag k="operator:type" v="private" />
		<tag k="start_date" v="2009-03-20" />
	</node>
</osm>
