<?xml version="1.0" encoding="UTF-8"?>
<osm version="0.6" generator="osmapis">
	<node lat="0.0" lon="0.0" id="-5489">
		<tag k="ADDRESS" v="MØGSTERVEIEN 1 A, 9593 BREIVIKBOTN" />
		<tag k="amenity" v="kindergarten" />
		<tag k="capacity" v="15" />
		<tag k="max_age" v="5" />
		<tag k="min_age" v="1" />
		<tag k="name" v="Breivikbotn barnehage" />
		<tag k="no-barnehage:nsrid" v="975314065" />
		<tag k="operator" v="Hasvik kommune" />
		<tag k="operator:type" v="public" />
	</node>
	<node lat="70.488" lon="22.16682" id="-5490">
		<tag k="ADDRESS" v="Sinaveien 17, 9590 HASVIK" />
		<tag k="amenity" v="kindergarten" />
		<tag k="capacity" v="10" />
		<tag k="max_age" v="5" />
		<tag k="min_age" v="3" />
		<tag k="name" v="Hasvik barnehage" />
		<tag k="no-barnehage:nsrid" v="975314073" />
		<tag k="operator" v="Hasvik kommune" />
		<tag k="operator:type" v="public" />
	</node>
	<node lat="70.62988" lon="21.98492" id="-5491">
		<tag k="ADDRESS" v="Havneveien 20, 9595 SØRVÆR" />
		<tag k="amenity" v="kindergarten" />
		<tag k="capacity" v="9" />
		<tag k="max_age" v="5" />
		<tag k="min_age" v="1" />
		<tag k="name" v="Sørvær oppvekstsenter avd. barnehage" />
		<tag k="no-barnehage:nsrid" v="975314081" />
		<tag k="operator" v="Hasvik kommune" />
		<tag k="operator:type" v="public" />
	</node>
</osm>
