<?xml version="1.0" encoding="UTF-8"?>
<osm generator="osmapis" version="0.6">
	<node id="-1806" lat="59.28807" lon="11.12558">
		<tag k="ADDRESS" v="Opsundveien 5, 1726 SARPSBORG" />
		<tag k="amenity" v="kindergarten" />
		<tag k="capacity" v="8" />
		<tag k="max_age" v="5" />
		<tag k="min_age" v="1" />
		<tag k="name" v="Askeladden barnehage Borg avd. Eikeskogen" />
		<tag k="no-barnehage:nsrid" v="914328500" />
		<tag k="operator" v="Askeladden barnehage Borg AS" />
		<tag k="operator:type" v="private" />
	</node>
	<node id="-1807" lat="59.26616" lon="11.0368">
		<tag k="ADDRESS" v="Revyveien 2A, 1718 GREÅKER" />
		<tag k="amenity" v="kindergarten" />
		<tag k="capacity" v="10" />
		<tag k="max_age" v="5" />
		<tag k="min_age" v="1" />
		<tag k="name" v="Askeladden barnehage Borg avd. Trollskogen" />
		<tag k="no-barnehage:nsrid" v="914328780" />
		<tag k="operator" v="Askeladden barnehage Borg AS" />
		<tag k="operator:type" v="private" />
	</node>
	<node id="-1808" lat="59.20611" lon="11.19215">
		<tag k="ADDRESS" v="Fladebyveien 2, 1746 SKJEBERG" />
		<tag k="amenity" v="kindergarten" />
		<tag k="capacity" v="10" />
		<tag k="max_age" v="5" />
		<tag k="min_age" v="1" />
		<tag k="name" v="Askeladden barnehage Borg avd. Reveenka" />
		<tag k="no-barnehage:nsrid" v="914622336" />
		<tag k="operator" v="Askeladden barnehage Borg AS" />
		<tag k="operator:type" v="private" />
	</node>
	<node id="-1809" lat="59.28119" lon="11.12423">
		<tag k="ADDRESS" v="St. Nikolas-gate 19, 1706 SARPSBORG" />
		<tag k="amenity" v="kindergarten" />
		<tag k="capacity" v="10" />
		<tag k="max_age" v="5" />
		<tag k="min_age" v="1" />
		<tag k="name" v="Askeladden barnehage Borg avd. Skjærungen" />
		<tag k="no-barnehage:nsrid" v="913987829" />
		<tag k="operator" v="Askeladden barnehage Borg AS" />
		<tag k="operator:type" v="private" />
	</node>
	<node id="-1833" lat="59.21471" lon="11.08565">
		<tag k="ADDRESS" v="Oldtidsveien 709, 1747 SKJEBERG" />
		<tag k="amenity" v="kindergarten" />
		<tag k="capacity" v="9" />
		<tag k="max_age" v="5" />
		<tag k="min_age" v="1" />
		<tag k="name" v="Paletten familiebarnehage" />
		<tag k="no-barnehage:nsrid" v="989356690" />
		<tag k="operator" v="Irene Håndlykken Paletten" />
		<tag k="operator:type" v="private" />
	</node>
	<node id="-1837" lat="59.25515" lon="11.12897">
		<tag k="ADDRESS" v="Nordbergveien 98, 1738 BORGENHAUGEN" />
		<tag k="amenity" v="kindergarten" />
		<tag k="capacity" v="8" />
		<tag k="max_age" v="2" />
		<tag k="min_age" v="1" />
		<tag k="name" v="Skogro familiebarnehage" />
		<tag k="no-barnehage:nsrid" v="914010926" />
		<tag k="operator" v="Skogro barnehage AS" />
		<tag k="operator:type" v="private" />
	</node>
</osm>
