<?xml version="1.0" encoding="UTF-8"?>
<osm version="0.6" generator="osmapis">
	<node lat="59.92624" lon="11.99339" id="-3014">
		<tag k="ADDRESS" v="Helgesjøvegen 8, 2233 VESTMARKA" />
		<tag k="amenity" v="kindergarten" />
		<tag k="capacity" v="13" />
		<tag k="max_age" v="5" />
		<tag k="min_age" v="1" />
		<tag k="name" v="Eidskog naturbarnehage" />
		<tag k="no-barnehage:nsrid" v="912845893" />
		<tag k="operator" v="Eidskog naturbarnehage SA" />
		<tag k="operator:type" v="private" />
	</node>
	<node lat="59.94862" lon="12.19316" id="-3015">
		<tag k="ADDRESS" v="Parkvegen 10, 2240 MAGNOR" />
		<tag k="amenity" v="kindergarten" />
		<tag k="capacity" v="53" />
		<tag k="max_age" v="5" />
		<tag k="min_age" v="1" />
		<tag k="name" v="Magnor barnehage" />
		<tag k="no-barnehage:nsrid" v="975295796" />
		<tag k="operator" v="Eidskog kommune" />
		<tag k="operator:type" v="public" />
	</node>
	<node lat="60.03136" lon="12.12287" id="-3016">
		<tag k="ADDRESS" v="Matrandvegen 559, 2235 MATRAND" />
		<tag k="amenity" v="kindergarten" />
		<tag k="capacity" v="32" />
		<tag k="max_age" v="5" />
		<tag k="min_age" v="1" />
		<tag k="name" v="Matrand barnehage" />
		<tag k="no-barnehage:nsrid" v="975302563" />
		<tag k="operator" v="Eidskog kommune" />
		<tag k="operator:type" v="public" />
	</node>
	<node lat="0.0" lon="0.0" id="-3017">
		<tag k="ADDRESS" v="Vestmarkavegen 66, 2230 SKOTTERUD" />
		<tag k="amenity" v="kindergarten" />
		<tag k="capacity" v="67" />
		<tag k="max_age" v="5" />
		<tag k="min_age" v="1" />
		<tag k="name" v="Skotterud barnehage" />
		<tag k="no-barnehage:nsrid" v="975302571" />
		<tag k="operator" v="Eidskog kommune" />
		<tag k="operator:type" v="public" />
	</node>
	<node lat="59.98669" lon="12.1248" id="-3018">
		<tag k="ADDRESS" v="Matrandvegen 52, 2230 SKOTTERUD" />
		<tag k="amenity" v="kindergarten" />
		<tag k="capacity" v="24" />
		<tag k="max_age" v="5" />
		<tag k="min_age" v="1" />
		<tag k="name" v="Skotterudløkka barnehage" />
		<tag k="no-barnehage:nsrid" v="991714030" />
		<tag k="operator" v="Skotterudløkka barnehage AS" />
		<tag k="operator:type" v="private" />
	</node>
</osm>
