<?xml version="1.0" encoding="UTF-8"?>
<osm generator="osmapis" version="0.6">
	<node id="-1319" lat="62.50736" lon="6.12646">
		<tag k="ADDRESS" v="Øvregjerdet 18, 6050 VALDERØYA" />
		<tag k="amenity" v="kindergarten" />
		<tag k="capacity" v="73" />
		<tag k="max_age" v="5" />
		<tag k="min_age" v="1" />
		<tag k="name" v="Daggry barnehage" />
		<tag k="no-barnehage:nsrid" v="973357204" />
		<tag k="operator" v="Daggry barnehage" />
		<tag k="operator:type" v="private" />
	</node>
	<node id="-1320" lat="62.50501" lon="6.04942">
		<tag k="ADDRESS" v="Bedehusvegen 5, 6052 GISKE" />
		<tag k="amenity" v="kindergarten" />
		<tag k="capacity" v="62" />
		<tag k="contact:website" v="http://www.giske.kommune.no/giske-oppvekstsenter/" />
		<tag k="max_age" v="5" />
		<tag k="min_age" v="1" />
		<tag k="name" v="Giske barnehage" />
		<tag k="no-barnehage:nsrid" v="974011522" />
		<tag k="operator" v="Giske kommune" />
		<tag k="operator:type" v="public" />
	</node>
	<node id="-1321" lat="62.51615" lon="6.13038">
		<tag k="ADDRESS" v="Lisavegen 1, 6050 VALDERØYA" />
		<tag k="amenity" v="kindergarten" />
		<tag k="capacity" v="126" />
		<tag k="contact:website" v="http://www.gnistbarnehager.no" />
		<tag k="max_age" v="5" />
		<tag k="min_age" v="1" />
		<tag k="name" v="Gnist barnehager Nordstrand" />
		<tag k="no-barnehage:nsrid" v="991369058" />
		<tag k="operator" v="Gnist barnehager Nordstrand AS" />
		<tag k="operator:type" v="private" />
	</node>
	<node id="-1322" lat="62.5269" lon="6.11923">
		<tag k="ADDRESS" v="Niklamarka 2, 6050 VALDERØYA" />
		<tag k="amenity" v="kindergarten" />
		<tag k="capacity" v="94" />
		<tag k="contact:website" v="http://www.gnistbarnehager.no" />
		<tag k="max_age" v="5" />
		<tag k="min_age" v="1" />
		<tag k="name" v="Gnist barnehager Sætra" />
		<tag k="no-barnehage:nsrid" v="995737353" />
		<tag k="operator" v="Gnist barnehager Sætra AS" />
		<tag k="operator:type" v="private" />
	</node>
	<node id="-1323" lat="0.0" lon="0.0">
		<tag k="ADDRESS" v=", 6050 VALDERØYA" />
		<tag k="amenity" v="kindergarten" />
		<tag k="capacity" v="38" />
		<tag k="max_age" v="5" />
		<tag k="min_age" v="1" />
		<tag k="name" v="Myra barnehage" />
		<tag k="no-barnehage:nsrid" v="973448781" />
		<tag k="operator" v="Myra barnehage Sa" />
		<tag k="operator:type" v="private" />
	</node>
	<node id="-1324" lat="0.0" lon="0.0">
		<tag k="ADDRESS" v=", 6055 GODØYA" />
		<tag k="amenity" v="kindergarten" />
		<tag k="capacity" v="70" />
		<tag k="max_age" v="5" />
		<tag k="min_age" v="1" />
		<tag k="name" v="NLM barnehagene avd. Tryggheim barnehage Godøya" />
		<tag k="no-barnehage:nsrid" v="974187620" />
		<tag k="operator" v="Nlm-Barnehagene AS" />
		<tag k="operator:type" v="private" />
	</node>
	<node id="-1325" lat="62.50375" lon="6.10971">
		<tag k="ADDRESS" v="Øvre Skjong 2, 6050 VALDERØYA" />
		<tag k="amenity" v="kindergarten" />
		<tag k="capacity" v="57" />
		<tag k="max_age" v="5" />
		<tag k="min_age" v="1" />
		<tag k="name" v="Skjong barnehage" />
		<tag k="no-barnehage:nsrid" v="973747223" />
		<tag k="operator" v="Skjong barnehage Sa" />
		<tag k="operator:type" v="private" />
	</node>
	<node id="-1326" lat="0.0" lon="0.0">
		<tag k="ADDRESS" v="Roald, 6040 VIGRA" />
		<tag k="amenity" v="kindergarten" />
		<tag k="capacity" v="59" />
		<tag k="max_age" v="5" />
		<tag k="min_age" v="1" />
		<tag k="name" v="Vigra barnehage" />
		<tag k="no-barnehage:nsrid" v="974011530" />
		<tag k="operator" v="Giske kommune" />
		<tag k="operator:type" v="public" />
	</node>
</osm>
