<?xml version="1.0" encoding="UTF-8"?>
<osm generator="osmapis" version="0.6">
	<node id="-4672" lat="62.5108" lon="6.108403">
		<tag k="amenity" v="kindergarten" />
		<tag k="capacity" v="49" />
		<tag k="contact:email" v="styrer@skjongbarnehage.no" />
		<tag k="contact:phone" v="70 18 15 85" />
		<tag k="max_age" v="5" />
		<tag k="min_age" v="1" />
		<tag k="name" v="Skjong barnehage" />
		<tag k="no-barnehage:nsrid" v="1020213" />
		<tag k="operator" v="Skjong barnehage Sa" />
		<tag k="operator:type" v="private" />
		<tag k="start_date" v="1989-01-01" />
	</node>
	<node id="-4671" lat="62.4736" lon="5.97917">
		<tag k="amenity" v="kindergarten" />
		<tag k="capacity" v="62" />
		<tag k="contact:phone" v="70 18 52 53" />
		<tag k="max_age" v="5" />
		<tag k="min_age" v="1" />
		<tag k="name" v="Nlm Barnehagene AS Avd Tryggheim Barnehage Godøya" />
		<tag k="no-barnehage:nsrid" v="1016213" />
		<tag k="operator" v="Nlm-Barnehagene AS" />
		<tag k="operator:type" v="private" />
		<tag k="start_date" v="1989-01-02" />
	</node>
	<node id="-4670" lat="62.5108" lon="6.108403">
		<tag k="amenity" v="kindergarten" />
		<tag k="capacity" v="31" />
		<tag k="contact:email" v="myra@barnehage.no" />
		<tag k="contact:phone" v="70 18 12 51" />
		<tag k="max_age" v="5" />
		<tag k="min_age" v="1" />
		<tag k="name" v="Myra barnehage" />
		<tag k="no-barnehage:nsrid" v="1019655" />
		<tag k="operator" v="Myra barnehage Sa" />
		<tag k="operator:type" v="private" />
		<tag k="start_date" v="1988-01-01" />
	</node>
	<node id="-4669" lat="62.51175" lon="6.106343">
		<tag k="amenity" v="kindergarten" />
		<tag k="capacity" v="99" />
		<tag k="contact:email" v="firmapost@gnistbarnehager.no" />
		<tag k="contact:phone" v="40 00 65 96" />
		<tag k="contact:website" v="http://www.gnistbarnehager.no" />
		<tag k="max_age" v="5" />
		<tag k="min_age" v="1" />
		<tag k="name" v="Gnist Barnehager Sætra AS" />
		<tag k="no-barnehage:nsrid" v="1022085" />
		<tag k="operator" v="Gnist Barnehager Sætra AS" />
		<tag k="operator:type" v="private" />
		<tag k="start_date" v="2010-07-06" />
	</node>
	<node id="-4668" lat="62.51435" lon="6.129721">
		<tag k="amenity" v="kindergarten" />
		<tag k="capacity" v="119" />
		<tag k="contact:email" v="firmapost@gnistbarnehager.no" />
		<tag k="contact:phone" v="40 00 65 96" />
		<tag k="contact:website" v="http://www.gnistbarnehager.no" />
		<tag k="max_age" v="5" />
		<tag k="min_age" v="1" />
		<tag k="name" v="Gnist Barnehager Nordstrand AS" />
		<tag k="no-barnehage:nsrid" v="1021661" />
		<tag k="operator" v="Gnist Barnehager Nordstrand AS" />
		<tag k="operator:type" v="private" />
		<tag k="start_date" v="2007-04-26" />
	</node>
	<node id="-4667" lat="62.498" lon="6.04581">
		<tag k="amenity" v="kindergarten" />
		<tag k="capacity" v="55" />
		<tag k="contact:email" v="post@giske.kommune.no" />
		<tag k="contact:phone" v="70 18 80 00" />
		<tag k="max_age" v="5" />
		<tag k="min_age" v="1" />
		<tag k="name" v="Giske barnehage" />
		<tag k="no-barnehage:nsrid" v="1016106" />
		<tag k="operator" v="Giske kommune" />
		<tag k="operator:type" v="public" />
		<tag k="start_date" v="1989-01-01" />
	</node>
	<node id="-4666" lat="62.4973" lon="6.13256">
		<tag k="amenity" v="kindergarten" />
		<tag k="capacity" v="56" />
		<tag k="contact:email" v="post@daggrybarnehage.no" />
		<tag k="contact:phone" v="70182497" />
		<tag k="max_age" v="5" />
		<tag k="min_age" v="1" />
		<tag k="name" v="Daggry barnehage" />
		<tag k="no-barnehage:nsrid" v="1015545" />
		<tag k="operator" v="Sunnmøre Indremisjon" />
		<tag k="operator:type" v="private" />
		<tag k="start_date" v="1978-12-24" />
	</node>
	<node id="-4674" lat="62.5823" lon="6.12306">
		<tag k="amenity" v="kindergarten" />
		<tag k="capacity" v="61" />
		<tag k="contact:email" v="post@giske.kommune.no" />
		<tag k="contact:phone" v="70 18 80 00" />
		<tag k="max_age" v="5" />
		<tag k="min_age" v="1" />
		<tag k="name" v="Vigra barnehage" />
		<tag k="no-barnehage:nsrid" v="1016107" />
		<tag k="operator" v="Giske kommune" />
		<tag k="operator:type" v="public" />
		<tag k="start_date" v="1989-01-01" />
	</node>
	<node id="-4673" lat="62.47044" lon="6.125558">
		<tag k="amenity" v="kindergarten" />
		<tag k="contact:phone" v="918 80 383" />
		<tag k="name" v="Støbakkvik Besøksgard" />
		<tag k="no-barnehage:nsrid" v="1026209" />
		<tag k="operator" v="Linda Austnes" />
		<tag k="operator:type" v="private" />
		<tag k="start_date" v="2015-10-01" />
	</node>
</osm>
