<?xml version="1.0" encoding="UTF-8"?>
<osm generator="osmapis" version="0.6">
	<node id="-4319" lat="58.76474" lon="5.83401">
		<tag k="amenity" v="kindergarten" />
		<tag k="capacity" v="103" />
		<tag k="max_age" v="5" />
		<tag k="min_age" v="1" />
		<tag k="name" v="Øygardsvatnet barnehage" />
		<tag k="no-barnehage:nsrid" v="2000219" />
		<tag k="operator" v="Gjesdal kommune" />
		<tag k="operator:type" v="public" />
	</node>
	<node id="-4318" lat="58.77155" lon="5.83061">
		<tag k="amenity" v="kindergarten" />
		<tag k="name" v="Trollungen familiebarnehage Gro Kristin Tollefsen" />
		<tag k="no-barnehage:nsrid" v="1020640" />
		<tag k="operator" v="Trollungen Familiebarnehage Gro Kristin Tollefsen" />
		<tag k="operator:type" v="private" />
	</node>
	<node id="-4317" lat="58.76965" lon="5.86896">
		<tag k="amenity" v="kindergarten" />
		<tag k="capacity" v="42" />
		<tag k="max_age" v="5" />
		<tag k="min_age" v="1" />
		<tag k="name" v="Solås barnehage" />
		<tag k="no-barnehage:nsrid" v="1018092" />
		<tag k="operator" v="Gjesdal kommune" />
		<tag k="operator:type" v="public" />
	</node>
	<node id="-4316" lat="58.77349" lon="5.85328">
		<tag k="amenity" v="kindergarten" />
		<tag k="capacity" v="113" />
		<tag k="max_age" v="5" />
		<tag k="min_age" v="1" />
		<tag k="name" v="Rishagen FUS barnehage" />
		<tag k="no-barnehage:nsrid" v="1021726" />
		<tag k="operator" v="Rishagen Fus barnehage AS" />
		<tag k="operator:type" v="private" />
	</node>
	<node id="-4315" lat="58.82974" lon="6.04428">
		<tag k="amenity" v="kindergarten" />
		<tag k="capacity" v="78" />
		<tag k="max_age" v="5" />
		<tag k="min_age" v="1" />
		<tag k="name" v="Oltedal barnehage" />
		<tag k="no-barnehage:nsrid" v="1018091" />
		<tag k="operator" v="Gjesdal kommune" />
		<tag k="operator:type" v="public" />
	</node>
	<node id="-4314" lat="58.76487" lon="5.83292">
		<tag k="amenity" v="kindergarten" />
		<tag k="capacity" v="69" />
		<tag k="max_age" v="5" />
		<tag k="min_age" v="1" />
		<tag k="name" v="Nesjane barnehage" />
		<tag k="no-barnehage:nsrid" v="1013281" />
		<tag k="operator" v="Gjesdal kommune" />
		<tag k="operator:type" v="public" />
	</node>
	<node id="-4312" lat="58.77517" lon="5.87092">
		<tag k="amenity" v="kindergarten" />
		<tag k="capacity" v="74" />
		<tag k="max_age" v="5" />
		<tag k="min_age" v="1" />
		<tag k="name" v="Kodlidalen barnehage" />
		<tag k="no-barnehage:nsrid" v="1017256" />
		<tag k="operator" v="Gjesdal kommune" />
		<tag k="operator:type" v="public" />
	</node>
	<node id="-4311" lat="58.80728" lon="6.25191">
		<tag k="amenity" v="kindergarten" />
		<tag k="capacity" v="43" />
		<tag k="max_age" v="5" />
		<tag k="min_age" v="1" />
		<tag k="name" v="Gilja barnehage" />
		<tag k="no-barnehage:nsrid" v="1018514" />
		<tag k="operator" v="Gjesdal kommune" />
		<tag k="operator:type" v="public" />
	</node>
	<node id="-4310" lat="58.7711" lon="5.86323">
		<tag k="amenity" v="kindergarten" />
		<tag k="capacity" v="122" />
		<tag k="max_age" v="5" />
		<tag k="min_age" v="1" />
		<tag k="name" v="Flassabekken barnehage" />
		<tag k="no-barnehage:nsrid" v="1015152" />
		<tag k="operator" v="Gjesdal kommune" />
		<tag k="operator:type" v="public" />
	</node>
	<node id="-4309" lat="58.77062" lon="5.87498">
		<tag k="amenity" v="kindergarten" />
		<tag k="capacity" v="62" />
		<tag k="contact:website" v="http://www.minbarnehage.no/fiskebekk" />
		<tag k="max_age" v="5" />
		<tag k="min_age" v="1" />
		<tag k="name" v="Fiskebekk barnehage" />
		<tag k="no-barnehage:nsrid" v="1020759" />
		<tag k="operator" v="Fiskebekk barnehage Sa" />
		<tag k="operator:type" v="private" />
	</node>
	<node id="-4308" lat="58.76705" lon="5.85263">
		<tag k="amenity" v="kindergarten" />
		<tag k="capacity" v="70" />
		<tag k="max_age" v="5" />
		<tag k="min_age" v="1" />
		<tag k="name" v="Bruhammaren FUS barnehage" />
		<tag k="no-barnehage:nsrid" v="1021556" />
		<tag k="operator" v="Bruhammaren Fus barnehage AS" />
		<tag k="operator:type" v="private" />
	</node>
	<node id="-4307" lat="58.77381" lon="5.83878">
		<tag k="amenity" v="kindergarten" />
		<tag k="capacity" v="64" />
		<tag k="max_age" v="5" />
		<tag k="min_age" v="1" />
		<tag k="name" v="Bamsebo barnehage" />
		<tag k="no-barnehage:nsrid" v="1015004" />
		<tag k="operator" v="Gjesdal kommune" />
		<tag k="operator:type" v="public" />
	</node>
</osm>
