<?xml version="1.0" encoding="UTF-8"?>
<osm generator="osmapis" version="0.6">
	<node id="-3584" lat="58.7696" lon="5.86896">
		<tag k="amenity" v="kindergarten" />
		<tag k="capacity" v="44" />
		<tag k="contact:email" v="May.Britt.Nordtveit@gjesdal.kommune.no" />
		<tag k="contact:phone" v="+47 51 61 32 55" />
		<tag k="max_age" v="5" />
		<tag k="min_age" v="1" />
		<tag k="name" v="Solås barnehage" />
		<tag k="no-barnehage:nsrid" v="1018092" />
		<tag k="operator" v="Gjesdal kommune" />
		<tag k="operator:type" v="public" />
		<tag k="start_date" v="1989-01-01" />
	</node>
	<node id="-3583" lat="58.77339" lon="5.851936">
		<tag k="amenity" v="kindergarten" />
		<tag k="capacity" v="108" />
		<tag k="contact:email" v="dl.rishagen@bhg.no" />
		<tag k="contact:phone" v="+47 94131855" />
		<tag k="max_age" v="5" />
		<tag k="min_age" v="1" />
		<tag k="name" v="Rishagen Fus barnehage AS" />
		<tag k="no-barnehage:nsrid" v="1021726" />
		<tag k="operator" v="Rishagen Fus barnehage AS" />
		<tag k="operator:type" v="private" />
		<tag k="start_date" v="2007-10-15" />
	</node>
	<node id="-3582" lat="58.8265" lon="6.0342">
		<tag k="amenity" v="kindergarten" />
		<tag k="capacity" v="88" />
		<tag k="contact:email" v="irene.Hoiland@gjesdal.kommune.no" />
		<tag k="contact:phone" v="+47 51 61 65 25" />
		<tag k="max_age" v="5" />
		<tag k="min_age" v="1" />
		<tag k="name" v="Oltedal barnehage" />
		<tag k="no-barnehage:nsrid" v="1018091" />
		<tag k="operator" v="Gjesdal kommune" />
		<tag k="operator:type" v="public" />
		<tag k="start_date" v="1989-01-01" />
	</node>
	<node id="-3581" lat="58.7649" lon="5.83292">
		<tag k="amenity" v="kindergarten" />
		<tag k="capacity" v="73" />
		<tag k="contact:email" v="irene.paulsen.salte@gjesdal.kommune.no" />
		<tag k="contact:phone" v="+47 51 61 72 23" />
		<tag k="max_age" v="5" />
		<tag k="min_age" v="1" />
		<tag k="name" v="Nesjane barnehage" />
		<tag k="no-barnehage:nsrid" v="1013281" />
		<tag k="operator" v="Gjesdal kommune" />
		<tag k="operator:type" v="public" />
		<tag k="start_date" v="2005-08-01" />
	</node>
	<node id="-3579" lat="58.7751" lon="5.87083">
		<tag k="amenity" v="kindergarten" />
		<tag k="capacity" v="77" />
		<tag k="contact:email" v="marianne.h.grande@gjesdal.kommune.no" />
		<tag k="contact:phone" v="+47 51 61 59 00" />
		<tag k="max_age" v="5" />
		<tag k="min_age" v="1" />
		<tag k="name" v="Kodlidalen barnehage" />
		<tag k="no-barnehage:nsrid" v="1017256" />
		<tag k="operator" v="Gjesdal kommune" />
		<tag k="operator:type" v="public" />
		<tag k="start_date" v="2006-08-01" />
	</node>
	<node id="-3578" lat="58.7733" lon="5.86523">
		<tag k="amenity" v="kindergarten" />
		<tag k="capacity" v="50" />
		<tag k="contact:email" v="anne.hoff@gjesdal.kommune.no" />
		<tag k="contact:phone" v="+47 51614870" />
		<tag k="max_age" v="5" />
		<tag k="min_age" v="1" />
		<tag k="name" v="Husafjell barnehage" />
		<tag k="no-barnehage:nsrid" v="1014769" />
		<tag k="operator" v="Gjesdal kommune" />
		<tag k="operator:type" v="public" />
		<tag k="start_date" v="1994-08-01" />
	</node>
	<node id="-3577" lat="58.7678" lon="5.84961">
		<tag k="amenity" v="kindergarten" />
		<tag k="contact:phone" v="+47 51 61 32 60" />
		<tag k="name" v="Gjesdal kommune Åpen barnehage" />
		<tag k="no-barnehage:nsrid" v="1014794" />
		<tag k="operator" v="Gjesdal kommune" />
		<tag k="operator:type" v="public" />
		<tag k="start_date" v="1993-08-01" />
	</node>
	<node id="-3576" lat="58.8068" lon="6.2534">
		<tag k="amenity" v="kindergarten" />
		<tag k="capacity" v="55" />
		<tag k="contact:email" v="Beate.Grande.Karlsen@gjesdal.kommune.no" />
		<tag k="contact:phone" v="+47 51616323" />
		<tag k="max_age" v="5" />
		<tag k="min_age" v="1" />
		<tag k="name" v="Gilja barnehage" />
		<tag k="no-barnehage:nsrid" v="1018514" />
		<tag k="operator" v="Gjesdal kommune" />
		<tag k="operator:type" v="public" />
		<tag k="start_date" v="2008-09-01" />
	</node>
	<node id="-3575" lat="58.7679" lon="5.84572">
		<tag k="amenity" v="kindergarten" />
		<tag k="capacity" v="155" />
		<tag k="contact:email" v="jan.frode.bollestad@gjesdal.kommune.no" />
		<tag k="contact:phone" v="+47 51 61 48 50" />
		<tag k="max_age" v="5" />
		<tag k="min_age" v="1" />
		<tag k="name" v="Flassabekken barnehage" />
		<tag k="no-barnehage:nsrid" v="1015152" />
		<tag k="operator" v="Gjesdal kommune" />
		<tag k="operator:type" v="public" />
		<tag k="start_date" v="2012-08-01" />
	</node>
	<node id="-3574" lat="58.77062" lon="5.87498">
		<tag k="amenity" v="kindergarten" />
		<tag k="capacity" v="62" />
		<tag k="contact:email" v="daglig-leder@fiskebekkbarnehage.no" />
		<tag k="contact:phone" v="+47 51 61 24 90" />
		<tag k="contact:website" v="http://www.minbarnehage.no/fiskebekk" />
		<tag k="max_age" v="5" />
		<tag k="min_age" v="1" />
		<tag k="name" v="Fiskebekk barnehage Sa" />
		<tag k="no-barnehage:nsrid" v="1020759" />
		<tag k="operator" v="Fiskebekk barnehage Sa" />
		<tag k="operator:type" v="private" />
		<tag k="start_date" v="2002-09-01" />
	</node>
	<node id="-3573" lat="58.7763" lon="5.82547">
		<tag k="amenity" v="kindergarten" />
		<tag k="capacity" v="30" />
		<tag k="contact:email" v="anne.gro.haland@gjesdal.kommune.no" />
		<tag k="contact:phone" v="+47 51614847" />
		<tag k="max_age" v="5" />
		<tag k="min_age" v="1" />
		<tag k="name" v="Bærland barnehage" />
		<tag k="no-barnehage:nsrid" v="1018089" />
		<tag k="operator" v="Gjesdal kommune" />
		<tag k="operator:type" v="public" />
		<tag k="start_date" v="1989-01-01" />
	</node>
	<node id="-3572" lat="58.76704" lon="5.852637">
		<tag k="amenity" v="kindergarten" />
		<tag k="capacity" v="71" />
		<tag k="contact:email" v="dl.bruhammaren@bhg.no" />
		<tag k="contact:phone" v="+47 91240882" />
		<tag k="max_age" v="5" />
		<tag k="min_age" v="1" />
		<tag k="name" v="Bruhammaren Fus barnehage AS" />
		<tag k="no-barnehage:nsrid" v="1021556" />
		<tag k="operator" v="Bruhammaren Fus barnehage AS" />
		<tag k="operator:type" v="private" />
		<tag k="start_date" v="2006-12-01" />
	</node>
	<node id="-3571" lat="58.7738" lon="5.83879">
		<tag k="amenity" v="kindergarten" />
		<tag k="capacity" v="69" />
		<tag k="contact:email" v="kari.hadland@gjesdal.kommune.no" />
		<tag k="contact:phone" v="+47 51614840" />
		<tag k="max_age" v="5" />
		<tag k="min_age" v="1" />
		<tag k="name" v="Bamsebo barnehage" />
		<tag k="no-barnehage:nsrid" v="1015004" />
		<tag k="operator" v="Gjesdal kommune" />
		<tag k="operator:type" v="public" />
		<tag k="start_date" v="1990-07-01" />
	</node>
</osm>
