<?xml version="1.0" encoding="UTF-8"?>
<osm generator="osmapis" version="0.6">
	<node id="-5083" lat="63.50921" lon="10.01623">
		<tag k="amenity" v="kindergarten" />
		<tag k="capacity" v="32" />
		<tag k="contact:email" v="monika.eriksson@tungtro.no" />
		<tag k="max_age" v="5" />
		<tag k="min_age" v="1" />
		<tag k="name" v="Tungtrø barnehage AS" />
		<tag k="no-barnehage:nsrid" v="1022197" />
		<tag k="operator" v="Tungtrø barnehage AS" />
		<tag k="operator:type" v="private" />
		<tag k="start_date" v="2002-08-01" />
	</node>
	<node id="-5082" lat="63.58234" lon="9.959318">
		<tag k="amenity" v="kindergarten" />
		<tag k="capacity" v="30" />
		<tag k="contact:email" v="post@tryllefloytenmusikkbhg.no" />
		<tag k="contact:phone" v="+47 45219982" />
		<tag k="contact:website" v="http://www.tryllefloytenbhg.barnehageside.no/" />
		<tag k="max_age" v="5" />
		<tag k="min_age" v="1" />
		<tag k="name" v="Tryllefløyten Musikkbarnehage AS" />
		<tag k="no-barnehage:nsrid" v="1022276" />
		<tag k="operator" v="Tryllefløyten Musikkbarnehage AS" />
		<tag k="operator:type" v="private" />
		<tag k="start_date" v="2012-04-11" />
	</node>
	<node id="-5081" lat="63.5837" lon="9.95989">
		<tag k="amenity" v="kindergarten" />
		<tag k="capacity" v="21" />
		<tag k="contact:email" v="dagrun.solli@rissa.kommune.no" />
		<tag k="max_age" v="5" />
		<tag k="min_age" v="1" />
		<tag k="name" v="Skogly Friluftsbarnehage" />
		<tag k="no-barnehage:nsrid" v="1015925" />
		<tag k="operator" v="Rissa kommune" />
		<tag k="operator:type" v="public" />
		<tag k="start_date" v="1989-01-02" />
	</node>
	<node id="-5080" lat="63.6506" lon="10.14983">
		<tag k="amenity" v="kindergarten" />
		<tag k="capacity" v="27" />
		<tag k="contact:email" v="magni@skaugdalen-barnehage.no" />
		<tag k="contact:phone" v="+47 73854014" />
		<tag k="max_age" v="5" />
		<tag k="min_age" v="1" />
		<tag k="name" v="Skaugdalen barnehage Sa" />
		<tag k="no-barnehage:nsrid" v="1019735" />
		<tag k="operator" v="Skaugdalen barnehage Sa" />
		<tag k="operator:type" v="private" />
		<tag k="start_date" v="1988-01-02" />
	</node>
	<node id="-5079" lat="63.5837" lon="9.95989">
		<tag k="amenity" v="kindergarten" />
		<tag k="capacity" v="73" />
		<tag k="contact:email" v="anne.kristin.utseth@rissa.kommune.no" />
		<tag k="contact:phone" v="+47 73852809" />
		<tag k="max_age" v="5" />
		<tag k="min_age" v="1" />
		<tag k="name" v="Høgåsmyra barnehage" />
		<tag k="no-barnehage:nsrid" v="1018233" />
		<tag k="operator" v="Rissa kommune" />
		<tag k="operator:type" v="public" />
		<tag k="start_date" v="1989-01-01" />
	</node>
	<node id="-5078" lat="63.58368" lon="9.959888">
		<tag k="amenity" v="kindergarten" />
		<tag k="capacity" v="21" />
		<tag k="contact:email" v="fosnaheim@fosnaheim.no" />
		<tag k="contact:phone" v="+47 510220000" />
		<tag k="contact:website" v="http://www.fosnaheim.no" />
		<tag k="max_age" v="5" />
		<tag k="min_age" v="1" />
		<tag k="name" v="Fosnaheim Naturbarnehage" />
		<tag k="no-barnehage:nsrid" v="1019816" />
		<tag k="operator" v="Fosnaheim Barnehagelag Sa" />
		<tag k="operator:type" v="private" />
		<tag k="start_date" v="1989-01-02" />
	</node>
	<node id="-5077" lat="63.6827" lon="9.85442">
		<tag k="amenity" v="kindergarten" />
		<tag k="capacity" v="12" />
		<tag k="contact:email" v="klara.adolfsen@rissa.kommune.no" />
		<tag k="contact:phone" v="+47 73 85 39 40" />
		<tag k="max_age" v="5" />
		<tag k="min_age" v="1" />
		<tag k="name" v="Fevåg barnehage" />
		<tag k="no-barnehage:nsrid" v="1015924" />
		<tag k="operator" v="Rissa kommune" />
		<tag k="operator:type" v="public" />
		<tag k="start_date" v="1989-01-02" />
	</node>
	<node id="-5076" lat="63.4973" lon="10.0145">
		<tag k="amenity" v="kindergarten" />
		<tag k="capacity" v="67" />
		<tag k="contact:email" v="tove.gustad@rissa.kommune.no" />
		<tag k="contact:phone" v="+47 73855490" />
		<tag k="max_age" v="5" />
		<tag k="min_age" v="1" />
		<tag k="name" v="Fembøringen barnehage" />
		<tag k="no-barnehage:nsrid" v="1016114" />
		<tag k="operator" v="Rissa kommune" />
		<tag k="operator:type" v="public" />
		<tag k="start_date" v="1989-01-01" />
	</node>
	<node id="-5075" lat="63.7647" lon="10.0793">
		<tag k="amenity" v="kindergarten" />
		<tag k="capacity" v="19" />
		<tag k="contact:email" v="klara.adolfsen@rissa.kommune.no" />
		<tag k="contact:phone" v="+47 73853462" />
		<tag k="max_age" v="5" />
		<tag k="min_age" v="1" />
		<tag k="name" v="Fagerbakken barnehage" />
		<tag k="no-barnehage:nsrid" v="1015923" />
		<tag k="operator" v="Rissa kommune" />
		<tag k="operator:type" v="public" />
		<tag k="start_date" v="1989-01-02" />
	</node>
	<node id="-5074" lat="63.49734" lon="10.01452">
		<tag k="amenity" v="kindergarten" />
		<tag k="capacity" v="19" />
		<tag k="contact:email" v="akrobaten.barnehage@gmail.com" />
		<tag k="contact:phone" v="+47 99 31 76 55" />
		<tag k="max_age" v="5" />
		<tag k="min_age" v="1" />
		<tag k="name" v="Akrobaten - barnehage AS" />
		<tag k="no-barnehage:nsrid" v="1025461" />
		<tag k="operator" v="Akrobaten - barnehage AS" />
		<tag k="operator:type" v="private" />
		<tag k="start_date" v="2014-04-08" />
	</node>
</osm>
