<?xml version="1.0" encoding="UTF-8"?>
<osm version="0.6" generator="osmapis">
	<node lat="61.2432" lon="7.7126" id="-4499">
		<tag k="ADDRESS" v="Vollevegen 9, 6885 ÅRDALSTANGEN" />
		<tag k="amenity" v="kindergarten" />
		<tag k="capacity" v="48" />
		<tag k="max_age" v="5" />
		<tag k="min_age" v="1" />
		<tag k="name" v="Einehaugen barnehage" />
		<tag k="no-barnehage:nsrid" v="975315398" />
		<tag k="operator" v="Årdal kommune" />
		<tag k="operator:type" v="public" />
	</node>
	<node lat="61.31027" lon="7.79984" id="-4500">
		<tag k="ADDRESS" v="Kyrkjevegen 2, 6884 ØVRE ÅRDAL" />
		<tag k="amenity" v="kindergarten" />
		<tag k="capacity" v="40" />
		<tag k="max_age" v="5" />
		<tag k="min_age" v="1" />
		<tag k="name" v="Farnes barnehage" />
		<tag k="no-barnehage:nsrid" v="975295346" />
		<tag k="operator" v="Årdal kommune" />
		<tag k="operator:type" v="public" />
	</node>
	<node lat="61.30849" lon="7.79408" id="-4501">
		<tag k="ADDRESS" v="Farnesvegen 58A, 6884 ØVRE ÅRDAL" />
		<tag k="amenity" v="kindergarten" />
		<tag k="capacity" v="30" />
		<tag k="max_age" v="5" />
		<tag k="min_age" v="1" />
		<tag k="name" v="Haugane barnehage" />
		<tag k="no-barnehage:nsrid" v="976974328" />
		<tag k="operator" v="Årdal kommune" />
		<tag k="operator:type" v="public" />
	</node>
	<node lat="61.31213" lon="7.79161" id="-4502">
		<tag k="ADDRESS" v="Uravegen 1, 6884 ØVRE ÅRDAL" />
		<tag k="amenity" v="kindergarten" />
		<tag k="capacity" v="38" />
		<tag k="max_age" v="5" />
		<tag k="min_age" v="1" />
		<tag k="name" v="Uravegen barnehage" />
		<tag k="no-barnehage:nsrid" v="975309762" />
		<tag k="operator" v="Årdal kommune" />
		<tag k="operator:type" v="public" />
	</node>
	<node lat="61.30721" lon="7.81265" id="-4503">
		<tag k="ADDRESS" v="Årdalsvegen 10A, 6884 ØVRE ÅRDAL" />
		<tag k="amenity" v="kindergarten" />
		<tag k="capacity" v="27" />
		<tag k="max_age" v="5" />
		<tag k="min_age" v="1" />
		<tag k="name" v="Ve barnehage" />
		<tag k="no-barnehage:nsrid" v="975295354" />
		<tag k="operator" v="Årdal kommune" />
		<tag k="operator:type" v="public" />
	</node>
	<node lat="61.23806" lon="7.70146" id="-4504">
		<tag k="ADDRESS" v="Hydrovegen 12, 6885 ÅRDALSTANGEN" />
		<tag k="amenity" v="kindergarten" />
		<tag k="capacity" v="28" />
		<tag k="max_age" v="5" />
		<tag k="min_age" v="1" />
		<tag k="name" v="Årdalstangen barnehage" />
		<tag k="no-barnehage:nsrid" v="975309789" />
		<tag k="operator" v="Årdal kommune" />
		<tag k="operator:type" v="public" />
	</node>
</osm>
