<?xml version="1.0" encoding="UTF-8"?>
<osm generator="osmapis" version="0.6">
	<node id="-256" lat="59.72729" lon="10.82666">
		<tag k="amenity" v="kindergarten" />
		<tag k="capacity" v="76" />
		<tag k="contact:website" v="http://hebekkskogen.no" />
		<tag k="max_age" v="5" />
		<tag k="min_age" v="1" />
		<tag k="name" v="Hebekkskogen barnehage" />
		<tag k="no-barnehage:nsrid" v="1020716" />
		<tag k="operator" v="Hebekkskogen Sa" />
		<tag k="operator:type" v="private" />
	</node>
	<node id="-255" lat="59.71495" lon="10.83093">
		<tag k="amenity" v="kindergarten" />
		<tag k="capacity" v="76" />
		<tag k="max_age" v="5" />
		<tag k="min_age" v="1" />
		<tag k="name" v="Finstadbekken barnehage" />
		<tag k="no-barnehage:nsrid" v="1026020" />
		<tag k="operator" v="Ski kommune" />
		<tag k="operator:type" v="public" />
	</node>
	<node id="-254" lat="59.7162" lon="10.8635">
		<tag k="amenity" v="kindergarten" />
		<tag k="capacity" v="53" />
		<tag k="max_age" v="5" />
		<tag k="min_age" v="1" />
		<tag k="name" v="Dynamitten barnehage" />
		<tag k="no-barnehage:nsrid" v="1012847" />
		<tag k="operator" v="Ski kommune" />
		<tag k="operator:type" v="public" />
	</node>
	<node id="-253" lat="59.74863" lon="10.82863">
		<tag k="amenity" v="kindergarten" />
		<tag k="capacity" v="63" />
		<tag k="max_age" v="5" />
		<tag k="min_age" v="1" />
		<tag k="name" v="Dalstunet barnehage" />
		<tag k="no-barnehage:nsrid" v="1021180" />
		<tag k="operator" v="Dalstunet Foreldrelagsbarnehage Sa" />
		<tag k="operator:type" v="private" />
	</node>
	<node id="-252" lat="59.7252" lon="10.862">
		<tag k="amenity" v="kindergarten" />
		<tag k="capacity" v="38" />
		<tag k="max_age" v="5" />
		<tag k="min_age" v="1" />
		<tag k="name" v="Bakkebygrenda barnehage" />
		<tag k="no-barnehage:nsrid" v="1017884" />
		<tag k="operator" v="Ski kommune" />
		<tag k="operator:type" v="public" />
	</node>
	<node id="-274" lat="59.7575" lon="10.8474">
		<tag k="amenity" v="kindergarten" />
		<tag k="capacity" v="50" />
		<tag k="max_age" v="5" />
		<tag k="min_age" v="1" />
		<tag k="name" v="Vevelstadåsen barnehage" />
		<tag k="no-barnehage:nsrid" v="1012843" />
		<tag k="operator" v="Ski kommune" />
		<tag k="operator:type" v="public" />
	</node>
	<node id="-273" lat="59.75697" lon="10.84069">
		<tag k="amenity" v="kindergarten" />
		<tag k="capacity" v="74" />
		<tag k="contact:website" v="http://vevelstadsaga.no" />
		<tag k="max_age" v="5" />
		<tag k="min_age" v="1" />
		<tag k="name" v="Vevelstadsaga barnehage" />
		<tag k="no-barnehage:nsrid" v="1020441" />
		<tag k="operator" v="Vevelstadsaga barnehage Sa" />
		<tag k="operator:type" v="private" />
	</node>
	<node id="-272" lat="59.7221" lon="10.8381">
		<tag k="amenity" v="kindergarten" />
		<tag k="capacity" v="82" />
		<tag k="max_age" v="5" />
		<tag k="min_age" v="1" />
		<tag k="name" v="Vestråt barnehage" />
		<tag k="no-barnehage:nsrid" v="1012839" />
		<tag k="operator" v="Ski kommune" />
		<tag k="operator:type" v="public" />
	</node>
	<node id="-271" lat="59.7211" lon="10.84">
		<tag k="amenity" v="kindergarten" />
		<tag k="capacity" v="24" />
		<tag k="max_age" v="5" />
		<tag k="min_age" v="1" />
		<tag k="name" v="Spilloppen barnehage" />
		<tag k="no-barnehage:nsrid" v="1016218" />
		<tag k="operator" v="Ski Kvinne &amp; Familieforbund" />
		<tag k="operator:type" v="private" />
	</node>
	<node id="-270" lat="59.7573" lon="10.8287">
		<tag k="amenity" v="kindergarten" />
		<tag k="capacity" v="67" />
		<tag k="max_age" v="5" />
		<tag k="min_age" v="1" />
		<tag k="name" v="Smedsrud barnehage" />
		<tag k="no-barnehage:nsrid" v="1012846" />
		<tag k="operator" v="Ski kommune" />
		<tag k="operator:type" v="public" />
	</node>
	<node id="-269" lat="59.65867" lon="10.9488">
		<tag k="amenity" v="kindergarten" />
		<tag k="capacity" v="36" />
		<tag k="contact:website" v="http://www.ski.kommune.no" />
		<tag k="max_age" v="5" />
		<tag k="min_age" v="1" />
		<tag k="name" v="Skotbu barnehage" />
		<tag k="no-barnehage:nsrid" v="2000038" />
		<tag k="operator" v="Ski kommune" />
		<tag k="operator:type" v="public" />
	</node>
	<node id="-268" lat="59.7624" lon="10.863">
		<tag k="amenity" v="kindergarten" />
		<tag k="capacity" v="59" />
		<tag k="max_age" v="5" />
		<tag k="min_age" v="1" />
		<tag k="name" v="Skoglia barnehage" />
		<tag k="no-barnehage:nsrid" v="1015987" />
		<tag k="operator" v="Ski kommune" />
		<tag k="operator:type" v="public" />
	</node>
	<node id="-267" lat="59.7264" lon="10.863">
		<tag k="amenity" v="kindergarten" />
		<tag k="capacity" v="76" />
		<tag k="max_age" v="5" />
		<tag k="min_age" v="1" />
		<tag k="name" v="Skoghus barnehage" />
		<tag k="no-barnehage:nsrid" v="1012840" />
		<tag k="operator" v="Ski kommune" />
		<tag k="operator:type" v="public" />
	</node>
	<node id="-264" lat="59.7942" lon="10.883">
		<tag k="amenity" v="kindergarten" />
		<tag k="capacity" v="64" />
		<tag k="max_age" v="5" />
		<tag k="min_age" v="1" />
		<tag k="name" v="Siggerud gård barnehage" />
		<tag k="no-barnehage:nsrid" v="1013417" />
		<tag k="operator" v="Ski kommune" />
		<tag k="operator:type" v="public" />
	</node>
	<node id="-263" lat="59.7903" lon="10.8902">
		<tag k="amenity" v="kindergarten" />
		<tag k="capacity" v="78" />
		<tag k="max_age" v="5" />
		<tag k="min_age" v="1" />
		<tag k="name" v="Siggerud barnehage" />
		<tag k="no-barnehage:nsrid" v="1012842" />
		<tag k="operator" v="Ski kommune" />
		<tag k="operator:type" v="public" />
	</node>
	<node id="-262" lat="59.71833" lon="10.81634">
		<tag k="amenity" v="kindergarten" />
		<tag k="capacity" v="63" />
		<tag k="contact:website" v="http://www.rosenlundbarnehage.no" />
		<tag k="max_age" v="5" />
		<tag k="min_age" v="1" />
		<tag k="name" v="Rosenlund barnehage" />
		<tag k="no-barnehage:nsrid" v="1019993" />
		<tag k="operator" v="Rosenlund barnehage Sa" />
		<tag k="operator:type" v="private" />
	</node>
	<node id="-261" lat="59.7157" lon="10.8221">
		<tag k="amenity" v="kindergarten" />
		<tag k="capacity" v="60" />
		<tag k="max_age" v="5" />
		<tag k="min_age" v="1" />
		<tag k="name" v="Nordre Finstad barnehage" />
		<tag k="no-barnehage:nsrid" v="1025369" />
		<tag k="operator" v="Ski kommune" />
		<tag k="operator:type" v="public" />
	</node>
	<node id="-260" lat="59.73301" lon="10.82825">
		<tag k="amenity" v="kindergarten" />
		<tag k="capacity" v="30" />
		<tag k="max_age" v="5" />
		<tag k="min_age" v="1" />
		<tag k="name" v="Maurtua barnehage" />
		<tag k="no-barnehage:nsrid" v="1020188" />
		<tag k="operator" v="Maurtua barnehage AS" />
		<tag k="operator:type" v="private" />
	</node>
	<node id="-259" lat="59.7483" lon="10.8399">
		<tag k="amenity" v="kindergarten" />
		<tag k="capacity" v="108" />
		<tag k="max_age" v="5" />
		<tag k="min_age" v="1" />
		<tag k="name" v="Langhus barnehage" />
		<tag k="no-barnehage:nsrid" v="1018426" />
		<tag k="operator" v="Ski kommune" />
		<tag k="operator:type" v="public" />
	</node>
	<node id="-258" lat="59.679" lon="10.8856">
		<tag k="amenity" v="kindergarten" />
		<tag k="capacity" v="108" />
		<tag k="contact:website" v="http://ski.kommune.no" />
		<tag k="max_age" v="5" />
		<tag k="min_age" v="1" />
		<tag k="name" v="Kråkstad barnehage" />
		<tag k="no-barnehage:nsrid" v="1025368" />
		<tag k="operator" v="Ski kommune" />
		<tag k="operator:type" v="public" />
	</node>
	<node id="-257" lat="59.72156" lon="10.81949">
		<tag k="amenity" v="kindergarten" />
		<tag k="capacity" v="24" />
		<tag k="max_age" v="5" />
		<tag k="min_age" v="1" />
		<tag k="name" v="Hoelshytta barnehage" />
		<tag k="no-barnehage:nsrid" v="1019627" />
		<tag k="operator" v="Hæbek Kvinne- og Familielag" />
		<tag k="operator:type" v="private" />
	</node>
</osm>
