<?xml version='1.0' encoding='utf-8'?>
<osm generator="osmapis" version="0.6">
	<node action="modify" id="-11" lat="59.7221798426" lon="10.8188644375">
		<tag k="ADDRESS" v="Måsav 1, 1406 SKI" />
		<tag k="GEOCODE" v="yes" />
		<tag k="amenity" v="kindergarten" />
		<tag k="capacity" v="24" />
		<tag k="max_age" v="5" />
		<tag k="min_age" v="1" />
		<tag k="name" v="Hoelshytta barnehage" />
		<tag k="no-barnehage:nsrid" v="1019627" />
		<tag k="operator" v="Hæbek Kvinne- og Familielag" />
		<tag k="operator:type" v="private" />
	<tag k="GEOCODE_METHOD" v="Matrikkel/address+synonymfix -&gt; Vegadresse" /><tag k="GEOCODE_RESULT" v="house" /></node>
	<node action="modify" id="-33" lat="59.7255772425" lon="10.8180529373">
		<tag k="ADDRESS" v="Skogveien 30b, 1406 SKI" />
		<tag k="GEOCODE" v="yes" />
		<tag k="amenity" v="kindergarten" />
		<tag k="capacity" v="63" />
		<tag k="max_age" v="5" />
		<tag k="min_age" v="1" />
		<tag k="name" v="Øvre Hebekk barnehage" />
		<tag k="no-barnehage:nsrid" v="1012841" />
		<tag k="operator" v="Ski kommune" />
		<tag k="operator:type" v="public" />
	<tag k="GEOCODE_METHOD" v="Matrikkel/address -&gt; Vegadresse" /><tag k="GEOCODE_RESULT" v="house" /></node>
	<node action="modify" id="-32" lat="59.7131210388" lon="10.821821848">
		<tag k="ADDRESS" v="Villenga 21, 1423 " />
		<tag k="GEOCODE" v="yes" />
		<tag k="amenity" v="kindergarten" />
		<tag k="capacity" v="90" />
		<tag k="contact:website" v="http://villenga.no" />
		<tag k="max_age" v="5" />
		<tag k="min_age" v="1" />
		<tag k="name" v="Villenga barnehage" />
		<tag k="no-barnehage:nsrid" v="1021328" />
		<tag k="operator" v="Villenga barnehage AS" />
		<tag k="operator:type" v="private" />
	<tag k="GEOCODE_METHOD" v="Matrikkel/address -&gt; Vegadresse" /><tag k="GEOCODE_RESULT" v="house" /></node>
	<node action="modify" id="-31" lat="59.75764865" lon="10.8474099841774">
		<tag k="ADDRESS" v="Vevelstadåsen 59, 1405 LANGHUS" />
		<tag k="GEOCODE" v="yes" />
		<tag k="amenity" v="kindergarten" />
		<tag k="capacity" v="47" />
		<tag k="max_age" v="5" />
		<tag k="min_age" v="1" />
		<tag k="name" v="Vevelstadåsen barnehage" />
		<tag k="no-barnehage:nsrid" v="1012843" />
		<tag k="operator" v="Ski kommune" />
		<tag k="operator:type" v="public" />
	<tag k="GEOCODE_METHOD" v="Nominatim/address -&gt; highway/residential" /><tag k="GEOCODE_RESULT" v="street" /></node>
	<node action="modify" id="-30" lat="59.7569679491" lon="10.8406944054">
		<tag k="ADDRESS" v="Gamle Vevelstadvei 23, 1405 LANGHUS" />
		<tag k="GEOCODE" v="yes" />
		<tag k="amenity" v="kindergarten" />
		<tag k="capacity" v="69" />
		<tag k="contact:website" v="http://vevelstadsaga.no" />
		<tag k="max_age" v="5" />
		<tag k="min_age" v="1" />
		<tag k="name" v="Vevelstadsaga barnehage" />
		<tag k="no-barnehage:nsrid" v="1020441" />
		<tag k="operator" v="Vevelstadsaga barnehage Sa" />
		<tag k="operator:type" v="private" />
	<tag k="GEOCODE_METHOD" v="Matrikkel/address -&gt; Vegadresse" /><tag k="GEOCODE_RESULT" v="house" /></node>
	<node action="modify" id="-29" lat="59.7147495651" lon="10.8267269792">
		<tag k="ADDRESS" v="Vestveien 13, 1423 " />
		<tag k="GEOCODE" v="yes" />
		<tag k="amenity" v="kindergarten" />
		<tag k="capacity" v="52" />
		<tag k="max_age" v="5" />
		<tag k="min_age" v="1" />
		<tag k="name" v="Vestveien barnehage" />
		<tag k="no-barnehage:nsrid" v="1013558" />
		<tag k="operator" v="Ski kommune" />
		<tag k="operator:type" v="public" />
	<tag k="GEOCODE_METHOD" v="Matrikkel/address -&gt; Vegadresse" /><tag k="GEOCODE_RESULT" v="house" /></node>
	<node action="modify" id="-28" lat="59.7220654401" lon="10.8380469991">
		<tag k="ADDRESS" v="Kirkeveien 8a, 1400 SKI" />
		<tag k="GEOCODE" v="yes" />
		<tag k="amenity" v="kindergarten" />
		<tag k="capacity" v="80" />
		<tag k="max_age" v="5" />
		<tag k="min_age" v="1" />
		<tag k="name" v="Vestråt barnehage" />
		<tag k="no-barnehage:nsrid" v="1012839" />
		<tag k="operator" v="Ski kommune" />
		<tag k="operator:type" v="public" />
	<tag k="GEOCODE_METHOD" v="Matrikkel/address -&gt; Vegadresse" /><tag k="GEOCODE_RESULT" v="house" /></node>
	<node action="modify" id="-27" lat="59.7275591993" lon="10.8433999683">
		<tag k="ADDRESS" v="Vardåsveien 36, 1400 SKI" />
		<tag k="GEOCODE" v="yes" />
		<tag k="amenity" v="kindergarten" />
		<tag k="max_age" v="5" />
		<tag k="min_age" v="1" />
		<tag k="name" v="Vardåsen barnehage" />
		<tag k="no-barnehage:nsrid" v="1014291" />
		<tag k="operator" v="Ski kommune" />
		<tag k="operator:type" v="public" />
	<tag k="GEOCODE_METHOD" v="Matrikkel/address -&gt; Vegadresse" /><tag k="GEOCODE_RESULT" v="house" /></node>
	<node action="modify" id="-26" lat="59.7554710059" lon="10.8288985573">
		<tag k="ADDRESS" v="Tussestien 4, 1405 LANGHUS" />
		<tag k="GEOCODE" v="yes" />
		<tag k="amenity" v="kindergarten" />
		<tag k="capacity" v="62" />
		<tag k="max_age" v="5" />
		<tag k="min_age" v="1" />
		<tag k="name" v="Tussestien barnehage" />
		<tag k="no-barnehage:nsrid" v="1012844" />
		<tag k="operator" v="Ski kommune" />
		<tag k="operator:type" v="public" />
	<tag k="GEOCODE_METHOD" v="Matrikkel/address -&gt; Vegadresse" /><tag k="GEOCODE_RESULT" v="house" /></node>
	<node action="modify" id="-25" lat="59.7616716844" lon="10.8606634417">
		<tag k="ADDRESS" v="Kantarellen 23, 1405 LANGHUS" />
		<tag k="GEOCODE" v="yes" />
		<tag k="amenity" v="kindergarten" />
		<tag k="capacity" v="63" />
		<tag k="max_age" v="5" />
		<tag k="min_age" v="1" />
		<tag k="name" v="Trollskogen barnehage" />
		<tag k="no-barnehage:nsrid" v="1013037" />
		<tag k="operator" v="Ski kommune" />
		<tag k="operator:type" v="public" />
	<tag k="GEOCODE_METHOD" v="Matrikkel/address -&gt; Vegadresse" /><tag k="GEOCODE_RESULT" v="house" /></node>
	<node action="modify" id="-24" lat="59.7176246689" lon="10.8170168063">
		<tag k="ADDRESS" v="Gamleveien 37, 1406 SKI" />
		<tag k="GEOCODE" v="yes" />
		<tag k="amenity" v="kindergarten" />
		<tag k="capacity" v="24" />
		<tag k="max_age" v="5" />
		<tag k="min_age" v="1" />
		<tag k="name" v="Spilloppen barnehage" />
		<tag k="no-barnehage:nsrid" v="1016218" />
		<tag k="operator" v="Ski Kvinne &amp; Familieforbund" />
		<tag k="operator:type" v="private" />
	<tag k="GEOCODE_METHOD" v="Matrikkel/address -&gt; Vegadresse" /><tag k="GEOCODE_RESULT" v="house" /></node>
	<node action="modify" id="-23" lat="59.7573240689" lon="10.82869723">
		<tag k="ADDRESS" v="Smedsrudveien 23, 1405 LANGHUS" />
		<tag k="GEOCODE" v="yes" />
		<tag k="amenity" v="kindergarten" />
		<tag k="capacity" v="65" />
		<tag k="max_age" v="5" />
		<tag k="min_age" v="1" />
		<tag k="name" v="Smedsrud barnehage" />
		<tag k="no-barnehage:nsrid" v="1012846" />
		<tag k="operator" v="Ski kommune" />
		<tag k="operator:type" v="public" />
	<tag k="GEOCODE_METHOD" v="Matrikkel/address -&gt; Vegadresse" /><tag k="GEOCODE_RESULT" v="house" /></node>
	<node action="modify" id="-22" lat="59.6586706693" lon="10.9488010726">
		<tag k="ADDRESS" v="Røysveien 2, 1409 SKOTBU" />
		<tag k="GEOCODE" v="yes" />
		<tag k="amenity" v="kindergarten" />
		<tag k="capacity" v="35" />
		<tag k="contact:website" v="http://www.ski.kommune.no" />
		<tag k="max_age" v="5" />
		<tag k="min_age" v="1" />
		<tag k="name" v="Skotbu barnehage" />
		<tag k="no-barnehage:nsrid" v="2000038" />
		<tag k="operator" v="Ski kommune" />
		<tag k="operator:type" v="public" />
	<tag k="GEOCODE_METHOD" v="Matrikkel/address -&gt; Vegadresse" /><tag k="GEOCODE_RESULT" v="house" /></node>
	<node action="modify" id="-21" lat="59.7623743511" lon="10.8630528553">
		<tag k="ADDRESS" v="Tyttebærlia 2, 1405 LANGHUS" />
		<tag k="GEOCODE" v="yes" />
		<tag k="amenity" v="kindergarten" />
		<tag k="capacity" v="54" />
		<tag k="max_age" v="5" />
		<tag k="min_age" v="1" />
		<tag k="name" v="Skoglia barnehage" />
		<tag k="no-barnehage:nsrid" v="1015987" />
		<tag k="operator" v="Ski kommune" />
		<tag k="operator:type" v="public" />
	<tag k="GEOCODE_METHOD" v="Matrikkel/address -&gt; Vegadresse" /><tag k="GEOCODE_RESULT" v="house" /></node>
	<node action="modify" id="-20" lat="59.7263576574" lon="10.86298764">
		<tag k="ADDRESS" v="Skoghusveien 7, 1400 SKI" />
		<tag k="GEOCODE" v="yes" />
		<tag k="amenity" v="kindergarten" />
		<tag k="capacity" v="72" />
		<tag k="max_age" v="5" />
		<tag k="min_age" v="1" />
		<tag k="name" v="Skoghus barnehage" />
		<tag k="no-barnehage:nsrid" v="1012840" />
		<tag k="operator" v="Ski kommune" />
		<tag k="operator:type" v="public" />
	<tag k="GEOCODE_METHOD" v="Matrikkel/address -&gt; Vegadresse" /><tag k="GEOCODE_RESULT" v="house" /></node>
	<node action="modify" id="-18" lat="59.7941555937" lon="10.8830042316">
		<tag k="ADDRESS" v="Bekkefaret 10, 1404 SIGGERUD" />
		<tag k="GEOCODE" v="yes" />
		<tag k="amenity" v="kindergarten" />
		<tag k="capacity" v="62" />
		<tag k="max_age" v="5" />
		<tag k="min_age" v="1" />
		<tag k="name" v="Siggerud gård barnehage" />
		<tag k="no-barnehage:nsrid" v="1013417" />
		<tag k="operator" v="Ski kommune" />
		<tag k="operator:type" v="public" />
	<tag k="GEOCODE_METHOD" v="Matrikkel/address -&gt; Vegadresse" /><tag k="GEOCODE_RESULT" v="house" /></node>
	<node action="modify" id="-17" lat="59.7902799506" lon="10.8901990662">
		<tag k="ADDRESS" v="Gamle Siggerudvei 3, 1404 SIGGERUD" />
		<tag k="GEOCODE" v="yes" />
		<tag k="amenity" v="kindergarten" />
		<tag k="capacity" v="78" />
		<tag k="max_age" v="5" />
		<tag k="min_age" v="1" />
		<tag k="name" v="Siggerud barnehage" />
		<tag k="no-barnehage:nsrid" v="1012842" />
		<tag k="operator" v="Ski kommune" />
		<tag k="operator:type" v="public" />
	<tag k="GEOCODE_METHOD" v="Matrikkel/address -&gt; Vegadresse" /><tag k="GEOCODE_RESULT" v="house" /></node>
	<node action="modify" id="-16" lat="59.7183255874" lon="10.8163435484">
		<tag k="ADDRESS" v="Gauselveien 9, 1406 SKI" />
		<tag k="GEOCODE" v="yes" />
		<tag k="amenity" v="kindergarten" />
		<tag k="capacity" v="70" />
		<tag k="contact:website" v="http://www.rosenlundbarnehage.no" />
		<tag k="max_age" v="5" />
		<tag k="min_age" v="1" />
		<tag k="name" v="Rosenlund barnehage" />
		<tag k="no-barnehage:nsrid" v="1019993" />
		<tag k="operator" v="Rosenlund barnehage Sa" />
		<tag k="operator:type" v="private" />
	<tag k="GEOCODE_METHOD" v="Matrikkel/address -&gt; Vegadresse" /><tag k="GEOCODE_RESULT" v="house" /></node>
	<node action="modify" id="-15" lat="59.7157216028" lon="10.822123271">
		<tag k="ADDRESS" v="Markveien 26, 1406 SKI" />
		<tag k="GEOCODE" v="yes" />
		<tag k="amenity" v="kindergarten" />
		<tag k="capacity" v="60" />
		<tag k="max_age" v="5" />
		<tag k="min_age" v="1" />
		<tag k="name" v="Nordre Finstad barnehage" />
		<tag k="no-barnehage:nsrid" v="1025369" />
		<tag k="operator" v="Ski kommune" />
		<tag k="operator:type" v="public" />
	<tag k="GEOCODE_METHOD" v="Matrikkel/address -&gt; Vegadresse" /><tag k="GEOCODE_RESULT" v="house" /></node>
	<node action="modify" id="-14" lat="59.7330075384" lon="10.8282406748">
		<tag k="ADDRESS" v="Tallaksrud Gård, Oppegårdveien 50a, 1423 " />
		<tag k="GEOCODE" v="yes" />
		<tag k="amenity" v="kindergarten" />
		<tag k="capacity" v="30" />
		<tag k="max_age" v="5" />
		<tag k="min_age" v="1" />
		<tag k="name" v="Maurtua barnehage" />
		<tag k="no-barnehage:nsrid" v="1020188" />
		<tag k="operator" v="Maurtua barnehage AS" />
		<tag k="operator:type" v="private" />
	<tag k="GEOCODE_METHOD" v="Matrikkel/address -&gt; Vegadresse" /><tag k="GEOCODE_RESULT" v="house" /></node>
	<node action="modify" id="-13" lat="59.7482566585" lon="10.838303701">
		<tag k="ADDRESS" v="Bøhlerveien 2, 1405 LANGHUS" />
		<tag k="GEOCODE" v="yes" />
		<tag k="amenity" v="kindergarten" />
		<tag k="capacity" v="95" />
		<tag k="max_age" v="5" />
		<tag k="min_age" v="1" />
		<tag k="name" v="Langhus barnehage" />
		<tag k="no-barnehage:nsrid" v="1018426" />
		<tag k="operator" v="Ski kommune" />
		<tag k="operator:type" v="public" />
	<tag k="GEOCODE_METHOD" v="Matrikkel/address -&gt; Vegadresse" /><tag k="GEOCODE_RESULT" v="house" /></node>
	<node action="modify" id="-12" lat="59.6798051845" lon="10.885787277">
		<tag k="ADDRESS" v="Parkbakken 10, 1408 KRÅKSTAD" />
		<tag k="GEOCODE" v="yes" />
		<tag k="amenity" v="kindergarten" />
		<tag k="capacity" v="106" />
		<tag k="contact:website" v="http://ski.kommune.no" />
		<tag k="max_age" v="5" />
		<tag k="min_age" v="1" />
		<tag k="name" v="Kråkstad barnehage" />
		<tag k="no-barnehage:nsrid" v="1025368" />
		<tag k="operator" v="Ski kommune" />
		<tag k="operator:type" v="public" />
	<tag k="GEOCODE_METHOD" v="Matrikkel/address -&gt; Vegadresse" /><tag k="GEOCODE_RESULT" v="house" /></node>
	<node action="modify" id="-2" lat="59.7629244698" lon="10.8565487991">
		<tag k="ADDRESS" v="Bjørkekroken 39, 1405 LANGHUS" />
		<tag k="GEOCODE" v="yes" />
		<tag k="amenity" v="kindergarten" />
		<tag k="capacity" v="47" />
		<tag k="max_age" v="5" />
		<tag k="min_age" v="1" />
		<tag k="name" v="Bjørkekroken barnehage" />
		<tag k="no-barnehage:nsrid" v="1015988" />
		<tag k="operator" v="Ski kommune" />
		<tag k="operator:type" v="public" />
	<tag k="GEOCODE_METHOD" v="Matrikkel/address -&gt; Vegadresse" /><tag k="GEOCODE_RESULT" v="house" /></node>
	<node action="modify" id="-10" lat="59.755802523" lon="10.8283114214">
		<tag k="ADDRESS" v="Tussestien 6, 1405 LANGHUS" />
		<tag k="GEOCODE" v="yes" />
		<tag k="amenity" v="kindergarten" />
		<tag k="capacity" v="29" />
		<tag k="contact:website" v="http://www.hjertegryta.barnehageside.no" />
		<tag k="max_age" v="5" />
		<tag k="min_age" v="1" />
		<tag k="name" v="Hjertegryta barnehage" />
		<tag k="no-barnehage:nsrid" v="1020507" />
		<tag k="operator" v="Langhus Kvinne- og Familieforbund" />
		<tag k="operator:type" v="private" />
	<tag k="GEOCODE_METHOD" v="Matrikkel/address -&gt; Vegadresse" /><tag k="GEOCODE_RESULT" v="house" /></node>
	<node action="modify" id="-9" lat="59.727290032" lon="10.8266656956">
		<tag k="ADDRESS" v="Fjellklangveien 1, 1423 " />
		<tag k="GEOCODE" v="yes" />
		<tag k="amenity" v="kindergarten" />
		<tag k="capacity" v="76" />
		<tag k="contact:website" v="http://hebekkskogen.no" />
		<tag k="max_age" v="5" />
		<tag k="min_age" v="1" />
		<tag k="name" v="Hebekkskogen barnehage" />
		<tag k="no-barnehage:nsrid" v="1020716" />
		<tag k="operator" v="Hebekkskogen Sa" />
		<tag k="operator:type" v="private" />
	<tag k="GEOCODE_METHOD" v="Matrikkel/address -&gt; Vegadresse" /><tag k="GEOCODE_RESULT" v="house" /></node>
	<node action="modify" id="-8" lat="59.7394094338" lon="10.9459375083">
		<tag k="ADDRESS" v="Kollerøysveien 25b, 1425 " />
		<tag k="GEOCODE" v="yes" />
		<tag k="amenity" v="kindergarten" />
		<tag k="name" v="Gjedsjø barnehage" />
		<tag k="no-barnehage:nsrid" v="1020967" />
		<tag k="operator" v="Ski kommune" />
		<tag k="operator:type" v="public" />
	<tag k="GEOCODE_METHOD" v="Matrikkel/address -&gt; Vegadresse" /><tag k="GEOCODE_RESULT" v="house" /></node>
	<node action="modify" id="-7" lat="59.7151788494" lon="10.8247927852">
		<tag k="ADDRESS" v="Vestveien 11, 1423 " />
		<tag k="GEOCODE" v="yes" />
		<tag k="amenity" v="kindergarten" />
		<tag k="max_age" v="5" />
		<tag k="min_age" v="1" />
		<tag k="name" v="Finstadbekken barnehage" />
		<tag k="no-barnehage:nsrid" v="1026020" />
		<tag k="operator" v="Ski kommune" />
		<tag k="operator:type" v="public" />
	<tag k="GEOCODE_METHOD" v="Matrikkel/address -&gt; Vegadresse" /><tag k="GEOCODE_RESULT" v="house" /></node>
	<node action="modify" id="-6" lat="59.707439531" lon="10.8373870702">
		<tag k="ADDRESS" v="Eikeliveien 40, 1424 " />
		<tag k="GEOCODE" v="yes" />
		<tag k="amenity" v="kindergarten" />
		<tag k="capacity" v="74" />
		<tag k="max_age" v="5" />
		<tag k="min_age" v="1" />
		<tag k="name" v="Eikeliveien barnehage" />
		<tag k="no-barnehage:nsrid" v="2000313" />
		<tag k="operator" v="Ski kommune" />
		<tag k="operator:type" v="public" />
	<tag k="GEOCODE_METHOD" v="Matrikkel/address -&gt; Vegadresse" /><tag k="GEOCODE_RESULT" v="house" /></node>
	<node action="modify" id="-5" lat="59.7161921747" lon="10.8634714452">
		<tag k="ADDRESS" v="Dynamitveien 18, 1400 SKI" />
		<tag k="GEOCODE" v="yes" />
		<tag k="amenity" v="kindergarten" />
		<tag k="capacity" v="49" />
		<tag k="max_age" v="5" />
		<tag k="min_age" v="1" />
		<tag k="name" v="Dynamitten barnehage" />
		<tag k="no-barnehage:nsrid" v="1012847" />
		<tag k="operator" v="Ski kommune" />
		<tag k="operator:type" v="public" />
	<tag k="GEOCODE_METHOD" v="Matrikkel/address -&gt; Vegadresse" /><tag k="GEOCODE_RESULT" v="house" /></node>
	<node action="modify" id="-4" lat="59.7486305499" lon="10.8286314547">
		<tag k="ADDRESS" v="Dalstunet 2, 1405 LANGHUS" />
		<tag k="GEOCODE" v="yes" />
		<tag k="amenity" v="kindergarten" />
		<tag k="capacity" v="60" />
		<tag k="max_age" v="5" />
		<tag k="min_age" v="1" />
		<tag k="name" v="Dalstunet barnehage" />
		<tag k="no-barnehage:nsrid" v="1021180" />
		<tag k="operator" v="Dalstunet Foreldrelagsbarnehage Sa" />
		<tag k="operator:type" v="private" />
	<tag k="GEOCODE_METHOD" v="Matrikkel/address -&gt; Vegadresse" /><tag k="GEOCODE_RESULT" v="house" /></node>
	<node action="modify" id="-3" lat="59.7652580162" lon="10.8534909137">
		<tag k="ADDRESS" v="Bregnefaret 5, 1405 LANGHUS" />
		<tag k="GEOCODE" v="yes" />
		<tag k="amenity" v="kindergarten" />
		<tag k="capacity" v="51" />
		<tag k="max_age" v="5" />
		<tag k="min_age" v="1" />
		<tag k="name" v="Bøleråsen barnehage" />
		<tag k="no-barnehage:nsrid" v="1012845" />
		<tag k="operator" v="Ski kommune" />
		<tag k="operator:type" v="public" />
	<tag k="GEOCODE_METHOD" v="Matrikkel/address -&gt; Vegadresse" /><tag k="GEOCODE_RESULT" v="house" /></node>
	<node action="modify" id="-1" lat="59.7252135065" lon="10.8619635704">
		<tag k="ADDRESS" v="Skoghusveien 40, 1400 SKI" />
		<tag k="GEOCODE" v="yes" />
		<tag k="amenity" v="kindergarten" />
		<tag k="capacity" v="27" />
		<tag k="max_age" v="5" />
		<tag k="min_age" v="1" />
		<tag k="name" v="Bakkebygrenda barnehage" />
		<tag k="no-barnehage:nsrid" v="1017884" />
		<tag k="operator" v="Ski kommune" />
		<tag k="operator:type" v="public" />
	<tag k="GEOCODE_METHOD" v="Matrikkel/address -&gt; Vegadresse" /><tag k="GEOCODE_RESULT" v="house" /></node>
</osm>