<?xml version="1.0" encoding="UTF-8"?>
<osm generator="osmapis" version="0.6">
	<node id="-317" lat="59.71844" lon="10.81162">
		<tag k="amenity" v="kindergarten" />
		<tag k="capacity" v="8" />
		<tag k="doNotImportAddress" v="Solfallsveien 6 1406 SKI" />
		<tag k="max_age" v="2" />
		<tag k="min_age" v="1" />
		<tag k="name" v="Ski familiebarnehage Hundremeterskogen" />
		<tag k="no-barnehage:nsrid" v="1020625" />
		<tag k="operator" v="Ski Familiebarnehage Avdeling Hundremeterskogen Atle Staff" />
		<tag k="operator:type" v="private" />
	</node>
	<node id="-316" lat="59.71146" lon="10.83933">
		<tag k="amenity" v="kindergarten" />
		<tag k="capacity" v="4" />
		<tag k="doNotImportAddress" v="Eikåsveien 1a 1400 SKI" />
		<tag k="max_age" v="2" />
		<tag k="min_age" v="1" />
		<tag k="name" v="Ski familiebarnehage" />
		<tag k="no-barnehage:nsrid" v="1020806" />
		<tag k="operator" v="Ski Familiebarnehage Avd. Eikåsen Marianne Espesæter" />
		<tag k="operator:type" v="private" />
	</node>
</osm>
