<?xml version="1.0" encoding="UTF-8"?>
<osm generator="osmapis" version="0.6">
	<node id="-344" lat="59.7256" lon="10.818">
		<tag k="amenity" v="kindergarten" />
		<tag k="capacity" v="64" />
		<tag k="contact:email" v="ovre.hebekk.barnehage@ski.kommune.no" />
		<tag k="contact:phone" v="64 91 42 30" />
		<tag k="max_age" v="5" />
		<tag k="min_age" v="1" />
		<tag k="name" v="Øvre Hebekk barnehage" />
		<tag k="no-barnehage:nsrid" v="1012841" />
		<tag k="operator" v="Ski kommune" />
		<tag k="operator:type" v="public" />
		<tag k="start_date" v="1976-01-01" />
	</node>
	<node id="-343" lat="59.71313" lon="10.82183">
		<tag k="amenity" v="kindergarten" />
		<tag k="capacity" v="90" />
		<tag k="contact:email" v="post@villenga.no" />
		<tag k="contact:phone" v="64 85 31 00" />
		<tag k="contact:website" v="http://villenga.no" />
		<tag k="max_age" v="5" />
		<tag k="min_age" v="1" />
		<tag k="name" v="Villenga barnehage" />
		<tag k="no-barnehage:nsrid" v="1021328" />
		<tag k="operator" v="Villenga barnehage AS" />
		<tag k="operator:type" v="private" />
		<tag k="start_date" v="2005-10-27" />
	</node>
	<node id="-342" lat="59.7575" lon="10.8474">
		<tag k="amenity" v="kindergarten" />
		<tag k="capacity" v="50" />
		<tag k="contact:email" v="vevelstadasen.barnehage@ski.kommune.no" />
		<tag k="contact:phone" v="64853750" />
		<tag k="max_age" v="5" />
		<tag k="min_age" v="1" />
		<tag k="name" v="Vevelstadåsen barnehage" />
		<tag k="no-barnehage:nsrid" v="1012843" />
		<tag k="operator" v="Ski kommune" />
		<tag k="operator:type" v="public" />
		<tag k="start_date" v="1976-01-01" />
	</node>
	<node id="-341" lat="59.75697" lon="10.84069">
		<tag k="amenity" v="kindergarten" />
		<tag k="capacity" v="72" />
		<tag k="contact:email" v="cecilia@vevelstadsaga.no" />
		<tag k="contact:phone" v="64 86 10 12" />
		<tag k="contact:website" v="http://vevelstadsaga.no" />
		<tag k="max_age" v="5" />
		<tag k="min_age" v="1" />
		<tag k="name" v="Vevelstadsaga barnehage Sa" />
		<tag k="no-barnehage:nsrid" v="1020441" />
		<tag k="operator" v="Vevelstadsaga barnehage Sa" />
		<tag k="operator:type" v="private" />
		<tag k="start_date" v="1997-10-31" />
	</node>
	<node id="-340" lat="59.715" lon="10.8309">
		<tag k="amenity" v="kindergarten" />
		<tag k="capacity" v="63" />
		<tag k="contact:email" v="marit.horne@ski.kommune.no" />
		<tag k="contact:phone" v="99 46 89 32" />
		<tag k="max_age" v="5" />
		<tag k="min_age" v="1" />
		<tag k="name" v="Vestveien barnehage" />
		<tag k="no-barnehage:nsrid" v="1013558" />
		<tag k="operator" v="Ski kommune" />
		<tag k="operator:type" v="public" />
		<tag k="start_date" v="2013-05-01" />
	</node>
	<node id="-339" lat="59.7221" lon="10.8381">
		<tag k="amenity" v="kindergarten" />
		<tag k="capacity" v="82" />
		<tag k="contact:email" v="vestraat.barnehage@ski.kommune.no" />
		<tag k="contact:phone" v="64 91 42 80" />
		<tag k="max_age" v="5" />
		<tag k="min_age" v="1" />
		<tag k="name" v="Vestråt barnehage" />
		<tag k="no-barnehage:nsrid" v="1012839" />
		<tag k="operator" v="Ski kommune" />
		<tag k="operator:type" v="public" />
		<tag k="start_date" v="1976-01-01" />
	</node>
	<node id="-338" lat="59.7276" lon="10.8434">
		<tag k="amenity" v="kindergarten" />
		<tag k="capacity" v="33" />
		<tag k="max_age" v="5" />
		<tag k="min_age" v="1" />
		<tag k="name" v="Vardåsen barnehage" />
		<tag k="no-barnehage:nsrid" v="1014291" />
		<tag k="operator" v="Ski kommune" />
		<tag k="operator:type" v="public" />
		<tag k="start_date" v="2011-08-01" />
	</node>
	<node id="-337" lat="59.7555" lon="10.8289">
		<tag k="amenity" v="kindergarten" />
		<tag k="capacity" v="60" />
		<tag k="contact:email" v="tussestien.barnehage@ski.kommune.no" />
		<tag k="contact:phone" v="64 91 46 80" />
		<tag k="max_age" v="5" />
		<tag k="min_age" v="1" />
		<tag k="name" v="Tussestien barnehage" />
		<tag k="no-barnehage:nsrid" v="1012844" />
		<tag k="operator" v="Ski kommune" />
		<tag k="operator:type" v="public" />
		<tag k="start_date" v="1988-04-01" />
	</node>
	<node id="-336" lat="59.7617" lon="10.8607">
		<tag k="amenity" v="kindergarten" />
		<tag k="capacity" v="55" />
		<tag k="contact:email" v="trollskogen.barnehage@ski.kommune.no" />
		<tag k="contact:phone" v="64911820" />
		<tag k="max_age" v="5" />
		<tag k="min_age" v="1" />
		<tag k="name" v="Trollskogen barnehage" />
		<tag k="no-barnehage:nsrid" v="1013037" />
		<tag k="operator" v="Ski kommune" />
		<tag k="operator:type" v="public" />
		<tag k="start_date" v="2004-06-01" />
	</node>
	<node id="-335" lat="59.7211" lon="10.84">
		<tag k="amenity" v="kindergarten" />
		<tag k="capacity" v="18" />
		<tag k="contact:phone" v="64877130" />
		<tag k="max_age" v="5" />
		<tag k="min_age" v="3" />
		<tag k="name" v="Spilloppen barnehage" />
		<tag k="no-barnehage:nsrid" v="1016218" />
		<tag k="operator" v="Ski Kvinne &amp; Familieforbund" />
		<tag k="operator:type" v="private" />
		<tag k="start_date" v="1990-01-01" />
	</node>
	<node id="-334" lat="59.7573" lon="10.8287">
		<tag k="amenity" v="kindergarten" />
		<tag k="capacity" v="67" />
		<tag k="contact:email" v="marit.karlsen@ski.kommune.no" />
		<tag k="contact:phone" v="64 85 80 40" />
		<tag k="max_age" v="5" />
		<tag k="min_age" v="1" />
		<tag k="name" v="Smedsrud barnehage" />
		<tag k="no-barnehage:nsrid" v="1012846" />
		<tag k="operator" v="Ski kommune" />
		<tag k="operator:type" v="public" />
		<tag k="start_date" v="1991-04-17" />
	</node>
	<node id="-333" lat="59.7624" lon="10.863">
		<tag k="amenity" v="kindergarten" />
		<tag k="capacity" v="56" />
		<tag k="contact:email" v="skoglia.barnehage@ski.kommune.no" />
		<tag k="contact:phone" v="64 85 88 80" />
		<tag k="max_age" v="5" />
		<tag k="min_age" v="1" />
		<tag k="name" v="Skoglia barnehage" />
		<tag k="no-barnehage:nsrid" v="1015987" />
		<tag k="operator" v="Ski kommune" />
		<tag k="operator:type" v="public" />
		<tag k="start_date" v="1994-08-01" />
	</node>
	<node id="-332" lat="59.7264" lon="10.863">
		<tag k="amenity" v="kindergarten" />
		<tag k="capacity" v="82" />
		<tag k="contact:email" v="skoghus.barnehage@ski.kommune.no" />
		<tag k="contact:phone" v="64858880" />
		<tag k="max_age" v="5" />
		<tag k="min_age" v="1" />
		<tag k="name" v="Skoghus barnehage" />
		<tag k="no-barnehage:nsrid" v="1012840" />
		<tag k="operator" v="Ski kommune" />
		<tag k="operator:type" v="public" />
		<tag k="start_date" v="1976-01-01" />
	</node>
	<node id="-329" lat="59.7942" lon="10.883">
		<tag k="amenity" v="kindergarten" />
		<tag k="capacity" v="82" />
		<tag k="contact:email" v="marie.jonsson@ski.kommune.no" />
		<tag k="contact:phone" v="64 85 70 30" />
		<tag k="max_age" v="5" />
		<tag k="min_age" v="1" />
		<tag k="name" v="Siggerud Gård barnehage" />
		<tag k="no-barnehage:nsrid" v="1013417" />
		<tag k="operator" v="Ski kommune" />
		<tag k="operator:type" v="public" />
		<tag k="start_date" v="2007-06-01" />
	</node>
	<node id="-328" lat="59.7903" lon="10.8902">
		<tag k="amenity" v="kindergarten" />
		<tag k="capacity" v="100" />
		<tag k="contact:email" v="siggerud.barnehage@ski.kommune.no" />
		<tag k="contact:phone" v="64911150" />
		<tag k="max_age" v="5" />
		<tag k="min_age" v="1" />
		<tag k="name" v="Siggerud barnehage" />
		<tag k="no-barnehage:nsrid" v="1012842" />
		<tag k="operator" v="Ski kommune" />
		<tag k="operator:type" v="public" />
		<tag k="start_date" v="1976-01-01" />
	</node>
	<node id="-327" lat="59.71833" lon="10.81634">
		<tag k="amenity" v="kindergarten" />
		<tag k="capacity" v="64" />
		<tag k="contact:email" v="post@rosenlundbarnehage.no" />
		<tag k="contact:phone" v="45866540" />
		<tag k="contact:website" v="http://www.rosenlundbarnehage.no" />
		<tag k="max_age" v="5" />
		<tag k="min_age" v="1" />
		<tag k="name" v="Rosenlund barnehage" />
		<tag k="no-barnehage:nsrid" v="1019993" />
		<tag k="operator" v="Rosenlund barnehage Sa" />
		<tag k="operator:type" v="private" />
		<tag k="start_date" v="1991-10-01" />
	</node>
	<node id="-326" lat="59.7157" lon="10.8221">
		<tag k="amenity" v="kindergarten" />
		<tag k="capacity" v="87" />
		<tag k="contact:email" v="nordre.finstad.barnehage@ski.kommune.no" />
		<tag k="contact:phone" v="64911100" />
		<tag k="max_age" v="5" />
		<tag k="min_age" v="1" />
		<tag k="name" v="Nordre Finstad barnehage" />
		<tag k="no-barnehage:nsrid" v="1025369" />
		<tag k="operator" v="Ski kommune" />
		<tag k="operator:type" v="public" />
		<tag k="start_date" v="1988-04-01" />
	</node>
	<node id="-325" lat="59.73301" lon="10.82825">
		<tag k="amenity" v="kindergarten" />
		<tag k="capacity" v="32" />
		<tag k="max_age" v="5" />
		<tag k="min_age" v="1" />
		<tag k="name" v="Maurtua barnehage Ans" />
		<tag k="no-barnehage:nsrid" v="1020188" />
		<tag k="operator" v="Maurtua barnehage Ans" />
		<tag k="operator:type" v="private" />
		<tag k="start_date" v="1995-04-25" />
	</node>
	<node id="-323" lat="59.7483" lon="10.8399">
		<tag k="amenity" v="kindergarten" />
		<tag k="capacity" v="96" />
		<tag k="contact:email" v="mariann.gunneng@ski.kommune.no" />
		<tag k="contact:phone" v="98 25 11 02" />
		<tag k="max_age" v="5" />
		<tag k="min_age" v="1" />
		<tag k="name" v="Langhus barnehage" />
		<tag k="no-barnehage:nsrid" v="1018426" />
		<tag k="operator" v="Ski kommune" />
		<tag k="operator:type" v="public" />
		<tag k="start_date" v="2008-08-01" />
	</node>
	<node id="-322" lat="59.679" lon="10.8856">
		<tag k="amenity" v="kindergarten" />
		<tag k="capacity" v="108" />
		<tag k="contact:email" v="krakstad.barnehage@ski.kommune.no" />
		<tag k="contact:phone" v="64 85 31 11" />
		<tag k="max_age" v="5" />
		<tag k="min_age" v="1" />
		<tag k="name" v="Kråkstad barnehage" />
		<tag k="no-barnehage:nsrid" v="1025368" />
		<tag k="operator" v="Ski kommune" />
		<tag k="operator:type" v="public" />
		<tag k="start_date" v="1988-01-01" />
	</node>
	<node id="-321" lat="59.7558" lon="10.82831">
		<tag k="amenity" v="kindergarten" />
		<tag k="capacity" v="27" />
		<tag k="contact:phone" v="64866222" />
		<tag k="max_age" v="5" />
		<tag k="min_age" v="1" />
		<tag k="name" v="Jettegryta barnehage" />
		<tag k="no-barnehage:nsrid" v="1020507" />
		<tag k="operator" v="Langhus Kvinne- og Familieforbund" />
		<tag k="operator:type" v="private" />
		<tag k="start_date" v="1982-01-01" />
	</node>
	<node id="-320" lat="59.72156" lon="10.81949">
		<tag k="amenity" v="kindergarten" />
		<tag k="capacity" v="24" />
		<tag k="contact:email" v="hoelsko@online.no" />
		<tag k="contact:phone" v="64 87 33 89" />
		<tag k="max_age" v="5" />
		<tag k="min_age" v="1" />
		<tag k="name" v="Hoelshytta barnehage" />
		<tag k="no-barnehage:nsrid" v="1019627" />
		<tag k="operator" v="Hæbek Kvinne- og Familielag" />
		<tag k="operator:type" v="private" />
		<tag k="start_date" v="1982-01-01" />
	</node>
	<node id="-319" lat="59.72729" lon="10.82666">
		<tag k="amenity" v="kindergarten" />
		<tag k="capacity" v="76" />
		<tag k="contact:phone" v="64 87 52 66" />
		<tag k="max_age" v="5" />
		<tag k="min_age" v="1" />
		<tag k="name" v="Hebekkskogen barnehage" />
		<tag k="no-barnehage:nsrid" v="1020716" />
		<tag k="operator" v="Hebekkskogen Sa" />
		<tag k="operator:type" v="private" />
		<tag k="start_date" v="2001-05-01" />
	</node>
	<node id="-318" lat="59.71495" lon="10.83093">
		<tag k="amenity" v="kindergarten" />
		<tag k="contact:email" v="theresevestengen.bjoro@ski.kommune.no" />
		<tag k="name" v="Finstadbekken barnehage" />
		<tag k="no-barnehage:nsrid" v="1026020" />
		<tag k="operator" v="Ski kommune" />
		<tag k="operator:type" v="public" />
		<tag k="start_date" v="2015-07-27" />
	</node>
	<node id="-317" lat="59.7162" lon="10.8635">
		<tag k="amenity" v="kindergarten" />
		<tag k="capacity" v="64" />
		<tag k="contact:phone" v="64 91 18 00" />
		<tag k="max_age" v="5" />
		<tag k="min_age" v="1" />
		<tag k="name" v="Dynamitten barnehage" />
		<tag k="no-barnehage:nsrid" v="1012847" />
		<tag k="operator" v="Ski kommune" />
		<tag k="operator:type" v="public" />
		<tag k="start_date" v="1992-01-01" />
	</node>
	<node id="-316" lat="59.74863" lon="10.82863">
		<tag k="amenity" v="kindergarten" />
		<tag k="capacity" v="66" />
		<tag k="contact:phone" v="64 91 80 00" />
		<tag k="max_age" v="5" />
		<tag k="min_age" v="1" />
		<tag k="name" v="Dalstunet barnehage" />
		<tag k="no-barnehage:nsrid" v="1021180" />
		<tag k="operator" v="Dalstunet Foreldrelagsbarnehage Sa" />
		<tag k="operator:type" v="private" />
		<tag k="start_date" v="2005-01-10" />
	</node>
	<node id="-315" lat="59.7653" lon="10.8535">
		<tag k="amenity" v="kindergarten" />
		<tag k="capacity" v="50" />
		<tag k="contact:email" v="kirsten.loland@ski.kommune.no" />
		<tag k="contact:phone" v="64853150" />
		<tag k="max_age" v="5" />
		<tag k="min_age" v="1" />
		<tag k="name" v="Bøleråsen barnehage" />
		<tag k="no-barnehage:nsrid" v="1012845" />
		<tag k="operator" v="Ski kommune" />
		<tag k="operator:type" v="public" />
		<tag k="start_date" v="1988-04-01" />
	</node>
	<node id="-314" lat="59.763" lon="10.8563">
		<tag k="amenity" v="kindergarten" />
		<tag k="capacity" v="50" />
		<tag k="contact:email" v="Inger-Lise.Hansen@ski.kommune.no" />
		<tag k="contact:phone" v="64918990" />
		<tag k="max_age" v="5" />
		<tag k="min_age" v="1" />
		<tag k="name" v="Bjørkekroken barnehage" />
		<tag k="no-barnehage:nsrid" v="1015988" />
		<tag k="operator" v="Ski kommune" />
		<tag k="operator:type" v="public" />
		<tag k="start_date" v="1992-08-01" />
	</node>
	<node id="-313" lat="59.7252" lon="10.862">
		<tag k="amenity" v="kindergarten" />
		<tag k="capacity" v="64" />
		<tag k="contact:email" v="inamarita.dahlen@ski.kommune.no" />
		<tag k="contact:phone" v="64 85 31 80" />
		<tag k="max_age" v="5" />
		<tag k="min_age" v="1" />
		<tag k="name" v="Bakkebygrenda barnehage" />
		<tag k="no-barnehage:nsrid" v="1017884" />
		<tag k="operator" v="Ski kommune" />
		<tag k="operator:type" v="public" />
		<tag k="start_date" v="2007-10-10" />
	</node>
</osm>
