<?xml version="1.0" encoding="UTF-8"?>
<osm version="0.6" generator="osmapis">
	<node lat="60.70138" lon="8.4872" id="-2819">
		<tag k="ADDRESS" v="Nordbygdvegen 948, 3570 ÅL" />
		<tag k="amenity" v="kindergarten" />
		<tag k="capacity" v="22" />
		<tag k="contact:website" v="http://www.aal.kommune.no" />
		<tag k="max_age" v="5" />
		<tag k="min_age" v="1" />
		<tag k="name" v="Nordbygdene barnehage" />
		<tag k="no-barnehage:nsrid" v="975317641" />
		<tag k="operator" v="Ål kommune" />
		<tag k="operator:type" v="public" />
	</node>
	<node lat="60.65737" lon="8.62793" id="-2820">
		<tag k="ADDRESS" v="Oppsatavegen 145, 3570 ÅL" />
		<tag k="amenity" v="kindergarten" />
		<tag k="capacity" v="34" />
		<tag k="contact:website" v="http://aal.kommune.no" />
		<tag k="max_age" v="5" />
		<tag k="min_age" v="1" />
		<tag k="name" v="Sando barnehage" />
		<tag k="no-barnehage:nsrid" v="912014401" />
		<tag k="operator" v="Ål kommune" />
		<tag k="operator:type" v="public" />
	</node>
	<node lat="60.62003" lon="8.5242" id="-2821">
		<tag k="ADDRESS" v="Branesvegen 2, 3570 ÅL" />
		<tag k="amenity" v="kindergarten" />
		<tag k="capacity" v="27" />
		<tag k="contact:website" v="http://www.aal.kommune.no" />
		<tag k="max_age" v="5" />
		<tag k="min_age" v="1" />
		<tag k="name" v="Skattebøl barnehage" />
		<tag k="no-barnehage:nsrid" v="975306496" />
		<tag k="operator" v="Ål kommune" />
		<tag k="operator:type" v="public" />
	</node>
	<node lat="60.62792" lon="8.55605" id="-2822">
		<tag k="ADDRESS" v="Gartnarvegen 1, 3570 ÅL" />
		<tag k="amenity" v="kindergarten" />
		<tag k="capacity" v="75" />
		<tag k="contact:website" v="http://www.aal.kommune.no" />
		<tag k="max_age" v="5" />
		<tag k="min_age" v="1" />
		<tag k="name" v="Sundre barnehage" />
		<tag k="no-barnehage:nsrid" v="875306502" />
		<tag k="operator" v="Ål kommune" />
		<tag k="operator:type" v="public" />
	</node>
	<node lat="60.66489" lon="8.73029" id="-2823">
		<tag k="ADDRESS" v="Bakkevegen 1, 3579 TORPO" />
		<tag k="amenity" v="kindergarten" />
		<tag k="capacity" v="26" />
		<tag k="contact:website" v="http://www.aal.kommune.no" />
		<tag k="max_age" v="5" />
		<tag k="min_age" v="1" />
		<tag k="name" v="Torpo barnehage" />
		<tag k="no-barnehage:nsrid" v="975306518" />
		<tag k="operator" v="Ål kommune" />
		<tag k="operator:type" v="public" />
	</node>
</osm>
