<?xml version="1.0" encoding="UTF-8"?>
<osm generator="osmapis" version="0.6">
	<node id="-5565" lat="65.5979" lon="13.9842">
		<tag k="amenity" v="kindergarten" />
		<tag k="capacity" v="6" />
		<tag k="max_age" v="5" />
		<tag k="min_age" v="1" />
		<tag k="name" v="Varntresk Oppvekstsenter Avd Barnehage" />
		<tag k="no-barnehage:nsrid" v="1013761" />
		<tag k="operator" v="Hattfjelldal kommune" />
		<tag k="operator:type" v="public" />
		<tag k="start_date" v="1989-01-02" />
	</node>
	<node id="-5564" lat="65.5979" lon="13.9842">
		<tag k="amenity" v="kindergarten" />
		<tag k="capacity" v="11" />
		<tag k="max_age" v="5" />
		<tag k="min_age" v="1" />
		<tag k="name" v="Susendal Skole og barnehage Avdeling Barnehage" />
		<tag k="no-barnehage:nsrid" v="1016313" />
		<tag k="operator" v="Hattfjelldal kommune" />
		<tag k="operator:type" v="public" />
		<tag k="start_date" v="2001-09-01" />
	</node>
	<node id="-5563" lat="65.5979" lon="13.9842">
		<tag k="amenity" v="kindergarten" />
		<tag k="capacity" v="44" />
		<tag k="max_age" v="5" />
		<tag k="min_age" v="1" />
		<tag k="name" v="Hattfjelldal Oppvekstsenter Avd Barnehage" />
		<tag k="no-barnehage:nsrid" v="1016131" />
		<tag k="operator" v="Hattfjelldal kommune" />
		<tag k="operator:type" v="public" />
		<tag k="start_date" v="1989-01-01" />
	</node>
</osm>
