<?xml version="1.0" encoding="UTF-8"?>
<osm generator="osmapis" version="0.6">
	<node id="-4152" lat="62.3906" lon="6.57531">
		<tag k="amenity" v="kindergarten" />
		<tag k="capacity" v="30" />
		<tag k="max_age" v="5" />
		<tag k="min_age" v="1" />
		<tag k="name" v="NLM barnehagene avd. Tryggheim barnehage Sykkylven" />
		<tag k="no-barnehage:nsrid" v="1016179" />
		<tag k="operator" v="Nlm-Barnehagene AS" />
		<tag k="operator:type" v="private" />
	</node>
	<node id="-4151" lat="62.39136" lon="6.594254">
		<tag k="amenity" v="kindergarten" />
		<tag k="capacity" v="61" />
		<tag k="max_age" v="5" />
		<tag k="min_age" v="1" />
		<tag k="name" v="Kbh 2 avd. Sykkylven" />
		<tag k="no-barnehage:nsrid" v="1021417" />
		<tag k="operator" v="Krikane barnehage AS" />
		<tag k="operator:type" v="private" />
	</node>
	<node id="-4150" lat="62.38689" lon="6.551425">
		<tag k="amenity" v="kindergarten" />
		<tag k="capacity" v="68" />
		<tag k="max_age" v="5" />
		<tag k="min_age" v="1" />
		<tag k="name" v="Ikornnes FUS barnehage" />
		<tag k="no-barnehage:nsrid" v="1021795" />
		<tag k="operator" v="Ikornnes Fus barnehage AS" />
		<tag k="operator:type" v="private" />
	</node>
	<node id="-4149" lat="62.3979" lon="6.46504">
		<tag k="amenity" v="kindergarten" />
		<tag k="capacity" v="26" />
		<tag k="max_age" v="5" />
		<tag k="min_age" v="1" />
		<tag k="name" v="Blakstad naturbarnehage" />
		<tag k="no-barnehage:nsrid" v="1012944" />
		<tag k="operator" v="Sykkylven kommune" />
		<tag k="operator:type" v="public" />
	</node>
</osm>
