<?xml version="1.0" encoding="UTF-8"?>
<osm generator="osmapis" version="0.6">
	<node id="-4659" lat="62.379" lon="6.58949">
		<tag k="amenity" v="kindergarten" />
		<tag k="capacity" v="64" />
		<tag k="contact:email" v="steinar.klokk@sykkylven.kommune.no" />
		<tag k="contact:phone" v="70 24 68 19" />
		<tag k="max_age" v="5" />
		<tag k="min_age" v="1" />
		<tag k="name" v="Vikedalen barnehage" />
		<tag k="no-barnehage:nsrid" v="1016104" />
		<tag k="operator" v="Sykkylven kommune" />
		<tag k="operator:type" v="public" />
		<tag k="start_date" v="1992-01-01" />
	</node>
	<node id="-4658" lat="62.3785" lon="6.57723">
		<tag k="amenity" v="kindergarten" />
		<tag k="capacity" v="38" />
		<tag k="contact:email" v="mette.brenne@sykkylven.kommune.no" />
		<tag k="contact:phone" v="70 24 68 31" />
		<tag k="max_age" v="5" />
		<tag k="min_age" v="1" />
		<tag k="name" v="Vik barnehage" />
		<tag k="no-barnehage:nsrid" v="1015462" />
		<tag k="operator" v="Sykkylven kommune" />
		<tag k="operator:type" v="public" />
		<tag k="start_date" v="1992-01-16" />
	</node>
	<node id="-4657" lat="62.29165" lon="6.645781">
		<tag k="amenity" v="kindergarten" />
		<tag k="capacity" v="38" />
		<tag k="contact:email" v="styrer@vekkedalen-naturbarnehage.no" />
		<tag k="contact:phone" v="45 51 78 17" />
		<tag k="contact:website" v="http://www.velledalen-naturbarnehage.no" />
		<tag k="max_age" v="5" />
		<tag k="min_age" v="1" />
		<tag k="name" v="Velledalen Naturbarnehage Sa" />
		<tag k="no-barnehage:nsrid" v="1021976" />
		<tag k="operator" v="Velledalen Naturbarnehage Sa" />
		<tag k="operator:type" v="private" />
		<tag k="start_date" v="2009-08-24" />
	</node>
	<node id="-4656" lat="62.3926" lon="6.59607">
		<tag k="amenity" v="kindergarten" />
		<tag k="capacity" v="59" />
		<tag k="contact:email" v="torunn.vik@sykkylven.kommune.no" />
		<tag k="contact:phone" v="70 24 68 73" />
		<tag k="max_age" v="5" />
		<tag k="min_age" v="1" />
		<tag k="name" v="Ullavik barnehage" />
		<tag k="no-barnehage:nsrid" v="1014930" />
		<tag k="operator" v="Sykkylven kommune" />
		<tag k="operator:type" v="public" />
		<tag k="start_date" v="1996-04-01" />
	</node>
	<node id="-4655" lat="62.3362" lon="6.59678">
		<tag k="amenity" v="kindergarten" />
		<tag k="capacity" v="24" />
		<tag k="contact:email" v="randi.hole@sykkylven.kommune.no" />
		<tag k="contact:phone" v="70 24 68 53" />
		<tag k="max_age" v="5" />
		<tag k="min_age" v="1" />
		<tag k="name" v="Tandstad barnehage" />
		<tag k="no-barnehage:nsrid" v="1016105" />
		<tag k="operator" v="Sykkylven kommune" />
		<tag k="operator:type" v="public" />
		<tag k="start_date" v="1989-01-01" />
	</node>
	<node id="-4654" lat="62.3906" lon="6.57531">
		<tag k="amenity" v="kindergarten" />
		<tag k="capacity" v="32" />
		<tag k="contact:phone" v="70 25 20 80" />
		<tag k="max_age" v="5" />
		<tag k="min_age" v="1" />
		<tag k="name" v="Nlm Barnehagene AS Avd Tryggheim Barnehage Sykkylven" />
		<tag k="no-barnehage:nsrid" v="1016179" />
		<tag k="operator" v="Nlm-Barnehagene AS" />
		<tag k="operator:type" v="private" />
		<tag k="start_date" v="1978-06-14" />
	</node>
	<node id="-4653" lat="62.39136" lon="6.594254">
		<tag k="amenity" v="kindergarten" />
		<tag k="capacity" v="69" />
		<tag k="contact:email" v="krikane.styrer@mimer.no" />
		<tag k="contact:phone" v="70 25 60 10" />
		<tag k="max_age" v="5" />
		<tag k="min_age" v="1" />
		<tag k="name" v="Krikane barnehage AS" />
		<tag k="no-barnehage:nsrid" v="1021417" />
		<tag k="operator" v="Krikane barnehage AS" />
		<tag k="operator:type" v="private" />
		<tag k="start_date" v="2006-02-17" />
	</node>
	<node id="-4652" lat="62.38689" lon="6.551425">
		<tag k="amenity" v="kindergarten" />
		<tag k="capacity" v="72" />
		<tag k="contact:email" v="dl.ikornnes@bhg.no" />
		<tag k="contact:phone" v="91 51 98 98" />
		<tag k="max_age" v="5" />
		<tag k="min_age" v="1" />
		<tag k="name" v="Ikornnes Fus barnehage AS" />
		<tag k="no-barnehage:nsrid" v="1021795" />
		<tag k="operator" v="Ikornnes Fus barnehage AS" />
		<tag k="operator:type" v="private" />
		<tag k="start_date" v="2008-02-19" />
	</node>
	<node id="-4651" lat="62.3979" lon="6.46504">
		<tag k="amenity" v="kindergarten" />
		<tag k="capacity" v="28" />
		<tag k="contact:email" v="berit.hanken@sykkylven.kommune.no" />
		<tag k="contact:phone" v="70246832" />
		<tag k="max_age" v="5" />
		<tag k="min_age" v="1" />
		<tag k="name" v="Blakstad barnehage" />
		<tag k="no-barnehage:nsrid" v="1012944" />
		<tag k="operator" v="Sykkylven kommune" />
		<tag k="operator:type" v="public" />
		<tag k="start_date" v="1989-01-02" />
	</node>
</osm>
