<?xml version="1.0" encoding="UTF-8"?>
<osm generator="osmapis" version="0.6">
	<node id="-5184" lat="63.2316" lon="10.2805">
		<tag k="amenity" v="kindergarten" />
		<tag k="capacity" v="64" />
		<tag k="max_age" v="5" />
		<tag k="min_age" v="1" />
		<tag k="name" v="Rosmælen Skole og barnehage Avd Barnehage" />
		<tag k="no-barnehage:nsrid" v="1014785" />
		<tag k="operator" v="Melhus kommune" />
		<tag k="operator:type" v="public" />
		<tag k="start_date" v="1993-08-01" />
	</node>
	<node id="-5183" lat="63.16106" lon="10.0993">
		<tag k="amenity" v="kindergarten" />
		<tag k="capacity" v="41" />
		<tag k="contact:phone" v="72 87 20 70" />
		<tag k="max_age" v="5" />
		<tag k="min_age" v="1" />
		<tag k="name" v="Regnbuen Friluftsbarnehage AS" />
		<tag k="no-barnehage:nsrid" v="1022199" />
		<tag k="operator" v="Regnbuen Friluftsbarnehage AS" />
		<tag k="operator:type" v="private" />
		<tag k="start_date" v="1996-09-01" />
	</node>
	<node id="-5182" lat="63.2694" lon="10.2963">
		<tag k="amenity" v="kindergarten" />
		<tag k="capacity" v="84" />
		<tag k="contact:phone" v="72 85 52 86" />
		<tag k="max_age" v="5" />
		<tag k="min_age" v="1" />
		<tag k="name" v="Presttrøa barnehage" />
		<tag k="no-barnehage:nsrid" v="1015447" />
		<tag k="operator" v="Melhus kommune" />
		<tag k="operator:type" v="public" />
		<tag k="start_date" v="1988-01-01" />
	</node>
	<node id="-5181" lat="63.29025" lon="10.32187">
		<tag k="amenity" v="kindergarten" />
		<tag k="capacity" v="57" />
		<tag k="contact:email" v="styrer@lovsetbhg.no" />
		<tag k="contact:phone" v="72 87 81 70" />
		<tag k="contact:website" v="http://www.lovsetbhg.no" />
		<tag k="max_age" v="5" />
		<tag k="min_age" v="1" />
		<tag k="name" v="Løvset barnehage" />
		<tag k="no-barnehage:nsrid" v="1021132" />
		<tag k="operator" v="Løvset barnehage Sa" />
		<tag k="operator:type" v="private" />
		<tag k="start_date" v="2004-10-15" />
	</node>
	<node id="-5180" lat="63.1454" lon="10.2798">
		<tag k="amenity" v="kindergarten" />
		<tag k="capacity" v="97" />
		<tag k="max_age" v="5" />
		<tag k="min_age" v="1" />
		<tag k="name" v="Lundamo Skole og barnehage Avd Barnehage" />
		<tag k="no-barnehage:nsrid" v="1018250" />
		<tag k="operator" v="Melhus kommune" />
		<tag k="operator:type" v="public" />
		<tag k="start_date" v="1989-01-01" />
	</node>
	<node id="-5179" lat="63.2746" lon="10.2404">
		<tag k="amenity" v="kindergarten" />
		<tag k="capacity" v="39" />
		<tag k="contact:phone" v="72 85 86 70" />
		<tag k="max_age" v="5" />
		<tag k="min_age" v="1" />
		<tag k="name" v="Kosekroken barnehage" />
		<tag k="no-barnehage:nsrid" v="1017404" />
		<tag k="operator" v="Melhus kommune" />
		<tag k="operator:type" v="public" />
		<tag k="start_date" v="1978-11-30" />
	</node>
	<node id="-5177" lat="63.1056" lon="10.2236">
		<tag k="amenity" v="kindergarten" />
		<tag k="capacity" v="97" />
		<tag k="max_age" v="5" />
		<tag k="min_age" v="1" />
		<tag k="name" v="Hovin Skole og barnehage Avd Barnehage" />
		<tag k="no-barnehage:nsrid" v="1018248" />
		<tag k="operator" v="Melhus kommune" />
		<tag k="operator:type" v="public" />
		<tag k="start_date" v="1989-01-01" />
	</node>
	<node id="-5176" lat="63.28717" lon="10.28821">
		<tag k="amenity" v="kindergarten" />
		<tag k="contact:email" v="hegerogstad@hotmail.com" />
		<tag k="contact:phone" v="482 40 020" />
		<tag k="name" v="Hege Rogstad" />
		<tag k="no-barnehage:nsrid" v="1026232" />
		<tag k="operator" v="Hege Rogstad" />
		<tag k="operator:type" v="private" />
		<tag k="start_date" v="2015-11-01" />
	</node>
	<node id="-5175" lat="63.1136" lon="9.98551">
		<tag k="amenity" v="kindergarten" />
		<tag k="capacity" v="25" />
		<tag k="max_age" v="5" />
		<tag k="min_age" v="1" />
		<tag k="name" v="Gåsbakken Skole og barnehage Avd Barnehage" />
		<tag k="no-barnehage:nsrid" v="1018247" />
		<tag k="operator" v="Melhus kommune" />
		<tag k="operator:type" v="public" />
		<tag k="start_date" v="1989-01-01" />
	</node>
	<node id="-5174" lat="63.2902" lon="10.257">
		<tag k="amenity" v="kindergarten" />
		<tag k="capacity" v="63" />
		<tag k="contact:email" v="gimsoya.barnehage@melhus.kommune.no" />
		<tag k="contact:phone" v="72 85 89 65" />
		<tag k="max_age" v="5" />
		<tag k="min_age" v="1" />
		<tag k="name" v="Gimsøya barnehage" />
		<tag k="no-barnehage:nsrid" v="1025333" />
		<tag k="operator" v="Melhus kommune" />
		<tag k="operator:type" v="public" />
		<tag k="start_date" v="1994-08-01" />
	</node>
	<node id="-5173" lat="63.1987" lon="10.3006">
		<tag k="amenity" v="kindergarten" />
		<tag k="capacity" v="74" />
		<tag k="max_age" v="5" />
		<tag k="min_age" v="1" />
		<tag k="name" v="Flå Skole og barnehage Avd Barnehage" />
		<tag k="no-barnehage:nsrid" v="1014740" />
		<tag k="operator" v="Melhus kommune" />
		<tag k="operator:type" v="public" />
		<tag k="start_date" v="1992-08-01" />
	</node>
	<node id="-5172" lat="63.28549" lon="10.26585">
		<tag k="amenity" v="kindergarten" />
		<tag k="capacity" v="50" />
		<tag k="contact:email" v="post@elvebakkenmontessoribhg.no" />
		<tag k="contact:phone" v="72 85 20 20" />
		<tag k="contact:website" v="http://www.elvebakkenmontessoribhg.no" />
		<tag k="max_age" v="5" />
		<tag k="min_age" v="1" />
		<tag k="name" v="Elvebakken Montessoribarnehage Sa" />
		<tag k="no-barnehage:nsrid" v="1020834" />
		<tag k="operator" v="Elvebakken Montessoribarnehage Sa" />
		<tag k="operator:type" v="private" />
		<tag k="start_date" v="2003-01-01" />
	</node>
	<node id="-5171" lat="63.1611" lon="10.0993">
		<tag k="amenity" v="kindergarten" />
		<tag k="capacity" v="17" />
		<tag k="max_age" v="5" />
		<tag k="min_age" v="1" />
		<tag k="name" v="Eid Skole og barnehage Avd Barnehage" />
		<tag k="no-barnehage:nsrid" v="1018249" />
		<tag k="operator" v="Melhus kommune" />
		<tag k="operator:type" v="public" />
		<tag k="start_date" v="1989-01-01" />
	</node>
	<node id="-5170" lat="63.26619" lon="10.23261">
		<tag k="amenity" v="kindergarten" />
		<tag k="capacity" v="82" />
		<tag k="max_age" v="5" />
		<tag k="min_age" v="1" />
		<tag k="name" v="Brekkåsen Idrettsbarnehage AS" />
		<tag k="no-barnehage:nsrid" v="1021605" />
		<tag k="operator" v="Brekkåsen Idrettsbarnehage AS" />
		<tag k="operator:type" v="private" />
		<tag k="start_date" v="2012-04-01" />
	</node>
	<node id="-5186" lat="63.2751" lon="10.2497">
		<tag k="amenity" v="kindergarten" />
		<tag k="capacity" v="91" />
		<tag k="contact:phone" v="72 87 93 00" />
		<tag k="max_age" v="5" />
		<tag k="min_age" v="1" />
		<tag k="name" v="Tambartun barnehage" />
		<tag k="no-barnehage:nsrid" v="1015562" />
		<tag k="operator" v="Melhus kommune" />
		<tag k="operator:type" v="public" />
		<tag k="start_date" v="1988-01-01" />
	</node>
	<node id="-5185" lat="63.2895" lon="10.2674">
		<tag k="amenity" v="kindergarten" />
		<tag k="capacity" v="62" />
		<tag k="contact:email" v="strandvegen.barnehage@melhus.kommune.no" />
		<tag k="contact:phone" v="72 85 86 79" />
		<tag k="max_age" v="5" />
		<tag k="min_age" v="1" />
		<tag k="name" v="Strandvegen barnehage" />
		<tag k="no-barnehage:nsrid" v="1018251" />
		<tag k="operator" v="Melhus kommune" />
		<tag k="operator:type" v="public" />
		<tag k="start_date" v="1989-01-01" />
	</node>
</osm>
