<?xml version="1.0" encoding="UTF-8"?>
<osm generator="osmapis" version="0.6">
	<node id="-5095" lat="63.28555" lon="10.27806">
		<tag k="amenity" v="kindergarten" />
		<tag k="capacity" v="4" />
		<tag k="contact:email" v="siljeclk@gmail.com" />
		<tag k="max_age" v="2" />
		<tag k="min_age" v="1" />
		<tag k="name" v="Vesletun Familiebarnehage" />
		<tag k="no-barnehage:nsrid" v="1021209" />
		<tag k="operator" v="Silje Carina Lyngen Kilaas" />
		<tag k="operator:type" v="private" />
		<tag k="start_date" v="2009-01-01" />
	</node>
	<node id="-5078" lat="63.27124" lon="10.23951">
		<tag k="amenity" v="kindergarten" />
		<tag k="capacity" v="4" />
		<tag k="contact:email" v="karin.lreinsbakk@gmail.com" />
		<tag k="contact:phone" v="932 58 952" />
		<tag k="max_age" v="2" />
		<tag k="min_age" v="1" />
		<tag k="name" v="Brekkåsen Familiebarnehage Karin Langland Reinsbakk" />
		<tag k="no-barnehage:nsrid" v="1021956" />
		<tag k="operator" v="Brekkåsen Familiebarnehage Karin Langland Reinsbakk" />
		<tag k="operator:type" v="private" />
		<tag k="start_date" v="2009-08-01" />
	</node>
	<node id="-5086" lat="63.29213" lon="10.25424">
		<tag k="amenity" v="kindergarten" />
		<tag k="capacity" v="8" />
		<tag k="contact:email" v="humla.familiebarnehage@gmail.com" />
		<tag k="contact:phone" v="481 55 252" />
		<tag k="max_age" v="2" />
		<tag k="min_age" v="1" />
		<tag k="name" v="Humla Familiebarnehage Da" />
		<tag k="no-barnehage:nsrid" v="1022062" />
		<tag k="operator" v="Humla Familiebarnehage Da" />
		<tag k="operator:type" v="private" />
		<tag k="start_date" v="2010-07-01" />
	</node>
	<node id="-5094" lat="63.28717" lon="10.28821">
		<tag k="amenity" v="kindergarten" />
		<tag k="capacity" v="8" />
		<tag k="contact:email" v="trolltoppen.familiebhg@gmail.com" />
		<tag k="contact:phone" v="92 83 77 64" />
		<tag k="max_age" v="2" />
		<tag k="min_age" v="1" />
		<tag k="name" v="Trolltoppen Familiebarnehage Da" />
		<tag k="no-barnehage:nsrid" v="1021751" />
		<tag k="operator" v="Trolltoppen Familiebarnehage Da" />
		<tag k="operator:type" v="private" />
		<tag k="start_date" v="2007-07-12" />
	</node>
</osm>
