<?xml version="1.0" encoding="UTF-8"?>
<osm generator="osmapis" version="0.6">
	<node id="-2270" lat="60.8497" lon="8.61643">
		<tag k="amenity" v="kindergarten" />
		<tag k="capacity" v="67" />
		<tag k="contact:email" v="eva.markegard@hemsedal.kommune.no" />
		<tag k="doNotImportAddress" v="Hemsedalsvegen 2542 3560 HEMSEDAL" />
		<tag k="max_age" v="5" />
		<tag k="min_age" v="1" />
		<tag k="name" v="UlsÃ¥k oppvekstsenter avd. barnehage" />
		<tag k="no-barnehage:nsrid" v="1012496" />
		<tag k="operator" v="Hemsedal kommune" />
		<tag k="operator:type" v="public" />
	</node>
	<node id="-2269" lat="60.8787" lon="8.47288">
		<tag k="amenity" v="kindergarten" />
		<tag k="capacity" v="45" />
		<tag k="contact:email" v="monika.randar@hemsedal.kommune.no" />
		<tag k="doNotImportAddress" v="Evjusvingen 11 3560 HEMSEDAL" />
		<tag k="max_age" v="5" />
		<tag k="min_age" v="1" />
		<tag k="name" v="Tuv oppvekstsenter avd. barnehage" />
		<tag k="no-barnehage:nsrid" v="1015580" />
		<tag k="operator" v="Hemsedal kommune" />
		<tag k="operator:type" v="public" />
	</node>
</osm>
