<?xml version="1.0" encoding="UTF-8"?>
<osm generator="osmapis" version="0.6">
	<node id="-2309" lat="60.8497" lon="8.61643">
		<tag k="amenity" v="kindergarten" />
		<tag k="capacity" v="70" />
		<tag k="contact:email" v="eva.markegard@hemsedal.kommune.no" />
		<tag k="max_age" v="5" />
		<tag k="min_age" v="1" />
		<tag k="name" v="UlsÃ¥k Oppvekstsenter Avdeling Barnehage" />
		<tag k="no-barnehage:nsrid" v="1012496" />
		<tag k="operator" v="Hemsedal kommune" />
		<tag k="operator:type" v="public" />
		<tag k="start_date" v="1989-01-01" />
	</node>
	<node id="-2308" lat="60.8787" lon="8.47288">
		<tag k="amenity" v="kindergarten" />
		<tag k="capacity" v="49" />
		<tag k="contact:email" v="monika.randar@hemsedal.kommune.no" />
		<tag k="max_age" v="5" />
		<tag k="min_age" v="1" />
		<tag k="name" v="Tuv Oppvekstsenter Avdeling Barnehage" />
		<tag k="no-barnehage:nsrid" v="1015580" />
		<tag k="operator" v="Hemsedal kommune" />
		<tag k="operator:type" v="public" />
		<tag k="start_date" v="1997-03-01" />
	</node>
</osm>
