<?xml version="1.0" encoding="UTF-8"?>
<osm generator="osmapis" version="0.6">
	<node id="-5974" lat="69.9374" lon="22.0492">
		<tag k="amenity" v="kindergarten" />
		<tag k="capacity" v="36" />
		<tag k="contact:email" v="jorunn.farstad@kvanangen.kommune.no" />
		<tag k="max_age" v="5" />
		<tag k="min_age" v="1" />
		<tag k="name" v="Burfjord barnehage" />
		<tag k="no-barnehage:nsrid" v="1013713" />
		<tag k="operator" v="Kvænangen kommune" />
		<tag k="operator:type" v="public" />
		<tag k="start_date" v="1989-01-01" />
	</node>
	<node id="-5973" lat="69.8408" lon="21.8545">
		<tag k="amenity" v="kindergarten" />
		<tag k="capacity" v="6" />
		<tag k="contact:email" v="kathrine.pedersen@kvanangen.kommune.no" />
		<tag k="max_age" v="5" />
		<tag k="min_age" v="1" />
		<tag k="name" v="Badderen barnehage" />
		<tag k="no-barnehage:nsrid" v="1012572" />
		<tag k="operator" v="Kvænangen kommune" />
		<tag k="operator:type" v="public" />
		<tag k="start_date" v="1993-12-15" />
	</node>
</osm>
