<?xml version="1.0" encoding="UTF-8"?>
<osm generator="osmapis" version="0.6">
	<node id="-4200" lat="60.3867" lon="6.20078">
		<tag k="amenity" v="kindergarten" />
		<tag k="capacity" v="38" />
		<tag k="contact:phone" v="56 55 57 75" />
		<tag k="max_age" v="5" />
		<tag k="min_age" v="1" />
		<tag k="name" v="Øystese barnehage" />
		<tag k="no-barnehage:nsrid" v="1016096" />
		<tag k="operator" v="Kvam kommune" />
		<tag k="operator:type" v="public" />
		<tag k="start_date" v="1989-01-01" />
	</node>
	<node id="-4199" lat="60.2987" lon="6.16665">
		<tag k="amenity" v="kindergarten" />
		<tag k="capacity" v="28" />
		<tag k="contact:phone" v="56 55 83 84" />
		<tag k="max_age" v="5" />
		<tag k="min_age" v="1" />
		<tag k="name" v="Tørvikbygd barnehage" />
		<tag k="no-barnehage:nsrid" v="1013429" />
		<tag k="operator" v="Kvam kommune" />
		<tag k="operator:type" v="public" />
		<tag k="start_date" v="2007-09-01" />
	</node>
	<node id="-4198" lat="60.2581" lon="6.006">
		<tag k="amenity" v="kindergarten" />
		<tag k="capacity" v="33" />
		<tag k="contact:phone" v="56 55 92 04" />
		<tag k="max_age" v="5" />
		<tag k="min_age" v="1" />
		<tag k="name" v="Strandebarm barnehage" />
		<tag k="no-barnehage:nsrid" v="1016094" />
		<tag k="operator" v="Kvam kommune" />
		<tag k="operator:type" v="public" />
		<tag k="start_date" v="1989-01-01" />
	</node>
	<node id="-4197" lat="60.2155" lon="5.96695">
		<tag k="amenity" v="kindergarten" />
		<tag k="capacity" v="15" />
		<tag k="contact:phone" v="56 55 42 11" />
		<tag k="max_age" v="5" />
		<tag k="min_age" v="1" />
		<tag k="name" v="Oma barnehage" />
		<tag k="no-barnehage:nsrid" v="1016093" />
		<tag k="operator" v="Kvam kommune" />
		<tag k="operator:type" v="public" />
		<tag k="start_date" v="1989-01-01" />
	</node>
	<node id="-4196" lat="60.3691" lon="6.14337">
		<tag k="amenity" v="kindergarten" />
		<tag k="capacity" v="48" />
		<tag k="max_age" v="5" />
		<tag k="min_age" v="1" />
		<tag k="name" v="Norheimsund barnehage" />
		<tag k="no-barnehage:nsrid" v="1015534" />
		<tag k="operator" v="Kvam kommune" />
		<tag k="operator:type" v="public" />
		<tag k="start_date" v="1976-12-24" />
	</node>
	<node id="-4195" lat="60.4036" lon="6.26938">
		<tag k="amenity" v="kindergarten" />
		<tag k="capacity" v="20" />
		<tag k="contact:phone" v="56551200" />
		<tag k="max_age" v="5" />
		<tag k="min_age" v="1" />
		<tag k="name" v="Fykse barnehage" />
		<tag k="no-barnehage:nsrid" v="1016097" />
		<tag k="operator" v="Kvam kommune" />
		<tag k="operator:type" v="public" />
		<tag k="start_date" v="1978-10-03" />
	</node>
	<node id="-4194" lat="60.386" lon="6.19558">
		<tag k="amenity" v="kindergarten" />
		<tag k="capacity" v="107" />
		<tag k="contact:phone" v="56 55 60 10" />
		<tag k="max_age" v="5" />
		<tag k="min_age" v="1" />
		<tag k="name" v="Bjørketeigen barnehage" />
		<tag k="no-barnehage:nsrid" v="1016095" />
		<tag k="operator" v="Kvam kommune" />
		<tag k="operator:type" v="public" />
		<tag k="start_date" v="1989-01-01" />
	</node>
</osm>
