<?xml version="1.0" encoding="UTF-8"?>
<osm version="0.6" generator="osmapis">
	<node lat="60.64827" lon="9.7826" id="-3221">
		<tag k="ADDRESS" v="Valdresvegen 1131, 2936 BEGNADALEN" />
		<tag k="amenity" v="kindergarten" />
		<tag k="capacity" v="6" />
		<tag k="max_age" v="5" />
		<tag k="min_age" v="1" />
		<tag k="name" v="Begnadalen barnehage" />
		<tag k="no-barnehage:nsrid" v="975297306" />
		<tag k="operator" v="Sør-Aurdal kommune" />
		<tag k="operator:type" v="public" />
	</node>
	<node lat="60.60512" lon="9.74319" id="-3222">
		<tag k="ADDRESS" v="Hedalsvegen 2100, 3528 HEDALEN" />
		<tag k="amenity" v="kindergarten" />
		<tag k="capacity" v="20" />
		<tag k="max_age" v="5" />
		<tag k="min_age" v="1" />
		<tag k="name" v="Hedalen naturbarnehage" />
		<tag k="no-barnehage:nsrid" v="973456717" />
		<tag k="operator" v="Sør-Aurdal kommune" />
		<tag k="operator:type" v="public" />
	</node>
	<node lat="60.83112" lon="9.49533" id="-3223">
		<tag k="ADDRESS" v="Reinlivegen 354, 2933 REINLI" />
		<tag k="amenity" v="kindergarten" />
		<tag k="capacity" v="53" />
		<tag k="max_age" v="5" />
		<tag k="min_age" v="1" />
		<tag k="name" v="Reinli barnehage" />
		<tag k="no-barnehage:nsrid" v="973485318" />
		<tag k="operator" v="Sør-Aurdal kommune" />
		<tag k="operator:type" v="public" />
	</node>
</osm>
