<?xml version="1.0" encoding="UTF-8"?>
<osm generator="osmapis" version="0.6">
	<node id="-216" lat="59.61634" lon="11.41263">
		<tag k="ADDRESS" v="Kroksundveien 64, 1860 TRØGSTAD" />
		<tag k="amenity" v="kindergarten" />
		<tag k="capacity" v="31" />
		<tag k="max_age" v="5" />
		<tag k="min_age" v="1" />
		<tag k="name" v="Havnås oppvekstsenter avd. barnehage" />
		<tag k="no-barnehage:nsrid" v="1017264" />
		<tag k="operator" v="Trøgstad kommune" />
		<tag k="operator:type" v="public" />
	</node>
	<node id="-215" lat="59.69079" lon="11.29468">
		<tag k="ADDRESS" v="Båstadveien 488, 1866 BÅSTAD" />
		<tag k="amenity" v="kindergarten" />
		<tag k="capacity" v="51" />
		<tag k="max_age" v="5" />
		<tag k="min_age" v="1" />
		<tag k="name" v="Båstad barnehage" />
		<tag k="no-barnehage:nsrid" v="1014870" />
		<tag k="operator" v="Trøgstad kommune" />
		<tag k="operator:type" v="public" />
	</node>
	<node id="-219" lat="59.64103" lon="11.32032">
		<tag k="ADDRESS" v="Idrettsveien 14, 1860 TRØGSTAD" />
		<tag k="amenity" v="kindergarten" />
		<tag k="capacity" v="82" />
		<tag k="max_age" v="5" />
		<tag k="min_age" v="1" />
		<tag k="name" v="Skjønhaug barnehage" />
		<tag k="no-barnehage:nsrid" v="1015985" />
		<tag k="operator" v="Trøgstad kommune" />
		<tag k="operator:type" v="public" />
	</node>
	<node id="-218" lat="59.69554" lon="11.29626">
		<tag k="ADDRESS" v="Båstadveien 552, 1866 BÅSTAD" />
		<tag k="amenity" v="kindergarten" />
		<tag k="capacity" v="20" />
		<tag k="max_age" v="5" />
		<tag k="min_age" v="1" />
		<tag k="name" v="Kirkestua barnehage" />
		<tag k="no-barnehage:nsrid" v="1014310" />
		<tag k="operator" v="Trøgstad Kirkelige Fellesråd" />
		<tag k="operator:type" v="private" />
	</node>
	<node id="-217" lat="59.63727" lon="11.31206">
		<tag k="ADDRESS" v="Trøgstadveien 1200, 1860 TRØGSTAD" />
		<tag k="amenity" v="kindergarten" />
		<tag k="capacity" v="47" />
		<tag k="max_age" v="5" />
		<tag k="min_age" v="1" />
		<tag k="name" v="Kirkestallen barnehage" />
		<tag k="no-barnehage:nsrid" v="1015567" />
		<tag k="operator" v="Trøgstad Kirkelige Fellesråd" />
		<tag k="operator:type" v="private" />
	</node>
</osm>
