<?xml version="1.0" encoding="UTF-8"?>
<osm generator="osmapis" version="0.6">
	<node id="-5877" lat="68.7369" lon="16.2585">
		<tag k="amenity" v="kindergarten" />
		<tag k="capacity" v="32" />
		<tag k="contact:email" v="linn.hvattum@kvafjord.kommune.no" />
		<tag k="contact:phone" v="+47 77023000" />
		<tag k="max_age" v="5" />
		<tag k="min_age" v="1" />
		<tag k="name" v="Vik Oppvekstsenter Avdeling Barnehage" />
		<tag k="no-barnehage:nsrid" v="1012558" />
		<tag k="operator" v="Kvæfjord kommune" />
		<tag k="operator:type" v="public" />
		<tag k="start_date" v="1990-08-01" />
	</node>
	<node id="-5876" lat="68.7766" lon="16.1808">
		<tag k="amenity" v="kindergarten" />
		<tag k="capacity" v="53" />
		<tag k="contact:email" v="ann-lissbeth.vinje@kvafjord.kommune.no" />
		<tag k="contact:phone" v="+47 77 02 32 94" />
		<tag k="max_age" v="5" />
		<tag k="min_age" v="1" />
		<tag k="name" v="Husby barnehage" />
		<tag k="no-barnehage:nsrid" v="1015172" />
		<tag k="operator" v="Kvæfjord kommune" />
		<tag k="operator:type" v="public" />
		<tag k="start_date" v="2012-08-20" />
	</node>
	<node id="-5875" lat="68.5293" lon="15.7456">
		<tag k="amenity" v="kindergarten" />
		<tag k="capacity" v="4" />
		<tag k="contact:email" v="inger.holand@kvafjord.kommune.no" />
		<tag k="contact:phone" v="+47 77 02 33 00" />
		<tag k="max_age" v="5" />
		<tag k="min_age" v="1" />
		<tag k="name" v="Flesnes Oppvekstsenter Avd Barnehage" />
		<tag k="no-barnehage:nsrid" v="1015928" />
		<tag k="operator" v="Kvæfjord kommune" />
		<tag k="operator:type" v="public" />
		<tag k="start_date" v="1989-01-02" />
	</node>
	<node id="-5874" lat="68.7745" lon="16.1745">
		<tag k="amenity" v="kindergarten" />
		<tag k="capacity" v="27" />
		<tag k="contact:email" v="linda.knutsen@kvafjord.kommune.no" />
		<tag k="contact:phone" v="+47 77023000" />
		<tag k="max_age" v="5" />
		<tag k="min_age" v="1" />
		<tag k="name" v="Borkenes barnehage" />
		<tag k="no-barnehage:nsrid" v="1013691" />
		<tag k="operator" v="Kvæfjord kommune" />
		<tag k="operator:type" v="public" />
		<tag k="start_date" v="1989-01-01" />
	</node>
</osm>
