<?xml version="1.0" encoding="UTF-8"?>
<osm generator="osmapis" version="0.6">
	<node id="-3957" lat="0.0" lon="0.0">
		<tag k="amenity" v="kindergarten" />
		<tag k="capacity" v="21" />
		<tag k="contact:website" v="http://www2.lindesnes.kommune.no/vigmostad-barnehage" />
		<tag k="max_age" v="5" />
		<tag k="min_age" v="1" />
		<tag k="name" v="Vigmostad barnehage" />
		<tag k="no-barnehage:nsrid" v="1015692" />
		<tag k="operator" v="Lindesnes kommune" />
		<tag k="operator:type" v="public" />
	</node>
	<node id="-3956" lat="58.047" lon="7.14111">
		<tag k="amenity" v="kindergarten" />
		<tag k="capacity" v="29" />
		<tag k="max_age" v="5" />
		<tag k="min_age" v="1" />
		<tag k="name" v="Spangereid naturbarnehage" />
		<tag k="no-barnehage:nsrid" v="1022304" />
		<tag k="operator" v="Spangereid Naturbarnehage AS" />
		<tag k="operator:type" v="private" />
	</node>
	<node id="-3955" lat="58.05299" lon="7.19154">
		<tag k="amenity" v="kindergarten" />
		<tag k="capacity" v="17" />
		<tag k="contact:website" v="http://www.remehaugen.no" />
		<tag k="max_age" v="5" />
		<tag k="min_age" v="1" />
		<tag k="name" v="Remehaugen kystbarnehage" />
		<tag k="no-barnehage:nsrid" v="1022105" />
		<tag k="operator" v="Remehaugen barnehage AS" />
		<tag k="operator:type" v="private" />
	</node>
	<node id="-3954" lat="0.0" lon="0.0">
		<tag k="amenity" v="kindergarten" />
		<tag k="capacity" v="92" />
		<tag k="contact:website" v="http://www2.lindesnes.kommune.no/hestehaven-barnehage" />
		<tag k="max_age" v="5" />
		<tag k="min_age" v="1" />
		<tag k="name" v="Hestehaven barnehage" />
		<tag k="no-barnehage:nsrid" v="1013351" />
		<tag k="operator" v="Lindesnes kommune" />
		<tag k="operator:type" v="public" />
	</node>
	<node id="-3953" lat="58.07309" lon="7.29017">
		<tag k="amenity" v="kindergarten" />
		<tag k="capacity" v="83" />
		<tag k="contact:website" v="http://www.espira.no" />
		<tag k="max_age" v="5" />
		<tag k="min_age" v="1" />
		<tag k="name" v="Espira Lindesnes" />
		<tag k="no-barnehage:nsrid" v="1022073" />
		<tag k="operator" v="Espira Lindesnes AS" />
		<tag k="operator:type" v="private" />
	</node>
	<node id="-3952" lat="58.04277" lon="7.14709">
		<tag k="amenity" v="kindergarten" />
		<tag k="capacity" v="32" />
		<tag k="contact:website" v="http://www2.lindesnes.kommune.no/baaly-barnehage" />
		<tag k="max_age" v="5" />
		<tag k="min_age" v="1" />
		<tag k="name" v="BÃ¥ly barnehage" />
		<tag k="no-barnehage:nsrid" v="1015775" />
		<tag k="operator" v="Lindesnes kommune" />
		<tag k="operator:type" v="public" />
	</node>
	<node id="-3951" lat="0.0" lon="0.0">
		<tag k="amenity" v="kindergarten" />
		<tag k="capacity" v="10" />
		<tag k="max_age" v="5" />
		<tag k="min_age" v="1" />
		<tag k="name" v="Barnas naturbarnehage" />
		<tag k="no-barnehage:nsrid" v="1022301" />
		<tag k="operator" v="Barnas Naturbarnehage Da" />
		<tag k="operator:type" v="private" />
	</node>
</osm>
