<?xml version="1.0" encoding="UTF-8"?>
<osm generator="osmapis" version="0.6">
	<node id="-3279" lat="58.1171" lon="7.30332">
		<tag k="amenity" v="kindergarten" />
		<tag k="capacity" v="23" />
		<tag k="contact:email" v="linn.therese.roysland@lindesnes.kommune.no" />
		<tag k="max_age" v="5" />
		<tag k="min_age" v="1" />
		<tag k="name" v="Vigmostad barnehage" />
		<tag k="no-barnehage:nsrid" v="1015692" />
		<tag k="operator" v="Lindesnes kommune" />
		<tag k="operator:type" v="public" />
		<tag k="start_date" v="1998-01-01" />
	</node>
	<node id="-3278" lat="58.1171" lon="7.30332">
		<tag k="amenity" v="kindergarten" />
		<tag k="capacity" v="99" />
		<tag k="contact:email" v="ods@lindesnes.kommune.no" />
		<tag k="max_age" v="5" />
		<tag k="min_age" v="1" />
		<tag k="name" v="Hestehaven barnehage" />
		<tag k="no-barnehage:nsrid" v="1013351" />
		<tag k="operator" v="Lindesnes kommune" />
		<tag k="operator:type" v="public" />
		<tag k="start_date" v="2005-01-01" />
	</node>
	<node id="-3277" lat="58.0478" lon="7.15649">
		<tag k="amenity" v="kindergarten" />
		<tag k="capacity" v="33" />
		<tag k="contact:email" v="bel@lindesnes.kommune.no" />
		<tag k="max_age" v="5" />
		<tag k="min_age" v="1" />
		<tag k="name" v="BÃ¥ly barnehage" />
		<tag k="no-barnehage:nsrid" v="1015775" />
		<tag k="operator" v="Lindesnes kommune" />
		<tag k="operator:type" v="public" />
		<tag k="start_date" v="1999-08-01" />
	</node>
</osm>
