<?xml version="1.0" encoding="UTF-8"?>
<osm generator="osmapis" version="0.6">
	<node id="-1824" lat="60.9319" lon="11.6326">
		<tag k="amenity" v="kindergarten" />
		<tag k="capacity" v="16" />
		<tag k="max_age" v="5" />
		<tag k="min_age" v="1" />
		<tag k="name" v="Kirkeby oppvekstsenter avd. barnehage" />
		<tag k="no-barnehage:nsrid" v="1018342" />
		<tag k="operator" v="Elverum kommune" />
		<tag k="operator:type" v="public" />
	</node>
	<node id="-1823" lat="60.8835" lon="11.5647">
		<tag k="amenity" v="kindergarten" />
		<tag k="capacity" v="27" />
		<tag k="max_age" v="5" />
		<tag k="min_age" v="1" />
		<tag k="name" v="Husmorlagets Hus barnehage" />
		<tag k="no-barnehage:nsrid" v="1025498" />
		<tag k="operator" v="Elverum kommune" />
		<tag k="operator:type" v="public" />
	</node>
	<node id="-1822" lat="60.88207" lon="11.56247">
		<tag k="amenity" v="kindergarten" />
		<tag k="capacity" v="67" />
		<tag k="max_age" v="5" />
		<tag k="min_age" v="1" />
		<tag k="name" v="Hernes FUS barnehage" />
		<tag k="no-barnehage:nsrid" v="1022051" />
		<tag k="operator" v="Hernes Fus barnehage AS" />
		<tag k="operator:type" v="private" />
	</node>
	<node id="-1821" lat="60.86661" lon="11.57112">
		<tag k="amenity" v="kindergarten" />
		<tag k="capacity" v="77" />
		<tag k="max_age" v="5" />
		<tag k="min_age" v="1" />
		<tag k="name" v="Hakkebakkeskogen naturbarnehage" />
		<tag k="no-barnehage:nsrid" v="1021046" />
		<tag k="operator" v="Hakkebakkeskogen Naturbarnehage Sa" />
		<tag k="operator:type" v="private" />
	</node>
	<node id="-1820" lat="60.82262" lon="11.59776">
		<tag k="amenity" v="kindergarten" />
		<tag k="capacity" v="61" />
		<tag k="contact:website" v="http://www.hagen.barnehageside.no" />
		<tag k="max_age" v="5" />
		<tag k="min_age" v="1" />
		<tag k="name" v="Hagen barnehage" />
		<tag k="no-barnehage:nsrid" v="1020118" />
		<tag k="operator" v="Hagen barnehage Sa" />
		<tag k="operator:type" v="private" />
	</node>
	<node id="-1819" lat="60.87144" lon="11.57443">
		<tag k="amenity" v="kindergarten" />
		<tag k="capacity" v="92" />
		<tag k="max_age" v="5" />
		<tag k="min_age" v="1" />
		<tag k="name" v="Grønnmyra FUS barnehage" />
		<tag k="no-barnehage:nsrid" v="1021586" />
		<tag k="operator" v="Grønnmyra Fus barnehage AS" />
		<tag k="operator:type" v="private" />
	</node>
	<node id="-1818" lat="60.8756" lon="11.5737">
		<tag k="amenity" v="kindergarten" />
		<tag k="capacity" v="41" />
		<tag k="max_age" v="5" />
		<tag k="min_age" v="1" />
		<tag k="name" v="Fjeldmoravegen barnehage" />
		<tag k="no-barnehage:nsrid" v="1017583" />
		<tag k="operator" v="Elverum kommune" />
		<tag k="operator:type" v="public" />
	</node>
	<node id="-1817" lat="60.88584" lon="11.53524">
		<tag k="amenity" v="kindergarten" />
		<tag k="capacity" v="80" />
		<tag k="contact:website" v="http://www.espira.no" />
		<tag k="max_age" v="5" />
		<tag k="min_age" v="1" />
		<tag k="name" v="Espira Nordmo barnehage" />
		<tag k="no-barnehage:nsrid" v="1020880" />
		<tag k="operator" v="Espira Nordmo AS" />
		<tag k="operator:type" v="private" />
	</node>
	<node id="-1816" lat="60.8606" lon="11.5764">
		<tag k="amenity" v="kindergarten" />
		<tag k="capacity" v="31" />
		<tag k="max_age" v="5" />
		<tag k="min_age" v="1" />
		<tag k="name" v="Bakkebygrenda barnehage" />
		<tag k="no-barnehage:nsrid" v="1015968" />
		<tag k="operator" v="Elverum kommune" />
		<tag k="operator:type" v="public" />
	</node>
	<node id="-1833" lat="60.8901" lon="11.5305">
		<tag k="amenity" v="kindergarten" />
		<tag k="capacity" v="40" />
		<tag k="max_age" v="5" />
		<tag k="min_age" v="1" />
		<tag k="name" v="Vestad barnehage" />
		<tag k="no-barnehage:nsrid" v="1013805" />
		<tag k="operator" v="Elverum kommune" />
		<tag k="operator:type" v="public" />
	</node>
	<node id="-1832" lat="60.8837" lon="11.5322">
		<tag k="amenity" v="kindergarten" />
		<tag k="capacity" v="113" />
		<tag k="max_age" v="5" />
		<tag k="min_age" v="1" />
		<tag k="name" v="Terningen barnehage" />
		<tag k="no-barnehage:nsrid" v="1018608" />
		<tag k="operator" v="Elverum kommune" />
		<tag k="operator:type" v="public" />
	</node>
	<node id="-1831" lat="60.95823" lon="11.78781">
		<tag k="amenity" v="kindergarten" />
		<tag k="capacity" v="47" />
		<tag k="max_age" v="5" />
		<tag k="min_age" v="1" />
		<tag k="name" v="Sørskogbygda naturbarnehage" />
		<tag k="no-barnehage:nsrid" v="1020239" />
		<tag k="operator" v="Sørskogbygda Naturbarnehage Sa" />
		<tag k="operator:type" v="private" />
	</node>
	<node id="-1830" lat="60.9076" lon="11.5551">
		<tag k="amenity" v="kindergarten" />
		<tag k="capacity" v="40" />
		<tag k="max_age" v="5" />
		<tag k="min_age" v="1" />
		<tag k="name" v="Søbakken barnehage" />
		<tag k="no-barnehage:nsrid" v="1017584" />
		<tag k="operator" v="Elverum kommune" />
		<tag k="operator:type" v="public" />
	</node>
	<node id="-1829" lat="60.87247" lon="11.58525">
		<tag k="amenity" v="kindergarten" />
		<tag k="capacity" v="101" />
		<tag k="contact:website" v="http://www.svartholtet.bhg.no" />
		<tag k="max_age" v="5" />
		<tag k="min_age" v="1" />
		<tag k="name" v="Svartholtet barnehage" />
		<tag k="no-barnehage:nsrid" v="1021511" />
		<tag k="operator" v="Svartholtet barnehage AS" />
		<tag k="operator:type" v="private" />
	</node>
	<node id="-1828" lat="60.8747" lon="11.562">
		<tag k="amenity" v="kindergarten" />
		<tag k="capacity" v="20" />
		<tag k="contact:website" v="http://www.sinn.no" />
		<tag k="max_age" v="5" />
		<tag k="min_age" v="1" />
		<tag k="name" v="Studentsamskipnaden i Innlandet avd. studentbarnehagen Veien" />
		<tag k="no-barnehage:nsrid" v="1015837" />
		<tag k="operator" v="Studentsamskipnaden i Innlandet" />
		<tag k="operator:type" v="private" />
	</node>
	<node id="-1827" lat="60.9097" lon="11.5657">
		<tag k="amenity" v="kindergarten" />
		<tag k="capacity" v="65" />
		<tag k="max_age" v="5" />
		<tag k="min_age" v="1" />
		<tag k="name" v="Stavåsbakken barnehage" />
		<tag k="no-barnehage:nsrid" v="1016513" />
		<tag k="operator" v="Elverum kommune" />
		<tag k="operator:type" v="public" />
	</node>
	<node id="-1826" lat="60.8725" lon="11.5655">
		<tag k="amenity" v="kindergarten" />
		<tag k="capacity" v="100" />
		<tag k="max_age" v="5" />
		<tag k="min_age" v="1" />
		<tag k="name" v="Sorenskrivergården barnehage" />
		<tag k="no-barnehage:nsrid" v="1018571" />
		<tag k="operator" v="Elverum kommune" />
		<tag k="operator:type" v="public" />
	</node>
	<node id="-1825" lat="60.8611" lon="11.5692">
		<tag k="amenity" v="kindergarten" />
		<tag k="capacity" v="31" />
		<tag k="max_age" v="5" />
		<tag k="min_age" v="1" />
		<tag k="name" v="Solkroken barnehage" />
		<tag k="no-barnehage:nsrid" v="1013948" />
		<tag k="operator" v="Elverum kommune" />
		<tag k="operator:type" v="public" />
	</node>
</osm>
