<?xml version="1.0" encoding="UTF-8"?>
<osm generator="osmapis" version="0.6">
	<node id="-1952" lat="60.8901" lon="11.5305">
		<tag k="amenity" v="kindergarten" />
		<tag k="capacity" v="41" />
		<tag k="max_age" v="5" />
		<tag k="min_age" v="1" />
		<tag k="name" v="Vestad barnehage" />
		<tag k="no-barnehage:nsrid" v="1013805" />
		<tag k="operator" v="Elverum kommune" />
		<tag k="operator:type" v="public" />
		<tag k="start_date" v="1989-01-02" />
	</node>
	<node id="-1951" lat="60.88207" lon="11.56247">
		<tag k="amenity" v="kindergarten" />
		<tag k="capacity" v="67" />
		<tag k="max_age" v="5" />
		<tag k="min_age" v="1" />
		<tag k="name" v="Hernes Fus barnehage AS" />
		<tag k="no-barnehage:nsrid" v="1022051" />
		<tag k="operator" v="Hernes Fus barnehage AS" />
		<tag k="operator:type" v="private" />
		<tag k="start_date" v="2010-12-31" />
	</node>
	<node id="-1950" lat="60.86661" lon="11.57112">
		<tag k="amenity" v="kindergarten" />
		<tag k="capacity" v="76" />
		<tag k="contact:phone" v="62 40 95 00" />
		<tag k="max_age" v="5" />
		<tag k="min_age" v="1" />
		<tag k="name" v="Hakkebakkeskogen Naturbarnehage Sa" />
		<tag k="no-barnehage:nsrid" v="1021046" />
		<tag k="operator" v="Hakkebakkeskogen Naturbarnehage Sa" />
		<tag k="operator:type" v="private" />
		<tag k="start_date" v="2004-05-03" />
	</node>
	<node id="-1949" lat="60.82262" lon="11.59776">
		<tag k="amenity" v="kindergarten" />
		<tag k="capacity" v="60" />
		<tag k="contact:email" v="hagen.barnehage@c2i.net" />
		<tag k="contact:phone" v="62418398" />
		<tag k="contact:website" v="http://www.hagen.barnehageside.no" />
		<tag k="max_age" v="5" />
		<tag k="min_age" v="1" />
		<tag k="name" v="Hagen barnehage Sa" />
		<tag k="no-barnehage:nsrid" v="1020118" />
		<tag k="operator" v="Hagen barnehage Sa" />
		<tag k="operator:type" v="private" />
		<tag k="start_date" v="1989-01-02" />
	</node>
	<node id="-1948" lat="60.87144" lon="11.57443">
		<tag k="amenity" v="kindergarten" />
		<tag k="capacity" v="88" />
		<tag k="contact:email" v="dl.gronnmyra@bhg.no" />
		<tag k="contact:phone" v="62 42 63 30" />
		<tag k="max_age" v="5" />
		<tag k="min_age" v="1" />
		<tag k="name" v="Grønnmyra Fus barnehage AS" />
		<tag k="no-barnehage:nsrid" v="1021586" />
		<tag k="operator" v="Grønnmyra Fus barnehage AS" />
		<tag k="operator:type" v="private" />
		<tag k="start_date" v="2007-01-12" />
	</node>
	<node id="-1947" lat="60.8756" lon="11.5737">
		<tag k="amenity" v="kindergarten" />
		<tag k="capacity" v="39" />
		<tag k="max_age" v="5" />
		<tag k="min_age" v="1" />
		<tag k="name" v="Fjeldmoravegen barnehage" />
		<tag k="no-barnehage:nsrid" v="1017583" />
		<tag k="operator" v="Elverum kommune" />
		<tag k="operator:type" v="public" />
		<tag k="start_date" v="1988-04-01" />
	</node>
	<node id="-1946" lat="60.88584" lon="11.53524">
		<tag k="amenity" v="kindergarten" />
		<tag k="capacity" v="64" />
		<tag k="contact:email" v="post@espira.no" />
		<tag k="contact:website" v="http://www.espira.no" />
		<tag k="max_age" v="5" />
		<tag k="min_age" v="1" />
		<tag k="name" v="Espira Nordmo barnehage" />
		<tag k="no-barnehage:nsrid" v="1020880" />
		<tag k="operator" v="Espira Nordmo AS" />
		<tag k="operator:type" v="private" />
		<tag k="start_date" v="2003-06-01" />
	</node>
	<node id="-1945" lat="60.8606" lon="11.5764">
		<tag k="amenity" v="kindergarten" />
		<tag k="capacity" v="47" />
		<tag k="max_age" v="5" />
		<tag k="min_age" v="1" />
		<tag k="name" v="Bakkebygrenda barnehage" />
		<tag k="no-barnehage:nsrid" v="1015968" />
		<tag k="operator" v="Elverum kommune" />
		<tag k="operator:type" v="public" />
		<tag k="start_date" v="1991-04-01" />
	</node>
</osm>
