<?xml version="1.0" encoding="UTF-8"?>
<osm version="0.6" generator="osmapis">
	<node lat="0.0" lon="0.0" id="-1601">
		<tag k="ADDRESS" v="Sundby, 8252 ROGNAN" />
		<tag k="amenity" v="kindergarten" />
		<tag k="capacity" v="33" />
		<tag k="max_age" v="5" />
		<tag k="min_age" v="1" />
		<tag k="name" v="Engan gårdsbarnehage" />
		<tag k="no-barnehage:nsrid" v="988541222" />
		<tag k="operator" v="Engan gårdsbarnehage AS" />
		<tag k="operator:type" v="private" />
	</node>
	<node lat="67.08567" lon="15.36236" id="-1602">
		<tag k="ADDRESS" v="Mosebakken 2A, 8250 ROGNAN" />
		<tag k="amenity" v="kindergarten" />
		<tag k="capacity" v="27" />
		<tag k="max_age" v="5" />
		<tag k="min_age" v="1" />
		<tag k="name" v="Høyjarfall barnehage" />
		<tag k="no-barnehage:nsrid" v="884753902" />
		<tag k="operator" v="Saltdal kommune" />
		<tag k="operator:type" v="public" />
	</node>
	<node lat="0.0" lon="0.0" id="-1603">
		<tag k="ADDRESS" v="Vensmoen, 8255 RØKLAND" />
		<tag k="amenity" v="kindergarten" />
		<tag k="capacity" v="46" />
		<tag k="max_age" v="5" />
		<tag k="min_age" v="1" />
		<tag k="name" v="Knekthågen barnehage" />
		<tag k="no-barnehage:nsrid" v="975324249" />
		<tag k="operator" v="Saltdal kommune" />
		<tag k="operator:type" v="public" />
	</node>
	<node lat="67.09804" lon="15.3922" id="-1604">
		<tag k="ADDRESS" v="Jernbanegata 41, 8250 ROGNAN" />
		<tag k="amenity" v="kindergarten" />
		<tag k="capacity" v="47" />
		<tag k="max_age" v="5" />
		<tag k="min_age" v="1" />
		<tag k="name" v="Rognan barnehage" />
		<tag k="no-barnehage:nsrid" v="875296132" />
		<tag k="operator" v="Saltdal kommune" />
		<tag k="operator:type" v="public" />
	</node>
	<node lat="67.10003" lon="15.42989" id="-1605">
		<tag k="ADDRESS" v="Hilmar Hansens vei 23, 8250 ROGNAN" />
		<tag k="amenity" v="kindergarten" />
		<tag k="capacity" v="23" />
		<tag k="max_age" v="5" />
		<tag k="min_age" v="1" />
		<tag k="name" v="Saltnes barnehage" />
		<tag k="no-barnehage:nsrid" v="972340006" />
		<tag k="operator" v="Saltdal kommune" />
		<tag k="operator:type" v="public" />
	</node>
	<node lat="67.08618" lon="15.37278" id="-1606">
		<tag k="ADDRESS" v="Fredheimveien 21, 8250 ROGNAN" />
		<tag k="amenity" v="kindergarten" />
		<tag k="capacity" v="43" />
		<tag k="max_age" v="5" />
		<tag k="min_age" v="1" />
		<tag k="name" v="Trollskogen barnehage" />
		<tag k="no-barnehage:nsrid" v="916397305" />
		<tag k="operator" v="Saltdal kommune" />
		<tag k="operator:type" v="public" />
	</node>
</osm>
