<?xml version="1.0" encoding="UTF-8"?>
<osm generator="osmapis" version="0.6">
	<node id="-5568" lat="67.0857" lon="15.3624">
		<tag k="amenity" v="kindergarten" />
		<tag k="capacity" v="25" />
		<tag k="max_age" v="5" />
		<tag k="min_age" v="1" />
		<tag k="name" v="Høyjarfall barnehage" />
		<tag k="no-barnehage:nsrid" v="1013312" />
		<tag k="operator" v="Saltdal kommune" />
		<tag k="operator:type" v="public" />
		<tag k="start_date" v="2002-08-15" />
	</node>
	<node id="-5567" lat="67.09528" lon="15.38778">
		<tag k="amenity" v="kindergarten" />
		<tag k="capacity" v="39" />
		<tag k="max_age" v="5" />
		<tag k="min_age" v="1" />
		<tag k="name" v="Engan Gårdsbarnehage AS" />
		<tag k="no-barnehage:nsrid" v="1021292" />
		<tag k="operator" v="Engan Gårdsbarnehage AS" />
		<tag k="operator:type" v="private" />
		<tag k="start_date" v="2005-08-17" />
	</node>
	<node id="-5572" lat="67.0863" lon="15.3714">
		<tag k="amenity" v="kindergarten" />
		<tag k="capacity" v="50" />
		<tag k="max_age" v="5" />
		<tag k="min_age" v="1" />
		<tag k="name" v="Trollskogen barnehage" />
		<tag k="no-barnehage:nsrid" v="1017135" />
		<tag k="operator" v="Hero Norge AS" />
		<tag k="operator:type" v="private" />
		<tag k="start_date" v="2006-02-01" />
	</node>
	<node id="-5571" lat="67.1" lon="15.4299">
		<tag k="amenity" v="kindergarten" />
		<tag k="capacity" v="25" />
		<tag k="contact:phone" v="+47 75 69 14 70" />
		<tag k="max_age" v="5" />
		<tag k="min_age" v="1" />
		<tag k="name" v="Saltnes barnehage" />
		<tag k="no-barnehage:nsrid" v="1015466" />
		<tag k="operator" v="Saltdal kommune" />
		<tag k="operator:type" v="public" />
		<tag k="start_date" v="1992-02-13" />
	</node>
	<node id="-5570" lat="67.098" lon="15.3922">
		<tag k="amenity" v="kindergarten" />
		<tag k="capacity" v="54" />
		<tag k="max_age" v="5" />
		<tag k="min_age" v="1" />
		<tag k="name" v="Rognan barnehage" />
		<tag k="no-barnehage:nsrid" v="1025416" />
		<tag k="operator" v="Saltdal kommune" />
		<tag k="operator:type" v="public" />
		<tag k="start_date" v="1976-01-01" />
	</node>
	<node id="-5569" lat="66.987" lon="15.3164">
		<tag k="amenity" v="kindergarten" />
		<tag k="capacity" v="47" />
		<tag k="max_age" v="5" />
		<tag k="min_age" v="1" />
		<tag k="name" v="Knekthågen barnehage" />
		<tag k="no-barnehage:nsrid" v="1014756" />
		<tag k="operator" v="Saltdal kommune" />
		<tag k="operator:type" v="public" />
		<tag k="start_date" v="1992-08-01" />
	</node>
</osm>
