<?xml version="1.0" encoding="UTF-8"?>
<osm generator="osmapis" version="0.6">
	<node id="-4086" lat="58.5042" lon="8.65559">
		<tag k="ADDRESS" v="Skolevegen 1a, 4820 FROLAND" />
		<tag k="amenity" v="kindergarten" />
		<tag k="capacity" v="46" />
		<tag k="contact:website" v="http://www.froland.kommune.no/tjenester/barnehage/barnehagene-i-froland/blakstadheia-barnehage" />
		<tag k="max_age" v="5" />
		<tag k="min_age" v="1" />
		<tag k="name" v="Blakstadheia barnehage" />
		<tag k="no-barnehage:nsrid" v="973819356" />
		<tag k="operator" v="Froland kommune" />
		<tag k="operator:type" v="public" />
	</node>
	<node id="-4087" lat="58.50985" lon="8.61389">
		<tag k="ADDRESS" v="Bliksåsen 70, 4820 FROLAND" />
		<tag k="amenity" v="kindergarten" />
		<tag k="capacity" v="49" />
		<tag k="contact:website" v="http://www.froland.kommune.no/tjenester/barnehage/barnehagene-i-froland/bliksasen-barnehage" />
		<tag k="max_age" v="5" />
		<tag k="min_age" v="1" />
		<tag k="name" v="Bliksåsen barnehage" />
		<tag k="no-barnehage:nsrid" v="912664244" />
		<tag k="operator" v="Froland kommune" />
		<tag k="operator:type" v="public" />
	</node>
	<node id="-4088" lat="58.5" lon="8.59944">
		<tag k="ADDRESS" v="Kleivene 2, 4827 FROLANDS VERK" />
		<tag k="amenity" v="kindergarten" />
		<tag k="capacity" v="112" />
		<tag k="contact:website" v="http://eikely.barnehage.no" />
		<tag k="max_age" v="5" />
		<tag k="min_age" v="1" />
		<tag k="name" v="Eikely barnehage" />
		<tag k="no-barnehage:nsrid" v="974838028" />
		<tag k="operator" v="Eikely barnehage AS" />
		<tag k="operator:type" v="private" />
	</node>
	<node id="-4089" lat="58.51426" lon="8.62833">
		<tag k="ADDRESS" v="Rislandsveien 33, 4820 FROLAND" />
		<tag k="amenity" v="kindergarten" />
		<tag k="capacity" v="57" />
		<tag k="contact:website" v="http://www.frolandmusikk.barnehage.no/" />
		<tag k="max_age" v="5" />
		<tag k="min_age" v="1" />
		<tag k="name" v="Froland musikkbarnehage" />
		<tag k="no-barnehage:nsrid" v="995305097" />
		<tag k="operator" v="Froland Musikkbarnehage AS" />
		<tag k="operator:type" v="private" />
	</node>
	<node id="-4090" lat="58.48571" lon="8.61707">
		<tag k="ADDRESS" v="Reiersølveien 203, 4820 FROLAND" />
		<tag k="amenity" v="kindergarten" />
		<tag k="capacity" v="11" />
		<tag k="contact:website" v="http://www.froland.kommune.no/tjenester/barnehage/barnehagene-i-froland/gardsbarnehagen-pa-ovelandsneset" />
		<tag k="max_age" v="5" />
		<tag k="min_age" v="1" />
		<tag k="name" v="Gårdsbarnehagen Ovelandsneset" />
		<tag k="no-barnehage:nsrid" v="912664287" />
		<tag k="operator" v="Froland kommune" />
		<tag k="operator:type" v="public" />
	</node>
	<node id="-4091" lat="58.51314" lon="8.62811">
		<tag k="ADDRESS" v="Rislandsveien 17, 4820 FROLAND" />
		<tag k="amenity" v="kindergarten" />
		<tag k="capacity" v="27" />
		<tag k="contact:website" v="http://www.froland.kommune.no/tjenester/barnehage/barnehagene-i-froland/kringletoppen-barnehage" />
		<tag k="max_age" v="5" />
		<tag k="min_age" v="1" />
		<tag k="name" v="Kringletoppen barnehage" />
		<tag k="no-barnehage:nsrid" v="974583364" />
		<tag k="operator" v="Froland kommune" />
		<tag k="operator:type" v="public" />
	</node>
	<node id="-4092" lat="58.6324" lon="8.29542">
		<tag k="ADDRESS" v="Evjeveien 836, 4832 MYKLAND" />
		<tag k="amenity" v="kindergarten" />
		<tag k="capacity" v="12" />
		<tag k="contact:website" v="http://www.froland.kommune.no/tjenester/barnehage/barnehagene-i-froland/mykland-barnehage" />
		<tag k="max_age" v="5" />
		<tag k="min_age" v="1" />
		<tag k="name" v="Mykland barnehage" />
		<tag k="no-barnehage:nsrid" v="973819364" />
		<tag k="operator" v="Froland kommune" />
		<tag k="operator:type" v="public" />
	</node>
</osm>
