<?xml version="1.0" encoding="UTF-8"?>
<osm generator="osmapis" version="0.6">
	<node id="-5376" lat="59.38708" lon="9.18681">
		<tag k="ADDRESS" v="Skrivarvegen 4, 3810 GVARV" />
		<tag k="amenity" v="kindergarten" />
		<tag k="capacity" v="115" />
		<tag k="max_age" v="5" />
		<tag k="min_age" v="1" />
		<tag k="name" v="Læringsverkstedet barnehage avd. Gvarv barnehage" />
		<tag k="no-barnehage:nsrid" v="1022259" />
		<tag k="operator" v="Læringsverkstedet AS" />
		<tag k="operator:type" v="private" />
	</node>
	<node id="-5375" lat="59.42073" lon="9.07681">
		<tag k="ADDRESS" v="Sandvinvegen 25, 3802 BØ I TELEMARK" />
		<tag k="amenity" v="kindergarten" />
		<tag k="capacity" v="58" />
		<tag k="max_age" v="5" />
		<tag k="min_age" v="1" />
		<tag k="name" v="Læringsverkstedet barnehage avd. Sandvoll barnehage" />
		<tag k="no-barnehage:nsrid" v="1020978" />
		<tag k="operator" v="Læringsverkstedet AS" />
		<tag k="operator:type" v="private" />
	</node>
	<node id="-5374" lat="59.42367" lon="9.3255">
		<tag k="ADDRESS" v="Sundsmoenvegen 16, 3820 NORDAGUTU" />
		<tag k="amenity" v="kindergarten" />
		<tag k="capacity" v="41" />
		<tag k="max_age" v="5" />
		<tag k="min_age" v="1" />
		<tag k="name" v="Læringsverkstedet barnehage Sauarhagene avd. Nordagutu" />
		<tag k="no-barnehage:nsrid" v="1014876" />
		<tag k="operator" v="Læringsverkstedet AS" />
		<tag k="operator:type" v="private" />
	</node>
	<node id="-5373" lat="59.41077" lon="9.0593">
		<tag k="ADDRESS" v="Gullbringvegen 31, 3800 BØ I TELEMARK" />
		<tag k="amenity" v="kindergarten" />
		<tag k="capacity" v="62" />
		<tag k="max_age" v="5" />
		<tag k="min_age" v="1" />
		<tag k="name" v="Gullbring barnehage" />
		<tag k="no-barnehage:nsrid" v="1013803" />
		<tag k="operator" v="Midt-Telemark kommune" />
		<tag k="operator:type" v="public" />
	</node>
	<node id="-5372" lat="59.44499" lon="9.07985">
		<tag k="ADDRESS" v="Hellåsen 2, 3804 BØ I TELEMARK" />
		<tag k="amenity" v="kindergarten" />
		<tag k="capacity" v="71" />
		<tag k="max_age" v="5" />
		<tag k="min_age" v="1" />
		<tag k="name" v="Folkestad barnehage" />
		<tag k="no-barnehage:nsrid" v="1014186" />
		<tag k="operator" v="Midt-Telemark kommune" />
		<tag k="operator:type" v="public" />
	</node>
	<node id="-5371" lat="59.40806" lon="9.05835">
		<tag k="ADDRESS" v="Lundevegen 63, 3800 BØ I TELEMARK" />
		<tag k="amenity" v="kindergarten" />
		<tag k="capacity" v="35" />
		<tag k="max_age" v="5" />
		<tag k="min_age" v="1" />
		<tag k="name" v="Bøhamna barnehage" />
		<tag k="no-barnehage:nsrid" v="1014708" />
		<tag k="operator" v="Midt-Telemark kommune" />
		<tag k="operator:type" v="public" />
	</node>
	<node id="-5378" lat="59.40806" lon="9.05835">
		<tag k="ADDRESS" v="Lundevegen 63, 3800 BØ I TELEMARK" />
		<tag k="amenity" v="kindergarten" />
		<tag k="capacity" v="35" />
		<tag k="contact:website" v="http://www.ssn.no" />
		<tag k="max_age" v="5" />
		<tag k="min_age" v="1" />
		<tag k="name" v="Studentsamskipnaden i Sørøst-norge Veslekroa studentbarnehage" />
		<tag k="no-barnehage:nsrid" v="1025317" />
		<tag k="operator" v="Studentsamskipnaden i Sørøst-Norge" />
		<tag k="operator:type" v="private" />
	</node>
	<node id="-5377" lat="59.40425" lon="9.07538">
		<tag k="ADDRESS" v="Kåsinvegen 16, 3801 BØ I TELEMARK" />
		<tag k="amenity" v="kindergarten" />
		<tag k="capacity" v="72" />
		<tag k="contact:website" v="http://maurtuva.barnehage.no" />
		<tag k="max_age" v="5" />
		<tag k="min_age" v="1" />
		<tag k="name" v="Maurtuva barnehage" />
		<tag k="no-barnehage:nsrid" v="1020371" />
		<tag k="operator" v="Maurtuva barnehage Sa" />
		<tag k="operator:type" v="private" />
	</node>
</osm>
