<?xml version="1.0" encoding="UTF-8"?>
<osm generator="osmapis" version="0.6">
	<node id="-5077" lat="63.0391" lon="10.285">
		<tag k="amenity" v="kindergarten" />
		<tag k="capacity" v="97" />
		<tag k="contact:email" v="storen.barnehage@midtre-gauldal.kommune.no" />
		<tag k="contact:phone" v="72 40 30 00" />
		<tag k="max_age" v="5" />
		<tag k="min_age" v="1" />
		<tag k="name" v="Støren barnehage" />
		<tag k="no-barnehage:nsrid" v="1018246" />
		<tag k="operator" v="Midtre Gauldal kommune" />
		<tag k="operator:type" v="public" />
		<tag k="start_date" v="1989-01-01" />
	</node>
	<node id="-5076" lat="62.9511" lon="10.1886">
		<tag k="amenity" v="kindergarten" />
		<tag k="capacity" v="64" />
		<tag k="contact:email" v="inger.strom@midtre-gauldal.kommune.no" />
		<tag k="max_age" v="5" />
		<tag k="min_age" v="1" />
		<tag k="name" v="Soknedal Oppvekstområde Avd barnehage" />
		<tag k="no-barnehage:nsrid" v="1013961" />
		<tag k="operator" v="Midtre Gauldal kommune" />
		<tag k="operator:type" v="public" />
		<tag k="start_date" v="1990-01-01" />
	</node>
	<node id="-5075" lat="62.9562" lon="10.7308">
		<tag k="amenity" v="kindergarten" />
		<tag k="capacity" v="40" />
		<tag k="contact:email" v="singsaas.barnehage@midtre-gauldal.kommune.no" />
		<tag k="max_age" v="5" />
		<tag k="min_age" v="1" />
		<tag k="name" v="Singsaas Oppvekstområde Avd Barnehage" />
		<tag k="no-barnehage:nsrid" v="1018245" />
		<tag k="operator" v="Midtre Gauldal kommune" />
		<tag k="operator:type" v="public" />
		<tag k="start_date" v="1989-01-01" />
	</node>
	<node id="-5074" lat="63.02973" lon="10.26271">
		<tag k="amenity" v="kindergarten" />
		<tag k="capacity" v="91" />
		<tag k="contact:email" v="heidi@lioya.no" />
		<tag k="contact:phone" v="72 43 89 90" />
		<tag k="contact:website" v="http://lioya.barnehage.no" />
		<tag k="max_age" v="5" />
		<tag k="min_age" v="1" />
		<tag k="name" v="Liøya barnehage Sa" />
		<tag k="no-barnehage:nsrid" v="1021163" />
		<tag k="operator" v="Liøya barnehage Sa" />
		<tag k="operator:type" v="private" />
		<tag k="start_date" v="2004-11-23" />
	</node>
	<node id="-5073" lat="62.95115" lon="10.18859">
		<tag k="amenity" v="kindergarten" />
		<tag k="capacity" v="21" />
		<tag k="contact:email" v="skjerveli@hotmail.com" />
		<tag k="max_age" v="5" />
		<tag k="min_age" v="1" />
		<tag k="name" v="Hauka Villmarksbarnehage" />
		<tag k="no-barnehage:nsrid" v="1020503" />
		<tag k="operator" v="Hauka Villmarksbarnehage" />
		<tag k="operator:type" v="private" />
		<tag k="start_date" v="1997-12-15" />
	</node>
	<node id="-5072" lat="62.7852" lon="10.5382">
		<tag k="amenity" v="kindergarten" />
		<tag k="capacity" v="24" />
		<tag k="contact:email" v="budal.barnehage@midtre-gauldal.kommune.no" />
		<tag k="max_age" v="5" />
		<tag k="min_age" v="1" />
		<tag k="name" v="Budal Oppvekstområde Avd Barnehage" />
		<tag k="no-barnehage:nsrid" v="1018244" />
		<tag k="operator" v="Midtre Gauldal kommune" />
		<tag k="operator:type" v="public" />
		<tag k="start_date" v="1989-01-01" />
	</node>
</osm>
