<?xml version="1.0" encoding="UTF-8"?>
<osm generator="osmapis" version="0.6">
	<node id="-5621" lat="68.12737" lon="13.85964">
		<tag k="amenity" v="kindergarten" />
		<tag k="capacity" v="31" />
		<tag k="contact:email" v="trollknausen@barnehage.no" />
		<tag k="max_age" v="5" />
		<tag k="min_age" v="1" />
		<tag k="name" v="Trollknausen barnehage AS" />
		<tag k="no-barnehage:nsrid" v="1021838" />
		<tag k="operator" v="Trollknausen barnehage AS" />
		<tag k="operator:type" v="private" />
		<tag k="start_date" v="1976-01-01" />
	</node>
	<node id="-5620" lat="68.13735" lon="13.83881">
		<tag k="amenity" v="kindergarten" />
		<tag k="capacity" v="39" />
		<tag k="contact:email" v="tommeliten.barnehage@lofotkraft.net" />
		<tag k="contact:phone" v="76 08 93 39" />
		<tag k="max_age" v="5" />
		<tag k="min_age" v="1" />
		<tag k="name" v="Tommeliten barnehage" />
		<tag k="no-barnehage:nsrid" v="1022302" />
		<tag k="operator" v="Tommeliten barnehage AS" />
		<tag k="operator:type" v="private" />
		<tag k="start_date" v="1992-08-01" />
	</node>
	<node id="-5619" lat="68.11824" lon="13.54091">
		<tag k="amenity" v="kindergarten" />
		<tag k="capacity" v="69" />
		<tag k="contact:email" v="wenche.solgren@okonor.no" />
		<tag k="contact:phone" v="76 05 55 40" />
		<tag k="max_age" v="5" />
		<tag k="min_age" v="1" />
		<tag k="name" v="Stiftelsen Risaksla barnehage" />
		<tag k="no-barnehage:nsrid" v="1019751" />
		<tag k="operator" v="Stiftelsen Risaksla barnehage" />
		<tag k="operator:type" v="private" />
		<tag k="start_date" v="1989-01-02" />
	</node>
	<node id="-5618" lat="68.14365" lon="13.59606">
		<tag k="amenity" v="kindergarten" />
		<tag k="capacity" v="53" />
		<tag k="contact:email" v="styrer.skautrolletnatur@barnehage.no" />
		<tag k="contact:phone" v="41282752" />
		<tag k="max_age" v="5" />
		<tag k="min_age" v="1" />
		<tag k="name" v="Skautrollet Naturbarnehage AS" />
		<tag k="no-barnehage:nsrid" v="1021778" />
		<tag k="operator" v="Skautrollet Naturbarnehage AS" />
		<tag k="operator:type" v="private" />
		<tag k="start_date" v="2008-02-15" />
	</node>
	<node id="-5617" lat="68.13704" lon="13.59519">
		<tag k="amenity" v="kindergarten" />
		<tag k="capacity" v="31" />
		<tag k="contact:email" v="post@sjokantenbarnehage.no" />
		<tag k="max_age" v="5" />
		<tag k="min_age" v="1" />
		<tag k="name" v="Sjøkanten barnehage AS" />
		<tag k="no-barnehage:nsrid" v="1022241" />
		<tag k="operator" v="Sjøkanten barnehage AS" />
		<tag k="operator:type" v="private" />
		<tag k="start_date" v="2012-01-01" />
	</node>
	<node id="-5616" lat="68.07729" lon="13.55099">
		<tag k="amenity" v="kindergarten" />
		<tag k="capacity" v="16" />
		<tag k="contact:email" v="bente.bernhardsen@okonor.no" />
		<tag k="max_age" v="5" />
		<tag k="min_age" v="1" />
		<tag k="name" v="Nye Kakhaugen barnehage Silja-Mari Pettersen" />
		<tag k="no-barnehage:nsrid" v="1021075" />
		<tag k="operator" v="Nye Kakhaugen barnehage Silja-Mari Pettersen" />
		<tag k="operator:type" v="private" />
		<tag k="start_date" v="1992-08-01" />
	</node>
	<node id="-5615" lat="68.1491" lon="13.6344">
		<tag k="amenity" v="kindergarten" />
		<tag k="capacity" v="43" />
		<tag k="contact:email" v="anne.olsen@lofoten-industri.no" />
		<tag k="max_age" v="5" />
		<tag k="min_age" v="1" />
		<tag k="name" v="Multemyra barnehage" />
		<tag k="no-barnehage:nsrid" v="1013098" />
		<tag k="operator" v="Lofoten Industri AS" />
		<tag k="operator:type" v="private" />
		<tag k="start_date" v="2004-08-01" />
	</node>
	<node id="-5614" lat="68.14738" lon="13.60578">
		<tag k="amenity" v="kindergarten" />
		<tag k="capacity" v="28" />
		<tag k="contact:email" v="bente.bernhardsen@okonor.no" />
		<tag k="contact:phone" v="76082805" />
		<tag k="max_age" v="5" />
		<tag k="min_age" v="1" />
		<tag k="name" v="Marihøna barnehage" />
		<tag k="no-barnehage:nsrid" v="1019950" />
		<tag k="operator" v="Samvirkeforetaket Marihøna barnehage Leknes Sa" />
		<tag k="operator:type" v="private" />
		<tag k="start_date" v="1991-01-01" />
	</node>
	<node id="-5613" lat="68.14817" lon="13.6328">
		<tag k="amenity" v="kindergarten" />
		<tag k="capacity" v="18" />
		<tag k="contact:email" v="tor.ivar.saupstad@vestvagoy.kommune.no" />
		<tag k="max_age" v="5" />
		<tag k="min_age" v="1" />
		<tag k="name" v="Leknes Midlertidige barnehage" />
		<tag k="no-barnehage:nsrid" v="1026039" />
		<tag k="operator" v="Vestvågøy kommune" />
		<tag k="operator:type" v="public" />
		<tag k="start_date" v="2015-07-01" />
	</node>
	<node id="-5611" lat="68.16231" lon="13.59276">
		<tag k="amenity" v="kindergarten" />
		<tag k="capacity" v="42" />
		<tag k="contact:email" v="wehuni@hotmail.com" />
		<tag k="contact:phone" v="99702394" />
		<tag k="max_age" v="5" />
		<tag k="min_age" v="1" />
		<tag k="name" v="Griseknoen Gårdsbarnehage AS" />
		<tag k="no-barnehage:nsrid" v="1021957" />
		<tag k="operator" v="Griseknoen Gårdsbarnehage AS" />
		<tag k="operator:type" v="private" />
		<tag k="start_date" v="1995-02-23" />
	</node>
	<node id="-5610" lat="68.1223" lon="13.5294">
		<tag k="amenity" v="kindergarten" />
		<tag k="capacity" v="48" />
		<tag k="contact:email" v="birgitte.aulie@vestvagoy.kommune.no" />
		<tag k="max_age" v="5" />
		<tag k="min_age" v="1" />
		<tag k="name" v="Gravdal barnehage" />
		<tag k="no-barnehage:nsrid" v="1017378" />
		<tag k="operator" v="Vestvågøy kommune" />
		<tag k="operator:type" v="public" />
		<tag k="start_date" v="1976-01-01" />
	</node>
	<node id="-5609" lat="68.14722" lon="13.64258">
		<tag k="amenity" v="kindergarten" />
		<tag k="capacity" v="31" />
		<tag k="contact:email" v="stiei-sa@online.no" />
		<tag k="contact:phone" v="76 08 83 50" />
		<tag k="max_age" v="5" />
		<tag k="min_age" v="1" />
		<tag k="name" v="Fygle barnehage" />
		<tag k="no-barnehage:nsrid" v="1021449" />
		<tag k="operator" v="Fygle barnehage" />
		<tag k="operator:type" v="private" />
		<tag k="start_date" v="2006-05-23" />
	</node>
	<node id="-5608" lat="68.23981" lon="13.68999">
		<tag k="amenity" v="kindergarten" />
		<tag k="capacity" v="20" />
		<tag k="contact:email" v="styrer@eltoftbarnehage.no" />
		<tag k="contact:phone" v="76085565" />
		<tag k="max_age" v="5" />
		<tag k="min_age" v="1" />
		<tag k="name" v="Eltoft barnehage" />
		<tag k="no-barnehage:nsrid" v="1019752" />
		<tag k="operator" v="Stiftelsen Eltoft barnehage og Fritidshjem" />
		<tag k="operator:type" v="private" />
		<tag k="start_date" v="1989-01-02" />
	</node>
	<node id="-5607" lat="68.25484" lon="13.77837">
		<tag k="amenity" v="kindergarten" />
		<tag k="capacity" v="33" />
		<tag k="contact:email" v="britt-iren@vikingbarnehagen.no" />
		<tag k="contact:phone" v="76 08 45 52" />
		<tag k="max_age" v="5" />
		<tag k="min_age" v="1" />
		<tag k="name" v="Borg Vikingbarnehage" />
		<tag k="no-barnehage:nsrid" v="1020467" />
		<tag k="operator" v="Hagvåg barnehage AS" />
		<tag k="operator:type" v="private" />
		<tag k="start_date" v="1992-08-01" />
	</node>
	<node id="-5606" lat="68.15158" lon="13.62318">
		<tag k="amenity" v="kindergarten" />
		<tag k="capacity" v="57" />
		<tag k="contact:email" v="bjornhaugen.barnehage@norlandiabarnehagene.no" />
		<tag k="contact:phone" v="76 05 40 18" />
		<tag k="max_age" v="5" />
		<tag k="min_age" v="1" />
		<tag k="name" v="Bjørnhaugen barnehage" />
		<tag k="no-barnehage:nsrid" v="1020525" />
		<tag k="operator" v="Norlandia Barnehagene AS" />
		<tag k="operator:type" v="private" />
		<tag k="start_date" v="1993-01-07" />
	</node>
	<node id="-5605" lat="68.07554" lon="13.55491">
		<tag k="amenity" v="kindergarten" />
		<tag k="capacity" v="16" />
		<tag k="contact:email" v="ballstad@barnehage.no" />
		<tag k="max_age" v="5" />
		<tag k="min_age" v="1" />
		<tag k="name" v="Ballstad barnehage AS" />
		<tag k="no-barnehage:nsrid" v="1021837" />
		<tag k="operator" v="Ballstad barnehage AS" />
		<tag k="operator:type" v="private" />
		<tag k="start_date" v="2008-08-01" />
	</node>
	<node id="-5604" lat="67.27866" lon="14.41841">
		<tag k="amenity" v="kindergarten" />
		<tag k="capacity" v="42" />
		<tag k="contact:email" v="Arken.barnehage@norlandiabarnehagene.no" />
		<tag k="contact:phone" v="21 42 30 00" />
		<tag k="max_age" v="5" />
		<tag k="min_age" v="1" />
		<tag k="name" v="Arken barnehage AS" />
		<tag k="no-barnehage:nsrid" v="1022389" />
		<tag k="operator" v="Arken barnehage AS" />
		<tag k="operator:type" v="private" />
		<tag k="start_date" v="1990-08-01" />
	</node>
</osm>
