<?xml version="1.0" encoding="UTF-8"?>
<osm generator="osmapis" version="0.6">
	<node id="-32" lat="58.39027" lon="8.63181">
		<tag k="ADDRESS" v="Nilsesvoldveien 41, 4885 GRIMSTAD" />
		<tag k="amenity" v="kindergarten" />
		<tag k="capacity" v="10" />
		<tag k="max_age" v="5" />
		<tag k="min_age" v="1" />
		<tag k="name" v="Nyhaven familiebarnehage" />
		<tag k="no-barnehage:nsrid" v="1021985" />
		<tag k="operator" v="Nyhaven Familiebarnehage Hauge" />
		<tag k="operator:type" v="private" />
	</node>
	<node id="-31" lat="58.34137" lon="8.5805">
		<tag k="ADDRESS" v="Grømjordet 5, 4877 GRIMSTAD" />
		<tag k="amenity" v="kindergarten" />
		<tag k="capacity" v="5" />
		<tag k="max_age" v="5" />
		<tag k="min_age" v="1" />
		<tag k="name" v="Maurtua familiebarnehage Grømjordet" />
		<tag k="no-barnehage:nsrid" v="1020981" />
		<tag k="operator" v="Maurtua Familiebarnehage Grøm-Hauge" />
		<tag k="operator:type" v="private" />
	</node>
	<node id="-30" lat="58.34251" lon="8.57963">
		<tag k="ADDRESS" v="Grømheia 176, 4877 GRIMSTAD" />
		<tag k="amenity" v="kindergarten" />
		<tag k="capacity" v="4" />
		<tag k="max_age" v="5" />
		<tag k="min_age" v="1" />
		<tag k="name" v="Maurtua familiebarnehage Grømheia" />
		<tag k="no-barnehage:nsrid" v="1020980" />
		<tag k="operator" v="Maurtua Familiebarnehage Avdeling Grømheia Elin Wold" />
		<tag k="operator:type" v="private" />
	</node>
</osm>
