<?xml version="1.0" encoding="UTF-8"?>
<osm generator="osmapis" version="0.6">
	<node id="-3818" lat="58.32135" lon="8.57483">
		<tag k="ADDRESS" v="Grooseveien 95, 4879 GRIMSTAD" />
		<tag k="amenity" v="kindergarten" />
		<tag k="capacity" v="19" />
		<tag k="contact:website" v="http://eventyrbarnehage.no" />
		<tag k="max_age" v="5" />
		<tag k="min_age" v="1" />
		<tag k="name" v="Alven eventyrbarnehage i Trollvika" />
		<tag k="no-barnehage:nsrid" v="982605032" />
		<tag k="operator" v="Alven Eventyrbarnehage i Trollvika AS" />
		<tag k="operator:type" v="private" />
	</node>
	<node id="-3819" lat="58.36483" lon="8.65334">
		<tag k="ADDRESS" v="Grefstadveien 80, 4885 GRIMSTAD" />
		<tag k="amenity" v="kindergarten" />
		<tag k="capacity" v="40" />
		<tag k="contact:website" v="http://www.annemorhuset.no" />
		<tag k="max_age" v="5" />
		<tag k="min_age" v="1" />
		<tag k="name" v="Annemorhuset barnehage" />
		<tag k="no-barnehage:nsrid" v="980128830" />
		<tag k="operator" v="Annemorhuset barnehage AS" />
		<tag k="operator:type" v="private" />
	</node>
	<node id="-3820" lat="0.0" lon="0.0">
		<tag k="ADDRESS" v="Holbekkveien 64, 4876 GRIMSTAD" />
		<tag k="amenity" v="kindergarten" />
		<tag k="capacity" v="96" />
		<tag k="contact:website" v="http://www.barnehagetunet.no" />
		<tag k="max_age" v="5" />
		<tag k="min_age" v="1" />
		<tag k="name" v="Askeladden idrettsbarnehage" />
		<tag k="no-barnehage:nsrid" v="990450471" />
		<tag k="operator" v="Askeladden Idrettsbarnehage AS" />
		<tag k="operator:type" v="private" />
	</node>
	<node id="-3821" lat="58.32801" lon="8.57963">
		<tag k="ADDRESS" v="Grooseveien 61, 4879 GRIMSTAD" />
		<tag k="amenity" v="kindergarten" />
		<tag k="capacity" v="76" />
		<tag k="contact:website" v="http://www.barnehagetunet.no" />
		<tag k="max_age" v="5" />
		<tag k="min_age" v="1" />
		<tag k="name" v="Askeladden Tur- og aktivitetsbarnehage" />
		<tag k="no-barnehage:nsrid" v="980925005" />
		<tag k="operator" v="Askeladden barnehage AS" />
		<tag k="operator:type" v="private" />
	</node>
	<node id="-3822" lat="58.26893" lon="8.50599">
		<tag k="ADDRESS" v="Jorvardeveien 40, 4888 HOMBORSUND" />
		<tag k="amenity" v="kindergarten" />
		<tag k="capacity" v="61" />
		<tag k="contact:website" v="http://www.grimstad.kommune.no/tjenester/barnehage/barnehagene-i-grimstad/eide-barnehage" />
		<tag k="max_age" v="5" />
		<tag k="min_age" v="1" />
		<tag k="name" v="Eide barnehage" />
		<tag k="no-barnehage:nsrid" v="880424092" />
		<tag k="operator" v="Grimstad kommune" />
		<tag k="operator:type" v="public" />
	</node>
	<node id="-3823" lat="58.38013" lon="8.67769">
		<tag k="ADDRESS" v="Sømsveien 4, 4870 FEVIK" />
		<tag k="amenity" v="kindergarten" />
		<tag k="capacity" v="48" />
		<tag k="contact:website" v="http://www.fevik-barnehage.no" />
		<tag k="max_age" v="5" />
		<tag k="min_age" v="1" />
		<tag k="name" v="Fevik barnehage" />
		<tag k="no-barnehage:nsrid" v="973337459" />
		<tag k="operator" v="Grimstad Kirkelige Fellesråd" />
		<tag k="operator:type" v="private" />
	</node>
	<node id="-3824" lat="58.3638" lon="8.60054">
		<tag k="ADDRESS" v="Laugevoldveien 30, 4878 GRIMSTAD" />
		<tag k="amenity" v="kindergarten" />
		<tag k="capacity" v="22" />
		<tag k="contact:website" v="http://www.firearstider.no/fjare" />
		<tag k="max_age" v="5" />
		<tag k="min_age" v="1" />
		<tag k="name" v="Fjære barnehage" />
		<tag k="no-barnehage:nsrid" v="998624584" />
		<tag k="operator" v="Fjære barnehage AS" />
		<tag k="operator:type" v="private" />
	</node>
	<node id="-3825" lat="58.34871" lon="8.59128">
		<tag k="ADDRESS" v="Fladefjell 70, 4878 GRIMSTAD" />
		<tag k="amenity" v="kindergarten" />
		<tag k="capacity" v="77" />
		<tag k="contact:website" v="http://www.flatefjellandelsbarnehage.no" />
		<tag k="max_age" v="5" />
		<tag k="min_age" v="1" />
		<tag k="name" v="Flatefjell andelsbarnehage" />
		<tag k="no-barnehage:nsrid" v="982229952" />
		<tag k="operator" v="Flatefjell Andelslag Sa" />
		<tag k="operator:type" v="private" />
	</node>
	<node id="-3826" lat="58.37389" lon="8.65694">
		<tag k="ADDRESS" v="Østre Moåsen 11, 4870 FEVIK" />
		<tag k="amenity" v="kindergarten" />
		<tag k="capacity" v="55" />
		<tag k="contact:website" v="http://www.grimstad.kommune.no/tjenester/barnehage/barnehagene-i-grimstad/hausland-barnehage" />
		<tag k="max_age" v="5" />
		<tag k="min_age" v="1" />
		<tag k="name" v="Hausland barnehage" />
		<tag k="no-barnehage:nsrid" v="974548909" />
		<tag k="operator" v="Grimstad kommune" />
		<tag k="operator:type" v="public" />
	</node>
	<node id="-3827" lat="58.33477" lon="8.57424">
		<tag k="ADDRESS" v="Jon Lilletuns Vei 8, 4879 GRIMSTAD" />
		<tag k="amenity" v="kindergarten" />
		<tag k="capacity" v="119" />
		<tag k="contact:website" v="http://www.sia.no/Barnehage" />
		<tag k="max_age" v="5" />
		<tag k="min_age" v="1" />
		<tag k="name" v="Hokus Pokus barnehage Grimstad" />
		<tag k="no-barnehage:nsrid" v="976844963" />
		<tag k="operator" v="Studentsamskipnaden i Agder" />
		<tag k="operator:type" v="private" />
	</node>
	<node id="-3828" lat="58.33656" lon="8.58679">
		<tag k="ADDRESS" v="Skonnertveien 12, 4876 GRIMSTAD" />
		<tag k="amenity" v="kindergarten" />
		<tag k="contact:website" v="http://www.grimstad.frikirken.no" />
		<tag k="name" v="Lauvstø åpen barnehage" />
		<tag k="no-barnehage:nsrid" v="973812246" />
		<tag k="operator" v="Den Evangelisk Lutherske Frikirke Grimstad Menighet" />
		<tag k="operator:type" v="private" />
	</node>
	<node id="-3829" lat="58.38947" lon="8.71488">
		<tag k="ADDRESS" v="Sømsveien 167, 4870 FEVIK" />
		<tag k="amenity" v="kindergarten" />
		<tag k="capacity" v="25" />
		<tag k="contact:website" v="http://laringsverkstedet.no/barnehage/somsveien/" />
		<tag k="max_age" v="5" />
		<tag k="min_age" v="1" />
		<tag k="name" v="Læringsverkstedet barnehage avd. Hasla" />
		<tag k="no-barnehage:nsrid" v="996371786" />
		<tag k="operator" v="Læringsverkstedet AS" />
		<tag k="operator:type" v="private" />
	</node>
	<node id="-3830" lat="58.33709" lon="8.53252">
		<tag k="ADDRESS" v="Myråsen 9, 4886 GRIMSTAD" />
		<tag k="amenity" v="kindergarten" />
		<tag k="capacity" v="89" />
		<tag k="contact:website" v="http://www.laringsverkstedet.no" />
		<tag k="max_age" v="5" />
		<tag k="min_age" v="1" />
		<tag k="name" v="Læringsverkstedet barnehage avd. Myråsen barnehage" />
		<tag k="no-barnehage:nsrid" v="993221473" />
		<tag k="operator" v="Læringsverkstedet AS" />
		<tag k="operator:type" v="private" />
	</node>
	<node id="-3831" lat="58.38523" lon="8.69979">
		<tag k="ADDRESS" v="Sømsveien 110, 4870 FEVIK" />
		<tag k="amenity" v="kindergarten" />
		<tag k="capacity" v="27" />
		<tag k="contact:website" v="http://laringsverkstedet.no/barnehage/fevik" />
		<tag k="max_age" v="5" />
		<tag k="min_age" v="1" />
		<tag k="name" v="Læringsverkstedet barnehage avd. Fevik" />
		<tag k="no-barnehage:nsrid" v="981453360" />
		<tag k="operator" v="Læringsverkstedet AS" />
		<tag k="operator:type" v="private" />
	</node>
	<node id="-3832" lat="58.34182" lon="8.58632">
		<tag k="ADDRESS" v="Markveien 7, 4876 GRIMSTAD" />
		<tag k="amenity" v="kindergarten" />
		<tag k="capacity" v="43" />
		<tag k="contact:website" v="http://www.grimstad.kommune.no/tjenester/barnehage/barnehagene-i-grimstad/grimstad-barnehage" />
		<tag k="max_age" v="5" />
		<tag k="min_age" v="1" />
		<tag k="name" v="Markveien kulturbarnehage" />
		<tag k="no-barnehage:nsrid" v="974548895" />
		<tag k="operator" v="Grimstad kommune" />
		<tag k="operator:type" v="public" />
	</node>
	<node id="-3833" lat="58.35099" lon="8.5745">
		<tag k="ADDRESS" v="Dybedalsveien 9, 4877 GRIMSTAD" />
		<tag k="amenity" v="kindergarten" />
		<tag k="capacity" v="58" />
		<tag k="contact:website" v="http://grimstad.villamatilda.www4.protu.no/article.aspx?" />
		<tag k="max_age" v="5" />
		<tag k="min_age" v="1" />
		<tag k="name" v="Matilda natur- og teaterbarnehage avd. Egra" />
		<tag k="no-barnehage:nsrid" v="916935153" />
		<tag k="operator" v="Matilda AS" />
		<tag k="operator:type" v="private" />
	</node>
	<node id="-3834" lat="58.34443" lon="8.58625">
		<tag k="ADDRESS" v="Storgaten 60e, 4876 GRIMSTAD" />
		<tag k="amenity" v="kindergarten" />
		<tag k="capacity" v="53" />
		<tag k="max_age" v="5" />
		<tag k="min_age" v="1" />
		<tag k="name" v="Matilda natur- og teaterbarnehage avd. Fuhr" />
		<tag k="no-barnehage:nsrid" v="987872187" />
		<tag k="operator" v="Matilda AS" />
		<tag k="operator:type" v="private" />
	</node>
	<node id="-3838" lat="58.34582" lon="8.55689">
		<tag k="ADDRESS" v="Holbekkveien 47, 4886 GRIMSTAD" />
		<tag k="amenity" v="kindergarten" />
		<tag k="capacity" v="34" />
		<tag k="contact:website" v="http://regnbuebarna.as" />
		<tag k="max_age" v="5" />
		<tag k="min_age" v="1" />
		<tag k="name" v="Regnbuebarna" />
		<tag k="no-barnehage:nsrid" v="989124986" />
		<tag k="operator" v="Regnbuebarna AS" />
		<tag k="operator:type" v="private" />
	</node>
	<node id="-3839" lat="58.35021" lon="8.53052">
		<tag k="ADDRESS" v="Gjærbrøndveien 284, 4886 GRIMSTAD" />
		<tag k="amenity" v="kindergarten" />
		<tag k="capacity" v="29" />
		<tag k="contact:website" v="http://www.resvikbarnehage.no/" />
		<tag k="max_age" v="5" />
		<tag k="min_age" v="1" />
		<tag k="name" v="Resvik barnehage" />
		<tag k="no-barnehage:nsrid" v="973458507" />
		<tag k="operator" v="Resvik Bedehus" />
		<tag k="operator:type" v="private" />
	</node>
	<node id="-3840" lat="58.37491" lon="8.67911">
		<tag k="ADDRESS" v="Ole Pedersens Vei 2, 4870 FEVIK" />
		<tag k="amenity" v="kindergarten" />
		<tag k="capacity" v="27" />
		<tag k="max_age" v="5" />
		<tag k="min_age" v="1" />
		<tag k="name" v="Solstrålen barnehage" />
		<tag k="no-barnehage:nsrid" v="975830500" />
		<tag k="operator" v="Solstrålen barnehage AS" />
		<tag k="operator:type" v="private" />
	</node>
	<node id="-3841" lat="58.34358" lon="8.5897">
		<tag k="ADDRESS" v="Storgaten 46, 4876 GRIMSTAD" />
		<tag k="amenity" v="kindergarten" />
		<tag k="capacity" v="39" />
		<tag k="contact:website" v="http://www.grimstad.kommune.no/tjenester/barnehage/barnehagene-i-grimstad/storgaten-barnehage/" />
		<tag k="max_age" v="5" />
		<tag k="min_age" v="1" />
		<tag k="name" v="Storgaten barnehage" />
		<tag k="no-barnehage:nsrid" v="974548925" />
		<tag k="operator" v="Grimstad kommune" />
		<tag k="operator:type" v="public" />
	</node>
	<node id="-3842" lat="58.37586" lon="8.63232">
		<tag k="ADDRESS" v="Temseveien 72, 4885 GRIMSTAD" />
		<tag k="amenity" v="kindergarten" />
		<tag k="capacity" v="62" />
		<tag k="max_age" v="5" />
		<tag k="min_age" v="1" />
		<tag k="name" v="Temseveien barnehage" />
		<tag k="no-barnehage:nsrid" v="989820729" />
		<tag k="operator" v="Temseveien barnehage AS" />
		<tag k="operator:type" v="private" />
	</node>
	<node id="-3843" lat="58.37661" lon="8.66852">
		<tag k="ADDRESS" v="Hauslandveien 55, 4870 FEVIK" />
		<tag k="amenity" v="kindergarten" />
		<tag k="capacity" v="35" />
		<tag k="contact:website" v="http://tykkasen.barnehage.no/" />
		<tag k="max_age" v="5" />
		<tag k="min_age" v="1" />
		<tag k="name" v="Tykkåsen barnehage" />
		<tag k="no-barnehage:nsrid" v="986062777" />
		<tag k="operator" v="Tykkåsen barnehage AS" />
		<tag k="operator:type" v="private" />
	</node>
	<node id="-3844" lat="58.36508" lon="8.61356">
		<tag k="ADDRESS" v="J. M. Uglands Vei 30, 4878 GRIMSTAD" />
		<tag k="amenity" v="kindergarten" />
		<tag k="capacity" v="25" />
		<tag k="contact:website" v="http://www.firearstider.no/vikkilen" />
		<tag k="max_age" v="5" />
		<tag k="min_age" v="1" />
		<tag k="name" v="Vikkilen barnehage" />
		<tag k="no-barnehage:nsrid" v="998624630" />
		<tag k="operator" v="Vikkilen barnehage AS" />
		<tag k="operator:type" v="private" />
	</node>
	<node id="-3845" lat="58.31879" lon="8.56204">
		<tag k="ADDRESS" v="Østerhusmonen 20, 4879 GRIMSTAD" />
		<tag k="amenity" v="kindergarten" />
		<tag k="capacity" v="49" />
		<tag k="max_age" v="5" />
		<tag k="min_age" v="1" />
		<tag k="name" v="Østerhus barnehage" />
		<tag k="no-barnehage:nsrid" v="973458515" />
		<tag k="operator" v="Grimstad Kirkelige Fellesråd" />
		<tag k="operator:type" v="private" />
	</node>
</osm>
