<?xml version="1.0" encoding="UTF-8"?>
<osm version="0.6" generator="osmapis">
	<node lat="69.76512" lon="21.05198" id="-5236">
		<tag k="ADDRESS" v="Høgegga 3, 9151 STORSLETT" />
		<tag k="amenity" v="kindergarten" />
		<tag k="capacity" v="65" />
		<tag k="max_age" v="5" />
		<tag k="min_age" v="1" />
		<tag k="name" v="Høgegga barnehage" />
		<tag k="no-barnehage:nsrid" v="975322505" />
		<tag k="operator" v="Nordreisa kommune" />
		<tag k="operator:type" v="public" />
	</node>
	<node lat="0.0" lon="0.0" id="-5237">
		<tag k="ADDRESS" v="Flomstadveien, 9151 STORSLETT" />
		<tag k="amenity" v="kindergarten" />
		<tag k="capacity" v="42" />
		<tag k="max_age" v="5" />
		<tag k="min_age" v="1" />
		<tag k="name" v="Leirbukt barnehage" />
		<tag k="no-barnehage:nsrid" v="994459082" />
		<tag k="operator" v="Nordreisa kommune" />
		<tag k="operator:type" v="public" />
	</node>
	<node lat="69.77022" lon="20.9938" id="-5238">
		<tag k="ADDRESS" v="Flomstadvegen 10, 9151 STORSLETT" />
		<tag k="amenity" v="kindergarten" />
		<tag k="name" v="Nordreisa familiesenter/ åpen barnehage" />
		<tag k="no-barnehage:nsrid" v="986661999" />
		<tag k="operator" v="Nordreisa kommune" />
		<tag k="operator:type" v="public" />
	</node>
	<node lat="69.76887" lon="21.03438" id="-5239">
		<tag k="ADDRESS" v="Lundevegen 3, 9151 STORSLETT" />
		<tag k="amenity" v="kindergarten" />
		<tag k="capacity" v="51" />
		<tag k="contact:website" v="http://www.kirkebakkenbarnehage.no" />
		<tag k="max_age" v="5" />
		<tag k="min_age" v="1" />
		<tag k="name" v="Nordreisa menighetsbarnehage" />
		<tag k="no-barnehage:nsrid" v="911801981" />
		<tag k="operator" v="Nordreisa menighetsbarnehage AS" />
		<tag k="operator:type" v="private" />
	</node>
	<node lat="0.0" lon="0.0" id="-5240">
		<tag k="ADDRESS" v="Oksfjordhamn, 9151 STORSLETT" />
		<tag k="amenity" v="kindergarten" />
		<tag k="capacity" v="7" />
		<tag k="max_age" v="5" />
		<tag k="min_age" v="1" />
		<tag k="name" v="Oksfjord oppvekstsenter avd. barnehage" />
		<tag k="no-barnehage:nsrid" v="975313816" />
		<tag k="operator" v="Nordreisa kommune" />
		<tag k="operator:type" v="public" />
	</node>
	<node lat="69.74545" lon="21.11146" id="-5241">
		<tag k="ADDRESS" v="Reisadalen 362, 9154 STORSLETT" />
		<tag k="amenity" v="kindergarten" />
		<tag k="capacity" v="17" />
		<tag k="max_age" v="5" />
		<tag k="min_age" v="1" />
		<tag k="name" v="Reisa montessoribarnehage" />
		<tag k="no-barnehage:nsrid" v="988968595" />
		<tag k="operator" v="Reisa Montessoriforening" />
		<tag k="operator:type" v="private" />
	</node>
	<node lat="0.0" lon="0.0" id="-5242">
		<tag k="ADDRESS" v="Rotsundveien 82, 9153 ROTSUND" />
		<tag k="amenity" v="kindergarten" />
		<tag k="capacity" v="11" />
		<tag k="max_age" v="5" />
		<tag k="min_age" v="1" />
		<tag k="name" v="Rotsundelv barnehagedrift" />
		<tag k="no-barnehage:nsrid" v="987224576" />
		<tag k="operator" v="Rotsundelv Barnehagedrift AS" />
		<tag k="operator:type" v="private" />
	</node>
</osm>
