<?xml version="1.0" encoding="UTF-8"?>
<osm generator="osmapis" version="0.6">
	<node id="-2112" lat="61.91152" lon="7.92932">
		<tag k="ADDRESS" v="Bråtåvegen 8, 2693 NORDBERG" />
		<tag k="amenity" v="kindergarten" />
		<tag k="capacity" v="27" />
		<tag k="contact:website" v="http://www.skjaak.kommune.no/artikkel.aspx?MId1=6&amp;AId=20133" />
		<tag k="max_age" v="5" />
		<tag k="min_age" v="1" />
		<tag k="name" v="Dønfoss naturbarnehage" />
		<tag k="no-barnehage:nsrid" v="1014716" />
		<tag k="operator" v="Skjåk kommune" />
		<tag k="operator:type" v="public" />
	</node>
	<node id="-2111" lat="0.0" lon="0.0">
		<tag k="ADDRESS" v=", 2690 SKJÅK" />
		<tag k="amenity" v="kindergarten" />
		<tag k="capacity" v="33" />
		<tag k="contact:website" v="http://www.skjaak.kommune.no/" />
		<tag k="max_age" v="5" />
		<tag k="min_age" v="1" />
		<tag k="name" v="Bismo barnehage" />
		<tag k="no-barnehage:nsrid" v="1017609" />
		<tag k="operator" v="Skjåk kommune" />
		<tag k="operator:type" v="public" />
	</node>
	<node id="-2115" lat="61.88055" lon="8.26575">
		<tag k="ADDRESS" v="Furuvegen 3, 2690 SKJÅK" />
		<tag k="amenity" v="kindergarten" />
		<tag k="name" v="Inger Helen Tuva Knøtten familiebarnehage" />
		<tag k="no-barnehage:nsrid" v="1021963" />
		<tag k="operator" v="Inger Helen Tuva Knøtten Familiebarnehage" />
		<tag k="operator:type" v="private" />
	</node>
	<node id="-2114" lat="61.8836" lon="8.32285">
		<tag k="ADDRESS" v="Holemorkvegen 42, 2690 SKJÅK" />
		<tag k="amenity" v="kindergarten" />
		<tag k="capacity" v="26" />
		<tag k="contact:website" v="http://www.skjaak.kommune.no/artikkel.aspx?MId1=6&amp;AId=20134" />
		<tag k="max_age" v="5" />
		<tag k="min_age" v="1" />
		<tag k="name" v="Holemork barnehage" />
		<tag k="no-barnehage:nsrid" v="1015863" />
		<tag k="operator" v="Skjåk kommune" />
		<tag k="operator:type" v="public" />
	</node>
</osm>
