<?xml version="1.0" encoding="UTF-8"?>
<osm generator="osmapis" version="0.6">
	<node id="-5063" lat="64.39197" lon="11.40166">
		<tag k="ADDRESS" v="Klingavegen 1317, 7822 BANGSUND" />
		<tag k="amenity" v="kindergarten" />
		<tag k="capacity" v="29" />
		<tag k="contact:website" v="http://minbarnehage.no/bangsund" />
		<tag k="max_age" v="5" />
		<tag k="min_age" v="1" />
		<tag k="name" v="Bangsund barnehage" />
		<tag k="no-barnehage:nsrid" v="975311759" />
		<tag k="operator" v="Namsos kommune" />
		<tag k="operator:type" v="public" />
	</node>
	<node id="-5064" lat="64.42186" lon="11.49538">
		<tag k="ADDRESS" v="Barstadvegen 19, 7820 SPILLUM" />
		<tag k="amenity" v="kindergarten" />
		<tag k="capacity" v="29" />
		<tag k="max_age" v="5" />
		<tag k="min_age" v="1" />
		<tag k="name" v="Barstad barnehage" />
		<tag k="no-barnehage:nsrid" v="973471910" />
		<tag k="operator" v="Barstad barnehage Sa" />
		<tag k="operator:type" v="private" />
	</node>
	<node id="-5065" lat="64.47398" lon="11.52027">
		<tag k="ADDRESS" v="Prestegårdsstien 6, 7804 NAMSOS" />
		<tag k="amenity" v="kindergarten" />
		<tag k="capacity" v="58" />
		<tag k="max_age" v="5" />
		<tag k="min_age" v="1" />
		<tag k="name" v="Bjørum barnehage" />
		<tag k="no-barnehage:nsrid" v="974753928" />
		<tag k="operator" v="Bjørum barnehage AS" />
		<tag k="operator:type" v="private" />
	</node>
	<node id="-5066" lat="0.0" lon="0.0">
		<tag k="ADDRESS" v="Flak, 7822 BANGSUND" />
		<tag k="amenity" v="kindergarten" />
		<tag k="capacity" v="25" />
		<tag k="max_age" v="5" />
		<tag k="min_age" v="1" />
		<tag k="name" v="Flak naturbarnehage" />
		<tag k="no-barnehage:nsrid" v="987110902" />
		<tag k="operator" v="Flak Naturbarnehage AS" />
		<tag k="operator:type" v="private" />
	</node>
	<node id="-5067" lat="64.48142" lon="11.53967">
		<tag k="ADDRESS" v="Fossbrennvegen 10, 7805 NAMSOS" />
		<tag k="amenity" v="kindergarten" />
		<tag k="capacity" v="25" />
		<tag k="max_age" v="5" />
		<tag k="min_age" v="1" />
		<tag k="name" v="Fossbrenna barnehage" />
		<tag k="no-barnehage:nsrid" v="976833163" />
		<tag k="operator" v="Namsos kommune" />
		<tag k="operator:type" v="public" />
	</node>
	<node id="-5068" lat="64.48305" lon="11.51128">
		<tag k="ADDRESS" v="Havikvegen 52, 7803 NAMSOS" />
		<tag k="amenity" v="kindergarten" />
		<tag k="capacity" v="26" />
		<tag k="max_age" v="5" />
		<tag k="min_age" v="1" />
		<tag k="name" v="Granåsen barnehage" />
		<tag k="no-barnehage:nsrid" v="973483072" />
		<tag k="operator" v="Granåsen barnehage Sa" />
		<tag k="operator:type" v="private" />
	</node>
	<node id="-5069" lat="64.4765" lon="11.46693">
		<tag k="ADDRESS" v="Gullvikvegen 71, 7802 NAMSOS" />
		<tag k="amenity" v="kindergarten" />
		<tag k="capacity" v="40" />
		<tag k="max_age" v="5" />
		<tag k="min_age" v="1" />
		<tag k="name" v="Gullvika naturbarnehage" />
		<tag k="no-barnehage:nsrid" v="985554471" />
		<tag k="operator" v="Gullvika naturbarnehage AS" />
		<tag k="operator:type" v="private" />
	</node>
	<node id="-5070" lat="64.65356" lon="11.26428">
		<tag k="ADDRESS" v="Dunavegen 577, 7856 JØA" />
		<tag k="amenity" v="kindergarten" />
		<tag k="capacity" v="16" />
		<tag k="max_age" v="5" />
		<tag k="min_age" v="1" />
		<tag k="name" v="Jøa barnehage" />
		<tag k="no-barnehage:nsrid" v="974620634" />
		<tag k="operator" v="Namsos kommune" />
		<tag k="operator:type" v="public" />
	</node>
	<node id="-5071" lat="64.4725" lon="11.52634">
		<tag k="ADDRESS" v="Hallvegen 1, 7805 NAMSOS" />
		<tag k="amenity" v="kindergarten" />
		<tag k="capacity" v="28" />
		<tag k="max_age" v="5" />
		<tag k="min_age" v="1" />
		<tag k="name" v="Kleppen barnehage" />
		<tag k="no-barnehage:nsrid" v="975311775" />
		<tag k="operator" v="Namsos kommune" />
		<tag k="operator:type" v="public" />
	</node>
	<node id="-5072" lat="64.45946" lon="11.5379">
		<tag k="ADDRESS" v="Holmenvegen 6, 7820 SPILLUM" />
		<tag k="amenity" v="kindergarten" />
		<tag k="capacity" v="55" />
		<tag k="max_age" v="5" />
		<tag k="min_age" v="1" />
		<tag k="name" v="Namsos barnehage" />
		<tag k="no-barnehage:nsrid" v="972240540" />
		<tag k="operator" v="Namsos barnehage SA" />
		<tag k="operator:type" v="private" />
	</node>
	<node id="-5073" lat="64.47189" lon="11.52143">
		<tag k="ADDRESS" v="Gymnasvegen 3, 7804 NAMSOS" />
		<tag k="amenity" v="kindergarten" />
		<tag k="capacity" v="27" />
		<tag k="max_age" v="5" />
		<tag k="min_age" v="1" />
		<tag k="name" v="Namsos musikkbarnehage" />
		<tag k="no-barnehage:nsrid" v="985802416" />
		<tag k="operator" v="Namsos Musikkbarnehage AS" />
		<tag k="operator:type" v="private" />
	</node>
	<node id="-5074" lat="64.47823" lon="11.48082">
		<tag k="ADDRESS" v="Vemundvikvegen 93, 7810 NAMSOS" />
		<tag k="amenity" v="kindergarten" />
		<tag k="capacity" v="34" />
		<tag k="max_age" v="5" />
		<tag k="min_age" v="1" />
		<tag k="name" v="Natur &amp; idrettsbarnehagen avd. Bråten" />
		<tag k="no-barnehage:nsrid" v="985623864" />
		<tag k="operator" v="Natur &amp; Idrettsbarnehagen AS" />
		<tag k="operator:type" v="private" />
	</node>
	<node id="-5075" lat="64.47666" lon="11.58058">
		<tag k="ADDRESS" v="Skagevegen 208, 7805 NAMSOS" />
		<tag k="amenity" v="kindergarten" />
		<tag k="capacity" v="26" />
		<tag k="max_age" v="5" />
		<tag k="min_age" v="1" />
		<tag k="name" v="Natur &amp; idrettsbarnehagen avd. Høknes" />
		<tag k="no-barnehage:nsrid" v="996489957" />
		<tag k="operator" v="Natur &amp; Idrettsbarnehagen AS" />
		<tag k="operator:type" v="private" />
	</node>
	<node id="-5076" lat="64.53987" lon="11.26684">
		<tag k="ADDRESS" v="Årnesvegen 307, 7819 FOSSLANDSOSEN" />
		<tag k="amenity" v="kindergarten" />
		<tag k="capacity" v="27" />
		<tag k="max_age" v="5" />
		<tag k="min_age" v="1" />
		<tag k="name" v="Otterøy barnehage" />
		<tag k="no-barnehage:nsrid" v="975311783" />
		<tag k="operator" v="Namsos kommune" />
		<tag k="operator:type" v="public" />
	</node>
	<node id="-5078" lat="64.47302" lon="11.53498">
		<tag k="ADDRESS" v="Skoglyvegen 3, 7805 NAMSOS" />
		<tag k="amenity" v="kindergarten" />
		<tag k="capacity" v="55" />
		<tag k="max_age" v="5" />
		<tag k="min_age" v="1" />
		<tag k="name" v="Skoglyveien barnehage" />
		<tag k="no-barnehage:nsrid" v="987099607" />
		<tag k="operator" v="Skoglyveien barnehage AS" />
		<tag k="operator:type" v="private" />
	</node>
	<node id="-5080" lat="64.46786" lon="11.5125">
		<tag k="ADDRESS" v="Finn Christiansens veg 4, 7804 NAMSOS" />
		<tag k="amenity" v="kindergarten" />
		<tag k="capacity" v="73" />
		<tag k="max_age" v="5" />
		<tag k="min_age" v="1" />
		<tag k="name" v="Solvang barnehage" />
		<tag k="no-barnehage:nsrid" v="917459517" />
		<tag k="operator" v="Namsos kommune" />
		<tag k="operator:type" v="public" />
	</node>
	<node id="-5081" lat="64.44226" lon="11.51247">
		<tag k="ADDRESS" v="Spillumvegen 17, 7820 SPILLUM" />
		<tag k="amenity" v="kindergarten" />
		<tag k="capacity" v="27" />
		<tag k="max_age" v="5" />
		<tag k="min_age" v="1" />
		<tag k="name" v="Spillum barnehage" />
		<tag k="no-barnehage:nsrid" v="975311791" />
		<tag k="operator" v="Namsos kommune" />
		<tag k="operator:type" v="public" />
	</node>
	<node id="-5082" lat="64.49706" lon="11.13419">
		<tag k="ADDRESS" v="Utvordvegen 906, 7777 NORD-STATLAND" />
		<tag k="amenity" v="kindergarten" />
		<tag k="capacity" v="5" />
		<tag k="max_age" v="5" />
		<tag k="min_age" v="1" />
		<tag k="name" v="Stjerten barnehage" />
		<tag k="no-barnehage:nsrid" v="875312022" />
		<tag k="operator" v="Namsos kommune" />
		<tag k="operator:type" v="public" />
	</node>
	<node id="-5083" lat="64.53079" lon="11.54122">
		<tag k="ADDRESS" v="Løddingsvegen 9, 7810 NAMSOS" />
		<tag k="amenity" v="kindergarten" />
		<tag k="capacity" v="26" />
		<tag k="max_age" v="5" />
		<tag k="min_age" v="1" />
		<tag k="name" v="Sørenget barnehage" />
		<tag k="no-barnehage:nsrid" v="987463651" />
		<tag k="operator" v="Namsos kommune" />
		<tag k="operator:type" v="public" />
	</node>
	<node id="-5084" lat="64.21848" lon="11.22568">
		<tag k="ADDRESS" v="Vangsmovegen 10, 7750 NAMDALSEID" />
		<tag k="amenity" v="kindergarten" />
		<tag k="capacity" v="56" />
		<tag k="max_age" v="5" />
		<tag k="min_age" v="1" />
		<tag k="name" v="Vangstunet barnehage" />
		<tag k="no-barnehage:nsrid" v="974037424" />
		<tag k="operator" v="Namsos kommune" />
		<tag k="operator:type" v="public" />
	</node>
	<node id="-5085" lat="64.47482" lon="11.46264">
		<tag k="ADDRESS" v="Kattmarkvegen 3, 7802 NAMSOS" />
		<tag k="amenity" v="kindergarten" />
		<tag k="capacity" v="30" />
		<tag k="max_age" v="5" />
		<tag k="min_age" v="1" />
		<tag k="name" v="Vestbyen barnehage" />
		<tag k="no-barnehage:nsrid" v="975322068" />
		<tag k="operator" v="Namsos kommune" />
		<tag k="operator:type" v="public" />
	</node>
	<node id="-5086" lat="64.47055" lon="11.49176">
		<tag k="ADDRESS" v="Lensmann Havigs Gate 10, 7800 NAMSOS" />
		<tag k="amenity" v="kindergarten" />
		<tag k="capacity" v="7" />
		<tag k="contact:website" v="http://vikabarnehage.barnehage.no/" />
		<tag k="max_age" v="2" />
		<tag k="min_age" v="1" />
		<tag k="name" v="Vika barnehage" />
		<tag k="no-barnehage:nsrid" v="879986982" />
		<tag k="operator" v="Vika barnehage AS" />
		<tag k="operator:type" v="private" />
	</node>
</osm>
