<?xml version="1.0" encoding="UTF-8"?>
<osm generator="osmapis" version="0.6">
	<node id="-3290" lat="60.71958" lon="10.81413">
		<tag k="ADDRESS" v="Bjørnsgårdlinna 143, 2849 KAPP" />
		<tag k="amenity" v="kindergarten" />
		<tag k="capacity" v="58" />
		<tag k="contact:website" v="http://www.bjornsgaard.bhg.no" />
		<tag k="max_age" v="5" />
		<tag k="min_age" v="1" />
		<tag k="name" v="Bjørnsgård barnehage" />
		<tag k="no-barnehage:nsrid" v="983443761" />
		<tag k="operator" v="Bjørnsgård barnehage Sa" />
		<tag k="operator:type" v="private" />
	</node>
	<node id="-3291" lat="60.63573" lon="10.91392">
		<tag k="ADDRESS" v="Krabyskogvegen 643, 2848 SKREIA" />
		<tag k="amenity" v="kindergarten" />
		<tag k="capacity" v="75" />
		<tag k="contact:website" v="http://www.eventyraasen.barnehage.no" />
		<tag k="max_age" v="5" />
		<tag k="min_age" v="1" />
		<tag k="name" v="Eventyråsen barnehage" />
		<tag k="no-barnehage:nsrid" v="990739714" />
		<tag k="operator" v="Eventyråsen barnehage AS" />
		<tag k="operator:type" v="private" />
	</node>
	<node id="-3292" lat="60.64526" lon="11.00537">
		<tag k="ADDRESS" v="Totenvegen 1176, 2848 SKREIA" />
		<tag k="amenity" v="kindergarten" />
		<tag k="capacity" v="41" />
		<tag k="contact:website" v="http://fredsvoll.barnehage.no" />
		<tag k="max_age" v="5" />
		<tag k="min_age" v="1" />
		<tag k="name" v="Fredsvoll barnehage" />
		<tag k="no-barnehage:nsrid" v="973474936" />
		<tag k="operator" v="Fredsvoll barnehage SA" />
		<tag k="operator:type" v="private" />
	</node>
	<node id="-3293" lat="60.68385" lon="10.84162">
		<tag k="ADDRESS" v="Tømmerholsvegen 326, 2850 LENA" />
		<tag k="amenity" v="kindergarten" />
		<tag k="capacity" v="69" />
		<tag k="max_age" v="5" />
		<tag k="min_age" v="1" />
		<tag k="name" v="Hoffsvangen barnehage" />
		<tag k="no-barnehage:nsrid" v="975295257" />
		<tag k="operator" v="Østre Toten kommune" />
		<tag k="operator:type" v="public" />
	</node>
	<node id="-3294" lat="60.71295" lon="10.87446">
		<tag k="ADDRESS" v="Engevegen 4, 2849 KAPP" />
		<tag k="amenity" v="kindergarten" />
		<tag k="capacity" v="88" />
		<tag k="max_age" v="5" />
		<tag k="min_age" v="1" />
		<tag k="name" v="Kapp barnehage" />
		<tag k="no-barnehage:nsrid" v="975303624" />
		<tag k="operator" v="Østre Toten kommune" />
		<tag k="operator:type" v="public" />
	</node>
	<node id="-3295" lat="0.0" lon="0.0">
		<tag k="ADDRESS" v=", 2847 KOLBU" />
		<tag k="amenity" v="kindergarten" />
		<tag k="capacity" v="70" />
		<tag k="max_age" v="5" />
		<tag k="min_age" v="1" />
		<tag k="name" v="Kolbu barnehage" />
		<tag k="no-barnehage:nsrid" v="995410338" />
		<tag k="operator" v="Østre Toten kommune" />
		<tag k="operator:type" v="public" />
	</node>
	<node id="-3296" lat="60.67762" lon="10.817">
		<tag k="ADDRESS" v="Vallejordet, 2850 LENA" />
		<tag k="amenity" v="kindergarten" />
		<tag k="capacity" v="91" />
		<tag k="max_age" v="5" />
		<tag k="min_age" v="1" />
		<tag k="name" v="Lena FUS barnehage" />
		<tag k="no-barnehage:nsrid" v="911842904" />
		<tag k="operator" v="Lena Fus barnehage AS" />
		<tag k="operator:type" v="private" />
	</node>
	<node id="-3297" lat="60.74703" lon="10.74935">
		<tag k="ADDRESS" v="Mekketvegen 4, 2820 NORDRE TOTEN" />
		<tag k="amenity" v="kindergarten" />
		<tag k="capacity" v="42" />
		<tag k="max_age" v="5" />
		<tag k="min_age" v="1" />
		<tag k="name" v="Nordli barnehage" />
		<tag k="no-barnehage:nsrid" v="975303594" />
		<tag k="operator" v="Østre Toten kommune" />
		<tag k="operator:type" v="public" />
	</node>
	<node id="-3298" lat="0.0" lon="0.0">
		<tag k="ADDRESS" v="Vestvegen 116, 2847 KOLBU" />
		<tag k="amenity" v="kindergarten" />
		<tag k="capacity" v="61" />
		<tag k="contact:website" v="http://Bonderudbakken.barnehage.no" />
		<tag k="max_age" v="5" />
		<tag k="min_age" v="1" />
		<tag k="name" v="Nye Bonderudbakken gårdsbarnehage" />
		<tag k="no-barnehage:nsrid" v="974540630" />
		<tag k="operator" v="Nye Bonderudbakken gårdsbarnehage AS" />
		<tag k="operator:type" v="private" />
	</node>
	<node id="-3299" lat="60.65141" lon="10.92476">
		<tag k="ADDRESS" v="Fossenvegen 5, 2848 SKREIA" />
		<tag k="amenity" v="kindergarten" />
		<tag k="capacity" v="37" />
		<tag k="max_age" v="5" />
		<tag k="min_age" v="1" />
		<tag k="name" v="Oliviabakken barnehage" />
		<tag k="no-barnehage:nsrid" v="975303608" />
		<tag k="operator" v="Østre Toten kommune" />
		<tag k="operator:type" v="public" />
	</node>
	<node id="-3300" lat="0.0" lon="0.0">
		<tag k="ADDRESS" v="FESTAD GÅRD, 2850 LENA" />
		<tag k="amenity" v="kindergarten" />
		<tag k="capacity" v="15" />
		<tag k="max_age" v="5" />
		<tag k="min_age" v="1" />
		<tag k="name" v="Steinerbarnehagen Lena" />
		<tag k="no-barnehage:nsrid" v="973469762" />
		<tag k="operator" v="Steinerbarnehagen" />
		<tag k="operator:type" v="private" />
	</node>
	<node id="-3301" lat="60.59788" lon="10.73428">
		<tag k="ADDRESS" v="Kolbulinna 991, 2847 KOLBU" />
		<tag k="amenity" v="kindergarten" />
		<tag k="capacity" v="11" />
		<tag k="max_age" v="5" />
		<tag k="min_age" v="1" />
		<tag k="name" v="Toten montessoribarnehage" />
		<tag k="no-barnehage:nsrid" v="923701680" />
		<tag k="operator" v="Toten montessoribarnehage AS" />
		<tag k="operator:type" v="private" />
	</node>
	<node id="-3302" lat="0.0" lon="0.0">
		<tag k="ADDRESS" v=", 2850 LENA" />
		<tag k="amenity" v="kindergarten" />
		<tag k="capacity" v="31" />
		<tag k="max_age" v="5" />
		<tag k="min_age" v="1" />
		<tag k="name" v="Vilberg barnehage" />
		<tag k="no-barnehage:nsrid" v="975303632" />
		<tag k="operator" v="Østre Toten kommune" />
		<tag k="operator:type" v="public" />
	</node>
</osm>
