<?xml version="1.0" encoding="UTF-8"?>
<osm generator="osmapis" version="0.6">
	<node id="-3456" lat="60.16477" lon="10.9932">
		<tag k="ADDRESS" v="Ramstaddammen 1, 2033 ÅSGREINA" />
		<tag k="amenity" v="kindergarten" />
		<tag k="capacity" v="72" />
		<tag k="max_age" v="5" />
		<tag k="min_age" v="1" />
		<tag k="name" v="Åsgreina barnehage" />
		<tag k="no-barnehage:nsrid" v="1016963" />
		<tag k="operator" v="Nannestad kommune" />
		<tag k="operator:type" v="public" />
	</node>
	<node id="-3455" lat="60.25112" lon="11.02589">
		<tag k="ADDRESS" v="Skogduevegen 33, 2032 MAURA" />
		<tag k="amenity" v="kindergarten" />
		<tag k="capacity" v="66" />
		<tag k="contact:website" v="http://www.solheim.barnehage.no" />
		<tag k="max_age" v="5" />
		<tag k="min_age" v="1" />
		<tag k="name" v="Solheim barnehage Al" />
		<tag k="no-barnehage:nsrid" v="1020055" />
		<tag k="operator" v="Solheim barnehage Sa" />
		<tag k="operator:type" v="private" />
	</node>
	<node id="-3454" lat="60.22926" lon="11.0267">
		<tag k="ADDRESS" v="Prestmosvegen 30, 2030 NANNESTAD" />
		<tag k="amenity" v="kindergarten" />
		<tag k="capacity" v="86" />
		<tag k="max_age" v="5" />
		<tag k="min_age" v="1" />
		<tag k="name" v="Prestmosen FUS barnehage" />
		<tag k="no-barnehage:nsrid" v="1021364" />
		<tag k="operator" v="Prestmosen Fus barnehage AS" />
		<tag k="operator:type" v="private" />
	</node>
	<node id="-3453" lat="60.13205" lon="11.01336">
		<tag k="ADDRESS" v="Willy Moes Veg 4, 2034 HOLTER" />
		<tag k="amenity" v="kindergarten" />
		<tag k="capacity" v="81" />
		<tag k="contact:website" v="http://www.eltonasen.norlandiabarnehagene.no" />
		<tag k="max_age" v="5" />
		<tag k="min_age" v="1" />
		<tag k="name" v="Norlandia Eltonåsen barnehage" />
		<tag k="no-barnehage:nsrid" v="1016434" />
		<tag k="operator" v="Norlandia Barnehagene AS" />
		<tag k="operator:type" v="private" />
	</node>
	<node id="-3452" lat="60.22318" lon="11.0171">
		<tag k="ADDRESS" v="Prestmosvegen 3, 2030 NANNESTAD" />
		<tag k="amenity" v="kindergarten" />
		<tag k="capacity" v="95" />
		<tag k="max_age" v="5" />
		<tag k="min_age" v="1" />
		<tag k="name" v="Midtbygda barnehage" />
		<tag k="no-barnehage:nsrid" v="1017549" />
		<tag k="operator" v="Nannestad kommune" />
		<tag k="operator:type" v="public" />
	</node>
	<node id="-3451" lat="60.14462" lon="11.03709">
		<tag k="ADDRESS" v="Vestlykkja 60, 2034 HOLTER" />
		<tag k="amenity" v="kindergarten" />
		<tag k="capacity" v="19" />
		<tag k="contact:website" v="http://lokka.barnehage.no" />
		<tag k="max_age" v="5" />
		<tag k="min_age" v="1" />
		<tag k="name" v="Løkka barnehage" />
		<tag k="no-barnehage:nsrid" v="1021173" />
		<tag k="operator" v="Løkka barnehage AS" />
		<tag k="operator:type" v="private" />
	</node>
	<node id="-3450" lat="60.26147" lon="11.02937">
		<tag k="ADDRESS" v="Rosenfinkringen 8, 2032 MAURA" />
		<tag k="amenity" v="kindergarten" />
		<tag k="capacity" v="66" />
		<tag k="contact:website" v="http://laringsverkstedet.no/barnehage/maura" />
		<tag k="max_age" v="5" />
		<tag k="min_age" v="1" />
		<tag k="name" v="Læringsverkstedet barnehage avd. Maura" />
		<tag k="no-barnehage:nsrid" v="1018422" />
		<tag k="operator" v="Læringsverkstedet AS" />
		<tag k="operator:type" v="private" />
	</node>
	<node id="-3449" lat="60.13517" lon="11.01437">
		<tag k="ADDRESS" v="Øyungsvegen 10, 2034 HOLTER" />
		<tag k="amenity" v="kindergarten" />
		<tag k="capacity" v="126" />
		<tag k="contact:website" v="http://www.nannestad.kommune.no/holterbarnehage" />
		<tag k="max_age" v="5" />
		<tag k="min_age" v="1" />
		<tag k="name" v="Holter barnehage" />
		<tag k="no-barnehage:nsrid" v="1017548" />
		<tag k="operator" v="Nannestad kommune" />
		<tag k="operator:type" v="public" />
	</node>
	<node id="-3448" lat="60.24787" lon="11.02063">
		<tag k="ADDRESS" v="Gamle Dalsveg 3, 2032 MAURA" />
		<tag k="amenity" v="kindergarten" />
		<tag k="capacity" v="81" />
		<tag k="max_age" v="5" />
		<tag k="min_age" v="1" />
		<tag k="name" v="Breenenga FUS barnehage" />
		<tag k="no-barnehage:nsrid" v="1021130" />
		<tag k="operator" v="Breenenga Fus barnehage AS" />
		<tag k="operator:type" v="private" />
	</node>
	<node id="-3447" lat="60.23544" lon="11.00875">
		<tag k="ADDRESS" v="Åsvegen 814, 2032 MAURA" />
		<tag k="amenity" v="kindergarten" />
		<tag k="capacity" v="10" />
		<tag k="contact:website" v="http://www.minbarnehage.no/bjerketun" />
		<tag k="max_age" v="5" />
		<tag k="min_age" v="1" />
		<tag k="name" v="Bjerketun barnehage" />
		<tag k="no-barnehage:nsrid" v="1020879" />
		<tag k="operator" v="Bjerketun barnehage Eva B Aas" />
		<tag k="operator:type" v="private" />
	</node>
	<node id="-3446" lat="60.25696" lon="11.04604">
		<tag k="ADDRESS" v="Dvergspettvegen 13, 2032 MAURA" />
		<tag k="amenity" v="kindergarten" />
		<tag k="capacity" v="76" />
		<tag k="max_age" v="5" />
		<tag k="min_age" v="1" />
		<tag k="name" v="Bjerke barnehage" />
		<tag k="no-barnehage:nsrid" v="1025496" />
		<tag k="operator" v="Nannestad kommune" />
		<tag k="operator:type" v="public" />
	</node>
</osm>
