<?xml version="1.0" encoding="UTF-8"?>
<osm generator="osmapis" version="0.6">
	<node id="-4155" lat="61.10645" lon="10.48408">
		<tag k="ADDRESS" v="Margit Haslunds Veg 34, 2614 LILLEHAMMER" />
		<tag k="amenity" v="kindergarten" />
		<tag k="capacity" v="41" />
		<tag k="max_age" v="5" />
		<tag k="min_age" v="1" />
		<tag k="name" v="Øversveen barnehage" />
		<tag k="no-barnehage:nsrid" v="1012783" />
		<tag k="operator" v="Lillehammer kommune" />
		<tag k="operator:type" v="public" />
	</node>
	<node id="-4154" lat="61.0483" lon="10.42874">
		<tag k="ADDRESS" v="Torpavegen 15, 2607 VINGROM" />
		<tag k="amenity" v="kindergarten" />
		<tag k="capacity" v="60" />
		<tag k="max_age" v="5" />
		<tag k="min_age" v="1" />
		<tag k="name" v="Vingrom barnehage" />
		<tag k="no-barnehage:nsrid" v="1012786" />
		<tag k="operator" v="Lillehammer kommune" />
		<tag k="operator:type" v="public" />
	</node>
	<node id="-4153" lat="61.10813" lon="10.42793">
		<tag k="ADDRESS" v="Saksumdalsvegen 40, 2608 LILLEHAMMER" />
		<tag k="amenity" v="kindergarten" />
		<tag k="capacity" v="63" />
		<tag k="max_age" v="5" />
		<tag k="min_age" v="1" />
		<tag k="name" v="Vingar barnehage" />
		<tag k="no-barnehage:nsrid" v="1016020" />
		<tag k="operator" v="Lillehammer kommune" />
		<tag k="operator:type" v="public" />
	</node>
	<node id="-4152" lat="61.11138" lon="10.47241">
		<tag k="ADDRESS" v="Anders Sandvigs Gate 13, 2609 LILLEHAMMER" />
		<tag k="amenity" v="kindergarten" />
		<tag k="capacity" v="55" />
		<tag k="max_age" v="5" />
		<tag k="min_age" v="1" />
		<tag k="name" v="Sykehusbarnehagen i Lillehammer" />
		<tag k="no-barnehage:nsrid" v="1016673" />
		<tag k="operator" v="Lillehammer kommune" />
		<tag k="operator:type" v="public" />
	</node>
	<node id="-4151" lat="61.10556" lon="10.46756">
		<tag k="ADDRESS" v="Bekkefaret 1a, 2613 LILLEHAMMER" />
		<tag k="amenity" v="kindergarten" />
		<tag k="capacity" v="66" />
		<tag k="contact:website" v="http://www.suttestad-barnehage.no" />
		<tag k="max_age" v="5" />
		<tag k="min_age" v="1" />
		<tag k="name" v="Suttestad barnehage" />
		<tag k="no-barnehage:nsrid" v="1021079" />
		<tag k="operator" v="Disheim AS" />
		<tag k="operator:type" v="private" />
	</node>
	<node id="-4150" lat="61.09442" lon="10.51124">
		<tag k="ADDRESS" v="Feltspatvegen 8, 2611 LILLEHAMMER" />
		<tag k="amenity" v="kindergarten" />
		<tag k="capacity" v="75" />
		<tag k="contact:website" v="http://steinroysa.barnehage.no" />
		<tag k="max_age" v="5" />
		<tag k="min_age" v="1" />
		<tag k="name" v="Steinrøysa barnehage" />
		<tag k="no-barnehage:nsrid" v="1020132" />
		<tag k="operator" v="Stiftelsen Steinrøysa barnehage" />
		<tag k="operator:type" v="private" />
	</node>
	<node id="-4149" lat="61.13474" lon="10.44819">
		<tag k="ADDRESS" v="Smestadvegen 16, 2619 LILLEHAMMER" />
		<tag k="amenity" v="kindergarten" />
		<tag k="capacity" v="26" />
		<tag k="contact:website" v="http://sinn.no/lillehammer/om-sopp-barnehage/" />
		<tag k="max_age" v="5" />
		<tag k="min_age" v="1" />
		<tag k="name" v="Smestad studentbarnehage" />
		<tag k="no-barnehage:nsrid" v="1015499" />
		<tag k="operator" v="Studentsamskipnaden i Innlandet" />
		<tag k="operator:type" v="private" />
	</node>
	<node id="-4148" lat="61.13536" lon="10.47058">
		<tag k="ADDRESS" v="Blestervegen 3, 2618 LILLEHAMMER" />
		<tag k="amenity" v="kindergarten" />
		<tag k="capacity" v="31" />
		<tag k="max_age" v="5" />
		<tag k="min_age" v="1" />
		<tag k="name" v="Skårsetlia naturbarnehage" />
		<tag k="no-barnehage:nsrid" v="1025331" />
		<tag k="operator" v="Lillehammer kommune" />
		<tag k="operator:type" v="public" />
	</node>
	<node id="-4147" lat="61.11337" lon="10.31008">
		<tag k="ADDRESS" v="Rustenvegen 3, 2608 LILLEHAMMER" />
		<tag k="amenity" v="kindergarten" />
		<tag k="capacity" v="17" />
		<tag k="max_age" v="5" />
		<tag k="min_age" v="1" />
		<tag k="name" v="Saksheim naturbarnehage" />
		<tag k="no-barnehage:nsrid" v="1012785" />
		<tag k="operator" v="Lillehammer kommune" />
		<tag k="operator:type" v="public" />
	</node>
	<node id="-4146" lat="61.0935" lon="10.51613">
		<tag k="ADDRESS" v="Granittlia 2, 2611 LILLEHAMMER" />
		<tag k="amenity" v="kindergarten" />
		<tag k="capacity" v="64" />
		<tag k="max_age" v="5" />
		<tag k="min_age" v="1" />
		<tag k="name" v="Røyslimoen barnehage" />
		<tag k="no-barnehage:nsrid" v="1012787" />
		<tag k="operator" v="Lillehammer kommune" />
		<tag k="operator:type" v="public" />
	</node>
	<node id="-4145" lat="61.13647" lon="10.4512">
		<tag k="ADDRESS" v="Olav Audunssons Veg 1, 2624 LILLEHAMMER" />
		<tag k="amenity" v="kindergarten" />
		<tag k="capacity" v="36" />
		<tag k="contact:website" v="http://www.ro.barnehage.no" />
		<tag k="max_age" v="5" />
		<tag k="min_age" v="1" />
		<tag k="name" v="Ro barnehage" />
		<tag k="no-barnehage:nsrid" v="1019995" />
		<tag k="operator" v="Ro barnehage Sa" />
		<tag k="operator:type" v="private" />
	</node>
	<node id="-4144" lat="61.10018" lon="10.42741">
		<tag k="ADDRESS" v="Hågåvegen 15, 2608 LILLEHAMMER" />
		<tag k="amenity" v="kindergarten" />
		<tag k="capacity" v="30" />
		<tag k="contact:website" v="http://www.ringelihornsteinerbarnehage.com" />
		<tag k="max_age" v="5" />
		<tag k="min_age" v="1" />
		<tag k="name" v="Ringelihorn Steinerbarnehage" />
		<tag k="no-barnehage:nsrid" v="1020300" />
		<tag k="operator" v="Stiftelsen Ringelihorn Steiner- barnehage på Lillehammer" />
		<tag k="operator:type" v="private" />
	</node>
	<node id="-4143" lat="61.11765" lon="10.48308">
		<tag k="ADDRESS" v="Nybuvegen 35, 2609 LILLEHAMMER" />
		<tag k="amenity" v="kindergarten" />
		<tag k="capacity" v="43" />
		<tag k="contact:website" v="http://nybu.barnehage.no/" />
		<tag k="max_age" v="5" />
		<tag k="min_age" v="1" />
		<tag k="name" v="Nybu barnehage" />
		<tag k="no-barnehage:nsrid" v="1020079" />
		<tag k="operator" v="Nybu barnehage" />
		<tag k="operator:type" v="private" />
	</node>
	<node id="-4142" lat="61.12135" lon="10.45312">
		<tag k="ADDRESS" v="Skjellerudvegen 2a, 2615 LILLEHAMMER" />
		<tag k="amenity" v="kindergarten" />
		<tag k="capacity" v="58" />
		<tag k="contact:website" v="http://www.lillehammer.kommune.no/norbana-barnehage-k.6005394-422573.html" />
		<tag k="max_age" v="5" />
		<tag k="min_age" v="1" />
		<tag k="name" v="Norbana barnehage" />
		<tag k="no-barnehage:nsrid" v="1015450" />
		<tag k="operator" v="Lillehammer kommune" />
		<tag k="operator:type" v="public" />
	</node>
	<node id="-4141" lat="61.15482" lon="10.3591">
		<tag k="ADDRESS" v="Baklivegen 181, 2625 FÅBERG" />
		<tag k="amenity" v="kindergarten" />
		<tag k="capacity" v="54" />
		<tag k="contact:website" v="http://www.lundgaardslokka.no" />
		<tag k="max_age" v="5" />
		<tag k="min_age" v="1" />
		<tag k="name" v="Lundgaardsløkka barnehage" />
		<tag k="no-barnehage:nsrid" v="1021769" />
		<tag k="operator" v="Lundgaardsløkka barnehage AS" />
		<tag k="operator:type" v="private" />
	</node>
	<node id="-4140" lat="61.12742" lon="10.46959">
		<tag k="ADDRESS" v="Hans Aanruds Veg 17, 2618 LILLEHAMMER" />
		<tag k="amenity" v="kindergarten" />
		<tag k="capacity" v="86" />
		<tag k="max_age" v="5" />
		<tag k="min_age" v="1" />
		<tag k="name" v="Lillehammer idrettsbarnehage" />
		<tag k="no-barnehage:nsrid" v="1022191" />
		<tag k="operator" v="Lillehammer Idrettsbarnehage AS" />
		<tag k="operator:type" v="private" />
	</node>
	<node id="-4139" lat="61.12093" lon="10.46478">
		<tag k="ADDRESS" v="Gamlevegen 119, 2615 LILLEHAMMER" />
		<tag k="amenity" v="kindergarten" />
		<tag k="capacity" v="54" />
		<tag k="max_age" v="5" />
		<tag k="min_age" v="1" />
		<tag k="name" v="Lillehammer barnehage" />
		<tag k="no-barnehage:nsrid" v="1025362" />
		<tag k="operator" v="Lillehammer kommune" />
		<tag k="operator:type" v="public" />
	</node>
	<node id="-4138" lat="61.15281" lon="10.38968">
		<tag k="ADDRESS" v="Baklivegen 2, 2625 FÅBERG" />
		<tag k="amenity" v="kindergarten" />
		<tag k="capacity" v="45" />
		<tag k="max_age" v="5" />
		<tag k="min_age" v="1" />
		<tag k="name" v="Jørstadmoen barnehage" />
		<tag k="no-barnehage:nsrid" v="1017745" />
		<tag k="operator" v="Lillehammer kommune" />
		<tag k="operator:type" v="public" />
	</node>
	<node id="-4137" lat="61.12816" lon="10.46471">
		<tag k="ADDRESS" v="Ivar Kleivens Veg 2, 2618 LILLEHAMMER" />
		<tag k="amenity" v="kindergarten" />
		<tag k="capacity" v="60" />
		<tag k="max_age" v="5" />
		<tag k="min_age" v="1" />
		<tag k="name" v="Holmejordet barnehage" />
		<tag k="no-barnehage:nsrid" v="1017601" />
		<tag k="operator" v="Lillehammer kommune" />
		<tag k="operator:type" v="public" />
	</node>
	<node id="-4136" lat="61.10253" lon="10.50962">
		<tag k="ADDRESS" v="Blomsterbakken 78, 2611 LILLEHAMMER" />
		<tag k="amenity" v="kindergarten" />
		<tag k="capacity" v="16" />
		<tag k="contact:website" v="http://www.hestehoven-barnehage.no" />
		<tag k="max_age" v="5" />
		<tag k="min_age" v="1" />
		<tag k="name" v="Hestehoven barnehage" />
		<tag k="no-barnehage:nsrid" v="1019694" />
		<tag k="operator" v="Hestehoven barnehage Sa" />
		<tag k="operator:type" v="private" />
	</node>
	<node id="-4135" lat="61.13039" lon="10.45288">
		<tag k="ADDRESS" v="Smestadenga 23, 2619 LILLEHAMMER" />
		<tag k="amenity" v="kindergarten" />
		<tag k="capacity" v="73" />
		<tag k="max_age" v="5" />
		<tag k="min_age" v="1" />
		<tag k="name" v="Hammermo FUS barnehage" />
		<tag k="no-barnehage:nsrid" v="1021741" />
		<tag k="operator" v="Hammermo Fus barnehage AS" />
		<tag k="operator:type" v="private" />
	</node>
	<node id="-4134" lat="61.09465" lon="10.48519">
		<tag k="ADDRESS" v="Jean Heibergs Veg 27, 2614 LILLEHAMMER" />
		<tag k="amenity" v="kindergarten" />
		<tag k="capacity" v="31" />
		<tag k="max_age" v="5" />
		<tag k="min_age" v="1" />
		<tag k="name" v="Hagehaugen barnehage" />
		<tag k="no-barnehage:nsrid" v="1019774" />
		<tag k="operator" v="Hagehaugen barnehage Sa" />
		<tag k="operator:type" v="private" />
	</node>
	<node id="-4133" lat="61.13993" lon="10.46243">
		<tag k="ADDRESS" v="Kringsjåvegen, 2618 LILLEHAMMER" />
		<tag k="amenity" v="kindergarten" />
		<tag k="capacity" v="74" />
		<tag k="max_age" v="5" />
		<tag k="min_age" v="1" />
		<tag k="name" v="Fagstadlia FUS barnehage avd. Kringsjåvegen" />
		<tag k="no-barnehage:nsrid" v="1021239" />
		<tag k="operator" v="Fagstadlia Fus barnehage AS" />
		<tag k="operator:type" v="private" />
	</node>
	<node id="-4132" lat="61.13398" lon="10.45187">
		<tag k="ADDRESS" v="Sigrid Undsets Veg 66, 2624 LILLEHAMMER" />
		<tag k="amenity" v="kindergarten" />
		<tag k="capacity" v="36" />
		<tag k="max_age" v="5" />
		<tag k="min_age" v="1" />
		<tag k="name" v="Fagstadlia FUS barnehage avd. Sigrid Undsets Veg" />
		<tag k="no-barnehage:nsrid" v="1019750" />
		<tag k="operator" v="Fagstadlia Fus barnehage AS" />
		<tag k="operator:type" v="private" />
	</node>
	<node id="-4131" lat="61.09509" lon="10.48209">
		<tag k="ADDRESS" v="Jean Heibergs Veg 1, 2614 LILLEHAMMER" />
		<tag k="amenity" v="kindergarten" />
		<tag k="capacity" v="89" />
		<tag k="max_age" v="5" />
		<tag k="min_age" v="1" />
		<tag k="name" v="Engesvea FUS barnehage" />
		<tag k="no-barnehage:nsrid" v="1021602" />
		<tag k="operator" v="Engesvea Fus barnehage AS" />
		<tag k="operator:type" v="private" />
	</node>
	<node id="-4130" lat="61.19086" lon="10.30833">
		<tag k="ADDRESS" v="Buvollvegen 54, 2625 FÅBERG" />
		<tag k="amenity" v="kindergarten" />
		<tag k="capacity" v="15" />
		<tag k="max_age" v="5" />
		<tag k="min_age" v="1" />
		<tag k="name" v="Buvollen barnehage" />
		<tag k="no-barnehage:nsrid" v="1012784" />
		<tag k="operator" v="Lillehammer kommune" />
		<tag k="operator:type" v="public" />
	</node>
	<node id="-4129" lat="61.13596" lon="10.50312">
		<tag k="ADDRESS" v="Sjøsetervegen 27, 2618 LILLEHAMMER" />
		<tag k="amenity" v="kindergarten" />
		<tag k="capacity" v="27" />
		<tag k="contact:website" v="http://bbfb.no" />
		<tag k="max_age" v="5" />
		<tag k="min_age" v="1" />
		<tag k="name" v="Birkebeineren friluftsbarnehage" />
		<tag k="no-barnehage:nsrid" v="1020514" />
		<tag k="operator" v="Birkebeineren Friluftsbarnehage Sa" />
		<tag k="operator:type" v="private" />
	</node>
	<node id="-4128" lat="61.11195" lon="10.47775">
		<tag k="ADDRESS" v="Maihaugvegen 1, 2609 LILLEHAMMER" />
		<tag k="amenity" v="kindergarten" />
		<tag k="capacity" v="16" />
		<tag k="contact:website" v="http://www.aladden.info" />
		<tag k="max_age" v="5" />
		<tag k="min_age" v="1" />
		<tag k="name" v="Askeladden barnehage" />
		<tag k="no-barnehage:nsrid" v="1019638" />
		<tag k="operator" v="Askeladden barnehage Sa" />
		<tag k="operator:type" v="private" />
	</node>
</osm>
