<?xml version="1.0" encoding="UTF-8"?>
<osm generator="osmapis" version="0.6">
	<node id="-2184" lat="60.9291" lon="9.34128">
		<tag k="amenity" v="kindergarten" />
		<tag k="capacity" v="78" />
		<tag k="contact:email" v="nak@nord-aurdal.kommune.no" />
		<tag k="max_age" v="5" />
		<tag k="min_age" v="1" />
		<tag k="name" v="Vestringsbygda barnehage" />
		<tag k="no-barnehage:nsrid" v="1016878" />
		<tag k="operator" v="Nord-Aurdal kommune" />
		<tag k="operator:type" v="public" />
		<tag k="start_date" v="1991-01-01" />
	</node>
	<node id="-2183" lat="61.0156" lon="9.06799">
		<tag k="amenity" v="kindergarten" />
		<tag k="capacity" v="36" />
		<tag k="contact:email" v="nak@nord-aurdal.kommune.no" />
		<tag k="contact:phone" v="61 35 90 00" />
		<tag k="max_age" v="5" />
		<tag k="min_age" v="1" />
		<tag k="name" v="Ulnes barnehage" />
		<tag k="no-barnehage:nsrid" v="1013746" />
		<tag k="operator" v="Nord-Aurdal kommune" />
		<tag k="operator:type" v="public" />
		<tag k="start_date" v="1989-01-01" />
	</node>
	<node id="-2182" lat="60.9858" lon="9.23236">
		<tag k="amenity" v="kindergarten" />
		<tag k="capacity" v="38" />
		<tag k="contact:email" v="nak@nord-aurdal.kommune.no" />
		<tag k="max_age" v="5" />
		<tag k="min_age" v="1" />
		<tag k="name" v="SkrautvÃ¥l barnehage" />
		<tag k="no-barnehage:nsrid" v="1017979" />
		<tag k="operator" v="Nord-Aurdal kommune" />
		<tag k="operator:type" v="public" />
		<tag k="start_date" v="1988-04-01" />
	</node>
	<node id="-2181" lat="60.98584" lon="9.23236">
		<tag k="amenity" v="kindergarten" />
		<tag k="capacity" v="26" />
		<tag k="contact:email" v="ranheimnaturbarnehage@gmail.com" />
		<tag k="contact:phone" v="451 99 248" />
		<tag k="max_age" v="5" />
		<tag k="min_age" v="1" />
		<tag k="name" v="Ranheim Naturbarnehage Sa" />
		<tag k="no-barnehage:nsrid" v="1022081" />
		<tag k="operator" v="Ranheim Naturbarnehage Sa" />
		<tag k="operator:type" v="private" />
		<tag k="start_date" v="2010-07-02" />
	</node>
	<node id="-2180" lat="60.9701" lon="9.29488">
		<tag k="amenity" v="kindergarten" />
		<tag k="capacity" v="30" />
		<tag k="contact:email" v="nak@nord-aurdal.kommune.no" />
		<tag k="contact:phone" v="61359000" />
		<tag k="max_age" v="5" />
		<tag k="min_age" v="1" />
		<tag k="name" v="Leira barnehage" />
		<tag k="no-barnehage:nsrid" v="1017978" />
		<tag k="operator" v="Nord-Aurdal kommune" />
		<tag k="operator:type" v="public" />
		<tag k="start_date" v="1988-04-01" />
	</node>
	<node id="-2179" lat="60.9873" lon="9.24692">
		<tag k="amenity" v="kindergarten" />
		<tag k="capacity" v="62" />
		<tag k="contact:email" v="nak@nord-aurdal.kommune.no" />
		<tag k="contact:phone" v="61366380" />
		<tag k="max_age" v="5" />
		<tag k="min_age" v="1" />
		<tag k="name" v="Fagernes barnehage" />
		<tag k="no-barnehage:nsrid" v="1015208" />
		<tag k="operator" v="Nord-Aurdal kommune" />
		<tag k="operator:type" v="public" />
		<tag k="start_date" v="1988-04-01" />
	</node>
</osm>
