<?xml version="1.0" encoding="UTF-8"?>
<osm version="0.6" generator="osmapis">
	<node lat="64.11346" lon="11.38556" id="-4812">
		<tag k="ADDRESS" v="Fjellvegen 4, 7730 BEITSTAD" />
		<tag k="amenity" v="kindergarten" />
		<tag k="capacity" v="65" />
		<tag k="contact:website" v="http://www.beitstad.barnehage.no" />
		<tag k="max_age" v="5" />
		<tag k="min_age" v="1" />
		<tag k="name" v="Beitstad barnehage" />
		<tag k="no-barnehage:nsrid" v="989939408" />
		<tag k="operator" v="Beitstad barnehage AS" />
		<tag k="operator:type" v="private" />
	</node>
	<node lat="64.02936" lon="11.54394" id="-4813">
		<tag k="ADDRESS" v="Helgesvegen 87, 7716 STEINKJER" />
		<tag k="amenity" v="kindergarten" />
		<tag k="capacity" v="56" />
		<tag k="max_age" v="5" />
		<tag k="min_age" v="1" />
		<tag k="name" v="Byafossen barnehage" />
		<tag k="no-barnehage:nsrid" v="916469535" />
		<tag k="operator" v="Steinkjer kommune" />
		<tag k="operator:type" v="public" />
	</node>
	<node lat="64.03329" lon="11.48321" id="-4814">
		<tag k="ADDRESS" v="Kvamslia 1, 7715 STEINKJER" />
		<tag k="amenity" v="kindergarten" />
		<tag k="capacity" v="62" />
		<tag k="max_age" v="5" />
		<tag k="min_age" v="1" />
		<tag k="name" v="Egge barnehage" />
		<tag k="no-barnehage:nsrid" v="916469543" />
		<tag k="operator" v="Steinkjer kommune" />
		<tag k="operator:type" v="public" />
	</node>
	<node lat="64.10992" lon="11.57027" id="-4815">
		<tag k="ADDRESS" v="Kvamsvegen 1444, 7732 STEINKJER" />
		<tag k="amenity" v="kindergarten" />
		<tag k="capacity" v="23" />
		<tag k="max_age" v="5" />
		<tag k="min_age" v="1" />
		<tag k="name" v="Følling barnehage" />
		<tag k="no-barnehage:nsrid" v="973345028" />
		<tag k="operator" v="Følling barnehage" />
		<tag k="operator:type" v="private" />
	</node>
	<node lat="63.95752" lon="11.61396" id="-4816">
		<tag k="ADDRESS" v="Kjerkhenningvegen 146, 7711 STEINKJER" />
		<tag k="amenity" v="kindergarten" />
		<tag k="capacity" v="44" />
		<tag k="max_age" v="5" />
		<tag k="min_age" v="1" />
		<tag k="name" v="Granstubben barnehage Henning" />
		<tag k="no-barnehage:nsrid" v="889284552" />
		<tag k="operator" v="Granstubben barnehage Henning AS" />
		<tag k="operator:type" v="private" />
	</node>
	<node lat="64.09158" lon="11.45275" id="-4817">
		<tag k="ADDRESS" v="Tessemvegen 56, 7730 BEITSTAD" />
		<tag k="amenity" v="kindergarten" />
		<tag k="capacity" v="18" />
		<tag k="max_age" v="5" />
		<tag k="min_age" v="1" />
		<tag k="name" v="Jåddåren gårdsbarnehage" />
		<tag k="no-barnehage:nsrid" v="997827910" />
		<tag k="operator" v="Jåddåren gårdsbarnehage AS" />
		<tag k="operator:type" v="private" />
	</node>
	<node lat="63.97453" lon="11.44128" id="-4818">
		<tag k="ADDRESS" v="Kringlavegen 343, 7711 STEINKJER" />
		<tag k="amenity" v="kindergarten" />
		<tag k="capacity" v="38" />
		<tag k="contact:website" v="http://www.kringlabarnehage.no" />
		<tag k="max_age" v="5" />
		<tag k="min_age" v="1" />
		<tag k="name" v="Kringla friluftsbarnehage" />
		<tag k="no-barnehage:nsrid" v="994408127" />
		<tag k="operator" v="Kringla friluftsbarnehage AS" />
		<tag k="operator:type" v="private" />
	</node>
	<node lat="64.13921" lon="11.7348" id="-4819">
		<tag k="ADDRESS" v="Kvamskjerkvegen 5, 7732 STEINKJER" />
		<tag k="amenity" v="kindergarten" />
		<tag k="capacity" v="21" />
		<tag k="contact:website" v="http://Kvam.barnehage.no" />
		<tag k="max_age" v="5" />
		<tag k="min_age" v="1" />
		<tag k="name" v="Kvam barnehage" />
		<tag k="no-barnehage:nsrid" v="979671105" />
		<tag k="operator" v="Kvam barnehage SA" />
		<tag k="operator:type" v="private" />
	</node>
	<node lat="63.99007" lon="11.50225" id="-4820">
		<tag k="ADDRESS" v="Kvernhusvegen 7, 7713 STEINKJER" />
		<tag k="amenity" v="kindergarten" />
		<tag k="capacity" v="23" />
		<tag k="contact:website" v="http://www.lerkehaug.barnehage.no" />
		<tag k="max_age" v="5" />
		<tag k="min_age" v="1" />
		<tag k="name" v="Lerkehaug barnehage" />
		<tag k="no-barnehage:nsrid" v="973459813" />
		<tag k="operator" v="Lerkehaug barnehage" />
		<tag k="operator:type" v="private" />
	</node>
	<node lat="64.01738" lon="11.51395" id="-4822">
		<tag k="ADDRESS" v="Grensevegen 2, 7716 STEINKJER" />
		<tag k="amenity" v="kindergarten" />
		<tag k="capacity" v="54" />
		<tag k="max_age" v="5" />
		<tag k="min_age" v="1" />
		<tag k="name" v="Læringsverkstedet Guldbergaunet barnehage" />
		<tag k="no-barnehage:nsrid" v="992585277" />
		<tag k="operator" v="Læringsverkstedet Guldbergaunet barnehage AS" />
		<tag k="operator:type" v="private" />
	</node>
	<node lat="63.99852" lon="11.48932" id="-4823">
		<tag k="ADDRESS" v="Løshalla 15, 7712 STEINKJER" />
		<tag k="amenity" v="kindergarten" />
		<tag k="capacity" v="73" />
		<tag k="max_age" v="5" />
		<tag k="min_age" v="1" />
		<tag k="name" v="Lø barnehage" />
		<tag k="no-barnehage:nsrid" v="975295389" />
		<tag k="operator" v="Steinkjer kommune" />
		<tag k="operator:type" v="public" />
	</node>
	<node lat="64.07011" lon="11.21637" id="-4824">
		<tag k="ADDRESS" v="Kjerkbakken 1, 7790 MALM" />
		<tag k="amenity" v="kindergarten" />
		<tag k="capacity" v="67" />
		<tag k="max_age" v="5" />
		<tag k="min_age" v="1" />
		<tag k="name" v="Malmen barnehage avd. Malm" />
		<tag k="no-barnehage:nsrid" v="975312003" />
		<tag k="operator" v="Steinkjer kommune" />
		<tag k="operator:type" v="public" />
	</node>
	<node lat="63.98913" lon="11.10915" id="-4825">
		<tag k="ADDRESS" v="Rønningvegen 20, 7796 FOLLAFOSS" />
		<tag k="amenity" v="kindergarten" />
		<tag k="capacity" v="19" />
		<tag k="contact:website" v="http://steinkjer.kommune.no" />
		<tag k="max_age" v="5" />
		<tag k="min_age" v="1" />
		<tag k="name" v="Malmen barnehage avd. Follafoss" />
		<tag k="no-barnehage:nsrid" v="927010100" />
		<tag k="operator" v="Steinkjer kommune" />
		<tag k="operator:type" v="public" />
	</node>
	<node lat="64.09254" lon="11.71499" id="-4826">
		<tag k="ADDRESS" v="Stodvegen 1073, 7717 STEINKJER" />
		<tag k="amenity" v="kindergarten" />
		<tag k="capacity" v="51" />
		<tag k="contact:website" v="http://marisletta.barnehage.no" />
		<tag k="max_age" v="5" />
		<tag k="min_age" v="1" />
		<tag k="name" v="Marisletta barnehage" />
		<tag k="no-barnehage:nsrid" v="973470159" />
		<tag k="operator" v="Marisletta barnehage SA" />
		<tag k="operator:type" v="private" />
	</node>
	<node lat="63.93631" lon="11.43033" id="-4827">
		<tag k="ADDRESS" v="Kringlavegen 759, 7710 SPARBU" />
		<tag k="amenity" v="kindergarten" />
		<tag k="capacity" v="71" />
		<tag k="max_age" v="5" />
		<tag k="min_age" v="1" />
		<tag k="name" v="Mære barnehage" />
		<tag k="no-barnehage:nsrid" v="875323962" />
		<tag k="operator" v="Steinkjer kommune" />
		<tag k="operator:type" v="public" />
	</node>
	<node lat="64.00341" lon="11.5049" id="-4829">
		<tag k="ADDRESS" v="Teglverksvegen 1, 7713 STEINKJER" />
		<tag k="amenity" v="kindergarten" />
		<tag k="capacity" v="61" />
		<tag k="contact:website" v="http://www.poppellunden.no" />
		<tag k="max_age" v="5" />
		<tag k="min_age" v="1" />
		<tag k="name" v="Poppellunden barnehage Stiftelse" />
		<tag k="no-barnehage:nsrid" v="976796519" />
		<tag k="operator" v="Poppellunden barnehage Stiftelse" />
		<tag k="operator:type" v="private" />
	</node>
	<node lat="64.02718" lon="11.6677" id="-4831">
		<tag k="ADDRESS" v="Ogndalsvegen 983, 7718 STEINKJER" />
		<tag k="amenity" v="kindergarten" />
		<tag k="capacity" v="31" />
		<tag k="max_age" v="5" />
		<tag k="min_age" v="1" />
		<tag k="name" v="Røysing barnehage" />
		<tag k="no-barnehage:nsrid" v="973459872" />
		<tag k="operator" v="Røysing barnehage SA" />
		<tag k="operator:type" v="private" />
	</node>
	<node lat="64.01252" lon="11.51194" id="-4832">
		<tag k="ADDRESS" v="Øvre Ringveg 9, 7713 STEINKJER" />
		<tag k="amenity" v="kindergarten" />
		<tag k="capacity" v="39" />
		<tag k="max_age" v="5" />
		<tag k="min_age" v="1" />
		<tag k="name" v="Skjefte barnehage" />
		<tag k="no-barnehage:nsrid" v="988109584" />
		<tag k="operator" v="Skjefte barnehage AS" />
		<tag k="operator:type" v="private" />
	</node>
	<node lat="64.01442" lon="11.47801" id="-4833">
		<tag k="ADDRESS" v="Seilmakergata 3, 7725 STEINKJER" />
		<tag k="amenity" v="kindergarten" />
		<tag k="capacity" v="41" />
		<tag k="max_age" v="5" />
		<tag k="min_age" v="1" />
		<tag k="name" v="Steinkjer montessoribarnehage" />
		<tag k="no-barnehage:nsrid" v="988893293" />
		<tag k="operator" v="Steinkjer montessoribarnehage SA" />
		<tag k="operator:type" v="private" />
	</node>
	<node lat="64.01102" lon="11.503" id="-4834">
		<tag k="ADDRESS" v="Steinkjersannan 6, 7713 STEINKJER" />
		<tag k="amenity" v="kindergarten" />
		<tag k="capacity" v="18" />
		<tag k="max_age" v="5" />
		<tag k="min_age" v="1" />
		<tag k="name" v="Steinkjer studentbarnehage" />
		<tag k="no-barnehage:nsrid" v="973600826" />
		<tag k="operator" v="Steinkjer studentbarnehage AS" />
		<tag k="operator:type" v="private" />
	</node>
	<node lat="64.01102" lon="11.503" id="-4835">
		<tag k="ADDRESS" v="Steinkjersannan 6, 7713 STEINKJER" />
		<tag k="amenity" v="kindergarten" />
		<tag k="capacity" v="83" />
		<tag k="max_age" v="5" />
		<tag k="min_age" v="1" />
		<tag k="name" v="Steinkjersannan barnehage" />
		<tag k="no-barnehage:nsrid" v="989481584" />
		<tag k="operator" v="Steinkjer kommune" />
		<tag k="operator:type" v="public" />
	</node>
	<node lat="64.02155" lon="11.45732" id="-4836">
		<tag k="ADDRESS" v="Karolinavegen 11, 7725 STEINKJER" />
		<tag k="amenity" v="kindergarten" />
		<tag k="capacity" v="58" />
		<tag k="max_age" v="5" />
		<tag k="min_age" v="1" />
		<tag k="name" v="Søndre Egge barnehage" />
		<tag k="no-barnehage:nsrid" v="975311740" />
		<tag k="operator" v="Steinkjer kommune" />
		<tag k="operator:type" v="public" />
	</node>
	<node lat="64.03823" lon="11.37583" id="-4837">
		<tag k="ADDRESS" v="Bardalsvegen 21, 7724 STEINKJER" />
		<tag k="amenity" v="kindergarten" />
		<tag k="capacity" v="24" />
		<tag k="contact:website" v="http://sor-beitstad.barnehage.no" />
		<tag k="max_age" v="5" />
		<tag k="min_age" v="1" />
		<tag k="name" v="Sør-beitstad barnehage" />
		<tag k="no-barnehage:nsrid" v="974753375" />
		<tag k="operator" v="Sør-Beitstad barnehage SA" />
		<tag k="operator:type" v="private" />
	</node>
	<node lat="64.03374" lon="11.48107" id="-4838">
		<tag k="ADDRESS" v="Markavegen 10, 7715 STEINKJER" />
		<tag k="amenity" v="kindergarten" />
		<tag k="capacity" v="28" />
		<tag k="contact:website" v="http://www.vikingenbarnehage.no" />
		<tag k="max_age" v="5" />
		<tag k="min_age" v="1" />
		<tag k="name" v="Vikingen barnehage" />
		<tag k="no-barnehage:nsrid" v="987424680" />
		<tag k="operator" v="Vikingen barnehage AS" />
		<tag k="operator:type" v="private" />
	</node>
	<node lat="64.00217" lon="11.87313" id="-4839">
		<tag k="ADDRESS" v="Nordvegen 885, 7718 STEINKJER" />
		<tag k="amenity" v="kindergarten" />
		<tag k="capacity" v="14" />
		<tag k="contact:website" v="http://www.valenbhg.no" />
		<tag k="max_age" v="5" />
		<tag k="min_age" v="1" />
		<tag k="name" v="Vålen barnehage" />
		<tag k="no-barnehage:nsrid" v="973346121" />
		<tag k="operator" v="Vålen barnehage SA" />
		<tag k="operator:type" v="private" />
	</node>
</osm>
