<?xml version="1.0" encoding="UTF-8"?>
<osm generator="osmapis" version="0.6">
	<node id="-5499" lat="68.41266" lon="17.43929">
		<tag k="ADDRESS" v="Beisfjordveien 39, 8514 NARVIK" />
		<tag k="amenity" v="kindergarten" />
		<tag k="capacity" v="40" />
		<tag k="contact:website" v="http://www.orarampen.no" />
		<tag k="max_age" v="5" />
		<tag k="min_age" v="1" />
		<tag k="name" v="Ørarampen barnehage" />
		<tag k="no-barnehage:nsrid" v="1022172" />
		<tag k="operator" v="Ørarampen barnehage AS" />
		<tag k="operator:type" v="private" />
	</node>
	<node id="-5497" lat="68.32862" lon="16.79992">
		<tag k="ADDRESS" v="Strosseveien 14, 8540 BALLANGEN" />
		<tag k="amenity" v="kindergarten" />
		<tag k="capacity" v="25" />
		<tag k="max_age" v="5" />
		<tag k="min_age" v="1" />
		<tag k="name" v="Stollen barnehage" />
		<tag k="no-barnehage:nsrid" v="1013163" />
		<tag k="operator" v="Narvik kommune" />
		<tag k="operator:type" v="public" />
	</node>
	<node id="-5496" lat="68.24542" lon="17.41188">
		<tag k="ADDRESS" v="Skjomenveien - Elvegård 210, 8523 SKJOMEN" />
		<tag k="amenity" v="kindergarten" />
		<tag k="capacity" v="7" />
		<tag k="max_age" v="5" />
		<tag k="min_age" v="1" />
		<tag k="name" v="Skjomen barnehage" />
		<tag k="no-barnehage:nsrid" v="1015941" />
		<tag k="operator" v="Narvik kommune" />
		<tag k="operator:type" v="public" />
	</node>
	<node id="-5495" lat="68.43595" lon="17.44296">
		<tag k="ADDRESS" v="Skistua 18, 8515 NARVIK" />
		<tag k="amenity" v="kindergarten" />
		<tag k="capacity" v="71" />
		<tag k="max_age" v="5" />
		<tag k="min_age" v="1" />
		<tag k="name" v="Skistua barnehage" />
		<tag k="no-barnehage:nsrid" v="1014684" />
		<tag k="operator" v="Narvik kommune" />
		<tag k="operator:type" v="public" />
	</node>
	<node id="-5494" lat="68.43764" lon="17.43314">
		<tag k="ADDRESS" v="Tore Hunds Gate 30, 8514 NARVIK" />
		<tag k="amenity" v="kindergarten" />
		<tag k="capacity" v="51" />
		<tag k="max_age" v="5" />
		<tag k="min_age" v="1" />
		<tag k="name" v="Skarpen barnehage" />
		<tag k="no-barnehage:nsrid" v="1025414" />
		<tag k="operator" v="Narvik kommune" />
		<tag k="operator:type" v="public" />
	</node>
	<node id="-5493" lat="68.44293" lon="17.43518">
		<tag k="ADDRESS" v="Frydenlundgata 73, 8517 NARVIK" />
		<tag k="amenity" v="kindergarten" />
		<tag k="capacity" v="52" />
		<tag k="max_age" v="5" />
		<tag k="min_age" v="1" />
		<tag k="name" v="Rallarn barnehage" />
		<tag k="no-barnehage:nsrid" v="1014992" />
		<tag k="operator" v="Narvik kommune" />
		<tag k="operator:type" v="public" />
	</node>
	<node id="-5492" lat="68.09718" lon="16.37293">
		<tag k="ADDRESS" v="Akermoveien 15, 8590 KJØPSVIK" />
		<tag k="amenity" v="kindergarten" />
		<tag k="capacity" v="24" />
		<tag k="max_age" v="5" />
		<tag k="min_age" v="1" />
		<tag k="name" v="Pæsatun barnehage" />
		<tag k="no-barnehage:nsrid" v="1013681" />
		<tag k="operator" v="Narvik kommune" />
		<tag k="operator:type" v="public" />
	</node>
	<node id="-5491" lat="68.4375" lon="17.44123">
		<tag k="ADDRESS" v="Fjellveien 12, 8515 NARVIK" />
		<tag k="amenity" v="kindergarten" />
		<tag k="capacity" v="38" />
		<tag k="max_age" v="5" />
		<tag k="min_age" v="1" />
		<tag k="name" v="Pingvinn barnehage" />
		<tag k="no-barnehage:nsrid" v="1019667" />
		<tag k="operator" v="Pingvinn barnehage Sa" />
		<tag k="operator:type" v="private" />
	</node>
	<node id="-5490" lat="68.43357" lon="17.43719">
		<tag k="ADDRESS" v="Fjellveien 58, 8515 NARVIK" />
		<tag k="amenity" v="kindergarten" />
		<tag k="capacity" v="67" />
		<tag k="max_age" v="5" />
		<tag k="min_age" v="1" />
		<tag k="name" v="Norges Arktiske Studentsamskipnad Soria Moria barnehage" />
		<tag k="no-barnehage:nsrid" v="1016002" />
		<tag k="operator" v="Norges Arktiske Studentsamskipnad" />
		<tag k="operator:type" v="private" />
	</node>
	<node id="-5489" lat="68.44359" lon="17.41084">
		<tag k="ADDRESS" v="Måseveien 6, 8516 NARVIK" />
		<tag k="amenity" v="kindergarten" />
		<tag k="capacity" v="51" />
		<tag k="max_age" v="5" />
		<tag k="min_age" v="1" />
		<tag k="name" v="Måseveien barnehage" />
		<tag k="no-barnehage:nsrid" v="1013294" />
		<tag k="operator" v="Narvik kommune" />
		<tag k="operator:type" v="public" />
	</node>
	<node id="-5488" lat="68.43615" lon="17.40541">
		<tag k="ADDRESS" v="Malmveien 120, 8516 NARVIK" />
		<tag k="amenity" v="kindergarten" />
		<tag k="capacity" v="30" />
		<tag k="contact:website" v="http://malmklumpen.barnehage.no" />
		<tag k="max_age" v="5" />
		<tag k="min_age" v="1" />
		<tag k="name" v="Malmklumpen barnehage" />
		<tag k="no-barnehage:nsrid" v="1019745" />
		<tag k="operator" v="Malmklumpen barnehage Sa" />
		<tag k="operator:type" v="private" />
	</node>
	<node id="-5487" lat="68.44216" lon="17.39945">
		<tag k="ADDRESS" v="Ørnveien 34, 8516 NARVIK" />
		<tag k="amenity" v="kindergarten" />
		<tag k="capacity" v="38" />
		<tag k="max_age" v="5" />
		<tag k="min_age" v="1" />
		<tag k="name" v="Jaklamyra barnehage" />
		<tag k="no-barnehage:nsrid" v="1019972" />
		<tag k="operator" v="Jaklamyra barnehage Sa" />
		<tag k="operator:type" v="private" />
	</node>
	<node id="-5486" lat="68.44604" lon="17.4615">
		<tag k="ADDRESS" v="Kongleveien 42, 8515 NARVIK" />
		<tag k="amenity" v="kindergarten" />
		<tag k="capacity" v="19" />
		<tag k="max_age" v="5" />
		<tag k="min_age" v="1" />
		<tag k="name" v="Hoppensprett Narvik" />
		<tag k="no-barnehage:nsrid" v="1021566" />
		<tag k="operator" v="Hoppensprett Narvik AS" />
		<tag k="operator:type" v="private" />
	</node>
	<node id="-5485" lat="68.40603" lon="17.32604">
		<tag k="ADDRESS" v="Buveien 61, 8521 ANKENES" />
		<tag k="amenity" v="kindergarten" />
		<tag k="capacity" v="69" />
		<tag k="contact:website" v="http://www.gronnlia.barnehage.no" />
		<tag k="max_age" v="5" />
		<tag k="min_age" v="1" />
		<tag k="name" v="Grønnlia gårdsbarnehage" />
		<tag k="no-barnehage:nsrid" v="1021933" />
		<tag k="operator" v="Grønnlia Gårdsbarnehage AS" />
		<tag k="operator:type" v="private" />
	</node>
	<node id="-5484" lat="68.44191" lon="17.45608">
		<tag k="ADDRESS" v="Minkveien 1, 8515 NARVIK" />
		<tag k="amenity" v="kindergarten" />
		<tag k="capacity" v="39" />
		<tag k="contact:website" v="http://www.furutoppen-barnehage.com" />
		<tag k="max_age" v="5" />
		<tag k="min_age" v="1" />
		<tag k="name" v="Furutoppen barnehage" />
		<tag k="no-barnehage:nsrid" v="1020246" />
		<tag k="operator" v="Narvik Foreldrelagsbarnehage Sa" />
		<tag k="operator:type" v="private" />
	</node>
	<node id="-5483" lat="68.41282" lon="17.4045">
		<tag k="ADDRESS" v="Bergveien 6, 8520 ANKENES" />
		<tag k="amenity" v="kindergarten" />
		<tag k="capacity" v="37" />
		<tag k="max_age" v="5" />
		<tag k="min_age" v="1" />
		<tag k="name" v="Flåklypa barnehage" />
		<tag k="no-barnehage:nsrid" v="1012569" />
		<tag k="operator" v="Narvik kommune" />
		<tag k="operator:type" v="public" />
	</node>
	<node id="-5482" lat="68.41985" lon="17.32297">
		<tag k="ADDRESS" v="Emmenesveien 5, 8520 ANKENES" />
		<tag k="amenity" v="kindergarten" />
		<tag k="capacity" v="48" />
		<tag k="max_age" v="5" />
		<tag k="min_age" v="1" />
		<tag k="name" v="Emmenes barnehage" />
		<tag k="no-barnehage:nsrid" v="1013650" />
		<tag k="operator" v="Narvik kommune" />
		<tag k="operator:type" v="public" />
	</node>
	<node id="-5481" lat="68.36475" lon="16.877">
		<tag k="ADDRESS" v="Balsnes-Fv819 70, 8540 BALLANGEN" />
		<tag k="amenity" v="kindergarten" />
		<tag k="capacity" v="33" />
		<tag k="max_age" v="5" />
		<tag k="min_age" v="1" />
		<tag k="name" v="Bøstrand barnehage" />
		<tag k="no-barnehage:nsrid" v="1015055" />
		<tag k="operator" v="Narvik kommune" />
		<tag k="operator:type" v="public" />
	</node>
	<node id="-5479" lat="68.5568" lon="17.56319">
		<tag k="ADDRESS" v="Bjørkvangveien 2, 8530 BJERKVIK" />
		<tag k="amenity" v="kindergarten" />
		<tag k="capacity" v="33" />
		<tag k="max_age" v="5" />
		<tag k="min_age" v="1" />
		<tag k="name" v="Bjørkvang barnehage" />
		<tag k="no-barnehage:nsrid" v="1020245" />
		<tag k="operator" v="Hoppensprett Narvik AS" />
		<tag k="operator:type" v="private" />
	</node>
	<node id="-5478" lat="68.55452" lon="17.55225">
		<tag k="ADDRESS" v="Kjerranveien 34, 8530 BJERKVIK" />
		<tag k="amenity" v="kindergarten" />
		<tag k="capacity" v="19" />
		<tag k="max_age" v="5" />
		<tag k="min_age" v="1" />
		<tag k="name" v="Bjerkvik barnehage" />
		<tag k="no-barnehage:nsrid" v="1013649" />
		<tag k="operator" v="Narvik kommune" />
		<tag k="operator:type" v="public" />
	</node>
	<node id="-5477" lat="68.3725" lon="17.59562">
		<tag k="ADDRESS" v="Fjordveien 144, 8522 BEISFJORD" />
		<tag k="amenity" v="kindergarten" />
		<tag k="capacity" v="48" />
		<tag k="max_age" v="5" />
		<tag k="min_age" v="1" />
		<tag k="name" v="Beisfjord FUS barnehage" />
		<tag k="no-barnehage:nsrid" v="1026498" />
		<tag k="operator" v="Beisfjord Fus barnehage AS" />
		<tag k="operator:type" v="private" />
	</node>
	<node id="-5476" lat="68.44678" lon="17.43471">
		<tag k="ADDRESS" v="Strandveien 34, 8517 NARVIK" />
		<tag k="amenity" v="kindergarten" />
		<tag k="capacity" v="46" />
		<tag k="max_age" v="5" />
		<tag k="min_age" v="1" />
		<tag k="name" v="Barnehagen Viktoriahavn" />
		<tag k="no-barnehage:nsrid" v="1021948" />
		<tag k="operator" v="Barnehagen Victoriahavn AS" />
		<tag k="operator:type" v="private" />
	</node>
	<node id="-5475" lat="68.43776" lon="17.40481">
		<tag k="ADDRESS" v="Mellomveien 13, 8516 NARVIK" />
		<tag k="amenity" v="kindergarten" />
		<tag k="capacity" v="39" />
		<tag k="max_age" v="5" />
		<tag k="min_age" v="1" />
		<tag k="name" v="Barnebo barnehage" />
		<tag k="no-barnehage:nsrid" v="1016926" />
		<tag k="operator" v="Narvik kommune" />
		<tag k="operator:type" v="public" />
	</node>
	<node id="-5474" lat="68.4375" lon="17.44123">
		<tag k="ADDRESS" v="Fjellveien 12, 8515 NARVIK" />
		<tag k="amenity" v="kindergarten" />
		<tag k="capacity" v="25" />
		<tag k="contact:website" v="http://www.banktrollet.no" />
		<tag k="max_age" v="5" />
		<tag k="min_age" v="1" />
		<tag k="name" v="Banktrollet barnehage" />
		<tag k="no-barnehage:nsrid" v="1019822" />
		<tag k="operator" v="Banktrollet barnehage Sa" />
		<tag k="operator:type" v="private" />
	</node>
	<node id="-5473" lat="68.34057" lon="16.82445">
		<tag k="ADDRESS" v="Storhaugveien 20, 8540 BALLANGEN" />
		<tag k="amenity" v="kindergarten" />
		<tag k="capacity" v="26" />
		<tag k="max_age" v="5" />
		<tag k="min_age" v="1" />
		<tag k="name" v="Ballangen barnehage" />
		<tag k="no-barnehage:nsrid" v="1013684" />
		<tag k="operator" v="Narvik kommune" />
		<tag k="operator:type" v="public" />
	</node>
	<node id="-5472" lat="68.41913" lon="17.38508">
		<tag k="ADDRESS" v="Ankenesveien 175, 8520 ANKENES" />
		<tag k="amenity" v="kindergarten" />
		<tag k="capacity" v="26" />
		<tag k="max_age" v="5" />
		<tag k="min_age" v="1" />
		<tag k="name" v="Askeladden barnehage" />
		<tag k="no-barnehage:nsrid" v="1022027" />
		<tag k="operator" v="Askeladden barnehage Sa" />
		<tag k="operator:type" v="private" />
	</node>
</osm>
