<?xml version="1.0" encoding="UTF-8"?>
<osm generator="osmapis" version="0.6">
	<node id="-2496" lat="59.69895" lon="9.7974">
		<tag k="amenity" v="kindergarten" />
		<tag k="capacity" v="70" />
		<tag k="contact:website" v="http://trollstua-barnehage.no" />
		<tag k="max_age" v="5" />
		<tag k="min_age" v="1" />
		<tag k="name" v="Trollstua barnehage" />
		<tag k="no-barnehage:nsrid" v="1019701" />
		<tag k="operator" v="Trollstua barnehage Sa" />
		<tag k="operator:type" v="private" />
	</node>
	<node id="-2495" lat="59.76626" lon="9.92502">
		<tag k="amenity" v="kindergarten" />
		<tag k="capacity" v="91" />
		<tag k="max_age" v="5" />
		<tag k="min_age" v="1" />
		<tag k="name" v="Stiftelsen Lyngstua barnehage" />
		<tag k="no-barnehage:nsrid" v="1020002" />
		<tag k="operator" v="Stiftelsen Lyngstua barnehage" />
		<tag k="operator:type" v="private" />
	</node>
	<node id="-2494" lat="59.88888" lon="9.78837">
		<tag k="amenity" v="kindergarten" />
		<tag k="capacity" v="65" />
		<tag k="contact:website" v="http://ovre-eiker.kommune.no/skole-barnehage/barnehage/solbakken-barnehage" />
		<tag k="max_age" v="5" />
		<tag k="min_age" v="1" />
		<tag k="name" v="Solbakken barnehage" />
		<tag k="no-barnehage:nsrid" v="1016855" />
		<tag k="operator" v="Øvre Eiker kommune" />
		<tag k="operator:type" v="public" />
	</node>
	<node id="-2493" lat="59.73013" lon="9.85829">
		<tag k="amenity" v="kindergarten" />
		<tag k="capacity" v="61" />
		<tag k="max_age" v="5" />
		<tag k="min_age" v="1" />
		<tag k="name" v="Smellhaugen barnehage" />
		<tag k="no-barnehage:nsrid" v="1018018" />
		<tag k="operator" v="Øvre Eiker kommune" />
		<tag k="operator:type" v="public" />
	</node>
	<node id="-2492" lat="59.76966" lon="9.85174">
		<tag k="amenity" v="kindergarten" />
		<tag k="capacity" v="39" />
		<tag k="contact:website" v="http://laringsverkstedet.no/barnehage/rorensletta/kontakt" />
		<tag k="max_age" v="5" />
		<tag k="min_age" v="1" />
		<tag k="name" v="Rørensletta barnehage" />
		<tag k="no-barnehage:nsrid" v="1021650" />
		<tag k="operator" v="Rørensletta barnehage AS" />
		<tag k="operator:type" v="private" />
	</node>
	<node id="-2491" lat="59.77282" lon="9.87479">
		<tag k="amenity" v="kindergarten" />
		<tag k="capacity" v="96" />
		<tag k="max_age" v="5" />
		<tag k="min_age" v="1" />
		<tag k="name" v="Røren kommunale barnehage" />
		<tag k="no-barnehage:nsrid" v="1018017" />
		<tag k="operator" v="Øvre Eiker kommune" />
		<tag k="operator:type" v="public" />
	</node>
	<node id="-2490" lat="59.73443" lon="9.89081">
		<tag k="amenity" v="kindergarten" />
		<tag k="capacity" v="55" />
		<tag k="contact:website" v="http://www.rokebergbarnehage.no/" />
		<tag k="max_age" v="5" />
		<tag k="min_age" v="1" />
		<tag k="name" v="Røkeberg kultur- og naturbarnehage" />
		<tag k="no-barnehage:nsrid" v="1021170" />
		<tag k="operator" v="Røkeberg Kultur- og Naturbarnehage Sa" />
		<tag k="operator:type" v="private" />
	</node>
	<node id="-2489" lat="59.75647" lon="9.82263">
		<tag k="amenity" v="kindergarten" />
		<tag k="capacity" v="87" />
		<tag k="max_age" v="5" />
		<tag k="min_age" v="1" />
		<tag k="name" v="Ormåsen barnehage" />
		<tag k="no-barnehage:nsrid" v="1014702" />
		<tag k="operator" v="Øvre Eiker kommune" />
		<tag k="operator:type" v="public" />
	</node>
	<node id="-2488" lat="0.0" lon="0.0">
		<tag k="amenity" v="kindergarten" />
		<tag k="capacity" v="65" />
		<tag k="contact:website" v="http://www.mollefossen.no" />
		<tag k="max_age" v="5" />
		<tag k="min_age" v="1" />
		<tag k="name" v="Møllefossen barnehage" />
		<tag k="no-barnehage:nsrid" v="1021410" />
		<tag k="operator" v="Møllefossen barnehage AS" />
		<tag k="operator:type" v="private" />
	</node>
	<node id="-2487" lat="59.76381" lon="9.90714">
		<tag k="amenity" v="kindergarten" />
		<tag k="capacity" v="46" />
		<tag k="max_age" v="5" />
		<tag k="min_age" v="1" />
		<tag k="name" v="Maurtua barnehage" />
		<tag k="no-barnehage:nsrid" v="1020122" />
		<tag k="operator" v="Stiftelsen Maurtua barnehage" />
		<tag k="operator:type" v="private" />
	</node>
	<node id="-2486" lat="59.7718" lon="9.9047">
		<tag k="amenity" v="kindergarten" />
		<tag k="capacity" v="40" />
		<tag k="contact:website" v="http://laringsverkstedet.no/barnehage/sundbakken" />
		<tag k="max_age" v="5" />
		<tag k="min_age" v="1" />
		<tag k="name" v="Læringsverkstedet barnehage avd. Sundbakken" />
		<tag k="no-barnehage:nsrid" v="1019661" />
		<tag k="operator" v="Læringsverkstedet AS" />
		<tag k="operator:type" v="private" />
	</node>
	<node id="-2484" lat="0.0" lon="0.0">
		<tag k="amenity" v="kindergarten" />
		<tag k="capacity" v="93" />
		<tag k="max_age" v="5" />
		<tag k="min_age" v="1" />
		<tag k="name" v="Lerberg kommunale barnehage" />
		<tag k="no-barnehage:nsrid" v="1018016" />
		<tag k="operator" v="Øvre Eiker kommune" />
		<tag k="operator:type" v="public" />
	</node>
	<node id="-2483" lat="59.78311" lon="9.92768">
		<tag k="amenity" v="kindergarten" />
		<tag k="capacity" v="88" />
		<tag k="contact:website" v="http://harakollen.bhg.no/" />
		<tag k="max_age" v="5" />
		<tag k="min_age" v="1" />
		<tag k="name" v="Harakollen FUS aktivitetsbarnehage" />
		<tag k="no-barnehage:nsrid" v="2000072" />
		<tag k="operator" v="Harakollen Fus Aktivitetsbarnehage AS" />
		<tag k="operator:type" v="private" />
	</node>
	<node id="-2482" lat="59.78164" lon="9.89859">
		<tag k="amenity" v="kindergarten" />
		<tag k="name" v="Gullungen familiebarnehage Vera Helgheim" />
		<tag k="no-barnehage:nsrid" v="1020690" />
		<tag k="operator" v="Gullungen Familiebarnehage Vera Helgheim" />
		<tag k="operator:type" v="private" />
	</node>
	<node id="-2480" lat="59.76549" lon="9.93291">
		<tag k="amenity" v="kindergarten" />
		<tag k="capacity" v="78" />
		<tag k="contact:website" v="http://www.espira.no" />
		<tag k="max_age" v="5" />
		<tag k="min_age" v="1" />
		<tag k="name" v="Espira Knerten barnehage" />
		<tag k="no-barnehage:nsrid" v="1020486" />
		<tag k="operator" v="Espira Knerten AS" />
		<tag k="operator:type" v="private" />
	</node>
	<node id="-2479" lat="59.85892" lon="9.83915">
		<tag k="amenity" v="kindergarten" />
		<tag k="capacity" v="18" />
		<tag k="max_age" v="5" />
		<tag k="min_age" v="1" />
		<tag k="name" v="Bingen barnehage" />
		<tag k="no-barnehage:nsrid" v="1022395" />
		<tag k="operator" v="Bingen barnehage AS" />
		<tag k="operator:type" v="private" />
	</node>
	<node id="-2478" lat="59.73153" lon="9.87362">
		<tag k="amenity" v="kindergarten" />
		<tag k="capacity" v="15" />
		<tag k="max_age" v="5" />
		<tag k="min_age" v="1" />
		<tag k="name" v="Barneplaneten barnehagedrift" />
		<tag k="no-barnehage:nsrid" v="1021984" />
		<tag k="operator" v="Barneplaneten Barnehagedrift AS" />
		<tag k="operator:type" v="private" />
	</node>
</osm>
