<?xml version="1.0" encoding="UTF-8"?>
<osm generator="osmapis" version="0.6">
	<node id="-2416" lat="59.77898" lon="9.906276">
		<tag k="amenity" v="kindergarten" />
		<tag k="capacity" v="4" />
		<tag k="contact:email" v="bergan_hatland@hotmail.com" />
		<tag k="contact:phone" v="+47 93029290" />
		<tag k="max_age" v="2" />
		<tag k="min_age" v="1" />
		<tag k="name" v="Smaatroll Familiebarnehage" />
		<tag k="no-barnehage:nsrid" v="1021700" />
		<tag k="operator" v="Smaatroll Familiebarnehage" />
		<tag k="operator:type" v="private" />
		<tag k="start_date" v="2007-08-09" />
	</node>
	<node id="-2407" lat="59.73402" lon="9.923871">
		<tag k="amenity" v="kindergarten" />
		<tag k="capacity" v="4" />
		<tag k="contact:email" v="valentina@brolendelam.no" />
		<tag k="contact:phone" v="+47 32 75 79 85" />
		<tag k="max_age" v="5" />
		<tag k="min_age" v="1" />
		<tag k="name" v="Lille Lam Familiebarnehage Valentyna Winnæss" />
		<tag k="no-barnehage:nsrid" v="1021955" />
		<tag k="operator" v="Lille Lam Familiebarnehage Valentyna Winnæss" />
		<tag k="operator:type" v="private" />
		<tag k="start_date" v="2009-06-15" />
	</node>
	<node id="-2404" lat="59.77321" lon="9.882071">
		<tag k="amenity" v="kindergarten" />
		<tag k="capacity" v="4" />
		<tag k="contact:email" v="oeivn-h@online.no" />
		<tag k="contact:phone" v="+47 97572546" />
		<tag k="contact:website" v="http://goungen.com" />
		<tag k="max_age" v="2" />
		<tag k="min_age" v="1" />
		<tag k="name" v="Go Ungen Familiebarnehage" />
		<tag k="no-barnehage:nsrid" v="1021051" />
		<tag k="operator" v="Go Ungen Familiebarnehage Hege Lajorde Helgheim" />
		<tag k="operator:type" v="private" />
		<tag k="start_date" v="2006-10-10" />
	</node>
</osm>
