<?xml version="1.0" encoding="UTF-8"?>
<osm generator="osmapis" version="0.6">
	<node id="-2400" lat="59.86171" lon="9.835108">
		<tag k="amenity" v="kindergarten" />
		<tag k="capacity" v="19" />
		<tag k="contact:email" v="jeleh@online.no" />
		<tag k="max_age" v="5" />
		<tag k="min_age" v="1" />
		<tag k="name" v="Bingen barnehage AS" />
		<tag k="no-barnehage:nsrid" v="1022395" />
		<tag k="operator" v="Bingen barnehage AS" />
		<tag k="operator:type" v="private" />
		<tag k="start_date" v="1989-01-02" />
	</node>
	<node id="-2399" lat="59.73153" lon="9.873615">
		<tag k="amenity" v="kindergarten" />
		<tag k="capacity" v="17" />
		<tag k="contact:email" v="post.barneplaneten@gmail.com" />
		<tag k="contact:phone" v="+47 32 69 90 20" />
		<tag k="max_age" v="5" />
		<tag k="min_age" v="1" />
		<tag k="name" v="Barneplaneten Barnehagedrift AS" />
		<tag k="no-barnehage:nsrid" v="1021984" />
		<tag k="operator" v="Barneplaneten Barnehagedrift AS" />
		<tag k="operator:type" v="private" />
		<tag k="start_date" v="2009-09-01" />
	</node>
	<node id="-2417" lat="59.7713" lon="9.9076">
		<tag k="amenity" v="kindergarten" />
		<tag k="capacity" v="5" />
		<tag k="contact:email" v="wenche-b.rustand@ovre-eiker.kommune.no" />
		<tag k="max_age" v="5" />
		<tag k="min_age" v="1" />
		<tag k="name" v="Øvre Eiker kommune Åpen barnehage" />
		<tag k="no-barnehage:nsrid" v="1013046" />
		<tag k="operator" v="Øvre Eiker kommune" />
		<tag k="operator:type" v="public" />
		<tag k="start_date" v="2004-03-15" />
	</node>
	<node id="-2416" lat="59.70265" lon="9.806076">
		<tag k="amenity" v="kindergarten" />
		<tag k="capacity" v="70" />
		<tag k="contact:email" v="styrer@trollstua-barnehage.no" />
		<tag k="contact:phone" v="+47 32 70 16 45" />
		<tag k="contact:website" v="http://trollstua-barnehage.no" />
		<tag k="max_age" v="5" />
		<tag k="min_age" v="1" />
		<tag k="name" v="Trollstua barnehage Sa" />
		<tag k="no-barnehage:nsrid" v="1019701" />
		<tag k="operator" v="Trollstua barnehage Sa" />
		<tag k="operator:type" v="private" />
		<tag k="start_date" v="1989-01-02" />
	</node>
	<node id="-2415" lat="59.76626" lon="9.925021">
		<tag k="amenity" v="kindergarten" />
		<tag k="capacity" v="91" />
		<tag k="contact:email" v="lyngstua@online.no" />
		<tag k="contact:phone" v="+47 32 75 41 11" />
		<tag k="max_age" v="5" />
		<tag k="min_age" v="1" />
		<tag k="name" v="Stiftelsen Lyngstua barnehage" />
		<tag k="no-barnehage:nsrid" v="1020002" />
		<tag k="operator" v="Stiftelsen Lyngstua barnehage" />
		<tag k="operator:type" v="private" />
		<tag k="start_date" v="1991-07-01" />
	</node>
	<node id="-2414" lat="59.8712" lon="9.82201">
		<tag k="amenity" v="kindergarten" />
		<tag k="capacity" v="65" />
		<tag k="contact:email" v="grethe-s.knive@ovre-eiker.kommune.no" />
		<tag k="contact:phone" v="+47 32 25 10 00" />
		<tag k="max_age" v="5" />
		<tag k="min_age" v="1" />
		<tag k="name" v="Solbakken barnehage" />
		<tag k="no-barnehage:nsrid" v="1016855" />
		<tag k="operator" v="Øvre Eiker kommune" />
		<tag k="operator:type" v="public" />
		<tag k="start_date" v="1989-01-01" />
	</node>
	<node id="-2412" lat="59.7305" lon="9.85832">
		<tag k="amenity" v="kindergarten" />
		<tag k="capacity" v="77" />
		<tag k="contact:email" v="terese-n.mathiesen@ovre-eiker.kommune.no" />
		<tag k="contact:phone" v="+47 32 25 10 00" />
		<tag k="max_age" v="5" />
		<tag k="min_age" v="1" />
		<tag k="name" v="Smellhaugen barnehage" />
		<tag k="no-barnehage:nsrid" v="1018018" />
		<tag k="operator" v="Øvre Eiker kommune" />
		<tag k="operator:type" v="public" />
		<tag k="start_date" v="1989-01-01" />
	</node>
	<node id="-2411" lat="59.77" lon="9.851602">
		<tag k="amenity" v="kindergarten" />
		<tag k="capacity" v="38" />
		<tag k="contact:email" v="aapold@gmail.com" />
		<tag k="contact:phone" v="+47 47815216" />
		<tag k="max_age" v="5" />
		<tag k="min_age" v="1" />
		<tag k="name" v="Rørensletta barnehage AS" />
		<tag k="no-barnehage:nsrid" v="1021650" />
		<tag k="operator" v="Rørensletta barnehage AS" />
		<tag k="operator:type" v="private" />
		<tag k="start_date" v="2005-10-12" />
	</node>
	<node id="-2410" lat="59.7728" lon="9.8748">
		<tag k="amenity" v="kindergarten" />
		<tag k="capacity" v="90" />
		<tag k="contact:email" v="wibekke-e.hansen@ovre-eiker.kommune.no" />
		<tag k="contact:phone" v="+47 32 25 10 00" />
		<tag k="max_age" v="5" />
		<tag k="min_age" v="1" />
		<tag k="name" v="Røren Kommunale barnehage" />
		<tag k="no-barnehage:nsrid" v="1018017" />
		<tag k="operator" v="Øvre Eiker kommune" />
		<tag k="operator:type" v="public" />
		<tag k="start_date" v="1989-01-01" />
	</node>
	<node id="-2409" lat="59.7359" lon="9.897325">
		<tag k="amenity" v="kindergarten" />
		<tag k="capacity" v="57" />
		<tag k="contact:email" v="rokeberg@barnehage.no" />
		<tag k="contact:phone" v="+47 32 75 70 72" />
		<tag k="max_age" v="5" />
		<tag k="min_age" v="1" />
		<tag k="name" v="Røkeberg Kultur- og Naturbarnehage Sa" />
		<tag k="no-barnehage:nsrid" v="1021170" />
		<tag k="operator" v="Røkeberg Kultur- og Naturbarnehage Sa" />
		<tag k="operator:type" v="private" />
		<tag k="start_date" v="2004-11-23" />
	</node>
	<node id="-2408" lat="59.7718" lon="9.904696">
		<tag k="amenity" v="kindergarten" />
		<tag k="capacity" v="34" />
		<tag k="contact:email" v="sstenvik@logopedene.no" />
		<tag k="contact:phone" v="+47 32750035" />
		<tag k="max_age" v="5" />
		<tag k="min_age" v="1" />
		<tag k="name" v="Pinsemenigheten Saron Saron barnehage" />
		<tag k="no-barnehage:nsrid" v="1019661" />
		<tag k="operator" v="Pinsemenigheten Saron" />
		<tag k="operator:type" v="private" />
		<tag k="start_date" v="1988-04-01" />
	</node>
	<node id="-2407" lat="59.7553" lon="9.82336">
		<tag k="amenity" v="kindergarten" />
		<tag k="capacity" v="87" />
		<tag k="contact:email" v="sine.frodin@ovre-eiker.kommune.no" />
		<tag k="contact:phone" v="+47 32 25 10 00" />
		<tag k="max_age" v="5" />
		<tag k="min_age" v="1" />
		<tag k="name" v="Ormåsen barnehage" />
		<tag k="no-barnehage:nsrid" v="1014702" />
		<tag k="operator" v="Øvre Eiker kommune" />
		<tag k="operator:type" v="public" />
		<tag k="start_date" v="1992-01-01" />
	</node>
	<node id="-2406" lat="59.72972" lon="9.88273">
		<tag k="amenity" v="kindergarten" />
		<tag k="capacity" v="64" />
		<tag k="contact:email" v="kristine@mollefossen.no" />
		<tag k="contact:phone" v="+47 32 75 14 20" />
		<tag k="contact:website" v="http://www.mollefossen.no" />
		<tag k="max_age" v="5" />
		<tag k="min_age" v="1" />
		<tag k="name" v="Møllefossen barnehage AS" />
		<tag k="no-barnehage:nsrid" v="1021410" />
		<tag k="operator" v="Møllefossen barnehage AS" />
		<tag k="operator:type" v="private" />
		<tag k="start_date" v="2006-01-30" />
	</node>
	<node id="-2405" lat="59.76385" lon="9.907034">
		<tag k="amenity" v="kindergarten" />
		<tag k="capacity" v="47" />
		<tag k="contact:email" v="maurtua@barnehage.no" />
		<tag k="contact:phone" v="+47 32700510" />
		<tag k="max_age" v="5" />
		<tag k="min_age" v="1" />
		<tag k="name" v="Maurtua barnehage" />
		<tag k="no-barnehage:nsrid" v="1020122" />
		<tag k="operator" v="Stiftelsen Maurtua barnehage" />
		<tag k="operator:type" v="private" />
		<tag k="start_date" v="1989-01-02" />
	</node>
	<node id="-2403" lat="59.7776" lon="9.91663">
		<tag k="amenity" v="kindergarten" />
		<tag k="capacity" v="91" />
		<tag k="contact:email" v="tone.helgesen@ovre-eiker.kommune.no" />
		<tag k="contact:phone" v="+47 32 25 10 00" />
		<tag k="max_age" v="5" />
		<tag k="min_age" v="1" />
		<tag k="name" v="Lerberg Kommunale barnehage" />
		<tag k="no-barnehage:nsrid" v="1018016" />
		<tag k="operator" v="Øvre Eiker kommune" />
		<tag k="operator:type" v="public" />
		<tag k="start_date" v="1989-01-01" />
	</node>
	<node id="-2402" lat="59.76549" lon="9.932899">
		<tag k="amenity" v="kindergarten" />
		<tag k="capacity" v="81" />
		<tag k="contact:email" v="styrer@knerten.espira.no" />
		<tag k="contact:phone" v="+47 21 08 80 88" />
		<tag k="contact:website" v="http://www.espira.no" />
		<tag k="max_age" v="5" />
		<tag k="min_age" v="1" />
		<tag k="name" v="Knerten barnehage" />
		<tag k="no-barnehage:nsrid" v="1020486" />
		<tag k="operator" v="Espira Knerten AS" />
		<tag k="operator:type" v="private" />
		<tag k="start_date" v="1982-01-01" />
	</node>
</osm>
