<?xml version="1.0" encoding="UTF-8"?>
<osm generator="osmapis" version="0.6">
	<node id="-1491" lat="60.15282" lon="5.58645">
		<tag k="ADDRESS" v="Vinnesvegen 582, 5641 FUSA" />
		<tag k="amenity" v="kindergarten" />
		<tag k="capacity" v="17" />
		<tag k="contact:website" v="http://www.vinnesbarnehage.com" />
		<tag k="max_age" v="5" />
		<tag k="min_age" v="1" />
		<tag k="name" v="Vinnes barnehage" />
		<tag k="no-barnehage:nsrid" v="1020074" />
		<tag k="operator" v="Vinnes barnehage" />
		<tag k="operator:type" v="private" />
	</node>
	<node id="-1490" lat="60.20009" lon="5.44868">
		<tag k="ADDRESS" v="Industrivegen 50, 5210 OS" />
		<tag k="amenity" v="kindergarten" />
		<tag k="capacity" v="54" />
		<tag k="contact:website" v="http://www.varhaugbarnehage.no" />
		<tag k="max_age" v="5" />
		<tag k="min_age" v="1" />
		<tag k="name" v="Varhaug barnehage" />
		<tag k="no-barnehage:nsrid" v="1019709" />
		<tag k="operator" v="Varhaug barnehage Sa" />
		<tag k="operator:type" v="private" />
	</node>
	<node id="-1489" lat="60.20338" lon="5.60641">
		<tag k="ADDRESS" v="Opsalmarka, 5641 FUSA" />
		<tag k="amenity" v="kindergarten" />
		<tag k="capacity" v="25" />
		<tag k="max_age" v="5" />
		<tag k="min_age" v="1" />
		<tag k="name" v="Trollskogen barnehage" />
		<tag k="no-barnehage:nsrid" v="1017345" />
		<tag k="operator" v="Bjørnafjorden kommune" />
		<tag k="operator:type" v="public" />
	</node>
	<node id="-1488" lat="60.13732" lon="5.36599">
		<tag k="ADDRESS" v="Røtingavegen 404, 5216 LEPSØY" />
		<tag k="amenity" v="kindergarten" />
		<tag k="capacity" v="63" />
		<tag k="contact:website" v="http://www.soreoyane.no" />
		<tag k="max_age" v="5" />
		<tag k="min_age" v="1" />
		<tag k="name" v="Søre Øyane Grendalag naturbarnehage" />
		<tag k="no-barnehage:nsrid" v="1020777" />
		<tag k="operator" v="Søre Øyane Grendalag Naturbarnehage Sa" />
		<tag k="operator:type" v="private" />
	</node>
	<node id="-1487" lat="60.15913" lon="5.43688">
		<tag k="ADDRESS" v="Reset 32, 5208 OS" />
		<tag k="amenity" v="kindergarten" />
		<tag k="capacity" v="59" />
		<tag k="max_age" v="5" />
		<tag k="min_age" v="1" />
		<tag k="name" v="Søre Neset FUS barnehage" />
		<tag k="no-barnehage:nsrid" v="1021589" />
		<tag k="operator" v="Søre Neset Fus barnehage AS" />
		<tag k="operator:type" v="private" />
	</node>
	<node id="-1486" lat="0.0" lon="0.0">
		<tag k="ADDRESS" v=", 5647 BALDERSHEIM" />
		<tag k="amenity" v="kindergarten" />
		<tag k="capacity" v="12" />
		<tag k="max_age" v="5" />
		<tag k="min_age" v="1" />
		<tag k="name" v="Søre Fusa barnehage" />
		<tag k="no-barnehage:nsrid" v="1014813" />
		<tag k="operator" v="Bjørnafjorden kommune" />
		<tag k="operator:type" v="public" />
	</node>
	<node id="-1485" lat="60.15912" lon="5.66451">
		<tag k="ADDRESS" v="Strandvikvegen 560, 5643 STRANDVIK" />
		<tag k="amenity" v="kindergarten" />
		<tag k="capacity" v="25" />
		<tag k="max_age" v="5" />
		<tag k="min_age" v="1" />
		<tag k="name" v="Strandvik barnehage" />
		<tag k="no-barnehage:nsrid" v="1015938" />
		<tag k="operator" v="Bjørnafjorden kommune" />
		<tag k="operator:type" v="public" />
	</node>
	<node id="-1484" lat="60.17702" lon="5.41286">
		<tag k="ADDRESS" v="Skeismyra 49, 5217 HAGAVIK" />
		<tag k="amenity" v="kindergarten" />
		<tag k="capacity" v="129" />
		<tag k="max_age" v="5" />
		<tag k="min_age" v="1" />
		<tag k="name" v="Skorvane FUS barnehage" />
		<tag k="no-barnehage:nsrid" v="1021995" />
		<tag k="operator" v="Skorvane Fus barnehage AS" />
		<tag k="operator:type" v="private" />
	</node>
	<node id="-1483" lat="60.17328" lon="5.40638">
		<tag k="ADDRESS" v="Skeisbotnen 58, 5217 HAGAVIK" />
		<tag k="amenity" v="kindergarten" />
		<tag k="capacity" v="86" />
		<tag k="contact:website" v="http://www.piba.no" />
		<tag k="max_age" v="5" />
		<tag k="min_age" v="1" />
		<tag k="name" v="Skeisbotnen barnehage" />
		<tag k="no-barnehage:nsrid" v="1022074" />
		<tag k="operator" v="Skeisbotnen barnehage AS" />
		<tag k="operator:type" v="private" />
	</node>
	<node id="-1482" lat="60.18645" lon="5.46837">
		<tag k="ADDRESS" v="Øyro 49, 5200 OS" />
		<tag k="amenity" v="kindergarten" />
		<tag k="contact:website" v="http://kfuk-kfum.no/om-oss/nyheter/krets/os-aapen-barnehage" />
		<tag k="name" v="Osøyro Open barnehage" />
		<tag k="no-barnehage:nsrid" v="1014083" />
		<tag k="operator" v="Kfuk-Kfum Norge" />
		<tag k="operator:type" v="private" />
	</node>
	<node id="-1481" lat="60.19619" lon="5.45784">
		<tag k="ADDRESS" v="Gymnasvegen 75, 5200 OS" />
		<tag k="amenity" v="kindergarten" />
		<tag k="capacity" v="133" />
		<tag k="max_age" v="5" />
		<tag k="min_age" v="1" />
		<tag k="name" v="Os barnehage" />
		<tag k="no-barnehage:nsrid" v="1018117" />
		<tag k="operator" v="Bjørnafjorden kommune" />
		<tag k="operator:type" v="public" />
	</node>
	<node id="-1480" lat="60.23798" lon="5.451">
		<tag k="ADDRESS" v="Moldmyro 7, 5212 SØFTELAND" />
		<tag k="amenity" v="kindergarten" />
		<tag k="capacity" v="95" />
		<tag k="contact:website" v="http://www.nottelitenbarnehage.no" />
		<tag k="max_age" v="5" />
		<tag k="min_age" v="1" />
		<tag k="name" v="Nøtteliten barnehage" />
		<tag k="no-barnehage:nsrid" v="1020607" />
		<tag k="operator" v="Stiftelsen Nøtteliten barnehage" />
		<tag k="operator:type" v="private" />
	</node>
	<node id="-1479" lat="60.17631" lon="5.45337">
		<tag k="ADDRESS" v="Kuvågvegen 126, 5209 OS" />
		<tag k="amenity" v="kindergarten" />
		<tag k="capacity" v="110" />
		<tag k="contact:website" v="http://laringsverkstedet.no/barnehage/kuvagen" />
		<tag k="max_age" v="5" />
		<tag k="min_age" v="1" />
		<tag k="name" v="Læringsverkstedet barnehage avd. Kuvågen" />
		<tag k="no-barnehage:nsrid" v="1021094" />
		<tag k="operator" v="Læringsverkstedet AS" />
		<tag k="operator:type" v="private" />
	</node>
	<node id="-1478" lat="60.21317" lon="5.39149">
		<tag k="ADDRESS" v="Edne 19, 5215 LYSEKLOSTER" />
		<tag k="amenity" v="kindergarten" />
		<tag k="capacity" v="67" />
		<tag k="max_age" v="5" />
		<tag k="min_age" v="1" />
		<tag k="name" v="Lysekloster barnehage" />
		<tag k="no-barnehage:nsrid" v="1025476" />
		<tag k="operator" v="Bjørnafjorden kommune" />
		<tag k="operator:type" v="public" />
	</node>
	<node id="-1477" lat="60.24701" lon="5.74406">
		<tag k="ADDRESS" v="Brakabygda 49, 5640 EIKELANDSOSEN" />
		<tag k="amenity" v="kindergarten" />
		<tag k="capacity" v="53" />
		<tag k="max_age" v="5" />
		<tag k="min_age" v="1" />
		<tag k="name" v="Jettegryto barnehage" />
		<tag k="no-barnehage:nsrid" v="1014929" />
		<tag k="operator" v="Bjørnafjorden kommune" />
		<tag k="operator:type" v="public" />
	</node>
	<node id="-1476" lat="0.0" lon="0.0">
		<tag k="ADDRESS" v=", 5642 HOLMEFJORD" />
		<tag k="amenity" v="kindergarten" />
		<tag k="capacity" v="25" />
		<tag k="max_age" v="5" />
		<tag k="min_age" v="1" />
		<tag k="name" v="Holmefjord barnehage" />
		<tag k="no-barnehage:nsrid" v="1015540" />
		<tag k="operator" v="Bjørnafjorden kommune" />
		<tag k="operator:type" v="public" />
	</node>
	<node id="-1475" lat="60.2377" lon="5.83443">
		<tag k="ADDRESS" v="Hålandsdalsvegen 532, 5640 EIKELANDSOSEN" />
		<tag k="amenity" v="kindergarten" />
		<tag k="capacity" v="12" />
		<tag k="max_age" v="5" />
		<tag k="min_age" v="1" />
		<tag k="name" v="Holdhus barnehage" />
		<tag k="no-barnehage:nsrid" v="1015566" />
		<tag k="operator" v="Bjørnafjorden kommune" />
		<tag k="operator:type" v="public" />
	</node>
	<node id="-1474" lat="60.22503" lon="5.45374">
		<tag k="ADDRESS" v="Storestraumen 275, 5212 SØFTELAND" />
		<tag k="amenity" v="kindergarten" />
		<tag k="capacity" v="70" />
		<tag k="max_age" v="5" />
		<tag k="min_age" v="1" />
		<tag k="name" v="Hjellemarka FUS barnehage" />
		<tag k="no-barnehage:nsrid" v="1021738" />
		<tag k="operator" v="Hjellemarka Fus barnehage AS" />
		<tag k="operator:type" v="private" />
	</node>
	<node id="-1473" lat="60.22872" lon="5.53922">
		<tag k="ADDRESS" v="Hegglandsdalsvegen 539, 5211 OS" />
		<tag k="amenity" v="kindergarten" />
		<tag k="capacity" v="47" />
		<tag k="contact:website" v="http://www.hegglandsdalenbarnehage.no" />
		<tag k="max_age" v="5" />
		<tag k="min_age" v="1" />
		<tag k="name" v="Hegglandsdalen barnehage" />
		<tag k="no-barnehage:nsrid" v="1019798" />
		<tag k="operator" v="Hegglandsdalen Barnehagelag Sa" />
		<tag k="operator:type" v="private" />
	</node>
	<node id="-1472" lat="60.19612" lon="5.45944">
		<tag k="ADDRESS" v="Gymnasvegen 46, 5200 OS" />
		<tag k="amenity" v="kindergarten" />
		<tag k="capacity" v="34" />
		<tag k="contact:website" v="http://www.flaatennaturbarnehage.no" />
		<tag k="max_age" v="5" />
		<tag k="min_age" v="1" />
		<tag k="name" v="Flåten naturbarnehage" />
		<tag k="no-barnehage:nsrid" v="1022167" />
		<tag k="operator" v="Flåten Naturbarnehage AS" />
		<tag k="operator:type" v="private" />
	</node>
	<node id="-1471" lat="60.20177" lon="5.48975">
		<tag k="ADDRESS" v="Hegglandsdalsvegen 120, 5211 OS" />
		<tag k="amenity" v="kindergarten" />
		<tag k="capacity" v="90" />
		<tag k="contact:website" v="http://eventus.barnehage.no/" />
		<tag k="max_age" v="5" />
		<tag k="min_age" v="1" />
		<tag k="name" v="Eventus Borgafjell barnehage" />
		<tag k="no-barnehage:nsrid" v="1021953" />
		<tag k="operator" v="Eventus Borgafjell barnehage AS" />
		<tag k="operator:type" v="private" />
	</node>
	<node id="-1470" lat="60.19496" lon="5.44665">
		<tag k="ADDRESS" v="Industrivegen 111, 5210 OS" />
		<tag k="amenity" v="kindergarten" />
		<tag k="capacity" v="105" />
		<tag k="contact:website" v="http://ulvenvatnet.espira.no" />
		<tag k="max_age" v="5" />
		<tag k="min_age" v="1" />
		<tag k="name" v="Espira Ulvenvatnet barnehage" />
		<tag k="no-barnehage:nsrid" v="1021939" />
		<tag k="operator" v="Espira Barnehager AS" />
		<tag k="operator:type" v="private" />
	</node>
	<node id="-1469" lat="60.19609" lon="5.44688">
		<tag k="ADDRESS" v="Industrivegen 99, 5210 OS" />
		<tag k="amenity" v="kindergarten" />
		<tag k="capacity" v="151" />
		<tag k="contact:website" v="http://www.espira.no" />
		<tag k="max_age" v="5" />
		<tag k="min_age" v="1" />
		<tag k="name" v="Espira Kuventræ barnehage" />
		<tag k="no-barnehage:nsrid" v="1021443" />
		<tag k="operator" v="Espira Kuventræ AS" />
		<tag k="operator:type" v="private" />
	</node>
	<node id="-1468" lat="60.20344" lon="5.46116">
		<tag k="ADDRESS" v="Banktjørnhaugen 2, 5210 OS" />
		<tag k="amenity" v="kindergarten" />
		<tag k="capacity" v="54" />
		<tag k="max_age" v="5" />
		<tag k="min_age" v="1" />
		<tag k="name" v="Banktjørhaugen barnehage" />
		<tag k="no-barnehage:nsrid" v="1020688" />
		<tag k="operator" v="Banktjørnhaugen barnehage Sa" />
		<tag k="operator:type" v="private" />
	</node>
</osm>
