<?xml version="1.0" encoding="UTF-8"?>
<osm generator="osmapis" version="0.6">
	<node id="-5053" lat="62.9909" lon="9.74681">
		<tag k="amenity" v="kindergarten" />
		<tag k="capacity" v="30" />
		<tag k="contact:email" v="elin-forfod.steigedal@meldal.kommune.no" />
		<tag k="max_age" v="5" />
		<tag k="min_age" v="1" />
		<tag k="name" v="Å barnehage" />
		<tag k="no-barnehage:nsrid" v="1018240" />
		<tag k="operator" v="Meldal kommune" />
		<tag k="operator:type" v="public" />
		<tag k="start_date" v="1989-01-01" />
	</node>
	<node id="-5052" lat="63.096" lon="9.59706">
		<tag k="amenity" v="kindergarten" />
		<tag k="capacity" v="49" />
		<tag k="contact:email" v="marit-grete.lo@meldal.kommune.no" />
		<tag k="max_age" v="5" />
		<tag k="min_age" v="1" />
		<tag k="name" v="Storås barnehage" />
		<tag k="no-barnehage:nsrid" v="1018239" />
		<tag k="operator" v="Meldal kommune" />
		<tag k="operator:type" v="public" />
		<tag k="start_date" v="1989-01-01" />
	</node>
	<node id="-5051" lat="63.1252" lon="9.69374">
		<tag k="amenity" v="kindergarten" />
		<tag k="capacity" v="67" />
		<tag k="contact:email" v="terje.pedersen@meldal.kommune.no" />
		<tag k="contact:phone" v="72494672" />
		<tag k="max_age" v="5" />
		<tag k="min_age" v="1" />
		<tag k="name" v="Løkken barnehage" />
		<tag k="no-barnehage:nsrid" v="1016738" />
		<tag k="operator" v="Meldal kommune" />
		<tag k="operator:type" v="public" />
		<tag k="start_date" v="1989-01-02" />
	</node>
	<node id="-5050" lat="63.0483" lon="9.71194">
		<tag k="amenity" v="kindergarten" />
		<tag k="capacity" v="47" />
		<tag k="contact:email" v="elin-forfod.steigedal@meldal.kommune.no" />
		<tag k="contact:phone" v="72494740" />
		<tag k="max_age" v="5" />
		<tag k="min_age" v="1" />
		<tag k="name" v="Grefstad barnehage" />
		<tag k="no-barnehage:nsrid" v="1016118" />
		<tag k="operator" v="Meldal kommune" />
		<tag k="operator:type" v="public" />
		<tag k="start_date" v="1989-01-01" />
	</node>
</osm>
