<?xml version="1.0" encoding="UTF-8"?>
<osm generator="osmapis" version="0.6">
	<node id="-5432" lat="68.54829" lon="17.53074">
		<tag k="amenity" v="kindergarten" />
		<tag k="capacity" v="9" />
		<tag k="contact:email" v="trollefam@gmail.com" />
		<tag k="max_age" v="5" />
		<tag k="min_age" v="1" />
		<tag k="name" v="Trollhaugen Familiebarnehage AS" />
		<tag k="no-barnehage:nsrid" v="1020172" />
		<tag k="operator" v="Trollhaugen Familiebarnehage AS" />
		<tag k="operator:type" v="private" />
		<tag k="start_date" v="2003-01-01" />
	</node>
	<node id="-5423" lat="68.41868" lon="17.38179">
		<tag k="amenity" v="kindergarten" />
		<tag k="capacity" v="10" />
		<tag k="contact:email" v="benedp@frisurf.no" />
		<tag k="contact:phone" v="76 96 08 81" />
		<tag k="max_age" v="5" />
		<tag k="min_age" v="1" />
		<tag k="name" v="Knoll og Tott Familiebarnehage Benedikte Pedersen" />
		<tag k="no-barnehage:nsrid" v="1020628" />
		<tag k="operator" v="Knoll og Tott Familiebarnehage Benedikte Pedersen" />
		<tag k="operator:type" v="private" />
		<tag k="start_date" v="2000-03-01" />
	</node>
</osm>
