<?xml version="1.0" encoding="UTF-8"?>
<osm generator="osmapis" version="0.6">
	<node id="-5485" lat="68.41208" lon="17.44262">
		<tag k="amenity" v="kindergarten" />
		<tag k="capacity" v="41" />
		<tag k="contact:email" v="orarampen@gmail.com" />
		<tag k="contact:phone" v="+47 990 45 504" />
		<tag k="max_age" v="5" />
		<tag k="min_age" v="1" />
		<tag k="name" v="Ørarampen barnehage AS" />
		<tag k="no-barnehage:nsrid" v="1022172" />
		<tag k="operator" v="Ørarampen barnehage AS" />
		<tag k="operator:type" v="private" />
		<tag k="start_date" v="2011-01-01" />
	</node>
	<node id="-5484" lat="68.4415" lon="17.4142">
		<tag k="amenity" v="kindergarten" />
		<tag k="capacity" v="28" />
		<tag k="contact:email" v="rut.guri.langseth.nilsen@narvik.kommune.no" />
		<tag k="max_age" v="5" />
		<tag k="min_age" v="1" />
		<tag k="name" v="Villaveien barnehage" />
		<tag k="no-barnehage:nsrid" v="1012595" />
		<tag k="operator" v="Narvik kommune" />
		<tag k="operator:type" v="public" />
		<tag k="start_date" v="1989-01-01" />
	</node>
	<node id="-5482" lat="68.2454" lon="17.4119">
		<tag k="amenity" v="kindergarten" />
		<tag k="capacity" v="11" />
		<tag k="contact:email" v="kari.w.knudsen@narvik.kommune.no" />
		<tag k="contact:phone" v="+47 082512610" />
		<tag k="max_age" v="5" />
		<tag k="min_age" v="1" />
		<tag k="name" v="Skjomen barnehage" />
		<tag k="no-barnehage:nsrid" v="1015941" />
		<tag k="operator" v="Narvik kommune" />
		<tag k="operator:type" v="public" />
		<tag k="start_date" v="1989-01-01" />
	</node>
	<node id="-5481" lat="68.436" lon="17.443">
		<tag k="amenity" v="kindergarten" />
		<tag k="capacity" v="82" />
		<tag k="contact:email" v="john.arne.haugen@narvik.kommune.no" />
		<tag k="max_age" v="5" />
		<tag k="min_age" v="1" />
		<tag k="name" v="Skistua barnehage" />
		<tag k="no-barnehage:nsrid" v="1014684" />
		<tag k="operator" v="Narvik kommune" />
		<tag k="operator:type" v="public" />
		<tag k="start_date" v="1991-01-01" />
	</node>
	<node id="-5480" lat="68.4376" lon="17.4331">
		<tag k="amenity" v="kindergarten" />
		<tag k="capacity" v="54" />
		<tag k="contact:email" v="rut.guri.l.nilsen@narvik.kommune.no" />
		<tag k="max_age" v="5" />
		<tag k="min_age" v="1" />
		<tag k="name" v="Skarpen barnehage" />
		<tag k="no-barnehage:nsrid" v="1025414" />
		<tag k="operator" v="Narvik kommune" />
		<tag k="operator:type" v="public" />
		<tag k="start_date" v="1976-01-01" />
	</node>
	<node id="-5479" lat="68.4429" lon="17.4352">
		<tag k="amenity" v="kindergarten" />
		<tag k="capacity" v="54" />
		<tag k="contact:email" v="ragnhild.opdahl@narvik.kommune.no" />
		<tag k="max_age" v="5" />
		<tag k="min_age" v="1" />
		<tag k="name" v="Rallarn barnehage" />
		<tag k="no-barnehage:nsrid" v="1014992" />
		<tag k="operator" v="Narvik kommune" />
		<tag k="operator:type" v="public" />
		<tag k="start_date" v="1994-08-01" />
	</node>
	<node id="-5478" lat="68.4375" lon="17.44123">
		<tag k="amenity" v="kindergarten" />
		<tag k="capacity" v="40" />
		<tag k="contact:email" v="styrer@pingvinn.no" />
		<tag k="contact:phone" v="+47 76 92 44 90" />
		<tag k="max_age" v="5" />
		<tag k="min_age" v="1" />
		<tag k="name" v="Pingvinn barnehage" />
		<tag k="no-barnehage:nsrid" v="1019667" />
		<tag k="operator" v="Pingvinn barnehage Sa" />
		<tag k="operator:type" v="private" />
		<tag k="start_date" v="1978-08-07" />
	</node>
	<node id="-5477" lat="68.4336" lon="17.4372">
		<tag k="amenity" v="kindergarten" />
		<tag k="capacity" v="67" />
		<tag k="contact:email" v="anita.grimeland@samskipnaden.no" />
		<tag k="contact:phone" v="+47 076944153" />
		<tag k="max_age" v="5" />
		<tag k="min_age" v="1" />
		<tag k="name" v="Norges Arktiske Studentsamskipnad Soria Moria Barnehage" />
		<tag k="no-barnehage:nsrid" v="1016002" />
		<tag k="operator" v="Norges Arktiske Studentsamskipnad" />
		<tag k="operator:type" v="private" />
		<tag k="start_date" v="1992-08-01" />
	</node>
	<node id="-5476" lat="68.4435" lon="17.4109">
		<tag k="amenity" v="kindergarten" />
		<tag k="capacity" v="46" />
		<tag k="contact:email" v="jennie.nymo.dahl@narvik.kommune.no" />
		<tag k="max_age" v="5" />
		<tag k="min_age" v="1" />
		<tag k="name" v="Måseveien barnehage" />
		<tag k="no-barnehage:nsrid" v="1013294" />
		<tag k="operator" v="Narvik kommune" />
		<tag k="operator:type" v="public" />
		<tag k="start_date" v="1987-09-01" />
	</node>
	<node id="-5475" lat="68.43615" lon="17.40541">
		<tag k="amenity" v="kindergarten" />
		<tag k="capacity" v="27" />
		<tag k="contact:email" v="bente.edvardsen@online.no" />
		<tag k="contact:phone" v="+47 76 94 63 20" />
		<tag k="contact:website" v="http://malmklumpen.barnehage.no" />
		<tag k="max_age" v="5" />
		<tag k="min_age" v="1" />
		<tag k="name" v="Malmklumpen barnehage Sa" />
		<tag k="no-barnehage:nsrid" v="1019745" />
		<tag k="operator" v="Malmklumpen barnehage Sa" />
		<tag k="operator:type" v="private" />
		<tag k="start_date" v="1989-01-02" />
	</node>
	<node id="-5473" lat="68.44221" lon="17.39891">
		<tag k="amenity" v="kindergarten" />
		<tag k="capacity" v="39" />
		<tag k="contact:email" v="jakba@online.no" />
		<tag k="contact:phone" v="+47 76 96 36 50" />
		<tag k="max_age" v="5" />
		<tag k="min_age" v="1" />
		<tag k="name" v="Jaklamyra barnehage" />
		<tag k="no-barnehage:nsrid" v="1019972" />
		<tag k="operator" v="Jaklamyra barnehage Sa" />
		<tag k="operator:type" v="private" />
		<tag k="start_date" v="1991-01-01" />
	</node>
	<node id="-5472" lat="68.44604" lon="17.4615">
		<tag k="amenity" v="kindergarten" />
		<tag k="capacity" v="22" />
		<tag k="contact:email" v="nina.engdahl@outlook.com" />
		<tag k="contact:phone" v="+47 908 36 822" />
		<tag k="max_age" v="5" />
		<tag k="min_age" v="1" />
		<tag k="name" v="Hoppensprett Narvik AS" />
		<tag k="no-barnehage:nsrid" v="1021566" />
		<tag k="operator" v="Hoppensprett Narvik AS" />
		<tag k="operator:type" v="private" />
		<tag k="start_date" v="2007-03-01" />
	</node>
	<node id="-5471" lat="68.40662" lon="17.32598">
		<tag k="amenity" v="kindergarten" />
		<tag k="capacity" v="66" />
		<tag k="contact:email" v="gronnlia.gardsbarnehage@online.no" />
		<tag k="contact:phone" v="+47 41 61 24 44" />
		<tag k="contact:website" v="http://www.gronnlia.barnehage.no" />
		<tag k="max_age" v="5" />
		<tag k="min_age" v="1" />
		<tag k="name" v="Grønnlia Gårdsbarnehage AS" />
		<tag k="no-barnehage:nsrid" v="1021933" />
		<tag k="operator" v="Grønnlia Gårdsbarnehage AS" />
		<tag k="operator:type" v="private" />
		<tag k="start_date" v="2009-04-17" />
	</node>
	<node id="-5470" lat="68.44191" lon="17.45608">
		<tag k="amenity" v="kindergarten" />
		<tag k="capacity" v="40" />
		<tag k="contact:email" v="furubh@start.no" />
		<tag k="contact:phone" v="+47 76 94 04 44" />
		<tag k="contact:website" v="http://www.furutoppen-barnehage.com" />
		<tag k="max_age" v="5" />
		<tag k="min_age" v="1" />
		<tag k="name" v="Furutoppen barnehage" />
		<tag k="no-barnehage:nsrid" v="1020246" />
		<tag k="operator" v="Narvik Foreldrelagsbarnehage Sa" />
		<tag k="operator:type" v="private" />
		<tag k="start_date" v="1993-06-04" />
	</node>
	<node id="-5469" lat="68.4128" lon="17.4045">
		<tag k="amenity" v="kindergarten" />
		<tag k="capacity" v="56" />
		<tag k="contact:email" v="eli.cronblad@narvik.kommune.no" />
		<tag k="contact:phone" v="+47 76 95 61 80" />
		<tag k="max_age" v="5" />
		<tag k="min_age" v="1" />
		<tag k="name" v="Flåklypa barnehage" />
		<tag k="no-barnehage:nsrid" v="1012569" />
		<tag k="operator" v="Narvik kommune" />
		<tag k="operator:type" v="public" />
		<tag k="start_date" v="1992-08-01" />
	</node>
	<node id="-5468" lat="68.4198" lon="17.323">
		<tag k="amenity" v="kindergarten" />
		<tag k="capacity" v="57" />
		<tag k="contact:email" v="sissel.helene.nordgard@narvik.kommune.no" />
		<tag k="max_age" v="5" />
		<tag k="min_age" v="1" />
		<tag k="name" v="Emmenes barnehage" />
		<tag k="no-barnehage:nsrid" v="1013650" />
		<tag k="operator" v="Narvik kommune" />
		<tag k="operator:type" v="public" />
		<tag k="start_date" v="1989-01-01" />
	</node>
	<node id="-5467" lat="68.5568" lon="17.56319">
		<tag k="amenity" v="kindergarten" />
		<tag k="capacity" v="22" />
		<tag k="contact:email" v="stineh@hoppensprett.no" />
		<tag k="contact:phone" v="+47 76 95 25 80" />
		<tag k="max_age" v="5" />
		<tag k="min_age" v="1" />
		<tag k="name" v="Bjørkvang barnehage" />
		<tag k="no-barnehage:nsrid" v="1020245" />
		<tag k="operator" v="Hoppensprett Narvik AS" />
		<tag k="operator:type" v="private" />
		<tag k="start_date" v="1994-01-04" />
	</node>
	<node id="-5466" lat="68.5546" lon="17.5521">
		<tag k="amenity" v="kindergarten" />
		<tag k="capacity" v="19" />
		<tag k="contact:email" v="lill-tove.jansson@narvik.kommune.no" />
		<tag k="max_age" v="5" />
		<tag k="min_age" v="1" />
		<tag k="name" v="Bjerkvik barnehage" />
		<tag k="no-barnehage:nsrid" v="1013649" />
		<tag k="operator" v="Narvik kommune" />
		<tag k="operator:type" v="public" />
		<tag k="start_date" v="1989-01-01" />
	</node>
	<node id="-5465" lat="68.44682" lon="17.43386">
		<tag k="amenity" v="kindergarten" />
		<tag k="capacity" v="49" />
		<tag k="contact:email" v="barnehagen.victoriahavn@barnehage.no" />
		<tag k="max_age" v="5" />
		<tag k="min_age" v="1" />
		<tag k="name" v="Barnehagen Viktoriahavn AS" />
		<tag k="no-barnehage:nsrid" v="1021948" />
		<tag k="operator" v="Barnehagen Victoriahavn AS" />
		<tag k="operator:type" v="private" />
		<tag k="start_date" v="1989-01-01" />
	</node>
	<node id="-5464" lat="68.4378" lon="17.4048">
		<tag k="amenity" v="kindergarten" />
		<tag k="capacity" v="41" />
		<tag k="contact:email" v="kristin.synnove.olsen@narvik.kommune.no" />
		<tag k="max_age" v="5" />
		<tag k="min_age" v="1" />
		<tag k="name" v="Barnebo barnehage" />
		<tag k="no-barnehage:nsrid" v="1016926" />
		<tag k="operator" v="Narvik kommune" />
		<tag k="operator:type" v="public" />
		<tag k="start_date" v="1971-12-29" />
	</node>
	<node id="-5463" lat="68.4375" lon="17.44123">
		<tag k="amenity" v="kindergarten" />
		<tag k="capacity" v="26" />
		<tag k="contact:email" v="banktrol@online.no" />
		<tag k="contact:phone" v="+47 76 94 68 96" />
		<tag k="contact:website" v="http://www.banktrollet.no" />
		<tag k="max_age" v="5" />
		<tag k="min_age" v="1" />
		<tag k="name" v="Banktrollet barnehage Sa" />
		<tag k="no-barnehage:nsrid" v="1019822" />
		<tag k="operator" v="Banktrollet barnehage Sa" />
		<tag k="operator:type" v="private" />
		<tag k="start_date" v="1989-01-02" />
	</node>
	<node id="-5462" lat="68.41913" lon="17.38508">
		<tag k="amenity" v="kindergarten" />
		<tag k="capacity" v="28" />
		<tag k="contact:email" v="askeladd1@barnehage.no" />
		<tag k="contact:phone" v="+47 955 29 620" />
		<tag k="max_age" v="5" />
		<tag k="min_age" v="1" />
		<tag k="name" v="Askeladden barnehage Sa" />
		<tag k="no-barnehage:nsrid" v="1022027" />
		<tag k="operator" v="Askeladden barnehage Sa" />
		<tag k="operator:type" v="private" />
		<tag k="start_date" v="2003-08-04" />
	</node>
</osm>
