<?xml version="1.0" encoding="UTF-8"?>
<osm generator="osmapis" version="0.6">
	<node id="-3376" lat="58.3296" lon="6.98284">
		<tag k="amenity" v="kindergarten" />
		<tag k="capacity" v="96" />
		<tag k="contact:phone" v="38 35 41 40" />
		<tag k="max_age" v="5" />
		<tag k="min_age" v="1" />
		<tag k="name" v="Ã…motsmarka barnehage" />
		<tag k="no-barnehage:nsrid" v="1018078" />
		<tag k="operator" v="Kvinesdal kommune" />
		<tag k="operator:type" v="public" />
		<tag k="start_date" v="1989-01-01" />
	</node>
	<node id="-3375" lat="58.316" lon="6.9571">
		<tag k="amenity" v="kindergarten" />
		<tag k="capacity" v="61" />
		<tag k="contact:phone" v="38 35 85 55" />
		<tag k="max_age" v="5" />
		<tag k="min_age" v="1" />
		<tag k="name" v="Sentrum barnehage" />
		<tag k="no-barnehage:nsrid" v="1018496" />
		<tag k="operator" v="Kvinesdal kommune" />
		<tag k="operator:type" v="public" />
		<tag k="start_date" v="2008-08-01" />
	</node>
	<node id="-3374" lat="58.3582" lon="6.97699">
		<tag k="amenity" v="kindergarten" />
		<tag k="capacity" v="36" />
		<tag k="contact:phone" v="38354521" />
		<tag k="max_age" v="5" />
		<tag k="min_age" v="1" />
		<tag k="name" v="Rafoss barnehage" />
		<tag k="no-barnehage:nsrid" v="1014925" />
		<tag k="operator" v="Kvinesdal kommune" />
		<tag k="operator:type" v="public" />
		<tag k="start_date" v="1996-01-01" />
	</node>
	<node id="-3373" lat="58.3128" lon="6.96744">
		<tag k="amenity" v="kindergarten" />
		<tag k="capacity" v="42" />
		<tag k="contact:phone" v="38350815" />
		<tag k="max_age" v="5" />
		<tag k="min_age" v="1" />
		<tag k="name" v="Knerten barnehage Kvinesdal" />
		<tag k="no-barnehage:nsrid" v="1018077" />
		<tag k="operator" v="Kvinesdal kommune" />
		<tag k="operator:type" v="public" />
		<tag k="start_date" v="1989-01-01" />
	</node>
	<node id="-3372" lat="58.5222" lon="6.93317">
		<tag k="amenity" v="kindergarten" />
		<tag k="capacity" v="33" />
		<tag k="contact:phone" v="38 35 85 70" />
		<tag k="max_age" v="5" />
		<tag k="min_age" v="1" />
		<tag k="name" v="Fjotland barnehage" />
		<tag k="no-barnehage:nsrid" v="1014924" />
		<tag k="operator" v="Kvinesdal kommune" />
		<tag k="operator:type" v="public" />
		<tag k="start_date" v="1994-08-01" />
	</node>
	<node id="-3371" lat="58.2667" lon="6.81994">
		<tag k="amenity" v="kindergarten" />
		<tag k="capacity" v="50" />
		<tag k="contact:phone" v="38 35 41 33" />
		<tag k="max_age" v="5" />
		<tag k="min_age" v="1" />
		<tag k="name" v="Feda barnehage" />
		<tag k="no-barnehage:nsrid" v="1018076" />
		<tag k="operator" v="Kvinesdal kommune" />
		<tag k="operator:type" v="public" />
		<tag k="start_date" v="1989-01-01" />
	</node>
	<node id="-3370" lat="58.3571" lon="7.0356">
		<tag k="amenity" v="kindergarten" />
		<tag k="capacity" v="34" />
		<tag k="contact:phone" v="38 35 85 65" />
		<tag k="max_age" v="5" />
		<tag k="min_age" v="1" />
		<tag k="name" v="Austerdalen barnehage" />
		<tag k="no-barnehage:nsrid" v="1014729" />
		<tag k="operator" v="Kvinesdal kommune" />
		<tag k="operator:type" v="public" />
		<tag k="start_date" v="1992-08-01" />
	</node>
</osm>
