<?xml version="1.0" encoding="UTF-8"?>
<osm version="0.6" generator="osmapis">
	<node lat="59.09692" lon="9.67128" id="-3433">
		<tag k="ADDRESS" v="Tellusvegen 1, 3942 PORSGRUNN" />
		<tag k="amenity" v="kindergarten" />
		<tag k="capacity" v="45" />
		<tag k="max_age" v="5" />
		<tag k="min_age" v="1" />
		<tag k="name" v="Brattås barnehage" />
		<tag k="no-barnehage:nsrid" v="975320723" />
		<tag k="operator" v="Porsgrunn kommune" />
		<tag k="operator:type" v="public" />
	</node>
	<node lat="59.05629" lon="9.69213" id="-3434">
		<tag k="ADDRESS" v="Chrystiesgate 11, 3950 BREVIK" />
		<tag k="amenity" v="kindergarten" />
		<tag k="capacity" v="73" />
		<tag k="max_age" v="5" />
		<tag k="min_age" v="1" />
		<tag k="name" v="Brevik oppvekstsenter avd. barnehage" />
		<tag k="no-barnehage:nsrid" v="981080386" />
		<tag k="operator" v="Porsgrunn kommune" />
		<tag k="operator:type" v="public" />
	</node>
	<node lat="59.11467" lon="9.68581" id="-3435">
		<tag k="ADDRESS" v="Tveitanvegen 52, 3946 PORSGRUNN" />
		<tag k="amenity" v="kindergarten" />
		<tag k="capacity" v="48" />
		<tag k="contact:website" v="http://www.eplehagen.barnehage.no" />
		<tag k="max_age" v="5" />
		<tag k="min_age" v="1" />
		<tag k="name" v="Eplehagen barnehagen" />
		<tag k="no-barnehage:nsrid" v="985773017" />
		<tag k="operator" v="Grenland Folkehøgskoles barnehage AS" />
		<tag k="operator:type" v="private" />
	</node>
	<node lat="59.11788" lon="9.66502" id="-3436">
		<tag k="ADDRESS" v="Bokfinkvegen 1, 3929 PORSGRUNN" />
		<tag k="amenity" v="kindergarten" />
		<tag k="capacity" v="70" />
		<tag k="max_age" v="5" />
		<tag k="min_age" v="1" />
		<tag k="name" v="Flåtten barnehage" />
		<tag k="no-barnehage:nsrid" v="991673903" />
		<tag k="operator" v="Porsgrunn kommune" />
		<tag k="operator:type" v="public" />
	</node>
	<node lat="59.12736" lon="9.64597" id="-3437">
		<tag k="ADDRESS" v="Rønningvegen 51, 3925 PORSGRUNN" />
		<tag k="amenity" v="kindergarten" />
		<tag k="capacity" v="75" />
		<tag k="max_age" v="5" />
		<tag k="min_age" v="1" />
		<tag k="name" v="Grep Rønningen barnehage" />
		<tag k="no-barnehage:nsrid" v="975307069" />
		<tag k="operator" v="Grep Rønningen barnehage AS" />
		<tag k="operator:type" v="private" />
	</node>
	<node lat="59.14342" lon="9.64162" id="-3438">
		<tag k="ADDRESS" v="Kirkegata 25, 3919 PORSGRUNN" />
		<tag k="amenity" v="kindergarten" />
		<tag k="contact:website" v="http://www.hjerterommetbarnehage.no" />
		<tag k="name" v="Hjerterommet åpen barnehage" />
		<tag k="no-barnehage:nsrid" v="973811495" />
		<tag k="operator" v="Porsgrunn Sokn" />
		<tag k="operator:type" v="private" />
	</node>
	<node lat="59.14872" lon="9.66419" id="-3439">
		<tag k="ADDRESS" v="Nyorkgata 2, 3911 PORSGRUNN" />
		<tag k="amenity" v="kindergarten" />
		<tag k="capacity" v="44" />
		<tag k="max_age" v="5" />
		<tag k="min_age" v="1" />
		<tag k="name" v="Hovenga barnehage" />
		<tag k="no-barnehage:nsrid" v="875307002" />
		<tag k="operator" v="Porsgrunn kommune" />
		<tag k="operator:type" v="public" />
	</node>
	<node lat="59.10704" lon="9.68838" id="-3440">
		<tag k="ADDRESS" v="Granatvegen 21, 3931 PORSGRUNN" />
		<tag k="amenity" v="kindergarten" />
		<tag k="capacity" v="58" />
		<tag k="contact:website" v="http://www.hovettunet.barnehage.no" />
		<tag k="max_age" v="5" />
		<tag k="min_age" v="1" />
		<tag k="name" v="Hovettunet barnehage" />
		<tag k="no-barnehage:nsrid" v="973472003" />
		<tag k="operator" v="Hovettunet barnehage" />
		<tag k="operator:type" v="private" />
	</node>
	<node lat="59.08094" lon="9.68822" id="-3441">
		<tag k="ADDRESS" v="Øvre Lundeveg 93, 3941 PORSGRUNN" />
		<tag k="amenity" v="kindergarten" />
		<tag k="capacity" v="56" />
		<tag k="max_age" v="5" />
		<tag k="min_age" v="1" />
		<tag k="name" v="Lundelia barnehage" />
		<tag k="no-barnehage:nsrid" v="975307042" />
		<tag k="operator" v="Porsgrunn kommune" />
		<tag k="operator:type" v="public" />
	</node>
	<node lat="59.10864" lon="9.67181" id="-3442">
		<tag k="ADDRESS" v="Lyngvegen 4, 3930 PORSGRUNN" />
		<tag k="amenity" v="kindergarten" />
		<tag k="capacity" v="35" />
		<tag k="max_age" v="5" />
		<tag k="min_age" v="1" />
		<tag k="name" v="Lyngvegen barnehage" />
		<tag k="no-barnehage:nsrid" v="975307050" />
		<tag k="operator" v="Porsgrunn kommune" />
		<tag k="operator:type" v="public" />
	</node>
	<node lat="59.13351" lon="9.64221" id="-3443">
		<tag k="ADDRESS" v="Maristien 11, 3933 PORSGRUNN" />
		<tag k="amenity" v="kindergarten" />
		<tag k="capacity" v="121" />
		<tag k="max_age" v="5" />
		<tag k="min_age" v="1" />
		<tag k="name" v="Maristien barnehage" />
		<tag k="no-barnehage:nsrid" v="922893640" />
		<tag k="operator" v="Porsgrunn kommune" />
		<tag k="operator:type" v="public" />
	</node>
	<node lat="59.12785" lon="9.64096" id="-3444">
		<tag k="ADDRESS" v="Farmannvegen 36, 3925 PORSGRUNN" />
		<tag k="amenity" v="kindergarten" />
		<tag k="capacity" v="55" />
		<tag k="max_age" v="5" />
		<tag k="min_age" v="1" />
		<tag k="name" v="Min barnehage, Øyekast" />
		<tag k="no-barnehage:nsrid" v="919907878" />
		<tag k="operator" v="Min Barnehage, Øyekast AS" />
		<tag k="operator:type" v="private" />
	</node>
	<node lat="59.14847" lon="9.64895" id="-3445">
		<tag k="ADDRESS" v="Plassen 8, 3919 PORSGRUNN" />
		<tag k="amenity" v="kindergarten" />
		<tag k="capacity" v="94" />
		<tag k="contact:website" v="http://akrobaten.norlandiabarnehagene.no/" />
		<tag k="max_age" v="5" />
		<tag k="min_age" v="1" />
		<tag k="name" v="Norlandia Akrobaten idrettsbarnehage" />
		<tag k="no-barnehage:nsrid" v="996140172" />
		<tag k="operator" v="Norlandia Akrobaten barnehage AS" />
		<tag k="operator:type" v="private" />
	</node>
	<node lat="59.14863" lon="9.66889" id="-3446">
		<tag k="ADDRESS" v="Borgehaven 7, 3911 PORSGRUNN" />
		<tag k="amenity" v="kindergarten" />
		<tag k="capacity" v="96" />
		<tag k="contact:website" v="http://www.borgeenga.norlandiabarnehagene.no" />
		<tag k="max_age" v="5" />
		<tag k="min_age" v="1" />
		<tag k="name" v="Norlandia Borgeenga barnehage" />
		<tag k="no-barnehage:nsrid" v="891690762" />
		<tag k="operator" v="Norlandia Borgeenga barnehage AS" />
		<tag k="operator:type" v="private" />
	</node>
	<node lat="59.11003" lon="9.70331" id="-3447">
		<tag k="ADDRESS" v="Nystrandvegen 131, 3944 PORSGRUNN" />
		<tag k="amenity" v="kindergarten" />
		<tag k="capacity" v="78" />
		<tag k="max_age" v="5" />
		<tag k="min_age" v="1" />
		<tag k="name" v="Nystrand barnehage avd. Nystrandvegen" />
		<tag k="no-barnehage:nsrid" v="992183705" />
		<tag k="operator" v="Nystrand barnehage AS" />
		<tag k="operator:type" v="private" />
	</node>
	<node lat="59.1491" lon="9.65916" id="-3448">
		<tag k="ADDRESS" v="Storgata 215, 3912 PORSGRUNN" />
		<tag k="amenity" v="kindergarten" />
		<tag k="capacity" v="27" />
		<tag k="max_age" v="5" />
		<tag k="min_age" v="1" />
		<tag k="name" v="Radehuset barnehage" />
		<tag k="no-barnehage:nsrid" v="984001207" />
		<tag k="operator" v="Porsgrunn kommune" />
		<tag k="operator:type" v="public" />
	</node>
	<node lat="59.05037" lon="9.72984" id="-3449">
		<tag k="ADDRESS" v="Postvegen 5, 3950 BREVIK" />
		<tag k="amenity" v="kindergarten" />
		<tag k="capacity" v="9" />
		<tag k="contact:website" v="http://sandoyanaturbarnehage.com" />
		<tag k="max_age" v="5" />
		<tag k="min_age" v="1" />
		<tag k="name" v="Sandøya naturbarnehage" />
		<tag k="no-barnehage:nsrid" v="897177102" />
		<tag k="operator" v="Sandøya naturbarnehage" />
		<tag k="operator:type" v="private" />
	</node>
	<node lat="59.10579" lon="9.66311" id="-3451">
		<tag k="ADDRESS" v="Hovetbakken 3, 3937 PORSGRUNN" />
		<tag k="amenity" v="kindergarten" />
		<tag k="capacity" v="77" />
		<tag k="contact:website" v="http://www.skrapeklev.no" />
		<tag k="max_age" v="5" />
		<tag k="min_age" v="1" />
		<tag k="name" v="Skrapeklev barnehage" />
		<tag k="no-barnehage:nsrid" v="974201852" />
		<tag k="operator" v="Skrapeklev barnehage SA" />
		<tag k="operator:type" v="private" />
	</node>
	<node lat="59.15332" lon="9.67679" id="-3452">
		<tag k="ADDRESS" v="Øvre Sølen 2, 3914 PORSGRUNN" />
		<tag k="amenity" v="kindergarten" />
		<tag k="capacity" v="55" />
		<tag k="contact:website" v="http://www.spireoggro.no" />
		<tag k="max_age" v="5" />
		<tag k="min_age" v="1" />
		<tag k="name" v="Spire &amp; Gro Liane barnehage" />
		<tag k="no-barnehage:nsrid" v="972286559" />
		<tag k="operator" v="Spire &amp; Gro Liane barnehage AS" />
		<tag k="operator:type" v="private" />
	</node>
	<node lat="59.09113" lon="9.68601" id="-3453">
		<tag k="ADDRESS" v="Saturnvegen 54, 3942 PORSGRUNN" />
		<tag k="amenity" v="kindergarten" />
		<tag k="capacity" v="88" />
		<tag k="contact:website" v="http://www.spireoggro.no" />
		<tag k="max_age" v="5" />
		<tag k="min_age" v="1" />
		<tag k="name" v="Spire &amp; Gro Melkeveien barnehage" />
		<tag k="no-barnehage:nsrid" v="898588262" />
		<tag k="operator" v="Spire &amp; Gro Melkeveien barnehage AS" />
		<tag k="operator:type" v="private" />
	</node>
	<node lat="59.08155" lon="9.67747" id="-3454">
		<tag k="ADDRESS" v="Rypevegen 2, 3940 PORSGRUNN" />
		<tag k="amenity" v="kindergarten" />
		<tag k="capacity" v="76" />
		<tag k="contact:website" v="http://www.spireoggro.no" />
		<tag k="max_age" v="5" />
		<tag k="min_age" v="1" />
		<tag k="name" v="Spire &amp; Gro Rypevegen barnehage" />
		<tag k="no-barnehage:nsrid" v="989595113" />
		<tag k="operator" v="Spire &amp; Gro Rypevegen barnehage AS" />
		<tag k="operator:type" v="private" />
	</node>
	<node lat="59.11453" lon="9.66574" id="-3455">
		<tag k="ADDRESS" v="Soleievegen 2, 3929 PORSGRUNN" />
		<tag k="amenity" v="kindergarten" />
		<tag k="capacity" v="54" />
		<tag k="contact:website" v="http://www.spireoggro.no" />
		<tag k="max_age" v="5" />
		<tag k="min_age" v="1" />
		<tag k="name" v="Spire &amp; Gro Skogtoppen barnehage" />
		<tag k="no-barnehage:nsrid" v="973936743" />
		<tag k="operator" v="Spire &amp; Gro Skogtoppen barnehage AS" />
		<tag k="operator:type" v="private" />
	</node>
	<node lat="59.10279" lon="9.7482" id="-3456">
		<tag k="ADDRESS" v="Langangsvegen 25, 3947 LANGANGEN" />
		<tag k="amenity" v="kindergarten" />
		<tag k="capacity" v="24" />
		<tag k="max_age" v="5" />
		<tag k="min_age" v="1" />
		<tag k="name" v="Stulen gårdsbarnehage" />
		<tag k="no-barnehage:nsrid" v="988945102" />
		<tag k="operator" v="Stulen gårdsbarnehage AS" />
		<tag k="operator:type" v="private" />
	</node>
	<node lat="59.11438" lon="9.64807" id="-3457">
		<tag k="ADDRESS" v="Fjordgata 20, 3936 PORSGRUNN" />
		<tag k="amenity" v="kindergarten" />
		<tag k="capacity" v="46" />
		<tag k="contact:website" v="http://tippen.no" />
		<tag k="max_age" v="5" />
		<tag k="min_age" v="1" />
		<tag k="name" v="Tippen barnehage" />
		<tag k="no-barnehage:nsrid" v="973458183" />
		<tag k="operator" v="Tippen barnehage SA" />
		<tag k="operator:type" v="private" />
	</node>
	<node lat="59.12723" lon="9.6971" id="-3458">
		<tag k="ADDRESS" v="Skrivervegen 13, 3946 PORSGRUNN" />
		<tag k="amenity" v="kindergarten" />
		<tag k="capacity" v="105" />
		<tag k="contact:website" v="http://www.valhallbarnehage.no" />
		<tag k="max_age" v="5" />
		<tag k="min_age" v="1" />
		<tag k="name" v="Valhall barnehage" />
		<tag k="no-barnehage:nsrid" v="983380255" />
		<tag k="operator" v="Urdarbrønnen SA" />
		<tag k="operator:type" v="private" />
	</node>
	<node lat="59.1356" lon="9.67313" id="-3459">
		<tag k="ADDRESS" v="Vipevegen 8, 3917 PORSGRUNN" />
		<tag k="amenity" v="kindergarten" />
		<tag k="capacity" v="56" />
		<tag k="max_age" v="5" />
		<tag k="min_age" v="1" />
		<tag k="name" v="Vallermyrene barnehage" />
		<tag k="no-barnehage:nsrid" v="976643836" />
		<tag k="operator" v="Porsgrunn kommune" />
		<tag k="operator:type" v="public" />
	</node>
	<node lat="59.14546" lon="9.63492" id="-3460">
		<tag k="ADDRESS" v="Grønstensgate 16, 3919 PORSGRUNN" />
		<tag k="amenity" v="kindergarten" />
		<tag k="capacity" v="80" />
		<tag k="max_age" v="5" />
		<tag k="min_age" v="1" />
		<tag k="name" v="Vestsiden barnehage" />
		<tag k="no-barnehage:nsrid" v="913034678" />
		<tag k="operator" v="Porsgrunn kommune" />
		<tag k="operator:type" v="public" />
	</node>
	<node lat="59.14035" lon="9.63639" id="-3461">
		<tag k="ADDRESS" v="Norrønagata 1, 3920 PORSGRUNN" />
		<tag k="amenity" v="kindergarten" />
		<tag k="capacity" v="33" />
		<tag k="max_age" v="5" />
		<tag k="min_age" v="1" />
		<tag k="name" v="Vest-tun barnehage" />
		<tag k="no-barnehage:nsrid" v="973469975" />
		<tag k="operator" v="Vest-Tun barnehage AS" />
		<tag k="operator:type" v="private" />
	</node>
</osm>
