<?xml version="1.0" encoding="UTF-8"?>
<osm generator="osmapis" version="0.6">
	<node id="-5023" lat="64.0375" lon="10.0522">
		<tag k="amenity" v="kindergarten" />
		<tag k="capacity" v="24" />
		<tag k="contact:email" v="majken.dupont-mouritzen@afjord.kommune.no" />
		<tag k="max_age" v="5" />
		<tag k="min_age" v="1" />
		<tag k="name" v="Stokksund barnehage" />
		<tag k="no-barnehage:nsrid" v="1013946" />
		<tag k="operator" v="Åfjord kommune" />
		<tag k="operator:type" v="public" />
		<tag k="start_date" v="1990-01-01" />
	</node>
	<node id="-5022" lat="63.9685" lon="10.2193">
		<tag k="amenity" v="kindergarten" />
		<tag k="capacity" v="35" />
		<tag k="contact:email" v="heggli@nlmbhg.no" />
		<tag k="contact:phone" v="72 53 11 95" />
		<tag k="max_age" v="5" />
		<tag k="min_age" v="1" />
		<tag k="name" v="Nlm Barnehagene AS Avd Heggli Barnehage" />
		<tag k="no-barnehage:nsrid" v="1015550" />
		<tag k="operator" v="Nlm-Barnehagene AS" />
		<tag k="operator:type" v="private" />
		<tag k="start_date" v="1982-01-01" />
	</node>
	<node id="-5021" lat="63.9677" lon="10.2176">
		<tag k="amenity" v="kindergarten" />
		<tag k="capacity" v="52" />
		<tag k="contact:email" v="AnnKristin.Dolmseth@afjord.kommune.no" />
		<tag k="contact:phone" v="72 53 16 90" />
		<tag k="max_age" v="5" />
		<tag k="min_age" v="1" />
		<tag k="name" v="Maribo barnehage" />
		<tag k="no-barnehage:nsrid" v="1025337" />
		<tag k="operator" v="Åfjord kommune" />
		<tag k="operator:type" v="public" />
		<tag k="start_date" v="1989-01-01" />
	</node>
	<node id="-5020" lat="63.9674" lon="10.2189">
		<tag k="amenity" v="kindergarten" />
		<tag k="capacity" v="22" />
		<tag k="contact:email" v="Synnove.Stegali@afjord.kommune.no" />
		<tag k="max_age" v="5" />
		<tag k="min_age" v="1" />
		<tag k="name" v="By barnehage" />
		<tag k="no-barnehage:nsrid" v="1012591" />
		<tag k="operator" v="Åfjord kommune" />
		<tag k="operator:type" v="public" />
		<tag k="start_date" v="1994-08-01" />
	</node>
</osm>
