<?xml version="1.0" encoding="UTF-8"?>
<osm generator="osmapis" version="0.6">
	<node id="-715" lat="59.94309" lon="11.12762">
		<tag k="amenity" v="kindergarten" />
		<tag k="capacity" v="138" />
		<tag k="max_age" v="5" />
		<tag k="min_age" v="1" />
		<tag k="name" v="Tienbråten barnehage" />
		<tag k="no-barnehage:nsrid" v="1025973" />
		<tag k="operator" v="Fet kommune" />
		<tag k="operator:type" v="public" />
	</node>
	<node id="-714" lat="59.93671" lon="11.1525">
		<tag k="amenity" v="kindergarten" />
		<tag k="capacity" v="72" />
		<tag k="contact:website" v="http://www.sommerly.no" />
		<tag k="max_age" v="5" />
		<tag k="min_age" v="1" />
		<tag k="name" v="Sommerly barnehage" />
		<tag k="no-barnehage:nsrid" v="1020051" />
		<tag k="operator" v="Sommerly barnehage Sa" />
		<tag k="operator:type" v="private" />
	</node>
	<node id="-713" lat="59.925" lon="11.2029">
		<tag k="amenity" v="kindergarten" />
		<tag k="capacity" v="83" />
		<tag k="max_age" v="5" />
		<tag k="min_age" v="1" />
		<tag k="name" v="Ramstadskogen barnehage" />
		<tag k="no-barnehage:nsrid" v="1017765" />
		<tag k="operator" v="Fet kommune" />
		<tag k="operator:type" v="public" />
	</node>
	<node id="-712" lat="59.8811" lon="11.2327">
		<tag k="amenity" v="kindergarten" />
		<tag k="capacity" v="18" />
		<tag k="max_age" v="5" />
		<tag k="min_age" v="1" />
		<tag k="name" v="Nygård barnehage avd. Nygårdsveien" />
		<tag k="no-barnehage:nsrid" v="1017243" />
		<tag k="operator" v="Fet kommune" />
		<tag k="operator:type" v="public" />
	</node>
	<node id="-711" lat="59.87642" lon="11.2199">
		<tag k="amenity" v="kindergarten" />
		<tag k="capacity" v="14" />
		<tag k="max_age" v="5" />
		<tag k="min_age" v="3" />
		<tag k="name" v="Nygård barnehage avd. Dalen" />
		<tag k="no-barnehage:nsrid" v="2000015" />
		<tag k="operator" v="Fet kommune" />
		<tag k="operator:type" v="public" />
	</node>
	<node id="-710" lat="59.92422" lon="11.13971">
		<tag k="amenity" v="kindergarten" />
		<tag k="capacity" v="60" />
		<tag k="contact:website" v="http://www.nerdrumshagen.no" />
		<tag k="max_age" v="5" />
		<tag k="min_age" v="1" />
		<tag k="name" v="Nerdrumshagen barnehage" />
		<tag k="no-barnehage:nsrid" v="1021616" />
		<tag k="operator" v="Nerdrumshagen barnehage AS" />
		<tag k="operator:type" v="private" />
	</node>
	<node id="-709" lat="59.9201" lon="11.1683">
		<tag k="amenity" v="kindergarten" />
		<tag k="capacity" v="143" />
		<tag k="contact:website" v="http://laringsverkstedet.no/barnehage/ostersund" />
		<tag k="max_age" v="5" />
		<tag k="min_age" v="1" />
		<tag k="name" v="Læringsverkstedet barnehage avd. idrettsbarnehage Østersund" />
		<tag k="no-barnehage:nsrid" v="1016000" />
		<tag k="operator" v="Læringsverkstedet AS" />
		<tag k="operator:type" v="private" />
	</node>
	<node id="-708" lat="59.92162" lon="11.18059">
		<tag k="amenity" v="kindergarten" />
		<tag k="contact:website" v="http://www.facebook.com/groups/145831165523968/" />
		<tag k="name" v="Kringen åpen barnehage Møteplass for Små og Store" />
		<tag k="no-barnehage:nsrid" v="1020721" />
		<tag k="operator" v="Fetsund Kfuk-Kfum" />
		<tag k="operator:type" v="private" />
	</node>
	<node id="-707" lat="59.9425" lon="11.1528">
		<tag k="amenity" v="kindergarten" />
		<tag k="capacity" v="60" />
		<tag k="max_age" v="5" />
		<tag k="min_age" v="1" />
		<tag k="name" v="Garderåsen barnehage" />
		<tag k="no-barnehage:nsrid" v="1025320" />
		<tag k="operator" v="Fet kommune" />
		<tag k="operator:type" v="public" />
	</node>
	<node id="-706" lat="59.93068" lon="11.16631">
		<tag k="amenity" v="kindergarten" />
		<tag k="capacity" v="64" />
		<tag k="contact:website" v="http://www.fetsund.barnehage.no" />
		<tag k="max_age" v="5" />
		<tag k="min_age" v="1" />
		<tag k="name" v="Fetsund barnehage" />
		<tag k="no-barnehage:nsrid" v="1020558" />
		<tag k="operator" v="Fetsund barnehage Sa" />
		<tag k="operator:type" v="private" />
	</node>
</osm>
