<?xml version="1.0" encoding="UTF-8"?>
<osm generator="osmapis" version="0.6">
	<node id="-757" lat="59.9201" lon="11.1683">
		<tag k="amenity" v="kindergarten" />
		<tag k="capacity" v="77" />
		<tag k="contact:email" v="ann.lunde@fet.kommune.no" />
		<tag k="contact:phone" v="+47 63 88 63 00" />
		<tag k="max_age" v="5" />
		<tag k="min_age" v="1" />
		<tag k="name" v="Østersund barnehage" />
		<tag k="no-barnehage:nsrid" v="1016000" />
		<tag k="operator" v="Fet kommune" />
		<tag k="operator:type" v="public" />
		<tag k="start_date" v="1988-04-01" />
	</node>
	<node id="-756" lat="59.94309" lon="11.12762">
		<tag k="amenity" v="kindergarten" />
		<tag k="capacity" v="128" />
		<tag k="contact:email" v="veera.nygaard@fet.kommune.no" />
		<tag k="max_age" v="5" />
		<tag k="min_age" v="1" />
		<tag k="name" v="Tienbråten barnehage" />
		<tag k="no-barnehage:nsrid" v="1025973" />
		<tag k="operator" v="Fet kommune" />
		<tag k="operator:type" v="public" />
		<tag k="start_date" v="2015-08-01" />
	</node>
	<node id="-755" lat="59.93671" lon="11.1525">
		<tag k="amenity" v="kindergarten" />
		<tag k="capacity" v="66" />
		<tag k="contact:email" v="dagligleder@sommerly.no" />
		<tag k="contact:phone" v="+47 63 88 72 29" />
		<tag k="contact:website" v="http://www.sommerly.no" />
		<tag k="max_age" v="5" />
		<tag k="min_age" v="1" />
		<tag k="name" v="Sommerly barnehage Sa" />
		<tag k="no-barnehage:nsrid" v="1020051" />
		<tag k="operator" v="Sommerly barnehage Sa" />
		<tag k="operator:type" v="private" />
		<tag k="start_date" v="1992-08-01" />
	</node>
	<node id="-753" lat="59.925" lon="11.2029">
		<tag k="amenity" v="kindergarten" />
		<tag k="capacity" v="90" />
		<tag k="contact:email" v="ann.noraker@fet.kommune.no" />
		<tag k="contact:phone" v="+47 63 88 70 40" />
		<tag k="max_age" v="5" />
		<tag k="min_age" v="1" />
		<tag k="name" v="Ramstadskogen barnehage" />
		<tag k="no-barnehage:nsrid" v="1017765" />
		<tag k="operator" v="Fet kommune" />
		<tag k="operator:type" v="public" />
		<tag k="start_date" v="2007-05-01" />
	</node>
	<node id="-752" lat="59.8811" lon="11.2327">
		<tag k="amenity" v="kindergarten" />
		<tag k="capacity" v="19" />
		<tag k="contact:email" v="kathrine.ulseth@fet.kommune.no" />
		<tag k="contact:phone" v="+47 63 88 99 00" />
		<tag k="max_age" v="5" />
		<tag k="min_age" v="1" />
		<tag k="name" v="Nygård barnehage" />
		<tag k="no-barnehage:nsrid" v="1017243" />
		<tag k="operator" v="Fet kommune" />
		<tag k="operator:type" v="public" />
		<tag k="start_date" v="2006-08-15" />
	</node>
	<node id="-751" lat="59.92422" lon="11.13971">
		<tag k="amenity" v="kindergarten" />
		<tag k="capacity" v="60" />
		<tag k="contact:email" v="dagligleder@nerdrumshagen.no" />
		<tag k="contact:website" v="http://www.nerdrumshagen.no" />
		<tag k="max_age" v="5" />
		<tag k="min_age" v="1" />
		<tag k="name" v="Nerdrumshagen barnehage AS" />
		<tag k="no-barnehage:nsrid" v="1021616" />
		<tag k="operator" v="Nerdrumshagen barnehage AS" />
		<tag k="operator:type" v="private" />
		<tag k="start_date" v="2007-02-12" />
	</node>
	<node id="-750" lat="59.92162" lon="11.18059">
		<tag k="amenity" v="kindergarten" />
		<tag k="contact:email" v="kjellaugsolemdal@gmail.com" />
		<tag k="name" v="Kringen Åpen barnehage" />
		<tag k="no-barnehage:nsrid" v="1020721" />
		<tag k="operator" v="Fetsund Kfuk-Kfum" />
		<tag k="operator:type" v="private" />
		<tag k="start_date" v="2001-06-08" />
	</node>
	<node id="-749" lat="59.9425" lon="11.1528">
		<tag k="amenity" v="kindergarten" />
		<tag k="capacity" v="104" />
		<tag k="contact:email" v="hege.flatebo@fet.kommune.no" />
		<tag k="contact:phone" v="+47 63 88 79 20" />
		<tag k="max_age" v="5" />
		<tag k="min_age" v="1" />
		<tag k="name" v="Garderåsen barnehage" />
		<tag k="no-barnehage:nsrid" v="1025320" />
		<tag k="operator" v="Fet kommune" />
		<tag k="operator:type" v="public" />
		<tag k="start_date" v="1989-01-02" />
	</node>
	<node id="-748" lat="59.93068" lon="11.16631">
		<tag k="amenity" v="kindergarten" />
		<tag k="capacity" v="70" />
		<tag k="contact:email" v="leder@fetsund-barnehage.no" />
		<tag k="contact:phone" v="+47 63 88 51 31" />
		<tag k="max_age" v="5" />
		<tag k="min_age" v="1" />
		<tag k="name" v="Fetsund barnehage" />
		<tag k="no-barnehage:nsrid" v="1020558" />
		<tag k="operator" v="Fetsund barnehage Sa" />
		<tag k="operator:type" v="private" />
		<tag k="start_date" v="1999-08-01" />
	</node>
</osm>
