<?xml version="1.0" encoding="UTF-8"?>
<osm generator="osmapis" version="0.6">
	<node id="-3294" lat="60.20009" lon="5.44868">
		<tag k="ADDRESS" v="Industrivegen 50, 5210 OS" />
		<tag k="amenity" v="kindergarten" />
		<tag k="capacity" v="54" />
		<tag k="contact:website" v="http://www.varhaugbarnehage.no" />
		<tag k="max_age" v="5" />
		<tag k="min_age" v="1" />
		<tag k="name" v="Varhaug barnehage" />
		<tag k="no-barnehage:nsrid" v="1019709" />
		<tag k="operator" v="Varhaug barnehage Sa" />
		<tag k="operator:type" v="private" />
	</node>
	<node id="-3293" lat="60.18645" lon="5.46837">
		<tag k="ADDRESS" v="Øyro 49, 5200 OS" />
		<tag k="amenity" v="kindergarten" />
		<tag k="contact:website" v="http://kfuk-kfum.no/om-oss/nyheter/krets/os-aapen-barnehage" />
		<tag k="name" v="Osøyro Open barnehage" />
		<tag k="no-barnehage:nsrid" v="1014083" />
		<tag k="operator" v="Kfuk-Kfum Norge" />
		<tag k="operator:type" v="private" />
	</node>
	<node id="-3292" lat="60.23798" lon="5.451">
		<tag k="ADDRESS" v="Moldmyro 7, 5212 SØFTELAND" />
		<tag k="amenity" v="kindergarten" />
		<tag k="capacity" v="94" />
		<tag k="contact:website" v="http://www.nottelitenbarnehage.no" />
		<tag k="max_age" v="5" />
		<tag k="min_age" v="1" />
		<tag k="name" v="Nøtteliten barnehage" />
		<tag k="no-barnehage:nsrid" v="1020607" />
		<tag k="operator" v="Stiftelsen Nøtteliten barnehage" />
		<tag k="operator:type" v="private" />
	</node>
	<node id="-3291" lat="60.20344" lon="5.46116">
		<tag k="ADDRESS" v="Banktjørnhaugen 2, 5210 OS" />
		<tag k="amenity" v="kindergarten" />
		<tag k="capacity" v="52" />
		<tag k="max_age" v="5" />
		<tag k="min_age" v="1" />
		<tag k="name" v="Banktjørhaugen barnehage" />
		<tag k="no-barnehage:nsrid" v="1020688" />
		<tag k="operator" v="Banktjørnhaugen barnehage Sa" />
		<tag k="operator:type" v="private" />
	</node>
</osm>
