<?xml version="1.0" encoding="UTF-8"?>
<osm generator="osmapis" version="0.6">
	<node id="-4213" lat="60.20009" lon="5.448691">
		<tag k="amenity" v="kindergarten" />
		<tag k="capacity" v="55" />
		<tag k="contact:phone" v="56 30 17 01" />
		<tag k="contact:website" v="http://www.varhaugbarnehage.no" />
		<tag k="max_age" v="5" />
		<tag k="min_age" v="1" />
		<tag k="name" v="Varhaug barnehage" />
		<tag k="no-barnehage:nsrid" v="1019709" />
		<tag k="operator" v="Varhaug barnehage Sa" />
		<tag k="operator:type" v="private" />
		<tag k="start_date" v="1989-01-02" />
	</node>
	<node id="-4212" lat="60.18835" lon="5.469783">
		<tag k="amenity" v="kindergarten" />
		<tag k="name" v="Osøyro Åpen barnehage" />
		<tag k="no-barnehage:nsrid" v="1014083" />
		<tag k="operator" v="Norges Kfuk-Kfum" />
		<tag k="operator:type" v="private" />
		<tag k="start_date" v="2009-12-01" />
	</node>
	<node id="-4211" lat="60.1957" lon="5.45927">
		<tag k="amenity" v="kindergarten" />
		<tag k="capacity" v="129" />
		<tag k="max_age" v="5" />
		<tag k="min_age" v="1" />
		<tag k="name" v="Os barnehage" />
		<tag k="no-barnehage:nsrid" v="1018117" />
		<tag k="operator" v="Os kommune" />
		<tag k="operator:type" v="public" />
		<tag k="start_date" v="1989-01-01" />
	</node>
	<node id="-4210" lat="60.23799" lon="5.451001">
		<tag k="amenity" v="kindergarten" />
		<tag k="capacity" v="97" />
		<tag k="contact:email" v="post@nottelitenbarnehage.no" />
		<tag k="contact:phone" v="56 30 39 70" />
		<tag k="contact:website" v="http://www.nottelitenbarnehage.no" />
		<tag k="max_age" v="5" />
		<tag k="min_age" v="1" />
		<tag k="name" v="Nøtteliten barnehage" />
		<tag k="no-barnehage:nsrid" v="1020607" />
		<tag k="operator" v="Stiftelsen Nøtteliten barnehage" />
		<tag k="operator:type" v="private" />
		<tag k="start_date" v="1989-01-02" />
	</node>
	<node id="-4209" lat="60.22872" lon="5.539228">
		<tag k="amenity" v="kindergarten" />
		<tag k="capacity" v="48" />
		<tag k="contact:phone" v="91 86 90 63" />
		<tag k="contact:website" v="http://www.hegglandsdalen.barnehage.no" />
		<tag k="max_age" v="5" />
		<tag k="min_age" v="1" />
		<tag k="name" v="Hegglandsdalen barnehage" />
		<tag k="no-barnehage:nsrid" v="1019798" />
		<tag k="operator" v="Hegglandsdalen Barnehagelag Sa" />
		<tag k="operator:type" v="private" />
		<tag k="start_date" v="1989-01-02" />
	</node>
</osm>
