<?xml version="1.0" encoding="UTF-8"?>
<osm generator="osmapis" version="0.6">
	<node id="-4816" lat="0.0" lon="0.0">
		<tag k="ADDRESS" v="Fjordavegen 4171, 5778 UTNE" />
		<tag k="amenity" v="kindergarten" />
		<tag k="capacity" v="12" />
		<tag k="max_age" v="5" />
		<tag k="min_age" v="1" />
		<tag k="name" v="Utne barnehage" />
		<tag k="no-barnehage:nsrid" v="1017397" />
		<tag k="operator" v="Ullensvang Herad" />
		<tag k="operator:type" v="public" />
	</node>
	<node id="-4815" lat="60.25957" lon="6.62501">
		<tag k="ADDRESS" v="Seksevegen 12, 5773 HOVLAND" />
		<tag k="amenity" v="kindergarten" />
		<tag k="capacity" v="27" />
		<tag k="contact:website" v="http:///www.sekse.barnehageside.no/" />
		<tag k="max_age" v="5" />
		<tag k="min_age" v="1" />
		<tag k="name" v="Sekse barnehage" />
		<tag k="no-barnehage:nsrid" v="1018114" />
		<tag k="operator" v="Ullensvang Herad" />
		<tag k="operator:type" v="public" />
	</node>
	<node id="-4814" lat="60.3689" lon="6.7364">
		<tag k="ADDRESS" v="Husevegen 74, 5780 KINSARVIK" />
		<tag k="amenity" v="kindergarten" />
		<tag k="capacity" v="32" />
		<tag k="max_age" v="5" />
		<tag k="min_age" v="1" />
		<tag k="name" v="Kinsarvik barnehage" />
		<tag k="no-barnehage:nsrid" v="1016914" />
		<tag k="operator" v="Ullensvang Herad" />
		<tag k="operator:type" v="public" />
	</node>
	<node id="-4813" lat="60.28966" lon="6.59578">
		<tag k="ADDRESS" v="Rogdavegen 8, 5776 NÃ…" />
		<tag k="amenity" v="kindergarten" />
		<tag k="capacity" v="26" />
		<tag k="max_age" v="5" />
		<tag k="min_age" v="1" />
		<tag k="name" v="Aga barnehage" />
		<tag k="no-barnehage:nsrid" v="1018113" />
		<tag k="operator" v="Ullensvang Herad" />
		<tag k="operator:type" v="public" />
	</node>
	<node id="-4817" lat="0.0" lon="0.0">
		<tag k="ADDRESS" v="Veisane, 5781 LOFTHUS" />
		<tag k="amenity" v="kindergarten" />
		<tag k="capacity" v="34" />
		<tag k="max_age" v="5" />
		<tag k="min_age" v="1" />
		<tag k="name" v="Veisane barnehage" />
		<tag k="no-barnehage:nsrid" v="1014887" />
		<tag k="operator" v="Ullensvang Herad" />
		<tag k="operator:type" v="public" />
	</node>
</osm>
