<?xml version="1.0" encoding="UTF-8"?>
<osm generator="osmapis" version="0.6">
	<node id="-4192" lat="60.4224" lon="6.62182">
		<tag k="amenity" v="kindergarten" />
		<tag k="capacity" v="23" />
		<tag k="contact:email" v="post.utne.barnehage@ullensvang.herad.no" />
		<tag k="contact:phone" v="53 66 69 92" />
		<tag k="max_age" v="5" />
		<tag k="min_age" v="1" />
		<tag k="name" v="Utne barnehage" />
		<tag k="no-barnehage:nsrid" v="1017397" />
		<tag k="operator" v="Ullensvang Herad" />
		<tag k="operator:type" v="public" />
		<tag k="start_date" v="1978-10-10" />
	</node>
	<node id="-4191" lat="60.2518" lon="6.62062">
		<tag k="amenity" v="kindergarten" />
		<tag k="capacity" v="28" />
		<tag k="max_age" v="5" />
		<tag k="min_age" v="1" />
		<tag k="name" v="Sekse barnehage" />
		<tag k="no-barnehage:nsrid" v="1018114" />
		<tag k="operator" v="Ullensvang Herad" />
		<tag k="operator:type" v="public" />
		<tag k="start_date" v="1989-01-01" />
	</node>
	<node id="-4190" lat="60.3763" lon="6.72189">
		<tag k="amenity" v="kindergarten" />
		<tag k="capacity" v="44" />
		<tag k="contact:phone" v="53671650" />
		<tag k="max_age" v="5" />
		<tag k="min_age" v="1" />
		<tag k="name" v="Kinsarvik barnehage" />
		<tag k="no-barnehage:nsrid" v="1016914" />
		<tag k="operator" v="Ullensvang Herad" />
		<tag k="operator:type" v="public" />
		<tag k="start_date" v="1976-12-24" />
	</node>
	<node id="-4189" lat="60.2995" lon="6.60248">
		<tag k="amenity" v="kindergarten" />
		<tag k="capacity" v="27" />
		<tag k="contact:phone" v="53662336" />
		<tag k="max_age" v="5" />
		<tag k="min_age" v="1" />
		<tag k="name" v="Aga barnehage" />
		<tag k="no-barnehage:nsrid" v="1018113" />
		<tag k="operator" v="Ullensvang Herad" />
		<tag k="operator:type" v="public" />
		<tag k="start_date" v="1989-01-01" />
	</node>
	<node id="-4193" lat="60.3323" lon="6.66226">
		<tag k="amenity" v="kindergarten" />
		<tag k="capacity" v="45" />
		<tag k="contact:email" v="veisane.barnehage@sensewave.com" />
		<tag k="contact:phone" v="53671320" />
		<tag k="max_age" v="5" />
		<tag k="min_age" v="1" />
		<tag k="name" v="Veisane barnehage" />
		<tag k="no-barnehage:nsrid" v="1014887" />
		<tag k="operator" v="Ullensvang Herad" />
		<tag k="operator:type" v="public" />
		<tag k="start_date" v="1996-01-01" />
	</node>
</osm>
