<?xml version="1.0" encoding="UTF-8"?>
<osm version="0.6" generator="osmapis">
	<node lat="59.28403" lon="10.33017" id="-3344">
		<tag k="ADDRESS" v="Aulerødveien 32, 3170 SEM" />
		<tag k="amenity" v="kindergarten" />
		<tag k="capacity" v="11" />
		<tag k="max_age" v="5" />
		<tag k="min_age" v="1" />
		<tag k="name" v="Aulerød barnehage" />
		<tag k="no-barnehage:nsrid" v="973610317" />
		<tag k="operator" v="Tønsberg kommune" />
		<tag k="operator:type" v="public" />
	</node>
	<node lat="59.31728" lon="10.38965" id="-3345">
		<tag k="ADDRESS" v="Nyveien 9, 3157 BARKÅKER" />
		<tag k="amenity" v="kindergarten" />
		<tag k="capacity" v="101" />
		<tag k="max_age" v="5" />
		<tag k="min_age" v="1" />
		<tag k="name" v="Barkåker barnehage" />
		<tag k="no-barnehage:nsrid" v="974585804" />
		<tag k="operator" v="Tønsberg kommune" />
		<tag k="operator:type" v="public" />
	</node>
	<node lat="0.0" lon="0.0" id="-3346">
		<tag k="ADDRESS" v="Håkon V gate 1-3, 3116 TØNSBERG" />
		<tag k="amenity" v="kindergarten" />
		<tag k="capacity" v="69" />
		<tag k="contact:website" v="http://www.kattekleiv.no" />
		<tag k="max_age" v="5" />
		<tag k="min_age" v="1" />
		<tag k="name" v="Belmar barnehage" />
		<tag k="no-barnehage:nsrid" v="992877553" />
		<tag k="operator" v="Belmar barnehage AS" />
		<tag k="operator:type" v="private" />
	</node>
	<node lat="59.26633" lon="10.47819" id="-3347">
		<tag k="ADDRESS" v="Øvre Bogenvei 36, 3152 TOLVSRØD" />
		<tag k="amenity" v="kindergarten" />
		<tag k="capacity" v="26" />
		<tag k="max_age" v="5" />
		<tag k="min_age" v="1" />
		<tag k="name" v="Bogen barnehage" />
		<tag k="no-barnehage:nsrid" v="873469862" />
		<tag k="operator" v="Bogen barnehage SA" />
		<tag k="operator:type" v="private" />
	</node>
	<node lat="59.29877" lon="10.48702" id="-3348">
		<tag k="ADDRESS" v="Åsgårdstrandsveien 114, 3153 TOLVSRØD" />
		<tag k="amenity" v="kindergarten" />
		<tag k="capacity" v="27" />
		<tag k="max_age" v="5" />
		<tag k="min_age" v="1" />
		<tag k="name" v="Brekke naturbarnehage" />
		<tag k="no-barnehage:nsrid" v="973306812" />
		<tag k="operator" v="Brekke naturbarnehage AS" />
		<tag k="operator:type" v="private" />
	</node>
	<node lat="59.41197" lon="10.28052" id="-3349">
		<tag k="ADDRESS" v="Skaugveien 10, 3178 VÅLE" />
		<tag k="amenity" v="kindergarten" />
		<tag k="capacity" v="76" />
		<tag k="max_age" v="5" />
		<tag k="min_age" v="1" />
		<tag k="name" v="Brekkeåsen barnehage" />
		<tag k="no-barnehage:nsrid" v="975321215" />
		<tag k="operator" v="Tønsberg kommune" />
		<tag k="operator:type" v="public" />
	</node>
	<node lat="59.36984" lon="10.25614" id="-3350">
		<tag k="ADDRESS" v="Ramskiveien 4, 3175 RAMNES" />
		<tag k="amenity" v="kindergarten" />
		<tag k="capacity" v="58" />
		<tag k="max_age" v="5" />
		<tag k="min_age" v="1" />
		<tag k="name" v="Brår barnehage" />
		<tag k="no-barnehage:nsrid" v="975316971" />
		<tag k="operator" v="Tønsberg kommune" />
		<tag k="operator:type" v="public" />
	</node>
	<node lat="59.30091" lon="10.4171" id="-3351">
		<tag k="ADDRESS" v="Sildreveien 30, 3123 TØNSBERG" />
		<tag k="amenity" v="kindergarten" />
		<tag k="capacity" v="40" />
		<tag k="max_age" v="5" />
		<tag k="min_age" v="1" />
		<tag k="name" v="Eik Vestre barnehage" />
		<tag k="no-barnehage:nsrid" v="974585731" />
		<tag k="operator" v="Tønsberg kommune" />
		<tag k="operator:type" v="public" />
	</node>
	<node lat="59.2568" lon="10.36606" id="-3352">
		<tag k="ADDRESS" v="Røsslyngveien 39, 3173 VEAR" />
		<tag k="amenity" v="kindergarten" />
		<tag k="capacity" v="87" />
		<tag k="contact:website" v="http://www.tonsberg.kommune.no" />
		<tag k="max_age" v="5" />
		<tag k="min_age" v="1" />
		<tag k="name" v="Ekely barnehage" />
		<tag k="no-barnehage:nsrid" v="975306860" />
		<tag k="operator" v="Tønsberg kommune" />
		<tag k="operator:type" v="public" />
	</node>
	<node lat="59.4128" lon="10.209" id="-3353">
		<tag k="ADDRESS" v="Eketuftveien 3, 3174 REVETAL" />
		<tag k="amenity" v="kindergarten" />
		<tag k="capacity" v="33" />
		<tag k="max_age" v="5" />
		<tag k="min_age" v="1" />
		<tag k="name" v="Fon barnehage" />
		<tag k="no-barnehage:nsrid" v="975322637" />
		<tag k="operator" v="Tønsberg kommune" />
		<tag k="operator:type" v="public" />
	</node>
	<node lat="59.27459" lon="10.46212" id="-3354">
		<tag k="ADDRESS" v="Rognveien 9, 3151 TOLVSRØD" />
		<tag k="amenity" v="kindergarten" />
		<tag k="capacity" v="58" />
		<tag k="max_age" v="5" />
		<tag k="min_age" v="1" />
		<tag k="name" v="Fyllpå barnehage" />
		<tag k="no-barnehage:nsrid" v="974585944" />
		<tag k="operator" v="Tønsberg kommune" />
		<tag k="operator:type" v="public" />
	</node>
	<node lat="59.26975" lon="10.45465" id="-3355">
		<tag k="ADDRESS" v="Glitneveien 26, 3151 TOLVSRØD" />
		<tag k="amenity" v="kindergarten" />
		<tag k="capacity" v="77" />
		<tag k="contact:website" v="http://glitne.kanvas.no/" />
		<tag k="max_age" v="5" />
		<tag k="min_age" v="1" />
		<tag k="name" v="Glitne kanvas-barnehage" />
		<tag k="no-barnehage:nsrid" v="992998245" />
		<tag k="operator" v="Stiftelsen Kanvas" />
		<tag k="operator:type" v="private" />
	</node>
	<node lat="59.26799" lon="10.41074" id="-3358">
		<tag k="ADDRESS" v="Graabrødregaten 21, 3110 TØNSBERG" />
		<tag k="amenity" v="kindergarten" />
		<tag k="capacity" v="31" />
		<tag k="max_age" v="5" />
		<tag k="min_age" v="1" />
		<tag k="name" v="Haugar barnehage" />
		<tag k="no-barnehage:nsrid" v="973383191" />
		<tag k="operator" v="Tønsbergkirkenes barnehager AS" />
		<tag k="operator:type" v="private" />
	</node>
	<node lat="59.2676" lon="10.35625" id="-3359">
		<tag k="ADDRESS" v="Larveveien 29, 3172 VEAR" />
		<tag k="amenity" v="kindergarten" />
		<tag k="capacity" v="73" />
		<tag k="max_age" v="5" />
		<tag k="min_age" v="1" />
		<tag k="name" v="Hogsnes barnehage" />
		<tag k="no-barnehage:nsrid" v="974585839" />
		<tag k="operator" v="Tønsberg kommune" />
		<tag k="operator:type" v="public" />
	</node>
	<node lat="59.23572" lon="10.46383" id="-3360">
		<tag k="ADDRESS" v="Kirkegaten 41I, 3132 HUSØYSUND" />
		<tag k="amenity" v="kindergarten" />
		<tag k="capacity" v="53" />
		<tag k="max_age" v="5" />
		<tag k="min_age" v="1" />
		<tag k="name" v="Husøy Maritime FUS barnehage" />
		<tag k="no-barnehage:nsrid" v="991755314" />
		<tag k="operator" v="Husøy Maritime Fus barnehage AS" />
		<tag k="operator:type" v="private" />
	</node>
	<node lat="59.29152" lon="10.476" id="-3361">
		<tag k="ADDRESS" v="Greinveien 2, 3114 TØNSBERG" />
		<tag k="amenity" v="kindergarten" />
		<tag k="capacity" v="66" />
		<tag k="max_age" v="5" />
		<tag k="min_age" v="1" />
		<tag k="name" v="Ilebrekke barnehage" />
		<tag k="no-barnehage:nsrid" v="991570497" />
		<tag k="operator" v="Tønsberg kommune" />
		<tag k="operator:type" v="public" />
	</node>
	<node lat="59.3046" lon="10.44252" id="-3363">
		<tag k="ADDRESS" v="Velleveien 79, 3118 TØNSBERG" />
		<tag k="amenity" v="kindergarten" />
		<tag k="capacity" v="60" />
		<tag k="max_age" v="5" />
		<tag k="min_age" v="1" />
		<tag k="name" v="Klokkeråsen barnehage" />
		<tag k="no-barnehage:nsrid" v="917522650" />
		<tag k="operator" v="Tønsberg kommune" />
		<tag k="operator:type" v="public" />
	</node>
	<node lat="59.27272" lon="10.41108" id="-3364">
		<tag k="ADDRESS" v="Stenmalveien 2, 3111 TØNSBERG" />
		<tag k="amenity" v="kindergarten" />
		<tag k="capacity" v="120" />
		<tag k="max_age" v="5" />
		<tag k="min_age" v="1" />
		<tag k="name" v="Knapløkka barnehage" />
		<tag k="no-barnehage:nsrid" v="974585774" />
		<tag k="operator" v="Tønsberg kommune" />
		<tag k="operator:type" v="public" />
	</node>
	<node lat="59.29787" lon="10.41516" id="-3366">
		<tag k="ADDRESS" v="Årfuglveien 6, 3123 TØNSBERG" />
		<tag k="amenity" v="kindergarten" />
		<tag k="capacity" v="93" />
		<tag k="max_age" v="5" />
		<tag k="min_age" v="1" />
		<tag k="name" v="Kongseik barnehage" />
		<tag k="no-barnehage:nsrid" v="973610341" />
		<tag k="operator" v="Tønsberg kommune" />
		<tag k="operator:type" v="public" />
	</node>
	<node lat="59.34103" lon="10.31118" id="-3367">
		<tag k="ADDRESS" v="Kløvveien 2, 3175 RAMNES" />
		<tag k="amenity" v="kindergarten" />
		<tag k="capacity" v="42" />
		<tag k="contact:website" v="http://www.linnestadbarnehage.no" />
		<tag k="max_age" v="5" />
		<tag k="min_age" v="1" />
		<tag k="name" v="Linnestad barnehage" />
		<tag k="no-barnehage:nsrid" v="983648894" />
		<tag k="operator" v="Linnestad barnehage SA" />
		<tag k="operator:type" v="private" />
	</node>
	<node lat="59.30564" lon="10.42669" id="-3368">
		<tag k="ADDRESS" v="Robergrønningen 1, 3123 TØNSBERG" />
		<tag k="amenity" v="kindergarten" />
		<tag k="capacity" v="70" />
		<tag k="contact:website" v="http://www.lokebergstua.barnehage.no" />
		<tag k="max_age" v="5" />
		<tag k="min_age" v="1" />
		<tag k="name" v="Løkebergstua barnehage" />
		<tag k="no-barnehage:nsrid" v="981530896" />
		<tag k="operator" v="Løkebergstua barnehage SA" />
		<tag k="operator:type" v="private" />
	</node>
	<node lat="59.29329" lon="10.42257" id="-3369">
		<tag k="ADDRESS" v="Jutulveien 5, 3122 TØNSBERG" />
		<tag k="amenity" v="kindergarten" />
		<tag k="capacity" v="62" />
		<tag k="max_age" v="5" />
		<tag k="min_age" v="1" />
		<tag k="name" v="Mortenåsen barnehage" />
		<tag k="no-barnehage:nsrid" v="974585952" />
		<tag k="operator" v="Tønsberg kommune" />
		<tag k="operator:type" v="public" />
	</node>
	<node lat="59.2747" lon="10.4434" id="-3371">
		<tag k="ADDRESS" v="Åsenveien 7, 3118 TØNSBERG" />
		<tag k="amenity" v="kindergarten" />
		<tag k="capacity" v="51" />
		<tag k="max_age" v="5" />
		<tag k="min_age" v="1" />
		<tag k="name" v="Presterød barnehage" />
		<tag k="no-barnehage:nsrid" v="874585742" />
		<tag k="operator" v="Tønsberg kommune" />
		<tag k="operator:type" v="public" />
	</node>
	<node lat="59.3664" lon="10.24695" id="-3372">
		<tag k="ADDRESS" v="Berganveien 41, 3175 RAMNES" />
		<tag k="amenity" v="kindergarten" />
		<tag k="capacity" v="65" />
		<tag k="contact:website" v="http://www.ramnesprivatebarnehage.no/" />
		<tag k="max_age" v="5" />
		<tag k="min_age" v="1" />
		<tag k="name" v="Ramnes private barnehage" />
		<tag k="no-barnehage:nsrid" v="973462083" />
		<tag k="operator" v="Ramnes private barnehage A/S" />
		<tag k="operator:type" v="private" />
	</node>
	<node lat="59.37461" lon="10.26645" id="-3373">
		<tag k="ADDRESS" v="Skoleveien 1, 3174 REVETAL" />
		<tag k="amenity" v="kindergarten" />
		<tag k="capacity" v="59" />
		<tag k="max_age" v="5" />
		<tag k="min_age" v="1" />
		<tag k="name" v="Revetal barnehage" />
		<tag k="no-barnehage:nsrid" v="979932014" />
		<tag k="operator" v="Tønsberg kommune" />
		<tag k="operator:type" v="public" />
	</node>
	<node lat="59.2851" lon="10.4859" id="-3374">
		<tag k="ADDRESS" v="Rønningveien 14, 3153 TOLVSRØD" />
		<tag k="amenity" v="kindergarten" />
		<tag k="capacity" v="61" />
		<tag k="max_age" v="5" />
		<tag k="min_age" v="1" />
		<tag k="name" v="Ringshaug barnehage" />
		<tag k="no-barnehage:nsrid" v="988435112" />
		<tag k="operator" v="Tønsberg kommune" />
		<tag k="operator:type" v="public" />
	</node>
	<node lat="59.32779" lon="10.46875" id="-3375">
		<tag k="ADDRESS" v="Røråsveien 190, 3179 ÅSGÅRDSTRAND" />
		<tag k="amenity" v="kindergarten" />
		<tag k="capacity" v="41" />
		<tag k="contact:website" v="http://www.roras.no" />
		<tag k="max_age" v="5" />
		<tag k="min_age" v="1" />
		<tag k="name" v="Rørås gårdsbarnehage" />
		<tag k="no-barnehage:nsrid" v="990033277" />
		<tag k="operator" v="Rørås gårdsbarnehage" />
		<tag k="operator:type" v="private" />
	</node>
	<node lat="59.26043" lon="10.45364" id="-3376">
		<tag k="ADDRESS" v="Narverødveien 47B, 3113 TØNSBERG" />
		<tag k="amenity" v="kindergarten" />
		<tag k="capacity" v="69" />
		<tag k="max_age" v="5" />
		<tag k="min_age" v="1" />
		<tag k="name" v="Råelåsen barnehage" />
		<tag k="no-barnehage:nsrid" v="974586029" />
		<tag k="operator" v="Tønsberg kommune" />
		<tag k="operator:type" v="public" />
	</node>
	<node lat="59.27879" lon="10.44996" id="-3377">
		<tag k="ADDRESS" v="Sandeveien 32, 3150 TOLVSRØD" />
		<tag k="amenity" v="kindergarten" />
		<tag k="capacity" v="145" />
		<tag k="max_age" v="5" />
		<tag k="min_age" v="1" />
		<tag k="name" v="Sandeåsen barnehage" />
		<tag k="no-barnehage:nsrid" v="990333963" />
		<tag k="operator" v="Tønsberg kommune" />
		<tag k="operator:type" v="public" />
	</node>
	<node lat="59.27954" lon="10.3248" id="-3378">
		<tag k="ADDRESS" v="Sæheimsveien 27, 3170 SEM" />
		<tag k="amenity" v="kindergarten" />
		<tag k="capacity" v="37" />
		<tag k="max_age" v="5" />
		<tag k="min_age" v="1" />
		<tag k="name" v="Semsbyen barnehage" />
		<tag k="no-barnehage:nsrid" v="974585812" />
		<tag k="operator" v="Tønsberg kommune" />
		<tag k="operator:type" v="public" />
	</node>
	<node lat="0.0" lon="0.0" id="-3379">
		<tag k="ADDRESS" v="Temsengen 22, 3170 SEM" />
		<tag k="amenity" v="kindergarten" />
		<tag k="capacity" v="78" />
		<tag k="max_age" v="5" />
		<tag k="min_age" v="1" />
		<tag k="name" v="Semsløkka barnehage" />
		<tag k="no-barnehage:nsrid" v="889857072" />
		<tag k="operator" v="Tønsbergkirkenes barnehager AS" />
		<tag k="operator:type" v="private" />
	</node>
	<node lat="59.35926" lon="10.28886" id="-3380">
		<tag k="ADDRESS" v="Mor Kristins vei 2, 3174 REVETAL" />
		<tag k="amenity" v="kindergarten" />
		<tag k="capacity" v="60" />
		<tag k="max_age" v="5" />
		<tag k="min_age" v="1" />
		<tag k="name" v="Skjeggestadåsen barnehage" />
		<tag k="no-barnehage:nsrid" v="915777856" />
		<tag k="operator" v="Tønsberg kommune" />
		<tag k="operator:type" v="public" />
	</node>
	<node lat="59.27068" lon="10.45537" id="-3381">
		<tag k="ADDRESS" v="Glitneveien 20, 3151 TOLVSRØD" />
		<tag k="amenity" v="kindergarten" />
		<tag k="capacity" v="41" />
		<tag k="max_age" v="5" />
		<tag k="min_age" v="1" />
		<tag k="name" v="Skoglund barnehage" />
		<tag k="no-barnehage:nsrid" v="974585820" />
		<tag k="operator" v="Tønsberg kommune" />
		<tag k="operator:type" v="public" />
	</node>
	<node lat="59.26919" lon="10.45493" id="-3382">
		<tag k="ADDRESS" v="Glitneveien 28, 3151 TOLVSRØD" />
		<tag k="amenity" v="kindergarten" />
		<tag k="capacity" v="127" />
		<tag k="max_age" v="5" />
		<tag k="min_age" v="1" />
		<tag k="name" v="Slagen barnehage" />
		<tag k="no-barnehage:nsrid" v="990114927" />
		<tag k="operator" v="Tønsberg kommune" />
		<tag k="operator:type" v="public" />
	</node>
	<node lat="59.37125" lon="10.3654" id="-3384">
		<tag k="ADDRESS" v="Kåpeveien 703, 3176 UNDRUMSDAL" />
		<tag k="amenity" v="kindergarten" />
		<tag k="capacity" v="55" />
		<tag k="max_age" v="5" />
		<tag k="min_age" v="1" />
		<tag k="name" v="Solerød barnehage" />
		<tag k="no-barnehage:nsrid" v="975321223" />
		<tag k="operator" v="Tønsberg kommune" />
		<tag k="operator:type" v="public" />
	</node>
	<node lat="59.28985" lon="10.48718" id="-3385">
		<tag k="ADDRESS" v="Rønninglia 1, 3153 TOLVSRØD" />
		<tag k="amenity" v="kindergarten" />
		<tag k="capacity" v="84" />
		<tag k="contact:website" v="http://solsikken.kanvas.no/" />
		<tag k="max_age" v="5" />
		<tag k="min_age" v="1" />
		<tag k="name" v="Solsikken kanvas-barnehage" />
		<tag k="no-barnehage:nsrid" v="926164287" />
		<tag k="operator" v="Stiftelsen Kanvas" />
		<tag k="operator:type" v="private" />
	</node>
	<node lat="59.27498" lon="10.41928" id="-3386">
		<tag k="ADDRESS" v="Wergelands vei 7B, 3117 TØNSBERG" />
		<tag k="amenity" v="kindergarten" />
		<tag k="capacity" v="51" />
		<tag k="max_age" v="5" />
		<tag k="min_age" v="1" />
		<tag k="name" v="Solvangkirkens barnehage" />
		<tag k="no-barnehage:nsrid" v="973382322" />
		<tag k="operator" v="Tønsbergkirkenes barnehager AS" />
		<tag k="operator:type" v="private" />
	</node>
	<node lat="59.26563" lon="10.44798" id="-3387">
		<tag k="ADDRESS" v="Stjerneveien 24, 3113 TØNSBERG" />
		<tag k="amenity" v="kindergarten" />
		<tag k="capacity" v="64" />
		<tag k="contact:website" v="http://www.regnbuen.barnehage.no" />
		<tag k="max_age" v="5" />
		<tag k="min_age" v="1" />
		<tag k="name" v="Stiftelsen Regnbuen" />
		<tag k="no-barnehage:nsrid" v="973490494" />
		<tag k="operator" v="Stiftelsen Regnbuen" />
		<tag k="operator:type" v="private" />
	</node>
	<node lat="59.259" lon="10.41623" id="-3388">
		<tag k="ADDRESS" v="Gabriel Christiansens gate 3, 3127 TØNSBERG" />
		<tag k="amenity" v="kindergarten" />
		<tag k="capacity" v="20" />
		<tag k="max_age" v="5" />
		<tag k="min_age" v="1" />
		<tag k="name" v="Teie Hageby barnehage" />
		<tag k="no-barnehage:nsrid" v="974633418" />
		<tag k="operator" v="Stiftelsen Teie Hageby barnehage" />
		<tag k="operator:type" v="private" />
	</node>
	<node lat="59.269" lon="10.46953" id="-3389">
		<tag k="ADDRESS" v="Ulvikveien 9, 3152 TOLVSRØD" />
		<tag k="amenity" v="kindergarten" />
		<tag k="capacity" v="54" />
		<tag k="max_age" v="5" />
		<tag k="min_age" v="1" />
		<tag k="name" v="Tolvsrød barnehage" />
		<tag k="no-barnehage:nsrid" v="974585723" />
		<tag k="operator" v="Tønsberg kommune" />
		<tag k="operator:type" v="public" />
	</node>
	<node lat="59.27969" lon="10.4291" id="-3390">
		<tag k="ADDRESS" v="Osebergstien 24, 3117 TØNSBERG" />
		<tag k="amenity" v="kindergarten" />
		<tag k="capacity" v="49" />
		<tag k="max_age" v="5" />
		<tag k="min_age" v="1" />
		<tag k="name" v="Trudvanglia barnehage" />
		<tag k="no-barnehage:nsrid" v="992026650" />
		<tag k="operator" v="Tønsberg kommune" />
		<tag k="operator:type" v="public" />
	</node>
	<node lat="59.33172" lon="10.42432" id="-3391">
		<tag k="ADDRESS" v="Robergveien 347, 3157 BARKÅKER" />
		<tag k="amenity" v="kindergarten" />
		<tag k="capacity" v="50" />
		<tag k="contact:website" v="http://www.tonsbergmontessori.no" />
		<tag k="max_age" v="5" />
		<tag k="min_age" v="1" />
		<tag k="name" v="Tønsberg Montessori barnehage" />
		<tag k="no-barnehage:nsrid" v="873131632" />
		<tag k="operator" v="Tønsberg Montessori barnehage" />
		<tag k="operator:type" v="private" />
	</node>
	<node lat="0.0" lon="0.0" id="-3392">
		<tag k="ADDRESS" v="Kjærlighetsstien 26, 3112 TØNSBERG" />
		<tag k="amenity" v="kindergarten" />
		<tag k="capacity" v="63" />
		<tag k="max_age" v="5" />
		<tag k="min_age" v="1" />
		<tag k="name" v="Vellebarnehagene avd. Træleborg barnehage" />
		<tag k="no-barnehage:nsrid" v="973138642" />
		<tag k="operator" v="Vellebarnehagene AS" />
		<tag k="operator:type" v="private" />
	</node>
	<node lat="59.26052" lon="10.36067" id="-3393">
		<tag k="ADDRESS" v="Melsomvikveien 583, 3173 VEAR" />
		<tag k="amenity" v="kindergarten" />
		<tag k="capacity" v="49" />
		<tag k="max_age" v="5" />
		<tag k="min_age" v="1" />
		<tag k="name" v="Vellebarnehagene avd. Sigridløkka barnehage" />
		<tag k="no-barnehage:nsrid" v="973138650" />
		<tag k="operator" v="Vellebarnehagene AS" />
		<tag k="operator:type" v="private" />
	</node>
	<node lat="59.4255" lon="10.1229" id="-3394">
		<tag k="ADDRESS" v="Midtåsveien 2, 3175 RAMNES" />
		<tag k="amenity" v="kindergarten" />
		<tag k="capacity" v="15" />
		<tag k="max_age" v="5" />
		<tag k="min_age" v="1" />
		<tag k="name" v="Vivestad barnehage" />
		<tag k="no-barnehage:nsrid" v="995849623" />
		<tag k="operator" v="Tønsberg kommune" />
		<tag k="operator:type" v="public" />
	</node>
</osm>
