<?xml version="1.0" encoding="UTF-8"?>
<osm generator="osmapis" version="0.6">
	<node id="-3474" lat="0.0" lon="0.0">
		<tag k="ADDRESS" v="Fregattveien 19, 3150 TOLVSRØD" />
		<tag k="amenity" v="kindergarten" />
		<tag k="capacity" v="4" />
		<tag k="max_age" v="2" />
		<tag k="min_age" v="1" />
		<tag k="name" v="Granstua familiebarnehage Irene Homleid Kristiansen" />
		<tag k="no-barnehage:nsrid" v="992867213" />
		<tag k="operator" v="Granstua Familiebarnehage Irene Homleid Kristiansen" />
		<tag k="operator:type" v="private" />
	</node>
	<node id="-3475" lat="59.2863" lon="10.49568">
		<tag k="ADDRESS" v="Grusveien 33, 3150 TOLVSRØD" />
		<tag k="amenity" v="kindergarten" />
		<tag k="capacity" v="4" />
		<tag k="max_age" v="2" />
		<tag k="min_age" v="1" />
		<tag k="name" v="Grusveien familiebarnehage" />
		<tag k="no-barnehage:nsrid" v="983606350" />
		<tag k="operator" v="Nina Bollæren Sandvik" />
		<tag k="operator:type" v="private" />
	</node>
	<node id="-3480" lat="59.27493" lon="10.46945">
		<tag k="ADDRESS" v="Kastanjeveien 37, 3151 TOLVSRØD" />
		<tag k="amenity" v="kindergarten" />
		<tag k="capacity" v="4" />
		<tag k="max_age" v="5" />
		<tag k="min_age" v="1" />
		<tag k="name" v="Kastanjenøtten barnehage Hilde Sannum Lunne" />
		<tag k="no-barnehage:nsrid" v="988514985" />
		<tag k="operator" v="Kastanjenøtten barnehage Hilde Sannum Lunne" />
		<tag k="operator:type" v="private" />
	</node>
	<node id="-3483" lat="59.41328" lon="10.28055">
		<tag k="ADDRESS" v="Brekkeåsveien 28, 3178 VÅLE" />
		<tag k="amenity" v="kindergarten" />
		<tag k="capacity" v="10" />
		<tag k="max_age" v="5" />
		<tag k="min_age" v="3" />
		<tag k="name" v="Knerten familiebarnehage" />
		<tag k="no-barnehage:nsrid" v="978640362" />
		<tag k="operator" v="Bente Strøm'S Familiebarnehage" />
		<tag k="operator:type" v="private" />
	</node>
	<node id="-3488" lat="59.41267" lon="10.28127">
		<tag k="ADDRESS" v="Brekkeåsveien 20, 3178 VÅLE" />
		<tag k="amenity" v="kindergarten" />
		<tag k="capacity" v="9" />
		<tag k="max_age" v="5" />
		<tag k="min_age" v="1" />
		<tag k="name" v="Ole Brumm familiebarnehage Eirik Silseth" />
		<tag k="no-barnehage:nsrid" v="983722474" />
		<tag k="operator" v="Ole Brumm Familiebarnehage Eirik Silseth" />
		<tag k="operator:type" v="private" />
	</node>
	<node id="-3502" lat="59.3582" lon="10.2514">
		<tag k="ADDRESS" v="Brårveien 187, 3175 RAMNES" />
		<tag k="amenity" v="kindergarten" />
		<tag k="capacity" v="9" />
		<tag k="contact:website" v="http://smittogsmulefamiliebarnehage.no" />
		<tag k="max_age" v="5" />
		<tag k="min_age" v="1" />
		<tag k="name" v="Smitt og Smule familiebarnehage Janne Kihle" />
		<tag k="no-barnehage:nsrid" v="988992054" />
		<tag k="operator" v="Smitt og Smule Familiebarnehage Janne Kihle" />
		<tag k="operator:type" v="private" />
	</node>
</osm>
