<?xml version="1.0" encoding="UTF-8"?>
<osm version="0.6" generator="osmapis">
	<node lat="68.58541" lon="14.91079" id="-1666">
		<tag k="ADDRESS" v="Sjyveien 3, 8450 STOKMARKNES" />
		<tag k="amenity" v="kindergarten" />
		<tag k="capacity" v="30" />
		<tag k="max_age" v="5" />
		<tag k="min_age" v="1" />
		<tag k="name" v="Aspåsen barnehage" />
		<tag k="no-barnehage:nsrid" v="873353252" />
		<tag k="operator" v="Aspåsen barnehage SA" />
		<tag k="operator:type" v="private" />
	</node>
	<node lat="0.0" lon="0.0" id="-1667">
		<tag k="ADDRESS" v=", 8450 STOKMARKNES" />
		<tag k="amenity" v="kindergarten" />
		<tag k="capacity" v="15" />
		<tag k="contact:website" v="http://www.barnehageforum.no" />
		<tag k="max_age" v="5" />
		<tag k="min_age" v="1" />
		<tag k="name" v="Grytting barnehage" />
		<tag k="no-barnehage:nsrid" v="973484486" />
		<tag k="operator" v="Grytting barnehage SA" />
		<tag k="operator:type" v="private" />
	</node>
	<node lat="68.50278" lon="14.80453" id="-1668">
		<tag k="ADDRESS" v="Idrettsveien 17, 8445 MELBU" />
		<tag k="amenity" v="kindergarten" />
		<tag k="capacity" v="58" />
		<tag k="contact:website" v="http://www.hoppensprett.no/Barnehager/Vaare-barnehager/Hadsel-kommune/Hoppensprett-Melbu-Barnehage" />
		<tag k="max_age" v="5" />
		<tag k="min_age" v="1" />
		<tag k="name" v="Hoppensprett Melbu" />
		<tag k="no-barnehage:nsrid" v="974184362" />
		<tag k="operator" v="Hoppensprett Melbu AS" />
		<tag k="operator:type" v="private" />
	</node>
	<node lat="68.56203" lon="14.90306" id="-1669">
		<tag k="ADDRESS" v="Kirsten Thodes gate 5, 8450 STOKMARKNES" />
		<tag k="amenity" v="kindergarten" />
		<tag k="capacity" v="52" />
		<tag k="max_age" v="5" />
		<tag k="min_age" v="1" />
		<tag k="name" v="Hoppensprett Stokmarknes" />
		<tag k="no-barnehage:nsrid" v="974283956" />
		<tag k="operator" v="Hoppensprett Stokmarknes AS" />
		<tag k="operator:type" v="private" />
	</node>
	<node lat="0.0" lon="0.0" id="-1670">
		<tag k="ADDRESS" v=", 8414 HENNES" />
		<tag k="amenity" v="kindergarten" />
		<tag k="capacity" v="4" />
		<tag k="max_age" v="5" />
		<tag k="min_age" v="3" />
		<tag k="name" v="Innlandet barnehage" />
		<tag k="no-barnehage:nsrid" v="993397970" />
		<tag k="operator" v="Hadsel kommune" />
		<tag k="operator:type" v="public" />
	</node>
	<node lat="68.50327" lon="14.80152" id="-1671">
		<tag k="ADDRESS" v="M. Frederiksens alle 2, 8445 MELBU" />
		<tag k="amenity" v="kindergarten" />
		<tag k="capacity" v="47" />
		<tag k="max_age" v="5" />
		<tag k="min_age" v="1" />
		<tag k="name" v="Melbu barnehage" />
		<tag k="no-barnehage:nsrid" v="974052571" />
		<tag k="operator" v="Hadsel kommune" />
		<tag k="operator:type" v="public" />
	</node>
	<node lat="68.49908" lon="14.79173" id="-1672">
		<tag k="ADDRESS" v="Sjøgata 20, 8445 MELBU" />
		<tag k="amenity" v="kindergarten" />
		<tag k="capacity" v="29" />
		<tag k="max_age" v="5" />
		<tag k="min_age" v="1" />
		<tag k="name" v="Norlandia Sjøstjerna barnehage" />
		<tag k="no-barnehage:nsrid" v="974187663" />
		<tag k="operator" v="Norlandia barnehagene AS" />
		<tag k="operator:type" v="private" />
	</node>
	<node lat="0.0" lon="0.0" id="-1673">
		<tag k="ADDRESS" v=", 8317 STRØNSTAD" />
		<tag k="amenity" v="kindergarten" />
		<tag k="capacity" v="4" />
		<tag k="max_age" v="5" />
		<tag k="min_age" v="1" />
		<tag k="name" v="Strandlandet barnehage" />
		<tag k="no-barnehage:nsrid" v="993397997" />
		<tag k="operator" v="Hadsel kommune" />
		<tag k="operator:type" v="public" />
	</node>
	<node lat="68.55745" lon="14.91021" id="-1674">
		<tag k="ADDRESS" v="Ivar Bergsmos gate 15, 8450 STOKMARKNES" />
		<tag k="amenity" v="kindergarten" />
		<tag k="capacity" v="111" />
		<tag k="max_age" v="5" />
		<tag k="min_age" v="1" />
		<tag k="name" v="Søndre barnehage" />
		<tag k="no-barnehage:nsrid" v="974052423" />
		<tag k="operator" v="Hadsel kommune" />
		<tag k="operator:type" v="public" />
	</node>
	<node lat="68.56004" lon="14.89969" id="-1675">
		<tag k="ADDRESS" v="Sommarfjøsbakken 19, 8450 STOKMARKNES" />
		<tag k="amenity" v="kindergarten" />
		<tag k="capacity" v="39" />
		<tag k="max_age" v="5" />
		<tag k="min_age" v="1" />
		<tag k="name" v="Tumlebo barnehage" />
		<tag k="no-barnehage:nsrid" v="973470175" />
		<tag k="operator" v="Tumlebo barnehage SA" />
		<tag k="operator:type" v="private" />
	</node>
</osm>
