<?xml version="1.0" encoding="UTF-8"?>
<osm generator="osmapis" version="0.6">
	<node id="-5752" lat="68.56004" lon="14.89969">
		<tag k="amenity" v="kindergarten" />
		<tag k="capacity" v="30" />
		<tag k="contact:email" v="bodil.vestgaard@trollfjord.no" />
		<tag k="max_age" v="5" />
		<tag k="min_age" v="1" />
		<tag k="name" v="Tumlebo barnehage Sa" />
		<tag k="no-barnehage:nsrid" v="1019809" />
		<tag k="operator" v="Tumlebo barnehage Sa" />
		<tag k="operator:type" v="private" />
		<tag k="start_date" v="1989-01-01" />
	</node>
	<node id="-5751" lat="68.5648" lon="14.9099">
		<tag k="amenity" v="kindergarten" />
		<tag k="capacity" v="53" />
		<tag k="contact:email" v="postmottak@hadsel.kommune.no" />
		<tag k="contact:phone" v="76 16 45 45" />
		<tag k="max_age" v="5" />
		<tag k="min_age" v="1" />
		<tag k="name" v="Søndre barnehage" />
		<tag k="no-barnehage:nsrid" v="1016145" />
		<tag k="operator" v="Hadsel kommune" />
		<tag k="operator:type" v="public" />
		<tag k="start_date" v="1989-01-01" />
	</node>
	<node id="-5750" lat="68.4356" lon="14.7411">
		<tag k="amenity" v="kindergarten" />
		<tag k="capacity" v="8" />
		<tag k="contact:email" v="postmottak@hadsel.kommune.no" />
		<tag k="contact:phone" v="76164520" />
		<tag k="max_age" v="5" />
		<tag k="min_age" v="1" />
		<tag k="name" v="Strandlandet barnehage" />
		<tag k="no-barnehage:nsrid" v="1018523" />
		<tag k="operator" v="Hadsel kommune" />
		<tag k="operator:type" v="public" />
		<tag k="start_date" v="2008-08-01" />
	</node>
	<node id="-5749" lat="68.56599" lon="14.90883">
		<tag k="amenity" v="kindergarten" />
		<tag k="capacity" v="21" />
		<tag k="contact:email" v="solheimbarnehage@trollfjord.no" />
		<tag k="contact:phone" v="088521950" />
		<tag k="max_age" v="5" />
		<tag k="min_age" v="1" />
		<tag k="name" v="Solheim barnehage Sa" />
		<tag k="no-barnehage:nsrid" v="1019829" />
		<tag k="operator" v="Solheim barnehage Sa" />
		<tag k="operator:type" v="private" />
		<tag k="start_date" v="1989-01-02" />
	</node>
	<node id="-5748" lat="68.49908" lon="14.79173">
		<tag k="amenity" v="kindergarten" />
		<tag k="capacity" v="33" />
		<tag k="contact:phone" v="76 15 72 19" />
		<tag k="max_age" v="5" />
		<tag k="min_age" v="1" />
		<tag k="name" v="Sjøstjerna barnehage" />
		<tag k="no-barnehage:nsrid" v="1020524" />
		<tag k="operator" v="Norlandia Barnehagene AS" />
		<tag k="operator:type" v="private" />
		<tag k="start_date" v="1989-01-02" />
	</node>
	<node id="-5747" lat="68.5033" lon="14.8015">
		<tag k="amenity" v="kindergarten" />
		<tag k="capacity" v="49" />
		<tag k="contact:email" v="postmottak@hadsel.kommune.no" />
		<tag k="contact:phone" v="76 16 47 00" />
		<tag k="max_age" v="5" />
		<tag k="min_age" v="1" />
		<tag k="name" v="Melbu barnehage" />
		<tag k="no-barnehage:nsrid" v="1016146" />
		<tag k="operator" v="Hadsel kommune" />
		<tag k="operator:type" v="public" />
		<tag k="start_date" v="1976-01-01" />
	</node>
	<node id="-5746" lat="68.56124" lon="14.9264">
		<tag k="amenity" v="kindergarten" />
		<tag k="capacity" v="52" />
		<tag k="max_age" v="5" />
		<tag k="min_age" v="1" />
		<tag k="name" v="Lille-Børøya barnehage AS" />
		<tag k="no-barnehage:nsrid" v="1022293" />
		<tag k="operator" v="Lille-Børøya barnehage AS" />
		<tag k="operator:type" v="private" />
		<tag k="start_date" v="2012-06-06" />
	</node>
	<node id="-5745" lat="68.5314" lon="15.2203">
		<tag k="amenity" v="kindergarten" />
		<tag k="capacity" v="11" />
		<tag k="contact:email" v="postmottak@hadsel.kommune.no" />
		<tag k="contact:phone" v="76164530" />
		<tag k="max_age" v="5" />
		<tag k="min_age" v="1" />
		<tag k="name" v="Innlandet barnehage" />
		<tag k="no-barnehage:nsrid" v="1018522" />
		<tag k="operator" v="Hadsel kommune" />
		<tag k="operator:type" v="public" />
		<tag k="start_date" v="2008-08-01" />
	</node>
	<node id="-5744" lat="68.56203" lon="14.90306">
		<tag k="amenity" v="kindergarten" />
		<tag k="capacity" v="29" />
		<tag k="max_age" v="5" />
		<tag k="min_age" v="1" />
		<tag k="name" v="Hoppensprett Stokmarknes AS" />
		<tag k="no-barnehage:nsrid" v="1022404" />
		<tag k="operator" v="Hoppensprett Stokmarknes AS" />
		<tag k="operator:type" v="private" />
		<tag k="start_date" v="1989-01-02" />
	</node>
	<node id="-5743" lat="68.50431" lon="14.81378">
		<tag k="amenity" v="kindergarten" />
		<tag k="capacity" v="25" />
		<tag k="max_age" v="2" />
		<tag k="min_age" v="1" />
		<tag k="name" v="Hoppensprett Nordland AS" />
		<tag k="no-barnehage:nsrid" v="1022331" />
		<tag k="operator" v="Hoppensprett Nordland AS" />
		<tag k="operator:type" v="private" />
		<tag k="start_date" v="2013-01-02" />
	</node>
	<node id="-5742" lat="68.50431" lon="14.81378">
		<tag k="amenity" v="kindergarten" />
		<tag k="capacity" v="22" />
		<tag k="contact:phone" v="76 15 80 72" />
		<tag k="contact:website" v="http://www.skogenbarnehage.com" />
		<tag k="max_age" v="5" />
		<tag k="min_age" v="1" />
		<tag k="name" v="Hoppensprett Melbu AS" />
		<tag k="no-barnehage:nsrid" v="1022341" />
		<tag k="operator" v="Hoppensprett Melbu AS" />
		<tag k="operator:type" v="private" />
		<tag k="start_date" v="1989-01-02" />
	</node>
	<node id="-5741" lat="68.56483" lon="14.90987">
		<tag k="amenity" v="kindergarten" />
		<tag k="capacity" v="25" />
		<tag k="contact:email" v="grytting.barnehage@trollfjord.no" />
		<tag k="contact:phone" v="76 15 43 03" />
		<tag k="contact:website" v="http://www.barnehageforum.no" />
		<tag k="max_age" v="5" />
		<tag k="min_age" v="1" />
		<tag k="name" v="Grytting barnehage Sa" />
		<tag k="no-barnehage:nsrid" v="1019917" />
		<tag k="operator" v="Grytting barnehage Sa" />
		<tag k="operator:type" v="private" />
		<tag k="start_date" v="1990-08-13" />
	</node>
	<node id="-5740" lat="68.56831" lon="14.93594">
		<tag k="amenity" v="kindergarten" />
		<tag k="capacity" v="13" />
		<tag k="contact:phone" v="088518900" />
		<tag k="max_age" v="5" />
		<tag k="min_age" v="1" />
		<tag k="name" v="Børøya barnehage Sa" />
		<tag k="no-barnehage:nsrid" v="1019755" />
		<tag k="operator" v="Børøya barnehage Sa" />
		<tag k="operator:type" v="private" />
		<tag k="start_date" v="1989-01-02" />
	</node>
	<node id="-5739" lat="68.58541" lon="14.91079">
		<tag k="amenity" v="kindergarten" />
		<tag k="capacity" v="23" />
		<tag k="contact:phone" v="76 15 68 09" />
		<tag k="max_age" v="5" />
		<tag k="min_age" v="1" />
		<tag k="name" v="Aspåsen barnehage Sa" />
		<tag k="no-barnehage:nsrid" v="1021728" />
		<tag k="operator" v="Aspåsen barnehage Sa" />
		<tag k="operator:type" v="private" />
		<tag k="start_date" v="1979-01-01" />
	</node>
</osm>
