<?xml version="1.0" encoding="UTF-8"?>
<osm generator="osmapis" version="0.6">
	<node id="-283" lat="59.5003" lon="10.8443">
		<tag k="amenity" v="kindergarten" />
		<tag k="contact:email" v="silje.fagerli.hansen@valer-of.kommune.no" />
		<tag k="name" v="Våler Åpen barnehage" />
		<tag k="no-barnehage:nsrid" v="1013482" />
		<tag k="operator" v="Våler kommune" />
		<tag k="operator:type" v="public" />
		<tag k="start_date" v="2010-01-01" />
	</node>
	<node id="-282" lat="59.4232" lon="11.0133">
		<tag k="amenity" v="kindergarten" />
		<tag k="capacity" v="40" />
		<tag k="contact:email" v="gunn.iren.jorgensen@valer-of.kommune.no" />
		<tag k="max_age" v="5" />
		<tag k="min_age" v="1" />
		<tag k="name" v="Svinndal barnehage" />
		<tag k="no-barnehage:nsrid" v="1017522" />
		<tag k="operator" v="Våler kommune" />
		<tag k="operator:type" v="public" />
		<tag k="start_date" v="1988-04-01" />
	</node>
	<node id="-280" lat="59.4607" lon="10.7995">
		<tag k="amenity" v="kindergarten" />
		<tag k="capacity" v="56" />
		<tag k="contact:email" v="vak@nlmbhg.no" />
		<tag k="contact:phone" v="+47 69 28 83 38" />
		<tag k="max_age" v="5" />
		<tag k="min_age" v="1" />
		<tag k="name" v="Nlm Barnehagene AS Avd Våk Barnehage" />
		<tag k="no-barnehage:nsrid" v="1016187" />
		<tag k="operator" v="Nlm-Barnehagene AS" />
		<tag k="operator:type" v="private" />
		<tag k="start_date" v="1982-01-01" />
	</node>
	<node id="-279" lat="59.4951" lon="10.8516">
		<tag k="amenity" v="kindergarten" />
		<tag k="capacity" v="67" />
		<tag k="contact:email" v="tonjemaries@gmail.com" />
		<tag k="max_age" v="5" />
		<tag k="min_age" v="1" />
		<tag k="name" v="Læringsverkstedet barnehage Avd Doremi Våler" />
		<tag k="no-barnehage:nsrid" v="1017755" />
		<tag k="operator" v="Læringsverkstedet AS" />
		<tag k="operator:type" v="private" />
		<tag k="start_date" v="2007-04-17" />
	</node>
	<node id="-278" lat="59.49125" lon="10.85514">
		<tag k="amenity" v="kindergarten" />
		<tag k="capacity" v="61" />
		<tag k="contact:email" v="torill.myre@kirkebygden.no" />
		<tag k="contact:phone" v="+47 069287560" />
		<tag k="max_age" v="5" />
		<tag k="min_age" v="1" />
		<tag k="name" v="Kirkebygden barnehage" />
		<tag k="no-barnehage:nsrid" v="1019984" />
		<tag k="operator" v="Våler kommune" />
		<tag k="operator:type" v="public" />
		<tag k="start_date" v="1992-01-01" />
	</node>
	<node id="-277" lat="59.4675" lon="10.7829">
		<tag k="amenity" v="kindergarten" />
		<tag k="capacity" v="100" />
		<tag k="contact:email" v="linda.marie.ellingsen@valer-of.kommune.no" />
		<tag k="max_age" v="5" />
		<tag k="min_age" v="1" />
		<tag k="name" v="Augerød barnehage" />
		<tag k="no-barnehage:nsrid" v="1014169" />
		<tag k="operator" v="Våler kommune" />
		<tag k="operator:type" v="public" />
		<tag k="start_date" v="2010-06-01" />
	</node>
</osm>
