<?xml version="1.0" encoding="UTF-8"?>
<osm generator="osmapis" version="0.6">
	<node id="-2698" lat="59.53419" lon="10.34609">
		<tag k="amenity" v="kindergarten" />
		<tag k="capacity" v="32" />
		<tag k="contact:email" v="elisabeth@oddene.org" />
		<tag k="contact:phone" v="33 70 09 53" />
		<tag k="max_age" v="5" />
		<tag k="min_age" v="1" />
		<tag k="name" v="Vammen Friluftsbarnehage Elisabeth Oddene" />
		<tag k="no-barnehage:nsrid" v="1021070" />
		<tag k="operator" v="Vammen Friluftsbarnehage Elisabeth Oddene" />
		<tag k="operator:type" v="private" />
		<tag k="start_date" v="1999-08-01" />
	</node>
	<node id="-2697" lat="59.5804" lon="10.2477">
		<tag k="amenity" v="kindergarten" />
		<tag k="capacity" v="26" />
		<tag k="contact:email" v="cecilie.holter@sande-ve.kommune.no" />
		<tag k="max_age" v="5" />
		<tag k="min_age" v="1" />
		<tag k="name" v="Skafjellåsen barnehage" />
		<tag k="no-barnehage:nsrid" v="1012499" />
		<tag k="operator" v="Sande kommune" />
		<tag k="operator:type" v="public" />
		<tag k="start_date" v="1989-01-01" />
	</node>
	<node id="-2696" lat="59.5658" lon="10.2672">
		<tag k="amenity" v="kindergarten" />
		<tag k="capacity" v="114" />
		<tag k="contact:email" v="jahako@sande-ve.kommune.no" />
		<tag k="max_age" v="5" />
		<tag k="min_age" v="1" />
		<tag k="name" v="Nordre Jarlsberg barnehage" />
		<tag k="no-barnehage:nsrid" v="1018507" />
		<tag k="operator" v="Sande kommune" />
		<tag k="operator:type" v="public" />
		<tag k="start_date" v="2008-11-01" />
	</node>
	<node id="-2695" lat="59.6261" lon="10.2354">
		<tag k="amenity" v="kindergarten" />
		<tag k="capacity" v="42" />
		<tag k="contact:email" v="kontor@laringsverkstedet.no" />
		<tag k="max_age" v="5" />
		<tag k="min_age" v="1" />
		<tag k="name" v="Læringsverkstedet barnehage Avd Sande" />
		<tag k="no-barnehage:nsrid" v="1014180" />
		<tag k="operator" v="Læringsverkstedet AS" />
		<tag k="operator:type" v="private" />
		<tag k="start_date" v="2010-09-20" />
	</node>
	<node id="-2694" lat="59.5712" lon="10.2557">
		<tag k="amenity" v="kindergarten" />
		<tag k="capacity" v="40" />
		<tag k="contact:email" v="kontor@laringsverkstedet.no" />
		<tag k="max_age" v="5" />
		<tag k="min_age" v="1" />
		<tag k="name" v="Læringsverkstedet barnehage Avd Lersbrygga" />
		<tag k="no-barnehage:nsrid" v="1015118" />
		<tag k="operator" v="Læringsverkstedet AS" />
		<tag k="operator:type" v="private" />
		<tag k="start_date" v="2012-08-01" />
	</node>
	<node id="-2693" lat="59.1708" lon="10.1144">
		<tag k="amenity" v="kindergarten" />
		<tag k="capacity" v="76" />
		<tag k="contact:email" v="kari.neffati@velle.no" />
		<tag k="contact:phone" v="033316700" />
		<tag k="max_age" v="5" />
		<tag k="min_age" v="1" />
		<tag k="name" v="Kjeldås barnehage" />
		<tag k="no-barnehage:nsrid" v="1016030" />
		<tag k="operator" v="Velle Utvikling AS" />
		<tag k="operator:type" v="private" />
		<tag k="start_date" v="1994-08-01" />
	</node>
	<node id="-2692" lat="59.588" lon="10.2122">
		<tag k="amenity" v="kindergarten" />
		<tag k="capacity" v="93" />
		<tag k="contact:email" v="anne.gro.rojahn@sande-ve.kommune.no" />
		<tag k="max_age" v="5" />
		<tag k="min_age" v="1" />
		<tag k="name" v="Haga barnehage" />
		<tag k="no-barnehage:nsrid" v="1016035" />
		<tag k="operator" v="Sande kommune" />
		<tag k="operator:type" v="public" />
		<tag k="start_date" v="1976-01-01" />
	</node>
	<node id="-2691" lat="59.62115" lon="10.22134">
		<tag k="amenity" v="kindergarten" />
		<tag k="capacity" v="78" />
		<tag k="contact:email" v="styrer.galleberg@barnehage.no" />
		<tag k="contact:phone" v="33 77 78 82" />
		<tag k="contact:website" v="http://www.galleberg.barnehage.no" />
		<tag k="max_age" v="5" />
		<tag k="min_age" v="1" />
		<tag k="name" v="Galleberg barnehage Sa" />
		<tag k="no-barnehage:nsrid" v="1020775" />
		<tag k="operator" v="Galleberg barnehage Sa" />
		<tag k="operator:type" v="private" />
		<tag k="start_date" v="2002-12-01" />
	</node>
</osm>
