<?xml version="1.0" encoding="UTF-8"?>
<osm generator="osmapis" version="0.6">
	<node id="-5623" lat="66.0799" lon="13.8394">
		<tag k="amenity" v="kindergarten" />
		<tag k="capacity" v="23" />
		<tag k="contact:phone" v="75191182" />
		<tag k="max_age" v="5" />
		<tag k="min_age" v="1" />
		<tag k="name" v="Tømmerheia Naturbarnehage" />
		<tag k="no-barnehage:nsrid" v="1012570" />
		<tag k="operator" v="Hemnes kommune" />
		<tag k="operator:type" v="public" />
		<tag k="start_date" v="1992-08-01" />
	</node>
	<node id="-5622" lat="65.9085" lon="13.8072">
		<tag k="amenity" v="kindergarten" />
		<tag k="capacity" v="11" />
		<tag k="contact:phone" v="75197590" />
		<tag k="max_age" v="5" />
		<tag k="min_age" v="1" />
		<tag k="name" v="Sørfjellet Gårds- og Friluftsbarnehage" />
		<tag k="no-barnehage:nsrid" v="1012533" />
		<tag k="operator" v="Hemnes kommune" />
		<tag k="operator:type" v="public" />
		<tag k="start_date" v="1989-01-01" />
	</node>
	<node id="-5621" lat="66.0777" lon="13.8114">
		<tag k="amenity" v="kindergarten" />
		<tag k="capacity" v="40" />
		<tag k="contact:phone" v="75197380" />
		<tag k="max_age" v="5" />
		<tag k="min_age" v="1" />
		<tag k="name" v="Korgen Fysak barnehage" />
		<tag k="no-barnehage:nsrid" v="1013663" />
		<tag k="operator" v="Hemnes kommune" />
		<tag k="operator:type" v="public" />
		<tag k="start_date" v="1989-01-01" />
	</node>
	<node id="-5620" lat="66.2258" lon="13.6149">
		<tag k="amenity" v="kindergarten" />
		<tag k="capacity" v="43" />
		<tag k="contact:phone" v="75197370" />
		<tag k="max_age" v="5" />
		<tag k="min_age" v="1" />
		<tag k="name" v="Hemnes barnehage" />
		<tag k="no-barnehage:nsrid" v="1013662" />
		<tag k="operator" v="Hemnes kommune" />
		<tag k="operator:type" v="public" />
		<tag k="start_date" v="1989-01-01" />
	</node>
	<node id="-5619" lat="66.2316" lon="13.6432">
		<tag k="amenity" v="kindergarten" />
		<tag k="capacity" v="13" />
		<tag k="max_age" v="5" />
		<tag k="min_age" v="1" />
		<tag k="name" v="Frikultbarnehagen-Hemnes" />
		<tag k="no-barnehage:nsrid" v="1018377" />
		<tag k="operator" v="Frikultbarnehagen AS" />
		<tag k="operator:type" v="private" />
		<tag k="start_date" v="2001-08-01" />
	</node>
	<node id="-5618" lat="66.1864" lon="13.7892">
		<tag k="amenity" v="kindergarten" />
		<tag k="capacity" v="32" />
		<tag k="contact:phone" v="75 19 71 76" />
		<tag k="max_age" v="5" />
		<tag k="min_age" v="1" />
		<tag k="name" v="Finneidfjord barnehage" />
		<tag k="no-barnehage:nsrid" v="1013661" />
		<tag k="operator" v="Hemnes kommune" />
		<tag k="operator:type" v="public" />
		<tag k="start_date" v="1989-01-01" />
	</node>
	<node id="-5617" lat="66.1455" lon="13.8397">
		<tag k="amenity" v="kindergarten" />
		<tag k="capacity" v="43" />
		<tag k="contact:phone" v="75197630" />
		<tag k="max_age" v="5" />
		<tag k="min_age" v="1" />
		<tag k="name" v="Bjerka barnehage" />
		<tag k="no-barnehage:nsrid" v="1013660" />
		<tag k="operator" v="Hemnes kommune" />
		<tag k="operator:type" v="public" />
		<tag k="start_date" v="1989-01-01" />
	</node>
</osm>
