<?xml version="1.0" encoding="UTF-8"?>
<osm generator="osmapis" version="0.6">
	<node id="-1074" lat="59.34324" lon="6.04203">
		<tag k="ADDRESS" v="Økstrafjordvegen 64, 4234 JELSA" />
		<tag k="amenity" v="kindergarten" />
		<tag k="capacity" v="13" />
		<tag k="max_age" v="5" />
		<tag k="min_age" v="1" />
		<tag k="name" v="Jelsa oppvekstsenter avd. barnehage" />
		<tag k="no-barnehage:nsrid" v="975300765" />
		<tag k="operator" v="Suldal kommune" />
		<tag k="operator:type" v="public" />
	</node>
	<node id="-1075" lat="59.40967" lon="6.01135">
		<tag k="ADDRESS" v="Kjølvikstølen 2, 4235 HEBNES" />
		<tag k="amenity" v="kindergarten" />
		<tag k="capacity" v="17" />
		<tag k="max_age" v="5" />
		<tag k="min_age" v="1" />
		<tag k="name" v="Kjølvikstølen barnehage" />
		<tag k="no-barnehage:nsrid" v="975308456" />
		<tag k="operator" v="Suldal kommune" />
		<tag k="operator:type" v="public" />
	</node>
	<node id="-1076" lat="59.64582" lon="6.80756">
		<tag k="ADDRESS" v="Skulevegen 59, 4244 NESFLATEN" />
		<tag k="amenity" v="kindergarten" />
		<tag k="capacity" v="5" />
		<tag k="max_age" v="5" />
		<tag k="min_age" v="3" />
		<tag k="name" v="Nesflaten oppvekstsenter avd. barnehage" />
		<tag k="no-barnehage:nsrid" v="875308432" />
		<tag k="operator" v="Suldal kommune" />
		<tag k="operator:type" v="public" />
	</node>
	<node id="-1077" lat="59.48704" lon="6.26242">
		<tag k="ADDRESS" v="Eidsvikvegen 1, 4230 SAND" />
		<tag k="amenity" v="kindergarten" />
		<tag k="capacity" v="37" />
		<tag k="max_age" v="5" />
		<tag k="min_age" v="1" />
		<tag k="name" v="Sand barnehage avd. Randåsen" />
		<tag k="no-barnehage:nsrid" v="875315722" />
		<tag k="operator" v="Suldal kommune" />
		<tag k="operator:type" v="public" />
	</node>
	<node id="-1078" lat="59.49414" lon="6.25847">
		<tag k="ADDRESS" v="Stegåsvegen 42, 4230 SAND" />
		<tag k="amenity" v="kindergarten" />
		<tag k="capacity" v="40" />
		<tag k="max_age" v="5" />
		<tag k="min_age" v="1" />
		<tag k="name" v="Sand barnehage avd. Joagarden" />
		<tag k="no-barnehage:nsrid" v="975308448" />
		<tag k="operator" v="Suldal kommune" />
		<tag k="operator:type" v="public" />
	</node>
	<node id="-1079" lat="59.34538" lon="6.20578">
		<tag k="ADDRESS" v="Stølane 33, 4233 ERFJORD" />
		<tag k="amenity" v="kindergarten" />
		<tag k="capacity" v="23" />
		<tag k="max_age" v="5" />
		<tag k="min_age" v="1" />
		<tag k="name" v="Stølane barnehage" />
		<tag k="no-barnehage:nsrid" v="975299228" />
		<tag k="operator" v="Suldal kommune" />
		<tag k="operator:type" v="public" />
	</node>
	<node id="-1080" lat="59.54799" lon="6.3621">
		<tag k="ADDRESS" v="Vanvikvegen 1665, 4209 VANVIK" />
		<tag k="amenity" v="kindergarten" />
		<tag k="capacity" v="5" />
		<tag k="max_age" v="5" />
		<tag k="min_age" v="1" />
		<tag k="name" v="Vanvik oppvekstsenter avd. barnehage" />
		<tag k="no-barnehage:nsrid" v="979352581" />
		<tag k="operator" v="Suldal kommune" />
		<tag k="operator:type" v="public" />
	</node>
	<node id="-1081" lat="59.48835" lon="6.49615">
		<tag k="ADDRESS" v="Suldalsvegen 1497, 4237 SULDALSOSEN" />
		<tag k="amenity" v="kindergarten" />
		<tag k="capacity" v="53" />
		<tag k="max_age" v="5" />
		<tag k="min_age" v="1" />
		<tag k="name" v="Vinjar barnehage" />
		<tag k="no-barnehage:nsrid" v="975314634" />
		<tag k="operator" v="Suldal kommune" />
		<tag k="operator:type" v="public" />
	</node>
</osm>
