<?xml version="1.0" encoding="UTF-8"?>
<osm generator="osmapis" version="0.6">
	<node id="-3742" lat="59.4924" lon="6.51664">
		<tag k="amenity" v="kindergarten" />
		<tag k="capacity" v="63" />
		<tag k="contact:email" v="ingvild.tveiten@suldal.kommune.no" />
		<tag k="contact:phone" v="52790910" />
		<tag k="max_age" v="5" />
		<tag k="min_age" v="1" />
		<tag k="name" v="Vinjar barnehage" />
		<tag k="no-barnehage:nsrid" v="1013749" />
		<tag k="operator" v="Suldal kommune" />
		<tag k="operator:type" v="public" />
		<tag k="start_date" v="1989-01-01" />
	</node>
	<node id="-3741" lat="59.5438" lon="6.35906">
		<tag k="amenity" v="kindergarten" />
		<tag k="capacity" v="4" />
		<tag k="contact:email" v="tore.bastlien.dahl@suldal.kommune.no" />
		<tag k="contact:phone" v="52794213" />
		<tag k="max_age" v="5" />
		<tag k="min_age" v="1" />
		<tag k="name" v="Vanvik Oppvekstsenter Avd Barnehage" />
		<tag k="no-barnehage:nsrid" v="1015590" />
		<tag k="operator" v="Suldal kommune" />
		<tag k="operator:type" v="public" />
		<tag k="start_date" v="1997-03-01" />
	</node>
	<node id="-3740" lat="59.6333" lon="6.8">
		<tag k="amenity" v="kindergarten" />
		<tag k="capacity" v="11" />
		<tag k="contact:email" v="hilde.jorunn.vetrhus@suldal.kommune.no" />
		<tag k="contact:phone" v="52790980" />
		<tag k="max_age" v="5" />
		<tag k="min_age" v="1" />
		<tag k="name" v="Nesflaten Oppvekstsenter Avd barnehage" />
		<tag k="no-barnehage:nsrid" v="1012506" />
		<tag k="operator" v="Suldal kommune" />
		<tag k="operator:type" v="public" />
		<tag k="start_date" v="1989-01-01" />
	</node>
</osm>
