<?xml version="1.0" encoding="UTF-8"?>
<osm version="0.6" generator="osmapis">
	<node lat="68.57915" lon="16.58427" id="-5295">
		<tag k="ADDRESS" v="Skoleveien 9, 9440 EVENSKJER" />
		<tag k="amenity" v="kindergarten" />
		<tag k="capacity" v="57" />
		<tag k="max_age" v="5" />
		<tag k="min_age" v="1" />
		<tag k="name" v="Evenskjer barnehage" />
		<tag k="no-barnehage:nsrid" v="975313387" />
		<tag k="operator" v="Dielddanuori Suohkan - Tjeldsund kommune" />
		<tag k="operator:type" v="public" />
	</node>
	<node lat="68.54689" lon="16.50916" id="-5296">
		<tag k="ADDRESS" v="Fjelldalsveien 368, 9441 FJELLDAL" />
		<tag k="amenity" v="kindergarten" />
		<tag k="capacity" v="18" />
		<tag k="max_age" v="5" />
		<tag k="min_age" v="1" />
		<tag k="name" v="Kanutten barnehage" />
		<tag k="no-barnehage:nsrid" v="973476068" />
		<tag k="operator" v="Dielddanuori Suohkan - Tjeldsund kommune" />
		<tag k="operator:type" v="public" />
	</node>
	<node lat="68.56574" lon="16.25514" id="-5297">
		<tag k="ADDRESS" v="Klungnesveien 1, 9436 KONGSVIK" />
		<tag k="amenity" v="kindergarten" />
		<tag k="capacity" v="24" />
		<tag k="max_age" v="5" />
		<tag k="min_age" v="1" />
		<tag k="name" v="Kongsvik barnehage" />
		<tag k="no-barnehage:nsrid" v="874050652" />
		<tag k="operator" v="Dielddanuori Suohkan - Tjeldsund kommune" />
		<tag k="operator:type" v="public" />
	</node>
	<node lat="68.49222" lon="16.52069" id="-5298">
		<tag k="ADDRESS" v="MÃ¸lnvollen 4, 9442 RAMSUND" />
		<tag k="amenity" v="kindergarten" />
		<tag k="capacity" v="21" />
		<tag k="max_age" v="5" />
		<tag k="min_age" v="1" />
		<tag k="name" v="Ramsund barnehage" />
		<tag k="no-barnehage:nsrid" v="975313077" />
		<tag k="operator" v="Dielddanuori Suohkan - Tjeldsund kommune" />
		<tag k="operator:type" v="public" />
	</node>
	<node lat="68.67498" lon="17.13467" id="-5299">
		<tag k="ADDRESS" v="Stormyrveien 13, 9446 GROVFJORD" />
		<tag k="amenity" v="kindergarten" />
		<tag k="capacity" v="16" />
		<tag k="max_age" v="5" />
		<tag k="min_age" v="1" />
		<tag k="name" v="Ressan barnehage" />
		<tag k="no-barnehage:nsrid" v="975313395" />
		<tag k="operator" v="Dielddanuori Suohkan - Tjeldsund kommune" />
		<tag k="operator:type" v="public" />
	</node>
	<node lat="68.68256" lon="16.79739" id="-5300">
		<tag k="ADDRESS" v="Sandstrand 144, 9445 TOVIK" />
		<tag k="amenity" v="kindergarten" />
		<tag k="capacity" v="8" />
		<tag k="max_age" v="5" />
		<tag k="min_age" v="1" />
		<tag k="name" v="Sandstrand oppvekstsenter avd. barnehage" />
		<tag k="no-barnehage:nsrid" v="975320278" />
		<tag k="operator" v="Dielddanuori Suohkan - Tjeldsund kommune" />
		<tag k="operator:type" v="public" />
	</node>
	<node lat="68.53559" lon="16.74642" id="-5301">
		<tag k="ADDRESS" v="Indre Planterhaugen 33, 9440 EVENSKJER" />
		<tag k="amenity" v="kindergarten" />
		<tag k="capacity" v="16" />
		<tag k="max_age" v="5" />
		<tag k="min_age" v="1" />
		<tag k="name" v="Vardobaiki Markomanak barnehage" />
		<tag k="no-barnehage:nsrid" v="973470612" />
		<tag k="operator" v="Vardobaiki AS" />
		<tag k="operator:type" v="private" />
	</node>
</osm>
