<?xml version="1.0" encoding="UTF-8"?>
<osm generator="osmapis" version="0.6">
	<node id="-5983" lat="70.0726" lon="19.9821">
		<tag k="amenity" v="kindergarten" />
		<tag k="capacity" v="9" />
		<tag k="max_age" v="5" />
		<tag k="min_age" v="1" />
		<tag k="name" v="Vannvåg barnehage" />
		<tag k="no-barnehage:nsrid" v="1012731" />
		<tag k="operator" v="Karlsøy kommune" />
		<tag k="operator:type" v="public" />
		<tag k="start_date" v="1989-01-02" />
	</node>
	<node id="-5982" lat="70.2004" lon="19.6052">
		<tag k="amenity" v="kindergarten" />
		<tag k="capacity" v="12" />
		<tag k="max_age" v="5" />
		<tag k="min_age" v="1" />
		<tag k="name" v="Vannareid Oppvekstsenter Avd Barnehage" />
		<tag k="no-barnehage:nsrid" v="1012730" />
		<tag k="operator" v="Karlsøy kommune" />
		<tag k="operator:type" v="public" />
		<tag k="start_date" v="1989-01-01" />
	</node>
	<node id="-5981" lat="69.9595" lon="19.6874">
		<tag k="amenity" v="kindergarten" />
		<tag k="capacity" v="3" />
		<tag k="max_age" v="5" />
		<tag k="min_age" v="1" />
		<tag k="name" v="Stakkvik barnehage" />
		<tag k="no-barnehage:nsrid" v="1016308" />
		<tag k="operator" v="Karlsøy kommune" />
		<tag k="operator:type" v="public" />
		<tag k="start_date" v="2001-08-13" />
	</node>
	<node id="-5980" lat="69.9624" lon="19.6186">
		<tag k="amenity" v="kindergarten" />
		<tag k="capacity" v="31" />
		<tag k="max_age" v="5" />
		<tag k="min_age" v="1" />
		<tag k="name" v="Hansnes barnehage" />
		<tag k="no-barnehage:nsrid" v="1012729" />
		<tag k="operator" v="Karlsøy kommune" />
		<tag k="operator:type" v="public" />
		<tag k="start_date" v="1989-01-01" />
	</node>
	<node id="-5979" lat="69.9624" lon="19.6186">
		<tag k="amenity" v="kindergarten" />
		<tag k="capacity" v="22" />
		<tag k="max_age" v="5" />
		<tag k="min_age" v="1" />
		<tag k="name" v="Gamnes barnehage" />
		<tag k="no-barnehage:nsrid" v="1012728" />
		<tag k="operator" v="Karlsøy kommune" />
		<tag k="operator:type" v="public" />
		<tag k="start_date" v="1989-01-01" />
	</node>
</osm>
