<?xml version="1.0" encoding="UTF-8"?>
<osm version="0.6" generator="osmapis">
	<node lat="61.28485" lon="4.61903" id="-4599">
		<tag k="ADDRESS" v="Nordsjøvegen 1088, 6987 BULANDET" />
		<tag k="amenity" v="kindergarten" />
		<tag k="capacity" v="17" />
		<tag k="max_age" v="5" />
		<tag k="min_age" v="1" />
		<tag k="name" v="Bulandet barnehage" />
		<tag k="no-barnehage:nsrid" v="975300501" />
		<tag k="operator" v="Askvoll kommune" />
		<tag k="operator:type" v="public" />
	</node>
	<node lat="0.0" lon="0.0" id="-4600">
		<tag k="ADDRESS" v=", 6983 KVAMMEN" />
		<tag k="amenity" v="kindergarten" />
		<tag k="capacity" v="16" />
		<tag k="max_age" v="5" />
		<tag k="min_age" v="1" />
		<tag k="name" v="Gjelsvik barnehage" />
		<tag k="no-barnehage:nsrid" v="975297128" />
		<tag k="operator" v="Askvoll kommune" />
		<tag k="operator:type" v="public" />
	</node>
	<node lat="61.35775" lon="5.18087" id="-4601">
		<tag k="ADDRESS" v="Haugane 1, 6982 HOLMEDAL" />
		<tag k="amenity" v="kindergarten" />
		<tag k="capacity" v="27" />
		<tag k="max_age" v="5" />
		<tag k="min_age" v="1" />
		<tag k="name" v="Holmedal barnehage" />
		<tag k="no-barnehage:nsrid" v="975309878" />
		<tag k="operator" v="Askvoll kommune" />
		<tag k="operator:type" v="public" />
	</node>
	<node lat="61.32598" lon="5.02437" id="-4602">
		<tag k="ADDRESS" v="Sauesundet 102, 6985 ATLØY" />
		<tag k="amenity" v="kindergarten" />
		<tag k="capacity" v="17" />
		<tag k="max_age" v="5" />
		<tag k="min_age" v="1" />
		<tag k="name" v="Nipa barnehage" />
		<tag k="no-barnehage:nsrid" v="875300512" />
		<tag k="operator" v="Askvoll kommune" />
		<tag k="operator:type" v="public" />
	</node>
	<node lat="61.34904" lon="5.0726" id="-4603">
		<tag k="ADDRESS" v="Prestemarka 4, 6980 ASKVOLL" />
		<tag k="amenity" v="kindergarten" />
		<tag k="capacity" v="55" />
		<tag k="max_age" v="5" />
		<tag k="min_age" v="1" />
		<tag k="name" v="Røverompa barnehage" />
		<tag k="no-barnehage:nsrid" v="975268039" />
		<tag k="operator" v="Askvoll kommune" />
		<tag k="operator:type" v="public" />
	</node>
</osm>
