<?xml version="1.0" encoding="UTF-8"?>
<osm version="0.6" generator="osmapis">
	<node lat="60.81202" lon="11.0568" id="-2954">
		<tag k="ADDRESS" v="Aluvegen 91b, 2319 HAMAR" />
		<tag k="amenity" v="kindergarten" />
		<tag k="capacity" v="9" />
		<tag k="max_age" v="2" />
		<tag k="min_age" v="1" />
		<tag k="name" v="Ajer gårds og familiebarnehage" />
		<tag k="no-barnehage:nsrid" v="990681457" />
		<tag k="operator" v="Regnbuen Familiebarnehage V/sara Victoria Bjørge Goldsack" />
		<tag k="operator:type" v="private" />
	</node>
	<node lat="60.79474" lon="11.08861" id="-2958">
		<tag k="ADDRESS" v="Enerhaugvegen 8A, 2321 HAMAR" />
		<tag k="amenity" v="kindergarten" />
		<tag k="capacity" v="9" />
		<tag k="max_age" v="2" />
		<tag k="min_age" v="1" />
		<tag k="name" v="Briskebyen Montessori International avd. Enerhaugvegen" />
		<tag k="no-barnehage:nsrid" v="928291731" />
		<tag k="operator" v="Briskebyen Montessori International AS" />
		<tag k="operator:type" v="private" />
	</node>
</osm>
