<?xml version="1.0" encoding="UTF-8"?>
<osm version="0.6" generator="osmapis">
	<node lat="0.0" lon="0.0" id="-2953">
		<tag k="ADDRESS" v="Lilleajervegen 6, 2319 HAMAR" />
		<tag k="amenity" v="kindergarten" />
		<tag k="capacity" v="42" />
		<tag k="max_age" v="5" />
		<tag k="min_age" v="1" />
		<tag k="name" v="Ajer barnehage" />
		<tag k="no-barnehage:nsrid" v="975302164" />
		<tag k="operator" v="Hamar kommune" />
		<tag k="operator:type" v="public" />
	</node>
	<node lat="60.7988" lon="11.07378" id="-2955">
		<tag k="ADDRESS" v="Ole Bulls gate 31, 2318 HAMAR" />
		<tag k="amenity" v="kindergarten" />
		<tag k="capacity" v="26" />
		<tag k="max_age" v="5" />
		<tag k="min_age" v="1" />
		<tag k="name" v="Ankerløkken barnehage" />
		<tag k="no-barnehage:nsrid" v="975298868" />
		<tag k="operator" v="Hamar kommune" />
		<tag k="operator:type" v="public" />
	</node>
	<node lat="60.79918" lon="11.06046" id="-2956">
		<tag k="ADDRESS" v="Sangenvegen 51, 2315 HAMAR" />
		<tag k="amenity" v="kindergarten" />
		<tag k="capacity" v="85" />
		<tag k="max_age" v="5" />
		<tag k="min_age" v="1" />
		<tag k="name" v="Bambini montessoribarnehage" />
		<tag k="no-barnehage:nsrid" v="984904037" />
		<tag k="operator" v="Bambini montessoribarnehage AS" />
		<tag k="operator:type" v="private" />
	</node>
	<node lat="60.80844" lon="11.03259" id="-2957">
		<tag k="ADDRESS" v="Oline Holtmons veg 96, 2316 HAMAR" />
		<tag k="amenity" v="kindergarten" />
		<tag k="capacity" v="56" />
		<tag k="contact:website" v="http://www.blaaveisen.com" />
		<tag k="max_age" v="5" />
		<tag k="min_age" v="1" />
		<tag k="name" v="Blåveisen barnehage" />
		<tag k="no-barnehage:nsrid" v="972286397" />
		<tag k="operator" v="Blåveisen barnehage SA" />
		<tag k="operator:type" v="private" />
	</node>
	<node lat="60.7918" lon="11.0845" id="-2959">
		<tag k="ADDRESS" v="Stangevegen 52, 2317 HAMAR" />
		<tag k="amenity" v="kindergarten" />
		<tag k="capacity" v="42" />
		<tag k="max_age" v="5" />
		<tag k="min_age" v="1" />
		<tag k="name" v="Briskebyen Montessori International avd. Stangevegen" />
		<tag k="no-barnehage:nsrid" v="985202354" />
		<tag k="operator" v="Briskebyen Montessori International AS" />
		<tag k="operator:type" v="private" />
	</node>
	<node lat="60.82812" lon="11.12279" id="-2960">
		<tag k="ADDRESS" v="Gåsbuvegen 172, 2323 INGEBERG" />
		<tag k="amenity" v="kindergarten" />
		<tag k="capacity" v="93" />
		<tag k="max_age" v="5" />
		<tag k="min_age" v="1" />
		<tag k="name" v="Flekkenga natur- og gårdsbarnehage" />
		<tag k="no-barnehage:nsrid" v="992839902" />
		<tag k="operator" v="Flekkenga Natur- og gårdsbarnehage AS" />
		<tag k="operator:type" v="private" />
	</node>
	<node lat="60.81202" lon="11.0568" id="-2961">
		<tag k="ADDRESS" v="Aluvegen 91B, 2319 HAMAR" />
		<tag k="amenity" v="kindergarten" />
		<tag k="capacity" v="33" />
		<tag k="contact:website" v="http://www.hamarbooking.no" />
		<tag k="max_age" v="5" />
		<tag k="min_age" v="1" />
		<tag k="name" v="Hamar gårdsbarnehage Solfrid Bjørge Goldsack" />
		<tag k="no-barnehage:nsrid" v="989820109" />
		<tag k="operator" v="Hamar gårdsbarnehage Solfrid Bjørge Goldsack" />
		<tag k="operator:type" v="private" />
	</node>
	<node lat="60.7934" lon="11.08789" id="-2962">
		<tag k="ADDRESS" v="St. Olavs gate 103, 2321 HAMAR" />
		<tag k="amenity" v="kindergarten" />
		<tag k="capacity" v="63" />
		<tag k="contact:website" v="http://Hamar.barnehage.no" />
		<tag k="max_age" v="5" />
		<tag k="min_age" v="1" />
		<tag k="name" v="Hamarbarnehagen" />
		<tag k="no-barnehage:nsrid" v="994490664" />
		<tag k="operator" v="Hamarbarnehagen AS" />
		<tag k="operator:type" v="private" />
	</node>
	<node lat="60.79964" lon="11.09207" id="-2963">
		<tag k="ADDRESS" v="Oluf Melvolds gate 45, 2318 HAMAR" />
		<tag k="amenity" v="kindergarten" />
		<tag k="capacity" v="61" />
		<tag k="max_age" v="5" />
		<tag k="min_age" v="1" />
		<tag k="name" v="Hempa barnehage" />
		<tag k="no-barnehage:nsrid" v="975295753" />
		<tag k="operator" v="Hamar kommune" />
		<tag k="operator:type" v="public" />
	</node>
	<node lat="60.81615" lon="11.04322" id="-2964">
		<tag k="ADDRESS" v="Holsvegen 45, 2315 HAMAR" />
		<tag k="amenity" v="kindergarten" />
		<tag k="capacity" v="46" />
		<tag k="max_age" v="5" />
		<tag k="min_age" v="1" />
		<tag k="name" v="Hol barnehage" />
		<tag k="no-barnehage:nsrid" v="975302180" />
		<tag k="operator" v="Hamar kommune" />
		<tag k="operator:type" v="public" />
	</node>
	<node lat="60.80185" lon="11.1216" id="-2965">
		<tag k="ADDRESS" v="Åker alle 4, 2322 RIDABU" />
		<tag k="amenity" v="kindergarten" />
		<tag k="capacity" v="16" />
		<tag k="max_age" v="5" />
		<tag k="min_age" v="1" />
		<tag k="name" v="Hompetitten barnehage Ridabu" />
		<tag k="no-barnehage:nsrid" v="976610636" />
		<tag k="operator" v="Hompetitten barnehage Ridabu AS" />
		<tag k="operator:type" v="private" />
	</node>
	<node lat="60.80197" lon="11.08943" id="-2966">
		<tag k="ADDRESS" v="Edvard Munchs veg 54, 2318 HAMAR" />
		<tag k="amenity" v="kindergarten" />
		<tag k="capacity" v="61" />
		<tag k="max_age" v="5" />
		<tag k="min_age" v="1" />
		<tag k="name" v="Hvitveisen barnehage" />
		<tag k="no-barnehage:nsrid" v="972200913" />
		<tag k="operator" v="Hvitveisen barnehage SA" />
		<tag k="operator:type" v="private" />
	</node>
	<node lat="60.82928" lon="11.13301" id="-2967">
		<tag k="ADDRESS" v="Andevegen 15, 2323 INGEBERG" />
		<tag k="amenity" v="kindergarten" />
		<tag k="capacity" v="31" />
		<tag k="max_age" v="5" />
		<tag k="min_age" v="1" />
		<tag k="name" v="Ingeberg barnehage" />
		<tag k="no-barnehage:nsrid" v="975302334" />
		<tag k="operator" v="Hamar kommune" />
		<tag k="operator:type" v="public" />
	</node>
	<node lat="60.80592" lon="11.04475" id="-2968">
		<tag k="ADDRESS" v="Jønsrudvegen 20, 2315 HAMAR" />
		<tag k="amenity" v="kindergarten" />
		<tag k="capacity" v="47" />
		<tag k="max_age" v="5" />
		<tag k="min_age" v="1" />
		<tag k="name" v="Jønsrudløkka barnehage" />
		<tag k="no-barnehage:nsrid" v="875295772" />
		<tag k="operator" v="Hamar kommune" />
		<tag k="operator:type" v="public" />
	</node>
	<node lat="60.81185" lon="11.06451" id="-2969">
		<tag k="ADDRESS" v="Solplassvegen 22, 2319 HAMAR" />
		<tag k="amenity" v="kindergarten" />
		<tag k="capacity" v="62" />
		<tag k="max_age" v="5" />
		<tag k="min_age" v="1" />
		<tag k="name" v="Klukhagan barnehage" />
		<tag k="no-barnehage:nsrid" v="993001481" />
		<tag k="operator" v="Hamar kommune" />
		<tag k="operator:type" v="public" />
	</node>
	<node lat="60.79807" lon="11.0762" id="-2970">
		<tag k="ADDRESS" v="Kronborgvegen 14, 2318 HAMAR" />
		<tag k="amenity" v="kindergarten" />
		<tag k="capacity" v="48" />
		<tag k="max_age" v="5" />
		<tag k="min_age" v="1" />
		<tag k="name" v="Kronborg barnehage" />
		<tag k="no-barnehage:nsrid" v="997120973" />
		<tag k="operator" v="Hamar kommune" />
		<tag k="operator:type" v="public" />
	</node>
	<node lat="60.79692" lon="11.16555" id="-2971">
		<tag k="ADDRESS" v="Frognervegen 101, 2322 RIDABU" />
		<tag k="amenity" v="kindergarten" />
		<tag k="capacity" v="49" />
		<tag k="max_age" v="5" />
		<tag k="min_age" v="1" />
		<tag k="name" v="Lovisenberg barnehage" />
		<tag k="no-barnehage:nsrid" v="975302342" />
		<tag k="operator" v="Hamar kommune" />
		<tag k="operator:type" v="public" />
	</node>
	<node lat="60.80428" lon="11.0779" id="-2972">
		<tag k="ADDRESS" v="Brennbakkvegen 25, 2318 HAMAR" />
		<tag k="amenity" v="kindergarten" />
		<tag k="capacity" v="90" />
		<tag k="max_age" v="5" />
		<tag k="min_age" v="1" />
		<tag k="name" v="Lundbo barnehage" />
		<tag k="no-barnehage:nsrid" v="918303847" />
		<tag k="operator" v="Hamar kommune" />
		<tag k="operator:type" v="public" />
	</node>
	<node lat="60.79904" lon="11.03447" id="-2973">
		<tag k="ADDRESS" v="Kvitbekkgata 29, 2316 HAMAR" />
		<tag k="amenity" v="kindergarten" />
		<tag k="capacity" v="66" />
		<tag k="contact:website" v="http://www.minbarnehage.no/martoddenbh" />
		<tag k="max_age" v="5" />
		<tag k="min_age" v="1" />
		<tag k="name" v="Martodden barnehage" />
		<tag k="no-barnehage:nsrid" v="998883636" />
		<tag k="operator" v="Hamar kommune" />
		<tag k="operator:type" v="public" />
	</node>
	<node lat="60.85077" lon="11.19878" id="-2974">
		<tag k="ADDRESS" v="Greftenenga 43, 2324 VANG PÅ HEDMARKEN" />
		<tag k="amenity" v="kindergarten" />
		<tag k="capacity" v="49" />
		<tag k="max_age" v="5" />
		<tag k="min_age" v="1" />
		<tag k="name" v="Nerby" />
		<tag k="no-barnehage:nsrid" v="994064452" />
		<tag k="operator" v="Nerby AS" />
		<tag k="operator:type" v="private" />
	</node>
	<node lat="60.82156" lon="11.08679" id="-2975">
		<tag k="ADDRESS" v="Furnesvegen 217, 2319 HAMAR" />
		<tag k="amenity" v="kindergarten" />
		<tag k="capacity" v="29" />
		<tag k="max_age" v="5" />
		<tag k="min_age" v="1" />
		<tag k="name" v="Norsvin barnehage" />
		<tag k="no-barnehage:nsrid" v="994290614" />
		<tag k="operator" v="Norsvin barnehage AS" />
		<tag k="operator:type" v="private" />
	</node>
	<node lat="60.83548" lon="11.23341" id="-2976">
		<tag k="ADDRESS" v="Lageråvegen 113, 2324 VANG PÅ HEDMARKEN" />
		<tag k="amenity" v="kindergarten" />
		<tag k="capacity" v="30" />
		<tag k="max_age" v="5" />
		<tag k="min_age" v="1" />
		<tag k="name" v="Skramstad barnehage" />
		<tag k="no-barnehage:nsrid" v="975317595" />
		<tag k="operator" v="Hamar kommune" />
		<tag k="operator:type" v="public" />
	</node>
	<node lat="60.84738" lon="11.20146" id="-2977">
		<tag k="ADDRESS" v="Mælomsvegen 15, 2324 VANG PÅ HEDMARKEN" />
		<tag k="amenity" v="kindergarten" />
		<tag k="capacity" v="25" />
		<tag k="max_age" v="5" />
		<tag k="min_age" v="1" />
		<tag k="name" v="Slemsrud barnehage" />
		<tag k="no-barnehage:nsrid" v="975302350" />
		<tag k="operator" v="Hamar kommune" />
		<tag k="operator:type" v="public" />
	</node>
	<node lat="60.81292" lon="11.08678" id="-2978">
		<tag k="ADDRESS" v="Lekeparkvegen 9, 2319 HAMAR" />
		<tag k="amenity" v="kindergarten" />
		<tag k="capacity" v="48" />
		<tag k="max_age" v="5" />
		<tag k="min_age" v="1" />
		<tag k="name" v="Solvang barnehage" />
		<tag k="no-barnehage:nsrid" v="975302369" />
		<tag k="operator" v="Hamar kommune" />
		<tag k="operator:type" v="public" />
	</node>
	<node lat="60.81451" lon="11.17761" id="-2979">
		<tag k="ADDRESS" v="Vanglivegen 17, 2322 RIDABU" />
		<tag k="amenity" v="kindergarten" />
		<tag k="capacity" v="39" />
		<tag k="max_age" v="5" />
		<tag k="min_age" v="1" />
		<tag k="name" v="Vangli barnehage Al" />
		<tag k="no-barnehage:nsrid" v="973465384" />
		<tag k="operator" v="Vangli barnehage SA" />
		<tag k="operator:type" v="private" />
	</node>
	<node lat="60.80686" lon="11.03566" id="-2980">
		<tag k="ADDRESS" v="K.O.Bjerklis veg 3, 2316 HAMAR" />
		<tag k="amenity" v="kindergarten" />
		<tag k="capacity" v="47" />
		<tag k="max_age" v="5" />
		<tag k="min_age" v="1" />
		<tag k="name" v="Vestenga barnehage" />
		<tag k="no-barnehage:nsrid" v="975295192" />
		<tag k="operator" v="Hamar kommune" />
		<tag k="operator:type" v="public" />
	</node>
	<node lat="60.80387" lon="11.12576" id="-2981">
		<tag k="ADDRESS" v="Ridabuvegen 9, 2322 RIDABU" />
		<tag k="amenity" v="kindergarten" />
		<tag k="capacity" v="47" />
		<tag k="max_age" v="5" />
		<tag k="min_age" v="1" />
		<tag k="name" v="Åker barnehage" />
		<tag k="no-barnehage:nsrid" v="975302385" />
		<tag k="operator" v="Hamar kommune" />
		<tag k="operator:type" v="public" />
	</node>
</osm>
