<?xml version="1.0" encoding="UTF-8"?>
<osm version="0.6" generator="osmapis">
	<node lat="70.08507" lon="29.70734" id="-5296">
		<tag k="ADDRESS" v="Hermann Dahls gate 8, 9801 VADSØ" />
		<tag k="amenity" v="kindergarten" />
		<tag k="capacity" v="48" />
		<tag k="max_age" v="5" />
		<tag k="min_age" v="1" />
		<tag k="name" v="Glimmerstua barnehage" />
		<tag k="no-barnehage:nsrid" v="975184161" />
		<tag k="operator" v="Vadsø kommune" />
		<tag k="operator:type" v="public" />
	</node>
	<node lat="70.07554" lon="29.79244" id="-5297">
		<tag k="ADDRESS" v="Rypeveien 3, 9803 VADSØ" />
		<tag k="amenity" v="kindergarten" />
		<tag k="capacity" v="52" />
		<tag k="max_age" v="5" />
		<tag k="min_age" v="1" />
		<tag k="name" v="Lomakka barnehage" />
		<tag k="no-barnehage:nsrid" v="979332068" />
		<tag k="operator" v="Vadsø kommune" />
		<tag k="operator:type" v="public" />
	</node>
	<node lat="0.0" lon="0.0" id="-5298">
		<tag k="ADDRESS" v="Engstien 7, 9800 VADSØ" />
		<tag k="amenity" v="kindergarten" />
		<tag k="capacity" v="51" />
		<tag k="max_age" v="5" />
		<tag k="min_age" v="1" />
		<tag k="name" v="Maurtua barnehage" />
		<tag k="no-barnehage:nsrid" v="974064561" />
		<tag k="operator" v="Vadsø kommune" />
		<tag k="operator:type" v="public" />
	</node>
	<node lat="70.08206" lon="29.72369" id="-5299">
		<tag k="ADDRESS" v="Stubben 1, 9803 VADSØ" />
		<tag k="amenity" v="kindergarten" />
		<tag k="capacity" v="54" />
		<tag k="max_age" v="5" />
		<tag k="min_age" v="1" />
		<tag k="name" v="Stubben barnehage" />
		<tag k="no-barnehage:nsrid" v="975313921" />
		<tag k="operator" v="Vadsø kommune" />
		<tag k="operator:type" v="public" />
	</node>
	<node lat="70.11227" lon="29.33528" id="-5300">
		<tag k="ADDRESS" v="Bygdeveien 10, 9802 VESTRE JAKOBSELV" />
		<tag k="amenity" v="kindergarten" />
		<tag k="capacity" v="23" />
		<tag k="max_age" v="5" />
		<tag k="min_age" v="1" />
		<tag k="name" v="Vadsø kommune Vestre Jakobselv oppvekstsenter avd. barnehage" />
		<tag k="no-barnehage:nsrid" v="972726109" />
		<tag k="operator" v="Vadsø kommune" />
		<tag k="operator:type" v="public" />
	</node>
</osm>
