<?xml version="1.0" encoding="UTF-8"?>
<osm version="0.6" generator="osmapis">
	<node lat="60.23841" lon="10.35522" id="-2924">
		<tag k="ADDRESS" v="Musmyrveien 195, 3520 JEVNAKER" />
		<tag k="amenity" v="kindergarten" />
		<tag k="capacity" v="72" />
		<tag k="max_age" v="5" />
		<tag k="min_age" v="1" />
		<tag k="name" v="Bergerbakken barnehage" />
		<tag k="no-barnehage:nsrid" v="973710397" />
		<tag k="operator" v="Jevnaker kommune" />
		<tag k="operator:type" v="public" />
	</node>
	<node lat="60.23962" lon="10.42335" id="-2925">
		<tag k="ADDRESS" v="Vangskroken 2, 3520 JEVNAKER" />
		<tag k="amenity" v="kindergarten" />
		<tag k="capacity" v="56" />
		<tag k="max_age" v="5" />
		<tag k="min_age" v="1" />
		<tag k="name" v="Hovsenga barnehage" />
		<tag k="no-barnehage:nsrid" v="975323404" />
		<tag k="operator" v="Jevnaker kommune" />
		<tag k="operator:type" v="public" />
	</node>
	<node lat="0.0" lon="0.0" id="-2926">
		<tag k="ADDRESS" v="Nordby, 3520 JEVNAKER" />
		<tag k="amenity" v="kindergarten" />
		<tag k="capacity" v="49" />
		<tag k="max_age" v="5" />
		<tag k="min_age" v="1" />
		<tag k="name" v="Mari Bjertnæs Nordby Gard og gardsbarnehage" />
		<tag k="no-barnehage:nsrid" v="978298052" />
		<tag k="operator" v="Mari Bjertnæs Nordby Gard og gardsbarnehage" />
		<tag k="operator:type" v="private" />
	</node>
	<node lat="60.23925" lon="10.3822" id="-2927">
		<tag k="ADDRESS" v="Brugata 8, 3520 JEVNAKER" />
		<tag k="amenity" v="kindergarten" />
		<tag k="capacity" v="50" />
		<tag k="max_age" v="5" />
		<tag k="min_age" v="1" />
		<tag k="name" v="Nesbakken barnehage" />
		<tag k="no-barnehage:nsrid" v="975303683" />
		<tag k="operator" v="Jevnaker kommune" />
		<tag k="operator:type" v="public" />
	</node>
	<node lat="60.2266" lon="10.36239" id="-2928">
		<tag k="ADDRESS" v="Samsmoveien 21, 3520 JEVNAKER" />
		<tag k="amenity" v="kindergarten" />
		<tag k="capacity" v="71" />
		<tag k="max_age" v="5" />
		<tag k="min_age" v="1" />
		<tag k="name" v="Samsmoen barnehage" />
		<tag k="no-barnehage:nsrid" v="975303691" />
		<tag k="operator" v="Jevnaker kommune" />
		<tag k="operator:type" v="public" />
	</node>
	<node lat="0.0" lon="0.0" id="-2929">
		<tag k="ADDRESS" v="Prestensrud, 3520 JEVNAKER" />
		<tag k="amenity" v="kindergarten" />
		<tag k="capacity" v="34" />
		<tag k="max_age" v="5" />
		<tag k="min_age" v="1" />
		<tag k="name" v="Stortjernet barnehage" />
		<tag k="no-barnehage:nsrid" v="989178083" />
		<tag k="operator" v="Stortjernet barnehage AS" />
		<tag k="operator:type" v="private" />
	</node>
</osm>
