<?xml version="1.0" encoding="UTF-8"?>
<osm generator="osmapis" version="0.6">
	<node id="-2924" lat="58.4162" lon="6.66045">
		<tag k="amenity" v="kindergarten" />
		<tag k="capacity" v="46" />
		<tag k="contact:email" v="post@flekkefjord.kommune.no" />
		<tag k="contact:phone" v="38 32 80 00" />
		<tag k="max_age" v="5" />
		<tag k="min_age" v="1" />
		<tag k="name" v="Sira barnehage" />
		<tag k="no-barnehage:nsrid" v="1025381" />
		<tag k="operator" v="Flekkefjord kommune" />
		<tag k="operator:type" v="public" />
		<tag k="start_date" v="1982-01-01" />
	</node>
	<node id="-2923" lat="58.2948" lon="6.66383">
		<tag k="amenity" v="kindergarten" />
		<tag k="capacity" v="56" />
		<tag k="contact:email" v="post@flekkefjord.kommune.no" />
		<tag k="contact:phone" v="38 32 80 00" />
		<tag k="max_age" v="5" />
		<tag k="min_age" v="1" />
		<tag k="name" v="Sentrum barnehage" />
		<tag k="no-barnehage:nsrid" v="1012927" />
		<tag k="operator" v="Flekkefjord kommune" />
		<tag k="operator:type" v="public" />
		<tag k="start_date" v="1978-08-20" />
	</node>
	<node id="-2922" lat="58.2841" lon="6.67423">
		<tag k="amenity" v="kindergarten" />
		<tag k="capacity" v="59" />
		<tag k="contact:email" v="post@flekkefjord.kommune.no" />
		<tag k="contact:phone" v="38 32 87 50" />
		<tag k="max_age" v="5" />
		<tag k="min_age" v="1" />
		<tag k="name" v="Rauli barnehage" />
		<tag k="no-barnehage:nsrid" v="1012926" />
		<tag k="operator" v="Flekkefjord kommune" />
		<tag k="operator:type" v="public" />
		<tag k="start_date" v="1989-01-01" />
	</node>
	<node id="-2921" lat="58.30009" lon="6.636922">
		<tag k="amenity" v="kindergarten" />
		<tag k="capacity" v="49" />
		<tag k="contact:email" v="litledalen@barnehage.no" />
		<tag k="contact:phone" v="38 37 68 00" />
		<tag k="contact:website" v="http://www.litledalen.barnehage.no" />
		<tag k="max_age" v="5" />
		<tag k="min_age" v="1" />
		<tag k="name" v="Litledalen barnehage Ba" />
		<tag k="no-barnehage:nsrid" v="1019904" />
		<tag k="operator" v="Litledalen barnehage Sa" />
		<tag k="operator:type" v="private" />
		<tag k="start_date" v="1990-07-01" />
	</node>
	<node id="-2920" lat="58.2966" lon="6.64637">
		<tag k="amenity" v="kindergarten" />
		<tag k="capacity" v="98" />
		<tag k="contact:email" v="post@flekkefjord.kommune.no" />
		<tag k="contact:phone" v="38 32 80 00" />
		<tag k="max_age" v="5" />
		<tag k="min_age" v="1" />
		<tag k="name" v="Kringlatoppen barnehage" />
		<tag k="no-barnehage:nsrid" v="1016065" />
		<tag k="operator" v="Flekkefjord kommune" />
		<tag k="operator:type" v="public" />
		<tag k="start_date" v="1989-01-01" />
	</node>
	<node id="-2919" lat="58.21401" lon="6.576008">
		<tag k="amenity" v="kindergarten" />
		<tag k="capacity" v="22" />
		<tag k="contact:email" v="post@flekkefjord.kommune.no" />
		<tag k="contact:phone" v="38 32 80 00" />
		<tag k="max_age" v="5" />
		<tag k="min_age" v="1" />
		<tag k="name" v="Hidra barnehage" />
		<tag k="no-barnehage:nsrid" v="1012928" />
		<tag k="operator" v="Flekkefjord kommune" />
		<tag k="operator:type" v="public" />
		<tag k="start_date" v="1989-01-01" />
	</node>
	<node id="-2918" lat="58.4308" lon="6.83972">
		<tag k="amenity" v="kindergarten" />
		<tag k="capacity" v="30" />
		<tag k="contact:email" v="post@flekkefjord.kommune.no" />
		<tag k="contact:phone" v="38 32 80 00" />
		<tag k="max_age" v="5" />
		<tag k="min_age" v="1" />
		<tag k="name" v="Gyland barnehage" />
		<tag k="no-barnehage:nsrid" v="1016066" />
		<tag k="operator" v="Flekkefjord kommune" />
		<tag k="operator:type" v="public" />
		<tag k="start_date" v="1982-01-01" />
	</node>
	<node id="-2917" lat="58.28891" lon="6.663295">
		<tag k="amenity" v="kindergarten" />
		<tag k="capacity" v="66" />
		<tag k="contact:email" v="post@gronnesbarnehage.no" />
		<tag k="contact:phone" v="38 32 22 66" />
		<tag k="contact:website" v="http://www.gronnesbarnehage.no" />
		<tag k="max_age" v="5" />
		<tag k="min_age" v="1" />
		<tag k="name" v="Grønnes barnehage Sa" />
		<tag k="no-barnehage:nsrid" v="1019726" />
		<tag k="operator" v="Grønnes barnehage Sa" />
		<tag k="operator:type" v="private" />
		<tag k="start_date" v="1989-01-02" />
	</node>
	<node id="-2916" lat="58.31242" lon="6.67505">
		<tag k="amenity" v="kindergarten" />
		<tag k="capacity" v="26" />
		<tag k="contact:phone" v="38320121" />
		<tag k="max_age" v="5" />
		<tag k="min_age" v="1" />
		<tag k="name" v="Glendrange barnehage AS" />
		<tag k="no-barnehage:nsrid" v="1022255" />
		<tag k="operator" v="Glendrange barnehage AS" />
		<tag k="operator:type" v="private" />
		<tag k="start_date" v="1990-01-01" />
	</node>
	<node id="-2915" lat="58.29049" lon="6.704464">
		<tag k="amenity" v="kindergarten" />
		<tag k="capacity" v="27" />
		<tag k="max_age" v="5" />
		<tag k="min_age" v="1" />
		<tag k="name" v="Flekkefjord Frikirkes barnehage AS" />
		<tag k="no-barnehage:nsrid" v="1022206" />
		<tag k="operator" v="Flekkefjord Frikirkes barnehage AS" />
		<tag k="operator:type" v="private" />
		<tag k="start_date" v="2011-06-30" />
	</node>
	<node id="-2914" lat="58.23248" lon="6.671136">
		<tag k="amenity" v="kindergarten" />
		<tag k="contact:email" v="andabeloy@norgespost.no" />
		<tag k="contact:phone" v="92813889" />
		<tag k="name" v="Andabeløy Åpne barnehage" />
		<tag k="no-barnehage:nsrid" v="1021943" />
		<tag k="operator" v="Andabeløy Velforening" />
		<tag k="operator:type" v="private" />
		<tag k="start_date" v="2011-01-17" />
	</node>
</osm>
