<?xml version="1.0" encoding="UTF-8"?>
<osm version="0.6" generator="osmapis">
	<node lat="62.49571" lon="11.23959" id="-3117">
		<tag k="ADDRESS" v="Sundmoen 9, 2550 OS I ØSTERDALEN" />
		<tag k="amenity" v="kindergarten" />
		<tag k="capacity" v="10" />
		<tag k="max_age" v="5" />
		<tag k="min_age" v="1" />
		<tag k="name" v="Dalsbygda barnehage" />
		<tag k="no-barnehage:nsrid" v="975302970" />
		<tag k="operator" v="Os kommune" />
		<tag k="operator:type" v="public" />
	</node>
	<node lat="62.49571" lon="11.23959" id="-3118">
		<tag k="ADDRESS" v="Sundmoen 9, 2550 OS I ØSTERDALEN" />
		<tag k="amenity" v="kindergarten" />
		<tag k="capacity" v="62" />
		<tag k="max_age" v="5" />
		<tag k="min_age" v="1" />
		<tag k="name" v="Os barnehage" />
		<tag k="no-barnehage:nsrid" v="919231769" />
		<tag k="operator" v="Os kommune" />
		<tag k="operator:type" v="public" />
	</node>
	<node lat="62.28083" lon="11.74187" id="-3119">
		<tag k="ADDRESS" v="Kopparleden 6009, 2555 TUFSINGDALEN" />
		<tag k="amenity" v="kindergarten" />
		<tag k="capacity" v="6" />
		<tag k="max_age" v="5" />
		<tag k="min_age" v="1" />
		<tag k="name" v="Os kommunale barnehage avd. Tufsingdalen" />
		<tag k="no-barnehage:nsrid" v="929651995" />
		<tag k="operator" v="Os kommune" />
		<tag k="operator:type" v="public" />
	</node>
</osm>
