<?xml version="1.0" encoding="UTF-8"?>
<osm generator="osmapis" version="0.6">
	<node id="-304" lat="59.6604" lon="10.6493">
		<tag k="amenity" v="kindergarten" />
		<tag k="capacity" v="42" />
		<tag k="max_age" v="5" />
		<tag k="min_age" v="1" />
		<tag k="name" v="Trollberget barnehage" />
		<tag k="no-barnehage:nsrid" v="1013919" />
		<tag k="operator" v="Frogn kommune" />
		<tag k="operator:type" v="public" />
	</node>
	<node id="-303" lat="59.66593" lon="10.64155">
		<tag k="amenity" v="kindergarten" />
		<tag k="capacity" v="29" />
		<tag k="max_age" v="5" />
		<tag k="min_age" v="1" />
		<tag k="name" v="Tertitten barnehage" />
		<tag k="no-barnehage:nsrid" v="1020333" />
		<tag k="operator" v="Tertitten barnehage Ans" />
		<tag k="operator:type" v="private" />
	</node>
	<node id="-300" lat="59.65966" lon="10.6486">
		<tag k="amenity" v="kindergarten" />
		<tag k="capacity" v="22" />
		<tag k="contact:website" v="http://www.lindebakken.no" />
		<tag k="max_age" v="5" />
		<tag k="min_age" v="1" />
		<tag k="name" v="Lindebakken barnehage" />
		<tag k="no-barnehage:nsrid" v="1019855" />
		<tag k="operator" v="Lindebakken barnehage" />
		<tag k="operator:type" v="private" />
	</node>
	<node id="-299" lat="59.6837" lon="10.6612">
		<tag k="amenity" v="kindergarten" />
		<tag k="capacity" v="80" />
		<tag k="max_age" v="5" />
		<tag k="min_age" v="1" />
		<tag k="name" v="Heer barnehage" />
		<tag k="no-barnehage:nsrid" v="1017525" />
		<tag k="operator" v="Frogn kommune" />
		<tag k="operator:type" v="public" />
	</node>
	<node id="-298" lat="59.65747" lon="10.6424">
		<tag k="amenity" v="kindergarten" />
		<tag k="capacity" v="60" />
		<tag k="max_age" v="5" />
		<tag k="min_age" v="1" />
		<tag k="name" v="Frogn foreldrelagsbarnehage" />
		<tag k="no-barnehage:nsrid" v="1020276" />
		<tag k="operator" v="Sogstieika barnehage Sa" />
		<tag k="operator:type" v="private" />
	</node>
	<node id="-297" lat="59.6671" lon="10.6276">
		<tag k="amenity" v="kindergarten" />
		<tag k="capacity" v="50" />
		<tag k="max_age" v="5" />
		<tag k="min_age" v="1" />
		<tag k="name" v="Frelsesarmeens barnehager avd. Solgry" />
		<tag k="no-barnehage:nsrid" v="1016766" />
		<tag k="operator" v="Frelsesarmeen" />
		<tag k="operator:type" v="private" />
	</node>
	<node id="-296" lat="59.6667" lon="10.6542">
		<tag k="amenity" v="kindergarten" />
		<tag k="capacity" v="88" />
		<tag k="max_age" v="5" />
		<tag k="min_age" v="1" />
		<tag k="name" v="Dyrløkkeåsen barnehage" />
		<tag k="no-barnehage:nsrid" v="1015473" />
		<tag k="operator" v="Frogn kommune" />
		<tag k="operator:type" v="public" />
	</node>
	<node id="-295" lat="59.66306" lon="10.63497">
		<tag k="amenity" v="kindergarten" />
		<tag k="capacity" v="30" />
		<tag k="max_age" v="5" />
		<tag k="min_age" v="1" />
		<tag k="name" v="Drøbak montessoribarnehage" />
		<tag k="no-barnehage:nsrid" v="1020859" />
		<tag k="operator" v="Drøbak Montessori Stiftelse" />
		<tag k="operator:type" v="private" />
	</node>
	<node id="-294" lat="59.7449" lon="10.6977">
		<tag k="amenity" v="kindergarten" />
		<tag k="capacity" v="36" />
		<tag k="max_age" v="5" />
		<tag k="min_age" v="1" />
		<tag k="name" v="Dal barnehage" />
		<tag k="no-barnehage:nsrid" v="1016962" />
		<tag k="operator" v="Frogn kommune" />
		<tag k="operator:type" v="public" />
	</node>
</osm>
