<?xml version="1.0" encoding="UTF-8"?>
<osm generator="osmapis" version="0.6">
	<node id="-336" lat="59.6696" lon="10.6579">
		<tag k="amenity" v="kindergarten" />
		<tag k="capacity" v="10" />
		<tag k="contact:email" v="dyrlokketoppen@barnehage.no" />
		<tag k="max_age" v="5" />
		<tag k="min_age" v="3" />
		<tag k="name" v="Dyrløkketoppen Familiebarnehage" />
		<tag k="no-barnehage:nsrid" v="1013532" />
		<tag k="operator" v="Wica Invest AS" />
		<tag k="operator:type" v="private" />
		<tag k="start_date" v="2012-11-01" />
	</node>
	<node id="-344" lat="59.66702" lon="10.65669">
		<tag k="amenity" v="kindergarten" />
		<tag k="capacity" v="4" />
		<tag k="contact:email" v="bbaeck@online.no" />
		<tag k="max_age" v="2" />
		<tag k="min_age" v="1" />
		<tag k="name" v="Løvspretten Familiebarnehage" />
		<tag k="no-barnehage:nsrid" v="1020705" />
		<tag k="operator" v="Løvspretten Familiebarnehage Brita Bæck" />
		<tag k="operator:type" v="private" />
		<tag k="start_date" v="2009-01-01" />
	</node>
	<node id="-332" lat="59.65037" lon="10.64432">
		<tag k="amenity" v="kindergarten" />
		<tag k="capacity" v="4" />
		<tag k="contact:email" v="barbrowernerjakobsen@outlook.com" />
		<tag k="max_age" v="5" />
		<tag k="min_age" v="1" />
		<tag k="name" v="Drøbak Familiebarnehage Avd Koseklubben og Sesam" />
		<tag k="no-barnehage:nsrid" v="1020332" />
		<tag k="operator" v="Drøbak Familiebarnehage Avd/koseklubben Barbro W Jakobsen" />
		<tag k="operator:type" v="private" />
		<tag k="start_date" v="2009-01-07" />
	</node>
	<node id="-346" lat="59.65982" lon="10.65162">
		<tag k="amenity" v="kindergarten" />
		<tag k="capacity" v="4" />
		<tag k="contact:email" v="trinelyseggen@hotmail.com" />
		<tag k="contact:phone" v="92625531" />
		<tag k="max_age" v="5" />
		<tag k="min_age" v="1" />
		<tag k="name" v="Sesam Familiebarnehage" />
		<tag k="no-barnehage:nsrid" v="1020295" />
		<tag k="operator" v="Sesam Familiebarnehage Trine Tuft Lyseggen" />
		<tag k="operator:type" v="private" />
		<tag k="start_date" v="2006-01-01" />
	</node>
	<node id="-345" lat="59.66569" lon="10.64874">
		<tag k="amenity" v="kindergarten" />
		<tag k="capacity" v="4" />
		<tag k="contact:email" v="yvonne.tveitan@east.no" />
		<tag k="max_age" v="2" />
		<tag k="min_age" v="1" />
		<tag k="name" v="Ole Brumm Familiebarnehage" />
		<tag k="no-barnehage:nsrid" v="1021008" />
		<tag k="operator" v="Ole Brumm Familiebarnehage Nygård" />
		<tag k="operator:type" v="private" />
		<tag k="start_date" v="2009-01-01" />
	</node>
</osm>
