<?xml version="1.0" encoding="UTF-8"?>
<osm version="0.6" generator="osmapis">
	<node lat="59.42348" lon="5.44825" id="-1080">
		<tag k="ADDRESS" v="Aksdalsvegen 167, 5570 AKSDAL" />
		<tag k="amenity" v="kindergarten" />
		<tag k="capacity" v="44" />
		<tag k="max_age" v="5" />
		<tag k="min_age" v="1" />
		<tag k="name" v="Aksdal barnehage" />
		<tag k="no-barnehage:nsrid" v="873158352" />
		<tag k="operator" v="Tysvær kommune" />
		<tag k="operator:type" v="public" />
	</node>
	<node lat="59.41071" lon="5.40102" id="-1081">
		<tag k="ADDRESS" v="Asparhaugvegen 1, 5563 FØRRESFJORDEN" />
		<tag k="amenity" v="kindergarten" />
		<tag k="capacity" v="74" />
		<tag k="max_age" v="5" />
		<tag k="min_age" v="1" />
		<tag k="name" v="Asparmarka FUS barnehage" />
		<tag k="no-barnehage:nsrid" v="989305026" />
		<tag k="operator" v="Asparmarka Fus barnehage AS" />
		<tag k="operator:type" v="private" />
	</node>
	<node lat="59.42376" lon="5.47603" id="-1082">
		<tag k="ADDRESS" v="Hestaberg 15, 5570 AKSDAL" />
		<tag k="amenity" v="kindergarten" />
		<tag k="capacity" v="73" />
		<tag k="contact:website" v="http://espira.no/" />
		<tag k="max_age" v="5" />
		<tag k="min_age" v="1" />
		<tag k="name" v="Espira Garhaug barnehage" />
		<tag k="no-barnehage:nsrid" v="986933565" />
		<tag k="operator" v="Espira Garhaug AS" />
		<tag k="operator:type" v="private" />
	</node>
	<node lat="59.41419" lon="5.40632" id="-1083">
		<tag k="ADDRESS" v="Hamrane 3, 5563 FØRRESFJORDEN" />
		<tag k="amenity" v="kindergarten" />
		<tag k="capacity" v="93" />
		<tag k="max_age" v="5" />
		<tag k="min_age" v="1" />
		<tag k="name" v="Fjellhaug friluftsbarnehage" />
		<tag k="no-barnehage:nsrid" v="975322009" />
		<tag k="operator" v="Tysvær kommune" />
		<tag k="operator:type" v="public" />
	</node>
	<node lat="59.39535" lon="5.47874" id="-1084">
		<tag k="ADDRESS" v="Førlandsvegen 133, 5570 AKSDAL" />
		<tag k="amenity" v="kindergarten" />
		<tag k="capacity" v="54" />
		<tag k="max_age" v="5" />
		<tag k="min_age" v="1" />
		<tag k="name" v="Førland barnehage" />
		<tag k="no-barnehage:nsrid" v="975321991" />
		<tag k="operator" v="Tysvær kommune" />
		<tag k="operator:type" v="public" />
	</node>
	<node lat="59.421" lon="5.39889" id="-1085">
		<tag k="ADDRESS" v="Frakkagjerdvegen 160, 5563 FØRRESFJORDEN" />
		<tag k="amenity" v="kindergarten" />
		<tag k="capacity" v="101" />
		<tag k="max_age" v="5" />
		<tag k="min_age" v="1" />
		<tag k="name" v="Førresdalen barnehage" />
		<tag k="no-barnehage:nsrid" v="984705972" />
		<tag k="operator" v="Tysvær kommune" />
		<tag k="operator:type" v="public" />
	</node>
	<node lat="59.42267" lon="5.38774" id="-1086">
		<tag k="ADDRESS" v="Grendatunvegen 2, 5563 FØRRESFJORDEN" />
		<tag k="amenity" v="kindergarten" />
		<tag k="capacity" v="58" />
		<tag k="max_age" v="5" />
		<tag k="min_age" v="1" />
		<tag k="name" v="Førresfjorden barnehage" />
		<tag k="no-barnehage:nsrid" v="975308510" />
		<tag k="operator" v="Tysvær kommune" />
		<tag k="operator:type" v="public" />
	</node>
	<node lat="59.35077" lon="5.79597" id="-1087">
		<tag k="ADDRESS" v="Bjørkeli 2, 5560 NEDSTRAND" />
		<tag k="amenity" v="kindergarten" />
		<tag k="capacity" v="46" />
		<tag k="max_age" v="5" />
		<tag k="min_age" v="1" />
		<tag k="name" v="Nedstrand barnehage" />
		<tag k="no-barnehage:nsrid" v="974798999" />
		<tag k="operator" v="Tysvær kommune" />
		<tag k="operator:type" v="public" />
	</node>
	<node lat="59.43149" lon="5.60902" id="-1088">
		<tag k="ADDRESS" v="Skjoldastraumsvegen 1029, 5567 SKJOLDASTRAUMEN" />
		<tag k="amenity" v="kindergarten" />
		<tag k="capacity" v="49" />
		<tag k="contact:website" v="http://skjoldastraumen.bhg.no" />
		<tag k="max_age" v="5" />
		<tag k="min_age" v="1" />
		<tag k="name" v="Skjoldastraumen Maritime FUS barnehage" />
		<tag k="no-barnehage:nsrid" v="914094755" />
		<tag k="operator" v="Skjoldastraumen Maritime Fus barnehage AS" />
		<tag k="operator:type" v="private" />
	</node>
	<node lat="59.32424" lon="5.48901" id="-1089">
		<tag k="ADDRESS" v="Svartmyrvegen 7, 5565 TYSVÆRVÅG" />
		<tag k="amenity" v="kindergarten" />
		<tag k="capacity" v="79" />
		<tag k="contact:website" v="http://www.tysver.kommune.no/forsiden-tysvervag" />
		<tag k="max_age" v="5" />
		<tag k="min_age" v="1" />
		<tag k="name" v="Tysværvåg barnehage" />
		<tag k="no-barnehage:nsrid" v="975300773" />
		<tag k="operator" v="Tysvær kommune" />
		<tag k="operator:type" v="public" />
	</node>
</osm>
