<?xml version="1.0" encoding="UTF-8"?>
<osm generator="osmapis" version="0.6">
	<node id="-3763" lat="59.3242" lon="5.489">
		<tag k="amenity" v="kindergarten" />
		<tag k="capacity" v="88" />
		<tag k="contact:website" v="http://www.tysver.kommune.no/forsiden-tysvervag" />
		<tag k="max_age" v="5" />
		<tag k="min_age" v="1" />
		<tag k="name" v="Tysværvåg barnehage" />
		<tag k="no-barnehage:nsrid" v="1017493" />
		<tag k="operator" v="Tysvær kommune" />
		<tag k="operator:type" v="public" />
		<tag k="start_date" v="1989-01-02" />
	</node>
	<node id="-3762" lat="59.4301" lon="5.61405">
		<tag k="amenity" v="kindergarten" />
		<tag k="capacity" v="52" />
		<tag k="max_age" v="5" />
		<tag k="min_age" v="1" />
		<tag k="name" v="Skjoldastraumen barnehage" />
		<tag k="no-barnehage:nsrid" v="1018101" />
		<tag k="operator" v="Tysvær kommune" />
		<tag k="operator:type" v="public" />
		<tag k="start_date" v="1989-01-01" />
	</node>
	<node id="-3761" lat="59.3472" lon="5.84767">
		<tag k="amenity" v="kindergarten" />
		<tag k="capacity" v="54" />
		<tag k="contact:email" v="ttopnes@tysver.kommune.no" />
		<tag k="contact:phone" v="52 75 78 90" />
		<tag k="max_age" v="5" />
		<tag k="min_age" v="1" />
		<tag k="name" v="Nedstrand barnehage" />
		<tag k="no-barnehage:nsrid" v="1016759" />
		<tag k="operator" v="Tysvær kommune" />
		<tag k="operator:type" v="public" />
		<tag k="start_date" v="1989-01-02" />
	</node>
	<node id="-3760" lat="59.421" lon="5.3989">
		<tag k="amenity" v="kindergarten" />
		<tag k="capacity" v="61" />
		<tag k="contact:phone" v="52 75 79 10" />
		<tag k="max_age" v="5" />
		<tag k="min_age" v="1" />
		<tag k="name" v="Førresdalen barnehage" />
		<tag k="no-barnehage:nsrid" v="1016410" />
		<tag k="operator" v="Tysvær kommune" />
		<tag k="operator:type" v="public" />
		<tag k="start_date" v="2003-01-01" />
	</node>
	<node id="-3759" lat="59.395" lon="5.47766">
		<tag k="amenity" v="kindergarten" />
		<tag k="capacity" v="36" />
		<tag k="max_age" v="5" />
		<tag k="min_age" v="1" />
		<tag k="name" v="Førland barnehage" />
		<tag k="no-barnehage:nsrid" v="1013971" />
		<tag k="operator" v="Tysvær kommune" />
		<tag k="operator:type" v="public" />
		<tag k="start_date" v="1991-01-01" />
	</node>
	<node id="-3758" lat="59.4149" lon="5.40643">
		<tag k="amenity" v="kindergarten" />
		<tag k="capacity" v="46" />
		<tag k="max_age" v="5" />
		<tag k="min_age" v="1" />
		<tag k="name" v="Frakkagjerd barnehage" />
		<tag k="no-barnehage:nsrid" v="1013750" />
		<tag k="operator" v="Tysvær kommune" />
		<tag k="operator:type" v="public" />
		<tag k="start_date" v="1989-01-01" />
	</node>
	<node id="-3757" lat="59.4142" lon="5.40632">
		<tag k="amenity" v="kindergarten" />
		<tag k="capacity" v="82" />
		<tag k="max_age" v="5" />
		<tag k="min_age" v="1" />
		<tag k="name" v="Fjellhaug Friluftsbarnehage" />
		<tag k="no-barnehage:nsrid" v="1013972" />
		<tag k="operator" v="Tysvær kommune" />
		<tag k="operator:type" v="public" />
		<tag k="start_date" v="1991-01-01" />
	</node>
</osm>
