<?xml version="1.0" encoding="UTF-8"?>
<osm generator="osmapis" version="0.6">
	<node id="-4700" lat="60.55925" lon="5.254523">
		<tag k="amenity" v="kindergarten" />
		<tag k="capacity" v="93" />
		<tag k="contact:email" v="post@trollskogen-barnehage.no" />
		<tag k="contact:phone" v="+47 56 35 44 60" />
		<tag k="contact:website" v="http://trollskogen.barnehage.no" />
		<tag k="doNotImportAddress" v="Stølen 13 5911 ALVERSUND" />
		<tag k="max_age" v="5" />
		<tag k="min_age" v="1" />
		<tag k="name" v="Trollskogen barnehage Ikenberget" />
		<tag k="no-barnehage:nsrid" v="1020698" />
		<tag k="operator" v="Trollskogen barnehage Ikenberget Sa" />
		<tag k="operator:type" v="private" />
	</node>
	<node id="-4699" lat="60.73772" lon="5.159713">
		<tag k="amenity" v="kindergarten" />
		<tag k="capacity" v="74" />
		<tag k="contact:email" v="frode@solhaugenbhg.no" />
		<tag k="contact:phone" v="+47 56 36 20 60" />
		<tag k="contact:website" v="http://www.solhaugen.barnehage.no" />
		<tag k="doNotImportAddress" v="Storbruhaugen 14 5955 LINDÅS" />
		<tag k="max_age" v="5" />
		<tag k="min_age" v="1" />
		<tag k="name" v="Solhaugen barnehage" />
		<tag k="no-barnehage:nsrid" v="1020700" />
		<tag k="operator" v="Solhaugen barnehage Sa" />
		<tag k="operator:type" v="private" />
	</node>
	<node id="-4697" lat="60.61977" lon="5.287582">
		<tag k="amenity" v="kindergarten" />
		<tag k="capacity" v="91" />
		<tag k="contact:email" v="styrar@seimbarnehage.no" />
		<tag k="contact:phone" v="+47 56 35 10 24" />
		<tag k="contact:website" v="http://www.seimbarnehage.no" />
		<tag k="doNotImportAddress" v="Lurevegen 171 5912 SEIM" />
		<tag k="max_age" v="5" />
		<tag k="min_age" v="1" />
		<tag k="name" v="Seim barnehage" />
		<tag k="no-barnehage:nsrid" v="1021946" />
		<tag k="operator" v="Seim barnehage Sa" />
		<tag k="operator:type" v="private" />
	</node>
	<node id="-4696" lat="60.62328" lon="5.47853">
		<tag k="amenity" v="kindergarten" />
		<tag k="capacity" v="58" />
		<tag k="contact:email" v="dl.ostereidet@bhg.no" />
		<tag k="doNotImportAddress" v="Ørnnova 1 5993 OSTEREIDET" />
		<tag k="max_age" v="5" />
		<tag k="min_age" v="1" />
		<tag k="name" v="Ostereidet FUS barnehage" />
		<tag k="no-barnehage:nsrid" v="1021811" />
		<tag k="operator" v="Ostereidet Fus barnehage AS" />
		<tag k="operator:type" v="private" />
	</node>
	<node id="-4695" lat="60.70108" lon="5.322672">
		<tag k="amenity" v="kindergarten" />
		<tag k="capacity" v="29" />
		<tag k="contact:email" v="natas.bhg@hotmail.com" />
		<tag k="contact:phone" v="+47 056364408" />
		<tag k="doNotImportAddress" v="Sævråsvegen 250 5957 MYKING" />
		<tag k="max_age" v="5" />
		<tag k="min_age" v="1" />
		<tag k="name" v="Natås barnehage" />
		<tag k="no-barnehage:nsrid" v="1020156" />
		<tag k="operator" v="Natås barnehage Sa" />
		<tag k="operator:type" v="private" />
	</node>
	<node id="-4694" lat="60.57183" lon="5.235713">
		<tag k="amenity" v="kindergarten" />
		<tag k="capacity" v="19" />
		<tag k="contact:email" v="Arr-nesen@hotmail.com" />
		<tag k="contact:phone" v="+47 95177464" />
		<tag k="doNotImportAddress" v="Nordre Soltveit 5911 ALVERSUND" />
		<tag k="max_age" v="5" />
		<tag k="min_age" v="1" />
		<tag k="name" v="Lykkeliten barnehage" />
		<tag k="no-barnehage:nsrid" v="1021458" />
		<tag k="operator" v="Nordhordland barnehage AS" />
		<tag k="operator:type" v="private" />
	</node>
	<node id="-4693" lat="60.57225" lon="5.38198">
		<tag k="amenity" v="kindergarten" />
		<tag k="capacity" v="77" />
		<tag k="contact:email" v="dl.leiknes@bhg.no" />
		<tag k="doNotImportAddress" v="Storneset 5915 HJELMÅS" />
		<tag k="max_age" v="5" />
		<tag k="min_age" v="1" />
		<tag k="name" v="Leiknes FUS barnehage" />
		<tag k="no-barnehage:nsrid" v="1020985" />
		<tag k="operator" v="Leiknes Fus barnehage AS" />
		<tag k="operator:type" v="private" />
	</node>
	<node id="-4692" lat="60.7385" lon="5.15771">
		<tag k="amenity" v="kindergarten" />
		<tag k="capacity" v="49" />
		<tag k="contact:email" v="hamo@lindas.kommune.no" />
		<tag k="contact:phone" v="+47 56 37 50 62" />
		<tag k="doNotImportAddress" v="Kolås 2 5955 LINDÅS" />
		<tag k="max_age" v="5" />
		<tag k="min_age" v="1" />
		<tag k="name" v="Kolås barnehage" />
		<tag k="no-barnehage:nsrid" v="1016100" />
		<tag k="operator" v="Lindås kommune" />
		<tag k="operator:type" v="public" />
	</node>
	<node id="-4691" lat="60.55817" lon="5.3054">
		<tag k="amenity" v="kindergarten" />
		<tag k="capacity" v="121" />
		<tag k="contact:email" v="post@knarvikbarnehage.no" />
		<tag k="contact:phone" v="+47 56 35 10 70" />
		<tag k="contact:website" v="http://www.knarvikbarnehage.no" />
		<tag k="doNotImportAddress" v="Lonsvegen 76 5914 ISDALSTØ" />
		<tag k="max_age" v="5" />
		<tag k="min_age" v="1" />
		<tag k="name" v="Knarvik barnehage" />
		<tag k="no-barnehage:nsrid" v="1021884" />
		<tag k="operator" v="Knarvik barnehage AS" />
		<tag k="operator:type" v="private" />
	</node>
	<node id="-4690" lat="60.5519" lon="5.28028">
		<tag k="amenity" v="kindergarten" />
		<tag k="capacity" v="116" />
		<tag k="contact:email" v="hech@lindas.kommune.no" />
		<tag k="doNotImportAddress" v="Juvikstølen 5916 ISDALSTØ" />
		<tag k="max_age" v="5" />
		<tag k="min_age" v="1" />
		<tag k="name" v="Juvikstølen barnehage" />
		<tag k="no-barnehage:nsrid" v="1017858" />
		<tag k="operator" v="Lindås kommune" />
		<tag k="operator:type" v="public" />
	</node>
	<node id="-4689" lat="60.5438" lon="5.29062">
		<tag k="amenity" v="kindergarten" />
		<tag k="capacity" v="42" />
		<tag k="contact:email" v="hamo@lindas.kommune.no" />
		<tag k="contact:phone" v="+47 56 37 50 60" />
		<tag k="doNotImportAddress" v="Bruvegen 8 5914 ISDALSTØ" />
		<tag k="max_age" v="5" />
		<tag k="min_age" v="1" />
		<tag k="name" v="Haugen barnehage" />
		<tag k="no-barnehage:nsrid" v="1016099" />
		<tag k="operator" v="Lindås kommune" />
		<tag k="operator:type" v="public" />
	</node>
	<node id="-4688" lat="60.59951" lon="5.391525">
		<tag k="amenity" v="kindergarten" />
		<tag k="capacity" v="29" />
		<tag k="contact:email" v="hundvin@barnehage.no" />
		<tag k="contact:phone" v="+47 56 36 40 42" />
		<tag k="contact:website" v="http://www.klovheim.barnehage.no" />
		<tag k="doNotImportAddress" v="Mykingvegen 642 5913 EIKANGERVÅG" />
		<tag k="max_age" v="5" />
		<tag k="min_age" v="1" />
		<tag k="name" v="Barnas barnehage Kløvheim" />
		<tag k="no-barnehage:nsrid" v="1020922" />
		<tag k="operator" v="Barnas barnehage Lindås AS" />
		<tag k="operator:type" v="private" />
	</node>
	<node id="-4687" lat="60.67684" lon="5.217924">
		<tag k="amenity" v="kindergarten" />
		<tag k="capacity" v="30" />
		<tag k="contact:email" v="hundvin@barnasbhg.no" />
		<tag k="contact:phone" v="+47 56 36 36 07" />
		<tag k="doNotImportAddress" v="Hundvinsvegen 5 5956 HUNDVIN" />
		<tag k="max_age" v="5" />
		<tag k="min_age" v="1" />
		<tag k="name" v="Barnas barnehage Hundvin" />
		<tag k="no-barnehage:nsrid" v="1021415" />
		<tag k="operator" v="Barnas barnehage Lindås AS" />
		<tag k="operator:type" v="private" />
	</node>
	<node id="-4686" lat="60.56165" lon="5.242158">
		<tag k="amenity" v="kindergarten" />
		<tag k="capacity" v="54" />
		<tag k="contact:email" v="inge@alversundmontessori.no" />
		<tag k="contact:phone" v="+47 56 35 24 74" />
		<tag k="doNotImportAddress" v="Alvermarka 5911 ALVERSUND" />
		<tag k="max_age" v="5" />
		<tag k="min_age" v="1" />
		<tag k="name" v="Alversund montessoribarnehage" />
		<tag k="no-barnehage:nsrid" v="1021968" />
		<tag k="operator" v="Alversund Montessoribarnehage AS" />
		<tag k="operator:type" v="private" />
	</node>
</osm>
