<?xml version="1.0" encoding="UTF-8"?>
<osm generator="osmapis" version="0.6">
	<node id="-4343" lat="60.73772" lon="5.159713">
		<tag k="amenity" v="kindergarten" />
		<tag k="capacity" v="10" />
		<tag k="contact:email" v="wilhavenfbhg@hotmail.com" />
		<tag k="contact:phone" v="56 36 91 49" />
		<tag k="max_age" v="5" />
		<tag k="min_age" v="1" />
		<tag k="name" v="Wilhaven AS" />
		<tag k="no-barnehage:nsrid" v="1022159" />
		<tag k="operator" v="Wilhaven AS" />
		<tag k="operator:type" v="private" />
		<tag k="start_date" v="1995-02-23" />
	</node>
	<node id="-4340" lat="60.57242" lon="5.212501">
		<tag k="amenity" v="kindergarten" />
		<tag k="capacity" v="11" />
		<tag k="contact:phone" v="56 35 18 07" />
		<tag k="max_age" v="5" />
		<tag k="min_age" v="1" />
		<tag k="name" v="Smilehullet Familiebarnehage Anne Mari Arnesen" />
		<tag k="no-barnehage:nsrid" v="1020579" />
		<tag k="operator" v="Smilehullet Familiebarnehage Anne Mari Arnesen" />
		<tag k="operator:type" v="private" />
		<tag k="start_date" v="1999-08-01" />
	</node>
</osm>
