<?xml version="1.0" encoding="UTF-8"?>
<osm generator="osmapis" version="0.6">
	<node id="-1972" lat="62.0999" lon="9.51244">
		<tag k="amenity" v="kindergarten" />
		<tag k="capacity" v="34" />
		<tag k="contact:email" v="marthe.brenden@Dovre.kommune.no" />
		<tag k="contact:phone" v="+47 61 24 26 70" />
		<tag k="doNotImportAddress" v="Kongsvegen 22 2662 DOVRE" />
		<tag k="max_age" v="5" />
		<tag k="min_age" v="1" />
		<tag k="name" v="Dovre barnehage" />
		<tag k="no-barnehage:nsrid" v="1014805" />
		<tag k="operator" v="Dovre kommune" />
		<tag k="operator:type" v="public" />
	</node>
	<node id="-1971" lat="62.0751" lon="9.12723">
		<tag k="amenity" v="kindergarten" />
		<tag k="capacity" v="64" />
		<tag k="contact:email" v="ole.kristian.rise@dovre.kommune.no" />
		<tag k="doNotImportAddress" v="Smiuvegen 6 2660 DOMBÅS" />
		<tag k="max_age" v="5" />
		<tag k="min_age" v="1" />
		<tag k="name" v="Dombås barnehage" />
		<tag k="no-barnehage:nsrid" v="1017335" />
		<tag k="operator" v="Dovre kommune" />
		<tag k="operator:type" v="public" />
	</node>
</osm>
