<?xml version="1.0" encoding="UTF-8"?>
<osm generator="osmapis" version="0.6">
	<node id="-3445" lat="64.4702" lon="11.7508">
		<tag k="amenity" v="kindergarten" />
		<tag k="capacity" v="115" />
		<tag k="contact:email" v="skage.barnehage@overhalla.kommune.no" />
		<tag k="contact:phone" v="+47 91889811" />
		<tag k="doNotImportAddress" v="Skageåsvegen 1 7860 SKAGE I NAMDALEN" />
		<tag k="max_age" v="5" />
		<tag k="min_age" v="1" />
		<tag k="name" v="Skage barnehage" />
		<tag k="no-barnehage:nsrid" v="1013644" />
		<tag k="operator" v="Overhalla kommune" />
		<tag k="operator:type" v="public" />
	</node>
	<node id="-3444" lat="64.4936" lon="11.9481">
		<tag k="amenity" v="kindergarten" />
		<tag k="capacity" v="74" />
		<tag k="contact:email" v="ranemsletta.barnehage@overhalla.kommune.no" />
		<tag k="contact:phone" v="+47 91709422" />
		<tag k="doNotImportAddress" v="Krabbstuvegen 1 7863 OVERHALLA" />
		<tag k="max_age" v="5" />
		<tag k="min_age" v="1" />
		<tag k="name" v="Ranemsletta barnehage" />
		<tag k="no-barnehage:nsrid" v="1013643" />
		<tag k="operator" v="Overhalla kommune" />
		<tag k="operator:type" v="public" />
	</node>
	<node id="-3443" lat="64.4623" lon="12.0508">
		<tag k="amenity" v="kindergarten" />
		<tag k="capacity" v="28" />
		<tag k="contact:email" v="grethe.heglum@overhalla.kommune.no" />
		<tag k="doNotImportAddress" v="Øysletta 7863 OVERHALLA" />
		<tag k="max_age" v="5" />
		<tag k="min_age" v="1" />
		<tag k="name" v="Moamarka barnehage" />
		<tag k="no-barnehage:nsrid" v="1014951" />
		<tag k="operator" v="Overhalla kommune" />
		<tag k="operator:type" v="public" />
	</node>
	<node id="-3442" lat="64.49356" lon="11.94812">
		<tag k="amenity" v="kindergarten" />
		<tag k="capacity" v="30" />
		<tag k="contact:email" v="k-lysb@hotmail.com" />
		<tag k="contact:phone" v="+47 74 28 14 04" />
		<tag k="doNotImportAddress" v="Litl-Amdalvegen 231 7863 OVERHALLA" />
		<tag k="max_age" v="5" />
		<tag k="min_age" v="1" />
		<tag k="name" v="Gammelstua friluftsbarnehage" />
		<tag k="no-barnehage:nsrid" v="1020440" />
		<tag k="operator" v="Gammelstua Friluftsbarnehage Sa" />
		<tag k="operator:type" v="private" />
	</node>
	<node id="-3441" lat="64.49339" lon="11.92316">
		<tag k="amenity" v="kindergarten" />
		<tag k="doNotImportAddress" v="Barlia 37 7863 OVERHALLA" />
		<tag k="name" v="Barlia barnehage" />
		<tag k="no-barnehage:nsrid" v="2000247" />
		<tag k="operator" v="Overhalla kommune" />
		<tag k="operator:type" v="public" />
	</node>
</osm>
