<?xml version="1.0" encoding="UTF-8"?>
<osm generator="osmapis" version="0.6">
	<node id="-1936" lat="60.67117" lon="11.83465">
		<tag k="amenity" v="kindergarten" />
		<tag k="capacity" v="60" />
		<tag k="contact:email" v="styrer@furunabben.no" />
		<tag k="contact:phone" v="+47 62 42 00 60" />
		<tag k="contact:website" v="http://furunabben.barnehageside.no" />
		<tag k="max_age" v="5" />
		<tag k="min_age" v="1" />
		<tag k="name" v="Furunabben barnehage Sa" />
		<tag k="no-barnehage:nsrid" v="1019686" />
		<tag k="operator" v="Furunabben barnehage Sa" />
		<tag k="operator:type" v="private" />
		<tag k="start_date" v="1989-01-02" />
	</node>
	<node id="-1939" lat="60.6712" lon="11.8348">
		<tag k="amenity" v="kindergarten" />
		<tag k="capacity" v="34" />
		<tag k="contact:email" v="SMNilsen@vaaler-he.kommune.no" />
		<tag k="max_age" v="5" />
		<tag k="min_age" v="1" />
		<tag k="name" v="Vålbyen barnehage" />
		<tag k="no-barnehage:nsrid" v="1017582" />
		<tag k="operator" v="Våler kommune" />
		<tag k="operator:type" v="public" />
		<tag k="start_date" v="1988-04-01" />
	</node>
	<node id="-1938" lat="60.7247" lon="11.80195">
		<tag k="amenity" v="kindergarten" />
		<tag k="capacity" v="11" />
		<tag k="contact:email" v="toraasenbarnehage@hotmail.com" />
		<tag k="contact:phone" v="+47 62 42 30 66" />
		<tag k="max_age" v="5" />
		<tag k="min_age" v="1" />
		<tag k="name" v="Tøråsen Private barnehage" />
		<tag k="no-barnehage:nsrid" v="1020044" />
		<tag k="operator" v="Tøråsen Private barnehage" />
		<tag k="operator:type" v="private" />
		<tag k="start_date" v="1988-04-01" />
	</node>
	<node id="-1937" lat="60.7247" lon="11.802">
		<tag k="amenity" v="kindergarten" />
		<tag k="capacity" v="30" />
		<tag k="contact:email" v="hanne.raade@vaaler-he.kommune.no" />
		<tag k="max_age" v="5" />
		<tag k="min_age" v="1" />
		<tag k="name" v="Nordhagen barnehage" />
		<tag k="no-barnehage:nsrid" v="1014705" />
		<tag k="operator" v="Våler kommune" />
		<tag k="operator:type" v="public" />
		<tag k="start_date" v="1992-08-01" />
	</node>
</osm>
