<?xml version="1.0" encoding="UTF-8"?>
<osm generator="osmapis" version="0.6">
	<node id="-5152" lat="63.3267" lon="10.0692">
		<tag k="amenity" v="kindergarten" />
		<tag k="capacity" v="42" />
		<tag k="max_age" v="5" />
		<tag k="min_age" v="1" />
		<tag k="name" v="Fredly barnehage" />
		<tag k="no-barnehage:nsrid" v="1016865" />
		<tag k="operator" v="Stiftelsen Fredly Folkehøgskole" />
		<tag k="operator:type" v="private" />
		<tag k="start_date" v="1989-01-02" />
	</node>
	<node id="-5151" lat="63.3267" lon="10.0692">
		<tag k="amenity" v="kindergarten" />
		<tag k="capacity" v="149" />
		<tag k="max_age" v="5" />
		<tag k="min_age" v="1" />
		<tag k="name" v="Børsa barnehage" />
		<tag k="no-barnehage:nsrid" v="1017024" />
		<tag k="operator" v="Skaun kommune" />
		<tag k="operator:type" v="public" />
		<tag k="start_date" v="2006-01-02" />
	</node>
	<node id="-5159" lat="63.3452" lon="9.99088">
		<tag k="amenity" v="kindergarten" />
		<tag k="capacity" v="23" />
		<tag k="contact:email" v="berit.syrstad@skaun.kommune.no" />
		<tag k="contact:phone" v="72867900" />
		<tag k="max_age" v="5" />
		<tag k="min_age" v="1" />
		<tag k="name" v="Viggja Oppvekstsenter Avdeling Barnehage" />
		<tag k="no-barnehage:nsrid" v="1025330" />
		<tag k="operator" v="Skaun kommune" />
		<tag k="operator:type" v="public" />
		<tag k="start_date" v="1993-01-01" />
	</node>
	<node id="-5158" lat="63.2494" lon="10.0578">
		<tag k="amenity" v="kindergarten" />
		<tag k="capacity" v="37" />
		<tag k="contact:phone" v="72 86 80 18" />
		<tag k="contact:website" v="http://www.skaun.kommune.no" />
		<tag k="max_age" v="5" />
		<tag k="min_age" v="1" />
		<tag k="name" v="Venn Oppvekstsenter Avdeling Barnehage" />
		<tag k="no-barnehage:nsrid" v="1018253" />
		<tag k="operator" v="Skaun kommune" />
		<tag k="operator:type" v="public" />
		<tag k="start_date" v="1989-01-01" />
	</node>
	<node id="-5157" lat="63.3117" lon="10.1864">
		<tag k="amenity" v="kindergarten" />
		<tag k="capacity" v="51" />
		<tag k="contact:phone" v="72 86 55 60" />
		<tag k="max_age" v="5" />
		<tag k="min_age" v="1" />
		<tag k="name" v="Pundslia barnehage" />
		<tag k="no-barnehage:nsrid" v="1018252" />
		<tag k="operator" v="Skaun kommune" />
		<tag k="operator:type" v="public" />
		<tag k="start_date" v="1989-01-01" />
	</node>
	<node id="-5156" lat="63.3117" lon="10.1864">
		<tag k="amenity" v="kindergarten" />
		<tag k="capacity" v="151" />
		<tag k="contact:phone" v="72 86 88 70" />
		<tag k="max_age" v="5" />
		<tag k="min_age" v="1" />
		<tag k="name" v="Oterhaugen barnehage" />
		<tag k="no-barnehage:nsrid" v="1017025" />
		<tag k="operator" v="Skaun kommune" />
		<tag k="operator:type" v="public" />
		<tag k="start_date" v="2006-01-02" />
	</node>
	<node id="-5155" lat="63.2494" lon="10.0578">
		<tag k="amenity" v="kindergarten" />
		<tag k="capacity" v="31" />
		<tag k="contact:phone" v="72 86 29 35" />
		<tag k="max_age" v="5" />
		<tag k="min_age" v="1" />
		<tag k="name" v="Jåren-Råbygda Oppvekstsenter Avdeling Barnehage" />
		<tag k="no-barnehage:nsrid" v="1016120" />
		<tag k="operator" v="Skaun kommune" />
		<tag k="operator:type" v="public" />
		<tag k="start_date" v="1999-01-01" />
	</node>
	<node id="-5154" lat="63.3027" lon="10.1465">
		<tag k="amenity" v="kindergarten" />
		<tag k="capacity" v="90" />
		<tag k="contact:phone" v="72 86 55 11" />
		<tag k="max_age" v="5" />
		<tag k="min_age" v="1" />
		<tag k="name" v="Ilhaugen barnehage" />
		<tag k="no-barnehage:nsrid" v="1014786" />
		<tag k="operator" v="Skaun kommune" />
		<tag k="operator:type" v="public" />
		<tag k="start_date" v="1993-08-01" />
	</node>
	<node id="-5153" lat="63.30843" lon="10.16642">
		<tag k="amenity" v="kindergarten" />
		<tag k="name" v="Hammerdalen barnehage" />
		<tag k="no-barnehage:nsrid" v="1025974" />
		<tag k="operator" v="Skaun kommune" />
		<tag k="operator:type" v="public" />
		<tag k="start_date" v="2015-08-01" />
	</node>
</osm>
