<?xml version="1.0" encoding="UTF-8"?>
<osm generator="osmapis" version="0.6">
	<node id="-2368" lat="63.28638" lon="9.84104">
		<tag k="ADDRESS" v="Emmavegen 14, 7300 ORKANGER" />
		<tag k="amenity" v="kindergarten" />
		<tag k="capacity" v="126" />
		<tag k="max_age" v="5" />
		<tag k="min_age" v="1" />
		<tag k="name" v="Evjen barnehage" />
		<tag k="no-barnehage:nsrid" v="1012560" />
		<tag k="operator" v="Orkland kommune" />
		<tag k="operator:type" v="public" />
	</node>
	<node id="-2367" lat="63.31063" lon="9.85855">
		<tag k="ADDRESS" v="Dordigata 18, 7300 ORKANGER" />
		<tag k="amenity" v="kindergarten" />
		<tag k="capacity" v="68" />
		<tag k="contact:website" v="http://www.orkdal.kommune.no" />
		<tag k="max_age" v="5" />
		<tag k="min_age" v="1" />
		<tag k="name" v="Bekkefaret barnehage" />
		<tag k="no-barnehage:nsrid" v="1018242" />
		<tag k="operator" v="Orkland kommune" />
		<tag k="operator:type" v="public" />
	</node>
	<node id="-2382" lat="62.98557" lon="9.74356">
		<tag k="ADDRESS" v="Stensveien 5, 7335 JERPSTAD" />
		<tag k="amenity" v="kindergarten" />
		<tag k="capacity" v="19" />
		<tag k="contact:website" v="http://www.orkland.kommune.no/" />
		<tag k="max_age" v="5" />
		<tag k="min_age" v="1" />
		<tag k="name" v="Å barnehage" />
		<tag k="no-barnehage:nsrid" v="1018240" />
		<tag k="operator" v="Orkland kommune" />
		<tag k="operator:type" v="public" />
	</node>
	<node id="-2381" lat="63.19912" lon="9.76934">
		<tag k="ADDRESS" v="Skreddarvegen, 7327 SVORKMO" />
		<tag k="amenity" v="kindergarten" />
		<tag k="capacity" v="22" />
		<tag k="max_age" v="5" />
		<tag k="min_age" v="1" />
		<tag k="name" v="Vormstad barnehage" />
		<tag k="no-barnehage:nsrid" v="1013792" />
		<tag k="operator" v="Orkland kommune" />
		<tag k="operator:type" v="public" />
	</node>
	<node id="-2380" lat="63.17095" lon="9.7443">
		<tag k="ADDRESS" v="Årlivollvegen 19, 7327 SVORKMO" />
		<tag k="amenity" v="kindergarten" />
		<tag k="capacity" v="41" />
		<tag k="max_age" v="5" />
		<tag k="min_age" v="1" />
		<tag k="name" v="Svorkmo barnehage" />
		<tag k="no-barnehage:nsrid" v="1025312" />
		<tag k="operator" v="Orkland kommune" />
		<tag k="operator:type" v="public" />
	</node>
	<node id="-2379" lat="63.09226" lon="9.59999">
		<tag k="ADDRESS" v="Øvermoan 1, 7334 STORÅS" />
		<tag k="amenity" v="kindergarten" />
		<tag k="capacity" v="47" />
		<tag k="max_age" v="5" />
		<tag k="min_age" v="1" />
		<tag k="name" v="Storås barnehage" />
		<tag k="no-barnehage:nsrid" v="1018239" />
		<tag k="operator" v="Orkland kommune" />
		<tag k="operator:type" v="public" />
	</node>
	<node id="-2378" lat="63.31108" lon="9.85453">
		<tag k="ADDRESS" v="Grensen 3, 7300 ORKANGER" />
		<tag k="amenity" v="kindergarten" />
		<tag k="capacity" v="104" />
		<tag k="max_age" v="5" />
		<tag k="min_age" v="1" />
		<tag k="name" v="Rianmyra barnehage" />
		<tag k="no-barnehage:nsrid" v="1015957" />
		<tag k="operator" v="Orkland kommune" />
		<tag k="operator:type" v="public" />
	</node>
	<node id="-2377" lat="63.26638" lon="9.8189">
		<tag k="ADDRESS" v="Blomstervegen 1, 7320 FANNREM" />
		<tag k="amenity" v="kindergarten" />
		<tag k="capacity" v="37" />
		<tag k="max_age" v="5" />
		<tag k="min_age" v="1" />
		<tag k="name" v="NLM barnehagene avd. Liavoll barnehage" />
		<tag k="no-barnehage:nsrid" v="1016739" />
		<tag k="operator" v="Nlm-Barnehagene AS" />
		<tag k="operator:type" v="private" />
	</node>
	<node id="-2376" lat="0.0" lon="0.0">
		<tag k="ADDRESS" v=", 7318 AGDENES" />
		<tag k="amenity" v="kindergarten" />
		<tag k="capacity" v="12" />
		<tag k="max_age" v="5" />
		<tag k="min_age" v="1" />
		<tag k="name" v="Mølnbukt barnehage" />
		<tag k="no-barnehage:nsrid" v="1018232" />
		<tag k="operator" v="Orkland kommune" />
		<tag k="operator:type" v="public" />
	</node>
	<node id="-2375" lat="63.12531" lon="9.69661">
		<tag k="ADDRESS" v="Smedhaugen 1, 7332 LØKKEN VERK" />
		<tag k="amenity" v="kindergarten" />
		<tag k="capacity" v="67" />
		<tag k="max_age" v="5" />
		<tag k="min_age" v="1" />
		<tag k="name" v="Løkken barnehage" />
		<tag k="no-barnehage:nsrid" v="1016738" />
		<tag k="operator" v="Orkland kommune" />
		<tag k="operator:type" v="public" />
	</node>
	<node id="-2374" lat="0.0" lon="0.0">
		<tag k="ADDRESS" v=", 7316 LENSVIK" />
		<tag k="amenity" v="kindergarten" />
		<tag k="capacity" v="62" />
		<tag k="max_age" v="5" />
		<tag k="min_age" v="1" />
		<tag k="name" v="Lensvik barnehage" />
		<tag k="no-barnehage:nsrid" v="1013958" />
		<tag k="operator" v="Orkland kommune" />
		<tag k="operator:type" v="public" />
	</node>
	<node id="-2373" lat="63.40312" lon="9.53097">
		<tag k="ADDRESS" v="Krokstadøra, 7257 SNILLFJORD" />
		<tag k="amenity" v="kindergarten" />
		<tag k="capacity" v="17" />
		<tag k="max_age" v="5" />
		<tag k="min_age" v="1" />
		<tag k="name" v="Krokstadøra barnehage" />
		<tag k="no-barnehage:nsrid" v="1013775" />
		<tag k="operator" v="Orkland kommune" />
		<tag k="operator:type" v="public" />
	</node>
	<node id="-2372" lat="63.49381" lon="9.13232">
		<tag k="ADDRESS" v="Hemnskjelveien 191, 7256 HEMNSKJELA" />
		<tag k="amenity" v="kindergarten" />
		<tag k="capacity" v="16" />
		<tag k="max_age" v="5" />
		<tag k="min_age" v="1" />
		<tag k="name" v="Hemnskjela oppvekstsenter avd. barnehage" />
		<tag k="no-barnehage:nsrid" v="1014244" />
		<tag k="operator" v="Hitra kommune" />
		<tag k="operator:type" v="public" />
	</node>
	<node id="-2371" lat="63.25946" lon="9.81348">
		<tag k="ADDRESS" v="Myrtunet 4, 7320 FANNREM" />
		<tag k="amenity" v="kindergarten" />
		<tag k="capacity" v="155" />
		<tag k="max_age" v="5" />
		<tag k="min_age" v="1" />
		<tag k="name" v="Grøtte barnehage" />
		<tag k="no-barnehage:nsrid" v="1015016" />
		<tag k="operator" v="Orkland kommune" />
		<tag k="operator:type" v="public" />
	</node>
	<node id="-2370" lat="0.0" lon="0.0">
		<tag k="ADDRESS" v=", 7336 MELDAL" />
		<tag k="amenity" v="kindergarten" />
		<tag k="capacity" v="51" />
		<tag k="max_age" v="5" />
		<tag k="min_age" v="1" />
		<tag k="name" v="Grefstad barnehage" />
		<tag k="no-barnehage:nsrid" v="1016118" />
		<tag k="operator" v="Orkland kommune" />
		<tag k="operator:type" v="public" />
	</node>
	<node id="-2369" lat="0.0" lon="0.0">
		<tag k="ADDRESS" v=", 7310 GJØLME" />
		<tag k="amenity" v="kindergarten" />
		<tag k="capacity" v="61" />
		<tag k="max_age" v="5" />
		<tag k="min_age" v="1" />
		<tag k="name" v="Gjølme barnehage" />
		<tag k="no-barnehage:nsrid" v="1018241" />
		<tag k="operator" v="Orkland kommune" />
		<tag k="operator:type" v="public" />
	</node>
</osm>
