<?xml version="1.0" encoding="UTF-8"?>
<osm generator="osmapis" version="0.6">
	<node id="-1496" lat="60.5603" lon="12.0544">
		<tag k="amenity" v="kindergarten" />
		<tag k="capacity" v="21" />
		<tag k="max_age" v="5" />
		<tag k="min_age" v="1" />
		<tag k="name" v="Jara barnehage" />
		<tag k="no-barnehage:nsrid" v="1014943" />
		<tag k="operator" v="Åsnes kommune" />
		<tag k="operator:type" v="public" />
	</node>
	<node id="-1495" lat="60.69839" lon="12.39645">
		<tag k="amenity" v="kindergarten" />
		<tag k="capacity" v="18" />
		<tag k="max_age" v="5" />
		<tag k="min_age" v="1" />
		<tag k="name" v="Finnskogen barnehage" />
		<tag k="no-barnehage:nsrid" v="1026425" />
		<tag k="operator" v="Finnskogen barnehage Sa" />
		<tag k="operator:type" v="private" />
	</node>
	<node id="-1499" lat="60.64762" lon="12.04092">
		<tag k="amenity" v="kindergarten" />
		<tag k="capacity" v="58" />
		<tag k="contact:website" v="http://tyristubben.barnehage.no" />
		<tag k="max_age" v="5" />
		<tag k="min_age" v="1" />
		<tag k="name" v="Tyristubben FUS barnehage" />
		<tag k="no-barnehage:nsrid" v="1021156" />
		<tag k="operator" v="Tyristubben Fus barnehage AS" />
		<tag k="operator:type" v="private" />
	</node>
	<node id="-1498" lat="60.56034" lon="12.05441">
		<tag k="amenity" v="kindergarten" />
		<tag k="capacity" v="21" />
		<tag k="contact:website" v="http://www.solormontessori.no" />
		<tag k="max_age" v="5" />
		<tag k="min_age" v="1" />
		<tag k="name" v="Solør Montessori barnehage" />
		<tag k="no-barnehage:nsrid" v="1022226" />
		<tag k="operator" v="Solør Montessori barnehage AS" />
		<tag k="operator:type" v="private" />
	</node>
	<node id="-1497" lat="60.56034" lon="12.05441">
		<tag k="amenity" v="kindergarten" />
		<tag k="capacity" v="33" />
		<tag k="contact:website" v="http://mosognbarnehage.no" />
		<tag k="max_age" v="5" />
		<tag k="min_age" v="1" />
		<tag k="name" v="Mosogn barnehage og Etter skoleordning" />
		<tag k="no-barnehage:nsrid" v="1019825" />
		<tag k="operator" v="Mosogn barnehage og Etter Skoleordning Sa" />
		<tag k="operator:type" v="private" />
	</node>
</osm>
