<?xml version="1.0" encoding="UTF-8"?>
<osm generator="osmapis" version="0.6">
	<node id="-1884" lat="60.64762" lon="12.04092">
		<tag k="amenity" v="kindergarten" />
		<tag k="capacity" v="61" />
		<tag k="contact:email" v="dl.tyristubben@bhg.no" />
		<tag k="contact:phone" v="+47 62 95 04 10" />
		<tag k="contact:website" v="http://tyristubben.barnehage.no" />
		<tag k="max_age" v="5" />
		<tag k="min_age" v="1" />
		<tag k="name" v="Tyristubben Fus barnehage Sa" />
		<tag k="no-barnehage:nsrid" v="1021156" />
		<tag k="operator" v="Tyristubben Fus barnehage Sa" />
		<tag k="operator:type" v="private" />
		<tag k="start_date" v="2007-01-01" />
	</node>
	<node id="-1883" lat="60.6578" lon="12.082">
		<tag k="amenity" v="kindergarten" />
		<tag k="capacity" v="23" />
		<tag k="contact:email" v="eva.karin.christensen@asnes.kommune.no" />
		<tag k="contact:phone" v="+47 62 95 08 93" />
		<tag k="max_age" v="5" />
		<tag k="min_age" v="1" />
		<tag k="name" v="Sønsterud barnehage" />
		<tag k="no-barnehage:nsrid" v="1012870" />
		<tag k="operator" v="Åsnes kommune" />
		<tag k="operator:type" v="public" />
		<tag k="start_date" v="1988-04-01" />
	</node>
	<node id="-1882" lat="60.56034" lon="12.05441">
		<tag k="amenity" v="kindergarten" />
		<tag k="capacity" v="19" />
		<tag k="contact:email" v="lisbeth.moe@solormontessori.no" />
		<tag k="contact:phone" v="+47 40028340" />
		<tag k="contact:website" v="http://www.solormontessori.no" />
		<tag k="max_age" v="5" />
		<tag k="min_age" v="1" />
		<tag k="name" v="Solør Montessori barnehage AS" />
		<tag k="no-barnehage:nsrid" v="1022226" />
		<tag k="operator" v="Solør Montessori barnehage AS" />
		<tag k="operator:type" v="private" />
		<tag k="start_date" v="2006-01-04" />
	</node>
	<node id="-1881" lat="60.6166" lon="12.0081">
		<tag k="amenity" v="kindergarten" />
		<tag k="capacity" v="43" />
		<tag k="contact:email" v="liv.else.dahl@asnes.kommune.no" />
		<tag k="contact:phone" v="+47 62956820" />
		<tag k="max_age" v="5" />
		<tag k="min_age" v="1" />
		<tag k="name" v="Myrsnipa barnehage" />
		<tag k="no-barnehage:nsrid" v="1012871" />
		<tag k="operator" v="Åsnes kommune" />
		<tag k="operator:type" v="public" />
		<tag k="start_date" v="1988-04-01" />
	</node>
	<node id="-1880" lat="60.56034" lon="12.05441">
		<tag k="amenity" v="kindergarten" />
		<tag k="capacity" v="33" />
		<tag k="contact:email" v="i-ma-myh@mosognbarnehage.no" />
		<tag k="contact:phone" v="+47 62953241" />
		<tag k="contact:website" v="http://mosognbarnehage.no" />
		<tag k="max_age" v="5" />
		<tag k="min_age" v="1" />
		<tag k="name" v="Mosogn barnehage og Etter Skoleordning Sa" />
		<tag k="no-barnehage:nsrid" v="1019825" />
		<tag k="operator" v="Mosogn barnehage og Etter Skoleordning Sa" />
		<tag k="operator:type" v="private" />
		<tag k="start_date" v="1989-01-02" />
	</node>
	<node id="-1879" lat="60.5603" lon="12.0544">
		<tag k="amenity" v="kindergarten" />
		<tag k="capacity" v="26" />
		<tag k="contact:email" v="lena.henriksen@asnes.kommune.no" />
		<tag k="contact:phone" v="+47 62 95 37 08" />
		<tag k="max_age" v="5" />
		<tag k="min_age" v="1" />
		<tag k="name" v="Jara barnehage" />
		<tag k="no-barnehage:nsrid" v="1014943" />
		<tag k="operator" v="Åsnes kommune" />
		<tag k="operator:type" v="public" />
		<tag k="start_date" v="1996-01-01" />
	</node>
	<node id="-1878" lat="60.69839" lon="12.39645">
		<tag k="amenity" v="kindergarten" />
		<tag k="capacity" v="13" />
		<tag k="max_age" v="5" />
		<tag k="min_age" v="1" />
		<tag k="name" v="Finnskogen barnehage Sa" />
		<tag k="no-barnehage:nsrid" v="1026425" />
		<tag k="operator" v="Finnskogen barnehage Sa" />
		<tag k="operator:type" v="private" />
		<tag k="start_date" v="2016-01-11" />
	</node>
	<node id="-1877" lat="60.625" lon="12.0485">
		<tag k="amenity" v="kindergarten" />
		<tag k="capacity" v="48" />
		<tag k="contact:email" v="anita.stensbol@asnes.kommune.no" />
		<tag k="contact:phone" v="+47 62 95 40 60" />
		<tag k="max_age" v="5" />
		<tag k="min_age" v="1" />
		<tag k="name" v="Bashammeren barnehage" />
		<tag k="no-barnehage:nsrid" v="1016377" />
		<tag k="operator" v="Åsnes kommune" />
		<tag k="operator:type" v="public" />
		<tag k="start_date" v="2002-04-01" />
	</node>
</osm>
