<?xml version="1.0" encoding="UTF-8"?>
<osm generator="osmapis" version="0.6">
	<node id="-2560" lat="59.5056" lon="10.2515">
		<tag k="amenity" v="kindergarten" />
		<tag k="capacity" v="18" />
		<tag k="contact:email" v="botnebar@online.no" />
		<tag k="contact:phone" v="+47 33 05 63 45" />
		<tag k="max_age" v="5" />
		<tag k="min_age" v="1" />
		<tag k="name" v="Botnestua barnehage" />
		<tag k="no-barnehage:nsrid" v="1016869" />
		<tag k="operator" v="Botne Skiklubb" />
		<tag k="operator:type" v="private" />
		<tag k="start_date" v="1989-01-02" />
	</node>
	<node id="-2559" lat="59.48586" lon="10.30064">
		<tag k="amenity" v="kindergarten" />
		<tag k="capacity" v="27" />
		<tag k="contact:email" v="bmbbarnehage@online.no" />
		<tag k="contact:phone" v="+47 33 05 15 87" />
		<tag k="max_age" v="5" />
		<tag k="min_age" v="1" />
		<tag k="name" v="Bmb barnehage" />
		<tag k="no-barnehage:nsrid" v="1019504" />
		<tag k="operator" v="Bmb barnehage" />
		<tag k="operator:type" v="private" />
		<tag k="start_date" v="1978-08-17" />
	</node>
	<node id="-2558" lat="59.48468" lon="10.32507">
		<tag k="amenity" v="kindergarten" />
		<tag k="capacity" v="33" />
		<tag k="contact:email" v="epost@backersbhg.no" />
		<tag k="contact:phone" v="+47 033053149" />
		<tag k="contact:website" v="http://backersbarnehage.blogspot.com/" />
		<tag k="max_age" v="5" />
		<tag k="min_age" v="1" />
		<tag k="name" v="Backers barnehage Sa" />
		<tag k="no-barnehage:nsrid" v="1019892" />
		<tag k="operator" v="Backers barnehage Sa" />
		<tag k="operator:type" v="private" />
		<tag k="start_date" v="1989-12-01" />
	</node>
	<node id="-2565" lat="59.4863" lon="10.3092">
		<tag k="amenity" v="kindergarten" />
		<tag k="capacity" v="75" />
		<tag k="contact:email" v="elhan@holmestrand.kommune.no" />
		<tag k="contact:phone" v="+47 33 05 21 11" />
		<tag k="max_age" v="5" />
		<tag k="min_age" v="1" />
		<tag k="name" v="Knutseskogen barnehage" />
		<tag k="no-barnehage:nsrid" v="1016251" />
		<tag k="operator" v="Holmestrand kommune" />
		<tag k="operator:type" v="public" />
		<tag k="start_date" v="1976-01-01" />
	</node>
	<node id="-2564" lat="59.5108" lon="10.2846">
		<tag k="amenity" v="kindergarten" />
		<tag k="capacity" v="93" />
		<tag k="contact:email" v="katrine.danielsen@holmestrand.kommune.no" />
		<tag k="contact:phone" v="+47 33 05 61 75" />
		<tag k="max_age" v="5" />
		<tag k="min_age" v="1" />
		<tag k="name" v="Kleiverud barnehage" />
		<tag k="no-barnehage:nsrid" v="1016252" />
		<tag k="operator" v="Holmestrand kommune" />
		<tag k="operator:type" v="public" />
		<tag k="start_date" v="1989-01-01" />
	</node>
	<node id="-2563" lat="59.4965" lon="10.2564">
		<tag k="amenity" v="kindergarten" />
		<tag k="capacity" v="67" />
		<tag k="contact:email" v="theresebreen.brudevoll@holmestrand.kommune.no" />
		<tag k="contact:phone" v="+47 33 05 51 53" />
		<tag k="max_age" v="5" />
		<tag k="min_age" v="1" />
		<tag k="name" v="Gullhaug barnehage" />
		<tag k="no-barnehage:nsrid" v="1016253" />
		<tag k="operator" v="Holmestrand kommune" />
		<tag k="operator:type" v="public" />
		<tag k="start_date" v="1989-01-01" />
	</node>
	<node id="-2562" lat="59.50114" lon="10.2867">
		<tag k="amenity" v="kindergarten" />
		<tag k="capacity" v="38" />
		<tag k="contact:email" v="gaupas@barnehage.no" />
		<tag k="contact:phone" v="+47 33055810" />
		<tag k="contact:website" v="http://www.gaupas.barnehage.no" />
		<tag k="max_age" v="5" />
		<tag k="min_age" v="1" />
		<tag k="name" v="Gaupås barnehage Sa" />
		<tag k="no-barnehage:nsrid" v="1020017" />
		<tag k="operator" v="Gaupås barnehage Sa" />
		<tag k="operator:type" v="private" />
		<tag k="start_date" v="1992-01-01" />
	</node>
	<node id="-2561" lat="59.47606" lon="10.32147">
		<tag k="amenity" v="kindergarten" />
		<tag k="capacity" v="54" />
		<tag k="contact:email" v="eikelund@barnehage.no" />
		<tag k="contact:phone" v="+47 33 09 90 50" />
		<tag k="max_age" v="5" />
		<tag k="min_age" v="1" />
		<tag k="name" v="Eikelund barnehage Sa" />
		<tag k="no-barnehage:nsrid" v="1021145" />
		<tag k="operator" v="Eikelund barnehage Sa" />
		<tag k="operator:type" v="private" />
		<tag k="start_date" v="2004-09-28" />
	</node>
</osm>
