<?xml version="1.0" encoding="UTF-8"?>
<osm version="0.6" generator="osmapis">
	<node lat="59.96666" lon="9.99252" id="-2858">
		<tag k="ADDRESS" v="Rådyrveien 6, 3370 VIKERSUND" />
		<tag k="amenity" v="kindergarten" />
		<tag k="capacity" v="44" />
		<tag k="max_age" v="5" />
		<tag k="min_age" v="1" />
		<tag k="name" v="Barnas Hus" />
		<tag k="no-barnehage:nsrid" v="975306550" />
		<tag k="operator" v="Modum kommune" />
		<tag k="operator:type" v="public" />
	</node>
	<node lat="59.95987" lon="9.96312" id="-2859">
		<tag k="ADDRESS" v="Brunesveien 73, 3370 VIKERSUND" />
		<tag k="amenity" v="kindergarten" />
		<tag k="capacity" v="36" />
		<tag k="max_age" v="5" />
		<tag k="min_age" v="1" />
		<tag k="name" v="Brunes naturbarnehage" />
		<tag k="no-barnehage:nsrid" v="992251344" />
		<tag k="operator" v="Modum kommune" />
		<tag k="operator:type" v="public" />
	</node>
	<node lat="59.98837" lon="9.88986" id="-2860">
		<tag k="ADDRESS" v="Sysleveien 221, 3370 VIKERSUND" />
		<tag k="amenity" v="kindergarten" />
		<tag k="capacity" v="17" />
		<tag k="max_age" v="5" />
		<tag k="min_age" v="1" />
		<tag k="name" v="Bøen barnehage" />
		<tag k="no-barnehage:nsrid" v="973476173" />
		<tag k="operator" v="Bøen barnehage SA" />
		<tag k="operator:type" v="private" />
	</node>
	<node lat="59.89565" lon="9.92383" id="-2861">
		<tag k="ADDRESS" v="Stadionveien 7, 3340 ÅMOT" />
		<tag k="amenity" v="kindergarten" />
		<tag k="capacity" v="47" />
		<tag k="max_age" v="5" />
		<tag k="min_age" v="1" />
		<tag k="name" v="Bårudåsen barnehage" />
		<tag k="no-barnehage:nsrid" v="986707395" />
		<tag k="operator" v="Modum kommune" />
		<tag k="operator:type" v="public" />
	</node>
	<node lat="60.02268" lon="10.00467" id="-2862">
		<tag k="ADDRESS" v="Tonsveien 217, 3370 VIKERSUND" />
		<tag k="amenity" v="kindergarten" />
		<tag k="capacity" v="9" />
		<tag k="max_age" v="5" />
		<tag k="min_age" v="1" />
		<tag k="name" v="Drolsum naturbarnehage" />
		<tag k="no-barnehage:nsrid" v="973219375" />
		<tag k="operator" v="Drolsum naturbarnehage" />
		<tag k="operator:type" v="private" />
	</node>
	<node lat="59.99734" lon="10.04771" id="-2863">
		<tag k="ADDRESS" v="Rødsveien 2, 3370 VIKERSUND" />
		<tag k="amenity" v="kindergarten" />
		<tag k="capacity" v="15" />
		<tag k="contact:website" v="http://fure.barnehage.no" />
		<tag k="max_age" v="5" />
		<tag k="min_age" v="1" />
		<tag k="name" v="Fure barnehage" />
		<tag k="no-barnehage:nsrid" v="973233092" />
		<tag k="operator" v="Fure barnehage SA" />
		<tag k="operator:type" v="private" />
	</node>
	<node lat="59.96771" lon="9.94282" id="-2864">
		<tag k="ADDRESS" v="Badeveien 287, 3370 VIKERSUND" />
		<tag k="amenity" v="kindergarten" />
		<tag k="capacity" v="27" />
		<tag k="max_age" v="5" />
		<tag k="min_age" v="1" />
		<tag k="name" v="Kilden barnehage" />
		<tag k="no-barnehage:nsrid" v="975043789" />
		<tag k="operator" v="Modum Bad" />
		<tag k="operator:type" v="private" />
	</node>
	<node lat="59.94474" lon="9.97069" id="-2865">
		<tag k="ADDRESS" v="Kjemperudveien 2, 3360 GEITHUS" />
		<tag k="amenity" v="kindergarten" />
		<tag k="capacity" v="78" />
		<tag k="max_age" v="5" />
		<tag k="min_age" v="1" />
		<tag k="name" v="Kjemperud FUS barnehage" />
		<tag k="no-barnehage:nsrid" v="990259011" />
		<tag k="operator" v="Kjemperud Fus barnehage AS" />
		<tag k="operator:type" v="private" />
	</node>
	<node lat="59.95819" lon="9.98092" id="-2866">
		<tag k="ADDRESS" v="Fossveien 2, 3370 VIKERSUND" />
		<tag k="amenity" v="kindergarten" />
		<tag k="capacity" v="48" />
		<tag k="max_age" v="5" />
		<tag k="min_age" v="1" />
		<tag k="name" v="Kroka barnehage" />
		<tag k="no-barnehage:nsrid" v="981995864" />
		<tag k="operator" v="Modum kommune" />
		<tag k="operator:type" v="public" />
	</node>
	<node lat="59.90251" lon="9.90371" id="-2867">
		<tag k="ADDRESS" v="Strandgata 37, 3340 ÅMOT" />
		<tag k="amenity" v="kindergarten" />
		<tag k="capacity" v="71" />
		<tag k="contact:website" v="http://laringsverkstedet.no/barnehage/amot" />
		<tag k="max_age" v="5" />
		<tag k="min_age" v="1" />
		<tag k="name" v="Læringsverkstedet barnehage avd. Åmot" />
		<tag k="no-barnehage:nsrid" v="974632306" />
		<tag k="operator" v="Læringsverkstedet AS" />
		<tag k="operator:type" v="private" />
	</node>
	<node lat="59.98328" lon="9.93264" id="-2868">
		<tag k="ADDRESS" v="Kaggefossveien 64, 3370 VIKERSUND" />
		<tag k="amenity" v="kindergarten" />
		<tag k="capacity" v="23" />
		<tag k="contact:website" v="http://lonnebergetbhg.no" />
		<tag k="max_age" v="5" />
		<tag k="min_age" v="1" />
		<tag k="name" v="Lønneberget barnehage" />
		<tag k="no-barnehage:nsrid" v="915233805" />
		<tag k="operator" v="Lønneberget Bhg AS" />
		<tag k="operator:type" v="private" />
	</node>
	<node lat="59.89889" lon="9.9376" id="-2869">
		<tag k="ADDRESS" v="Melumveien 2, 3340 ÅMOT" />
		<tag k="amenity" v="kindergarten" />
		<tag k="capacity" v="61" />
		<tag k="contact:website" v="http://melumenga.modum.kommune.no/forsiden.124128.no.html" />
		<tag k="max_age" v="5" />
		<tag k="min_age" v="1" />
		<tag k="name" v="Mælumenga barnehage" />
		<tag k="no-barnehage:nsrid" v="987517700" />
		<tag k="operator" v="Modum kommune" />
		<tag k="operator:type" v="public" />
	</node>
	<node lat="59.89685" lon="9.88944" id="-2870">
		<tag k="ADDRESS" v="Setersbergveien 50, 3340 ÅMOT" />
		<tag k="amenity" v="kindergarten" />
		<tag k="capacity" v="44" />
		<tag k="max_age" v="5" />
		<tag k="min_age" v="1" />
		<tag k="name" v="Nordbråten barnehage" />
		<tag k="no-barnehage:nsrid" v="975322807" />
		<tag k="operator" v="Modum kommune" />
		<tag k="operator:type" v="public" />
	</node>
	<node lat="59.92237" lon="9.95912" id="-2871">
		<tag k="ADDRESS" v="Skredsvikmoen 55, 3360 GEITHUS" />
		<tag k="amenity" v="kindergarten" />
		<tag k="capacity" v="107" />
		<tag k="contact:website" v="http://modum2019.custompublish.com/skredsvikmoen-barnehage.491556.no.html" />
		<tag k="max_age" v="5" />
		<tag k="min_age" v="1" />
		<tag k="name" v="Skredsvikmoen barnehage" />
		<tag k="no-barnehage:nsrid" v="921045808" />
		<tag k="operator" v="Modum kommune" />
		<tag k="operator:type" v="public" />
	</node>
	<node lat="60.0232" lon="9.87931" id="-2872">
		<tag k="ADDRESS" v="Nyhusveien 283, 3370 VIKERSUND" />
		<tag k="amenity" v="kindergarten" />
		<tag k="capacity" v="9" />
		<tag k="contact:website" v="http://snarum.barnehage.no" />
		<tag k="max_age" v="5" />
		<tag k="min_age" v="1" />
		<tag k="name" v="Snarum barnehage" />
		<tag k="no-barnehage:nsrid" v="873457112" />
		<tag k="operator" v="Snarum barnehage SA" />
		<tag k="operator:type" v="private" />
	</node>
</osm>
