<?xml version="1.0" encoding="UTF-8"?>
<osm generator="osmapis" version="0.6">
	<node id="-5314" lat="63.50899" lon="10.01992">
		<tag k="ADDRESS" v="Handelsbakken 11, 7105 STADSBYGD" />
		<tag k="amenity" v="kindergarten" />
		<tag k="capacity" v="19" />
		<tag k="max_age" v="5" />
		<tag k="min_age" v="1" />
		<tag k="name" v="Akrobaten - barnehage" />
		<tag k="no-barnehage:nsrid" v="913721047" />
		<tag k="operator" v="Akrobaten - barnehage AS" />
		<tag k="operator:type" v="private" />
	</node>
	<node id="-5315" lat="0.0" lon="0.0">
		<tag k="ADDRESS" v="Amborsvingen 26, 7125 VANVIKAN" />
		<tag k="amenity" v="kindergarten" />
		<tag k="capacity" v="22" />
		<tag k="max_age" v="5" />
		<tag k="min_age" v="1" />
		<tag k="name" v="Borgly barnehage" />
		<tag k="no-barnehage:nsrid" v="988578088" />
		<tag k="operator" v="Borgly barnehage AS" />
		<tag k="operator:type" v="private" />
	</node>
	<node id="-5316" lat="63.75817" lon="10.0792">
		<tag k="ADDRESS" v="Pevikveien 11, 7114 RÅKVÅG" />
		<tag k="amenity" v="kindergarten" />
		<tag k="capacity" v="20" />
		<tag k="contact:website" v="http://www.indrefosen.kommune.no" />
		<tag k="max_age" v="5" />
		<tag k="min_age" v="1" />
		<tag k="name" v="Fagerbakken barnehage" />
		<tag k="no-barnehage:nsrid" v="973459546" />
		<tag k="operator" v="Indre Fosen kommune" />
		<tag k="operator:type" v="public" />
	</node>
	<node id="-5317" lat="0.0" lon="0.0">
		<tag k="ADDRESS" v="Valsåmyra 22, 7105 STADSBYGD" />
		<tag k="amenity" v="kindergarten" />
		<tag k="capacity" v="45" />
		<tag k="contact:website" v="http://www.indrefosen.kommune.no" />
		<tag k="max_age" v="5" />
		<tag k="min_age" v="1" />
		<tag k="name" v="Fembøringen barnehage" />
		<tag k="no-barnehage:nsrid" v="974022877" />
		<tag k="operator" v="Indre Fosen kommune" />
		<tag k="operator:type" v="public" />
	</node>
	<node id="-5318" lat="63.6773" lon="9.86388">
		<tag k="ADDRESS" v="Jonsbakken 7, 7110 FEVÅG" />
		<tag k="amenity" v="kindergarten" />
		<tag k="capacity" v="28" />
		<tag k="contact:website" v="http://www.indrefosen.kommune.no" />
		<tag k="max_age" v="5" />
		<tag k="min_age" v="1" />
		<tag k="name" v="Fevåg barnehage" />
		<tag k="no-barnehage:nsrid" v="973459562" />
		<tag k="operator" v="Indre Fosen kommune" />
		<tag k="operator:type" v="public" />
	</node>
	<node id="-5319" lat="63.58873" lon="9.96822">
		<tag k="ADDRESS" v="Folkehøgskoleveien 24, 7100 RISSA" />
		<tag k="amenity" v="kindergarten" />
		<tag k="capacity" v="29" />
		<tag k="max_age" v="5" />
		<tag k="min_age" v="1" />
		<tag k="name" v="Fosnaheim naturbarnehage" />
		<tag k="no-barnehage:nsrid" v="973470345" />
		<tag k="operator" v="Fosnaheim Barnehagelag Sa" />
		<tag k="operator:type" v="private" />
	</node>
	<node id="-5320" lat="63.59491" lon="9.96012">
		<tag k="ADDRESS" v="Høgåsmyra 20, 7100 RISSA" />
		<tag k="amenity" v="kindergarten" />
		<tag k="capacity" v="70" />
		<tag k="contact:website" v="http://www.indrefosen.kommune.no" />
		<tag k="max_age" v="5" />
		<tag k="min_age" v="1" />
		<tag k="name" v="Høgåsmyra barnehage" />
		<tag k="no-barnehage:nsrid" v="975311252" />
		<tag k="operator" v="Indre Fosen kommune" />
		<tag k="operator:type" v="public" />
	</node>
	<node id="-5321" lat="0.0" lon="0.0">
		<tag k="ADDRESS" v="Ytter-Myran, 7120 LEKSVIK" />
		<tag k="amenity" v="kindergarten" />
		<tag k="capacity" v="56" />
		<tag k="contact:website" v="http://www.indrefosen.kommune.no" />
		<tag k="max_age" v="5" />
		<tag k="min_age" v="1" />
		<tag k="name" v="Leksvik barnehage" />
		<tag k="no-barnehage:nsrid" v="974579936" />
		<tag k="operator" v="Indre Fosen kommune" />
		<tag k="operator:type" v="public" />
	</node>
	<node id="-5322" lat="63.6506" lon="10.14984">
		<tag k="ADDRESS" v="Skaugdalsveien 951, 7100 RISSA" />
		<tag k="amenity" v="kindergarten" />
		<tag k="capacity" v="24" />
		<tag k="max_age" v="5" />
		<tag k="min_age" v="1" />
		<tag k="name" v="Skaugdalen barnehage" />
		<tag k="no-barnehage:nsrid" v="973459589" />
		<tag k="operator" v="Skaugdalen barnehage Sa" />
		<tag k="operator:type" v="private" />
	</node>
	<node id="-5323" lat="63.5604" lon="9.9232">
		<tag k="ADDRESS" v="Johan Bojers Vei 36, 7100 RISSA" />
		<tag k="amenity" v="kindergarten" />
		<tag k="capacity" v="22" />
		<tag k="contact:website" v="http://www.indrefosen.kommune.no" />
		<tag k="max_age" v="5" />
		<tag k="min_age" v="1" />
		<tag k="name" v="Skogly friluftsbarnehage" />
		<tag k="no-barnehage:nsrid" v="973459597" />
		<tag k="operator" v="Indre Fosen kommune" />
		<tag k="operator:type" v="public" />
	</node>
	<node id="-5324" lat="63.67461" lon="10.62767">
		<tag k="ADDRESS" v="Strandveien 81, 7120 LEKSVIK" />
		<tag k="amenity" v="kindergarten" />
		<tag k="capacity" v="40" />
		<tag k="max_age" v="5" />
		<tag k="min_age" v="1" />
		<tag k="name" v="Steinvegen barnehage" />
		<tag k="no-barnehage:nsrid" v="973589245" />
		<tag k="operator" v="Steinvegen barnehage AS" />
		<tag k="operator:type" v="private" />
	</node>
	<node id="-5325" lat="63.58574" lon="9.9596">
		<tag k="ADDRESS" v="Årnsetflata 8, 7100 RISSA" />
		<tag k="amenity" v="kindergarten" />
		<tag k="capacity" v="28" />
		<tag k="contact:website" v="http://www.tryllefloytenbhg.barnehageside.no/" />
		<tag k="max_age" v="5" />
		<tag k="min_age" v="1" />
		<tag k="name" v="Tryllefløyten musikkbarnehage" />
		<tag k="no-barnehage:nsrid" v="998505747" />
		<tag k="operator" v="Tryllefløyten Musikkbarnehage AS" />
		<tag k="operator:type" v="private" />
	</node>
	<node id="-5326" lat="63.51039" lon="10.01607">
		<tag k="ADDRESS" v="Trøaveien 1, 7105 STADSBYGD" />
		<tag k="amenity" v="kindergarten" />
		<tag k="capacity" v="26" />
		<tag k="max_age" v="5" />
		<tag k="min_age" v="1" />
		<tag k="name" v="Tungtrø barnehage" />
		<tag k="no-barnehage:nsrid" v="984800703" />
		<tag k="operator" v="Tungtrø barnehage AS" />
		<tag k="operator:type" v="private" />
	</node>
	<node id="-5327" lat="63.5535" lon="10.21087">
		<tag k="ADDRESS" v="Tæveveien 10, 7125 VANVIKAN" />
		<tag k="amenity" v="kindergarten" />
		<tag k="capacity" v="42" />
		<tag k="contact:website" v="http://www.indrefosen.kommune.no" />
		<tag k="max_age" v="5" />
		<tag k="min_age" v="1" />
		<tag k="name" v="Vanvikan barnehage" />
		<tag k="no-barnehage:nsrid" v="975311899" />
		<tag k="operator" v="Indre Fosen kommune" />
		<tag k="operator:type" v="public" />
	</node>
</osm>
