<?xml version="1.0" encoding="UTF-8"?>
<osm generator="osmapis" version="0.6">
	<node id="-4021" lat="59.76321" lon="5.468188">
		<tag k="amenity" v="kindergarten" />
		<tag k="capacity" v="5" />
		<tag k="contact:email" v="frien.barnehage@gmail.com" />
		<tag k="max_age" v="5" />
		<tag k="min_age" v="1" />
		<tag k="name" v="Frien barnehage AS" />
		<tag k="no-barnehage:nsrid" v="1022252" />
		<tag k="operator" v="Frien barnehage AS" />
		<tag k="operator:type" v="private" />
		<tag k="start_date" v="2012-02-06" />
	</node>
	<node id="-4019" lat="59.7714" lon="5.50253">
		<tag k="amenity" v="kindergarten" />
		<tag k="capacity" v="9" />
		<tag k="contact:email" v="kjerstI.karlsen@sklbb.no" />
		<tag k="contact:phone" v="+47 45425901" />
		<tag k="contact:website" v="http://www.solsikkenebarnehager.no" />
		<tag k="max_age" v="5" />
		<tag k="min_age" v="1" />
		<tag k="name" v="Bergly Familiebarnehage" />
		<tag k="no-barnehage:nsrid" v="1015669" />
		<tag k="operator" v="Solsikkene Barnehager AS" />
		<tag k="operator:type" v="private" />
		<tag k="start_date" v="1998-08-04" />
	</node>
</osm>
