<?xml version="1.0" encoding="UTF-8"?>
<osm generator="osmapis" version="0.6">
	<node id="-3712" lat="59.80122" lon="5.52637">
		<tag k="amenity" v="kindergarten" />
		<tag k="capacity" v="88" />
		<tag k="max_age" v="5" />
		<tag k="min_age" v="1" />
		<tag k="name" v="Sævarhagen FUS barnehage" />
		<tag k="no-barnehage:nsrid" v="1021518" />
		<tag k="operator" v="Sævarhagen Fus barnehage AS" />
		<tag k="operator:type" v="private" />
	</node>
	<node id="-3711" lat="59.78653" lon="5.502173">
		<tag k="amenity" v="kindergarten" />
		<tag k="capacity" v="127" />
		<tag k="max_age" v="5" />
		<tag k="min_age" v="1" />
		<tag k="name" v="Sæ barnehage" />
		<tag k="no-barnehage:nsrid" v="1022187" />
		<tag k="operator" v="Sæ barnehage AS" />
		<tag k="operator:type" v="private" />
	</node>
	<node id="-3710" lat="59.7927" lon="5.42918">
		<tag k="amenity" v="kindergarten" />
		<tag k="capacity" v="18" />
		<tag k="contact:website" v="http://www.solsikkenebarnehager.no" />
		<tag k="max_age" v="5" />
		<tag k="min_age" v="1" />
		<tag k="name" v="Stuastølen gardsbarnehage" />
		<tag k="no-barnehage:nsrid" v="1016951" />
		<tag k="operator" v="Solsikkene Barnehager AS" />
		<tag k="operator:type" v="private" />
	</node>
	<node id="-3709" lat="59.7764" lon="5.50216">
		<tag k="amenity" v="kindergarten" />
		<tag k="capacity" v="72" />
		<tag k="max_age" v="5" />
		<tag k="min_age" v="1" />
		<tag k="name" v="Skogatufto barnehage" />
		<tag k="no-barnehage:nsrid" v="1017370" />
		<tag k="operator" v="Stord kommune" />
		<tag k="operator:type" v="public" />
	</node>
	<node id="-3708" lat="59.77949" lon="5.391823">
		<tag k="amenity" v="kindergarten" />
		<tag k="capacity" v="79" />
		<tag k="max_age" v="5" />
		<tag k="min_age" v="1" />
		<tag k="name" v="Sagvåg Maritime FUS barnehage" />
		<tag k="no-barnehage:nsrid" v="1021736" />
		<tag k="operator" v="Sagvåg Maritime Fus barnehage AS" />
		<tag k="operator:type" v="private" />
	</node>
	<node id="-3707" lat="59.7814" lon="5.38996">
		<tag k="amenity" v="kindergarten" />
		<tag k="capacity" v="42" />
		<tag k="max_age" v="5" />
		<tag k="min_age" v="1" />
		<tag k="name" v="Sagvåg barnehage avd. Tjødnalio" />
		<tag k="no-barnehage:nsrid" v="1013798" />
		<tag k="operator" v="Stord kommune" />
		<tag k="operator:type" v="public" />
	</node>
	<node id="-3706" lat="59.7797" lon="5.39597">
		<tag k="amenity" v="kindergarten" />
		<tag k="capacity" v="34" />
		<tag k="max_age" v="5" />
		<tag k="min_age" v="1" />
		<tag k="name" v="Sagvåg barnehage avd. Nysæter" />
		<tag k="no-barnehage:nsrid" v="1014712" />
		<tag k="operator" v="Stord kommune" />
		<tag k="operator:type" v="public" />
	</node>
	<node id="-3705" lat="59.75794" lon="5.450494">
		<tag k="amenity" v="kindergarten" />
		<tag k="capacity" v="90" />
		<tag k="max_age" v="5" />
		<tag k="min_age" v="1" />
		<tag k="name" v="Olderdalen FUS barnehage" />
		<tag k="no-barnehage:nsrid" v="1021560" />
		<tag k="operator" v="Olderdalen Fus Kulturbarnehage AS" />
		<tag k="operator:type" v="private" />
	</node>
	<node id="-3704" lat="59.85331" lon="5.50342">
		<tag k="amenity" v="kindergarten" />
		<tag k="capacity" v="69" />
		<tag k="max_age" v="5" />
		<tag k="min_age" v="1" />
		<tag k="name" v="Nordbygdo FUS barnehage avd. Tyse" />
		<tag k="no-barnehage:nsrid" v="1022348" />
		<tag k="operator" v="Nordbygdo Fus barnehage AS" />
		<tag k="operator:type" v="private" />
	</node>
	<node id="-3703" lat="59.80128" lon="5.513146">
		<tag k="amenity" v="kindergarten" />
		<tag k="capacity" v="57" />
		<tag k="contact:website" v="http://www.prestagardskogen.bhg.no" />
		<tag k="max_age" v="5" />
		<tag k="min_age" v="1" />
		<tag k="name" v="Nordbygdo FUS barnehage avd. Prestagardskogen" />
		<tag k="no-barnehage:nsrid" v="1020544" />
		<tag k="operator" v="Nordbygdo Fus barnehage AS" />
		<tag k="operator:type" v="private" />
	</node>
	<node id="-3702" lat="59.76663" lon="5.499353">
		<tag k="amenity" v="kindergarten" />
		<tag k="capacity" v="50" />
		<tag k="max_age" v="5" />
		<tag k="min_age" v="1" />
		<tag k="name" v="Naustvågen barnehage" />
		<tag k="no-barnehage:nsrid" v="1020643" />
		<tag k="operator" v="Naustvågen barnehage" />
		<tag k="operator:type" v="private" />
	</node>
	<node id="-3701" lat="59.90021" lon="5.282347">
		<tag k="amenity" v="kindergarten" />
		<tag k="capacity" v="64" />
		<tag k="max_age" v="5" />
		<tag k="min_age" v="1" />
		<tag k="name" v="Kåreviksmarka FUS barnehage" />
		<tag k="no-barnehage:nsrid" v="1021052" />
		<tag k="operator" v="Kåreviksmarka Fus barnehage AS" />
		<tag k="operator:type" v="private" />
	</node>
	<node id="-3700" lat="59.7615" lon="5.45413">
		<tag k="amenity" v="kindergarten" />
		<tag k="capacity" v="16" />
		<tag k="max_age" v="5" />
		<tag k="min_age" v="1" />
		<tag k="name" v="Heiane barnehage" />
		<tag k="no-barnehage:nsrid" v="1017089" />
		<tag k="operator" v="Hero Norge AS" />
		<tag k="operator:type" v="private" />
	</node>
	<node id="-3699" lat="59.7943" lon="5.51069">
		<tag k="amenity" v="kindergarten" />
		<tag k="capacity" v="40" />
		<tag k="max_age" v="5" />
		<tag k="min_age" v="1" />
		<tag k="name" v="Furuly barnehage" />
		<tag k="no-barnehage:nsrid" v="1017371" />
		<tag k="operator" v="Stord kommune" />
		<tag k="operator:type" v="public" />
	</node>
	<node id="-3698" lat="59.80122" lon="5.519802">
		<tag k="amenity" v="kindergarten" />
		<tag k="capacity" v="49" />
		<tag k="max_age" v="5" />
		<tag k="min_age" v="1" />
		<tag k="name" v="Dalen FUS barnehage" />
		<tag k="no-barnehage:nsrid" v="1021966" />
		<tag k="operator" v="Dalen Fus barnehage AS" />
		<tag k="operator:type" v="private" />
	</node>
</osm>
