<?xml version="1.0" encoding="UTF-8"?>
<osm generator="osmapis" version="0.6">
	<node id="-4160" lat="59.80122" lon="5.52637">
		<tag k="amenity" v="kindergarten" />
		<tag k="capacity" v="97" />
		<tag k="contact:email" v="savarhagen@bhg.no" />
		<tag k="contact:phone" v="53 41 09 33" />
		<tag k="max_age" v="5" />
		<tag k="min_age" v="1" />
		<tag k="name" v="Sævarhagen Fus barnehage AS" />
		<tag k="no-barnehage:nsrid" v="1021518" />
		<tag k="operator" v="Sævarhagen Fus barnehage AS" />
		<tag k="operator:type" v="private" />
		<tag k="start_date" v="1992-08-01" />
	</node>
	<node id="-4159" lat="59.78653" lon="5.502173">
		<tag k="amenity" v="kindergarten" />
		<tag k="capacity" v="130" />
		<tag k="contact:phone" v="91175280" />
		<tag k="max_age" v="5" />
		<tag k="min_age" v="1" />
		<tag k="name" v="Sæ barnehage AS" />
		<tag k="no-barnehage:nsrid" v="1022187" />
		<tag k="operator" v="Sæ barnehage AS" />
		<tag k="operator:type" v="private" />
		<tag k="start_date" v="2011-02-17" />
	</node>
	<node id="-4158" lat="59.7927" lon="5.42918">
		<tag k="amenity" v="kindergarten" />
		<tag k="capacity" v="18" />
		<tag k="max_age" v="5" />
		<tag k="min_age" v="3" />
		<tag k="name" v="Stuastølen Gardsbarnehage" />
		<tag k="no-barnehage:nsrid" v="1016951" />
		<tag k="operator" v="Solsikkene Barnehager AS" />
		<tag k="operator:type" v="private" />
		<tag k="start_date" v="2005-08-01" />
	</node>
	<node id="-4157" lat="59.7764" lon="5.50216">
		<tag k="amenity" v="kindergarten" />
		<tag k="capacity" v="78" />
		<tag k="max_age" v="5" />
		<tag k="min_age" v="1" />
		<tag k="name" v="Skogatufto barnehage" />
		<tag k="no-barnehage:nsrid" v="1017370" />
		<tag k="operator" v="Stord kommune" />
		<tag k="operator:type" v="public" />
		<tag k="start_date" v="1976-01-01" />
	</node>
	<node id="-4156" lat="59.7797" lon="5.39597">
		<tag k="amenity" v="kindergarten" />
		<tag k="capacity" v="60" />
		<tag k="max_age" v="5" />
		<tag k="min_age" v="1" />
		<tag k="name" v="Sagvåg og Litlabø barnehage" />
		<tag k="no-barnehage:nsrid" v="1014712" />
		<tag k="operator" v="Stord kommune" />
		<tag k="operator:type" v="public" />
		<tag k="start_date" v="1992-08-01" />
	</node>
	<node id="-4155" lat="59.77949" lon="5.391823">
		<tag k="amenity" v="kindergarten" />
		<tag k="capacity" v="83" />
		<tag k="contact:email" v="dl.sagvag@bhg.no" />
		<tag k="max_age" v="5" />
		<tag k="min_age" v="1" />
		<tag k="name" v="Sagvåg Maritime Fus barnehage AS" />
		<tag k="no-barnehage:nsrid" v="1021736" />
		<tag k="operator" v="Sagvåg Maritime Fus barnehage AS" />
		<tag k="operator:type" v="private" />
		<tag k="start_date" v="2007-11-20" />
	</node>
	<node id="-4154" lat="59.75794" lon="5.450494">
		<tag k="amenity" v="kindergarten" />
		<tag k="capacity" v="97" />
		<tag k="contact:email" v="dl.olderdalen@bhg.no" />
		<tag k="max_age" v="5" />
		<tag k="min_age" v="1" />
		<tag k="name" v="Olderdalen Fus Kulturbarnehage AS" />
		<tag k="no-barnehage:nsrid" v="1021560" />
		<tag k="operator" v="Olderdalen Fus Kulturbarnehage AS" />
		<tag k="operator:type" v="private" />
		<tag k="start_date" v="2006-12-01" />
	</node>
	<node id="-4153" lat="59.80128" lon="5.513146">
		<tag k="amenity" v="kindergarten" />
		<tag k="capacity" v="56" />
		<tag k="contact:email" v="dl.prestagardskogen@bhg.no" />
		<tag k="contact:phone" v="53 41 53 50" />
		<tag k="contact:website" v="http://www.prestagardskogen.bhg.no" />
		<tag k="max_age" v="5" />
		<tag k="min_age" v="1" />
		<tag k="name" v="Nordbygdo Fus barnehage AS Avd Prestagardskogen" />
		<tag k="no-barnehage:nsrid" v="1020544" />
		<tag k="operator" v="Nordbygdo Fus barnehage AS" />
		<tag k="operator:type" v="private" />
		<tag k="start_date" v="1999-12-31" />
	</node>
	<node id="-4152" lat="59.76663" lon="5.499353">
		<tag k="amenity" v="kindergarten" />
		<tag k="capacity" v="47" />
		<tag k="contact:phone" v="53 41 30 56" />
		<tag k="max_age" v="5" />
		<tag k="min_age" v="1" />
		<tag k="name" v="Naustvågen barnehage" />
		<tag k="no-barnehage:nsrid" v="1020643" />
		<tag k="operator" v="Naustvågen barnehage" />
		<tag k="operator:type" v="private" />
		<tag k="start_date" v="2000-08-01" />
	</node>
	<node id="-4150" lat="59.90021" lon="5.282347">
		<tag k="amenity" v="kindergarten" />
		<tag k="capacity" v="69" />
		<tag k="contact:email" v="dl.kareviksmarka@bhg.no" />
		<tag k="max_age" v="5" />
		<tag k="min_age" v="1" />
		<tag k="name" v="Kåreviksmarka Fus barnehage AS" />
		<tag k="no-barnehage:nsrid" v="1021052" />
		<tag k="operator" v="Kåreviksmarka Fus barnehage AS" />
		<tag k="operator:type" v="private" />
		<tag k="start_date" v="2004-02-19" />
	</node>
	<node id="-4149" lat="59.7615" lon="5.45413">
		<tag k="amenity" v="kindergarten" />
		<tag k="capacity" v="18" />
		<tag k="max_age" v="5" />
		<tag k="min_age" v="1" />
		<tag k="name" v="Heiane barnehage" />
		<tag k="no-barnehage:nsrid" v="1017089" />
		<tag k="operator" v="Hero Norge AS" />
		<tag k="operator:type" v="private" />
		<tag k="start_date" v="2006-01-01" />
	</node>
	<node id="-4148" lat="59.7943" lon="5.51069">
		<tag k="amenity" v="kindergarten" />
		<tag k="capacity" v="48" />
		<tag k="max_age" v="5" />
		<tag k="min_age" v="1" />
		<tag k="name" v="Furuly barnehage" />
		<tag k="no-barnehage:nsrid" v="1017371" />
		<tag k="operator" v="Stord kommune" />
		<tag k="operator:type" v="public" />
		<tag k="start_date" v="1976-01-01" />
	</node>
	<node id="-4146" lat="59.80122" lon="5.519802">
		<tag k="amenity" v="kindergarten" />
		<tag k="capacity" v="55" />
		<tag k="max_age" v="5" />
		<tag k="min_age" v="1" />
		<tag k="name" v="Dalen Fus barnehage AS" />
		<tag k="no-barnehage:nsrid" v="1021966" />
		<tag k="operator" v="Dalen Fus barnehage AS" />
		<tag k="operator:type" v="private" />
		<tag k="start_date" v="2009-09-01" />
	</node>
	<node id="-4167" lat="59.7868" lon="5.4994">
		<tag k="amenity" v="kindergarten" />
		<tag k="capacity" v="84" />
		<tag k="max_age" v="5" />
		<tag k="min_age" v="1" />
		<tag k="name" v="Ås barnehage" />
		<tag k="no-barnehage:nsrid" v="1013366" />
		<tag k="operator" v="Opero AS" />
		<tag k="operator:type" v="private" />
		<tag k="start_date" v="2005-07-01" />
	</node>
	<node id="-4166" lat="59.79155" lon="5.519503">
		<tag k="amenity" v="kindergarten" />
		<tag k="capacity" v="16" />
		<tag k="contact:phone" v="93089251" />
		<tag k="contact:website" v="http://www.villvettene.no" />
		<tag k="max_age" v="5" />
		<tag k="min_age" v="1" />
		<tag k="name" v="Villvettene Friluftsbarnehage Da" />
		<tag k="no-barnehage:nsrid" v="1021045" />
		<tag k="operator" v="Villvettene Friluftsbarnehage Da" />
		<tag k="operator:type" v="private" />
		<tag k="start_date" v="2004-05-03" />
	</node>
	<node id="-4165" lat="59.8154" lon="5.526869">
		<tag k="amenity" v="kindergarten" />
		<tag k="capacity" v="17" />
		<tag k="contact:phone" v="930 89 251" />
		<tag k="contact:website" v="http://www.villvettene.no" />
		<tag k="max_age" v="5" />
		<tag k="min_age" v="1" />
		<tag k="name" v="Villvetene Friluftsbarnehage avd Rommetveit Da" />
		<tag k="no-barnehage:nsrid" v="1021622" />
		<tag k="operator" v="Villvetene Friluftsbarnehage avd Rommetveit Da" />
		<tag k="operator:type" v="private" />
		<tag k="start_date" v="2007-08-01" />
	</node>
	<node id="-4164" lat="59.77561" lon="5.492184">
		<tag k="amenity" v="kindergarten" />
		<tag k="capacity" v="15" />
		<tag k="contact:email" v="glsaevik@online.no" />
		<tag k="contact:phone" v="53 41 63 21" />
		<tag k="max_age" v="5" />
		<tag k="min_age" v="1" />
		<tag k="name" v="Vikahaugen barnehage AS" />
		<tag k="no-barnehage:nsrid" v="1022440" />
		<tag k="operator" v="Vikahaugen barnehage AS" />
		<tag k="operator:type" v="private" />
		<tag k="start_date" v="2006-02-12" />
	</node>
	<node id="-4163" lat="59.76538" lon="5.43731">
		<tag k="amenity" v="kindergarten" />
		<tag k="capacity" v="64" />
		<tag k="contact:email" v="brev@tryggebarnehager.no" />
		<tag k="max_age" v="5" />
		<tag k="min_age" v="1" />
		<tag k="name" v="Valvatna Fus barnehage AS" />
		<tag k="no-barnehage:nsrid" v="1021053" />
		<tag k="operator" v="Valvatna Fus barnehage AS" />
		<tag k="operator:type" v="private" />
		<tag k="start_date" v="2004-02-19" />
	</node>
	<node id="-4162" lat="59.7625" lon="5.46976">
		<tag k="amenity" v="kindergarten" />
		<tag k="capacity" v="52" />
		<tag k="max_age" v="5" />
		<tag k="min_age" v="1" />
		<tag k="name" v="Trodlahaugen barnehage" />
		<tag k="no-barnehage:nsrid" v="1018106" />
		<tag k="operator" v="Stord kommune" />
		<tag k="operator:type" v="public" />
		<tag k="start_date" v="1989-01-01" />
	</node>
	<node id="-4161" lat="59.7814" lon="5.38996">
		<tag k="amenity" v="kindergarten" />
		<tag k="capacity" v="46" />
		<tag k="max_age" v="5" />
		<tag k="min_age" v="1" />
		<tag k="name" v="Tjødnalio barnehage" />
		<tag k="no-barnehage:nsrid" v="1013798" />
		<tag k="operator" v="Stord kommune" />
		<tag k="operator:type" v="public" />
		<tag k="start_date" v="1989-01-02" />
	</node>
</osm>
