<?xml version="1.0" encoding="UTF-8"?>
<osm generator="osmapis" version="0.6">
	<node id="-253" lat="58.08905" lon="6.78911">
		<tag k="ADDRESS" v="Livdekrona 56, 4550 FARSUND" />
		<tag k="amenity" v="kindergarten" />
		<tag k="capacity" v="81" />
		<tag k="max_age" v="5" />
		<tag k="min_age" v="1" />
		<tag k="name" v="Sunde barnehage" />
		<tag k="no-barnehage:nsrid" v="1016560" />
		<tag k="operator" v="Farsund kommune" />
		<tag k="operator:type" v="public" />
	</node>
	<node id="-252" lat="58.09682" lon="6.68788">
		<tag k="ADDRESS" v="Oreveien 14, 4560 VANSE" />
		<tag k="amenity" v="kindergarten" />
		<tag k="capacity" v="55" />
		<tag k="contact:website" v="http://solstua.norlandiabarnehagene.no/" />
		<tag k="max_age" v="5" />
		<tag k="min_age" v="1" />
		<tag k="name" v="Norlandia Solstua barnehage" />
		<tag k="no-barnehage:nsrid" v="1019987" />
		<tag k="operator" v="Norlandia Barnehagene AS" />
		<tag k="operator:type" v="private" />
	</node>
	<node id="-251" lat="58.13885" lon="6.60658">
		<tag k="ADDRESS" v="Jølleveien 141, 4560 VANSE" />
		<tag k="amenity" v="kindergarten" />
		<tag k="capacity" v="11" />
		<tag k="max_age" v="5" />
		<tag k="min_age" v="1" />
		<tag k="name" v="Jøllebekken barnehage" />
		<tag k="no-barnehage:nsrid" v="1019905" />
		<tag k="operator" v="Jøllebekken barnehage Sa" />
		<tag k="operator:type" v="private" />
	</node>
	<node id="-250" lat="58.08971" lon="6.69815">
		<tag k="ADDRESS" v="Østre Vatne Vei 2, 4560 VANSE" />
		<tag k="amenity" v="kindergarten" />
		<tag k="capacity" v="88" />
		<tag k="contact:website" v="http://www.espira.no" />
		<tag k="max_age" v="5" />
		<tag k="min_age" v="1" />
		<tag k="name" v="Espira Vanse barnehage" />
		<tag k="no-barnehage:nsrid" v="1021245" />
		<tag k="operator" v="Espira Vanse AS" />
		<tag k="operator:type" v="private" />
	</node>
	<node id="-249" lat="58.07738" lon="6.76939">
		<tag k="ADDRESS" v="Loshavnveien 45, 4550 FARSUND" />
		<tag k="amenity" v="kindergarten" />
		<tag k="capacity" v="61" />
		<tag k="contact:website" v="http://husebyparken.espira.no/" />
		<tag k="max_age" v="5" />
		<tag k="min_age" v="1" />
		<tag k="name" v="Espira Husebyparken barnehage" />
		<tag k="no-barnehage:nsrid" v="1019877" />
		<tag k="operator" v="Espira Barnehager AS" />
		<tag k="operator:type" v="private" />
	</node>
	<node id="-248" lat="58.09724" lon="6.69439">
		<tag k="ADDRESS" v="Abraham Berges Vei 7a, 4560 VANSE" />
		<tag k="amenity" v="kindergarten" />
		<tag k="capacity" v="26" />
		<tag k="max_age" v="5" />
		<tag k="min_age" v="1" />
		<tag k="name" v="Espira Arcen barnehage" />
		<tag k="no-barnehage:nsrid" v="1017670" />
		<tag k="operator" v="Espira Varbak Arcen AS" />
		<tag k="operator:type" v="private" />
	</node>
	<node id="-247" lat="58.09445" lon="6.79429">
		<tag k="ADDRESS" v="Sundeveien 24, 4550 FARSUND" />
		<tag k="amenity" v="kindergarten" />
		<tag k="capacity" v="53" />
		<tag k="max_age" v="5" />
		<tag k="min_age" v="1" />
		<tag k="name" v="Brøvigs Minde barnehage" />
		<tag k="no-barnehage:nsrid" v="1022106" />
		<tag k="operator" v="Brøvigs Minde barnehage AS" />
		<tag k="operator:type" v="private" />
	</node>
	<node id="-246" lat="58.09945" lon="6.58704">
		<tag k="ADDRESS" v="Postveien 13, 4563 BORHAUG" />
		<tag k="amenity" v="kindergarten" />
		<tag k="capacity" v="59" />
		<tag k="max_age" v="5" />
		<tag k="min_age" v="1" />
		<tag k="name" v="Borhaug barnehage" />
		<tag k="no-barnehage:nsrid" v="1018065" />
		<tag k="operator" v="Farsund kommune" />
		<tag k="operator:type" v="public" />
	</node>
	<node id="-245" lat="58.09191" lon="6.77612">
		<tag k="ADDRESS" v="Vestheiveien 2, 4550 FARSUND" />
		<tag k="amenity" v="kindergarten" />
		<tag k="capacity" v="48" />
		<tag k="contact:website" v="http://bjorketun.barnehage.no" />
		<tag k="max_age" v="5" />
		<tag k="min_age" v="1" />
		<tag k="name" v="Bjørketun barnehage" />
		<tag k="no-barnehage:nsrid" v="1019635" />
		<tag k="operator" v="Bjørketun barnehage" />
		<tag k="operator:type" v="private" />
	</node>
</osm>
