<?xml version="1.0" encoding="UTF-8"?>
<osm generator="osmapis" version="0.6">
	<node id="-5271" lat="63.7933" lon="11.4816">
		<tag k="amenity" v="kindergarten" />
		<tag k="capacity" v="73" />
		<tag k="contact:email" v="stine.odegarden@verdal.kommune.no" />
		<tag k="max_age" v="5" />
		<tag k="min_age" v="1" />
		<tag k="name" v="Ørmelen barnehage" />
		<tag k="no-barnehage:nsrid" v="1018275" />
		<tag k="operator" v="Verdal kommune" />
		<tag k="operator:type" v="public" />
		<tag k="start_date" v="1989-01-01" />
	</node>
	<node id="-5270" lat="63.7763" lon="11.7394">
		<tag k="amenity" v="kindergarten" />
		<tag k="capacity" v="29" />
		<tag k="contact:email" v="grethe.n.fornes@verdal.kommune.no" />
		<tag k="max_age" v="5" />
		<tag k="min_age" v="1" />
		<tag k="name" v="Vuku Oppvekstsenter Avd Barnehage" />
		<tag k="no-barnehage:nsrid" v="1018274" />
		<tag k="operator" v="Verdal kommune" />
		<tag k="operator:type" v="public" />
		<tag k="start_date" v="1989-01-01" />
	</node>
	<node id="-5269" lat="63.7719" lon="11.491">
		<tag k="amenity" v="kindergarten" />
		<tag k="capacity" v="37" />
		<tag k="contact:email" v="merete.haugen@verdal.kommune.no" />
		<tag k="max_age" v="5" />
		<tag k="min_age" v="1" />
		<tag k="name" v="Vinne barnehage" />
		<tag k="no-barnehage:nsrid" v="1012528" />
		<tag k="operator" v="Verdal kommune" />
		<tag k="operator:type" v="public" />
		<tag k="start_date" v="1989-01-01" />
	</node>
	<node id="-5268" lat="63.80281" lon="11.54323">
		<tag k="amenity" v="kindergarten" />
		<tag k="capacity" v="35" />
		<tag k="contact:email" v="marte.stiklestad@barnehage.no" />
		<tag k="max_age" v="5" />
		<tag k="min_age" v="1" />
		<tag k="name" v="Stiklestad Gård- og Friluftsbarnehage AS" />
		<tag k="no-barnehage:nsrid" v="1021784" />
		<tag k="operator" v="Stiklestad Gårds- og Friluftsbarnehage AS" />
		<tag k="operator:type" v="private" />
		<tag k="start_date" v="2008-02-26" />
	</node>
	<node id="-5267" lat="63.7808" lon="11.44837">
		<tag k="amenity" v="kindergarten" />
		<tag k="capacity" v="65" />
		<tag k="contact:email" v="anne.grete.wold.olsen@akerbarnehage.no" />
		<tag k="contact:phone" v="74 07 47 05" />
		<tag k="max_age" v="5" />
		<tag k="min_age" v="1" />
		<tag k="name" v="Stiftelsen Aker barnehage" />
		<tag k="no-barnehage:nsrid" v="1021168" />
		<tag k="operator" v="Stiftelsen Aker barnehage" />
		<tag k="operator:type" v="private" />
		<tag k="start_date" v="1989-01-01" />
	</node>
	<node id="-5266" lat="63.7932" lon="11.4937">
		<tag k="amenity" v="kindergarten" />
		<tag k="capacity" v="76" />
		<tag k="contact:email" v="LISBETH.STORHOLMEN@VERDAL.KOMMUNE.NO" />
		<tag k="max_age" v="5" />
		<tag k="min_age" v="1" />
		<tag k="name" v="Reinsholm barnehage" />
		<tag k="no-barnehage:nsrid" v="1016906" />
		<tag k="operator" v="Verdal kommune" />
		<tag k="operator:type" v="public" />
		<tag k="start_date" v="1976-12-24" />
	</node>
	<node id="-5265" lat="63.7624" lon="11.6149">
		<tag k="amenity" v="kindergarten" />
		<tag k="capacity" v="25" />
		<tag k="contact:email" v="anneli.bjorsmo@verdal.kommune.no" />
		<tag k="max_age" v="5" />
		<tag k="min_age" v="1" />
		<tag k="name" v="Ness barnehage" />
		<tag k="no-barnehage:nsrid" v="1018272" />
		<tag k="operator" v="Verdal kommune" />
		<tag k="operator:type" v="public" />
		<tag k="start_date" v="1989-01-01" />
	</node>
	<node id="-5264" lat="63.77668" lon="11.63785">
		<tag k="amenity" v="kindergarten" />
		<tag k="capacity" v="19" />
		<tag k="contact:email" v="melakollen@ntebb.no" />
		<tag k="contact:phone" v="74 07 79 20" />
		<tag k="contact:website" v="http://www.melakollen-barnehage.no" />
		<tag k="max_age" v="5" />
		<tag k="min_age" v="1" />
		<tag k="name" v="Melakollen barnehage Sa" />
		<tag k="no-barnehage:nsrid" v="1020251" />
		<tag k="operator" v="Melakollen barnehage Sa" />
		<tag k="operator:type" v="private" />
		<tag k="start_date" v="1994-08-01" />
	</node>
	<node id="-5263" lat="63.79578" lon="11.48875">
		<tag k="amenity" v="kindergarten" />
		<tag k="capacity" v="50" />
		<tag k="contact:email" v="post@maritvold.no" />
		<tag k="contact:phone" v="91 34 17 80" />
		<tag k="contact:website" v="http://www.maritvold.no" />
		<tag k="max_age" v="5" />
		<tag k="min_age" v="1" />
		<tag k="name" v="Maritvold barnehage Sa" />
		<tag k="no-barnehage:nsrid" v="1022113" />
		<tag k="operator" v="Maritvold barnehage Sa" />
		<tag k="operator:type" v="private" />
		<tag k="start_date" v="1992-01-01" />
	</node>
	<node id="-5262" lat="63.8208" lon="11.4187">
		<tag k="amenity" v="kindergarten" />
		<tag k="capacity" v="30" />
		<tag k="contact:email" v="trones@laringsverkstedet.no" />
		<tag k="contact:phone" v="74 04 00 09" />
		<tag k="max_age" v="5" />
		<tag k="min_age" v="1" />
		<tag k="name" v="Læringsverkstedet barnehage Avd Trones" />
		<tag k="no-barnehage:nsrid" v="1015956" />
		<tag k="operator" v="Læringsverkstedet AS" />
		<tag k="operator:type" v="private" />
		<tag k="start_date" v="1990-09-01" />
	</node>
	<node id="-5261" lat="63.7933" lon="11.4816">
		<tag k="amenity" v="kindergarten" />
		<tag k="capacity" v="108" />
		<tag k="contact:email" v="knottene@laringsverkstedet.no" />
		<tag k="contact:phone" v="74 07 24 48" />
		<tag k="max_age" v="5" />
		<tag k="min_age" v="1" />
		<tag k="name" v="Læringsverkstedet barnehage Avd Knøttene" />
		<tag k="no-barnehage:nsrid" v="1015449" />
		<tag k="operator" v="Læringsverkstedet AS" />
		<tag k="operator:type" v="private" />
		<tag k="start_date" v="1989-01-02" />
	</node>
	<node id="-5260" lat="63.8131" lon="11.6552">
		<tag k="amenity" v="kindergarten" />
		<tag k="capacity" v="30" />
		<tag k="contact:email" v="grete.m.krokstad@verdal.kommune.no" />
		<tag k="max_age" v="5" />
		<tag k="min_age" v="1" />
		<tag k="name" v="Leksdal barnehage" />
		<tag k="no-barnehage:nsrid" v="1018273" />
		<tag k="operator" v="Verdal kommune" />
		<tag k="operator:type" v="public" />
		<tag k="start_date" v="1989-01-01" />
	</node>
	<node id="-5259" lat="63.79515" lon="11.4815">
		<tag k="amenity" v="kindergarten" />
		<tag k="capacity" v="35" />
		<tag k="contact:email" v="lekekroken@barnehage.no" />
		<tag k="max_age" v="5" />
		<tag k="min_age" v="1" />
		<tag k="name" v="Lekekroken barnehage AS" />
		<tag k="no-barnehage:nsrid" v="1021571" />
		<tag k="operator" v="Lekekroken barnehage AS" />
		<tag k="operator:type" v="private" />
		<tag k="start_date" v="2006-09-30" />
	</node>
	<node id="-5258" lat="63.7933" lon="11.4816">
		<tag k="amenity" v="kindergarten" />
		<tag k="capacity" v="47" />
		<tag k="contact:email" v="berit.gronning@verdal.kommune.no" />
		<tag k="max_age" v="5" />
		<tag k="min_age" v="1" />
		<tag k="name" v="Kanutten barnehage" />
		<tag k="no-barnehage:nsrid" v="1013760" />
		<tag k="operator" v="Verdal kommune" />
		<tag k="operator:type" v="public" />
		<tag k="start_date" v="1989-01-02" />
	</node>
	<node id="-5257" lat="63.74" lon="11.7598">
		<tag k="amenity" v="kindergarten" />
		<tag k="capacity" v="26" />
		<tag k="contact:email" v="anita.ottesen@verdal.kommune.no" />
		<tag k="max_age" v="5" />
		<tag k="min_age" v="1" />
		<tag k="name" v="Garnes Oppvekstsenter Avd Barnehage" />
		<tag k="no-barnehage:nsrid" v="1017495" />
		<tag k="operator" v="Verdal kommune" />
		<tag k="operator:type" v="public" />
		<tag k="start_date" v="1989-02-01" />
	</node>
	<node id="-5256" lat="63.8128" lon="11.5465">
		<tag k="amenity" v="kindergarten" />
		<tag k="capacity" v="77" />
		<tag k="contact:email" v="kari.reistad@verdal.kommune.no" />
		<tag k="max_age" v="5" />
		<tag k="min_age" v="1" />
		<tag k="name" v="Forbregd-Lein barnehage" />
		<tag k="no-barnehage:nsrid" v="1013973" />
		<tag k="operator" v="Verdal kommune" />
		<tag k="operator:type" v="public" />
		<tag k="start_date" v="1991-01-01" />
	</node>
	<node id="-5255" lat="63.78951" lon="11.47261">
		<tag k="amenity" v="kindergarten" />
		<tag k="capacity" v="22" />
		<tag k="contact:email" v="elvegaardenbarnehage@vktv.no" />
		<tag k="max_age" v="5" />
		<tag k="min_age" v="1" />
		<tag k="name" v="Elvegården barnehage AS" />
		<tag k="no-barnehage:nsrid" v="1021829" />
		<tag k="operator" v="Elvegården barnehage AS" />
		<tag k="operator:type" v="private" />
		<tag k="start_date" v="2008-06-25" />
	</node>
	<node id="-5254" lat="63.78907" lon="11.46858">
		<tag k="amenity" v="kindergarten" />
		<tag k="capacity" v="22" />
		<tag k="contact:email" v="abh@vktv.no" />
		<tag k="contact:phone" v="076794090" />
		<tag k="max_age" v="5" />
		<tag k="min_age" v="1" />
		<tag k="name" v="Askeladden barnehage" />
		<tag k="no-barnehage:nsrid" v="1019630" />
		<tag k="operator" v="Askeladden barnehage" />
		<tag k="operator:type" v="private" />
		<tag k="start_date" v="1982-01-01" />
	</node>
</osm>
