<?xml version="1.0" encoding="UTF-8"?>
<osm generator="osmapis" version="0.6">
	<node id="-4622" lat="60.5047" lon="5.4345">
		<tag k="amenity" v="kindergarten" />
		<tag k="capacity" v="33" />
		<tag k="max_age" v="5" />
		<tag k="min_age" v="1" />
		<tag k="name" v="Valestrand barnehage" />
		<tag k="no-barnehage:nsrid" v="1014682" />
		<tag k="operator" v="Osterøy kommune" />
		<tag k="operator:type" v="public" />
	</node>
	<node id="-4621" lat="60.50471" lon="5.434501">
		<tag k="amenity" v="kindergarten" />
		<tag k="capacity" v="71" />
		<tag k="contact:website" v="http://reppenbarnehage.no" />
		<tag k="max_age" v="5" />
		<tag k="min_age" v="1" />
		<tag k="name" v="Reppen barnehage" />
		<tag k="no-barnehage:nsrid" v="1022384" />
		<tag k="operator" v="Reppen barnehage AS" />
		<tag k="operator:type" v="private" />
	</node>
	<node id="-4620" lat="60.50471" lon="5.434501">
		<tag k="amenity" v="kindergarten" />
		<tag k="capacity" v="38" />
		<tag k="max_age" v="5" />
		<tag k="min_age" v="1" />
		<tag k="name" v="Osterøy gårds og friluftsbarnehage" />
		<tag k="no-barnehage:nsrid" v="1021050" />
		<tag k="operator" v="Osterøy Gårds og Friluftsbarnehage AS" />
		<tag k="operator:type" v="private" />
	</node>
	<node id="-4619" lat="60.5262" lon="5.49368">
		<tag k="amenity" v="kindergarten" />
		<tag k="capacity" v="18" />
		<tag k="max_age" v="5" />
		<tag k="min_age" v="1" />
		<tag k="name" v="Mjøsdalen barnehage" />
		<tag k="no-barnehage:nsrid" v="1014942" />
		<tag k="operator" v="Osterøy kommune" />
		<tag k="operator:type" v="public" />
	</node>
	<node id="-4618" lat="60.5262" lon="5.49368">
		<tag k="amenity" v="kindergarten" />
		<tag k="capacity" v="113" />
		<tag k="max_age" v="5" />
		<tag k="min_age" v="1" />
		<tag k="name" v="Lonevåg barnehage" />
		<tag k="no-barnehage:nsrid" v="1018123" />
		<tag k="operator" v="Osterøy kommune" />
		<tag k="operator:type" v="public" />
	</node>
	<node id="-4617" lat="60.4532" lon="5.49503">
		<tag k="amenity" v="kindergarten" />
		<tag k="capacity" v="74" />
		<tag k="max_age" v="5" />
		<tag k="min_age" v="1" />
		<tag k="name" v="Haus barnehage" />
		<tag k="no-barnehage:nsrid" v="1013954" />
		<tag k="operator" v="Osterøy kommune" />
		<tag k="operator:type" v="public" />
	</node>
	<node id="-4616" lat="60.5047" lon="5.4345">
		<tag k="amenity" v="kindergarten" />
		<tag k="capacity" v="72" />
		<tag k="max_age" v="5" />
		<tag k="min_age" v="1" />
		<tag k="name" v="Hauge barnehage" />
		<tag k="no-barnehage:nsrid" v="1018124" />
		<tag k="operator" v="Osterøy kommune" />
		<tag k="operator:type" v="public" />
	</node>
	<node id="-4615" lat="60.5894" lon="5.52383">
		<tag k="amenity" v="kindergarten" />
		<tag k="capacity" v="32" />
		<tag k="max_age" v="5" />
		<tag k="min_age" v="1" />
		<tag k="name" v="Fotlandsvåg barnehage" />
		<tag k="no-barnehage:nsrid" v="1015896" />
		<tag k="operator" v="Osterøy kommune" />
		<tag k="operator:type" v="public" />
	</node>
</osm>
