<?xml version="1.0" encoding="UTF-8"?>
<osm generator="osmapis" version="0.6">
	<node id="-4267" lat="60.5047" lon="5.4345">
		<tag k="amenity" v="kindergarten" />
		<tag k="capacity" v="30" />
		<tag k="contact:email" v="may-lis.daltveit@osteroy.kommune.no" />
		<tag k="max_age" v="5" />
		<tag k="min_age" v="1" />
		<tag k="name" v="Valestrand barnehage" />
		<tag k="no-barnehage:nsrid" v="1014682" />
		<tag k="operator" v="Osterøy kommune" />
		<tag k="operator:type" v="public" />
		<tag k="start_date" v="1991-01-01" />
	</node>
	<node id="-4266" lat="60.5262" lon="5.49368">
		<tag k="amenity" v="kindergarten" />
		<tag k="capacity" v="19" />
		<tag k="contact:email" v="fotlandsvag.barnehage@osteroy.kommune.no" />
		<tag k="contact:phone" v="56 39 45 90" />
		<tag k="max_age" v="5" />
		<tag k="min_age" v="1" />
		<tag k="name" v="Mjøsdalen barnehage" />
		<tag k="no-barnehage:nsrid" v="1014942" />
		<tag k="operator" v="Osterøy kommune" />
		<tag k="operator:type" v="public" />
		<tag k="start_date" v="1996-08-05" />
	</node>
</osm>
