<?xml version="1.0" encoding="UTF-8"?>
<osm generator="osmapis" version="0.6">
	<node id="-5436" lat="0.0" lon="0.0">
		<tag k="ADDRESS" v=", 6494 VEVANG" />
		<tag k="amenity" v="kindergarten" />
		<tag k="capacity" v="27" />
		<tag k="max_age" v="5" />
		<tag k="min_age" v="1" />
		<tag k="name" v="Vevang barnehage" />
		<tag k="no-barnehage:nsrid" v="1018200" />
		<tag k="operator" v="Eide kommune" />
		<tag k="operator:type" v="public" />
	</node>
	<node id="-5435" lat="0.0" lon="0.0">
		<tag k="ADDRESS" v=", 6490 EIDE" />
		<tag k="amenity" v="kindergarten" />
		<tag k="capacity" v="57" />
		<tag k="max_age" v="5" />
		<tag k="min_age" v="1" />
		<tag k="name" v="Svanviken barnehage" />
		<tag k="no-barnehage:nsrid" v="1013753" />
		<tag k="operator" v="Eide kommune" />
		<tag k="operator:type" v="public" />
	</node>
	<node id="-5434" lat="0.0" lon="0.0">
		<tag k="ADDRESS" v=", 6493 LYNGSTAD" />
		<tag k="amenity" v="kindergarten" />
		<tag k="capacity" v="27" />
		<tag k="max_age" v="5" />
		<tag k="min_age" v="1" />
		<tag k="name" v="Lyngstad barnehage" />
		<tag k="no-barnehage:nsrid" v="1012521" />
		<tag k="operator" v="Eide kommune" />
		<tag k="operator:type" v="public" />
	</node>
	<node id="-5433" lat="0.0" lon="0.0">
		<tag k="ADDRESS" v="Rabben 3, 6490 EIDE" />
		<tag k="amenity" v="kindergarten" />
		<tag k="capacity" v="63" />
		<tag k="max_age" v="5" />
		<tag k="min_age" v="1" />
		<tag k="name" v="Eide barnehage" />
		<tag k="no-barnehage:nsrid" v="1013794" />
		<tag k="operator" v="Eide kommune" />
		<tag k="operator:type" v="public" />
	</node>
</osm>
