<?xml version="1.0" encoding="UTF-8"?>
<osm generator="osmapis" version="0.6">
	<node id="-4653" lat="63.0041" lon="7.29551">
		<tag k="amenity" v="kindergarten" />
		<tag k="capacity" v="27" />
		<tag k="contact:email" v="synnove.karin.rishaug@eide.kommune.no" />
		<tag k="max_age" v="5" />
		<tag k="min_age" v="1" />
		<tag k="name" v="Vevang barnehage" />
		<tag k="no-barnehage:nsrid" v="1018200" />
		<tag k="operator" v="Eide kommune" />
		<tag k="operator:type" v="public" />
		<tag k="start_date" v="1989-01-01" />
	</node>
	<node id="-4652" lat="62.9173" lon="7.4467">
		<tag k="amenity" v="kindergarten" />
		<tag k="capacity" v="58" />
		<tag k="contact:email" v="torill.eide@eide.kommune.no" />
		<tag k="max_age" v="5" />
		<tag k="min_age" v="1" />
		<tag k="name" v="Svanviken barnehage" />
		<tag k="no-barnehage:nsrid" v="1013753" />
		<tag k="operator" v="Eide kommune" />
		<tag k="operator:type" v="public" />
		<tag k="start_date" v="1989-01-02" />
	</node>
	<node id="-4651" lat="62.9612" lon="7.36698">
		<tag k="amenity" v="kindergarten" />
		<tag k="capacity" v="26" />
		<tag k="contact:email" v="synnove.karin.rishaug@eide.kommune.no" />
		<tag k="max_age" v="5" />
		<tag k="min_age" v="1" />
		<tag k="name" v="Lyngstad barnehage" />
		<tag k="no-barnehage:nsrid" v="1012521" />
		<tag k="operator" v="Eide kommune" />
		<tag k="operator:type" v="public" />
		<tag k="start_date" v="1989-01-01" />
	</node>
	<node id="-4650" lat="62.91735" lon="7.446698">
		<tag k="amenity" v="kindergarten" />
		<tag k="capacity" v="64" />
		<tag k="contact:email" v="wenche.humborstad@eide.kommune.no" />
		<tag k="max_age" v="5" />
		<tag k="min_age" v="1" />
		<tag k="name" v="Eide barnehage" />
		<tag k="no-barnehage:nsrid" v="1013794" />
		<tag k="operator" v="Eide kommune" />
		<tag k="operator:type" v="public" />
		<tag k="start_date" v="1989-01-02" />
	</node>
</osm>
