<?xml version="1.0" encoding="UTF-8"?>
<osm version="0.6" generator="osmapis">
	<node lat="0.0" lon="0.0" id="-1243">
		<tag k="ADDRESS" v=", 6083 GJERDSVIKA" />
		<tag k="amenity" v="kindergarten" />
		<tag k="capacity" v="15" />
		<tag k="max_age" v="5" />
		<tag k="min_age" v="1" />
		<tag k="name" v="Gjerdsvika barnehage" />
		<tag k="no-barnehage:nsrid" v="981018710" />
		<tag k="operator" v="Sande kommune" />
		<tag k="operator:type" v="public" />
	</node>
	<node lat="0.0" lon="0.0" id="-1244">
		<tag k="ADDRESS" v="Sandetunvegen, 6084 LARSNES" />
		<tag k="amenity" v="kindergarten" />
		<tag k="capacity" v="43" />
		<tag k="max_age" v="5" />
		<tag k="min_age" v="1" />
		<tag k="name" v="Hauemarkja barnehage" />
		<tag k="no-barnehage:nsrid" v="973494716" />
		<tag k="operator" v="Sande kommune" />
		<tag k="operator:type" v="public" />
	</node>
	<node lat="0.0" lon="0.0" id="-1245">
		<tag k="ADDRESS" v=", 6082 GURSKEN" />
		<tag k="amenity" v="kindergarten" />
		<tag k="capacity" v="39" />
		<tag k="max_age" v="5" />
		<tag k="min_age" v="1" />
		<tag k="name" v="Haugelia barnehage" />
		<tag k="no-barnehage:nsrid" v="975199258" />
		<tag k="operator" v="Sande kommune" />
		<tag k="operator:type" v="public" />
	</node>
	<node lat="62.20102" lon="5.41355" id="-1246">
		<tag k="ADDRESS" v="Myrdalen 43, 6087 KVAMSØY" />
		<tag k="amenity" v="kindergarten" />
		<tag k="capacity" v="5" />
		<tag k="max_age" v="5" />
		<tag k="min_age" v="1" />
		<tag k="name" v="Kvamsøy barnehage" />
		<tag k="no-barnehage:nsrid" v="875310372" />
		<tag k="operator" v="Sande kommune" />
		<tag k="operator:type" v="public" />
	</node>
	<node lat="0.0" lon="0.0" id="-1247">
		<tag k="ADDRESS" v=", 6089 SANDSHAMN" />
		<tag k="amenity" v="kindergarten" />
		<tag k="capacity" v="2" />
		<tag k="max_age" v="5" />
		<tag k="min_age" v="1" />
		<tag k="name" v="Sandsøy barnehage" />
		<tag k="no-barnehage:nsrid" v="975325229" />
		<tag k="operator" v="Sande kommune" />
		<tag k="operator:type" v="public" />
	</node>
</osm>
