<?xml version="1.0" encoding="UTF-8"?>
<osm generator="osmapis" version="0.6">
	<node id="-4598" lat="62.2544" lon="5.47721">
		<tag k="amenity" v="kindergarten" />
		<tag k="capacity" v="2" />
		<tag k="contact:email" v="ragnhild.v.stoyle@sande-mr.kommune.no" />
		<tag k="max_age" v="5" />
		<tag k="min_age" v="1" />
		<tag k="name" v="Sandsøy barnehage" />
		<tag k="no-barnehage:nsrid" v="1014778" />
		<tag k="operator" v="Sande kommune" />
		<tag k="operator:type" v="public" />
		<tag k="start_date" v="1993-08-01" />
	</node>
	<node id="-4597" lat="62.2107" lon="5.38665">
		<tag k="amenity" v="kindergarten" />
		<tag k="capacity" v="10" />
		<tag k="contact:email" v="rst@sande-mr.kommune.no" />
		<tag k="max_age" v="5" />
		<tag k="min_age" v="1" />
		<tag k="name" v="Kvamsøy barnehage" />
		<tag k="no-barnehage:nsrid" v="1012518" />
		<tag k="operator" v="Sande kommune" />
		<tag k="operator:type" v="public" />
		<tag k="start_date" v="1989-01-01" />
	</node>
	<node id="-4596" lat="62.23" lon="5.61972">
		<tag k="amenity" v="kindergarten" />
		<tag k="capacity" v="17" />
		<tag k="contact:email" v="HAUGELIA.BARNEHAGE@SANDE-MR.KOMMUNE.NO" />
		<tag k="contact:phone" v="+47 70 02 52 80" />
		<tag k="max_age" v="5" />
		<tag k="min_age" v="1" />
		<tag k="name" v="Haugelia barnehage" />
		<tag k="no-barnehage:nsrid" v="1016876" />
		<tag k="operator" v="Sande kommune" />
		<tag k="operator:type" v="public" />
		<tag k="start_date" v="1990-10-01" />
	</node>
	<node id="-4595" lat="62.20282" lon="5.577315">
		<tag k="amenity" v="kindergarten" />
		<tag k="capacity" v="51" />
		<tag k="contact:email" v="s-regnskap@tussa.com" />
		<tag k="contact:phone" v="+47 70 02 84 45" />
		<tag k="max_age" v="5" />
		<tag k="min_age" v="1" />
		<tag k="name" v="Hauemarkja barnehage" />
		<tag k="no-barnehage:nsrid" v="1020008" />
		<tag k="operator" v="Stiftelsen Hauemarkja barnehage" />
		<tag k="operator:type" v="private" />
		<tag k="start_date" v="1991-04-01" />
	</node>
	<node id="-4594" lat="62.2642" lon="5.58034">
		<tag k="amenity" v="kindergarten" />
		<tag k="capacity" v="17" />
		<tag k="contact:email" v="margrete.kvamme@sande-mr.kommune.no" />
		<tag k="max_age" v="5" />
		<tag k="min_age" v="1" />
		<tag k="name" v="Gjerdsvika barnehage" />
		<tag k="no-barnehage:nsrid" v="1015770" />
		<tag k="operator" v="Sande kommune" />
		<tag k="operator:type" v="public" />
		<tag k="start_date" v="1999-08-01" />
	</node>
</osm>
