<?xml version="1.0" encoding="UTF-8"?>
<osm version="0.6" generator="osmapis">
	<node lat="59.81205" lon="10.8203" id="-2241">
		<tag k="ADDRESS" v="Gjallarveien 23, 1413 TÅRNÅSEN" />
		<tag k="amenity" v="kindergarten" />
		<tag k="capacity" v="19" />
		<tag k="max_age" v="5" />
		<tag k="min_age" v="1" />
		<tag k="name" v="Augestad barnehage Tårnåsen" />
		<tag k="no-barnehage:nsrid" v="974579596" />
		<tag k="operator" v="Nordre Follo kommune" />
		<tag k="operator:type" v="public" />
	</node>
	<node lat="59.81463" lon="10.81299" id="-2242">
		<tag k="ADDRESS" v="Kornmoveien 18, 1413 TÅRNÅSEN" />
		<tag k="amenity" v="kindergarten" />
		<tag k="capacity" v="41" />
		<tag k="max_age" v="5" />
		<tag k="min_age" v="1" />
		<tag k="name" v="Augestad barnehage Øståsen" />
		<tag k="no-barnehage:nsrid" v="974579766" />
		<tag k="operator" v="Nordre Follo kommune" />
		<tag k="operator:type" v="public" />
	</node>
	<node lat="59.72521" lon="10.86196" id="-2243">
		<tag k="ADDRESS" v="Skoghusveien 40, 1400 SKI" />
		<tag k="amenity" v="kindergarten" />
		<tag k="capacity" v="59" />
		<tag k="max_age" v="5" />
		<tag k="min_age" v="1" />
		<tag k="name" v="Bakkebygrenda barnehage" />
		<tag k="no-barnehage:nsrid" v="991647597" />
		<tag k="operator" v="Nordre Follo kommune" />
		<tag k="operator:type" v="public" />
	</node>
	<node lat="59.7629" lon="10.85639" id="-2244">
		<tag k="ADDRESS" v="Bjørkekroken 39, 1405 LANGHUS" />
		<tag k="amenity" v="kindergarten" />
		<tag k="capacity" v="54" />
		<tag k="max_age" v="5" />
		<tag k="min_age" v="1" />
		<tag k="name" v="Bjørkekroken barnehage" />
		<tag k="no-barnehage:nsrid" v="973595202" />
		<tag k="operator" v="Nordre Follo kommune" />
		<tag k="operator:type" v="public" />
	</node>
	<node lat="59.79647" lon="10.81123" id="-2245">
		<tag k="ADDRESS" v="Sigrid Undsets vei 12, 1412 SOFIEMYR" />
		<tag k="amenity" v="kindergarten" />
		<tag k="capacity" v="41" />
		<tag k="max_age" v="5" />
		<tag k="min_age" v="1" />
		<tag k="name" v="Bråten barnehage" />
		<tag k="no-barnehage:nsrid" v="974579510" />
		<tag k="operator" v="Nordre Follo kommune" />
		<tag k="operator:type" v="public" />
	</node>
	<node lat="59.76519" lon="10.85333" id="-2246">
		<tag k="ADDRESS" v="Bregnefaret 5, 1405 LANGHUS" />
		<tag k="amenity" v="kindergarten" />
		<tag k="capacity" v="53" />
		<tag k="max_age" v="5" />
		<tag k="min_age" v="1" />
		<tag k="name" v="Bøleråsen barnehage" />
		<tag k="no-barnehage:nsrid" v="974593742" />
		<tag k="operator" v="Nordre Follo kommune" />
		<tag k="operator:type" v="public" />
	</node>
	<node lat="59.74863" lon="10.82863" id="-2247">
		<tag k="ADDRESS" v="Dalstunet 2, 1405 LANGHUS" />
		<tag k="amenity" v="kindergarten" />
		<tag k="capacity" v="60" />
		<tag k="contact:website" v="http://dalstunetbarnehage.no" />
		<tag k="max_age" v="5" />
		<tag k="min_age" v="1" />
		<tag k="name" v="Dalstunet barnehage" />
		<tag k="no-barnehage:nsrid" v="987861649" />
		<tag k="operator" v="Dalstunet foreldrelagsbarnehage SA" />
		<tag k="operator:type" v="private" />
	</node>
	<node lat="59.71625" lon="10.86342" id="-2248">
		<tag k="ADDRESS" v="Dynamitveien 18, 1400 SKI" />
		<tag k="amenity" v="kindergarten" />
		<tag k="capacity" v="49" />
		<tag k="max_age" v="5" />
		<tag k="min_age" v="1" />
		<tag k="name" v="Dynamitten barnehage" />
		<tag k="no-barnehage:nsrid" v="974593777" />
		<tag k="operator" v="Nordre Follo kommune" />
		<tag k="operator:type" v="public" />
	</node>
	<node lat="59.70754" lon="10.83748" id="-2249">
		<tag k="ADDRESS" v="Eikeliveien 40, 1424 SKI" />
		<tag k="amenity" v="kindergarten" />
		<tag k="capacity" v="95" />
		<tag k="max_age" v="5" />
		<tag k="min_age" v="1" />
		<tag k="name" v="Eikeliveien barnehage" />
		<tag k="no-barnehage:nsrid" v="821478782" />
		<tag k="operator" v="Nordre Follo kommune" />
		<tag k="operator:type" v="public" />
	</node>
	<node lat="59.78903" lon="10.79629" id="-2250">
		<tag k="ADDRESS" v="Haukeliveien 11, 1415 OPPEGÅRD" />
		<tag k="amenity" v="kindergarten" />
		<tag k="capacity" v="100" />
		<tag k="max_age" v="5" />
		<tag k="min_age" v="1" />
		<tag k="name" v="Ekornrud barnehage" />
		<tag k="no-barnehage:nsrid" v="991120017" />
		<tag k="operator" v="Nordre Follo kommune" />
		<tag k="operator:type" v="public" />
	</node>
	<node lat="59.81778" lon="10.81869" id="-2251">
		<tag k="ADDRESS" v="Gimleveien 1, 1413 TÅRNÅSEN" />
		<tag k="amenity" v="kindergarten" />
		<tag k="capacity" v="58" />
		<tag k="max_age" v="5" />
		<tag k="min_age" v="1" />
		<tag k="name" v="Gimleveien barnehage" />
		<tag k="no-barnehage:nsrid" v="987387084" />
		<tag k="operator" v="Nordre Follo kommune" />
		<tag k="operator:type" v="public" />
	</node>
	<node lat="59.76867" lon="10.80426" id="-2252">
		<tag k="ADDRESS" v="Th. Kittelsens vei 11, 1415 OPPEGÅRD" />
		<tag k="amenity" v="kindergarten" />
		<tag k="capacity" v="108" />
		<tag k="max_age" v="5" />
		<tag k="min_age" v="1" />
		<tag k="name" v="Greverudlia barnehage" />
		<tag k="no-barnehage:nsrid" v="975316823" />
		<tag k="operator" v="Nordre Follo kommune" />
		<tag k="operator:type" v="public" />
	</node>
	<node lat="59.81241" lon="10.81567" id="-2253">
		<tag k="ADDRESS" v="Hareveien 42, 1413 TÅRNÅSEN" />
		<tag k="amenity" v="kindergarten" />
		<tag k="capacity" v="84" />
		<tag k="max_age" v="5" />
		<tag k="min_age" v="1" />
		<tag k="name" v="Hareveien barnehage" />
		<tag k="no-barnehage:nsrid" v="897621452" />
		<tag k="operator" v="Nordre Follo kommune" />
		<tag k="operator:type" v="public" />
	</node>
	<node lat="59.78784" lon="10.79709" id="-2254">
		<tag k="ADDRESS" v="Haukelikroken 3, 1415 OPPEGÅRD" />
		<tag k="amenity" v="kindergarten" />
		<tag k="capacity" v="60" />
		<tag k="max_age" v="5" />
		<tag k="min_age" v="1" />
		<tag k="name" v="Haukeliveien barnehage" />
		<tag k="no-barnehage:nsrid" v="974579669" />
		<tag k="operator" v="Nordre Follo kommune" />
		<tag k="operator:type" v="public" />
	</node>
	<node lat="59.7272" lon="10.82671" id="-2255">
		<tag k="ADDRESS" v="Fjellklangveien 1, 1423 SKI" />
		<tag k="amenity" v="kindergarten" />
		<tag k="capacity" v="82" />
		<tag k="contact:website" v="http://hebekkskogen.no" />
		<tag k="max_age" v="5" />
		<tag k="min_age" v="1" />
		<tag k="name" v="Hebekkskogen barnehage" />
		<tag k="no-barnehage:nsrid" v="983267181" />
		<tag k="operator" v="Hebekkskogen SA" />
		<tag k="operator:type" v="private" />
	</node>
	<node lat="59.80849" lon="10.81556" id="-2256">
		<tag k="ADDRESS" v="Valhallaveien 33B, 1412 SOFIEMYR" />
		<tag k="amenity" v="kindergarten" />
		<tag k="capacity" v="45" />
		<tag k="max_age" v="5" />
		<tag k="min_age" v="1" />
		<tag k="name" v="Hellerasten barnehage" />
		<tag k="no-barnehage:nsrid" v="974579529" />
		<tag k="operator" v="Nordre Follo kommune" />
		<tag k="operator:type" v="public" />
	</node>
	<node lat="59.75578" lon="10.8282" id="-2257">
		<tag k="ADDRESS" v="Tussestien 6, 1405 LANGHUS" />
		<tag k="amenity" v="kindergarten" />
		<tag k="capacity" v="28" />
		<tag k="contact:website" v="http://www.hjertegryta.no" />
		<tag k="max_age" v="5" />
		<tag k="min_age" v="1" />
		<tag k="name" v="Hjertegryta barnehage" />
		<tag k="no-barnehage:nsrid" v="974156253" />
		<tag k="operator" v="Langhus Kvinne- og Familieforbund" />
		<tag k="operator:type" v="private" />
	</node>
	<node lat="0.0" lon="0.0" id="-2258">
		<tag k="ADDRESS" v="MÅSAV 1, 1406 SKI" />
		<tag k="amenity" v="kindergarten" />
		<tag k="capacity" v="24" />
		<tag k="max_age" v="5" />
		<tag k="min_age" v="1" />
		<tag k="name" v="Hoelshytta barnehage" />
		<tag k="no-barnehage:nsrid" v="974156245" />
		<tag k="operator" v="Hæbek Kvinne- og Familielag" />
		<tag k="operator:type" v="private" />
	</node>
	<node lat="59.79844" lon="10.81504" id="-2259">
		<tag k="ADDRESS" v="Holbergs vei 35, 1412 SOFIEMYR" />
		<tag k="amenity" v="kindergarten" />
		<tag k="capacity" v="57" />
		<tag k="max_age" v="5" />
		<tag k="min_age" v="1" />
		<tag k="name" v="Holberg barnehage" />
		<tag k="no-barnehage:nsrid" v="974579677" />
		<tag k="operator" v="Nordre Follo kommune" />
		<tag k="operator:type" v="public" />
	</node>
	<node lat="59.80527" lon="10.78529" id="-2260">
		<tag k="ADDRESS" v="Fartein Valens vei 39, 1410 KOLBOTN" />
		<tag k="amenity" v="kindergarten" />
		<tag k="capacity" v="31" />
		<tag k="max_age" v="5" />
		<tag k="min_age" v="1" />
		<tag k="name" v="Ingierkollen barnehage Ingieråsen" />
		<tag k="no-barnehage:nsrid" v="874579602" />
		<tag k="operator" v="Nordre Follo kommune" />
		<tag k="operator:type" v="public" />
	</node>
	<node lat="59.80626" lon="10.79579" id="-2261">
		<tag k="ADDRESS" v="Jordbærsletta 1, 1410 KOLBOTN" />
		<tag k="amenity" v="kindergarten" />
		<tag k="capacity" v="42" />
		<tag k="max_age" v="5" />
		<tag k="min_age" v="1" />
		<tag k="name" v="Ingierkollen barnehage Kantor" />
		<tag k="no-barnehage:nsrid" v="974179229" />
		<tag k="operator" v="Nordre Follo kommune" />
		<tag k="operator:type" v="public" />
	</node>
	<node lat="59.81366" lon="10.79698" id="-2262">
		<tag k="ADDRESS" v="Kapellveien 7B, 1410 KOLBOTN" />
		<tag k="amenity" v="kindergarten" />
		<tag k="capacity" v="70" />
		<tag k="max_age" v="5" />
		<tag k="min_age" v="1" />
		<tag k="name" v="Kapellveien barnehage" />
		<tag k="no-barnehage:nsrid" v="985256616" />
		<tag k="operator" v="Nordre Follo kommune" />
		<tag k="operator:type" v="public" />
	</node>
	<node lat="59.81169" lon="10.80285" id="-2263">
		<tag k="ADDRESS" v="Kolbotn terrasse 2, 1410 KOLBOTN" />
		<tag k="amenity" v="kindergarten" />
		<tag k="capacity" v="48" />
		<tag k="max_age" v="5" />
		<tag k="min_age" v="1" />
		<tag k="name" v="Kolbotn barnehage skolebakken" />
		<tag k="no-barnehage:nsrid" v="974579626" />
		<tag k="operator" v="Nordre Follo kommune" />
		<tag k="operator:type" v="public" />
	</node>
	<node lat="59.67973" lon="10.88579" id="-2264">
		<tag k="ADDRESS" v="Parkbakken 10, 1408 KRÅKSTAD" />
		<tag k="amenity" v="kindergarten" />
		<tag k="capacity" v="82" />
		<tag k="contact:website" v="http://nordrefollo.kommune.no" />
		<tag k="max_age" v="5" />
		<tag k="min_age" v="1" />
		<tag k="name" v="Kråkstad barnehage" />
		<tag k="no-barnehage:nsrid" v="874593672" />
		<tag k="operator" v="Nordre Follo kommune" />
		<tag k="operator:type" v="public" />
	</node>
	<node lat="59.74826" lon="10.8383" id="-2265">
		<tag k="ADDRESS" v="Bøhlerveien 2, 1405 LANGHUS" />
		<tag k="amenity" v="kindergarten" />
		<tag k="capacity" v="93" />
		<tag k="max_age" v="5" />
		<tag k="min_age" v="1" />
		<tag k="name" v="Langhus barnehage" />
		<tag k="no-barnehage:nsrid" v="992788763" />
		<tag k="operator" v="Nordre Follo kommune" />
		<tag k="operator:type" v="public" />
	</node>
	<node lat="59.78817" lon="10.80243" id="-2266">
		<tag k="ADDRESS" v="Trelastveien 6A, 1415 OPPEGÅRD" />
		<tag k="amenity" v="kindergarten" />
		<tag k="capacity" v="80" />
		<tag k="max_age" v="5" />
		<tag k="min_age" v="1" />
		<tag k="name" v="Læringsverkstedet Myrvoll idrettsbarnehage" />
		<tag k="no-barnehage:nsrid" v="921550456" />
		<tag k="operator" v="Læringsverkstedet Myrvoll idrettsbarnehage AS" />
		<tag k="operator:type" v="private" />
	</node>
	<node lat="59.73258" lon="10.82752" id="-2267">
		<tag k="ADDRESS" v="Oppegårdveien 50B, 1423 SKI" />
		<tag k="amenity" v="kindergarten" />
		<tag k="capacity" v="30" />
		<tag k="max_age" v="5" />
		<tag k="min_age" v="1" />
		<tag k="name" v="Maurtua barnehage" />
		<tag k="no-barnehage:nsrid" v="974503913" />
		<tag k="operator" v="Maurtua barnehage AS" />
		<tag k="operator:type" v="private" />
	</node>
	<node lat="59.81463" lon="10.78481" id="-2268">
		<tag k="ADDRESS" v="Tømmerfaret 2, 1414 TROLLÅSEN" />
		<tag k="amenity" v="kindergarten" />
		<tag k="capacity" v="62" />
		<tag k="max_age" v="5" />
		<tag k="min_age" v="1" />
		<tag k="name" v="Mellomåsen barnehage" />
		<tag k="no-barnehage:nsrid" v="974579642" />
		<tag k="operator" v="Nordre Follo kommune" />
		<tag k="operator:type" v="public" />
	</node>
	<node lat="59.71336" lon="10.82256" id="-2269">
		<tag k="ADDRESS" v="Villenga 19, 1423 SKI" />
		<tag k="amenity" v="kindergarten" />
		<tag k="capacity" v="49" />
		<tag k="max_age" v="5" />
		<tag k="min_age" v="1" />
		<tag k="name" v="Nordre Finstad barnehage" />
		<tag k="no-barnehage:nsrid" v="874593702" />
		<tag k="operator" v="Nordre Follo kommune" />
		<tag k="operator:type" v="public" />
	</node>
	<node lat="59.77572" lon="10.79504" id="-2270">
		<tag k="ADDRESS" v="Nordåsveien 19, 1415 OPPEGÅRD" />
		<tag k="amenity" v="kindergarten" />
		<tag k="capacity" v="60" />
		<tag k="max_age" v="5" />
		<tag k="min_age" v="1" />
		<tag k="name" v="Nordåsveien barnehage" />
		<tag k="no-barnehage:nsrid" v="974579650" />
		<tag k="operator" v="Nordre Follo kommune" />
		<tag k="operator:type" v="public" />
	</node>
	<node lat="59.81791" lon="10.80059" id="-2271">
		<tag k="ADDRESS" v="Haugastølveien 7, 1410 KOLBOTN" />
		<tag k="amenity" v="kindergarten" />
		<tag k="capacity" v="60" />
		<tag k="contact:website" v="http://www.rikeasen.barnehage.no" />
		<tag k="max_age" v="5" />
		<tag k="min_age" v="1" />
		<tag k="name" v="Rikeåsen barnehage" />
		<tag k="no-barnehage:nsrid" v="976603079" />
		<tag k="operator" v="Rikeåsen barnehage SA" />
		<tag k="operator:type" v="private" />
	</node>
	<node lat="59.78863" lon="10.81599" id="-2272">
		<tag k="ADDRESS" v="Rognebærlia 1, 1412 SOFIEMYR" />
		<tag k="amenity" v="kindergarten" />
		<tag k="capacity" v="53" />
		<tag k="max_age" v="5" />
		<tag k="min_age" v="1" />
		<tag k="name" v="Rognebærlia barnehage" />
		<tag k="no-barnehage:nsrid" v="973598104" />
		<tag k="operator" v="Nordre Follo kommune" />
		<tag k="operator:type" v="public" />
	</node>
	<node lat="59.7184" lon="10.81627" id="-2273">
		<tag k="ADDRESS" v="Gauselveien 9, 1406 SKI" />
		<tag k="amenity" v="kindergarten" />
		<tag k="capacity" v="70" />
		<tag k="contact:website" v="http://rosenlundbarnehage.no/" />
		<tag k="max_age" v="5" />
		<tag k="min_age" v="1" />
		<tag k="name" v="Rosenlund barnehage" />
		<tag k="no-barnehage:nsrid" v="972285501" />
		<tag k="operator" v="Rosenlund barnehage SA" />
		<tag k="operator:type" v="private" />
	</node>
	<node lat="59.7903" lon="10.88973" id="-2274">
		<tag k="ADDRESS" v="Gamle Siggerudvei 3, 1404 SIGGERUD" />
		<tag k="amenity" v="kindergarten" />
		<tag k="capacity" v="81" />
		<tag k="max_age" v="5" />
		<tag k="min_age" v="1" />
		<tag k="name" v="Siggerud barnehage" />
		<tag k="no-barnehage:nsrid" v="974593459" />
		<tag k="operator" v="Nordre Follo kommune" />
		<tag k="operator:type" v="public" />
	</node>
	<node lat="59.79414" lon="10.88309" id="-2275">
		<tag k="ADDRESS" v="Bekkefaret 10, 1404 SIGGERUD" />
		<tag k="amenity" v="kindergarten" />
		<tag k="capacity" v="64" />
		<tag k="max_age" v="5" />
		<tag k="min_age" v="1" />
		<tag k="name" v="Siggerud gård barnehage" />
		<tag k="no-barnehage:nsrid" v="891392362" />
		<tag k="operator" v="Nordre Follo kommune" />
		<tag k="operator:type" v="public" />
	</node>
	<node lat="59.72636" lon="10.86299" id="-2277">
		<tag k="ADDRESS" v="Skoghusveien 7, 1400 SKI" />
		<tag k="amenity" v="kindergarten" />
		<tag k="capacity" v="74" />
		<tag k="max_age" v="5" />
		<tag k="min_age" v="1" />
		<tag k="name" v="Skoghus barnehage" />
		<tag k="no-barnehage:nsrid" v="974593432" />
		<tag k="operator" v="Nordre Follo kommune" />
		<tag k="operator:type" v="public" />
	</node>
	<node lat="59.76241" lon="10.86292" id="-2278">
		<tag k="ADDRESS" v="Tyttebærlia 2, 1405 LANGHUS" />
		<tag k="amenity" v="kindergarten" />
		<tag k="capacity" v="44" />
		<tag k="max_age" v="5" />
		<tag k="min_age" v="1" />
		<tag k="name" v="Skoglia barnehage" />
		<tag k="no-barnehage:nsrid" v="973595199" />
		<tag k="operator" v="Nordre Follo kommune" />
		<tag k="operator:type" v="public" />
	</node>
	<node lat="59.65864" lon="10.94862" id="-2279">
		<tag k="ADDRESS" v="Røysveien 2, 1409 SKOTBU" />
		<tag k="amenity" v="kindergarten" />
		<tag k="capacity" v="30" />
		<tag k="contact:website" v="http://www.nordrefollo.kommune.no" />
		<tag k="max_age" v="5" />
		<tag k="min_age" v="1" />
		<tag k="name" v="Skotbu barnehage" />
		<tag k="no-barnehage:nsrid" v="917434077" />
		<tag k="operator" v="Nordre Follo kommune" />
		<tag k="operator:type" v="public" />
	</node>
	<node lat="59.7713" lon="10.81926" id="-2280">
		<tag k="ADDRESS" v="Rolf Presthus vei 21, 1415 OPPEGÅRD" />
		<tag k="amenity" v="kindergarten" />
		<tag k="capacity" v="67" />
		<tag k="max_age" v="5" />
		<tag k="min_age" v="1" />
		<tag k="name" v="Slåbråten barnehage" />
		<tag k="no-barnehage:nsrid" v="989767305" />
		<tag k="operator" v="Nordre Follo kommune" />
		<tag k="operator:type" v="public" />
	</node>
	<node lat="59.75732" lon="10.8287" id="-2281">
		<tag k="ADDRESS" v="Smedsrudveien 23, 1405 LANGHUS" />
		<tag k="amenity" v="kindergarten" />
		<tag k="capacity" v="60" />
		<tag k="max_age" v="5" />
		<tag k="min_age" v="1" />
		<tag k="name" v="Smedsrud barnehage" />
		<tag k="no-barnehage:nsrid" v="974593750" />
		<tag k="operator" v="Nordre Follo kommune" />
		<tag k="operator:type" v="public" />
	</node>
	<node lat="59.79504" lon="10.8151" id="-2282">
		<tag k="ADDRESS" v="Tømteveien 21, 1412 SOFIEMYR" />
		<tag k="amenity" v="kindergarten" />
		<tag k="capacity" v="60" />
		<tag k="max_age" v="5" />
		<tag k="min_age" v="1" />
		<tag k="name" v="Sofiemyråsen barnehage" />
		<tag k="no-barnehage:nsrid" v="981626257" />
		<tag k="operator" v="Sofiemyråsen barnehage SA" />
		<tag k="operator:type" v="private" />
	</node>
	<node lat="59.71753" lon="10.81706" id="-2283">
		<tag k="ADDRESS" v="Gamleveien 37, 1406 SKI" />
		<tag k="amenity" v="kindergarten" />
		<tag k="capacity" v="24" />
		<tag k="contact:website" v="http://spilloppenbarnehage.no" />
		<tag k="max_age" v="5" />
		<tag k="min_age" v="1" />
		<tag k="name" v="Spilloppen barnehage" />
		<tag k="no-barnehage:nsrid" v="974195135" />
		<tag k="operator" v="Ski Kvinne- og Familieforbund" />
		<tag k="operator:type" v="private" />
	</node>
	<node lat="59.77902" lon="10.75307" id="-2284">
		<tag k="ADDRESS" v="Roald Amundsens vei 105, 1420 SVARTSKOG" />
		<tag k="amenity" v="kindergarten" />
		<tag k="capacity" v="14" />
		<tag k="max_age" v="5" />
		<tag k="min_age" v="1" />
		<tag k="name" v="Svartskog friluftsbarnehage" />
		<tag k="no-barnehage:nsrid" v="974197901" />
		<tag k="operator" v="Svartskog friluftsbarnehage SA" />
		<tag k="operator:type" v="private" />
	</node>
	<node lat="59.76662" lon="10.81653" id="-2285">
		<tag k="ADDRESS" v="Vellets vei 7, 1415 OPPEGÅRD" />
		<tag k="amenity" v="kindergarten" />
		<tag k="capacity" v="59" />
		<tag k="max_age" v="5" />
		<tag k="min_age" v="1" />
		<tag k="name" v="Sætreskogen barnehage" />
		<tag k="no-barnehage:nsrid" v="974579537" />
		<tag k="operator" v="Nordre Follo kommune" />
		<tag k="operator:type" v="public" />
	</node>
	<node lat="59.81728" lon="10.77802" id="-2286">
		<tag k="ADDRESS" v="Trollåsveien 19, 1414 TROLLÅSEN" />
		<tag k="amenity" v="kindergarten" />
		<tag k="capacity" v="30" />
		<tag k="max_age" v="5" />
		<tag k="min_age" v="1" />
		<tag k="name" v="Trolldalen barnehage Trollåsen" />
		<tag k="no-barnehage:nsrid" v="974183129" />
		<tag k="operator" v="Nordre Follo kommune" />
		<tag k="operator:type" v="public" />
	</node>
	<node lat="59.81225" lon="10.78602" id="-2287">
		<tag k="ADDRESS" v="Tømmerfaret 16, 1414 TROLLÅSEN" />
		<tag k="amenity" v="kindergarten" />
		<tag k="capacity" v="44" />
		<tag k="max_age" v="5" />
		<tag k="min_age" v="1" />
		<tag k="name" v="Trolldalen barnehage Vassbonn" />
		<tag k="no-barnehage:nsrid" v="974579588" />
		<tag k="operator" v="Nordre Follo kommune" />
		<tag k="operator:type" v="public" />
	</node>
	<node lat="59.76154" lon="10.86098" id="-2288">
		<tag k="ADDRESS" v="Kantarellen 23, 1405 LANGHUS" />
		<tag k="amenity" v="kindergarten" />
		<tag k="capacity" v="53" />
		<tag k="max_age" v="5" />
		<tag k="min_age" v="1" />
		<tag k="name" v="Trollskogen barnehage" />
		<tag k="no-barnehage:nsrid" v="986927301" />
		<tag k="operator" v="Nordre Follo kommune" />
		<tag k="operator:type" v="public" />
	</node>
	<node lat="59.75547" lon="10.8289" id="-2289">
		<tag k="ADDRESS" v="Tussestien 4, 1405 LANGHUS" />
		<tag k="amenity" v="kindergarten" />
		<tag k="capacity" v="59" />
		<tag k="max_age" v="5" />
		<tag k="min_age" v="1" />
		<tag k="name" v="Tussestien barnehage" />
		<tag k="no-barnehage:nsrid" v="974593661" />
		<tag k="operator" v="Nordre Follo kommune" />
		<tag k="operator:type" v="public" />
	</node>
	<node lat="59.79388" lon="10.8148" id="-2290">
		<tag k="ADDRESS" v="Tømteveien 25, 1412 SOFIEMYR" />
		<tag k="amenity" v="kindergarten" />
		<tag k="capacity" v="51" />
		<tag k="max_age" v="5" />
		<tag k="min_age" v="1" />
		<tag k="name" v="Tømteveien barnehage" />
		<tag k="no-barnehage:nsrid" v="974579634" />
		<tag k="operator" v="Nordre Follo kommune" />
		<tag k="operator:type" v="public" />
	</node>
	<node lat="59.77782" lon="10.80316" id="-2291">
		<tag k="ADDRESS" v="Vestliveien 21, 1415 OPPEGÅRD" />
		<tag k="amenity" v="kindergarten" />
		<tag k="capacity" v="60" />
		<tag k="max_age" v="5" />
		<tag k="min_age" v="1" />
		<tag k="name" v="Vestliveien barnehage" />
		<tag k="no-barnehage:nsrid" v="973598112" />
		<tag k="operator" v="Nordre Follo kommune" />
		<tag k="operator:type" v="public" />
	</node>
	<node lat="59.77438" lon="10.80238" id="-2292">
		<tag k="ADDRESS" v="Flåtestadveien 2, 1415 OPPEGÅRD" />
		<tag k="amenity" v="kindergarten" />
		<tag k="capacity" v="47" />
		<tag k="max_age" v="5" />
		<tag k="min_age" v="1" />
		<tag k="name" v="Vestre Greverud barnehage Flåtestadveien" />
		<tag k="no-barnehage:nsrid" v="974579618" />
		<tag k="operator" v="Nordre Follo kommune" />
		<tag k="operator:type" v="public" />
	</node>
	<node lat="59.72209" lon="10.83824" id="-2293">
		<tag k="ADDRESS" v="Kirkeveien 8A, 1400 SKI" />
		<tag k="amenity" v="kindergarten" />
		<tag k="capacity" v="80" />
		<tag k="max_age" v="5" />
		<tag k="min_age" v="1" />
		<tag k="name" v="Vestråt barnehage" />
		<tag k="no-barnehage:nsrid" v="974593424" />
		<tag k="operator" v="Nordre Follo kommune" />
		<tag k="operator:type" v="public" />
	</node>
	<node lat="59.71299" lon="10.82371" id="-2294">
		<tag k="ADDRESS" v="Villenga 17, 1423 SKI" />
		<tag k="amenity" v="kindergarten" />
		<tag k="capacity" v="36" />
		<tag k="max_age" v="5" />
		<tag k="min_age" v="1" />
		<tag k="name" v="Vestveien barnehage" />
		<tag k="no-barnehage:nsrid" v="911955091" />
		<tag k="operator" v="Nordre Follo kommune" />
		<tag k="operator:type" v="public" />
	</node>
	<node lat="59.75697" lon="10.84069" id="-2295">
		<tag k="ADDRESS" v="Gamle Vevelstadvei 23, 1405 LANGHUS" />
		<tag k="amenity" v="kindergarten" />
		<tag k="capacity" v="65" />
		<tag k="contact:website" v="http://vevelstadsaga.no" />
		<tag k="max_age" v="5" />
		<tag k="min_age" v="1" />
		<tag k="name" v="Vevelstadsaga barnehage" />
		<tag k="no-barnehage:nsrid" v="977556791" />
		<tag k="operator" v="Vevelstadsaga barnehage SA" />
		<tag k="operator:type" v="private" />
	</node>
	<node lat="0.0" lon="0.0" id="-2296">
		<tag k="ADDRESS" v="Vevelstadåsen 59, 1405 LANGHUS" />
		<tag k="amenity" v="kindergarten" />
		<tag k="capacity" v="49" />
		<tag k="max_age" v="5" />
		<tag k="min_age" v="1" />
		<tag k="name" v="Vevelstadåsen barnehage" />
		<tag k="no-barnehage:nsrid" v="974593467" />
		<tag k="operator" v="Nordre Follo kommune" />
		<tag k="operator:type" v="public" />
	</node>
	<node lat="59.71309" lon="10.82195" id="-2297">
		<tag k="ADDRESS" v="Villenga 21, 1423 SKI" />
		<tag k="amenity" v="kindergarten" />
		<tag k="capacity" v="90" />
		<tag k="contact:website" v="http://www.villenga.barnehage.no" />
		<tag k="max_age" v="5" />
		<tag k="min_age" v="1" />
		<tag k="name" v="Villenga barnehage" />
		<tag k="no-barnehage:nsrid" v="888839542" />
		<tag k="operator" v="Villenga barnehage AS" />
		<tag k="operator:type" v="private" />
	</node>
	<node lat="59.80518" lon="10.82153" id="-2298">
		<tag k="ADDRESS" v="Kongeveien 16B, 1412 SOFIEMYR" />
		<tag k="amenity" v="kindergarten" />
		<tag k="capacity" v="78" />
		<tag k="max_age" v="5" />
		<tag k="min_age" v="1" />
		<tag k="name" v="Ødegården barnehage" />
		<tag k="no-barnehage:nsrid" v="974579545" />
		<tag k="operator" v="Nordre Follo kommune" />
		<tag k="operator:type" v="public" />
	</node>
	<node lat="59.7256" lon="10.81815" id="-2299">
		<tag k="ADDRESS" v="Skogveien 30B, 1406 SKI" />
		<tag k="amenity" v="kindergarten" />
		<tag k="capacity" v="67" />
		<tag k="max_age" v="5" />
		<tag k="min_age" v="1" />
		<tag k="name" v="Øvre Hebekk barnehage" />
		<tag k="no-barnehage:nsrid" v="974593440" />
		<tag k="operator" v="Nordre Follo kommune" />
		<tag k="operator:type" v="public" />
	</node>
	<node lat="59.81021" lon="10.80069" id="-2300">
		<tag k="ADDRESS" v="Strandliveien 1, 1410 KOLBOTN" />
		<tag k="amenity" v="kindergarten" />
		<tag k="name" v="Åpen barnehage avd. Kolben" />
		<tag k="no-barnehage:nsrid" v="980068137" />
		<tag k="operator" v="Nordre Follo kommune" />
		<tag k="operator:type" v="public" />
	</node>
</osm>
