<?xml version="1.0" encoding="UTF-8"?>
<osm generator="osmapis" version="0.6">
	<node id="-3348" lat="61.55417" lon="6.35867">
		<tag k="ADDRESS" v="Årdalsvegen 347, 6843 SKEI I JØLSTER" />
		<tag k="amenity" v="kindergarten" />
		<tag k="max_age" v="5" />
		<tag k="min_age" v="1" />
		<tag k="name" v="Årdal barnehage" />
		<tag k="no-barnehage:nsrid" v="1019717" />
		<tag k="operator" v="Årdal Foreldrelag" />
		<tag k="operator:type" v="private" />
	</node>
	<node id="-3347" lat="0.0" lon="0.0">
		<tag k="ADDRESS" v="Borgja 1, 6847 VASSENDEN" />
		<tag k="amenity" v="kindergarten" />
		<tag k="capacity" v="15" />
		<tag k="max_age" v="5" />
		<tag k="min_age" v="1" />
		<tag k="name" v="Ålhus barnehage" />
		<tag k="no-barnehage:nsrid" v="1019719" />
		<tag k="operator" v="Ålhus barnehage Sa" />
		<tag k="operator:type" v="private" />
	</node>
	<node id="-3346" lat="61.61535" lon="6.69594">
		<tag k="ADDRESS" v="Stardalen, 6843 SKEI I JØLSTER" />
		<tag k="amenity" v="kindergarten" />
		<tag k="capacity" v="10" />
		<tag k="max_age" v="5" />
		<tag k="min_age" v="1" />
		<tag k="name" v="Stardalen barnehage" />
		<tag k="no-barnehage:nsrid" v="1019718" />
		<tag k="operator" v="Stardalen barnehage Sa" />
		<tag k="operator:type" v="private" />
	</node>
</osm>
