<?xml version="1.0" encoding="UTF-8"?>
<osm version="0.6" generator="osmapis">
	<node lat="62.28734" lon="10.75154" id="-3106">
		<tag k="ADDRESS" v="Vedalen 41, 2500 TYNSET" />
		<tag k="amenity" v="kindergarten" />
		<tag k="capacity" v="22" />
		<tag k="contact:website" v="http://eggenbarnehage.no" />
		<tag k="max_age" v="5" />
		<tag k="min_age" v="1" />
		<tag k="name" v="Eggen barnehage" />
		<tag k="no-barnehage:nsrid" v="974570181" />
		<tag k="operator" v="Eggen barnehage SA" />
		<tag k="operator:type" v="private" />
	</node>
	<node lat="62.27143" lon="10.78856" id="-3107">
		<tag k="ADDRESS" v="Skogveien 26A, 2500 TYNSET" />
		<tag k="amenity" v="kindergarten" />
		<tag k="capacity" v="10" />
		<tag k="max_age" v="5" />
		<tag k="min_age" v="1" />
		<tag k="name" v="Furumoen barnehage" />
		<tag k="no-barnehage:nsrid" v="973449044" />
		<tag k="operator" v="Marisko-Stiftelsen Alstadhaug Menighetsbarnehager" />
		<tag k="operator:type" v="private" />
	</node>
	<node lat="0.0" lon="0.0" id="-3108">
		<tag k="ADDRESS" v="Fåset, 2500 TYNSET" />
		<tag k="amenity" v="kindergarten" />
		<tag k="capacity" v="17" />
		<tag k="max_age" v="5" />
		<tag k="min_age" v="1" />
		<tag k="name" v="Fåset skole og barnehage avd. barnehage" />
		<tag k="no-barnehage:nsrid" v="874570192" />
		<tag k="operator" v="Tynset kommune" />
		<tag k="operator:type" v="public" />
	</node>
	<node lat="62.2667" lon="10.77543" id="-3109">
		<tag k="ADDRESS" v="Grendeveien 11, 2500 TYNSET" />
		<tag k="amenity" v="kindergarten" />
		<tag k="capacity" v="42" />
		<tag k="max_age" v="5" />
		<tag k="min_age" v="1" />
		<tag k="name" v="Haverslia barnehage" />
		<tag k="no-barnehage:nsrid" v="974570203" />
		<tag k="operator" v="Tynset kommune" />
		<tag k="operator:type" v="public" />
	</node>
	<node lat="62.56138" lon="10.32449" id="-3110">
		<tag k="ADDRESS" v="Vollanveien 54, 2512 KVIKNE" />
		<tag k="amenity" v="kindergarten" />
		<tag k="capacity" v="12" />
		<tag k="max_age" v="5" />
		<tag k="min_age" v="1" />
		<tag k="name" v="Kvikne barnehage" />
		<tag k="no-barnehage:nsrid" v="974570211" />
		<tag k="operator" v="Tynset kommune" />
		<tag k="operator:type" v="public" />
	</node>
	<node lat="62.12773" lon="10.80072" id="-3111">
		<tag k="ADDRESS" v="Tylldalsveien 1886, 2510 TYLLDALEN" />
		<tag k="amenity" v="kindergarten" />
		<tag k="capacity" v="21" />
		<tag k="contact:website" v="http://facebook.com/Lekestuabarnehage" />
		<tag k="max_age" v="5" />
		<tag k="min_age" v="1" />
		<tag k="name" v="Lekestua barnehage" />
		<tag k="no-barnehage:nsrid" v="993131075" />
		<tag k="operator" v="Lekestua barnehage" />
		<tag k="operator:type" v="private" />
	</node>
	<node lat="62.27084" lon="10.78847" id="-3112">
		<tag k="ADDRESS" v="Ekornveien 18, 2500 TYNSET" />
		<tag k="amenity" v="kindergarten" />
		<tag k="capacity" v="55" />
		<tag k="max_age" v="5" />
		<tag k="min_age" v="1" />
		<tag k="name" v="Skogstua barnehage" />
		<tag k="no-barnehage:nsrid" v="974570238" />
		<tag k="operator" v="Tynset kommune" />
		<tag k="operator:type" v="public" />
	</node>
	<node lat="62.26991" lon="10.76707" id="-3113">
		<tag k="ADDRESS" v="Kongsveien 18, 2500 TYNSET" />
		<tag k="amenity" v="kindergarten" />
		<tag k="capacity" v="70" />
		<tag k="max_age" v="5" />
		<tag k="min_age" v="1" />
		<tag k="name" v="Tronstua barnehage" />
		<tag k="no-barnehage:nsrid" v="974570246" />
		<tag k="operator" v="Tynset kommune" />
		<tag k="operator:type" v="public" />
	</node>
</osm>
