<?xml version="1.0" encoding="UTF-8"?>
<osm generator="osmapis" version="0.6">
	<node id="-1955" lat="61.3088" lon="12.2742">
		<tag k="amenity" v="kindergarten" />
		<tag k="capacity" v="44" />
		<tag k="contact:email" v="postmottak@trysil.kommune.no" />
		<tag k="contact:phone" v="62 45 14 19" />
		<tag k="max_age" v="5" />
		<tag k="min_age" v="1" />
		<tag k="name" v="Østmojordet barnehage" />
		<tag k="no-barnehage:nsrid" v="1013924" />
		<tag k="operator" v="Trysil kommune" />
		<tag k="operator:type" v="public" />
		<tag k="start_date" v="1990-08-15" />
	</node>
	<node id="-1954" lat="61.2797" lon="12.2884">
		<tag k="amenity" v="kindergarten" />
		<tag k="capacity" v="40" />
		<tag k="contact:email" v="vestadbakken@laringsverkstedet.no" />
		<tag k="contact:phone" v="415 38 045" />
		<tag k="contact:website" v="http://www.laringsverkstedet.no/vestadbakken" />
		<tag k="max_age" v="5" />
		<tag k="min_age" v="1" />
		<tag k="name" v="Læringsverkstedet barnehage Avd Vestadbakken" />
		<tag k="no-barnehage:nsrid" v="1013981" />
		<tag k="operator" v="Læringsverkstedet AS" />
		<tag k="operator:type" v="private" />
		<tag k="start_date" v="2009-06-01" />
	</node>
</osm>
