<?xml version="1.0" encoding="UTF-8"?>
<osm generator="osmapis" version="0.6">
	<node id="-3534" lat="58.6889" lon="8.69665">
		<tag k="amenity" v="kindergarten" />
		<tag k="capacity" v="10" />
		<tag k="max_age" v="5" />
		<tag k="min_age" v="1" />
		<tag k="name" v="Mosberg barnehage" />
		<tag k="no-barnehage:nsrid" v="2000139" />
		<tag k="operator" v="Åmli kommune" />
		<tag k="operator:type" v="public" />
	</node>
	<node id="-3533" lat="58.77029" lon="8.49248">
		<tag k="amenity" v="kindergarten" />
		<tag k="capacity" v="27" />
		<tag k="max_age" v="5" />
		<tag k="min_age" v="1" />
		<tag k="name" v="Klokkargarden barnehage" />
		<tag k="no-barnehage:nsrid" v="1021862" />
		<tag k="operator" v="Klokkargarden barnehage Da" />
		<tag k="operator:type" v="private" />
	</node>
	<node id="-3532" lat="0.0" lon="0.0">
		<tag k="amenity" v="kindergarten" />
		<tag k="capacity" v="15" />
		<tag k="max_age" v="5" />
		<tag k="min_age" v="1" />
		<tag k="name" v="Dølemo oppvekstsenter avd. barnehage" />
		<tag k="no-barnehage:nsrid" v="1018574" />
		<tag k="operator" v="Åmli kommune" />
		<tag k="operator:type" v="public" />
	</node>
	<node id="-3531" lat="58.77251" lon="8.49364">
		<tag k="amenity" v="kindergarten" />
		<tag k="capacity" v="45" />
		<tag k="max_age" v="5" />
		<tag k="min_age" v="1" />
		<tag k="name" v="Beverborga barnehage" />
		<tag k="no-barnehage:nsrid" v="1013129" />
		<tag k="operator" v="Åmli kommune" />
		<tag k="operator:type" v="public" />
	</node>
</osm>
