<?xml version="1.0" encoding="UTF-8"?>
<osm generator="osmapis" version="0.6">
	<node id="-3125" lat="59.40932" lon="5.2736">
		<tag k="ADDRESS" v="Haraldsgata 70, 5528 HAUGESUND" />
		<tag k="amenity" v="kindergarten" />
		<tag k="name" v="Åpen barnehage" />
		<tag k="no-barnehage:nsrid" v="1020373" />
		<tag k="operator" v="Haugesund Kfuk og Kfum" />
		<tag k="operator:type" v="private" />
	</node>
	<node id="-3124" lat="59.3988" lon="5.31997">
		<tag k="ADDRESS" v="Skonnertvegen 7, 5535 HAUGESUND" />
		<tag k="amenity" v="kindergarten" />
		<tag k="capacity" v="61" />
		<tag k="contact:website" v="http://www.villduen.barnehageside.no" />
		<tag k="max_age" v="5" />
		<tag k="min_age" v="1" />
		<tag k="name" v="Villduen barnehage" />
		<tag k="no-barnehage:nsrid" v="1020311" />
		<tag k="operator" v="Villduen barnehage Sa" />
		<tag k="operator:type" v="private" />
	</node>
	<node id="-3122" lat="59.40952" lon="5.28292">
		<tag k="ADDRESS" v="Wergelands Gate 19, 5522 HAUGESUND" />
		<tag k="amenity" v="kindergarten" />
		<tag k="name" v="Nye Espira Bråsteintunet barnehage" />
		<tag k="no-barnehage:nsrid" v="2000239" />
		<tag k="operator" v="Espira Barnehager AS" />
		<tag k="operator:type" v="private" />
	</node>
	<node id="-3121" lat="59.46906" lon="5.28452">
		<tag k="ADDRESS" v="Tittelsnesvegen 332b, 5514 HAUGESUND" />
		<tag k="amenity" v="kindergarten" />
		<tag k="capacity" v="31" />
		<tag k="max_age" v="5" />
		<tag k="min_age" v="1" />
		<tag k="name" v="Nbu's bondegårdsbarnehage" />
		<tag k="no-barnehage:nsrid" v="1020241" />
		<tag k="operator" v="Nordbygdenes Ungdomslag" />
		<tag k="operator:type" v="private" />
	</node>
	<node id="-3120" lat="59.40865" lon="5.28942">
		<tag k="ADDRESS" v="Bjørgvingata 40, 5531 HAUGESUND" />
		<tag k="amenity" v="kindergarten" />
		<tag k="capacity" v="39" />
		<tag k="contact:website" v="http://iogt.barnehage.no/" />
		<tag k="max_age" v="5" />
		<tag k="min_age" v="1" />
		<tag k="name" v="Iogt barnehagen" />
		<tag k="no-barnehage:nsrid" v="1020789" />
		<tag k="operator" v="Iogt Haugesund" />
		<tag k="operator:type" v="private" />
	</node>
	<node id="-3118" lat="59.44287" lon="5.27834">
		<tag k="ADDRESS" v="Stallvegen 16, 5517 HAUGESUND" />
		<tag k="amenity" v="kindergarten" />
		<tag k="capacity" v="47" />
		<tag k="contact:website" v="http://www.grutle.barnehageside.no" />
		<tag k="max_age" v="5" />
		<tag k="min_age" v="1" />
		<tag k="name" v="Grutle barnehage" />
		<tag k="no-barnehage:nsrid" v="1019814" />
		<tag k="operator" v="Grutle barnehage Sa" />
		<tag k="operator:type" v="private" />
	</node>
	<node id="-3117" lat="59.42984" lon="5.27132">
		<tag k="ADDRESS" v="Skeisvollsvegen 46, 5518 HAUGESUND" />
		<tag k="amenity" v="kindergarten" />
		<tag k="capacity" v="54" />
		<tag k="contact:website" v="http://www.gardbarnehage.no" />
		<tag k="max_age" v="5" />
		<tag k="min_age" v="1" />
		<tag k="name" v="Gard barnehage" />
		<tag k="no-barnehage:nsrid" v="1020128" />
		<tag k="operator" v="Gard barnehage Sa" />
		<tag k="operator:type" v="private" />
	</node>
</osm>
