<?xml version="1.0" encoding="UTF-8"?>
<osm generator="osmapis" version="0.6">
	<node id="-3583" lat="59.417" lon="5.257104">
		<tag k="amenity" v="kindergarten" />
		<tag k="capacity" v="10" />
		<tag k="contact:phone" v="52 72 40 33" />
		<tag k="max_age" v="5" />
		<tag k="min_age" v="1" />
		<tag k="name" v="Holmegaten Familiebarnehage Ans" />
		<tag k="no-barnehage:nsrid" v="1020671" />
		<tag k="operator" v="Holmegaten Familiebarnehage Ans" />
		<tag k="operator:type" v="private" />
		<tag k="start_date" v="1998-01-01" />
	</node>
	<node id="-3590" lat="59.4222" lon="5.262979">
		<tag k="amenity" v="kindergarten" />
		<tag k="capacity" v="35" />
		<tag k="contact:phone" v="52 71 77 09" />
		<tag k="max_age" v="5" />
		<tag k="min_age" v="1" />
		<tag k="name" v="Nøtteliten Familiebarnehage AS" />
		<tag k="no-barnehage:nsrid" v="1020894" />
		<tag k="operator" v="Nøtteliten Familiebarnehage AS" />
		<tag k="operator:type" v="private" />
		<tag k="start_date" v="1996-08-15" />
	</node>
	<node id="-3597" lat="59.412" lon="5.26285">
		<tag k="amenity" v="kindergarten" />
		<tag k="capacity" v="8" />
		<tag k="max_age" v="2" />
		<tag k="min_age" v="1" />
		<tag k="name" v="Små Barnehager Haugesund Avd Risøy" />
		<tag k="no-barnehage:nsrid" v="1013542" />
		<tag k="operator" v="Små Barnehager Haugesund AS" />
		<tag k="operator:type" v="private" />
		<tag k="start_date" v="2013-01-01" />
	</node>
	<node id="-3596" lat="59.3994" lon="5.32155">
		<tag k="amenity" v="kindergarten" />
		<tag k="capacity" v="6" />
		<tag k="max_age" v="2" />
		<tag k="min_age" v="1" />
		<tag k="name" v="Små Barnehager Haugesund Avd Brakahaug" />
		<tag k="no-barnehage:nsrid" v="1015086" />
		<tag k="operator" v="Små Barnehager Haugesund AS" />
		<tag k="operator:type" v="private" />
		<tag k="start_date" v="2011-01-01" />
	</node>
</osm>
