<?xml version="1.0" encoding="UTF-8"?>
<osm generator="osmapis" version="0.6">
	<node id="-3245" lat="59.40931" lon="5.273596">
		<tag k="amenity" v="kindergarten" />
		<tag k="contact:phone" v="047238950" />
		<tag k="name" v="Åpen barnehage" />
		<tag k="no-barnehage:nsrid" v="1020373" />
		<tag k="operator" v="Haugesund Kfuk og Kfum" />
		<tag k="operator:type" v="private" />
		<tag k="start_date" v="1995-02-23" />
	</node>
	<node id="-3244" lat="59.3988" lon="5.31998">
		<tag k="amenity" v="kindergarten" />
		<tag k="capacity" v="74" />
		<tag k="contact:email" v="villduen@online.no" />
		<tag k="contact:phone" v="52 71 66 03" />
		<tag k="contact:website" v="http://www.villduen.barnehageside.no" />
		<tag k="max_age" v="5" />
		<tag k="min_age" v="1" />
		<tag k="name" v="Villduen barnehage" />
		<tag k="no-barnehage:nsrid" v="1020311" />
		<tag k="operator" v="Villduen barnehage Sa" />
		<tag k="operator:type" v="private" />
		<tag k="start_date" v="1995-02-23" />
	</node>
	<node id="-3243" lat="59.39288" lon="5.335513">
		<tag k="amenity" v="kindergarten" />
		<tag k="capacity" v="87" />
		<tag k="contact:email" v="dl.vassbrekke@bhg.no" />
		<tag k="contact:phone" v="52 70 01 20" />
		<tag k="max_age" v="5" />
		<tag k="min_age" v="1" />
		<tag k="name" v="Vassbrekke Fus Kulturbarnehage AS" />
		<tag k="no-barnehage:nsrid" v="1021643" />
		<tag k="operator" v="Vassbrekke Fus Kulturbarnehage AS" />
		<tag k="operator:type" v="private" />
		<tag k="start_date" v="2007-03-09" />
	</node>
	<node id="-3242" lat="59.4432" lon="5.277415">
		<tag k="amenity" v="kindergarten" />
		<tag k="capacity" v="83" />
		<tag k="contact:email" v="dl.udland@bhg.no" />
		<tag k="contact:phone" v="52 73 10 60" />
		<tag k="contact:website" v="http://www.udland.bhg.no" />
		<tag k="max_age" v="5" />
		<tag k="min_age" v="1" />
		<tag k="name" v="Udland Fus barnehage AS" />
		<tag k="no-barnehage:nsrid" v="1021181" />
		<tag k="operator" v="Udland Fus barnehage AS" />
		<tag k="operator:type" v="private" />
		<tag k="start_date" v="2005-01-27" />
	</node>
	<node id="-3241" lat="59.41798" lon="5.298872">
		<tag k="amenity" v="kindergarten" />
		<tag k="capacity" v="66" />
		<tag k="contact:email" v="s-moria@barnehage.no" />
		<tag k="contact:phone" v="52712758" />
		<tag k="contact:website" v="http://soriamoriasteiner.barnehage.no" />
		<tag k="max_age" v="5" />
		<tag k="min_age" v="1" />
		<tag k="name" v="Stiftelsen Soria Moria Steinerbarnehage" />
		<tag k="no-barnehage:nsrid" v="1019762" />
		<tag k="operator" v="Stiftelsen Soria Moria Steinerbarnehage" />
		<tag k="operator:type" v="private" />
		<tag k="start_date" v="1989-01-02" />
	</node>
	<node id="-3240" lat="59.4149" lon="5.318961">
		<tag k="amenity" v="kindergarten" />
		<tag k="capacity" v="68" />
		<tag k="contact:email" v="post@steinsfjelletbarnehage.no" />
		<tag k="contact:phone" v="52 72 18 30" />
		<tag k="contact:website" v="http://www.steinsfjelletbarnehage.no" />
		<tag k="max_age" v="5" />
		<tag k="min_age" v="1" />
		<tag k="name" v="Steinsfjellet barnehage Sa" />
		<tag k="no-barnehage:nsrid" v="1021027" />
		<tag k="operator" v="Steinsfjellet barnehage Sa" />
		<tag k="operator:type" v="private" />
		<tag k="start_date" v="2004-03-19" />
	</node>
	<node id="-3239" lat="59.4032" lon="5.28021">
		<tag k="amenity" v="kindergarten" />
		<tag k="capacity" v="32" />
		<tag k="max_age" v="5" />
		<tag k="min_age" v="1" />
		<tag k="name" v="St. Olav barnehage" />
		<tag k="no-barnehage:nsrid" v="1016845" />
		<tag k="operator" v="Haugesund kommune" />
		<tag k="operator:type" v="public" />
		<tag k="start_date" v="1976-12-24" />
	</node>
	<node id="-3238" lat="59.4102" lon="5.28927">
		<tag k="amenity" v="kindergarten" />
		<tag k="capacity" v="64" />
		<tag k="contact:phone" v="51 887517" />
		<tag k="max_age" v="5" />
		<tag k="min_age" v="1" />
		<tag k="name" v="Ssh Studentbarnehagen" />
		<tag k="no-barnehage:nsrid" v="1016070" />
		<tag k="operator" v="Studentsamskipnaden Stord/haugesund" />
		<tag k="operator:type" v="private" />
		<tag k="start_date" v="1994-07-28" />
	</node>
	<node id="-3237" lat="59.4337" lon="5.29273">
		<tag k="amenity" v="kindergarten" />
		<tag k="capacity" v="48" />
		<tag k="max_age" v="5" />
		<tag k="min_age" v="1" />
		<tag k="name" v="Solandsbakken barnehage" />
		<tag k="no-barnehage:nsrid" v="1018084" />
		<tag k="operator" v="Haugesund kommune" />
		<tag k="operator:type" v="public" />
		<tag k="start_date" v="1989-01-01" />
	</node>
	<node id="-3234" lat="59.4266" lon="5.27034">
		<tag k="amenity" v="kindergarten" />
		<tag k="capacity" v="64" />
		<tag k="max_age" v="5" />
		<tag k="min_age" v="1" />
		<tag k="name" v="Skåre Fus barnehage AS" />
		<tag k="no-barnehage:nsrid" v="1016965" />
		<tag k="operator" v="Skåre Fus barnehage AS" />
		<tag k="operator:type" v="private" />
		<tag k="start_date" v="2005-04-29" />
	</node>
	<node id="-3233" lat="59.4323" lon="5.25687">
		<tag k="amenity" v="kindergarten" />
		<tag k="capacity" v="36" />
		<tag k="max_age" v="5" />
		<tag k="min_age" v="1" />
		<tag k="name" v="Sagatun barnehage" />
		<tag k="no-barnehage:nsrid" v="1017476" />
		<tag k="operator" v="Haugesund kommune" />
		<tag k="operator:type" v="public" />
		<tag k="start_date" v="1982-09-01" />
	</node>
	<node id="-3232" lat="59.4393" lon="5.10801">
		<tag k="amenity" v="kindergarten" />
		<tag k="capacity" v="4" />
		<tag k="max_age" v="5" />
		<tag k="min_age" v="1" />
		<tag k="name" v="Røvær barnehage" />
		<tag k="no-barnehage:nsrid" v="1018083" />
		<tag k="operator" v="Haugesund kommune" />
		<tag k="operator:type" v="public" />
		<tag k="start_date" v="1989-01-01" />
	</node>
	<node id="-3231" lat="59.40963" lon="5.329632">
		<tag k="amenity" v="kindergarten" />
		<tag k="capacity" v="90" />
		<tag k="contact:email" v="kontor@rufus.no" />
		<tag k="contact:phone" v="52716644" />
		<tag k="contact:website" v="http://www.rufus.no" />
		<tag k="max_age" v="5" />
		<tag k="min_age" v="1" />
		<tag k="name" v="Rufus barnehage Sa" />
		<tag k="no-barnehage:nsrid" v="1020563" />
		<tag k="operator" v="Rufus barnehage Sa" />
		<tag k="operator:type" v="private" />
		<tag k="start_date" v="1990-06-01" />
	</node>
	<node id="-3230" lat="59.418" lon="5.290687">
		<tag k="amenity" v="kindergarten" />
		<tag k="capacity" v="86" />
		<tag k="contact:email" v="dl.prestehaug@bhg.no" />
		<tag k="contact:phone" v="52 71 11 30" />
		<tag k="max_age" v="5" />
		<tag k="min_age" v="1" />
		<tag k="name" v="Presthaug Fus barnehage AS" />
		<tag k="no-barnehage:nsrid" v="1021442" />
		<tag k="operator" v="Presthaug Fus barnehage AS" />
		<tag k="operator:type" v="private" />
		<tag k="start_date" v="2006-03-06" />
	</node>
	<node id="-3228" lat="59.46906" lon="5.284523">
		<tag k="amenity" v="kindergarten" />
		<tag k="capacity" v="27" />
		<tag k="contact:phone" v="52 71 82 66" />
		<tag k="max_age" v="5" />
		<tag k="min_age" v="1" />
		<tag k="name" v="Nbu'S Bondegårdsbarnehage" />
		<tag k="no-barnehage:nsrid" v="1020241" />
		<tag k="operator" v="Nordbygdenes Ungdomslag" />
		<tag k="operator:type" v="private" />
		<tag k="start_date" v="1994-08-01" />
	</node>
	<node id="-3227" lat="59.40173" lon="5.307536">
		<tag k="amenity" v="kindergarten" />
		<tag k="capacity" v="68" />
		<tag k="contact:phone" v="52 72 79 11" />
		<tag k="contact:website" v="http://www.lysskar.barnehage.no" />
		<tag k="max_age" v="5" />
		<tag k="min_age" v="1" />
		<tag k="name" v="Lysskar barnehage Sa" />
		<tag k="no-barnehage:nsrid" v="1020783" />
		<tag k="operator" v="Lysskar barnehage Sa" />
		<tag k="operator:type" v="private" />
		<tag k="start_date" v="2002-02-27" />
	</node>
	<node id="-3226" lat="59.40165" lon="5.29032">
		<tag k="amenity" v="kindergarten" />
		<tag k="capacity" v="47" />
		<tag k="contact:phone" v="52 71 37 51" />
		<tag k="max_age" v="5" />
		<tag k="min_age" v="1" />
		<tag k="name" v="Li-Te AS" />
		<tag k="no-barnehage:nsrid" v="1022019" />
		<tag k="operator" v="Li-Te AS" />
		<tag k="operator:type" v="private" />
		<tag k="start_date" v="2004-08-02" />
	</node>
	<node id="-3225" lat="59.42139" lon="5.261937">
		<tag k="amenity" v="kindergarten" />
		<tag k="capacity" v="54" />
		<tag k="max_age" v="5" />
		<tag k="min_age" v="1" />
		<tag k="name" v="Kyvikdalen barnehage Sa" />
		<tag k="no-barnehage:nsrid" v="1021157" />
		<tag k="operator" v="Kyvikdalen barnehage Sa" />
		<tag k="operator:type" v="private" />
		<tag k="start_date" v="2004-08-19" />
	</node>
	<node id="-3224" lat="59.43579" lon="5.258317">
		<tag k="amenity" v="kindergarten" />
		<tag k="capacity" v="55" />
		<tag k="contact:phone" v="52 70 36 10" />
		<tag k="max_age" v="5" />
		<tag k="min_age" v="1" />
		<tag k="name" v="Kvala barnehage AS" />
		<tag k="no-barnehage:nsrid" v="1020602" />
		<tag k="operator" v="Kvala barnehage AS" />
		<tag k="operator:type" v="private" />
		<tag k="start_date" v="1999-09-01" />
	</node>
	<node id="-3223" lat="59.40865" lon="5.289417">
		<tag k="amenity" v="kindergarten" />
		<tag k="capacity" v="48" />
		<tag k="contact:email" v="iogtbarn@barnehage.no" />
		<tag k="max_age" v="5" />
		<tag k="min_age" v="1" />
		<tag k="name" v="Iogt Barnehagen" />
		<tag k="no-barnehage:nsrid" v="1020789" />
		<tag k="operator" v="Iogt Haugesund" />
		<tag k="operator:type" v="private" />
		<tag k="start_date" v="2005-08-15" />
	</node>
	<node id="-3221" lat="59.4015" lon="5.29516">
		<tag k="amenity" v="kindergarten" />
		<tag k="capacity" v="51" />
		<tag k="max_age" v="5" />
		<tag k="min_age" v="1" />
		<tag k="name" v="Hemmingstad barnehage" />
		<tag k="no-barnehage:nsrid" v="1016917" />
		<tag k="operator" v="Haugesund kommune" />
		<tag k="operator:type" v="public" />
		<tag k="start_date" v="1976-12-24" />
	</node>
	<node id="-3220" lat="59.3877" lon="5.30878">
		<tag k="amenity" v="kindergarten" />
		<tag k="capacity" v="68" />
		<tag k="contact:phone" v="52 70 86 50" />
		<tag k="contact:website" v="http://www.haugaland-industri.no" />
		<tag k="max_age" v="5" />
		<tag k="min_age" v="1" />
		<tag k="name" v="Haugaland Idrettsbarnehage" />
		<tag k="no-barnehage:nsrid" v="1016587" />
		<tag k="operator" v="As Haugaland Industri" />
		<tag k="operator:type" v="private" />
		<tag k="start_date" v="2003-08-04" />
	</node>
	<node id="-3219" lat="59.44288" lon="5.278342">
		<tag k="amenity" v="kindergarten" />
		<tag k="capacity" v="55" />
		<tag k="contact:phone" v="52 73 50 33" />
		<tag k="contact:website" v="http://www.grutle.barnehageside.no" />
		<tag k="max_age" v="5" />
		<tag k="min_age" v="1" />
		<tag k="name" v="Grutle barnehage" />
		<tag k="no-barnehage:nsrid" v="1019814" />
		<tag k="operator" v="Grutle barnehage Sa" />
		<tag k="operator:type" v="private" />
		<tag k="start_date" v="1989-01-01" />
	</node>
	<node id="-3218" lat="59.42956" lon="5.271668">
		<tag k="amenity" v="kindergarten" />
		<tag k="capacity" v="54" />
		<tag k="contact:email" v="post@gardbarnehage.no" />
		<tag k="contact:phone" v="52 71 26 12" />
		<tag k="contact:website" v="http://www.gardbarnehage.no" />
		<tag k="max_age" v="5" />
		<tag k="min_age" v="1" />
		<tag k="name" v="Gard barnehage Sa" />
		<tag k="no-barnehage:nsrid" v="1020128" />
		<tag k="operator" v="Gard barnehage Sa" />
		<tag k="operator:type" v="private" />
		<tag k="start_date" v="1993-06-28" />
	</node>
	<node id="-3217" lat="59.40755" lon="5.304404">
		<tag k="amenity" v="kindergarten" />
		<tag k="capacity" v="64" />
		<tag k="contact:email" v="post@fjellstemmen.no" />
		<tag k="contact:phone" v="52714915" />
		<tag k="contact:website" v="http://fjellstemmen.no" />
		<tag k="max_age" v="5" />
		<tag k="min_age" v="1" />
		<tag k="name" v="Fjellstemmen barnehage" />
		<tag k="no-barnehage:nsrid" v="1019912" />
		<tag k="operator" v="Fjellstemmen barnehage Sa" />
		<tag k="operator:type" v="private" />
		<tag k="start_date" v="1990-09-01" />
	</node>
	<node id="-3216" lat="59.41201" lon="5.324298">
		<tag k="amenity" v="kindergarten" />
		<tag k="capacity" v="167" />
		<tag k="contact:email" v="post@espira.no" />
		<tag k="contact:phone" v="52 84 50 20" />
		<tag k="contact:website" v="http://www.espira.no" />
		<tag k="max_age" v="5" />
		<tag k="min_age" v="1" />
		<tag k="name" v="Espira Skåredalen barnehage" />
		<tag k="no-barnehage:nsrid" v="1021754" />
		<tag k="operator" v="Espira Skåredalen AS" />
		<tag k="operator:type" v="private" />
		<tag k="start_date" v="2008-01-18" />
	</node>
	<node id="-3215" lat="59.4084" lon="5.280722">
		<tag k="amenity" v="kindergarten" />
		<tag k="capacity" v="76" />
		<tag k="contact:email" v="post@espira.no" />
		<tag k="contact:phone" v="52 84 50 20" />
		<tag k="contact:website" v="http://www.espira.no" />
		<tag k="max_age" v="5" />
		<tag k="min_age" v="1" />
		<tag k="name" v="Espira Bråsteintunet barnehage" />
		<tag k="no-barnehage:nsrid" v="1021892" />
		<tag k="operator" v="Espira Bråsteintunet AS" />
		<tag k="operator:type" v="private" />
		<tag k="start_date" v="2008-12-05" />
	</node>
	<node id="-3214" lat="59.3936" lon="5.30151">
		<tag k="amenity" v="kindergarten" />
		<tag k="capacity" v="92" />
		<tag k="contact:email" v="post@espira.no" />
		<tag k="contact:phone" v="52 84 50 20" />
		<tag k="contact:website" v="http://www.espira.no" />
		<tag k="max_age" v="5" />
		<tag k="min_age" v="1" />
		<tag k="name" v="Espira Bjørgene barnehage" />
		<tag k="no-barnehage:nsrid" v="1021279" />
		<tag k="operator" v="Espira Bjørgene AS" />
		<tag k="operator:type" v="private" />
		<tag k="start_date" v="2005-07-26" />
	</node>
	<node id="-3213" lat="59.4376" lon="5.28587">
		<tag k="amenity" v="kindergarten" />
		<tag k="capacity" v="51" />
		<tag k="max_age" v="5" />
		<tag k="min_age" v="1" />
		<tag k="name" v="Bleikemyr barnehage" />
		<tag k="no-barnehage:nsrid" v="1018082" />
		<tag k="operator" v="Haugesund kommune" />
		<tag k="operator:type" v="public" />
		<tag k="start_date" v="1989-01-01" />
	</node>
	<node id="-3212" lat="59.41139" lon="5.294586">
		<tag k="amenity" v="kindergarten" />
		<tag k="capacity" v="85" />
		<tag k="contact:email" v="sa@anmba.no" />
		<tag k="contact:phone" v="52 72 54 00" />
		<tag k="contact:website" v="http://anm.barnehageside.no" />
		<tag k="max_age" v="5" />
		<tag k="min_age" v="1" />
		<tag k="name" v="Anna Nilssens Minne barnehage" />
		<tag k="no-barnehage:nsrid" v="1021090" />
		<tag k="operator" v="Anna Nilssens Minne Sa" />
		<tag k="operator:type" v="private" />
		<tag k="start_date" v="2005-02-28" />
	</node>
	<node id="-3211" lat="59.39217" lon="5.309619">
		<tag k="amenity" v="kindergarten" />
		<tag k="capacity" v="68" />
		<tag k="contact:email" v="amanda-b@online.no" />
		<tag k="contact:phone" v="52 72 80 14" />
		<tag k="contact:website" v="http://www.amanda.barnehageside.no" />
		<tag k="max_age" v="5" />
		<tag k="min_age" v="1" />
		<tag k="name" v="Amanda barnehage Sa" />
		<tag k="no-barnehage:nsrid" v="1020785" />
		<tag k="operator" v="Amanda barnehage Sa" />
		<tag k="operator:type" v="private" />
		<tag k="start_date" v="2002-03-12" />
	</node>
</osm>
