<?xml version="1.0" encoding="UTF-8"?>
<osm generator="osmapis" version="0.6">
	<node id="-3239" lat="63.3556" lon="9.28732">
		<tag k="amenity" v="kindergarten" />
		<tag k="capacity" v="15" />
		<tag k="contact:email" v="postmottak@snillfjord.kommune.no" />
		<tag k="contact:phone" v="+47 72455736" />
		<tag k="doNotImportAddress" v="Ytre Snillfjord 7257 SNILLFJORD" />
		<tag k="max_age" v="5" />
		<tag k="min_age" v="1" />
		<tag k="name" v="Ven oppvekstsenter avd. barnehage" />
		<tag k="no-barnehage:nsrid" v="1014784" />
		<tag k="operator" v="Snillfjord kommune" />
		<tag k="operator:type" v="public" />
	</node>
	<node id="-3238" lat="63.4003" lon="9.5011">
		<tag k="amenity" v="kindergarten" />
		<tag k="capacity" v="14" />
		<tag k="contact:email" v="anita.stallvik@snillfjord.kommune.no" />
		<tag k="contact:phone" v="+47 72457161" />
		<tag k="doNotImportAddress" v="Krokstadøra 7257 SNILLFJORD" />
		<tag k="max_age" v="5" />
		<tag k="min_age" v="1" />
		<tag k="name" v="Krokstadøra oppvekstsenter avd. barnehage" />
		<tag k="no-barnehage:nsrid" v="1013775" />
		<tag k="operator" v="Snillfjord kommune" />
		<tag k="operator:type" v="public" />
	</node>
	<node id="-3237" lat="63.4898" lon="9.13854">
		<tag k="amenity" v="kindergarten" />
		<tag k="capacity" v="15" />
		<tag k="contact:email" v="tove.bjorkli@snillfjord.kommune.no" />
		<tag k="contact:phone" v="+47 45 23 66 48" />
		<tag k="doNotImportAddress" v=" 7256 HEMNSKJELA" />
		<tag k="max_age" v="5" />
		<tag k="min_age" v="1" />
		<tag k="name" v="Hemnskjela oppvekstsenter avd. barnehage" />
		<tag k="no-barnehage:nsrid" v="1014244" />
		<tag k="operator" v="Snillfjord kommune" />
		<tag k="operator:type" v="public" />
	</node>
</osm>
