<?xml version="1.0" encoding="UTF-8"?>
<osm generator="osmapis" version="0.6">
	<node id="-2432" lat="60.62827" lon="8.55405">
		<tag k="amenity" v="kindergarten" />
		<tag k="capacity" v="75" />
		<tag k="contact:website" v="http://www.aal.kommune.no" />
		<tag k="max_age" v="5" />
		<tag k="min_age" v="1" />
		<tag k="name" v="Sundre barnehage" />
		<tag k="no-barnehage:nsrid" v="1012497" />
		<tag k="operator" v="Ål kommune" />
		<tag k="operator:type" v="public" />
	</node>
	<node id="-2431" lat="60.62003" lon="8.5242">
		<tag k="amenity" v="kindergarten" />
		<tag k="capacity" v="25" />
		<tag k="max_age" v="5" />
		<tag k="min_age" v="1" />
		<tag k="name" v="Skattebøl barnehage" />
		<tag k="no-barnehage:nsrid" v="1018011" />
		<tag k="operator" v="Ål kommune" />
		<tag k="operator:type" v="public" />
	</node>
	<node id="-2430" lat="60.65737" lon="8.62793">
		<tag k="amenity" v="kindergarten" />
		<tag k="capacity" v="27" />
		<tag k="contact:website" v="http://aal.kommune.no" />
		<tag k="max_age" v="5" />
		<tag k="min_age" v="1" />
		<tag k="name" v="Sando barnehage" />
		<tag k="no-barnehage:nsrid" v="1013562" />
		<tag k="operator" v="Ål kommune" />
		<tag k="operator:type" v="public" />
	</node>
	<node id="-2429" lat="60.70138" lon="8.4872">
		<tag k="amenity" v="kindergarten" />
		<tag k="capacity" v="23" />
		<tag k="contact:website" v="http://www.aal.kommune.no" />
		<tag k="max_age" v="5" />
		<tag k="min_age" v="1" />
		<tag k="name" v="Nordbygdene barnehage" />
		<tag k="no-barnehage:nsrid" v="1013893" />
		<tag k="operator" v="Ål kommune" />
		<tag k="operator:type" v="public" />
	</node>
	<node id="-2428" lat="0.0" lon="0.0">
		<tag k="amenity" v="kindergarten" />
		<tag k="name" v="Bakketeigen barnehage" />
		<tag k="no-barnehage:nsrid" v="1016828" />
		<tag k="operator" v="Ål Folkehøgskole og Kurssenter for Døve" />
		<tag k="operator:type" v="private" />
	</node>
	<node id="-2433" lat="60.66489" lon="8.73029">
		<tag k="amenity" v="kindergarten" />
		<tag k="capacity" v="22" />
		<tag k="contact:website" v="http://www.aal.kommune.no" />
		<tag k="max_age" v="5" />
		<tag k="min_age" v="1" />
		<tag k="name" v="Torpo barnehage" />
		<tag k="no-barnehage:nsrid" v="1018012" />
		<tag k="operator" v="Ål kommune" />
		<tag k="operator:type" v="public" />
	</node>
</osm>
