<?xml version="1.0" encoding="UTF-8"?>
<osm generator="osmapis" version="0.6">
	<node id="-2360" lat="60.6304" lon="8.56102">
		<tag k="amenity" v="kindergarten" />
		<tag k="capacity" v="32" />
		<tag k="contact:email" v="bernt-ivar.hjelmso@aal.kommune.no" />
		<tag k="contact:phone" v="32085466" />
		<tag k="contact:website" v="http://aal.kommune.no" />
		<tag k="max_age" v="5" />
		<tag k="min_age" v="1" />
		<tag k="name" v="Sando barnehage" />
		<tag k="no-barnehage:nsrid" v="1013562" />
		<tag k="operator" v="Ål kommune" />
		<tag k="operator:type" v="public" />
		<tag k="start_date" v="2013-08-01" />
	</node>
	<node id="-2359" lat="60.7011" lon="8.48695">
		<tag k="amenity" v="kindergarten" />
		<tag k="capacity" v="32" />
		<tag k="contact:email" v="einfrid.hagen@aal.kommune.no" />
		<tag k="max_age" v="5" />
		<tag k="min_age" v="1" />
		<tag k="name" v="Nordbygdene barnehage" />
		<tag k="no-barnehage:nsrid" v="1013893" />
		<tag k="operator" v="Ål kommune" />
		<tag k="operator:type" v="public" />
		<tag k="start_date" v="1989-01-01" />
	</node>
	<node id="-2363" lat="60.6644" lon="8.71938">
		<tag k="amenity" v="kindergarten" />
		<tag k="capacity" v="29" />
		<tag k="contact:email" v="mette.oleivsgard@aal.kommune.no" />
		<tag k="max_age" v="5" />
		<tag k="min_age" v="1" />
		<tag k="name" v="Torpo barnehage" />
		<tag k="no-barnehage:nsrid" v="1018012" />
		<tag k="operator" v="Ål kommune" />
		<tag k="operator:type" v="public" />
		<tag k="start_date" v="1989-01-01" />
	</node>
	<node id="-2362" lat="60.628" lon="8.55595">
		<tag k="amenity" v="kindergarten" />
		<tag k="capacity" v="75" />
		<tag k="contact:email" v="tone.lyngvi@aal.kommune.no" />
		<tag k="max_age" v="5" />
		<tag k="min_age" v="1" />
		<tag k="name" v="Sundre barnehage" />
		<tag k="no-barnehage:nsrid" v="1012497" />
		<tag k="operator" v="Ål kommune" />
		<tag k="operator:type" v="public" />
		<tag k="start_date" v="1989-01-01" />
	</node>
	<node id="-2361" lat="60.6199" lon="8.52413">
		<tag k="amenity" v="kindergarten" />
		<tag k="capacity" v="34" />
		<tag k="contact:email" v="grete-t.hagen@aal.kommune.no" />
		<tag k="max_age" v="5" />
		<tag k="min_age" v="1" />
		<tag k="name" v="Skattebøl barnehage" />
		<tag k="no-barnehage:nsrid" v="1018011" />
		<tag k="operator" v="Ål kommune" />
		<tag k="operator:type" v="public" />
		<tag k="start_date" v="1989-01-01" />
	</node>
</osm>
