<?xml version="1.0" encoding="UTF-8"?>
<osm version="0.6" generator="osmapis">
	<node lat="59.55661" lon="7.81128" id="-3671">
		<tag k="ADDRESS" v="Mo-Byrtevegen 1644, 3880 DALEN" />
		<tag k="amenity" v="kindergarten" />
		<tag k="capacity" v="6" />
		<tag k="max_age" v="5" />
		<tag k="min_age" v="1" />
		<tag k="name" v="Byrte barnehage" />
		<tag k="no-barnehage:nsrid" v="928049779" />
		<tag k="operator" v="Tokke kommune" />
		<tag k="operator:type" v="public" />
	</node>
	<node lat="59.44422" lon="8.00096" id="-3672">
		<tag k="ADDRESS" v="Norigardsvegen 21, 3880 DALEN" />
		<tag k="amenity" v="kindergarten" />
		<tag k="capacity" v="45" />
		<tag k="max_age" v="5" />
		<tag k="min_age" v="1" />
		<tag k="name" v="Dalen barnehage" />
		<tag k="no-barnehage:nsrid" v="974633264" />
		<tag k="operator" v="Tokke kommune" />
		<tag k="operator:type" v="public" />
	</node>
	<node lat="59.44411" lon="8.17032" id="-3673">
		<tag k="ADDRESS" v="Lårdalsvegen 668, 3891 HØYDALSMO" />
		<tag k="amenity" v="kindergarten" />
		<tag k="capacity" v="19" />
		<tag k="max_age" v="5" />
		<tag k="min_age" v="1" />
		<tag k="name" v="Høydalsmo barnehage" />
		<tag k="no-barnehage:nsrid" v="974633272" />
		<tag k="operator" v="Tokke kommune" />
		<tag k="operator:type" v="public" />
	</node>
</osm>
