<?xml version="1.0" encoding="UTF-8"?>
<osm generator="osmapis" version="0.6">
	<node id="-4666" lat="62.8927" lon="7.6818">
		<tag k="amenity" v="kindergarten" />
		<tag k="capacity" v="43" />
		<tag k="contact:email" v="lene.holten@gjemnes.kommune.no" />
		<tag k="max_age" v="5" />
		<tag k="min_age" v="1" />
		<tag k="name" v="Solsida barnehage" />
		<tag k="no-barnehage:nsrid" v="1016109" />
		<tag k="operator" v="Gjemnes kommune" />
		<tag k="operator:type" v="public" />
		<tag k="start_date" v="1989-01-02" />
	</node>
	<node id="-4665" lat="62.9437" lon="7.85728">
		<tag k="amenity" v="kindergarten" />
		<tag k="capacity" v="26" />
		<tag k="contact:email" v="torvikbukt@nlmbhg.no" />
		<tag k="contact:phone" v="+47 71 29 38 53" />
		<tag k="max_age" v="5" />
		<tag k="min_age" v="1" />
		<tag k="name" v="Nlm Barnehagene AS Avd Torvikbukt Barnehage" />
		<tag k="no-barnehage:nsrid" v="1025347" />
		<tag k="operator" v="Nlm-Barnehagene AS" />
		<tag k="operator:type" v="private" />
		<tag k="start_date" v="1978-08-25" />
	</node>
	<node id="-4664" lat="62.9352" lon="7.603723">
		<tag k="amenity" v="kindergarten" />
		<tag k="capacity" v="19" />
		<tag k="contact:email" v="post@lykkeliten-storlandet.no" />
		<tag k="contact:phone" v="+47 97184032" />
		<tag k="contact:website" v="http://www.lykkeliten-storlandet.no" />
		<tag k="max_age" v="5" />
		<tag k="min_age" v="1" />
		<tag k="name" v="Lykkeliten Barnehage, Storlandet Sa" />
		<tag k="no-barnehage:nsrid" v="1021854" />
		<tag k="operator" v="Lykkeliten Barnehage, Storlandet Sa" />
		<tag k="operator:type" v="private" />
		<tag k="start_date" v="2008-06-04" />
	</node>
	<node id="-4663" lat="62.951" lon="7.76289">
		<tag k="amenity" v="kindergarten" />
		<tag k="capacity" v="13" />
		<tag k="contact:email" v="jeanett.roenning@gjemnes.kommune.no" />
		<tag k="max_age" v="5" />
		<tag k="min_age" v="1" />
		<tag k="name" v="BergsÃ¸y barnehage" />
		<tag k="no-barnehage:nsrid" v="1013041" />
		<tag k="operator" v="Gjemnes kommune" />
		<tag k="operator:type" v="public" />
		<tag k="start_date" v="2004-08-01" />
	</node>
	<node id="-4662" lat="62.8927" lon="7.6818">
		<tag k="amenity" v="kindergarten" />
		<tag k="capacity" v="16" />
		<tag k="contact:email" v="else.brit.gaupset@gjemnes.kommune.no" />
		<tag k="max_age" v="5" />
		<tag k="min_age" v="1" />
		<tag k="name" v="Astaddalen Museumsbarnehage" />
		<tag k="no-barnehage:nsrid" v="1018455" />
		<tag k="operator" v="Gjemnes kommune" />
		<tag k="operator:type" v="public" />
		<tag k="start_date" v="2008-08-01" />
	</node>
	<node id="-4661" lat="62.8935" lon="8.08876">
		<tag k="amenity" v="kindergarten" />
		<tag k="capacity" v="22" />
		<tag k="contact:email" v="gro.monika.gjermundnes@gjemnes.kommune.no" />
		<tag k="max_age" v="5" />
		<tag k="min_age" v="1" />
		<tag k="name" v="Angvik barnehage" />
		<tag k="no-barnehage:nsrid" v="1014933" />
		<tag k="operator" v="Gjemnes kommune" />
		<tag k="operator:type" v="public" />
		<tag k="start_date" v="1996-01-01" />
	</node>
</osm>
