<?xml version="1.0" encoding="UTF-8"?>
<osm generator="osmapis" version="0.6">
	<node id="-5696" lat="69.9735" lon="29.64091">
		<tag k="ADDRESS" v="Skoleveien 1, 9935 BUGØYNES" />
		<tag k="amenity" v="kindergarten" />
		<tag k="capacity" v="3" />
		<tag k="max_age" v="5" />
		<tag k="min_age" v="1" />
		<tag k="name" v="Bugøynes oppvekstsenter avd. barnehage" />
		<tag k="no-barnehage:nsrid" v="975314367" />
		<tag k="operator" v="Sør-Varanger kommune" />
		<tag k="operator:type" v="public" />
	</node>
	<node id="-5697" lat="69.69657" lon="30.00256">
		<tag k="ADDRESS" v="Gåsungveien 3, 9912 HESSENG" />
		<tag k="amenity" v="kindergarten" />
		<tag k="capacity" v="54" />
		<tag k="max_age" v="5" />
		<tag k="min_age" v="1" />
		<tag k="name" v="Hesseng barnehage" />
		<tag k="no-barnehage:nsrid" v="975314375" />
		<tag k="operator" v="Sør-Varanger kommune" />
		<tag k="operator:type" v="public" />
	</node>
	<node id="-5698" lat="69.73321" lon="30.13195">
		<tag k="ADDRESS" v="Soltunveien 4, 9911 JARFJORD" />
		<tag k="amenity" v="kindergarten" />
		<tag k="capacity" v="7" />
		<tag k="max_age" v="5" />
		<tag k="min_age" v="1" />
		<tag k="name" v="Jakobsnes oppvekstsenter avd. barnehage" />
		<tag k="no-barnehage:nsrid" v="875324462" />
		<tag k="operator" v="Sør-Varanger kommune" />
		<tag k="operator:type" v="public" />
	</node>
	<node id="-5699" lat="69.72335" lon="30.08932">
		<tag k="ADDRESS" v="Einerveien 2a, 9901 KIRKENES" />
		<tag k="amenity" v="kindergarten" />
		<tag k="capacity" v="45" />
		<tag k="max_age" v="5" />
		<tag k="min_age" v="1" />
		<tag k="name" v="Kirkenes barnehage" />
		<tag k="no-barnehage:nsrid" v="975296245" />
		<tag k="operator" v="Sør-Varanger kommune" />
		<tag k="operator:type" v="public" />
	</node>
	<node id="-5700" lat="69.69559" lon="29.99307">
		<tag k="ADDRESS" v="Hessengveien 23, 9912 HESSENG" />
		<tag k="amenity" v="kindergarten" />
		<tag k="capacity" v="39" />
		<tag k="max_age" v="5" />
		<tag k="min_age" v="1" />
		<tag k="name" v="Knausen barnehage" />
		<tag k="no-barnehage:nsrid" v="974831309" />
		<tag k="operator" v="Sør-Varanger kommune" />
		<tag k="operator:type" v="public" />
	</node>
	<node id="-5701" lat="0.0" lon="0.0">
		<tag k="ADDRESS" v=", 9925 SVANVIK" />
		<tag k="amenity" v="kindergarten" />
		<tag k="capacity" v="19" />
		<tag k="max_age" v="5" />
		<tag k="min_age" v="1" />
		<tag k="name" v="Pasvik oppvekstområde avd. barnehage" />
		<tag k="no-barnehage:nsrid" v="975314391" />
		<tag k="operator" v="Sør-Varanger kommune" />
		<tag k="operator:type" v="public" />
	</node>
	<node id="-5702" lat="69.72192" lon="30.08519">
		<tag k="ADDRESS" v="Bjørkeveien 24, 9901 KIRKENES" />
		<tag k="amenity" v="kindergarten" />
		<tag k="capacity" v="51" />
		<tag k="max_age" v="5" />
		<tag k="min_age" v="1" />
		<tag k="name" v="Prestøya barnehage" />
		<tag k="no-barnehage:nsrid" v="974795949" />
		<tag k="operator" v="Sør-Varanger kommune" />
		<tag k="operator:type" v="public" />
	</node>
	<node id="-5703" lat="69.66798" lon="29.98415">
		<tag k="ADDRESS" v="Nybrottsveien 1b, 9910 BJØRNEVATN" />
		<tag k="amenity" v="kindergarten" />
		<tag k="capacity" v="51" />
		<tag k="max_age" v="5" />
		<tag k="min_age" v="1" />
		<tag k="name" v="Rallaren barnehage" />
		<tag k="no-barnehage:nsrid" v="975324605" />
		<tag k="operator" v="Sør-Varanger kommune" />
		<tag k="operator:type" v="public" />
	</node>
	<node id="-5704" lat="69.67152" lon="29.94995">
		<tag k="ADDRESS" v="Langfjordveien 6, 9910 BJØRNEVATN" />
		<tag k="amenity" v="kindergarten" />
		<tag k="capacity" v="38" />
		<tag k="max_age" v="5" />
		<tag k="min_age" v="1" />
		<tag k="name" v="Sandnes barnehage" />
		<tag k="no-barnehage:nsrid" v="875301012" />
		<tag k="operator" v="Sør-Varanger kommune" />
		<tag k="operator:type" v="public" />
	</node>
	<node id="-5705" lat="69.70728" lon="30.044">
		<tag k="ADDRESS" v="Monumentveien 10, 9901 KIRKENES" />
		<tag k="amenity" v="kindergarten" />
		<tag k="capacity" v="78" />
		<tag k="max_age" v="5" />
		<tag k="min_age" v="1" />
		<tag k="name" v="Skytterhusfjellet barnehage" />
		<tag k="no-barnehage:nsrid" v="912322211" />
		<tag k="operator" v="Sør-Varanger kommune" />
		<tag k="operator:type" v="public" />
	</node>
	<node id="-5706" lat="69.66902" lon="29.99066">
		<tag k="ADDRESS" v="Villaveien 9, 9910 BJØRNEVATN" />
		<tag k="amenity" v="kindergarten" />
		<tag k="capacity" v="37" />
		<tag k="max_age" v="5" />
		<tag k="min_age" v="1" />
		<tag k="name" v="Villaveien naturbarnehage" />
		<tag k="no-barnehage:nsrid" v="973503197" />
		<tag k="operator" v="Villaveien Naturbarnehage Sa" />
		<tag k="operator:type" v="private" />
	</node>
</osm>
