<?xml version="1.0" encoding="UTF-8"?>
<osm version="0.6" generator="osmapis">
	<node lat="59.9854" lon="9.29851" id="-2855">
		<tag k="ADDRESS" v="Vrågåvegen 33, 3626 ROLLAG" />
		<tag k="amenity" v="kindergarten" />
		<tag k="capacity" v="24" />
		<tag k="contact:website" v="http://webfronter.com/btgs/rollagbhg/" />
		<tag k="max_age" v="5" />
		<tag k="min_age" v="1" />
		<tag k="name" v="Rollag barnehage" />
		<tag k="no-barnehage:nsrid" v="975317668" />
		<tag k="operator" v="Rollag kommune" />
		<tag k="operator:type" v="public" />
	</node>
	<node lat="60.04092" lon="9.1527" id="-2856">
		<tag k="ADDRESS" v="Prestegardsvikje 11, 3628 VEGGLI" />
		<tag k="amenity" v="kindergarten" />
		<tag k="capacity" v="23" />
		<tag k="contact:website" v="http://webfronter.com/btgs/rollagbhg/" />
		<tag k="max_age" v="5" />
		<tag k="min_age" v="1" />
		<tag k="name" v="Veggli barnehage" />
		<tag k="no-barnehage:nsrid" v="975306674" />
		<tag k="operator" v="Rollag kommune" />
		<tag k="operator:type" v="public" />
	</node>
</osm>
