<?xml version="1.0" encoding="UTF-8"?>
<osm version="0.6" generator="osmapis">
	<node lat="59.05719" lon="10.03882" id="-3354">
		<tag k="ADDRESS" v="Sachnowitz vei 10, 3257 LARVIK" />
		<tag k="amenity" v="kindergarten" />
		<tag k="capacity" v="25" />
		<tag k="max_age" v="5" />
		<tag k="min_age" v="1" />
		<tag k="name" v="Bakkebygrenda barnehage" />
		<tag k="no-barnehage:nsrid" v="973469959" />
		<tag k="operator" v="Bakkebygrenda barnehage SA" />
		<tag k="operator:type" v="private" />
	</node>
	<node lat="59.03376" lon="10.07835" id="-3355">
		<tag k="ADDRESS" v="Brekkegata 31, 3260 LARVIK" />
		<tag k="amenity" v="kindergarten" />
		<tag k="capacity" v="76" />
		<tag k="max_age" v="5" />
		<tag k="min_age" v="1" />
		<tag k="name" v="Bergeskogen barnehage" />
		<tag k="no-barnehage:nsrid" v="874584932" />
		<tag k="operator" v="Larvik kommune" />
		<tag k="operator:type" v="public" />
	</node>
	<node lat="59.05008" lon="10.07832" id="-3356">
		<tag k="ADDRESS" v="Skreppestadveien 143, 3261 LARVIK" />
		<tag k="amenity" v="kindergarten" />
		<tag k="capacity" v="80" />
		<tag k="contact:website" v="http://www.bisjord.bhg.no" />
		<tag k="max_age" v="5" />
		<tag k="min_age" v="1" />
		<tag k="name" v="Bisjord FUS barnehage" />
		<tag k="no-barnehage:nsrid" v="991424725" />
		<tag k="operator" v="Bisjord Fus barnehage AS" />
		<tag k="operator:type" v="private" />
	</node>
	<node lat="59.0591" lon="10.04081" id="-3357">
		<tag k="ADDRESS" v="Borgejordet 74, 3269 LARVIK" />
		<tag k="amenity" v="kindergarten" />
		<tag k="capacity" v="71" />
		<tag k="max_age" v="5" />
		<tag k="min_age" v="1" />
		<tag k="name" v="Borgejordet barnehage" />
		<tag k="no-barnehage:nsrid" v="974585014" />
		<tag k="operator" v="Larvik kommune" />
		<tag k="operator:type" v="public" />
	</node>
	<node lat="59.05522" lon="10.0561" id="-3358">
		<tag k="ADDRESS" v="Frostvedtveien 21, 3258 LARVIK" />
		<tag k="amenity" v="kindergarten" />
		<tag k="capacity" v="141" />
		<tag k="max_age" v="5" />
		<tag k="min_age" v="1" />
		<tag k="name" v="Byskogen barnehage" />
		<tag k="no-barnehage:nsrid" v="920167993" />
		<tag k="operator" v="Larvik kommune" />
		<tag k="operator:type" v="public" />
	</node>
	<node lat="59.05178" lon="9.99386" id="-3359">
		<tag k="ADDRESS" v="Geiteramsveien 63, 3268 LARVIK" />
		<tag k="amenity" v="kindergarten" />
		<tag k="capacity" v="91" />
		<tag k="contact:website" v="http://www.eventyrskogenbarnehage.no" />
		<tag k="max_age" v="5" />
		<tag k="min_age" v="1" />
		<tag k="name" v="Eventyrskogen barnehage" />
		<tag k="no-barnehage:nsrid" v="988405280" />
		<tag k="operator" v="Eventyrskogen barnehage SA" />
		<tag k="operator:type" v="private" />
	</node>
	<node lat="59.07019" lon="10.0412" id="-3360">
		<tag k="ADDRESS" v="Kremleveien 5, 3271 LARVIK" />
		<tag k="amenity" v="kindergarten" />
		<tag k="capacity" v="121" />
		<tag k="contact:website" v="http://www.larvik.kommune.no/barnehage/fagerli-barnehage/" />
		<tag k="max_age" v="5" />
		<tag k="min_age" v="1" />
		<tag k="name" v="Fagerli barnehage" />
		<tag k="no-barnehage:nsrid" v="916562489" />
		<tag k="operator" v="Larvik kommune" />
		<tag k="operator:type" v="public" />
	</node>
	<node lat="59.05806" lon="10.06238" id="-3361">
		<tag k="ADDRESS" v="Gunnar Reiss-Andersens gate 12, 3259 LARVIK" />
		<tag k="amenity" v="kindergarten" />
		<tag k="capacity" v="63" />
		<tag k="max_age" v="5" />
		<tag k="min_age" v="1" />
		<tag k="name" v="Gapatrosten barnehage" />
		<tag k="no-barnehage:nsrid" v="977341620" />
		<tag k="operator" v="Gapatrosten barnehage SA" />
		<tag k="operator:type" v="private" />
	</node>
	<node lat="59.05821" lon="10.09338" id="-3362">
		<tag k="ADDRESS" v="c/o Audun Emil Tvedten Rauanveien 64, 3261 LARVIK" />
		<tag k="amenity" v="kindergarten" />
		<tag k="capacity" v="30" />
		<tag k="max_age" v="5" />
		<tag k="min_age" v="1" />
		<tag k="name" v="Gjerstad natur- og gårdsbarnehage" />
		<tag k="no-barnehage:nsrid" v="926655906" />
		<tag k="operator" v="Gjerstad Natur- og gårdsbarnehage AS" />
		<tag k="operator:type" v="private" />
	</node>
	<node lat="58.98871" lon="10.02876" id="-3363">
		<tag k="ADDRESS" v="Kysthospitalveien 40, 3294 STAVERN" />
		<tag k="amenity" v="kindergarten" />
		<tag k="capacity" v="79" />
		<tag k="max_age" v="5" />
		<tag k="min_age" v="1" />
		<tag k="name" v="Grevle barnehage" />
		<tag k="no-barnehage:nsrid" v="991127976" />
		<tag k="operator" v="Larvik kommune" />
		<tag k="operator:type" v="public" />
	</node>
	<node lat="59.06496" lon="10.05278" id="-3364">
		<tag k="ADDRESS" v="Frankendalsveien 97, 3274 LARVIK" />
		<tag k="amenity" v="kindergarten" />
		<tag k="contact:website" v="http://www.gullskatt.no" />
		<tag k="name" v="Gullskatt åpen barnehage" />
		<tag k="no-barnehage:nsrid" v="992540508" />
		<tag k="operator" v="Vineyard Kristne Felleskap Larvik" />
		<tag k="operator:type" v="private" />
	</node>
	<node lat="59.04691" lon="10.09826" id="-3365">
		<tag k="ADDRESS" v="Valbyveien 69, 3261 LARVIK" />
		<tag k="amenity" v="kindergarten" />
		<tag k="capacity" v="73" />
		<tag k="max_age" v="5" />
		<tag k="min_age" v="1" />
		<tag k="name" v="Guriskogen barnehage" />
		<tag k="no-barnehage:nsrid" v="973466399" />
		<tag k="operator" v="Guriskogen barnehage SA" />
		<tag k="operator:type" v="private" />
	</node>
	<node lat="59.03308" lon="10.0095" id="-3366">
		<tag k="ADDRESS" v="Stavernsveien 232, 3267 LARVIK" />
		<tag k="amenity" v="kindergarten" />
		<tag k="capacity" v="31" />
		<tag k="max_age" v="5" />
		<tag k="min_age" v="1" />
		<tag k="name" v="Gøy på Landet barnehage" />
		<tag k="no-barnehage:nsrid" v="973482963" />
		<tag k="operator" v="Fritzøe Gård Aktiv AS" />
		<tag k="operator:type" v="private" />
	</node>
	<node lat="59.05365" lon="10.04148" id="-3367">
		<tag k="ADDRESS" v="Håkons gate 39, 3257 LARVIK" />
		<tag k="amenity" v="kindergarten" />
		<tag k="capacity" v="27" />
		<tag k="max_age" v="5" />
		<tag k="min_age" v="1" />
		<tag k="name" v="Hakkebakkeskogen barnehage" />
		<tag k="no-barnehage:nsrid" v="973457918" />
		<tag k="operator" v="Hakkebakkeskogen barnehage SA" />
		<tag k="operator:type" v="private" />
	</node>
	<node lat="58.98534" lon="9.87087" id="-3369">
		<tag k="ADDRESS" v="Søndersrødveien 49, 3295 HELGEROA" />
		<tag k="amenity" v="kindergarten" />
		<tag k="capacity" v="67" />
		<tag k="max_age" v="5" />
		<tag k="min_age" v="1" />
		<tag k="name" v="Helgeroa barnehage" />
		<tag k="no-barnehage:nsrid" v="974584964" />
		<tag k="operator" v="Larvik kommune" />
		<tag k="operator:type" v="public" />
	</node>
	<node lat="59.42899" lon="10.01476" id="-3370">
		<tag k="ADDRESS" v="Hem kirkevei 130, 3275 SVARSTAD" />
		<tag k="amenity" v="kindergarten" />
		<tag k="capacity" v="16" />
		<tag k="max_age" v="5" />
		<tag k="min_age" v="1" />
		<tag k="name" v="Hem barnehage" />
		<tag k="no-barnehage:nsrid" v="873885262" />
		<tag k="operator" v="Hem barnehage SA" />
		<tag k="operator:type" v="private" />
	</node>
	<node lat="59.28855" lon="9.9357" id="-3371">
		<tag k="ADDRESS" v="Hedrumveien 2697, 3282 KVELDE" />
		<tag k="amenity" v="kindergarten" />
		<tag k="capacity" v="17" />
		<tag k="max_age" v="5" />
		<tag k="min_age" v="1" />
		<tag k="name" v="Hvarnes barnehage" />
		<tag k="no-barnehage:nsrid" v="974584980" />
		<tag k="operator" v="Larvik kommune" />
		<tag k="operator:type" v="public" />
	</node>
	<node lat="59.05284" lon="10.03098" id="-3372">
		<tag k="ADDRESS" v="Jegersborggata 10, 3257 LARVIK" />
		<tag k="amenity" v="kindergarten" />
		<tag k="capacity" v="36" />
		<tag k="max_age" v="5" />
		<tag k="min_age" v="1" />
		<tag k="name" v="Jegersborg barnehage" />
		<tag k="no-barnehage:nsrid" v="974584999" />
		<tag k="operator" v="Larvik kommune" />
		<tag k="operator:type" v="public" />
	</node>
	<node lat="59.1941" lon="9.9694" id="-3373">
		<tag k="ADDRESS" v="Kveldeveien 272, 3282 KVELDE" />
		<tag k="amenity" v="kindergarten" />
		<tag k="capacity" v="44" />
		<tag k="max_age" v="5" />
		<tag k="min_age" v="1" />
		<tag k="name" v="Kvelde barnehage" />
		<tag k="no-barnehage:nsrid" v="973449346" />
		<tag k="operator" v="Kvelde barnehage" />
		<tag k="operator:type" v="private" />
	</node>
	<node lat="59.05373" lon="10.01092" id="-3374">
		<tag k="ADDRESS" v="Eidgata 19, 3264 LARVIK" />
		<tag k="amenity" v="kindergarten" />
		<tag k="capacity" v="28" />
		<tag k="contact:website" v="http://www.leikvangbarnehage.no" />
		<tag k="max_age" v="5" />
		<tag k="min_age" v="1" />
		<tag k="name" v="Leikvang barnehage" />
		<tag k="no-barnehage:nsrid" v="973479393" />
		<tag k="operator" v="Leikvang barnehage SA" />
		<tag k="operator:type" v="private" />
	</node>
	<node lat="59.01855" lon="10.01378" id="-3375">
		<tag k="ADDRESS" v="Gamle Stavernsveien 200, 3267 LARVIK" />
		<tag k="amenity" v="kindergarten" />
		<tag k="capacity" v="75" />
		<tag k="max_age" v="5" />
		<tag k="min_age" v="1" />
		<tag k="name" v="Lysheim barnehage" />
		<tag k="no-barnehage:nsrid" v="975213617" />
		<tag k="operator" v="Larvik kommune" />
		<tag k="operator:type" v="public" />
	</node>
	<node lat="59.02562" lon="10.07573" id="-3376">
		<tag k="ADDRESS" v="Gonveien 75, 3260 LARVIK" />
		<tag k="amenity" v="kindergarten" />
		<tag k="capacity" v="84" />
		<tag k="contact:website" v="http://Laringsverkstedet.no/gonveien" />
		<tag k="max_age" v="5" />
		<tag k="min_age" v="1" />
		<tag k="name" v="Læringsverkstedet Gonveien barnehage" />
		<tag k="no-barnehage:nsrid" v="986167897" />
		<tag k="operator" v="Læringsverkstedet Gonveien barnehage AS" />
		<tag k="operator:type" v="private" />
	</node>
	<node lat="59.10316" lon="10.11348" id="-3377">
		<tag k="ADDRESS" v="Gamle Ravei 314, 3270 LARVIK" />
		<tag k="amenity" v="kindergarten" />
		<tag k="capacity" v="60" />
		<tag k="max_age" v="5" />
		<tag k="min_age" v="1" />
		<tag k="name" v="Rødbøl barnehage" />
		<tag k="no-barnehage:nsrid" v="990082529" />
		<tag k="operator" v="Larvik kommune" />
		<tag k="operator:type" v="public" />
	</node>
	<node lat="59.07152" lon="10.19361" id="-3378">
		<tag k="ADDRESS" v="Djupedalsfaret 1, 3280 TJODALYNG" />
		<tag k="amenity" v="kindergarten" />
		<tag k="capacity" v="82" />
		<tag k="max_age" v="5" />
		<tag k="min_age" v="1" />
		<tag k="name" v="Salbutangen FUS barnehage" />
		<tag k="no-barnehage:nsrid" v="990721696" />
		<tag k="operator" v="Salbutangen Fus barnehage AS" />
		<tag k="operator:type" v="private" />
	</node>
	<node lat="59.01406" lon="10.03229" id="-3379">
		<tag k="ADDRESS" v="Agnes allé 45, 3290 STAVERN" />
		<tag k="amenity" v="kindergarten" />
		<tag k="capacity" v="75" />
		<tag k="max_age" v="5" />
		<tag k="min_age" v="1" />
		<tag k="name" v="Sjøparken Kanvas-barnehage" />
		<tag k="no-barnehage:nsrid" v="995467402" />
		<tag k="operator" v="Stiftelsen Kanvas" />
		<tag k="operator:type" v="private" />
	</node>
	<node lat="59.0368" lon="9.99325" id="-3380">
		<tag k="ADDRESS" v="Bakåsveien 27, 3265 LARVIK" />
		<tag k="amenity" v="kindergarten" />
		<tag k="capacity" v="51" />
		<tag k="max_age" v="5" />
		<tag k="min_age" v="1" />
		<tag k="name" v="Skattekista barnehage" />
		<tag k="no-barnehage:nsrid" v="982834155" />
		<tag k="operator" v="Skattekista barnehage SA" />
		<tag k="operator:type" v="private" />
	</node>
	<node lat="59.00998" lon="10.02381" id="-3381">
		<tag k="ADDRESS" v="Agnesveien 14, 3292 STAVERN" />
		<tag k="amenity" v="kindergarten" />
		<tag k="capacity" v="76" />
		<tag k="max_age" v="5" />
		<tag k="min_age" v="1" />
		<tag k="name" v="Solstad barnehage" />
		<tag k="no-barnehage:nsrid" v="974585022" />
		<tag k="operator" v="Larvik kommune" />
		<tag k="operator:type" v="public" />
	</node>
	<node lat="59.31088" lon="9.87491" id="-3383">
		<tag k="ADDRESS" v="Lofstadveien 5, 3277 STEINSHOLT" />
		<tag k="amenity" v="kindergarten" />
		<tag k="capacity" v="36" />
		<tag k="max_age" v="5" />
		<tag k="min_age" v="1" />
		<tag k="name" v="Styrvoll barnehage" />
		<tag k="no-barnehage:nsrid" v="973777270" />
		<tag k="operator" v="Larvik kommune" />
		<tag k="operator:type" v="public" />
	</node>
	<node lat="59.39946" lon="9.97246" id="-3384">
		<tag k="ADDRESS" v="Karen Sogns vei 16, 3275 SVARSTAD" />
		<tag k="amenity" v="kindergarten" />
		<tag k="capacity" v="59" />
		<tag k="max_age" v="5" />
		<tag k="min_age" v="1" />
		<tag k="name" v="Svarstad barnehage" />
		<tag k="no-barnehage:nsrid" v="973347446" />
		<tag k="operator" v="Larvik kommune" />
		<tag k="operator:type" v="public" />
	</node>
	<node lat="59.05737" lon="10.13934" id="-3385">
		<tag k="ADDRESS" v="Løveskogen 53, 3280 TJODALYNG" />
		<tag k="amenity" v="kindergarten" />
		<tag k="capacity" v="86" />
		<tag k="max_age" v="5" />
		<tag k="min_age" v="1" />
		<tag k="name" v="Tjølling barnehage" />
		<tag k="no-barnehage:nsrid" v="975213625" />
		<tag k="operator" v="Larvik kommune" />
		<tag k="operator:type" v="public" />
	</node>
	<node lat="58.99696" lon="9.86718" id="-3386">
		<tag k="ADDRESS" v="Torpesvingen 1, 3295 HELGEROA" />
		<tag k="amenity" v="kindergarten" />
		<tag k="capacity" v="42" />
		<tag k="max_age" v="5" />
		<tag k="min_age" v="1" />
		<tag k="name" v="Torpeløkka barnehage" />
		<tag k="no-barnehage:nsrid" v="991233172" />
		<tag k="operator" v="Larvik kommune" />
		<tag k="operator:type" v="public" />
	</node>
	<node lat="59.0512" lon="10.048" id="-3387">
		<tag k="ADDRESS" v="Frankendalsbakken 19, 3262 LARVIK" />
		<tag k="amenity" v="kindergarten" />
		<tag k="capacity" v="35" />
		<tag k="max_age" v="5" />
		<tag k="min_age" v="1" />
		<tag k="name" v="Torstrand barnehage" />
		<tag k="no-barnehage:nsrid" v="975122999" />
		<tag k="operator" v="Larvik kommune" />
		<tag k="operator:type" v="public" />
	</node>
	<node lat="59.07812" lon="10.05165" id="-3388">
		<tag k="ADDRESS" v="Nordbyveien 29, 3271 LARVIK" />
		<tag k="amenity" v="kindergarten" />
		<tag k="capacity" v="88" />
		<tag k="contact:website" v="http://www.trollsteinen.no" />
		<tag k="max_age" v="5" />
		<tag k="min_age" v="1" />
		<tag k="name" v="Trollsteinen barnehage" />
		<tag k="no-barnehage:nsrid" v="973490273" />
		<tag k="operator" v="Trollsteinen barnehage SA" />
		<tag k="operator:type" v="private" />
	</node>
	<node lat="59.19148" lon="9.96606" id="-3389">
		<tag k="ADDRESS" v="Kveldeveien 241, 3282 KVELDE" />
		<tag k="amenity" v="kindergarten" />
		<tag k="capacity" v="48" />
		<tag k="max_age" v="5" />
		<tag k="min_age" v="1" />
		<tag k="name" v="Tun barnehage" />
		<tag k="no-barnehage:nsrid" v="974585030" />
		<tag k="operator" v="Larvik kommune" />
		<tag k="operator:type" v="public" />
	</node>
	<node lat="59.0443" lon="10.09155" id="-3390">
		<tag k="ADDRESS" v="Sølvstråveien 44, 3261 LARVIK" />
		<tag k="amenity" v="kindergarten" />
		<tag k="capacity" v="32" />
		<tag k="max_age" v="5" />
		<tag k="min_age" v="1" />
		<tag k="name" v="Valby barnehage" />
		<tag k="no-barnehage:nsrid" v="974585057" />
		<tag k="operator" v="Larvik kommune" />
		<tag k="operator:type" v="public" />
	</node>
	<node lat="0.0" lon="0.0" id="-3391">
		<tag k="ADDRESS" v="Geiteramsveien 1, 3268 LARVIK" />
		<tag k="amenity" v="kindergarten" />
		<tag k="capacity" v="39" />
		<tag k="max_age" v="5" />
		<tag k="min_age" v="1" />
		<tag k="name" v="Veldre kulturbarnehage" />
		<tag k="no-barnehage:nsrid" v="974585073" />
		<tag k="operator" v="Larvik kommune" />
		<tag k="operator:type" v="public" />
	</node>
	<node lat="59.05936" lon="10.0284" id="-3392">
		<tag k="ADDRESS" v="Gunnar Thoresens vei 2, 3256 LARVIK" />
		<tag k="amenity" v="kindergarten" />
		<tag k="capacity" v="20" />
		<tag k="max_age" v="5" />
		<tag k="min_age" v="1" />
		<tag k="name" v="Villa-kulla barnehage" />
		<tag k="no-barnehage:nsrid" v="925710466" />
		<tag k="operator" v="Villa-Kulla barnehage AS" />
		<tag k="operator:type" v="private" />
	</node>
	<node lat="58.99011" lon="9.9082" id="-3393">
		<tag k="ADDRESS" v="Helgeroveien 884, 3267 LARVIK" />
		<tag k="amenity" v="kindergarten" />
		<tag k="capacity" v="18" />
		<tag k="contact:website" v="http://www.vartunbarnehage.no" />
		<tag k="max_age" v="5" />
		<tag k="min_age" v="1" />
		<tag k="name" v="Vårtun barnehage" />
		<tag k="no-barnehage:nsrid" v="973457969" />
		<tag k="operator" v="Vårtun barnehage" />
		<tag k="operator:type" v="private" />
	</node>
</osm>
