<?xml version="1.0" encoding="UTF-8"?>
<osm version="0.6" generator="osmapis">
	<node lat="68.04227" lon="16.08125" id="-1680">
		<tag k="ADDRESS" v="Skoleveien 18, 8270 DRAG" />
		<tag k="amenity" v="kindergarten" />
		<tag k="capacity" v="14" />
		<tag k="max_age" v="5" />
		<tag k="min_age" v="1" />
		<tag k="name" v="Drag barnehage" />
		<tag k="no-barnehage:nsrid" v="975313050" />
		<tag k="operator" v="Hamarøy kommune" />
		<tag k="operator:type" v="public" />
	</node>
	<node lat="67.96429" lon="15.9327" id="-1681">
		<tag k="ADDRESS" v="Finnøyveien 5, 8260 INNHAVET" />
		<tag k="amenity" v="kindergarten" />
		<tag k="capacity" v="18" />
		<tag k="max_age" v="5" />
		<tag k="min_age" v="1" />
		<tag k="name" v="Innhavet oppvekstsenter avd. barnehage" />
		<tag k="no-barnehage:nsrid" v="975028496" />
		<tag k="operator" v="Hamarøy kommune" />
		<tag k="operator:type" v="public" />
	</node>
	<node lat="68.08022" lon="15.62111" id="-1682">
		<tag k="ADDRESS" v="Marie Hamsuns vei 36, 8294 HAMARØY" />
		<tag k="amenity" v="kindergarten" />
		<tag k="capacity" v="37" />
		<tag k="max_age" v="5" />
		<tag k="min_age" v="1" />
		<tag k="name" v="Marielund barnehage" />
		<tag k="no-barnehage:nsrid" v="974205157" />
		<tag k="operator" v="Hamarøy kommune" />
		<tag k="operator:type" v="public" />
	</node>
	<node lat="68.11985" lon="15.87207" id="-1683">
		<tag k="ADDRESS" v="Øvre Nausthågen 6, 8276 ULVSVÅG" />
		<tag k="amenity" v="kindergarten" />
		<tag k="capacity" v="14" />
		<tag k="max_age" v="5" />
		<tag k="min_age" v="1" />
		<tag k="name" v="Ulvsvag barnehage" />
		<tag k="no-barnehage:nsrid" v="975313026" />
		<tag k="operator" v="Hamarøy kommune" />
		<tag k="operator:type" v="public" />
	</node>
	<node lat="68.04755" lon="16.08396" id="-1684">
		<tag k="ADDRESS" v="Njárgga 31, 8270 DRAG" />
		<tag k="amenity" v="kindergarten" />
		<tag k="capacity" v="14" />
		<tag k="max_age" v="5" />
		<tag k="min_age" v="1" />
		<tag k="name" v="Viejega" />
		<tag k="no-barnehage:nsrid" v="929894987" />
		<tag k="operator" v="Viejega AS" />
		<tag k="operator:type" v="private" />
	</node>
</osm>
