<?xml version="1.0" encoding="UTF-8"?>
<osm generator="osmapis" version="0.6">
	<node id="-3137" lat="0.0" lon="0.0">
		<tag k="ADDRESS" v="Brovold, 2345 ÅDALSBRUK" />
		<tag k="amenity" v="kindergarten" />
		<tag k="capacity" v="54" />
		<tag k="max_age" v="5" />
		<tag k="min_age" v="1" />
		<tag k="name" v="Brovold barnehage" />
		<tag k="no-barnehage:nsrid" v="975266974" />
		<tag k="operator" v="Ulna AS" />
		<tag k="operator:type" v="private" />
	</node>
	<node id="-3138" lat="0.0" lon="0.0">
		<tag k="ADDRESS" v="Nordbygda, 2340 LØTEN" />
		<tag k="amenity" v="kindergarten" />
		<tag k="capacity" v="28" />
		<tag k="max_age" v="5" />
		<tag k="min_age" v="1" />
		<tag k="name" v="Jønsrud barnehage" />
		<tag k="no-barnehage:nsrid" v="976666097" />
		<tag k="operator" v="Løten kommune" />
		<tag k="operator:type" v="public" />
	</node>
	<node id="-3139" lat="60.83069" lon="11.39374">
		<tag k="ADDRESS" v="Mosjøvegen 52, 2340 LØTEN" />
		<tag k="amenity" v="kindergarten" />
		<tag k="capacity" v="39" />
		<tag k="contact:website" v="http://www.livensveen.no" />
		<tag k="max_age" v="5" />
		<tag k="min_age" v="1" />
		<tag k="name" v="Livensveen gårdsbarnehage" />
		<tag k="no-barnehage:nsrid" v="988484539" />
		<tag k="operator" v="Livensveen gårdsbarnehage AS" />
		<tag k="operator:type" v="private" />
	</node>
	<node id="-3140" lat="0.0" lon="0.0">
		<tag k="ADDRESS" v="Gammalsrudvegen 2, 2340 LØTEN" />
		<tag k="amenity" v="kindergarten" />
		<tag k="capacity" v="27" />
		<tag k="max_age" v="5" />
		<tag k="min_age" v="1" />
		<tag k="name" v="Lund barnehage" />
		<tag k="no-barnehage:nsrid" v="973669885" />
		<tag k="operator" v="Løten kommune" />
		<tag k="operator:type" v="public" />
	</node>
	<node id="-3141" lat="60.81352" lon="11.3396">
		<tag k="ADDRESS" v="Ole Dyrengsveg 1, 2340 LØTEN" />
		<tag k="amenity" v="kindergarten" />
		<tag k="capacity" v="75" />
		<tag k="max_age" v="5" />
		<tag k="min_age" v="1" />
		<tag k="name" v="Læringsverkstedet barnehage avd. Skogly" />
		<tag k="no-barnehage:nsrid" v="982432677" />
		<tag k="operator" v="Læringsverkstedet AS" />
		<tag k="operator:type" v="private" />
	</node>
	<node id="-3142" lat="60.82687" lon="11.34994">
		<tag k="ADDRESS" v="Rylivegen, 2340 LØTEN" />
		<tag k="amenity" v="kindergarten" />
		<tag k="capacity" v="28" />
		<tag k="max_age" v="5" />
		<tag k="min_age" v="1" />
		<tag k="name" v="Ryli barnehage" />
		<tag k="no-barnehage:nsrid" v="975302407" />
		<tag k="operator" v="Løten kommune" />
		<tag k="operator:type" v="public" />
	</node>
	<node id="-3143" lat="60.81762" lon="11.33824">
		<tag k="ADDRESS" v="Skolevegen 7, 2340 LØTEN" />
		<tag k="amenity" v="kindergarten" />
		<tag k="capacity" v="41" />
		<tag k="max_age" v="5" />
		<tag k="min_age" v="1" />
		<tag k="name" v="Skøienhagen barnehage" />
		<tag k="no-barnehage:nsrid" v="974797623" />
		<tag k="operator" v="Løten kommune" />
		<tag k="operator:type" v="public" />
	</node>
	<node id="-3144" lat="60.78793" lon="11.32943">
		<tag k="ADDRESS" v="Olarovegen 1, 2345 ÅDALSBRUK" />
		<tag k="amenity" v="kindergarten" />
		<tag k="capacity" v="27" />
		<tag k="max_age" v="5" />
		<tag k="min_age" v="1" />
		<tag k="name" v="Ådalsbruk barnehage" />
		<tag k="no-barnehage:nsrid" v="875322982" />
		<tag k="operator" v="Løten kommune" />
		<tag k="operator:type" v="public" />
	</node>
</osm>
