<?xml version="1.0" encoding="UTF-8"?>
<osm generator="osmapis" version="0.6">
	<node id="-5916" lat="69.28" lon="16.9836">
		<tag k="amenity" v="kindergarten" />
		<tag k="capacity" v="12" />
		<tag k="contact:email" v="weronica.pedersen@torsken.kommune.no" />
		<tag k="max_age" v="5" />
		<tag k="min_age" v="1" />
		<tag k="name" v="Medby Oppvekstsenter Avd Askeladden Barnehage" />
		<tag k="no-barnehage:nsrid" v="1016875" />
		<tag k="operator" v="Torsken kommune" />
		<tag k="operator:type" v="public" />
		<tag k="start_date" v="1990-08-01" />
	</node>
	<node id="-5915" lat="69.3633" lon="17.0343">
		<tag k="amenity" v="kindergarten" />
		<tag k="capacity" v="24" />
		<tag k="contact:email" v="goran.wilsgaard@torsken.kommune.no" />
		<tag k="max_age" v="5" />
		<tag k="min_age" v="1" />
		<tag k="name" v="Gryllefjord Oppvekstsenter Avd Gryllefjord Barnehage" />
		<tag k="no-barnehage:nsrid" v="1014953" />
		<tag k="operator" v="Torsken kommune" />
		<tag k="operator:type" v="public" />
		<tag k="start_date" v="1989-01-01" />
	</node>
</osm>
