<?xml version="1.0" encoding="UTF-8"?>
<osm generator="osmapis" version="0.6">
	<node id="-5582" lat="65.9997" lon="12.5523">
		<tag k="amenity" v="kindergarten" />
		<tag k="capacity" v="60" />
		<tag k="contact:email" v="post@alsthaug.kommune.no" />
		<tag k="contact:phone" v="75043122" />
		<tag k="max_age" v="5" />
		<tag k="min_age" v="1" />
		<tag k="name" v="Ura barnehage" />
		<tag k="no-barnehage:nsrid" v="1015951" />
		<tag k="operator" v="Alstahaug kommune" />
		<tag k="operator:type" v="public" />
		<tag k="start_date" v="1990-07-01" />
	</node>
	<node id="-5581" lat="65.823" lon="12.427">
		<tag k="amenity" v="kindergarten" />
		<tag k="capacity" v="10" />
		<tag k="contact:email" v="post@alstahaug.kommune.no" />
		<tag k="contact:phone" v="75075460" />
		<tag k="max_age" v="5" />
		<tag k="min_age" v="1" />
		<tag k="name" v="Tjøtta Oppvekstsenter Avd Tjøtta Barnehage" />
		<tag k="no-barnehage:nsrid" v="1013940" />
		<tag k="operator" v="Alstahaug kommune" />
		<tag k="operator:type" v="public" />
		<tag k="start_date" v="1990-01-01" />
	</node>
	<node id="-5580" lat="65.9424" lon="12.4332">
		<tag k="amenity" v="kindergarten" />
		<tag k="capacity" v="20" />
		<tag k="contact:email" v="post@alstahaug.kommune.no" />
		<tag k="contact:phone" v="75075430" />
		<tag k="max_age" v="5" />
		<tag k="min_age" v="1" />
		<tag k="name" v="Søvik Oppvekstsenter Avd Søvik Barnehage" />
		<tag k="no-barnehage:nsrid" v="1013657" />
		<tag k="operator" v="Alstahaug kommune" />
		<tag k="operator:type" v="public" />
		<tag k="start_date" v="1989-01-01" />
	</node>
	<node id="-5579" lat="66.0168" lon="12.6078">
		<tag k="amenity" v="kindergarten" />
		<tag k="capacity" v="27" />
		<tag k="contact:phone" v="75 07 55 10" />
		<tag k="max_age" v="5" />
		<tag k="min_age" v="1" />
		<tag k="name" v="Stamnes barnehage" />
		<tag k="no-barnehage:nsrid" v="1012531" />
		<tag k="operator" v="Alstahaug kommune" />
		<tag k="operator:type" v="public" />
		<tag k="start_date" v="1989-01-01" />
	</node>
	<node id="-5578" lat="66.01085" lon="12.5817">
		<tag k="amenity" v="kindergarten" />
		<tag k="capacity" v="63" />
		<tag k="contact:email" v="post@segelberganbarnehage.no" />
		<tag k="contact:phone" v="75 07 60 50" />
		<tag k="contact:website" v="http://www.segelberganbarnehage.no" />
		<tag k="max_age" v="5" />
		<tag k="min_age" v="1" />
		<tag k="name" v="Smbh Alstahaug Ba Segelbergan barnehage" />
		<tag k="no-barnehage:nsrid" v="1020174" />
		<tag k="operator" v="Småbarnsforeldrenes barnehage Alstahaug Sa" />
		<tag k="operator:type" v="private" />
		<tag k="start_date" v="1993-08-01" />
	</node>
	<node id="-5577" lat="66.01003" lon="12.6061">
		<tag k="amenity" v="kindergarten" />
		<tag k="capacity" v="99" />
		<tag k="contact:email" v="forshaugen@barnehage.no" />
		<tag k="contact:phone" v="75 04 31 00" />
		<tag k="contact:website" v="http://forshaugen.barnehage.no" />
		<tag k="max_age" v="5" />
		<tag k="min_age" v="1" />
		<tag k="name" v="Sandnessjøen barnehage AS" />
		<tag k="no-barnehage:nsrid" v="1021774" />
		<tag k="operator" v="Sandnessjøen barnehage AS" />
		<tag k="operator:type" v="private" />
		<tag k="start_date" v="2008-01-17" />
	</node>
	<node id="-5576" lat="66.0162" lon="12.6352">
		<tag k="amenity" v="kindergarten" />
		<tag k="capacity" v="43" />
		<tag k="max_age" v="5" />
		<tag k="min_age" v="1" />
		<tag k="name" v="Sandnes barnehage" />
		<tag k="no-barnehage:nsrid" v="1016988" />
		<tag k="operator" v="Alstahaug kommune" />
		<tag k="operator:type" v="public" />
		<tag k="start_date" v="2005-05-18" />
	</node>
	<node id="-5575" lat="66.01844" lon="12.60271">
		<tag k="amenity" v="kindergarten" />
		<tag k="capacity" v="18" />
		<tag k="contact:email" v="brithasf@online.no" />
		<tag k="contact:phone" v="75 04 12 33" />
		<tag k="max_age" v="5" />
		<tag k="min_age" v="1" />
		<tag k="name" v="Regnbuen barnehage Sa" />
		<tag k="no-barnehage:nsrid" v="1019748" />
		<tag k="operator" v="Regnbuen barnehage Sa" />
		<tag k="operator:type" v="private" />
		<tag k="start_date" v="1989-01-02" />
	</node>
	<node id="-5574" lat="66.02155" lon="12.63146">
		<tag k="amenity" v="kindergarten" />
		<tag k="capacity" v="21" />
		<tag k="contact:phone" v="75 04 18 63" />
		<tag k="max_age" v="5" />
		<tag k="min_age" v="1" />
		<tag k="name" v="Posthornet barnehage" />
		<tag k="no-barnehage:nsrid" v="1019839" />
		<tag k="operator" v="Postens Foreldreforening" />
		<tag k="operator:type" v="private" />
		<tag k="start_date" v="1989-01-02" />
	</node>
	<node id="-5573" lat="65.823" lon="12.427">
		<tag k="amenity" v="kindergarten" />
		<tag k="capacity" v="6" />
		<tag k="contact:email" v="post@alstahaug.kommune.no" />
		<tag k="contact:phone" v="75075550" />
		<tag k="max_age" v="5" />
		<tag k="min_age" v="1" />
		<tag k="name" v="Mindland barnehage" />
		<tag k="no-barnehage:nsrid" v="1013656" />
		<tag k="operator" v="Alstahaug kommune" />
		<tag k="operator:type" v="public" />
		<tag k="start_date" v="1989-01-01" />
	</node>
	<node id="-5572" lat="66.01778" lon="12.61292">
		<tag k="amenity" v="kindergarten" />
		<tag k="capacity" v="18" />
		<tag k="contact:email" v="post@graakallenbarnehage.no" />
		<tag k="contact:phone" v="75041554" />
		<tag k="max_age" v="5" />
		<tag k="min_age" v="1" />
		<tag k="name" v="Gråkallen barnehage" />
		<tag k="no-barnehage:nsrid" v="1019747" />
		<tag k="operator" v="Gråkallen barnehage Sa" />
		<tag k="operator:type" v="private" />
		<tag k="start_date" v="1989-01-02" />
	</node>
</osm>
