<?xml version="1.0" encoding="UTF-8"?>
<osm generator="osmapis" version="0.6">
	<node id="-5883" lat="69.23859" lon="19.21679">
		<tag k="amenity" v="kindergarten" />
		<tag k="capacity" v="50" />
		<tag k="contact:email" v="trol-bar@online.no" />
		<tag k="contact:phone" v="77 72 51 71" />
		<tag k="max_age" v="5" />
		<tag k="min_age" v="1" />
		<tag k="name" v="Trollskogen barnehage" />
		<tag k="no-barnehage:nsrid" v="1020183" />
		<tag k="operator" v="Trollskogen barnehage Storsteinnes Sa" />
		<tag k="operator:type" v="private" />
		<tag k="start_date" v="1994-05-26" />
	</node>
	<node id="-5882" lat="69.2437" lon="19.2299">
		<tag k="amenity" v="kindergarten" />
		<tag k="capacity" v="26" />
		<tag k="contact:email" v="postmottak@balsfjord.kommune.no" />
		<tag k="contact:phone" v="77720326" />
		<tag k="max_age" v="5" />
		<tag k="min_age" v="1" />
		<tag k="name" v="Moan barnehage" />
		<tag k="no-barnehage:nsrid" v="1016158" />
		<tag k="operator" v="Balsfjord kommune" />
		<tag k="operator:type" v="public" />
		<tag k="start_date" v="1995-05-01" />
	</node>
	<node id="-5881" lat="69.3978" lon="18.6041">
		<tag k="amenity" v="kindergarten" />
		<tag k="capacity" v="16" />
		<tag k="contact:email" v="an.magritt.asplund@balsfjord.kommune.no" />
		<tag k="contact:phone" v="77 72 87 03" />
		<tag k="max_age" v="5" />
		<tag k="min_age" v="1" />
		<tag k="name" v="Skrållan barnehage" />
		<tag k="no-barnehage:nsrid" v="1016160" />
		<tag k="operator" v="Balsfjord kommune" />
		<tag k="operator:type" v="public" />
		<tag k="start_date" v="1989-01-01" />
	</node>
	<node id="-5880" lat="69.2174" lon="19.5583">
		<tag k="amenity" v="kindergarten" />
		<tag k="capacity" v="48" />
		<tag k="contact:email" v="anita.deilet@balsfjord.kommune.no" />
		<tag k="contact:phone" v="77 72 22 41" />
		<tag k="max_age" v="5" />
		<tag k="min_age" v="1" />
		<tag k="name" v="Nordkjosbotn barnehage" />
		<tag k="no-barnehage:nsrid" v="1016157" />
		<tag k="operator" v="Balsfjord kommune" />
		<tag k="operator:type" v="public" />
		<tag k="start_date" v="1989-01-01" />
	</node>
	<node id="-5879" lat="69.3196" lon="18.9587">
		<tag k="amenity" v="kindergarten" />
		<tag k="capacity" v="18" />
		<tag k="contact:email" v="an.magritt.asplund@balsfjord.kommune.no" />
		<tag k="contact:phone" v="77 72 87 02" />
		<tag k="max_age" v="5" />
		<tag k="min_age" v="1" />
		<tag k="name" v="Mestervik barnehage" />
		<tag k="no-barnehage:nsrid" v="1016159" />
		<tag k="operator" v="Balsfjord kommune" />
		<tag k="operator:type" v="public" />
		<tag k="start_date" v="1989-01-01" />
	</node>
	<node id="-5878" lat="69.3196" lon="18.9587">
		<tag k="amenity" v="kindergarten" />
		<tag k="capacity" v="12" />
		<tag k="contact:email" v="an.magritt.asplund@balsfjord.kommune.no" />
		<tag k="contact:phone" v="77 72 33 54" />
		<tag k="max_age" v="5" />
		<tag k="min_age" v="1" />
		<tag k="name" v="Malangseidet barnehage" />
		<tag k="no-barnehage:nsrid" v="1013165" />
		<tag k="operator" v="Balsfjord kommune" />
		<tag k="operator:type" v="public" />
		<tag k="start_date" v="2004-01-01" />
	</node>
	<node id="-5877" lat="69.3759" lon="19.3739">
		<tag k="amenity" v="kindergarten" />
		<tag k="capacity" v="19" />
		<tag k="contact:email" v="jan.johnsen@balsfjord.kommune.no" />
		<tag k="contact:phone" v="77 72 87 13" />
		<tag k="max_age" v="5" />
		<tag k="min_age" v="1" />
		<tag k="name" v="Laksvatn Oppvekstsenter Avd barnehage" />
		<tag k="no-barnehage:nsrid" v="1016156" />
		<tag k="operator" v="Balsfjord kommune" />
		<tag k="operator:type" v="public" />
		<tag k="start_date" v="1989-01-01" />
	</node>
	<node id="-5876" lat="69.3196" lon="18.9587">
		<tag k="amenity" v="kindergarten" />
		<tag k="capacity" v="4" />
		<tag k="contact:email" v="an.magritt.asplund@balsfjord.kommune.no" />
		<tag k="contact:phone" v="77 72 87 01" />
		<tag k="max_age" v="5" />
		<tag k="min_age" v="1" />
		<tag k="name" v="Hamnvåg barnehage" />
		<tag k="no-barnehage:nsrid" v="1025342" />
		<tag k="operator" v="Balsfjord kommune" />
		<tag k="operator:type" v="public" />
		<tag k="start_date" v="1995-05-01" />
	</node>
	<node id="-5875" lat="69.2408" lon="19.2344">
		<tag k="amenity" v="kindergarten" />
		<tag k="capacity" v="23" />
		<tag k="contact:email" v="trine.guttormsen@balsfjord.kommune.no" />
		<tag k="contact:phone" v="77 72 20 76" />
		<tag k="max_age" v="5" />
		<tag k="min_age" v="1" />
		<tag k="name" v="Fuglelia barnehage" />
		<tag k="no-barnehage:nsrid" v="1018454" />
		<tag k="operator" v="Balsfjord kommune" />
		<tag k="operator:type" v="public" />
		<tag k="start_date" v="2008-01-01" />
	</node>
</osm>
