<?xml version="1.0" encoding="UTF-8"?>
<osm generator="osmapis" version="0.6">
	<node id="-1573" lat="60.48198" lon="5.74932">
		<tag k="ADDRESS" v="Tveitane 12, 5725 VAKSDAL" />
		<tag k="amenity" v="kindergarten" />
		<tag k="capacity" v="60" />
		<tag k="max_age" v="5" />
		<tag k="min_age" v="1" />
		<tag k="name" v="Vaksdal barnehage" />
		<tag k="no-barnehage:nsrid" v="1012557" />
		<tag k="operator" v="Vaksdal kommune" />
		<tag k="operator:type" v="public" />
	</node>
	<node id="-1572" lat="60.55237" lon="5.73953">
		<tag k="ADDRESS" v="LÃ¥gaskarvegen 8, 5724 STANGHELLE" />
		<tag k="amenity" v="kindergarten" />
		<tag k="capacity" v="83" />
		<tag k="max_age" v="5" />
		<tag k="min_age" v="1" />
		<tag k="name" v="Stanghelle barnehage" />
		<tag k="no-barnehage:nsrid" v="1017390" />
		<tag k="operator" v="Vaksdal kommune" />
		<tag k="operator:type" v="public" />
	</node>
	<node id="-1571" lat="60.6656" lon="5.74962">
		<tag k="ADDRESS" v="Grupevegen 45, 5727 STAMNES" />
		<tag k="amenity" v="kindergarten" />
		<tag k="capacity" v="13" />
		<tag k="max_age" v="5" />
		<tag k="min_age" v="1" />
		<tag k="name" v="Stamnes barnehage" />
		<tag k="no-barnehage:nsrid" v="1018121" />
		<tag k="operator" v="Vaksdal kommune" />
		<tag k="operator:type" v="public" />
	</node>
	<node id="-1570" lat="60.59064" lon="5.82363">
		<tag k="ADDRESS" v="Kyrkjegata 3, 5722 DALEKVAM" />
		<tag k="amenity" v="kindergarten" />
		<tag k="capacity" v="42" />
		<tag k="max_age" v="5" />
		<tag k="min_age" v="3" />
		<tag k="name" v="Dale barnehage" />
		<tag k="no-barnehage:nsrid" v="1018120" />
		<tag k="operator" v="Vaksdal kommune" />
		<tag k="operator:type" v="public" />
	</node>
</osm>
