<?xml version="1.0" encoding="UTF-8"?>
<osm generator="osmapis" version="0.6">
	<node id="-4615" lat="60.35911" lon="5.133231">
		<tag k="amenity" v="kindergarten" />
		<tag k="capacity" v="10" />
		<tag k="contact:email" v="anita.ostensen@hotmail.no" />
		<tag k="doNotImportAddress" v="Vardavegen 7 5353 STRAUME" />
		<tag k="max_age" v="5" />
		<tag k="min_age" v="1" />
		<tag k="name" v="Straumsfjellet Fam barnehage" />
		<tag k="no-barnehage:nsrid" v="1020286" />
		<tag k="operator" v="Straumsfjellet Fam barnehage Anita Jørgensen Østensen" />
		<tag k="operator:type" v="private" />
	</node>
	<node id="-4613" lat="60.41091" lon="4.984997">
		<tag k="amenity" v="kindergarten" />
		<tag k="capacity" v="8" />
		<tag k="contact:email" v="annmaeltvik@gmail.com" />
		<tag k="contact:phone" v="+47 56 33 36 92" />
		<tag k="doNotImportAddress" v="Landrovegen 125 5363 ÅGOTNES" />
		<tag k="max_age" v="5" />
		<tag k="min_age" v="1" />
		<tag k="name" v="Soltunet Drift" />
		<tag k="no-barnehage:nsrid" v="1020639" />
		<tag k="operator" v="Soltunet Drift AS" />
		<tag k="operator:type" v="private" />
	</node>
	<node id="-4602" lat="60.34877" lon="5.089148">
		<tag k="amenity" v="kindergarten" />
		<tag k="capacity" v="10" />
		<tag k="contact:email" v="ihesjed@online.no" />
		<tag k="doNotImportAddress" v="Skorafjellet 34 5360 KOLLTVEIT" />
		<tag k="max_age" v="5" />
		<tag k="min_age" v="1" />
		<tag k="name" v="Knerten familiebarnehage" />
		<tag k="no-barnehage:nsrid" v="1020598" />
		<tag k="operator" v="Knerten Familiebarnehage Torill Hesjedal" />
		<tag k="operator:type" v="private" />
	</node>
</osm>
