<?xml version="1.0" encoding="UTF-8"?>
<osm generator="osmapis" version="0.6">
	<node id="-4174" lat="60.4031" lon="5.01927">
		<tag k="amenity" v="kindergarten" />
		<tag k="capacity" v="102" />
		<tag k="contact:email" v="tovesorensen@fjell.kommune.no" />
		<tag k="contact:phone" v="+47 55 09 68 40" />
		<tag k="max_age" v="5" />
		<tag k="min_age" v="1" />
		<tag k="name" v="Ågotnes barnehage" />
		<tag k="no-barnehage:nsrid" v="1018118" />
		<tag k="operator" v="Fjell kommune" />
		<tag k="operator:type" v="public" />
		<tag k="start_date" v="1989-01-01" />
	</node>
	<node id="-4173" lat="60.3282" lon="5.03836">
		<tag k="amenity" v="kindergarten" />
		<tag k="capacity" v="32" />
		<tag k="contact:email" v="janita.sjovold@fjell.kommune.no" />
		<tag k="contact:phone" v="+47 55 09 68 76" />
		<tag k="max_age" v="5" />
		<tag k="min_age" v="1" />
		<tag k="name" v="Ulveseth barnehage Avd Fjell" />
		<tag k="no-barnehage:nsrid" v="1014714" />
		<tag k="operator" v="Fjell kommune" />
		<tag k="operator:type" v="public" />
		<tag k="start_date" v="1992-08-01" />
	</node>
	<node id="-4172" lat="60.3284" lon="5.0309">
		<tag k="amenity" v="kindergarten" />
		<tag k="capacity" v="85" />
		<tag k="contact:email" v="ulven.naturbarnehage@norlandia.com" />
		<tag k="contact:phone" v="+47 40 55 76 11" />
		<tag k="contact:website" v="http://ulven.norlandiabarnehagene.no/" />
		<tag k="max_age" v="5" />
		<tag k="min_age" v="1" />
		<tag k="name" v="Ulven Naturbarnehage" />
		<tag k="no-barnehage:nsrid" v="1013274" />
		<tag k="operator" v="Norlandia Barnehagene AS" />
		<tag k="operator:type" v="private" />
		<tag k="start_date" v="2005-03-09" />
	</node>
	<node id="-4171" lat="60.3763" lon="5.10327">
		<tag k="amenity" v="kindergarten" />
		<tag k="capacity" v="44" />
		<tag k="contact:email" v="vera.landro@fjell.kommune.no" />
		<tag k="contact:phone" v="+47 55 09 68 35" />
		<tag k="max_age" v="5" />
		<tag k="min_age" v="1" />
		<tag k="name" v="Tussetjødna barnehage" />
		<tag k="no-barnehage:nsrid" v="1014889" />
		<tag k="operator" v="Fjell kommune" />
		<tag k="operator:type" v="public" />
		<tag k="start_date" v="1973-12-01" />
	</node>
	<node id="-4170" lat="60.3746" lon="5.102549">
		<tag k="amenity" v="kindergarten" />
		<tag k="capacity" v="25" />
		<tag k="contact:email" v="Lene@tiriltunet.no" />
		<tag k="contact:phone" v="+47 56 34 18 86" />
		<tag k="max_age" v="5" />
		<tag k="min_age" v="1" />
		<tag k="name" v="Tiriltunet barnehage AS" />
		<tag k="no-barnehage:nsrid" v="1021492" />
		<tag k="operator" v="Tiriltunet barnehage AS" />
		<tag k="operator:type" v="private" />
		<tag k="start_date" v="2006-08-09" />
	</node>
	<node id="-4169" lat="60.3535" lon="5.14355">
		<tag k="amenity" v="kindergarten" />
		<tag k="capacity" v="55" />
		<tag k="contact:email" v="monica.vindenes@fjell.kommune.no" />
		<tag k="contact:phone" v="+47 55 09 69 40" />
		<tag k="max_age" v="5" />
		<tag k="min_age" v="1" />
		<tag k="name" v="Svingen barnehage" />
		<tag k="no-barnehage:nsrid" v="1012585" />
		<tag k="operator" v="Fjell kommune" />
		<tag k="operator:type" v="public" />
		<tag k="start_date" v="1996-01-01" />
	</node>
	<node id="-4167" lat="60.3624" lon="5.11766">
		<tag k="amenity" v="kindergarten" />
		<tag k="capacity" v="44" />
		<tag k="contact:email" v="laila.ask@fjell.kommune.no" />
		<tag k="contact:phone" v="+47 55 09 78 65" />
		<tag k="max_age" v="5" />
		<tag k="min_age" v="1" />
		<tag k="name" v="Straume barnehage" />
		<tag k="no-barnehage:nsrid" v="1012510" />
		<tag k="operator" v="Fjell kommune" />
		<tag k="operator:type" v="public" />
		<tag k="start_date" v="1989-01-01" />
	</node>
	<node id="-4165" lat="60.3478" lon="5.13382">
		<tag k="amenity" v="kindergarten" />
		<tag k="capacity" v="70" />
		<tag k="contact:email" v="loveparken@nlmbhg.no" />
		<tag k="contact:phone" v="+47 56 31 10 95" />
		<tag k="contact:website" v="http://loveparken.no" />
		<tag k="max_age" v="5" />
		<tag k="min_age" v="1" />
		<tag k="name" v="Nlm Barnehagene AS Avd Løveparken Barnehage" />
		<tag k="no-barnehage:nsrid" v="1017083" />
		<tag k="operator" v="Nlm-Barnehagene AS" />
		<tag k="operator:type" v="private" />
		<tag k="start_date" v="2006-01-01" />
	</node>
	<node id="-4164" lat="60.4054" lon="5.01843">
		<tag k="amenity" v="kindergarten" />
		<tag k="capacity" v="85" />
		<tag k="contact:email" v="naustvika.bhg@norlandiabarnehagenene.no" />
		<tag k="max_age" v="5" />
		<tag k="min_age" v="1" />
		<tag k="name" v="Naustvika barnehage" />
		<tag k="no-barnehage:nsrid" v="1016454" />
		<tag k="operator" v="Norlandia Barnehagene AS" />
		<tag k="operator:type" v="private" />
		<tag k="start_date" v="2003-01-01" />
	</node>
	<node id="-4163" lat="60.3822" lon="5.15181">
		<tag k="amenity" v="kindergarten" />
		<tag k="capacity" v="63" />
		<tag k="contact:email" v="trond.heggestad@fjell.kommune.no" />
		<tag k="contact:phone" v="+47 55 09 63 80" />
		<tag k="max_age" v="5" />
		<tag k="min_age" v="1" />
		<tag k="name" v="Marihøna barnehage" />
		<tag k="no-barnehage:nsrid" v="1018398" />
		<tag k="operator" v="Fjell kommune" />
		<tag k="operator:type" v="public" />
		<tag k="start_date" v="2008-05-01" />
	</node>
	<node id="-4162" lat="60.365" lon="5.12254">
		<tag k="amenity" v="kindergarten" />
		<tag k="capacity" v="93" />
		<tag k="contact:email" v="bhg.valen@laringsverkstedet.no" />
		<tag k="contact:phone" v="+47 56315990" />
		<tag k="max_age" v="5" />
		<tag k="min_age" v="1" />
		<tag k="name" v="Læringsverkstedet barnehage Avd Valen" />
		<tag k="no-barnehage:nsrid" v="1015840" />
		<tag k="operator" v="Læringsverkstedet AS" />
		<tag k="operator:type" v="private" />
		<tag k="start_date" v="2000-01-01" />
	</node>
	<node id="-4161" lat="60.365" lon="5.12254">
		<tag k="amenity" v="kindergarten" />
		<tag k="capacity" v="117" />
		<tag k="contact:email" v="bhg.straume@laringsverkstedet.no" />
		<tag k="max_age" v="5" />
		<tag k="min_age" v="1" />
		<tag k="name" v="Læringsverkstedet barnehage Avd Straume" />
		<tag k="no-barnehage:nsrid" v="1013384" />
		<tag k="operator" v="Læringsverkstedet AS" />
		<tag k="operator:type" v="private" />
		<tag k="start_date" v="2005-11-28" />
	</node>
	<node id="-4160" lat="60.3591" lon="5.13416">
		<tag k="amenity" v="kindergarten" />
		<tag k="capacity" v="57" />
		<tag k="contact:email" v="aronien@laringsverkstedet.no" />
		<tag k="contact:phone" v="+47 55 93 13 93" />
		<tag k="contact:website" v="http://laringsverkstedet.no/laringsverkstedet-aronien-barnehage" />
		<tag k="max_age" v="5" />
		<tag k="min_age" v="1" />
		<tag k="name" v="Læringsverkstedet barnehage Avd Aronien" />
		<tag k="no-barnehage:nsrid" v="1015458" />
		<tag k="operator" v="Læringsverkstedet AS" />
		<tag k="operator:type" v="private" />
		<tag k="start_date" v="1991-11-25" />
	</node>
	<node id="-4159" lat="60.35096" lon="5.081392">
		<tag k="amenity" v="kindergarten" />
		<tag k="capacity" v="25" />
		<tag k="contact:email" v="vibeke@liatunet.no" />
		<tag k="contact:phone" v="+47 56 33 54 44" />
		<tag k="max_age" v="5" />
		<tag k="min_age" v="1" />
		<tag k="name" v="Liatunet barnehage AS" />
		<tag k="no-barnehage:nsrid" v="1021260" />
		<tag k="operator" v="Liatunet barnehage AS" />
		<tag k="operator:type" v="private" />
		<tag k="start_date" v="2005-06-01" />
	</node>
	<node id="-4158" lat="60.3678" lon="5.12535">
		<tag k="amenity" v="kindergarten" />
		<tag k="capacity" v="70" />
		<tag k="contact:email" v="monika.sorlie@fjell.kommune.no" />
		<tag k="contact:phone" v="+47 55 09 68 20" />
		<tag k="max_age" v="5" />
		<tag k="min_age" v="1" />
		<tag k="name" v="Leirstaden barnehage" />
		<tag k="no-barnehage:nsrid" v="1017133" />
		<tag k="operator" v="Fjell kommune" />
		<tag k="operator:type" v="public" />
		<tag k="start_date" v="2006-09-01" />
	</node>
	<node id="-4157" lat="60.33458" lon="4.980154">
		<tag k="amenity" v="kindergarten" />
		<tag k="capacity" v="46" />
		<tag k="contact:email" v="lislau40@gmail.com" />
		<tag k="contact:phone" v="+47 48607804" />
		<tag k="max_age" v="5" />
		<tag k="min_age" v="1" />
		<tag k="name" v="Langøy Friluftsbarnehage AS" />
		<tag k="no-barnehage:nsrid" v="1022079" />
		<tag k="operator" v="Langøy Friluftsbarnehage AS" />
		<tag k="operator:type" v="private" />
		<tag k="start_date" v="2005-08-22" />
	</node>
	<node id="-4156" lat="60.4031" lon="5.01927">
		<tag k="amenity" v="kindergarten" />
		<tag k="capacity" v="88" />
		<tag k="contact:email" v="kartveitpollen.bhg@norlandiabarnehagene.no" />
		<tag k="max_age" v="5" />
		<tag k="min_age" v="1" />
		<tag k="name" v="Kårtveitpollen barnehage" />
		<tag k="no-barnehage:nsrid" v="1017266" />
		<tag k="operator" v="Norlandia Barnehagene AS" />
		<tag k="operator:type" v="private" />
		<tag k="start_date" v="2006-07-27" />
	</node>
	<node id="-4154" lat="60.3739" lon="5.04306">
		<tag k="amenity" v="kindergarten" />
		<tag k="capacity" v="89" />
		<tag k="contact:email" v="anette.kaland@fjell.kommune.no" />
		<tag k="contact:phone" v="+47 55 09 63 50" />
		<tag k="max_age" v="5" />
		<tag k="min_age" v="1" />
		<tag k="name" v="Knappskog barnehage" />
		<tag k="no-barnehage:nsrid" v="1018399" />
		<tag k="operator" v="Fjell kommune" />
		<tag k="operator:type" v="public" />
		<tag k="start_date" v="2008-06-01" />
	</node>
	<node id="-4153" lat="60.35739" lon="5.082615">
		<tag k="amenity" v="kindergarten" />
		<tag k="capacity" v="84" />
		<tag k="contact:email" v="dl.havhesten@bhg.no" />
		<tag k="max_age" v="5" />
		<tag k="min_age" v="1" />
		<tag k="name" v="Havhesten Fus barnehage AS" />
		<tag k="no-barnehage:nsrid" v="1020778" />
		<tag k="operator" v="Havhesten Fus barnehage AS" />
		<tag k="operator:type" v="private" />
		<tag k="start_date" v="1996-04-02" />
	</node>
	<node id="-4152" lat="60.4031" lon="5.01927">
		<tag k="amenity" v="kindergarten" />
		<tag k="capacity" v="48" />
		<tag k="contact:email" v="vivian.ekerhovd@fjell.kommune.no" />
		<tag k="contact:phone" v="+47 55 09 62 01" />
		<tag k="contact:website" v="http://www.fjell.no/hamramyrabarnehage" />
		<tag k="max_age" v="5" />
		<tag k="min_age" v="1" />
		<tag k="name" v="Hamramyra barnehage" />
		<tag k="no-barnehage:nsrid" v="1015155" />
		<tag k="operator" v="Fjell kommune" />
		<tag k="operator:type" v="public" />
		<tag k="start_date" v="2012-08-13" />
	</node>
	<node id="-4151" lat="60.39253" lon="5.337342">
		<tag k="amenity" v="kindergarten" />
		<tag k="capacity" v="57" />
		<tag k="contact:email" v="gardsba@online.no" />
		<tag k="contact:phone" v="+47 56 32 10 30" />
		<tag k="max_age" v="5" />
		<tag k="min_age" v="1" />
		<tag k="name" v="Gardstunet barnehage AS" />
		<tag k="no-barnehage:nsrid" v="1020480" />
		<tag k="operator" v="Gardstunet barnehage AS" />
		<tag k="operator:type" v="private" />
		<tag k="start_date" v="1997-08-29" />
	</node>
	<node id="-4150" lat="60.3571" lon="5.12418">
		<tag k="amenity" v="kindergarten" />
		<tag k="contact:email" v="aapen-bhg-Styrer@kfuk-kfum.no" />
		<tag k="name" v="Fjell Kfuk Kfum Avd Straume" />
		<tag k="no-barnehage:nsrid" v="1017644" />
		<tag k="operator" v="Fjell Kfuk-Kfum" />
		<tag k="operator:type" v="private" />
		<tag k="start_date" v="2005-01-01" />
	</node>
	<node id="-4149" lat="60.4237" lon="4.96636">
		<tag k="amenity" v="kindergarten" />
		<tag k="contact:email" v="aapen-bhg-Styrer@kfuk-kfum.no" />
		<tag k="name" v="Fjell Kfuk Kfum Avd Landro" />
		<tag k="no-barnehage:nsrid" v="1017924" />
		<tag k="operator" v="Fjell Kfuk-Kfum" />
		<tag k="operator:type" v="private" />
		<tag k="start_date" v="2007-09-26" />
	</node>
	<node id="-4148" lat="60.3316" lon="5.07574">
		<tag k="amenity" v="kindergarten" />
		<tag k="contact:email" v="aapen-bhg-Styrer@kfuk-kfum.no" />
		<tag k="name" v="Fjell Kfuk Kfum Avd Fjell" />
		<tag k="no-barnehage:nsrid" v="1017645" />
		<tag k="operator" v="Fjell Kfuk-Kfum" />
		<tag k="operator:type" v="private" />
		<tag k="start_date" v="2005-01-01" />
	</node>
	<node id="-4147" lat="60.3201" lon="5.17396">
		<tag k="amenity" v="kindergarten" />
		<tag k="capacity" v="78" />
		<tag k="contact:email" v="Anne.Tossebro@fjell.kommune.no" />
		<tag k="contact:phone" v="+47 55 09 75 89" />
		<tag k="max_age" v="5" />
		<tag k="min_age" v="1" />
		<tag k="name" v="Bjorøy barnehage" />
		<tag k="no-barnehage:nsrid" v="1018578" />
		<tag k="operator" v="Fjell kommune" />
		<tag k="operator:type" v="public" />
		<tag k="start_date" v="2009-01-01" />
	</node>
	<node id="-4146" lat="60.3529" lon="5.11367">
		<tag k="amenity" v="kindergarten" />
		<tag k="capacity" v="45" />
		<tag k="contact:email" v="solveig.melstveit@fjell.kommune.no" />
		<tag k="contact:phone" v="+47 56 33 26 41" />
		<tag k="max_age" v="5" />
		<tag k="min_age" v="1" />
		<tag k="name" v="Bildøy barnehage" />
		<tag k="no-barnehage:nsrid" v="1014790" />
		<tag k="operator" v="Fjell kommune" />
		<tag k="operator:type" v="public" />
		<tag k="start_date" v="1993-08-01" />
	</node>
</osm>
