<?xml version="1.0" encoding="UTF-8"?>
<osm generator="osmapis" version="0.6">
	<node id="-4744" lat="61.1897" lon="6.84261">
		<tag k="amenity" v="kindergarten" />
		<tag k="capacity" v="42" />
		<tag k="contact:email" v="sylvi.aarland@lllllleikanger.kommune.no" />
		<tag k="contact:phone" v="+47 57654330" />
		<tag k="max_age" v="5" />
		<tag k="min_age" v="1" />
		<tag k="name" v="Henjahaugane barnehage" />
		<tag k="no-barnehage:nsrid" v="1013965" />
		<tag k="operator" v="Leikanger kommune" />
		<tag k="operator:type" v="public" />
	</node>
	<node id="-4743" lat="61.18047" lon="6.854775">
		<tag k="amenity" v="kindergarten" />
		<tag k="capacity" v="38" />
		<tag k="contact:email" v="post@askedalenbarnehage.no" />
		<tag k="contact:phone" v="+47 99393669" />
		<tag k="max_age" v="5" />
		<tag k="min_age" v="1" />
		<tag k="name" v="Askedalen barnehage AS" />
		<tag k="no-barnehage:nsrid" v="1021832" />
		<tag k="operator" v="Askedalen barnehage AS" />
		<tag k="operator:type" v="private" />
	</node>
	<node id="-4745" lat="61.1861" lon="6.83278">
		<tag k="amenity" v="kindergarten" />
		<tag k="capacity" v="41" />
		<tag k="contact:email" v="ingebjorg.breisnes@leikanger.kommune.no" />
		<tag k="max_age" v="5" />
		<tag k="min_age" v="1" />
		<tag k="name" v="NybÃ¸ barnehage" />
		<tag k="no-barnehage:nsrid" v="1012513" />
		<tag k="operator" v="Leikanger kommune" />
		<tag k="operator:type" v="public" />
	</node>
</osm>
