<?xml version="1.0" encoding="UTF-8"?>
<osm version="0.6" generator="osmapis">
	<node lat="64.91719" lon="10.94307" id="-5206">
		<tag k="ADDRESS" v="Nermølnveien 13, 7924 AUSTAFJORD" />
		<tag k="amenity" v="kindergarten" />
		<tag k="capacity" v="13" />
		<tag k="max_age" v="5" />
		<tag k="min_age" v="1" />
		<tag k="name" v="Austafjord barnehage" />
		<tag k="no-barnehage:nsrid" v="975316718" />
		<tag k="operator" v="Nærøysund kommune" />
		<tag k="operator:type" v="public" />
	</node>
	<node lat="64.81329" lon="11.48392" id="-5207">
		<tag k="ADDRESS" v="Skjånesvegen 135, 7970 KOLVEREID" />
		<tag k="amenity" v="kindergarten" />
		<tag k="capacity" v="34" />
		<tag k="max_age" v="5" />
		<tag k="min_age" v="1" />
		<tag k="name" v="Barnehage 1 avd. Strand" />
		<tag k="no-barnehage:nsrid" v="918087974" />
		<tag k="operator" v="Barnehage 1 AS" />
		<tag k="operator:type" v="private" />
	</node>
	<node lat="64.86798" lon="11.59528" id="-5208">
		<tag k="ADDRESS" v="Prestgårdsvegen 1, 7970 KOLVEREID" />
		<tag k="amenity" v="kindergarten" />
		<tag k="capacity" v="37" />
		<tag k="max_age" v="5" />
		<tag k="min_age" v="1" />
		<tag k="name" v="Barnehage 1 avd. Nøtteliten" />
		<tag k="no-barnehage:nsrid" v="994043099" />
		<tag k="operator" v="Barnehage 1 AS" />
		<tag k="operator:type" v="private" />
	</node>
	<node lat="64.8692" lon="11.22898" id="-5209">
		<tag k="ADDRESS" v="Brattkleiva 3, 7900 RØRVIK" />
		<tag k="amenity" v="kindergarten" />
		<tag k="capacity" v="26" />
		<tag k="max_age" v="5" />
		<tag k="min_age" v="1" />
		<tag k="name" v="Bergheim friluftsbarnehage" />
		<tag k="no-barnehage:nsrid" v="885889042" />
		<tag k="operator" v="Bergheim friluftsbarnehage AS" />
		<tag k="operator:type" v="private" />
	</node>
	<node lat="64.8747" lon="11.24126" id="-5210">
		<tag k="ADDRESS" v="Margit Moes vei 2, 7900 RØRVIK" />
		<tag k="amenity" v="kindergarten" />
		<tag k="capacity" v="21" />
		<tag k="max_age" v="5" />
		<tag k="min_age" v="1" />
		<tag k="name" v="Bikuben friluftsbarnehage" />
		<tag k="no-barnehage:nsrid" v="990907412" />
		<tag k="operator" v="Bikuben friluftsbarnehage AS" />
		<tag k="operator:type" v="private" />
	</node>
	<node lat="64.96119" lon="12.17803" id="-5211">
		<tag k="ADDRESS" v="Foldereidvegen 29, 7985 FOLDEREID" />
		<tag k="amenity" v="kindergarten" />
		<tag k="capacity" v="8" />
		<tag k="max_age" v="5" />
		<tag k="min_age" v="1" />
		<tag k="name" v="Foldereid oppvekstsenter avd. barnehage" />
		<tag k="no-barnehage:nsrid" v="976678893" />
		<tag k="operator" v="Nærøysund kommune" />
		<tag k="operator:type" v="public" />
	</node>
	<node lat="64.98975" lon="11.73045" id="-5212">
		<tag k="ADDRESS" v="Maren F. Sverdrups veg 183, 7990 NAUSTBUKTA" />
		<tag k="amenity" v="kindergarten" />
		<tag k="capacity" v="15" />
		<tag k="max_age" v="5" />
		<tag k="min_age" v="1" />
		<tag k="name" v="Gravvik oppvekstsenter avd. barnehage" />
		<tag k="no-barnehage:nsrid" v="973488600" />
		<tag k="operator" v="Nærøysund kommune" />
		<tag k="operator:type" v="public" />
	</node>
	<node lat="64.87036" lon="11.24213" id="-5213">
		<tag k="ADDRESS" v="Omkjøringsvegen 41, 7900 RØRVIK" />
		<tag k="amenity" v="kindergarten" />
		<tag k="capacity" v="44" />
		<tag k="max_age" v="5" />
		<tag k="min_age" v="1" />
		<tag k="name" v="Heimen barnehage" />
		<tag k="no-barnehage:nsrid" v="885030912" />
		<tag k="operator" v="Heimen barnehage AS" />
		<tag k="operator:type" v="private" />
	</node>
	<node lat="64.87717" lon="11.26404" id="-5214">
		<tag k="ADDRESS" v="Engasvegen 200, 7900 RØRVIK" />
		<tag k="amenity" v="kindergarten" />
		<tag k="capacity" v="42" />
		<tag k="max_age" v="5" />
		<tag k="min_age" v="1" />
		<tag k="name" v="Heimtun barnehage" />
		<tag k="no-barnehage:nsrid" v="975897346" />
		<tag k="operator" v="Heimtun barnehage AS" />
		<tag k="operator:type" v="private" />
	</node>
	<node lat="64.85794" lon="11.6107" id="-5215">
		<tag k="ADDRESS" v="Vakker-Beret vegen 1, 7970 KOLVEREID" />
		<tag k="amenity" v="kindergarten" />
		<tag k="capacity" v="81" />
		<tag k="max_age" v="5" />
		<tag k="min_age" v="1" />
		<tag k="name" v="Kolvereid barnehage" />
		<tag k="no-barnehage:nsrid" v="975312267" />
		<tag k="operator" v="Nærøysund kommune" />
		<tag k="operator:type" v="public" />
	</node>
	<node lat="64.78614" lon="11.41432" id="-5216">
		<tag k="ADDRESS" v="Forfangs veg 32, 7970 KOLVEREID" />
		<tag k="amenity" v="kindergarten" />
		<tag k="capacity" v="14" />
		<tag k="max_age" v="5" />
		<tag k="min_age" v="1" />
		<tag k="name" v="Lilleval barnehage" />
		<tag k="no-barnehage:nsrid" v="990367701" />
		<tag k="operator" v="Lilleval barnehage AS" />
		<tag k="operator:type" v="private" />
	</node>
	<node lat="64.85784" lon="11.29138" id="-5217">
		<tag k="ADDRESS" v="Skolestubben 4, 7940 OTTERSØY" />
		<tag k="amenity" v="kindergarten" />
		<tag k="capacity" v="56" />
		<tag k="max_age" v="5" />
		<tag k="min_age" v="1" />
		<tag k="name" v="Ottersøy barnehage" />
		<tag k="no-barnehage:nsrid" v="973337165" />
		<tag k="operator" v="Ottersøy barnehage SA" />
		<tag k="operator:type" v="private" />
	</node>
	<node lat="64.87231" lon="11.23515" id="-5218">
		<tag k="ADDRESS" v="Hansvikvegen 11, 7900 RØRVIK" />
		<tag k="amenity" v="kindergarten" />
		<tag k="capacity" v="31" />
		<tag k="max_age" v="5" />
		<tag k="min_age" v="1" />
		<tag k="name" v="Ril barnehage" />
		<tag k="no-barnehage:nsrid" v="973503014" />
		<tag k="operator" v="Rørvik Idrettslag" />
		<tag k="operator:type" v="private" />
	</node>
	<node lat="64.85957" lon="11.21504" id="-5219">
		<tag k="ADDRESS" v="Bureisarvegen 4, 7900 RØRVIK" />
		<tag k="amenity" v="kindergarten" />
		<tag k="capacity" v="40" />
		<tag k="max_age" v="5" />
		<tag k="min_age" v="1" />
		<tag k="name" v="Trio barnehager" />
		<tag k="no-barnehage:nsrid" v="988565563" />
		<tag k="operator" v="Trio barnehager AS" />
		<tag k="operator:type" v="private" />
	</node>
	<node lat="64.86883" lon="11.2363" id="-5220">
		<tag k="ADDRESS" v="Skolegata 42, 7900 RØRVIK" />
		<tag k="amenity" v="kindergarten" />
		<tag k="capacity" v="39" />
		<tag k="max_age" v="5" />
		<tag k="min_age" v="1" />
		<tag k="name" v="Tårnet barnehage" />
		<tag k="no-barnehage:nsrid" v="977150965" />
		<tag k="operator" v="Nærøysund kommune" />
		<tag k="operator:type" v="public" />
	</node>
	<node lat="64.93248" lon="11.4931" id="-5221">
		<tag k="ADDRESS" v="Månesvegen 1560, 7970 KOLVEREID" />
		<tag k="amenity" v="kindergarten" />
		<tag k="capacity" v="7" />
		<tag k="max_age" v="5" />
		<tag k="min_age" v="1" />
		<tag k="name" v="Værum barnehage" />
		<tag k="no-barnehage:nsrid" v="979313926" />
		<tag k="operator" v="Nærøysund kommune" />
		<tag k="operator:type" v="public" />
	</node>
</osm>
