<?xml version="1.0" encoding="UTF-8"?>
<osm generator="osmapis" version="0.6">
	<node id="-2174" lat="59.52126" lon="10.70212">
		<tag k="ADDRESS" v="Husjordveien 5, 1555 SON" />
		<tag k="amenity" v="kindergarten" />
		<tag k="capacity" v="47" />
		<tag k="max_age" v="5" />
		<tag k="min_age" v="1" />
		<tag k="name" v="Deør barnehage" />
		<tag k="no-barnehage:nsrid" v="975301109" />
		<tag k="operator" v="Vestby kommune" />
		<tag k="operator:type" v="public" />
	</node>
	<node id="-2175" lat="59.58129" lon="10.80782">
		<tag k="ADDRESS" v="Garderveien 649, 1544 VESTBY" />
		<tag k="amenity" v="kindergarten" />
		<tag k="capacity" v="22" />
		<tag k="max_age" v="5" />
		<tag k="min_age" v="1" />
		<tag k="name" v="Garder barnehage" />
		<tag k="no-barnehage:nsrid" v="973594656" />
		<tag k="operator" v="Garder barnehage" />
		<tag k="operator:type" v="private" />
	</node>
	<node id="-2176" lat="59.51676" lon="10.69999">
		<tag k="ADDRESS" v="Sonsveien 51, 1555 SON" />
		<tag k="amenity" v="kindergarten" />
		<tag k="capacity" v="66" />
		<tag k="max_age" v="5" />
		<tag k="min_age" v="1" />
		<tag k="name" v="Grevlingen barnehage" />
		<tag k="no-barnehage:nsrid" v="990065144" />
		<tag k="operator" v="Vestby kommune" />
		<tag k="operator:type" v="public" />
	</node>
	<node id="-2177" lat="59.61294" lon="10.74645">
		<tag k="ADDRESS" v="Randemfaret 15, 1543 VESTBY" />
		<tag k="amenity" v="kindergarten" />
		<tag k="capacity" v="25" />
		<tag k="max_age" v="5" />
		<tag k="min_age" v="1" />
		<tag k="name" v="Hjertehagen" />
		<tag k="no-barnehage:nsrid" v="911717395" />
		<tag k="operator" v="Hjertehagen AS" />
		<tag k="operator:type" v="private" />
	</node>
	<node id="-2178" lat="0.0" lon="0.0">
		<tag k="ADDRESS" v="Grendehuset Thomas Olsens vei 32, 1545 HVITSTEN" />
		<tag k="amenity" v="kindergarten" />
		<tag k="capacity" v="17" />
		<tag k="contact:website" v="http://www.hvitsten.barnehageside.no/" />
		<tag k="max_age" v="5" />
		<tag k="min_age" v="1" />
		<tag k="name" v="Hvitsten naturbarnehage" />
		<tag k="no-barnehage:nsrid" v="974102226" />
		<tag k="operator" v="Hvitsten Naturbarnehage Sa" />
		<tag k="operator:type" v="private" />
	</node>
	<node id="-2179" lat="59.54213" lon="10.74241">
		<tag k="ADDRESS" v="Noras Hage 17, 1550 HØLEN" />
		<tag k="amenity" v="kindergarten" />
		<tag k="capacity" v="65" />
		<tag k="max_age" v="5" />
		<tag k="min_age" v="1" />
		<tag k="name" v="Hølen FUS barnehage" />
		<tag k="no-barnehage:nsrid" v="995994259" />
		<tag k="operator" v="Hølen Fus barnehage AS" />
		<tag k="operator:type" v="private" />
	</node>
	<node id="-2181" lat="59.6037" lon="10.70829">
		<tag k="ADDRESS" v="Skolemesterens vei 3, 1542 VESTBY" />
		<tag k="amenity" v="kindergarten" />
		<tag k="capacity" v="83" />
		<tag k="max_age" v="5" />
		<tag k="min_age" v="1" />
		<tag k="name" v="Pepperstadmarka barnehage" />
		<tag k="no-barnehage:nsrid" v="975301656" />
		<tag k="operator" v="Vestby kommune" />
		<tag k="operator:type" v="public" />
	</node>
	<node id="-2182" lat="59.59687" lon="10.71056">
		<tag k="ADDRESS" v="Risilveien 60, 1542 VESTBY" />
		<tag k="amenity" v="kindergarten" />
		<tag k="capacity" v="79" />
		<tag k="max_age" v="5" />
		<tag k="min_age" v="1" />
		<tag k="name" v="Risil barnehage" />
		<tag k="no-barnehage:nsrid" v="993033898" />
		<tag k="operator" v="Vestby kommune" />
		<tag k="operator:type" v="public" />
	</node>
	<node id="-2183" lat="59.61924" lon="10.71249">
		<tag k="ADDRESS" v="Drøbakveien 80, 1542 VESTBY" />
		<tag k="amenity" v="kindergarten" />
		<tag k="capacity" v="47" />
		<tag k="contact:website" v="http://barnehagenett.no" />
		<tag k="max_age" v="5" />
		<tag k="min_age" v="1" />
		<tag k="name" v="Skaug idrettsbarnehage" />
		<tag k="no-barnehage:nsrid" v="987549912" />
		<tag k="operator" v="Borg Barnehager AS" />
		<tag k="operator:type" v="private" />
	</node>
	<node id="-2184" lat="59.60121" lon="10.75819">
		<tag k="ADDRESS" v="Balders vei 2, 1540 VESTBY" />
		<tag k="amenity" v="kindergarten" />
		<tag k="capacity" v="58" />
		<tag k="max_age" v="5" />
		<tag k="min_age" v="1" />
		<tag k="name" v="Sole Skog barnehage" />
		<tag k="no-barnehage:nsrid" v="873512962" />
		<tag k="operator" v="Vestby Stiftelsesbarnehager" />
		<tag k="operator:type" v="private" />
	</node>
	<node id="-2185" lat="59.59512" lon="10.75798">
		<tag k="ADDRESS" v="Solerunden 11, 1540 VESTBY" />
		<tag k="amenity" v="kindergarten" />
		<tag k="capacity" v="78" />
		<tag k="max_age" v="5" />
		<tag k="min_age" v="1" />
		<tag k="name" v="Solerunden barnehage" />
		<tag k="no-barnehage:nsrid" v="975301095" />
		<tag k="operator" v="Vestby kommune" />
		<tag k="operator:type" v="public" />
	</node>
	<node id="-2186" lat="59.50562" lon="10.68874">
		<tag k="ADDRESS" v="Falkeveien 25, 1555 SON" />
		<tag k="amenity" v="kindergarten" />
		<tag k="capacity" v="79" />
		<tag k="max_age" v="5" />
		<tag k="min_age" v="1" />
		<tag k="name" v="Solåsen FUS barnehage" />
		<tag k="no-barnehage:nsrid" v="994441116" />
		<tag k="operator" v="Solåsen Fus barnehage AS" />
		<tag k="operator:type" v="private" />
	</node>
	<node id="-2187" lat="59.50469" lon="10.69194">
		<tag k="ADDRESS" v="Myrsnipeveien 5, 1555 SON" />
		<tag k="amenity" v="kindergarten" />
		<tag k="capacity" v="51" />
		<tag k="max_age" v="5" />
		<tag k="min_age" v="1" />
		<tag k="name" v="Store Brevik barnehage" />
		<tag k="no-barnehage:nsrid" v="875211382" />
		<tag k="operator" v="Vestby Stiftelsesbarnehager" />
		<tag k="operator:type" v="private" />
	</node>
	<node id="-2188" lat="0.0" lon="0.0">
		<tag k="ADDRESS" v="Støttumveien 9, 1543 VESTBY" />
		<tag k="amenity" v="kindergarten" />
		<tag k="capacity" v="55" />
		<tag k="max_age" v="5" />
		<tag k="min_age" v="1" />
		<tag k="name" v="Støttumveien barnehage" />
		<tag k="no-barnehage:nsrid" v="986170820" />
		<tag k="operator" v="Vestby kommune" />
		<tag k="operator:type" v="public" />
	</node>
	<node id="-2189" lat="59.59932" lon="10.75641">
		<tag k="ADDRESS" v="Odins vei 33, 1540 VESTBY" />
		<tag k="amenity" v="kindergarten" />
		<tag k="capacity" v="82" />
		<tag k="max_age" v="5" />
		<tag k="min_age" v="1" />
		<tag k="name" v="Østbydammen barnehage" />
		<tag k="no-barnehage:nsrid" v="989753908" />
		<tag k="operator" v="Vestby kommune" />
		<tag k="operator:type" v="public" />
	</node>
	<node id="-2190" lat="59.51147" lon="10.69147">
		<tag k="ADDRESS" v="Granittveien 1, 1555 SON" />
		<tag k="amenity" v="kindergarten" />
		<tag k="capacity" v="66" />
		<tag k="max_age" v="5" />
		<tag k="min_age" v="1" />
		<tag k="name" v="Øståsen barnehage" />
		<tag k="no-barnehage:nsrid" v="984709269" />
		<tag k="operator" v="Vestby kommune" />
		<tag k="operator:type" v="public" />
	</node>
</osm>
