<?xml version="1.0" encoding="UTF-8"?>
<osm generator="osmapis" version="0.6">
	<node id="-3064" lat="58.15093" lon="7.9791">
		<tag k="ADDRESS" v="Wergelandsveien 15a, 4616 KRISTIANSAND S" />
		<tag k="amenity" v="kindergarten" />
		<tag k="capacity" v="13" />
		<tag k="max_age" v="5" />
		<tag k="min_age" v="1" />
		<tag k="name" v="Wergelandsveien barnehage" />
		<tag k="no-barnehage:nsrid" v="1020231" />
		<tag k="operator" v="Wergelandsveien barnehage Sa" />
		<tag k="operator:type" v="private" />
	</node>
	<node id="-3063" lat="58.12484" lon="7.95329">
		<tag k="ADDRESS" v="Kirsten Flagstads Vei 32, 4621 KRISTIANSAND S" />
		<tag k="amenity" v="kindergarten" />
		<tag k="name" v="Vågsbygd Åpne barnehage Vågsbygd Helsestasjon" />
		<tag k="no-barnehage:nsrid" v="1015876" />
		<tag k="operator" v="Kristiansand kommune" />
		<tag k="operator:type" v="public" />
	</node>
	<node id="-3061" lat="58.10175" lon="7.94786">
		<tag k="ADDRESS" v="Voie Ringvei 108, 4624 KRISTIANSAND S" />
		<tag k="amenity" v="kindergarten" />
		<tag k="capacity" v="9" />
		<tag k="max_age" v="5" />
		<tag k="min_age" v="1" />
		<tag k="name" v="Voie barnehage Merete Frigstad" />
		<tag k="no-barnehage:nsrid" v="1020738" />
		<tag k="operator" v="Voie barnehage Merete Frigstad" />
		<tag k="operator:type" v="private" />
	</node>
	<node id="-3060" lat="58.15949" lon="7.98847">
		<tag k="ADDRESS" v="Andreas Kjærs Vei 76, 4615 KRISTIANSAND S" />
		<tag k="amenity" v="kindergarten" />
		<tag k="capacity" v="43" />
		<tag k="max_age" v="5" />
		<tag k="min_age" v="1" />
		<tag k="name" v="Trollhaugen barnehage" />
		<tag k="no-barnehage:nsrid" v="1015955" />
		<tag k="operator" v="Kristiansand kommune" />
		<tag k="operator:type" v="public" />
	</node>
	<node id="-3059" lat="58.14739" lon="7.95684">
		<tag k="ADDRESS" v="Gullveien 19, 4629 KRISTIANSAND S" />
		<tag k="amenity" v="kindergarten" />
		<tag k="name" v="Tinnheia Åpne barnehage" />
		<tag k="no-barnehage:nsrid" v="1020413" />
		<tag k="operator" v="Grim Sokn" />
		<tag k="operator:type" v="private" />
	</node>
	<node id="-3058" lat="58.16944" lon="8.10137">
		<tag k="ADDRESS" v="Timenesveien 20, 4635 KRISTIANSAND S" />
		<tag k="amenity" v="kindergarten" />
		<tag k="capacity" v="21" />
		<tag k="max_age" v="5" />
		<tag k="min_age" v="1" />
		<tag k="name" v="Timenes gårds og naturbarnehage Trine Isaksen" />
		<tag k="no-barnehage:nsrid" v="1020304" />
		<tag k="operator" v="Timenes Gårds og Naturbarnehage Trine Isaksen" />
		<tag k="operator:type" v="private" />
	</node>
	<node id="-3057" lat="58.1073" lon="7.97616">
		<tag k="ADDRESS" v="Ærfuglveien 13b, 4623 KRISTIANSAND S" />
		<tag k="amenity" v="kindergarten" />
		<tag k="capacity" v="19" />
		<tag k="max_age" v="5" />
		<tag k="min_age" v="1" />
		<tag k="name" v="Ternevig barnehage" />
		<tag k="no-barnehage:nsrid" v="1020386" />
		<tag k="operator" v="Ternevig barnehage AS" />
		<tag k="operator:type" v="private" />
	</node>
	<node id="-3055" lat="58.15736" lon="8.07209">
		<tag k="ADDRESS" v="Bamse Brakars Vei 1, 4638 KRISTIANSAND S" />
		<tag k="amenity" v="kindergarten" />
		<tag k="capacity" v="79" />
		<tag k="contact:website" v="http://www.laringsverkstedet.no/barnehage/som" />
		<tag k="max_age" v="5" />
		<tag k="min_age" v="1" />
		<tag k="name" v="Solkollen barnehage Søm" />
		<tag k="no-barnehage:nsrid" v="1020815" />
		<tag k="operator" v="Solkollen barnehage Søm AS" />
		<tag k="operator:type" v="private" />
	</node>
	<node id="-3054" lat="58.14972" lon="8.00034">
		<tag k="ADDRESS" v="Gyldenløves Gate 70, 4614 KRISTIANSAND S" />
		<tag k="amenity" v="kindergarten" />
		<tag k="max_age" v="5" />
		<tag k="min_age" v="1" />
		<tag k="name" v="Sløyden barnehage" />
		<tag k="no-barnehage:nsrid" v="1016056" />
		<tag k="operator" v="Kristiansand kommune" />
		<tag k="operator:type" v="public" />
	</node>
	<node id="-3052" lat="58.16578" lon="8.01245">
		<tag k="ADDRESS" v="Presteheia 14, 4633 KRISTIANSAND S" />
		<tag k="amenity" v="kindergarten" />
		<tag k="capacity" v="114" />
		<tag k="contact:website" v="http://www.laringsverkstedet.no/presteheia" />
		<tag k="max_age" v="5" />
		<tag k="min_age" v="1" />
		<tag k="name" v="Presteheia barnehage" />
		<tag k="no-barnehage:nsrid" v="1020835" />
		<tag k="operator" v="Presteheia barnehage AS" />
		<tag k="operator:type" v="private" />
	</node>
	<node id="-3050" lat="58.15705" lon="8.08374">
		<tag k="ADDRESS" v="Høvågveien 28, 4638 KRISTIANSAND S" />
		<tag k="amenity" v="kindergarten" />
		<tag k="name" v="Nøtteliten familie barnehage" />
		<tag k="no-barnehage:nsrid" v="1020192" />
		<tag k="operator" v="Nøtteliten Familie barnehage Lykseth" />
		<tag k="operator:type" v="private" />
	</node>
	<node id="-3049" lat="58.17784" lon="8.09718">
		<tag k="ADDRESS" v="Hveteveien 42, 4635 KRISTIANSAND S" />
		<tag k="amenity" v="kindergarten" />
		<tag k="name" v="Nøtteliten barnehage" />
		<tag k="no-barnehage:nsrid" v="1020988" />
		<tag k="operator" v="Kristiansand kommune" />
		<tag k="operator:type" v="public" />
	</node>
	<node id="-3047" lat="58.21618" lon="7.92727">
		<tag k="ADDRESS" v="Mosby Ringvei 66, 4619 MOSBY" />
		<tag k="amenity" v="kindergarten" />
		<tag k="capacity" v="28" />
		<tag k="max_age" v="5" />
		<tag k="min_age" v="1" />
		<tag k="name" v="Mosby barnehage" />
		<tag k="no-barnehage:nsrid" v="1012863" />
		<tag k="operator" v="Kristiansand kommune" />
		<tag k="operator:type" v="public" />
	</node>
	<node id="-3046" lat="58.14638" lon="8.03074">
		<tag k="ADDRESS" v="Framnesveien 10, 4632 KRISTIANSAND S" />
		<tag k="amenity" v="kindergarten" />
		<tag k="capacity" v="52" />
		<tag k="max_age" v="5" />
		<tag k="min_age" v="1" />
		<tag k="name" v="Læringsverkstedet barnehage avd. Kuholmen" />
		<tag k="no-barnehage:nsrid" v="1016240" />
		<tag k="operator" v="Læringsverkstedet AS" />
		<tag k="operator:type" v="private" />
	</node>
	<node id="-3045" lat="58.22332" lon="8.11079">
		<tag k="ADDRESS" v="Topdalsveien 190, 4658 TVEIT" />
		<tag k="amenity" v="kindergarten" />
		<tag k="capacity" v="50" />
		<tag k="contact:website" v="http://laringsverkstedet.no/barnehage/tveit" />
		<tag k="max_age" v="5" />
		<tag k="min_age" v="1" />
		<tag k="name" v="Læringsverkstedet barnehage avd. Tveit" />
		<tag k="no-barnehage:nsrid" v="1025296" />
		<tag k="operator" v="Læringsverkstedet AS" />
		<tag k="operator:type" v="private" />
	</node>
	<node id="-3044" lat="58.10239" lon="7.94737">
		<tag k="ADDRESS" v="Voie Ringvei 106, 4624 KRISTIANSAND S" />
		<tag k="amenity" v="kindergarten" />
		<tag k="capacity" v="60" />
		<tag k="contact:website" v="http://www.ravneheia.no" />
		<tag k="max_age" v="5" />
		<tag k="min_age" v="1" />
		<tag k="name" v="Læringsverkstedet barnehage avd. Ravneheia" />
		<tag k="no-barnehage:nsrid" v="1020710" />
		<tag k="operator" v="Læringsverkstedet AS" />
		<tag k="operator:type" v="private" />
	</node>
	<node id="-3043" lat="58.17154" lon="8.03645">
		<tag k="ADDRESS" v="Bergtoras Vei 8, 4633 KRISTIANSAND S" />
		<tag k="amenity" v="kindergarten" />
		<tag k="capacity" v="63" />
		<tag k="contact:website" v="http://laringsverkstedet.no/gimlekollen" />
		<tag k="max_age" v="5" />
		<tag k="min_age" v="1" />
		<tag k="name" v="Læringsverkstedet barnehage avd. Gimlekollen" />
		<tag k="no-barnehage:nsrid" v="1016557" />
		<tag k="operator" v="Læringsverkstedet AS" />
		<tag k="operator:type" v="private" />
	</node>
	<node id="-3040" lat="0.0" lon="0.0">
		<tag k="ADDRESS" v="Gillesveien 45, 4633 KRISTIANSAND S" />
		<tag k="amenity" v="kindergarten" />
		<tag k="capacity" v="33" />
		<tag k="max_age" v="5" />
		<tag k="min_age" v="1" />
		<tag k="name" v="Jegersberg barnehage" />
		<tag k="no-barnehage:nsrid" v="1021404" />
		<tag k="operator" v="Jegersberg Barnehage" />
		<tag k="operator:type" v="private" />
	</node>
	<node id="-3039" lat="58.22386" lon="7.90526">
		<tag k="ADDRESS" v="Høietun 6, 4619 MOSBY" />
		<tag k="amenity" v="kindergarten" />
		<tag k="capacity" v="31" />
		<tag k="contact:website" v="http://hoietun.barnehage.no" />
		<tag k="max_age" v="5" />
		<tag k="min_age" v="1" />
		<tag k="name" v="Høietun barnehage" />
		<tag k="no-barnehage:nsrid" v="1020218" />
		<tag k="operator" v="Mosby Indremisjon" />
		<tag k="operator:type" v="private" />
	</node>
	<node id="-3038" lat="58.14801" lon="7.92203">
		<tag k="ADDRESS" v="Bydalsveien 19, 4628 KRISTIANSAND S" />
		<tag k="amenity" v="kindergarten" />
		<tag k="name" v="Hellemyr åpen barnehage" />
		<tag k="no-barnehage:nsrid" v="1020490" />
		<tag k="operator" v="Hellemyr Sokn" />
		<tag k="operator:type" v="private" />
	</node>
	<node id="-3037" lat="58.14708" lon="7.93778">
		<tag k="ADDRESS" v="Hellemyrtoppen 5, 4628 KRISTIANSAND S" />
		<tag k="amenity" v="kindergarten" />
		<tag k="capacity" v="39" />
		<tag k="max_age" v="5" />
		<tag k="min_age" v="1" />
		<tag k="name" v="Hellemyr barnehage" />
		<tag k="no-barnehage:nsrid" v="1016060" />
		<tag k="operator" v="Kristiansand kommune" />
		<tag k="operator:type" v="public" />
	</node>
	<node id="-3036" lat="58.14809" lon="7.97242">
		<tag k="ADDRESS" v="Møllevannsveien 44, 4617 KRISTIANSAND S" />
		<tag k="amenity" v="kindergarten" />
		<tag k="name" v="Grim åpen barnehage" />
		<tag k="no-barnehage:nsrid" v="1020412" />
		<tag k="operator" v="Grim Sokn" />
		<tag k="operator:type" v="private" />
	</node>
	<node id="-3035" lat="58.07433" lon="8.00101">
		<tag k="ADDRESS" v="Mæbøveien 8, 4625 FLEKKERØY" />
		<tag k="amenity" v="kindergarten" />
		<tag k="capacity" v="64" />
		<tag k="contact:website" v="http://laringsverkstedet.no/barnehage/læringsverkstedet-flekkerøya" />
		<tag k="max_age" v="5" />
		<tag k="min_age" v="1" />
		<tag k="name" v="Flekkerøya barnehage" />
		<tag k="no-barnehage:nsrid" v="1020854" />
		<tag k="operator" v="Flekkerøya barnehage AS" />
		<tag k="operator:type" v="private" />
	</node>
	<node id="-3034" lat="58.12909" lon="7.97419">
		<tag k="ADDRESS" v="Konsul Wilds Vei 20a, 4621 KRISTIANSAND S" />
		<tag k="amenity" v="kindergarten" />
		<tag k="name" v="Fiskåtangen barnehage" />
		<tag k="no-barnehage:nsrid" v="1019838" />
		<tag k="operator" v="Fiskåtangen barnehage Da" />
		<tag k="operator:type" v="private" />
	</node>
	<node id="-3033" lat="58.12909" lon="7.97419">
		<tag k="ADDRESS" v="Konsul Wilds Vei 20a, 4621 KRISTIANSAND S" />
		<tag k="amenity" v="kindergarten" />
		<tag k="capacity" v="16" />
		<tag k="contact:website" v="http://www.fiskaatangen.no" />
		<tag k="max_age" v="5" />
		<tag k="min_age" v="1" />
		<tag k="name" v="Fiskåtangen barnehage" />
		<tag k="no-barnehage:nsrid" v="1020916" />
		<tag k="operator" v="Fiskåtangen barnehage AS" />
		<tag k="operator:type" v="private" />
	</node>
	<node id="-3032" lat="58.12696" lon="8.09538">
		<tag k="ADDRESS" v="Bordalsbakken 3, 4639 KRISTIANSAND S" />
		<tag k="amenity" v="kindergarten" />
		<tag k="capacity" v="115" />
		<tag k="contact:website" v="http://www.laringsverkstedet.no/barnehage/fidje" />
		<tag k="max_age" v="5" />
		<tag k="min_age" v="1" />
		<tag k="name" v="Fidje barnehage" />
		<tag k="no-barnehage:nsrid" v="1020853" />
		<tag k="operator" v="Fidje barnehage AS" />
		<tag k="operator:type" v="private" />
	</node>
	<node id="-3030" lat="58.13204" lon="8.11493">
		<tag k="ADDRESS" v="Holteveien 13, 4639 KRISTIANSAND S" />
		<tag k="amenity" v="kindergarten" />
		<tag k="capacity" v="18" />
		<tag k="max_age" v="5" />
		<tag k="min_age" v="1" />
		<tag k="name" v="Blekkulf barnehage" />
		<tag k="no-barnehage:nsrid" v="1020248" />
		<tag k="operator" v="Blekkulf barnehage Ans" />
		<tag k="operator:type" v="private" />
	</node>
	<node id="-3029" lat="58.16021" lon="8.02414">
		<tag k="ADDRESS" v="Bispegra 42, 4632 KRISTIANSAND S" />
		<tag k="amenity" v="kindergarten" />
		<tag k="name" v="Bispegra og Marvika 3 barnehage" />
		<tag k="no-barnehage:nsrid" v="1015219" />
		<tag k="operator" v="Kristiansand kommune" />
		<tag k="operator:type" v="public" />
	</node>
	<node id="-3028" lat="58.11322" lon="7.97867">
		<tag k="ADDRESS" v="Andøyveien 101, 4623 KRISTIANSAND S" />
		<tag k="amenity" v="kindergarten" />
		<tag k="capacity" v="83" />
		<tag k="contact:website" v="http://www.andungen.com" />
		<tag k="max_age" v="5" />
		<tag k="min_age" v="1" />
		<tag k="name" v="Andungen barnehage" />
		<tag k="no-barnehage:nsrid" v="1020032" />
		<tag k="operator" v="Andungen barnehage Sa" />
		<tag k="operator:type" v="private" />
	</node>
</osm>
