<?xml version="1.0" encoding="UTF-8"?>
<osm generator="osmapis" version="0.6">
	<node id="-3065" lat="58.17735" lon="8.09646">
		<tag k="ADDRESS" v="Hveteveien 46a, 4635 KRISTIANSAND S" />
		<tag k="amenity" v="kindergarten" />
		<tag k="capacity" v="8" />
		<tag k="max_age" v="5" />
		<tag k="min_age" v="1" />
		<tag k="name" v="Åshild Ek Bråtane" />
		<tag k="no-barnehage:nsrid" v="1020855" />
		<tag k="operator" v="Åshild Ek Bråtane" />
		<tag k="operator:type" v="private" />
	</node>
	<node id="-3031" lat="58.23044" lon="8.10179">
		<tag k="ADDRESS" v="Brattvoll Platå 33, 4658 TVEIT" />
		<tag k="amenity" v="kindergarten" />
		<tag k="capacity" v="10" />
		<tag k="max_age" v="5" />
		<tag k="min_age" v="1" />
		<tag k="name" v="Brattvolltoppen familiebarnehage" />
		<tag k="no-barnehage:nsrid" v="1020764" />
		<tag k="operator" v="Brattvolltoppen Familiebarnehage Ans" />
		<tag k="operator:type" v="private" />
	</node>
	<node id="-3062" lat="58.12258" lon="7.95886">
		<tag k="ADDRESS" v="Nordre Hovedgårds Vei 3, 4621 KRISTIANSAND S" />
		<tag k="amenity" v="kindergarten" />
		<tag k="capacity" v="10" />
		<tag k="max_age" v="5" />
		<tag k="min_age" v="1" />
		<tag k="name" v="Vågsbygd familiebarnehage" />
		<tag k="no-barnehage:nsrid" v="1020160" />
		<tag k="operator" v="Vågsbygd Familiebarnehage Elin Marie Nilsen" />
		<tag k="operator:type" v="private" />
	</node>
	<node id="-3056" lat="58.15141" lon="8.01903">
		<tag k="ADDRESS" v="Freyasdalsveien 25, 4631 KRISTIANSAND S" />
		<tag k="amenity" v="kindergarten" />
		<tag k="capacity" v="8" />
		<tag k="max_age" v="2" />
		<tag k="min_age" v="1" />
		<tag k="name" v="Solsikken familebarnehage" />
		<tag k="no-barnehage:nsrid" v="1017267" />
		<tag k="operator" v="Lillebo Familiebarnehage Diane Foss" />
		<tag k="operator:type" v="private" />
	</node>
	<node id="-3053" lat="58.11678" lon="7.94708">
		<tag k="ADDRESS" v="Rognelia 17, 4622 KRISTIANSAND S" />
		<tag k="amenity" v="kindergarten" />
		<tag k="capacity" v="6" />
		<tag k="max_age" v="2" />
		<tag k="min_age" v="1" />
		<tag k="name" v="Rognelia familiebarnehage" />
		<tag k="no-barnehage:nsrid" v="1020217" />
		<tag k="operator" v="Rognelia Familiebarnehage Ans" />
		<tag k="operator:type" v="private" />
	</node>
	<node id="-3051" lat="58.15738" lon="8.08064">
		<tag k="ADDRESS" v="Ronatoppen 16, 4638 KRISTIANSAND S" />
		<tag k="amenity" v="kindergarten" />
		<tag k="capacity" v="7" />
		<tag k="max_age" v="5" />
		<tag k="min_age" v="1" />
		<tag k="name" v="Portveien familiebarnehage Lene V Engdahl" />
		<tag k="no-barnehage:nsrid" v="1020766" />
		<tag k="operator" v="Portveien Familiebarnehage Lene V Engdahl" />
		<tag k="operator:type" v="private" />
	</node>
	<node id="-3048" lat="58.13081" lon="7.96259">
		<tag k="ADDRESS" v="Blørstadkollen 5, 4626 KRISTIANSAND S" />
		<tag k="amenity" v="kindergarten" />
		<tag k="capacity" v="10" />
		<tag k="max_age" v="5" />
		<tag k="min_age" v="1" />
		<tag k="name" v="Nedre Slettheia familiebarnehage Tove M Løkke Mac Connacher" />
		<tag k="no-barnehage:nsrid" v="1020926" />
		<tag k="operator" v="Nedre Slettheia Familiebarnehage Tove Mac Connacher" />
		<tag k="operator:type" v="private" />
	</node>
	<node id="-3042" lat="58.11288" lon="7.96571">
		<tag k="ADDRESS" v="Hammerstien 6, 4623 KRISTIANSAND S" />
		<tag k="amenity" v="kindergarten" />
		<tag k="capacity" v="8" />
		<tag k="max_age" v="5" />
		<tag k="min_age" v="1" />
		<tag k="name" v="Kanutten familiebarnehage" />
		<tag k="no-barnehage:nsrid" v="1015741" />
		<tag k="operator" v="Euromix Entertainment &amp; Kanutten Familiebarnehage Hayek" />
		<tag k="operator:type" v="private" />
	</node>
	<node id="-3041" lat="0.0" lon="0.0">
		<tag k="ADDRESS" v="Kalvehagen Justnes, 4634 KRISTIANSAND S" />
		<tag k="amenity" v="kindergarten" />
		<tag k="capacity" v="22" />
		<tag k="max_age" v="5" />
		<tag k="min_age" v="1" />
		<tag k="name" v="Kalvehagen familiebarnehage" />
		<tag k="no-barnehage:nsrid" v="1020908" />
		<tag k="operator" v="Kalvehagen Familiebarnehage Da" />
		<tag k="operator:type" v="private" />
	</node>
</osm>
