<?xml version="1.0" encoding="UTF-8"?>
<osm generator="osmapis" version="0.6">
	<node id="-3072" lat="58.1775" lon="8.0923">
		<tag k="amenity" v="kindergarten" />
		<tag k="contact:email" v="esteinsland@gmail.com" />
		<tag k="name" v="Hånes Åpne barnehage" />
		<tag k="no-barnehage:nsrid" v="1013446" />
		<tag k="operator" v="Åpne Barnehager AS" />
		<tag k="operator:type" v="private" />
		<tag k="start_date" v="2003-01-01" />
	</node>
	<node id="-3071" lat="58.21587" lon="7.92529">
		<tag k="amenity" v="kindergarten" />
		<tag k="capacity" v="22" />
		<tag k="contact:email" v="hoibarn@online.no" />
		<tag k="contact:phone" v="+47 38 11 80 10" />
		<tag k="contact:website" v="http://hoietun.barnehage.no" />
		<tag k="max_age" v="5" />
		<tag k="min_age" v="1" />
		<tag k="name" v="Høietun barnehage" />
		<tag k="no-barnehage:nsrid" v="1020218" />
		<tag k="operator" v="Mosby Indremisjon" />
		<tag k="operator:type" v="private" />
		<tag k="start_date" v="1989-01-01" />
	</node>
	<node id="-3070" lat="58.1647" lon="7.99927">
		<tag k="amenity" v="kindergarten" />
		<tag k="capacity" v="135" />
		<tag k="contact:email" v="sigrid.nyhus@sia.no" />
		<tag k="max_age" v="5" />
		<tag k="min_age" v="1" />
		<tag k="name" v="Hokus Pokus barnehage Kristiansand" />
		<tag k="no-barnehage:nsrid" v="1014939" />
		<tag k="operator" v="Studentsamskipnaden i Agder" />
		<tag k="operator:type" v="private" />
		<tag k="start_date" v="1989-01-01" />
	</node>
	<node id="-3069" lat="58.1446" lon="7.96807">
		<tag k="amenity" v="kindergarten" />
		<tag k="capacity" v="82" />
		<tag k="contact:email" v="hannemor.olsen@kristiansand.kommune.no" />
		<tag k="contact:phone" v="+47 38 07 51 26" />
		<tag k="max_age" v="5" />
		<tag k="min_age" v="1" />
		<tag k="name" v="Hellinga barnehage" />
		<tag k="no-barnehage:nsrid" v="1012865" />
		<tag k="operator" v="Kristiansand kommune" />
		<tag k="operator:type" v="public" />
		<tag k="start_date" v="1993-08-01" />
	</node>
	<node id="-3068" lat="58.147" lon="7.93787">
		<tag k="amenity" v="kindergarten" />
		<tag k="capacity" v="40" />
		<tag k="contact:email" v="marit.aas@kristiansand.kommune.no" />
		<tag k="contact:phone" v="+47 38 11 37 80" />
		<tag k="max_age" v="5" />
		<tag k="min_age" v="1" />
		<tag k="name" v="Hellemyr barnehage" />
		<tag k="no-barnehage:nsrid" v="1016060" />
		<tag k="operator" v="Kristiansand kommune" />
		<tag k="operator:type" v="public" />
		<tag k="start_date" v="1989-01-01" />
	</node>
	<node id="-3067" lat="58.1901" lon="8.03766">
		<tag k="amenity" v="kindergarten" />
		<tag k="capacity" v="104" />
		<tag k="contact:email" v="yvonne.hansen@kristiansand.kommune.no" />
		<tag k="contact:phone" v="+47 38 00 73 77" />
		<tag k="max_age" v="5" />
		<tag k="min_age" v="1" />
		<tag k="name" v="Havlimyra barnehage" />
		<tag k="no-barnehage:nsrid" v="1014036" />
		<tag k="operator" v="Kristiansand kommune" />
		<tag k="operator:type" v="public" />
		<tag k="start_date" v="2009-08-01" />
	</node>
	<node id="-3066" lat="58.1921" lon="8.07957">
		<tag k="amenity" v="kindergarten" />
		<tag k="capacity" v="16" />
		<tag k="contact:email" v="bjorg.askland@kristiansand.kommune.no" />
		<tag k="contact:phone" v="+47 38 10 36 30" />
		<tag k="max_age" v="5" />
		<tag k="min_age" v="1" />
		<tag k="name" v="Hamretun barnehage" />
		<tag k="no-barnehage:nsrid" v="1016057" />
		<tag k="operator" v="Kristiansand kommune" />
		<tag k="operator:type" v="public" />
		<tag k="start_date" v="1982-01-01" />
	</node>
	<node id="-3064" lat="58.07433" lon="8.001012">
		<tag k="amenity" v="kindergarten" />
		<tag k="capacity" v="64" />
		<tag k="contact:email" v="flekkeroya@laringsverkstedet.no" />
		<tag k="contact:phone" v="+47 63 94 62 50" />
		<tag k="max_age" v="5" />
		<tag k="min_age" v="1" />
		<tag k="name" v="Flekkerøya barnehage AS" />
		<tag k="no-barnehage:nsrid" v="1020854" />
		<tag k="operator" v="Flekkerøya barnehage AS" />
		<tag k="operator:type" v="private" />
		<tag k="start_date" v="2002-10-01" />
	</node>
	<node id="-3063" lat="58.12909" lon="7.974192">
		<tag k="amenity" v="kindergarten" />
		<tag k="capacity" v="18" />
		<tag k="contact:email" v="r.rodland@online.no" />
		<tag k="contact:phone" v="+47 38 01 23 12" />
		<tag k="contact:website" v="http://www.fiskaatangen.no" />
		<tag k="max_age" v="5" />
		<tag k="min_age" v="1" />
		<tag k="name" v="Fiskåtangen barnehage AS" />
		<tag k="no-barnehage:nsrid" v="1020916" />
		<tag k="operator" v="Fiskåtangen barnehage AS" />
		<tag k="operator:type" v="private" />
		<tag k="start_date" v="1989-01-02" />
	</node>
	<node id="-3061" lat="58.12696" lon="8.095383">
		<tag k="amenity" v="kindergarten" />
		<tag k="capacity" v="117" />
		<tag k="contact:email" v="fidje@laringsverkstedet.no" />
		<tag k="contact:phone" v="+47 63 94 62 50" />
		<tag k="contact:website" v="http://www.laringsverkstedet.no/fidje" />
		<tag k="max_age" v="5" />
		<tag k="min_age" v="1" />
		<tag k="name" v="Fidje barnehage AS" />
		<tag k="no-barnehage:nsrid" v="1020853" />
		<tag k="operator" v="Fidje barnehage AS" />
		<tag k="operator:type" v="private" />
		<tag k="start_date" v="2002-06-29" />
	</node>
	<node id="-3060" lat="58.1521" lon="7.9939">
		<tag k="amenity" v="kindergarten" />
		<tag k="capacity" v="50" />
		<tag k="contact:email" v="beathe.moberg@kristiansand.kommune.no" />
		<tag k="contact:phone" v="+47 38 10 33 80" />
		<tag k="max_age" v="5" />
		<tag k="min_age" v="1" />
		<tag k="name" v="Fergefjellet barnehage" />
		<tag k="no-barnehage:nsrid" v="1016500" />
		<tag k="operator" v="Kristiansand kommune" />
		<tag k="operator:type" v="public" />
		<tag k="start_date" v="2002-09-01" />
	</node>
	<node id="-3057" lat="58.19048" lon="7.920055">
		<tag k="amenity" v="kindergarten" />
		<tag k="capacity" v="31" />
		<tag k="contact:email" v="e-bh@online.no" />
		<tag k="contact:phone" v="+47 38 11 80 93" />
		<tag k="max_age" v="5" />
		<tag k="min_age" v="3" />
		<tag k="name" v="Eventyrskogen barnehage Helleland AS" />
		<tag k="no-barnehage:nsrid" v="1021826" />
		<tag k="operator" v="Eventyrskogen barnehage Helleland AS" />
		<tag k="operator:type" v="private" />
		<tag k="start_date" v="2002-08-04" />
	</node>
	<node id="-3056" lat="58.13162" lon="8.070884">
		<tag k="amenity" v="kindergarten" />
		<tag k="capacity" v="125" />
		<tag k="contact:email" v="styrer@dvergsnes.espira.no" />
		<tag k="contact:phone" v="+47 52 84 50 20" />
		<tag k="contact:website" v="http://espira.no/" />
		<tag k="max_age" v="5" />
		<tag k="min_age" v="1" />
		<tag k="name" v="Espira Dvergsnes barnehage" />
		<tag k="no-barnehage:nsrid" v="1021632" />
		<tag k="operator" v="Espira Dvergsnes AS" />
		<tag k="operator:type" v="private" />
		<tag k="start_date" v="2007-04-26" />
	</node>
	<node id="-3055" lat="58.12526" lon="7.966465">
		<tag k="amenity" v="kindergarten" />
		<tag k="capacity" v="84" />
		<tag k="contact:email" v="styrer@eplehagen.net" />
		<tag k="contact:phone" v="+47 38013305" />
		<tag k="contact:website" v="http://www.eplehagen.net" />
		<tag k="max_age" v="5" />
		<tag k="min_age" v="1" />
		<tag k="name" v="Eplehagen barnehage Sa" />
		<tag k="no-barnehage:nsrid" v="1019771" />
		<tag k="operator" v="Eplehagen barnehage Sa" />
		<tag k="operator:type" v="private" />
		<tag k="start_date" v="1989-01-01" />
	</node>
	<node id="-3054" lat="58.15991" lon="8.018207">
		<tag k="amenity" v="kindergarten" />
		<tag k="capacity" v="144" />
		<tag k="contact:email" v="bhg.eidet@laringsverkstedet.no" />
		<tag k="contact:phone" v="+47 63 94 62 50" />
		<tag k="max_age" v="5" />
		<tag k="min_age" v="1" />
		<tag k="name" v="Eidet barnehage AS" />
		<tag k="no-barnehage:nsrid" v="1021900" />
		<tag k="operator" v="Eidet barnehage AS" />
		<tag k="operator:type" v="private" />
		<tag k="start_date" v="2008-12-08" />
	</node>
	<node id="-3052" lat="58.11304" lon="7.936649">
		<tag k="amenity" v="kindergarten" />
		<tag k="capacity" v="54" />
		<tag k="contact:email" v="braavannsaasen@laringsverkstedet.no" />
		<tag k="contact:phone" v="+47 63 94 62 50" />
		<tag k="max_age" v="5" />
		<tag k="min_age" v="1" />
		<tag k="name" v="Bråvannsåsen barnehage AS" />
		<tag k="no-barnehage:nsrid" v="1021200" />
		<tag k="operator" v="Bråvannsåsen barnehage AS" />
		<tag k="operator:type" v="private" />
		<tag k="start_date" v="2005-02-01" />
	</node>
	<node id="-3049" lat="58.15918" lon="8.015239">
		<tag k="amenity" v="kindergarten" />
		<tag k="capacity" v="20" />
		<tag k="contact:email" v="blamann@steinerbarnehage.no" />
		<tag k="contact:phone" v="+47 38 09 55 03" />
		<tag k="max_age" v="5" />
		<tag k="min_age" v="3" />
		<tag k="name" v="Blåmann Steinerbarnehage" />
		<tag k="no-barnehage:nsrid" v="1020477" />
		<tag k="operator" v="Blåmann Steinerbarnehage" />
		<tag k="operator:type" v="private" />
		<tag k="start_date" v="1997-08-01" />
	</node>
	<node id="-3048" lat="58.13205" lon="8.11494">
		<tag k="amenity" v="kindergarten" />
		<tag k="capacity" v="17" />
		<tag k="contact:email" v="blekkbhg@online.no" />
		<tag k="contact:phone" v="+47 38 04 07 77" />
		<tag k="max_age" v="5" />
		<tag k="min_age" v="1" />
		<tag k="name" v="Blekkulf barnehage Ans" />
		<tag k="no-barnehage:nsrid" v="1020248" />
		<tag k="operator" v="Blekkulf barnehage Ans" />
		<tag k="operator:type" v="private" />
		<tag k="start_date" v="1995-08-02" />
	</node>
	<node id="-3046" lat="58.1713" lon="8.02306">
		<tag k="amenity" v="kindergarten" />
		<tag k="capacity" v="67" />
		<tag k="contact:email" v="kari.nordas.lindeberg@kristiansand.kommune.no" />
		<tag k="contact:phone" v="+47 38 07 51 26" />
		<tag k="max_age" v="5" />
		<tag k="min_age" v="1" />
		<tag k="name" v="Bergtorasvei barnehage" />
		<tag k="no-barnehage:nsrid" v="1012866" />
		<tag k="operator" v="Kristiansand kommune" />
		<tag k="operator:type" v="public" />
		<tag k="start_date" v="1993-01-01" />
	</node>
	<node id="-3044" lat="58.1501" lon="8.02103">
		<tag k="amenity" v="kindergarten" />
		<tag k="capacity" v="85" />
		<tag k="contact:email" v="maren.kristine.blomstrom@kristiansand.kommune.no" />
		<tag k="contact:phone" v="+47 38 10 35 20" />
		<tag k="max_age" v="5" />
		<tag k="min_age" v="1" />
		<tag k="name" v="Bamsebo barnehage" />
		<tag k="no-barnehage:nsrid" v="1014830" />
		<tag k="operator" v="Kristiansand kommune" />
		<tag k="operator:type" v="public" />
		<tag k="start_date" v="1965-12-31" />
	</node>
	<node id="-3043" lat="58.126" lon="7.93585">
		<tag k="amenity" v="kindergarten" />
		<tag k="capacity" v="71" />
		<tag k="contact:email" v="june.solsvik@kristiansand.kommune.no" />
		<tag k="contact:phone" v="+47 38 11 37 70" />
		<tag k="max_age" v="5" />
		<tag k="min_age" v="1" />
		<tag k="name" v="Auglandstjønn barnehage" />
		<tag k="no-barnehage:nsrid" v="1016061" />
		<tag k="operator" v="Kristiansand kommune" />
		<tag k="operator:type" v="public" />
		<tag k="start_date" v="1989-01-01" />
	</node>
	<node id="-3042" lat="58.1419" lon="8.06392">
		<tag k="amenity" v="kindergarten" />
		<tag k="capacity" v="43" />
		<tag k="contact:email" v="einat.larsen@kristiansand.kommune.no" />
		<tag k="contact:phone" v="+47 38 10 36 40" />
		<tag k="max_age" v="5" />
		<tag k="min_age" v="1" />
		<tag k="name" v="Askeladden barnehage" />
		<tag k="no-barnehage:nsrid" v="1016059" />
		<tag k="operator" v="Kristiansand kommune" />
		<tag k="operator:type" v="public" />
		<tag k="start_date" v="1989-01-01" />
	</node>
	<node id="-3041" lat="58.11322" lon="7.978674">
		<tag k="amenity" v="kindergarten" />
		<tag k="capacity" v="88" />
		<tag k="contact:email" v="post@andungen.com" />
		<tag k="contact:phone" v="+47 38 08 75 40" />
		<tag k="contact:website" v="http://www.andungen.com" />
		<tag k="max_age" v="5" />
		<tag k="min_age" v="1" />
		<tag k="name" v="Andungen barnehage Sa" />
		<tag k="no-barnehage:nsrid" v="1020032" />
		<tag k="operator" v="Andungen barnehage Sa" />
		<tag k="operator:type" v="private" />
		<tag k="start_date" v="1992-01-07" />
	</node>
	<node id="-3040" lat="58.15919" lon="7.98685">
		<tag k="amenity" v="kindergarten" />
		<tag k="capacity" v="28" />
		<tag k="contact:email" v="post@alvejordet.no" />
		<tag k="contact:phone" v="+47 38 02 17 10" />
		<tag k="max_age" v="5" />
		<tag k="min_age" v="1" />
		<tag k="name" v="Alvejordet Steinerbarnehage" />
		<tag k="no-barnehage:nsrid" v="1019763" />
		<tag k="operator" v="Alvejordet Steinerbarnehage" />
		<tag k="operator:type" v="private" />
		<tag k="start_date" v="1989-01-02" />
	</node>
	<node id="-3145" lat="58.1364" lon="7.93402">
		<tag k="amenity" v="kindergarten" />
		<tag k="capacity" v="104" />
		<tag k="contact:email" v="terje.taxeras@kristiansand.kommune.no" />
		<tag k="contact:phone" v="+47 38 10 34 60" />
		<tag k="max_age" v="5" />
		<tag k="min_age" v="1" />
		<tag k="name" v="Øvre Slettheia Oppvekstsenter Avd barnehage" />
		<tag k="no-barnehage:nsrid" v="1016752" />
		<tag k="operator" v="Kristiansand kommune" />
		<tag k="operator:type" v="public" />
		<tag k="start_date" v="1976-12-24" />
	</node>
	<node id="-3144" lat="58.15094" lon="7.979105">
		<tag k="amenity" v="kindergarten" />
		<tag k="capacity" v="12" />
		<tag k="contact:email" v="wergelandsveienbarnehage@gmail.com" />
		<tag k="contact:phone" v="+47 38 02 88 95" />
		<tag k="max_age" v="5" />
		<tag k="min_age" v="1" />
		<tag k="name" v="Wergelandsveien barnehage Sa" />
		<tag k="no-barnehage:nsrid" v="1020231" />
		<tag k="operator" v="Wergelandsveien barnehage Sa" />
		<tag k="operator:type" v="private" />
		<tag k="start_date" v="1994-08-01" />
	</node>
	<node id="-3143" lat="58.1244" lon="7.95338">
		<tag k="amenity" v="kindergarten" />
		<tag k="contact:email" v="inger.margrete.aass@kristiansand.kommune.no" />
		<tag k="contact:phone" v="+47 38 07 58 00" />
		<tag k="name" v="Vågsbygd Åpne barnehage V/vågsbygd Helsestasjon" />
		<tag k="no-barnehage:nsrid" v="1015876" />
		<tag k="operator" v="Kristiansand kommune" />
		<tag k="operator:type" v="public" />
		<tag k="start_date" v="1995-01-01" />
	</node>
	<node id="-3142" lat="58.12186" lon="7.955301">
		<tag k="amenity" v="kindergarten" />
		<tag k="capacity" v="199" />
		<tag k="contact:email" v="dl.vagsbygd@bhg.no" />
		<tag k="max_age" v="5" />
		<tag k="min_age" v="1" />
		<tag k="name" v="Vågsbygd Fus barnehage AS Avd Vågsbygd" />
		<tag k="no-barnehage:nsrid" v="1022070" />
		<tag k="operator" v="Vågsbygd Fus barnehage AS" />
		<tag k="operator:type" v="private" />
		<tag k="start_date" v="2010-12-31" />
	</node>
	<node id="-3140" lat="58.104" lon="7.95797">
		<tag k="amenity" v="kindergarten" />
		<tag k="capacity" v="51" />
		<tag k="contact:email" v="bjorg.godtfredsen@kristiansand.kommune.no" />
		<tag k="contact:phone" v="+47 38 11 37 40" />
		<tag k="max_age" v="5" />
		<tag k="min_age" v="1" />
		<tag k="name" v="Voietun barnehage" />
		<tag k="no-barnehage:nsrid" v="1016753" />
		<tag k="operator" v="Kristiansand kommune" />
		<tag k="operator:type" v="public" />
		<tag k="start_date" v="1972-12-26" />
	</node>
	<node id="-3139" lat="58.10175" lon="7.947864">
		<tag k="amenity" v="kindergarten" />
		<tag k="capacity" v="10" />
		<tag k="contact:email" v="voie@hotmail.no" />
		<tag k="contact:phone" v="+47 38 01 44 46" />
		<tag k="max_age" v="5" />
		<tag k="min_age" v="1" />
		<tag k="name" v="Voie barnehage Merete Frigstad" />
		<tag k="no-barnehage:nsrid" v="1020738" />
		<tag k="operator" v="Voie barnehage Merete Frigstad" />
		<tag k="operator:type" v="private" />
		<tag k="start_date" v="1989-01-01" />
	</node>
	<node id="-3138" lat="58.1516" lon="8.0802">
		<tag k="amenity" v="kindergarten" />
		<tag k="capacity" v="64" />
		<tag k="contact:email" v="bjorg.askland@kristiansand.kommune.no" />
		<tag k="contact:phone" v="+47 38 10 36 50" />
		<tag k="max_age" v="5" />
		<tag k="min_age" v="1" />
		<tag k="name" v="Veslefrikk barnehage" />
		<tag k="no-barnehage:nsrid" v="1025321" />
		<tag k="operator" v="Kristiansand kommune" />
		<tag k="operator:type" v="public" />
		<tag k="start_date" v="1993-08-01" />
	</node>
	<node id="-3136" lat="58.1933" lon="8.08579">
		<tag k="amenity" v="kindergarten" />
		<tag k="contact:email" v="esteinsland@gmail.com" />
		<tag k="name" v="Tveit Åpne barnehage" />
		<tag k="no-barnehage:nsrid" v="1018366" />
		<tag k="operator" v="Åpne Barnehager AS" />
		<tag k="operator:type" v="private" />
		<tag k="start_date" v="2005-01-01" />
	</node>
	<node id="-3135" lat="58.24557" lon="8.145346">
		<tag k="amenity" v="kindergarten" />
		<tag k="capacity" v="34" />
		<tag k="contact:email" v="trollstua.bhg.avd.boen@gmail.com" />
		<tag k="contact:phone" v="+47 47714843" />
		<tag k="contact:website" v="http://www.trollstuaboen.barnehage.no" />
		<tag k="max_age" v="5" />
		<tag k="min_age" v="1" />
		<tag k="name" v="Trollstua barnehage Boen AS" />
		<tag k="no-barnehage:nsrid" v="1022325" />
		<tag k="operator" v="Trollstua barnehage Boen AS" />
		<tag k="operator:type" v="private" />
		<tag k="start_date" v="2010-08-02" />
	</node>
	<node id="-3134" lat="58.12921" lon="7.961834">
		<tag k="amenity" v="kindergarten" />
		<tag k="contact:email" v="toveiren@hotmail.no" />
		<tag k="contact:phone" v="+47 91168359" />
		<tag k="name" v="Trekanten Åpen barnehage" />
		<tag k="no-barnehage:nsrid" v="1021088" />
		<tag k="operator" v="Vineyard Kristne Fellesskap Kristiansand" />
		<tag k="operator:type" v="private" />
		<tag k="start_date" v="2004-03-01" />
	</node>
	<node id="-3133" lat="58.20466" lon="7.929751">
		<tag k="amenity" v="kindergarten" />
		<tag k="contact:email" v="jan.aanensen@kristiansand.kommune.no" />
		<tag k="name" v="Torridal Åpen barnehage" />
		<tag k="no-barnehage:nsrid" v="1014218" />
		<tag k="operator" v="Torridal Sokn" />
		<tag k="operator:type" v="private" />
		<tag k="start_date" v="2010-09-01" />
	</node>
	<node id="-3131" lat="58.1473" lon="7.95595">
		<tag k="amenity" v="kindergarten" />
		<tag k="capacity" v="70" />
		<tag k="contact:email" v="maria.svendsen@kristiansand.kommune.no" />
		<tag k="contact:phone" v="+47 38113700" />
		<tag k="max_age" v="5" />
		<tag k="min_age" v="1" />
		<tag k="name" v="Tinnstua barnehage" />
		<tag k="no-barnehage:nsrid" v="1015517" />
		<tag k="operator" v="Kristiansand kommune" />
		<tag k="operator:type" v="public" />
		<tag k="start_date" v="1970-12-30" />
	</node>
	<node id="-3130" lat="58.16944" lon="8.101371">
		<tag k="amenity" v="kindergarten" />
		<tag k="capacity" v="22" />
		<tag k="contact:email" v="jeisakse@online.no" />
		<tag k="contact:phone" v="+47 38 04 82 12" />
		<tag k="max_age" v="5" />
		<tag k="min_age" v="1" />
		<tag k="name" v="Timenes Gårds og Naturbarnehage Trine Isaksen" />
		<tag k="no-barnehage:nsrid" v="1020304" />
		<tag k="operator" v="Timenes Gårds og Naturbarnehage Trine Isaksen" />
		<tag k="operator:type" v="private" />
		<tag k="start_date" v="1996-07-29" />
	</node>
	<node id="-3129" lat="58.10706" lon="7.976283">
		<tag k="amenity" v="kindergarten" />
		<tag k="capacity" v="23" />
		<tag k="contact:email" v="post@ternevig-barnehage.no" />
		<tag k="contact:phone" v="+47 38 01 18 40" />
		<tag k="max_age" v="5" />
		<tag k="min_age" v="1" />
		<tag k="name" v="Ternevig barnehage AS" />
		<tag k="no-barnehage:nsrid" v="1020386" />
		<tag k="operator" v="Ternevig barnehage AS" />
		<tag k="operator:type" v="private" />
		<tag k="start_date" v="1997-08-01" />
	</node>
	<node id="-3128" lat="58.0858" lon="8.00048">
		<tag k="amenity" v="kindergarten" />
		<tag k="capacity" v="55" />
		<tag k="contact:email" v="solveig.m.voie@kristiansand.kommune.no" />
		<tag k="contact:phone" v="+47 38 10 34 90" />
		<tag k="max_age" v="5" />
		<tag k="min_age" v="1" />
		<tag k="name" v="Taremareskogen barnehage" />
		<tag k="no-barnehage:nsrid" v="1016058" />
		<tag k="operator" v="Kristiansand kommune" />
		<tag k="operator:type" v="public" />
		<tag k="start_date" v="1989-01-01" />
	</node>
	<node id="-3127" lat="58.17987" lon="8.141987">
		<tag k="amenity" v="kindergarten" />
		<tag k="capacity" v="76" />
		<tag k="contact:email" v="bhg.sorlandsparken@laringsverkstedet.no" />
		<tag k="contact:phone" v="+47 63 94 62 50" />
		<tag k="max_age" v="5" />
		<tag k="min_age" v="1" />
		<tag k="name" v="Sørlandsparken barnehage" />
		<tag k="no-barnehage:nsrid" v="1020229" />
		<tag k="operator" v="Sørlandsparken barnehage AS" />
		<tag k="operator:type" v="private" />
		<tag k="start_date" v="1994-05-31" />
	</node>
	<node id="-3126" lat="58.1595" lon="7.98848">
		<tag k="amenity" v="kindergarten" />
		<tag k="capacity" v="40" />
		<tag k="contact:email" v="kjersti.sodal@sshf.no" />
		<tag k="contact:phone" v="+47 38073370" />
		<tag k="max_age" v="5" />
		<tag k="min_age" v="1" />
		<tag k="name" v="Sørlandet Sykehus Hf Trollhaugen Barnehage" />
		<tag k="no-barnehage:nsrid" v="1015955" />
		<tag k="operator" v="Sørlandet Sykehus Hf" />
		<tag k="start_date" v="1990-01-01" />
	</node>
	<node id="-3125" lat="58.1562" lon="8.0819">
		<tag k="amenity" v="kindergarten" />
		<tag k="contact:email" v="esteinsland@gmail.com" />
		<tag k="name" v="Søm Åpne barnehage" />
		<tag k="no-barnehage:nsrid" v="1018363" />
		<tag k="operator" v="Åpne Barnehager AS" />
		<tag k="operator:type" v="private" />
		<tag k="start_date" v="2004-01-01" />
	</node>
	<node id="-3124" lat="58.1527" lon="8.05771">
		<tag k="amenity" v="kindergarten" />
		<tag k="capacity" v="34" />
		<tag k="contact:email" v="karin.stromme@kristiansand.kommune.no" />
		<tag k="contact:phone" v="+47 38 10 36 20" />
		<tag k="max_age" v="5" />
		<tag k="min_age" v="1" />
		<tag k="name" v="Søm barnehage" />
		<tag k="no-barnehage:nsrid" v="1016751" />
		<tag k="operator" v="Kristiansand kommune" />
		<tag k="operator:type" v="public" />
		<tag k="start_date" v="1976-12-24" />
	</node>
	<node id="-3123" lat="58.18848" lon="7.925419">
		<tag k="amenity" v="kindergarten" />
		<tag k="capacity" v="53" />
		<tag k="contact:email" v="straiba@start.no" />
		<tag k="contact:phone" v="+47 38 03 18 40" />
		<tag k="contact:website" v="http://www.straibarnehage.no" />
		<tag k="max_age" v="5" />
		<tag k="min_age" v="1" />
		<tag k="name" v="Strai barnehage Sa" />
		<tag k="no-barnehage:nsrid" v="1019888" />
		<tag k="operator" v="Strai barnehage Sa" />
		<tag k="operator:type" v="private" />
		<tag k="start_date" v="1989-01-02" />
	</node>
	<node id="-3122" lat="58.13719" lon="8.072199">
		<tag k="amenity" v="kindergarten" />
		<tag k="capacity" v="127" />
		<tag k="contact:email" v="gro.anita.hegg@mhwirth.com" />
		<tag k="contact:phone" v="+47 38 04 04 09" />
		<tag k="contact:website" v="http://www.maritippen.no" />
		<tag k="max_age" v="5" />
		<tag k="min_age" v="1" />
		<tag k="name" v="Stiftelsen Maritippen barnehage" />
		<tag k="no-barnehage:nsrid" v="1020034" />
		<tag k="operator" v="Stiftelsen Maritippen barnehage" />
		<tag k="operator:type" v="private" />
		<tag k="start_date" v="1993-08-01" />
	</node>
	<node id="-3121" lat="58.14686" lon="7.980185">
		<tag k="amenity" v="kindergarten" />
		<tag k="capacity" v="26" />
		<tag k="contact:email" v="st-haven@frisurf.no" />
		<tag k="contact:phone" v="+47 38027501" />
		<tag k="max_age" v="5" />
		<tag k="min_age" v="1" />
		<tag k="name" v="Stasjonshaven barnehage Al" />
		<tag k="no-barnehage:nsrid" v="1020035" />
		<tag k="operator" v="Stasjonshaven barnehage Sa" />
		<tag k="operator:type" v="private" />
		<tag k="start_date" v="1993-08-01" />
	</node>
	<node id="-3119" lat="58.15737" lon="8.072095">
		<tag k="amenity" v="kindergarten" />
		<tag k="capacity" v="78" />
		<tag k="contact:phone" v="+47 38 06 30 85" />
		<tag k="max_age" v="5" />
		<tag k="min_age" v="1" />
		<tag k="name" v="Solkollen barnehage Søm AS" />
		<tag k="no-barnehage:nsrid" v="1020815" />
		<tag k="operator" v="Solkollen barnehage Søm AS" />
		<tag k="operator:type" v="private" />
		<tag k="start_date" v="2005-08-20" />
	</node>
	<node id="-3118" lat="58.14982" lon="8.029471">
		<tag k="amenity" v="kindergarten" />
		<tag k="capacity" v="174" />
		<tag k="contact:phone" v="+47 38 02 34 00" />
		<tag k="max_age" v="5" />
		<tag k="min_age" v="1" />
		<tag k="name" v="Solkollen barnehage Hånes AS" />
		<tag k="no-barnehage:nsrid" v="1022098" />
		<tag k="operator" v="Solkollen barnehage Hånes AS" />
		<tag k="operator:type" v="private" />
		<tag k="start_date" v="2010-09-08" />
	</node>
	<node id="-3117" lat="58.15156" lon="7.927243">
		<tag k="amenity" v="kindergarten" />
		<tag k="capacity" v="143" />
		<tag k="contact:phone" v="+47 38 06 30 85" />
		<tag k="max_age" v="5" />
		<tag k="min_age" v="1" />
		<tag k="name" v="Solkollen barnehage Hellemyr AS" />
		<tag k="no-barnehage:nsrid" v="1020713" />
		<tag k="operator" v="Solkollen barnehage Hellemyr AS" />
		<tag k="operator:type" v="private" />
		<tag k="start_date" v="2001-08-01" />
	</node>
	<node id="-3116" lat="58.14982" lon="8.029471">
		<tag k="amenity" v="kindergarten" />
		<tag k="capacity" v="105" />
		<tag k="contact:phone" v="+47 38 06 30 85" />
		<tag k="max_age" v="5" />
		<tag k="min_age" v="1" />
		<tag k="name" v="Solkollen barnehage Flekkerøy AS" />
		<tag k="no-barnehage:nsrid" v="1022068" />
		<tag k="operator" v="Solkollen barnehage Flekkerøy AS" />
		<tag k="operator:type" v="private" />
		<tag k="start_date" v="2010-06-03" />
	</node>
	<node id="-3114" lat="58.1497" lon="8.00024">
		<tag k="amenity" v="kindergarten" />
		<tag k="capacity" v="18" />
		<tag k="contact:email" v="beathe.moberg@kristiansand.kommune.no" />
		<tag k="contact:phone" v="+47 38 10 33 88" />
		<tag k="max_age" v="5" />
		<tag k="min_age" v="1" />
		<tag k="name" v="Sløyden barnehage" />
		<tag k="no-barnehage:nsrid" v="1016056" />
		<tag k="operator" v="Kristiansand kommune" />
		<tag k="operator:type" v="public" />
		<tag k="start_date" v="1989-01-02" />
	</node>
	<node id="-3112" lat="58.1184" lon="7.96416">
		<tag k="amenity" v="kindergarten" />
		<tag k="capacity" v="52" />
		<tag k="contact:email" v="helle.schiotz@kristiansand.kommune.no" />
		<tag k="contact:phone" v="+47 38 11 37 20" />
		<tag k="max_age" v="5" />
		<tag k="min_age" v="1" />
		<tag k="name" v="Skårungen barnehage" />
		<tag k="no-barnehage:nsrid" v="1012862" />
		<tag k="operator" v="Kristiansand kommune" />
		<tag k="operator:type" v="public" />
		<tag k="start_date" v="1965-12-31" />
	</node>
	<node id="-3111" lat="58.1454" lon="8.0028">
		<tag k="amenity" v="kindergarten" />
		<tag k="contact:email" v="esteinsland@gmail.com" />
		<tag k="name" v="Sentrum Åpne barnehage" />
		<tag k="no-barnehage:nsrid" v="1018364" />
		<tag k="operator" v="Åpne Barnehager AS" />
		<tag k="operator:type" v="private" />
		<tag k="start_date" v="2005-01-01" />
	</node>
	<node id="-3110" lat="58.149" lon="8.02859">
		<tag k="amenity" v="kindergarten" />
		<tag k="capacity" v="216" />
		<tag k="contact:email" v="anne.hagen@kristiansand.kommune.no" />
		<tag k="contact:phone" v="+47 38 10 35 30" />
		<tag k="max_age" v="5" />
		<tag k="min_age" v="1" />
		<tag k="name" v="Roligheden barnehage" />
		<tag k="no-barnehage:nsrid" v="1016172" />
		<tag k="operator" v="Kristiansand kommune" />
		<tag k="operator:type" v="public" />
		<tag k="start_date" v="1965-12-31" />
	</node>
	<node id="-3108" lat="58.14265" lon="7.996832">
		<tag k="amenity" v="kindergarten" />
		<tag k="capacity" v="18" />
		<tag k="contact:email" v="revebono@online.no" />
		<tag k="contact:phone" v="+47 38 02 22 97" />
		<tag k="max_age" v="5" />
		<tag k="min_age" v="3" />
		<tag k="name" v="Revehiet Naturbarnehage AS" />
		<tag k="no-barnehage:nsrid" v="1021000" />
		<tag k="operator" v="Revehiet Naturbarnehage AS" />
		<tag k="operator:type" v="private" />
		<tag k="start_date" v="2000-11-28" />
	</node>
	<node id="-3107" lat="58.20938" lon="8.105407">
		<tag k="amenity" v="kindergarten" />
		<tag k="capacity" v="13" />
		<tag k="contact:email" v="liskroh@online.no" />
		<tag k="contact:phone" v="+47 41 61 53 79" />
		<tag k="max_age" v="5" />
		<tag k="min_age" v="1" />
		<tag k="name" v="Refshalen Gård barnehage" />
		<tag k="no-barnehage:nsrid" v="1020697" />
		<tag k="operator" v="Lisbeth Krons barnehage" />
		<tag k="operator:type" v="private" />
		<tag k="start_date" v="2001-01-01" />
	</node>
	<node id="-3106" lat="58.10276" lon="7.948049">
		<tag k="amenity" v="kindergarten" />
		<tag k="capacity" v="63" />
		<tag k="contact:email" v="ravneheia@laringsverkstedet.no" />
		<tag k="contact:phone" v="+47 38 00 28 60" />
		<tag k="contact:website" v="http://www.ravneheia.no" />
		<tag k="max_age" v="5" />
		<tag k="min_age" v="1" />
		<tag k="name" v="Ravneheia barnehage Sa" />
		<tag k="no-barnehage:nsrid" v="1020710" />
		<tag k="operator" v="Ravneheia barnehage Sa" />
		<tag k="operator:type" v="private" />
		<tag k="start_date" v="2001-09-30" />
	</node>
	<node id="-3105" lat="58.1527" lon="7.97456">
		<tag k="amenity" v="kindergarten" />
		<tag k="capacity" v="57" />
		<tag k="contact:email" v="kari.helene.wivestad@kristiansand.kommune.no" />
		<tag k="contact:phone" v="+47 38 10 34 10" />
		<tag k="max_age" v="5" />
		<tag k="min_age" v="1" />
		<tag k="name" v="Ravnedalen barnehage" />
		<tag k="no-barnehage:nsrid" v="1016062" />
		<tag k="operator" v="Kristiansand kommune" />
		<tag k="operator:type" v="public" />
		<tag k="start_date" v="1989-01-01" />
	</node>
	<node id="-3104" lat="58.1247" lon="8.09891">
		<tag k="amenity" v="kindergarten" />
		<tag k="contact:email" v="esteinsland@gmail.com" />
		<tag k="name" v="Randesund Åpne barnehage" />
		<tag k="no-barnehage:nsrid" v="1013447" />
		<tag k="operator" v="Åpne Barnehager AS" />
		<tag k="operator:type" v="private" />
		<tag k="start_date" v="2006-01-01" />
	</node>
	<node id="-3103" lat="58.1296" lon="8.12064">
		<tag k="amenity" v="kindergarten" />
		<tag k="capacity" v="25" />
		<tag k="contact:email" v="gaardsbarnehagen@gmail.com" />
		<tag k="max_age" v="5" />
		<tag k="min_age" v="1" />
		<tag k="name" v="Rakkerungan Gårdsbarnehage" />
		<tag k="no-barnehage:nsrid" v="1018548" />
		<tag k="operator" v="Rakkerungan Barnehagedrift AS" />
		<tag k="operator:type" v="private" />
		<tag k="start_date" v="2008-01-01" />
	</node>
	<node id="-3102" lat="58.1719" lon="8.0895">
		<tag k="amenity" v="kindergarten" />
		<tag k="capacity" v="22" />
		<tag k="contact:email" v="styrer@rakkerungan.no" />
		<tag k="contact:phone" v="+47 38021130" />
		<tag k="contact:website" v="http://www.rakkerungan.no" />
		<tag k="max_age" v="5" />
		<tag k="min_age" v="1" />
		<tag k="name" v="Rakkerungan barnehage" />
		<tag k="no-barnehage:nsrid" v="1013015" />
		<tag k="operator" v="Rakkerungan Barnehagedrift AS" />
		<tag k="operator:type" v="private" />
		<tag k="start_date" v="2004-05-01" />
	</node>
	<node id="-3101" lat="58.16578" lon="8.012456">
		<tag k="amenity" v="kindergarten" />
		<tag k="capacity" v="115" />
		<tag k="contact:email" v="presteheia@laringsverkstedet.no" />
		<tag k="contact:phone" v="+47 63 94 62 50" />
		<tag k="max_age" v="5" />
		<tag k="min_age" v="1" />
		<tag k="name" v="Presteheia barnehage AS" />
		<tag k="no-barnehage:nsrid" v="1020835" />
		<tag k="operator" v="Presteheia barnehage AS" />
		<tag k="operator:type" v="private" />
		<tag k="start_date" v="2002-06-29" />
	</node>
	<node id="-3099" lat="58.1405" lon="7.99785">
		<tag k="amenity" v="kindergarten" />
		<tag k="capacity" v="44" />
		<tag k="contact:email" v="sylvi.hjertvik@kristiansand.kommune.no" />
		<tag k="contact:phone" v="+47 38 00 74 40" />
		<tag k="max_age" v="5" />
		<tag k="min_age" v="1" />
		<tag k="name" v="Odderøya barnehage" />
		<tag k="no-barnehage:nsrid" v="1018330" />
		<tag k="operator" v="Kristiansand kommune" />
		<tag k="operator:type" v="public" />
		<tag k="start_date" v="2008-02-01" />
	</node>
	<node id="-3097" lat="58.1474" lon="7.97209">
		<tag k="amenity" v="kindergarten" />
		<tag k="capacity" v="92" />
		<tag k="contact:email" v="guri.mortensen@kristiansand.kommune.no" />
		<tag k="contact:phone" v="+47 91 34 19 83" />
		<tag k="max_age" v="5" />
		<tag k="min_age" v="1" />
		<tag k="name" v="Møllestua barnehage" />
		<tag k="no-barnehage:nsrid" v="1012861" />
		<tag k="operator" v="Kristiansand kommune" />
		<tag k="operator:type" v="public" />
		<tag k="start_date" v="1989-01-01" />
	</node>
	<node id="-3096" lat="58.10362" lon="7.973671">
		<tag k="amenity" v="kindergarten" />
		<tag k="capacity" v="30" />
		<tag k="contact:email" v="mummidalen@mum.no" />
		<tag k="max_age" v="5" />
		<tag k="min_age" v="1" />
		<tag k="name" v="Mummidalen barnehage AS" />
		<tag k="no-barnehage:nsrid" v="1022102" />
		<tag k="operator" v="Mummidalen barnehage AS" />
		<tag k="operator:type" v="private" />
		<tag k="start_date" v="2010-09-23" />
	</node>
	<node id="-3095" lat="58.2203" lon="7.92466">
		<tag k="amenity" v="kindergarten" />
		<tag k="capacity" v="48" />
		<tag k="contact:email" v="karen.stenslund@kristiansand.kommune.no" />
		<tag k="max_age" v="5" />
		<tag k="min_age" v="3" />
		<tag k="name" v="Mosby Oppvekstsenter Avd barnehage" />
		<tag k="no-barnehage:nsrid" v="1013586" />
		<tag k="operator" v="Kristiansand kommune" />
		<tag k="operator:type" v="public" />
		<tag k="start_date" v="2013-08-01" />
	</node>
	<node id="-3094" lat="58.2162" lon="7.92726">
		<tag k="amenity" v="kindergarten" />
		<tag k="capacity" v="35" />
		<tag k="contact:email" v="karen.stenslund@kristiansand.kommune.no" />
		<tag k="contact:phone" v="+47 38 10 33 88" />
		<tag k="max_age" v="5" />
		<tag k="min_age" v="1" />
		<tag k="name" v="Mosby barnehage" />
		<tag k="no-barnehage:nsrid" v="1012863" />
		<tag k="operator" v="Kristiansand kommune" />
		<tag k="operator:type" v="public" />
		<tag k="start_date" v="1993-08-01" />
	</node>
	<node id="-3093" lat="58.13622" lon="8.078762">
		<tag k="amenity" v="kindergarten" />
		<tag k="capacity" v="76" />
		<tag k="contact:email" v="kjetilahauge@gmail.com" />
		<tag k="contact:phone" v="+47 38 05 64 90" />
		<tag k="contact:website" v="http://www.maurtuabarnehage.no" />
		<tag k="max_age" v="5" />
		<tag k="min_age" v="1" />
		<tag k="name" v="Maurtua barnehage Sa" />
		<tag k="no-barnehage:nsrid" v="1020159" />
		<tag k="operator" v="Maurtua barnehage Sa" />
		<tag k="operator:type" v="private" />
		<tag k="start_date" v="1993-08-01" />
	</node>
	<node id="-3092" lat="58.2233" lon="8.11078">
		<tag k="amenity" v="kindergarten" />
		<tag k="capacity" v="51" />
		<tag k="contact:email" v="bhg.tveit@laringsverkstedet.no" />
		<tag k="max_age" v="5" />
		<tag k="min_age" v="1" />
		<tag k="name" v="Læringsverkstedet barnehage Avd Tveit" />
		<tag k="no-barnehage:nsrid" v="1025296" />
		<tag k="operator" v="Læringsverkstedet AS" />
		<tag k="operator:type" v="private" />
		<tag k="start_date" v="1993-08-01" />
	</node>
	<node id="-3091" lat="58.1478" lon="7.92275">
		<tag k="amenity" v="kindergarten" />
		<tag k="capacity" v="40" />
		<tag k="contact:email" v="bhg.skomagergada@laringsverkstedet.no" />
		<tag k="max_age" v="5" />
		<tag k="min_age" v="1" />
		<tag k="name" v="Læringsverkstedet barnehage Avd Skomakergada" />
		<tag k="no-barnehage:nsrid" v="1014812" />
		<tag k="operator" v="Læringsverkstedet AS" />
		<tag k="operator:type" v="private" />
		<tag k="start_date" v="1995-07-01" />
	</node>
	<node id="-3090" lat="58.1464" lon="8.03075">
		<tag k="amenity" v="kindergarten" />
		<tag k="capacity" v="54" />
		<tag k="contact:email" v="kuholmen@laringsverkstedet.no" />
		<tag k="max_age" v="5" />
		<tag k="min_age" v="1" />
		<tag k="name" v="Læringsverkstedet barnehage Avd Kuholmen" />
		<tag k="no-barnehage:nsrid" v="1016240" />
		<tag k="operator" v="Læringsverkstedet AS" />
		<tag k="operator:type" v="private" />
		<tag k="start_date" v="1995-03-29" />
	</node>
	<node id="-3089" lat="58.1482" lon="7.96643">
		<tag k="amenity" v="kindergarten" />
		<tag k="capacity" v="32" />
		<tag k="contact:email" v="bhg.grim@laringsverkstedet.no" />
		<tag k="max_age" v="5" />
		<tag k="min_age" v="1" />
		<tag k="name" v="Læringsverkstedet barnehage Avd Grim" />
		<tag k="no-barnehage:nsrid" v="1016601" />
		<tag k="operator" v="Læringsverkstedet AS" />
		<tag k="operator:type" v="private" />
		<tag k="start_date" v="2003-12-01" />
	</node>
	<node id="-3088" lat="58.1715" lon="8.03644">
		<tag k="amenity" v="kindergarten" />
		<tag k="capacity" v="62" />
		<tag k="contact:email" v="bhg.gimlekollen@laringsverkstedet.no" />
		<tag k="max_age" v="5" />
		<tag k="min_age" v="1" />
		<tag k="name" v="Læringsverkstedet barnehage Avd Gimlekollen" />
		<tag k="no-barnehage:nsrid" v="1016557" />
		<tag k="operator" v="Læringsverkstedet AS" />
		<tag k="operator:type" v="private" />
		<tag k="start_date" v="2003-07-30" />
	</node>
	<node id="-3087" lat="58.1584" lon="8.0228">
		<tag k="amenity" v="kindergarten" />
		<tag k="capacity" v="64" />
		<tag k="contact:email" v="bispegra@laringsverkstedet.no" />
		<tag k="contact:phone" v="+47 37 07 15 69" />
		<tag k="contact:website" v="http://laringsverkstedet.no/lund" />
		<tag k="max_age" v="5" />
		<tag k="min_age" v="1" />
		<tag k="name" v="Læringsverkstedet barnehage Avd Bispegra" />
		<tag k="no-barnehage:nsrid" v="1015979" />
		<tag k="operator" v="Læringsverkstedet AS" />
		<tag k="operator:type" v="private" />
		<tag k="start_date" v="1993-08-01" />
	</node>
	<node id="-3086" lat="58.15263" lon="8.011456">
		<tag k="amenity" v="kindergarten" />
		<tag k="capacity" v="37" />
		<tag k="contact:email" v="kristin@lundbarnehage.no" />
		<tag k="contact:phone" v="+47 042906630" />
		<tag k="max_age" v="5" />
		<tag k="min_age" v="1" />
		<tag k="name" v="Lund barnehage AS" />
		<tag k="no-barnehage:nsrid" v="1021960" />
		<tag k="operator" v="Lund barnehage AS" />
		<tag k="operator:type" v="private" />
		<tag k="start_date" v="1976-12-24" />
	</node>
	<node id="-3085" lat="58.1338" lon="7.96285">
		<tag k="amenity" v="kindergarten" />
		<tag k="capacity" v="70" />
		<tag k="contact:email" v="janne.i.eikaas@kristiansand.kommune.no" />
		<tag k="contact:phone" v="+47 38 00 72 10" />
		<tag k="max_age" v="5" />
		<tag k="min_age" v="1" />
		<tag k="name" v="Linerla barnehage" />
		<tag k="no-barnehage:nsrid" v="1012867" />
		<tag k="operator" v="Kristiansand kommune" />
		<tag k="operator:type" v="public" />
		<tag k="start_date" v="1993-08-01" />
	</node>
	<node id="-3084" lat="58.17689" lon="8.028502">
		<tag k="amenity" v="kindergarten" />
		<tag k="capacity" v="129" />
		<tag k="contact:email" v="dl.lindtjonn@bhg.no" />
		<tag k="max_age" v="5" />
		<tag k="min_age" v="1" />
		<tag k="name" v="Lindtjønn Fus barnehage AS Avd Louises Vei" />
		<tag k="no-barnehage:nsrid" v="1021321" />
		<tag k="operator" v="Lindtjønn Fus barnehage AS" />
		<tag k="operator:type" v="private" />
		<tag k="start_date" v="2005-10-10" />
	</node>
	<node id="-3082" lat="58.14638" lon="8.030746">
		<tag k="amenity" v="kindergarten" />
		<tag k="capacity" v="110" />
		<tag k="contact:email" v="bhg.liantjonn@laringsverkstedet.no" />
		<tag k="contact:phone" v="+47 63 94 62 50" />
		<tag k="max_age" v="5" />
		<tag k="min_age" v="1" />
		<tag k="name" v="Liantjønn barnehage AS" />
		<tag k="no-barnehage:nsrid" v="1021091" />
		<tag k="operator" v="Liantjønn barnehage AS" />
		<tag k="operator:type" v="private" />
		<tag k="start_date" v="2004-07-06" />
	</node>
	<node id="-3081" lat="58.1566" lon="8.01741">
		<tag k="amenity" v="kindergarten" />
		<tag k="capacity" v="60" />
		<tag k="contact:email" v="may.b.aanundsen@kristiansand.kommune.no" />
		<tag k="contact:phone" v="+47 38 10 35 10" />
		<tag k="max_age" v="5" />
		<tag k="min_age" v="1" />
		<tag k="name" v="Kongsgård Flyktningebarnehage" />
		<tag k="no-barnehage:nsrid" v="1015716" />
		<tag k="operator" v="Kristiansand kommune" />
		<tag k="operator:type" v="public" />
		<tag k="start_date" v="1999-01-01" />
	</node>
	<node id="-3079" lat="58.144" lon="7.99859">
		<tag k="amenity" v="kindergarten" />
		<tag k="capacity" v="53" />
		<tag k="contact:email" v="kirsti.tellefsen@kristiansand.kommune.no" />
		<tag k="contact:phone" v="+47 38 10 34 30" />
		<tag k="max_age" v="5" />
		<tag k="min_age" v="1" />
		<tag k="name" v="Kløvergården barnehage" />
		<tag k="no-barnehage:nsrid" v="1015446" />
		<tag k="operator" v="Kristiansand kommune" />
		<tag k="operator:type" v="public" />
		<tag k="start_date" v="1976-12-24" />
	</node>
	<node id="-3078" lat="58.1288" lon="7.94885">
		<tag k="amenity" v="kindergarten" />
		<tag k="capacity" v="60" />
		<tag k="contact:email" v="helle.schiotz@kristiansand.kommune.no" />
		<tag k="contact:phone" v="+47 38 11 37 60" />
		<tag k="max_age" v="5" />
		<tag k="min_age" v="1" />
		<tag k="name" v="Karuss barnehage" />
		<tag k="no-barnehage:nsrid" v="1016063" />
		<tag k="operator" v="Kristiansand kommune" />
		<tag k="operator:type" v="public" />
		<tag k="start_date" v="1965-12-31" />
	</node>
	<node id="-3075" lat="58.2003" lon="8.033">
		<tag k="amenity" v="kindergarten" />
		<tag k="contact:email" v="esteinsland@gmail.com" />
		<tag k="name" v="Justvik Åpne barnehage" />
		<tag k="no-barnehage:nsrid" v="1018365" />
		<tag k="operator" v="Åpne Barnehager AS" />
		<tag k="operator:type" v="private" />
		<tag k="start_date" v="2004-01-01" />
	</node>
	<node id="-3074" lat="58.1751" lon="8.09163">
		<tag k="amenity" v="kindergarten" />
		<tag k="capacity" v="69" />
		<tag k="contact:email" v="elfrid.jortveit@kristiansand.kommune.no" />
		<tag k="contact:phone" v="+47 38 10 36 00" />
		<tag k="max_age" v="5" />
		<tag k="min_age" v="1" />
		<tag k="name" v="Jordbærveien barnehage" />
		<tag k="no-barnehage:nsrid" v="1012864" />
		<tag k="operator" v="Kristiansand kommune" />
		<tag k="operator:type" v="public" />
		<tag k="start_date" v="1991-01-01" />
	</node>
	<node id="-3073" lat="58.18037" lon="8.012461">
		<tag k="amenity" v="kindergarten" />
		<tag k="capacity" v="34" />
		<tag k="contact:email" v="inga.stoveland@hotmail.no" />
		<tag k="contact:phone" v="+47 47383734" />
		<tag k="max_age" v="5" />
		<tag k="min_age" v="1" />
		<tag k="name" v="Jegersberg Barnehage" />
		<tag k="no-barnehage:nsrid" v="1021404" />
		<tag k="operator" v="Jegersberg Barnehage" />
		<tag k="operator:type" v="private" />
		<tag k="start_date" v="2006-03-08" />
	</node>
</osm>
