<?xml version="1.0" encoding="UTF-8"?>
<osm generator="osmapis" version="0.6">
	<node id="-3200" lat="58.15738" lon="8.080633">
		<tag k="amenity" v="kindergarten" />
		<tag k="capacity" v="10" />
		<tag k="contact:phone" v="38 02 15 57" />
		<tag k="max_age" v="5" />
		<tag k="min_age" v="1" />
		<tag k="name" v="Portveien Familiebarnehage Lene V Engdahl" />
		<tag k="no-barnehage:nsrid" v="1020766" />
		<tag k="operator" v="Portveien Familiebarnehage Lene V Engdahl" />
		<tag k="operator:type" v="private" />
		<tag k="start_date" v="2002-01-21" />
	</node>
	<node id="-3198" lat="58.13095" lon="7.962581">
		<tag k="amenity" v="kindergarten" />
		<tag k="capacity" v="9" />
		<tag k="contact:email" v="andy.macconnacher@byggsor.no" />
		<tag k="contact:phone" v="38 01 03 18" />
		<tag k="max_age" v="5" />
		<tag k="min_age" v="1" />
		<tag k="name" v="Nedre Slettheia Familiebarnehage Tove M Løkke Mac Connacher" />
		<tag k="no-barnehage:nsrid" v="1020926" />
		<tag k="operator" v="Nedre Slettheia Familiebarnehage Tove Mac Connacher" />
		<tag k="operator:type" v="private" />
		<tag k="start_date" v="2003-08-01" />
	</node>
	<node id="-3196" lat="58.2273" lon="8.11541">
		<tag k="amenity" v="kindergarten" />
		<tag k="capacity" v="10" />
		<tag k="contact:phone" v="38 06 36 35" />
		<tag k="max_age" v="5" />
		<tag k="min_age" v="1" />
		<tag k="name" v="Mølledammen Gård Familiebarnehage AS" />
		<tag k="no-barnehage:nsrid" v="1022380" />
		<tag k="operator" v="Mølledammen Gård Familiebarnehage AS" />
		<tag k="operator:type" v="private" />
		<tag k="start_date" v="2000-08-01" />
	</node>
	<node id="-3182" lat="58.15154" lon="8.019487">
		<tag k="amenity" v="kindergarten" />
		<tag k="capacity" v="8" />
		<tag k="contact:phone" v="97771318" />
		<tag k="max_age" v="2" />
		<tag k="min_age" v="1" />
		<tag k="name" v="Lillebo Familiebarnehage Diane Foss" />
		<tag k="no-barnehage:nsrid" v="1016442" />
		<tag k="operator" v="Lillebo Familiebarnehage Diane Foss" />
		<tag k="operator:type" v="private" />
		<tag k="start_date" v="2002-08-01" />
	</node>
	<node id="-3180" lat="58.1465" lon="7.953043">
		<tag k="amenity" v="kindergarten" />
		<tag k="capacity" v="8" />
		<tag k="max_age" v="2" />
		<tag k="min_age" v="1" />
		<tag k="name" v="Kranterima Ltd" />
		<tag k="no-barnehage:nsrid" v="1022030" />
		<tag k="operator" v="Kranterima Ltd" />
		<tag k="operator:type" v="private" />
		<tag k="start_date" v="2010-02-19" />
	</node>
	<node id="-3178" lat="58.14507" lon="7.957846">
		<tag k="amenity" v="kindergarten" />
		<tag k="capacity" v="8" />
		<tag k="contact:email" v="jon.tellefsen@losmail.no" />
		<tag k="contact:phone" v="38 01 15 11" />
		<tag k="max_age" v="5" />
		<tag k="min_age" v="1" />
		<tag k="name" v="Knøttebo Familiebarnehage Linda Tøllefsen" />
		<tag k="no-barnehage:nsrid" v="1021583" />
		<tag k="operator" v="Knøttebo Familiebarnehage Linda Tellefsen" />
		<tag k="operator:type" v="private" />
		<tag k="start_date" v="2006-11-28" />
	</node>
	<node id="-3175" lat="58.11288" lon="7.965714">
		<tag k="amenity" v="kindergarten" />
		<tag k="capacity" v="10" />
		<tag k="contact:phone" v="38 06 33 60" />
		<tag k="max_age" v="5" />
		<tag k="min_age" v="1" />
		<tag k="name" v="Kanutten Familiebarnehage" />
		<tag k="no-barnehage:nsrid" v="1015741" />
		<tag k="operator" v="Euromix Entertainment &amp; Kanutten Familiebarnehage Hayek" />
		<tag k="operator:type" v="private" />
		<tag k="start_date" v="1999-02-01" />
	</node>
	<node id="-3174" lat="58.15991" lon="8.018207">
		<tag k="amenity" v="kindergarten" />
		<tag k="capacity" v="22" />
		<tag k="contact:phone" v="38 19 88 70" />
		<tag k="max_age" v="5" />
		<tag k="min_age" v="1" />
		<tag k="name" v="Kalvehagen Familiebarnehage Da" />
		<tag k="no-barnehage:nsrid" v="1020908" />
		<tag k="operator" v="Kalvehagen Familiebarnehage Da" />
		<tag k="operator:type" v="private" />
		<tag k="start_date" v="2002-08-01" />
	</node>
	<node id="-3163" lat="58.18882" lon="7.931221">
		<tag k="amenity" v="kindergarten" />
		<tag k="capacity" v="9" />
		<tag k="contact:email" v="jenserikmosby@ymail.com" />
		<tag k="contact:phone" v="48247414" />
		<tag k="max_age" v="2" />
		<tag k="min_age" v="1" />
		<tag k="name" v="Gangdalen Familiebarnehage Da" />
		<tag k="no-barnehage:nsrid" v="1021890" />
		<tag k="operator" v="Gangdalen Familiebarnehage Da" />
		<tag k="operator:type" v="private" />
		<tag k="start_date" v="2008-10-10" />
	</node>
	<node id="-3160" lat="58.14618" lon="7.91659">
		<tag k="amenity" v="kindergarten" />
		<tag k="capacity" v="10" />
		<tag k="max_age" v="5" />
		<tag k="min_age" v="1" />
		<tag k="name" v="Fidjemoen Familiebarnehage Maria Skafsgaard" />
		<tag k="no-barnehage:nsrid" v="1021747" />
		<tag k="operator" v="Fidjemoen Familiebanehage Maria Skafsgaard" />
		<tag k="operator:type" v="private" />
		<tag k="start_date" v="2008-02-01" />
	</node>
	<node id="-3157" lat="58.2051" lon="7.90799">
		<tag k="amenity" v="kindergarten" />
		<tag k="capacity" v="10" />
		<tag k="contact:email" v="fantebakken@yahoo.no" />
		<tag k="contact:phone" v="41638067" />
		<tag k="max_age" v="5" />
		<tag k="min_age" v="1" />
		<tag k="name" v="Fantebakken Familiebarnehage Avd Knærten" />
		<tag k="no-barnehage:nsrid" v="1015838" />
		<tag k="operator" v="Gunillas Etg. AS" />
		<tag k="operator:type" v="private" />
		<tag k="start_date" v="2000-08-01" />
	</node>
	<node id="-3156" lat="58.2051" lon="7.90799">
		<tag k="amenity" v="kindergarten" />
		<tag k="capacity" v="11" />
		<tag k="contact:email" v="fantebakken@yahoo.no" />
		<tag k="contact:phone" v="41638067" />
		<tag k="max_age" v="5" />
		<tag k="min_age" v="1" />
		<tag k="name" v="Fantebakken Familiebarnehage Avd Kanutten" />
		<tag k="no-barnehage:nsrid" v="1018395" />
		<tag k="operator" v="Gunillas Etg. AS" />
		<tag k="operator:type" v="private" />
		<tag k="start_date" v="2008-08-01" />
	</node>
	<node id="-3152" lat="58.13884" lon="7.952325">
		<tag k="amenity" v="kindergarten" />
		<tag k="capacity" v="8" />
		<tag k="contact:phone" v="38 01 43 86" />
		<tag k="max_age" v="2" />
		<tag k="min_age" v="1" />
		<tag k="name" v="Eigevannskollen Familiebarnehage" />
		<tag k="no-barnehage:nsrid" v="1015814" />
		<tag k="operator" v="Lille Brum Fam.Bhg avd Eigevannskollen Anne-Lise Olsen" />
		<tag k="operator:type" v="private" />
		<tag k="start_date" v="2000-02-01" />
	</node>
	<node id="-3150" lat="58.17584" lon="8.044929">
		<tag k="amenity" v="kindergarten" />
		<tag k="capacity" v="8" />
		<tag k="contact:email" v="jannorda@online.no" />
		<tag k="contact:phone" v="41792689" />
		<tag k="max_age" v="2" />
		<tag k="min_age" v="1" />
		<tag k="name" v="Dino/nemo Familiebarnehage Ans" />
		<tag k="no-barnehage:nsrid" v="1021871" />
		<tag k="operator" v="Dino/nemo Familiebarnehage Ans" />
		<tag k="operator:type" v="private" />
		<tag k="start_date" v="2008-01-01" />
	</node>
	<node id="-3148" lat="58.23044" lon="8.101796">
		<tag k="amenity" v="kindergarten" />
		<tag k="capacity" v="10" />
		<tag k="contact:phone" v="38 06 37 01" />
		<tag k="max_age" v="5" />
		<tag k="min_age" v="1" />
		<tag k="name" v="Brattvolltoppen Familiebarnehage Ans" />
		<tag k="no-barnehage:nsrid" v="1020764" />
		<tag k="operator" v="Brattvolltoppen Familiebarnehage Ans" />
		<tag k="operator:type" v="private" />
		<tag k="start_date" v="2002-01-08" />
	</node>
	<node id="-3147" lat="58.13149" lon="7.948723">
		<tag k="amenity" v="kindergarten" />
		<tag k="capacity" v="8" />
		<tag k="contact:email" v="lene.nomeland@getmail.no" />
		<tag k="contact:phone" v="47294355" />
		<tag k="max_age" v="2" />
		<tag k="min_age" v="1" />
		<tag k="name" v="Bokfinken Familiebarnehage Da" />
		<tag k="no-barnehage:nsrid" v="1021801" />
		<tag k="operator" v="Bokfinken Familiebarnehage Da" />
		<tag k="operator:type" v="private" />
		<tag k="start_date" v="2008-05-06" />
	</node>
	<node id="-3144" lat="58.16876" lon="8.095366">
		<tag k="amenity" v="kindergarten" />
		<tag k="capacity" v="9" />
		<tag k="contact:phone" v="38 04 41 96" />
		<tag k="max_age" v="5" />
		<tag k="min_age" v="1" />
		<tag k="name" v="Berhuskollen Familiebarnehage Heidi Veronica Kjellevik" />
		<tag k="no-barnehage:nsrid" v="1020665" />
		<tag k="operator" v="Berhuskollen Familiebarnehage Heidi Veronica Kjellevik" />
		<tag k="operator:type" v="private" />
		<tag k="start_date" v="2000-09-07" />
	</node>
	<node id="-3142" lat="58.14586" lon="8.021219">
		<tag k="amenity" v="kindergarten" />
		<tag k="capacity" v="10" />
		<tag k="contact:email" v="mettefd@sensewave.com" />
		<tag k="contact:phone" v="38 02 80 01" />
		<tag k="contact:website" v="http://www.barnas-rom.no" />
		<tag k="max_age" v="5" />
		<tag k="min_age" v="1" />
		<tag k="name" v="Barnas Rom AS" />
		<tag k="no-barnehage:nsrid" v="1021474" />
		<tag k="operator" v="Barnas Rom AS" />
		<tag k="operator:type" v="private" />
		<tag k="start_date" v="1995-08-01" />
	</node>
	<node id="-3141" lat="58.1599" lon="8.07897">
		<tag k="amenity" v="kindergarten" />
		<tag k="capacity" v="8" />
		<tag k="contact:email" v="dag.eftevaag@gmail.com" />
		<tag k="contact:website" v="http://www.barnas-hage.no" />
		<tag k="max_age" v="2" />
		<tag k="min_age" v="1" />
		<tag k="name" v="Barnas Hage AS Avd. Ronatoppen" />
		<tag k="no-barnehage:nsrid" v="1015834" />
		<tag k="operator" v="Barnas Hage AS" />
		<tag k="operator:type" v="private" />
		<tag k="start_date" v="2000-06-02" />
	</node>
	<node id="-3249" lat="58.17735" lon="8.096472">
		<tag k="amenity" v="kindergarten" />
		<tag k="capacity" v="9" />
		<tag k="contact:phone" v="38 09 10 51" />
		<tag k="max_age" v="5" />
		<tag k="min_age" v="1" />
		<tag k="name" v="Åshild Ek Bråtane" />
		<tag k="no-barnehage:nsrid" v="1020855" />
		<tag k="operator" v="Åshild Ek Bråtane" />
		<tag k="operator:type" v="private" />
		<tag k="start_date" v="2002-09-15" />
	</node>
	<node id="-3244" lat="58.12258" lon="7.958855">
		<tag k="amenity" v="kindergarten" />
		<tag k="capacity" v="10" />
		<tag k="contact:phone" v="038010110" />
		<tag k="max_age" v="5" />
		<tag k="min_age" v="1" />
		<tag k="name" v="Vågsbygd Familiebarnehage" />
		<tag k="no-barnehage:nsrid" v="1020160" />
		<tag k="operator" v="Vågsbygd Familiebarnehage Elin Marie Nilsen" />
		<tag k="operator:type" v="private" />
		<tag k="start_date" v="1993-08-01" />
	</node>
	<node id="-3240" lat="58.12677" lon="8.092882">
		<tag k="amenity" v="kindergarten" />
		<tag k="capacity" v="9" />
		<tag k="contact:email" v="barnehage@tommerstien.no" />
		<tag k="contact:phone" v="41425187" />
		<tag k="max_age" v="5" />
		<tag k="min_age" v="1" />
		<tag k="name" v="Tømmerstien Familiebarnehage Sa" />
		<tag k="no-barnehage:nsrid" v="1021918" />
		<tag k="operator" v="Tømmerstien Familiebarnehage Sa" />
		<tag k="operator:type" v="private" />
		<tag k="start_date" v="2002-05-01" />
	</node>
	<node id="-3235" lat="58.15738" lon="8.079968">
		<tag k="amenity" v="kindergarten" />
		<tag k="capacity" v="9" />
		<tag k="max_age" v="5" />
		<tag k="min_age" v="1" />
		<tag k="name" v="Tittelietue Familiebarnehage Da" />
		<tag k="no-barnehage:nsrid" v="1021119" />
		<tag k="operator" v="Tittelietue Familiebarnehage Da" />
		<tag k="operator:type" v="private" />
		<tag k="start_date" v="2004-07-27" />
	</node>
	<node id="-3224" lat="58.15365" lon="8.004225">
		<tag k="amenity" v="kindergarten" />
		<tag k="capacity" v="8" />
		<tag k="contact:phone" v="38020431" />
		<tag k="max_age" v="2" />
		<tag k="min_age" v="1" />
		<tag k="name" v="Stiftegården Familiebarnehage Ans" />
		<tag k="no-barnehage:nsrid" v="1020036" />
		<tag k="operator" v="Stiftegården Familiebarnehage Ans" />
		<tag k="operator:type" v="private" />
		<tag k="start_date" v="1993-08-01" />
	</node>
	<node id="-3222" lat="58.15141" lon="8.019036">
		<tag k="amenity" v="kindergarten" />
		<tag k="capacity" v="10" />
		<tag k="max_age" v="5" />
		<tag k="min_age" v="1" />
		<tag k="name" v="Solsikken Familebarnehage" />
		<tag k="no-barnehage:nsrid" v="1017267" />
		<tag k="operator" v="Lillebo Familiebarnehage Diane Foss" />
		<tag k="operator:type" v="private" />
		<tag k="start_date" v="2006-08-31" />
	</node>
	<node id="-3217" lat="58.15928" lon="8.088394">
		<tag k="amenity" v="kindergarten" />
		<tag k="capacity" v="10" />
		<tag k="contact:phone" v="99095199" />
		<tag k="max_age" v="5" />
		<tag k="min_age" v="1" />
		<tag k="name" v="Snikkedalen Familiebarnehage AS" />
		<tag k="no-barnehage:nsrid" v="1022378" />
		<tag k="operator" v="Snikkedalen Familiebarnehage AS" />
		<tag k="operator:type" v="private" />
		<tag k="start_date" v="2000-12-28" />
	</node>
	<node id="-3215" lat="58.13442" lon="7.953627">
		<tag k="amenity" v="kindergarten" />
		<tag k="capacity" v="9" />
		<tag k="contact:phone" v="38 01 28 86" />
		<tag k="max_age" v="5" />
		<tag k="min_age" v="1" />
		<tag k="name" v="Slettheia Familiebarnehage AS" />
		<tag k="no-barnehage:nsrid" v="1021104" />
		<tag k="operator" v="Slettheia Familiebarnehage AS" />
		<tag k="operator:type" v="private" />
		<tag k="start_date" v="1993-08-16" />
	</node>
	<node id="-3212" lat="58.11353" lon="7.946888">
		<tag k="amenity" v="kindergarten" />
		<tag k="capacity" v="4" />
		<tag k="contact:phone" v="38 08 63 37" />
		<tag k="max_age" v="2" />
		<tag k="min_age" v="1" />
		<tag k="name" v="Rådyrveien Familiebarnehage Janiche Tanche-Bergh" />
		<tag k="no-barnehage:nsrid" v="1020262" />
		<tag k="operator" v="Rådyrveien Familiebarnehage Janiche Tanche-Bergh" />
		<tag k="operator:type" v="private" />
		<tag k="start_date" v="1995-08-01" />
	</node>
	<node id="-3210" lat="58.11678" lon="7.947078">
		<tag k="amenity" v="kindergarten" />
		<tag k="capacity" v="10" />
		<tag k="contact:phone" v="38 01 44 46" />
		<tag k="max_age" v="5" />
		<tag k="min_age" v="1" />
		<tag k="name" v="Rognelia Familiebarnehage Ans" />
		<tag k="no-barnehage:nsrid" v="1020217" />
		<tag k="operator" v="Rognelia Familiebarnehage Ans" />
		<tag k="operator:type" v="private" />
		<tag k="start_date" v="1995-08-01" />
	</node>
</osm>
