<?xml version="1.0" encoding="UTF-8"?>
<osm generator="osmapis" version="0.6">
	<node id="-5224" lat="63.25403" lon="11.10962">
		<tag k="amenity" v="kindergarten" />
		<tag k="name" v="Innbygda barnehage" />
		<tag k="no-barnehage:nsrid" v="1025992" />
		<tag k="operator" v="Selbu kommune" />
		<tag k="operator:type" v="public" />
		<tag k="start_date" v="2015-08-17" />
	</node>
	<node id="-5223" lat="63.3707" lon="10.4373">
		<tag k="amenity" v="kindergarten" />
		<tag k="capacity" v="13" />
		<tag k="contact:email" v="Dragsten.oppvekstsenter@selbu.kommune.no" />
		<tag k="contact:phone" v="73818679" />
		<tag k="max_age" v="5" />
		<tag k="min_age" v="1" />
		<tag k="name" v="Dragsten barnehage" />
		<tag k="no-barnehage:nsrid" v="1013747" />
		<tag k="operator" v="Selbu kommune" />
		<tag k="operator:type" v="public" />
		<tag k="start_date" v="1989-01-01" />
	</node>
	<node id="-5227" lat="63.2247" lon="11.0335">
		<tag k="amenity" v="kindergarten" />
		<tag k="capacity" v="58" />
		<tag k="contact:email" v="VikvarvetogOverbygdabarnehage@selbu.kommune.no" />
		<tag k="contact:phone" v="73818366" />
		<tag k="max_age" v="5" />
		<tag k="min_age" v="1" />
		<tag k="name" v="Øverbygda barnehage" />
		<tag k="no-barnehage:nsrid" v="1013759" />
		<tag k="operator" v="Selbu kommune" />
		<tag k="operator:type" v="public" />
		<tag k="start_date" v="1989-01-02" />
	</node>
	<node id="-5226" lat="63.2864" lon="11.075">
		<tag k="amenity" v="kindergarten" />
		<tag k="capacity" v="68" />
		<tag k="contact:email" v="TomraogInnbygdabarnehage@selbu.kommune.no" />
		<tag k="contact:phone" v="73819996" />
		<tag k="max_age" v="5" />
		<tag k="min_age" v="1" />
		<tag k="name" v="Tømra barnehage" />
		<tag k="no-barnehage:nsrid" v="1017402" />
		<tag k="operator" v="Selbu kommune" />
		<tag k="operator:type" v="public" />
		<tag k="start_date" v="1978-09-01" />
	</node>
	<node id="-5225" lat="63.2177" lon="11.0394">
		<tag k="amenity" v="kindergarten" />
		<tag k="name" v="Kvellohaugen barnehage" />
		<tag k="no-barnehage:nsrid" v="1025972" />
		<tag k="operator" v="Selbu kommune" />
		<tag k="operator:type" v="public" />
		<tag k="start_date" v="2015-08-01" />
	</node>
</osm>
