<?xml version="1.0" encoding="UTF-8"?>
<osm version="0.6" generator="osmapis">
	<node lat="59.48982" lon="10.01194" id="-2690">
		<tag k="ADDRESS" v="Bjørkhaugen 13, 3647 HVITTINGFOSS" />
		<tag k="amenity" v="kindergarten" />
		<tag k="capacity" v="28" />
		<tag k="max_age" v="5" />
		<tag k="min_age" v="3" />
		<tag k="name" v="Bjørkebakken barnehage avd. Bjørkhaugen" />
		<tag k="no-barnehage:nsrid" v="974572613" />
		<tag k="operator" v="Bjørkebakken Andelslag SA" />
		<tag k="operator:type" v="private" />
	</node>
	<node lat="59.48866" lon="10.00783" id="-2691">
		<tag k="ADDRESS" v="Gravdalsveien 44, 3647 HVITTINGFOSS" />
		<tag k="amenity" v="kindergarten" />
		<tag k="capacity" v="38" />
		<tag k="max_age" v="5" />
		<tag k="min_age" v="1" />
		<tag k="name" v="Bjørkebakken barnehage avd. Gravdalsveien" />
		<tag k="no-barnehage:nsrid" v="986253629" />
		<tag k="operator" v="Bjørkebakken Andelslag SA" />
		<tag k="operator:type" v="private" />
	</node>
	<node lat="59.67469" lon="9.64185" id="-2692">
		<tag k="ADDRESS" v="Bonnevies gate 8, 3611 KONGSBERG" />
		<tag k="amenity" v="kindergarten" />
		<tag k="capacity" v="74" />
		<tag k="max_age" v="5" />
		<tag k="min_age" v="1" />
		<tag k="name" v="Dampsaga barnehage" />
		<tag k="no-barnehage:nsrid" v="915988709" />
		<tag k="operator" v="Dampsaga barnehage AS" />
		<tag k="operator:type" v="private" />
	</node>
	<node lat="59.65166" lon="9.66166" id="-2693">
		<tag k="ADDRESS" v="Christian Sindings vei 11, 3610 KONGSBERG" />
		<tag k="amenity" v="kindergarten" />
		<tag k="capacity" v="57" />
		<tag k="max_age" v="5" />
		<tag k="min_age" v="1" />
		<tag k="name" v="Gamlegrendåsen barnehage" />
		<tag k="no-barnehage:nsrid" v="974572656" />
		<tag k="operator" v="Kongsberg kommune" />
		<tag k="operator:type" v="public" />
	</node>
	<node lat="59.66248" lon="9.67339" id="-2694">
		<tag k="ADDRESS" v="Hovdeplassen 1, 3612 KONGSBERG" />
		<tag k="amenity" v="kindergarten" />
		<tag k="capacity" v="65" />
		<tag k="max_age" v="5" />
		<tag k="min_age" v="1" />
		<tag k="name" v="Hovdeplassen barnehage" />
		<tag k="no-barnehage:nsrid" v="996709604" />
		<tag k="operator" v="Hovdeplassen barnehage AS" />
		<tag k="operator:type" v="private" />
	</node>
	<node lat="59.63069" lon="9.72017" id="-2695">
		<tag k="ADDRESS" v="Grosvoldveien 144, 3619 SKOLLENBORG" />
		<tag k="amenity" v="kindergarten" />
		<tag k="capacity" v="45" />
		<tag k="contact:website" v="http://www.nyhusgarden.no" />
		<tag k="max_age" v="5" />
		<tag k="min_age" v="1" />
		<tag k="name" v="Huldraheimen Steinerbarnehage" />
		<tag k="no-barnehage:nsrid" v="982375037" />
		<tag k="operator" v="Huldraheimen steinerbarnehage AS" />
		<tag k="operator:type" v="private" />
	</node>
	<node lat="59.62582" lon="9.71197" id="-2696">
		<tag k="ADDRESS" v="Grosvoldveien 75, 3619 SKOLLENBORG" />
		<tag k="amenity" v="kindergarten" />
		<tag k="capacity" v="17" />
		<tag k="contact:website" v="http://www.nyhusgarden.no" />
		<tag k="max_age" v="2" />
		<tag k="min_age" v="1" />
		<tag k="name" v="Huldraheimen Steinerbarnehage Ii" />
		<tag k="no-barnehage:nsrid" v="995371499" />
		<tag k="operator" v="Huldraheimen steinerbarnehage Ii AS" />
		<tag k="operator:type" v="private" />
	</node>
	<node lat="59.64849" lon="9.63501" id="-2697">
		<tag k="ADDRESS" v="Svartåsveien 16, 3615 KONGSBERG" />
		<tag k="amenity" v="kindergarten" />
		<tag k="capacity" v="51" />
		<tag k="max_age" v="5" />
		<tag k="min_age" v="1" />
		<tag k="name" v="Idea barnehage Kongsberg" />
		<tag k="no-barnehage:nsrid" v="975351971" />
		<tag k="operator" v="Idea barnehage Kongsberg AS" />
		<tag k="operator:type" v="private" />
	</node>
	<node lat="59.67945" lon="9.62572" id="-2698">
		<tag k="ADDRESS" v="Idrettsveien 10, 3617 KONGSBERG" />
		<tag k="amenity" v="kindergarten" />
		<tag k="capacity" v="74" />
		<tag k="max_age" v="5" />
		<tag k="min_age" v="1" />
		<tag k="name" v="Idrettsparken barnehage" />
		<tag k="no-barnehage:nsrid" v="914885957" />
		<tag k="operator" v="Kongsberg kommune" />
		<tag k="operator:type" v="public" />
	</node>
	<node lat="59.70461" lon="9.52022" id="-2699">
		<tag k="ADDRESS" v="Jondalsveien 470, 3614 KONGSBERG" />
		<tag k="amenity" v="kindergarten" />
		<tag k="capacity" v="13" />
		<tag k="max_age" v="5" />
		<tag k="min_age" v="1" />
		<tag k="name" v="Jondalen barnehage" />
		<tag k="no-barnehage:nsrid" v="973469819" />
		<tag k="operator" v="Jondalen barnehage" />
		<tag k="operator:type" v="private" />
	</node>
	<node lat="59.68543" lon="9.65083" id="-2700">
		<tag k="ADDRESS" v="Kampestadlia 16, 3611 KONGSBERG" />
		<tag k="amenity" v="kindergarten" />
		<tag k="capacity" v="40" />
		<tag k="contact:website" v="http://www.kongsberg.kommune.no/Tjenester/Oppvekst/Kommunale-barnehager/Kommunale-barnehager/Vibehaugen" />
		<tag k="max_age" v="5" />
		<tag k="min_age" v="1" />
		<tag k="name" v="Kampestadlia barnehage" />
		<tag k="no-barnehage:nsrid" v="897062402" />
		<tag k="operator" v="Kongsberg kommune" />
		<tag k="operator:type" v="public" />
	</node>
	<node lat="59.67779" lon="9.64139" id="-2701">
		<tag k="ADDRESS" v="Dyrmyrgata 49, 3611 KONGSBERG" />
		<tag k="amenity" v="kindergarten" />
		<tag k="capacity" v="31" />
		<tag k="contact:website" v="http://kongsberg.montessori.barnehage.no" />
		<tag k="max_age" v="5" />
		<tag k="min_age" v="1" />
		<tag k="name" v="Kongsberg Montessori barnehage" />
		<tag k="no-barnehage:nsrid" v="990548447" />
		<tag k="operator" v="Kongsberg Montessori barnehage SA" />
		<tag k="operator:type" v="private" />
	</node>
	<node lat="59.6584" lon="9.64613" id="-2702">
		<tag k="ADDRESS" v="Krags gate 19, 3616 KONGSBERG" />
		<tag k="amenity" v="kindergarten" />
		<tag k="capacity" v="26" />
		<tag k="max_age" v="5" />
		<tag k="min_age" v="1" />
		<tag k="name" v="Kragsgate barnehage" />
		<tag k="no-barnehage:nsrid" v="976666879" />
		<tag k="operator" v="Kongsberg kommune" />
		<tag k="operator:type" v="public" />
	</node>
	<node lat="59.65895" lon="9.67647" id="-2703">
		<tag k="ADDRESS" v="Langekjennveien 2, 3610 KONGSBERG" />
		<tag k="amenity" v="kindergarten" />
		<tag k="capacity" v="91" />
		<tag k="max_age" v="5" />
		<tag k="min_age" v="1" />
		<tag k="name" v="Langekjenntunet barnehage" />
		<tag k="no-barnehage:nsrid" v="991695664" />
		<tag k="operator" v="Langekjenntunet barnehage AS" />
		<tag k="operator:type" v="private" />
	</node>
	<node lat="59.6685" lon="9.66052" id="-2704">
		<tag k="ADDRESS" v="Welhavens vei 15, 3613 KONGSBERG" />
		<tag k="amenity" v="kindergarten" />
		<tag k="capacity" v="30" />
		<tag k="contact:website" v="http://www.laringsverkstedet.no/barnehage/risteigen.no" />
		<tag k="max_age" v="5" />
		<tag k="min_age" v="1" />
		<tag k="name" v="Læringsverkstedet Risteigen barnehage" />
		<tag k="no-barnehage:nsrid" v="974631393" />
		<tag k="operator" v="Læringsverkstedet Risteigen barnehage AS" />
		<tag k="operator:type" v="private" />
	</node>
	<node lat="59.65822" lon="9.67049" id="-2705">
		<tag k="ADDRESS" v="Justermester Eriksens vei 1, 3610 KONGSBERG" />
		<tag k="amenity" v="kindergarten" />
		<tag k="capacity" v="14" />
		<tag k="contact:website" v="http://ny.lovasbh.no" />
		<tag k="max_age" v="5" />
		<tag k="min_age" v="1" />
		<tag k="name" v="Løvås barnehage" />
		<tag k="no-barnehage:nsrid" v="973676695" />
		<tag k="operator" v="Åsen Foreldrelag SA" />
		<tag k="operator:type" v="private" />
	</node>
	<node lat="59.67057" lon="9.6734" id="-2706">
		<tag k="ADDRESS" v="Kongsbakken 4, 3612 KONGSBERG" />
		<tag k="amenity" v="kindergarten" />
		<tag k="capacity" v="67" />
		<tag k="max_age" v="5" />
		<tag k="min_age" v="1" />
		<tag k="name" v="Madsebakken barnehage" />
		<tag k="no-barnehage:nsrid" v="984744722" />
		<tag k="operator" v="Madsebakken barnehage AS" />
		<tag k="operator:type" v="private" />
	</node>
	<node lat="59.6411" lon="9.66261" id="-2707">
		<tag k="ADDRESS" v="Aage Håkonsens vei 9, 3610 KONGSBERG" />
		<tag k="amenity" v="kindergarten" />
		<tag k="capacity" v="87" />
		<tag k="max_age" v="5" />
		<tag k="min_age" v="1" />
		<tag k="name" v="Mormors Have barnehage" />
		<tag k="no-barnehage:nsrid" v="983470750" />
		<tag k="operator" v="Teb Eiendom AS" />
		<tag k="operator:type" v="private" />
	</node>
	<node lat="59.68519" lon="9.64551" id="-2708">
		<tag k="ADDRESS" v="Frogs vei 60, 3611 KONGSBERG" />
		<tag k="amenity" v="kindergarten" />
		<tag k="capacity" v="40" />
		<tag k="contact:website" v="http://www.raumyr.barnehage.no" />
		<tag k="max_age" v="5" />
		<tag k="min_age" v="1" />
		<tag k="name" v="Raumyr barnehage" />
		<tag k="no-barnehage:nsrid" v="980665674" />
		<tag k="operator" v="Raumyr barnehage SA" />
		<tag k="operator:type" v="private" />
	</node>
	<node lat="59.6" lon="9.66813" id="-2709">
		<tag k="ADDRESS" v="Dalsveien 16, 3619 SKOLLENBORG" />
		<tag k="amenity" v="kindergarten" />
		<tag k="capacity" v="27" />
		<tag k="max_age" v="5" />
		<tag k="min_age" v="1" />
		<tag k="name" v="Rekrutten barnehage" />
		<tag k="no-barnehage:nsrid" v="976666860" />
		<tag k="operator" v="Kongsberg kommune" />
		<tag k="operator:type" v="public" />
	</node>
	<node lat="59.62632" lon="9.62369" id="-2710">
		<tag k="ADDRESS" v="Jutulveien 1, 3614 KONGSBERG" />
		<tag k="amenity" v="kindergarten" />
		<tag k="capacity" v="19" />
		<tag k="contact:website" v="http://saggrenda.barnehage.no" />
		<tag k="max_age" v="5" />
		<tag k="min_age" v="1" />
		<tag k="name" v="Saggrenda barnehage" />
		<tag k="no-barnehage:nsrid" v="974183293" />
		<tag k="operator" v="Saggrenda barnehage" />
		<tag k="operator:type" v="private" />
	</node>
	<node lat="59.60186" lon="9.75598" id="-2711">
		<tag k="ADDRESS" v="Hostvetveien 420, 3618 SKOLLENBORG" />
		<tag k="amenity" v="kindergarten" />
		<tag k="capacity" v="40" />
		<tag k="contact:website" v="http://www.sandsvar.barnehage.no" />
		<tag k="max_age" v="5" />
		<tag k="min_age" v="1" />
		<tag k="name" v="Sandsvær barnehage" />
		<tag k="no-barnehage:nsrid" v="987976926" />
		<tag k="operator" v="Sandsvær barnehage SA" />
		<tag k="operator:type" v="private" />
	</node>
	<node lat="59.62798" lon="9.64653" id="-2712">
		<tag k="ADDRESS" v="Fleischers vei 9, 3615 KONGSBERG" />
		<tag k="amenity" v="kindergarten" />
		<tag k="capacity" v="70" />
		<tag k="contact:website" v="http://www.skrimtrollet.barnehage.no" />
		<tag k="max_age" v="5" />
		<tag k="min_age" v="1" />
		<tag k="name" v="Skrimtrollet barnehage" />
		<tag k="no-barnehage:nsrid" v="993564133" />
		<tag k="operator" v="Skrimtrollet barnehage SA" />
		<tag k="operator:type" v="private" />
	</node>
	<node lat="59.68056" lon="9.65007" id="-2713">
		<tag k="ADDRESS" v="Christies vei 25, 3613 KONGSBERG" />
		<tag k="amenity" v="kindergarten" />
		<tag k="capacity" v="41" />
		<tag k="contact:website" v="http://www.skytterlokkabarnehage.no" />
		<tag k="max_age" v="5" />
		<tag k="min_age" v="1" />
		<tag k="name" v="Skytterløkka barnehage" />
		<tag k="no-barnehage:nsrid" v="972239682" />
		<tag k="operator" v="Skytterløkka barnehage SA" />
		<tag k="operator:type" v="private" />
	</node>
	<node lat="59.66388" lon="9.64824" id="-2714">
		<tag k="ADDRESS" v="Myntgata 15, 3616 KONGSBERG" />
		<tag k="amenity" v="kindergarten" />
		<tag k="capacity" v="39" />
		<tag k="contact:website" v="http://sølvstuffen.no" />
		<tag k="max_age" v="5" />
		<tag k="min_age" v="1" />
		<tag k="name" v="Sølvstuffen barnehage" />
		<tag k="no-barnehage:nsrid" v="991661077" />
		<tag k="operator" v="Sølvstuffen AS" />
		<tag k="operator:type" v="private" />
	</node>
	<node lat="59.65788" lon="9.65377" id="-2715">
		<tag k="ADDRESS" v="Gamle Gomsrudvei 35, 3616 KONGSBERG" />
		<tag k="amenity" v="kindergarten" />
		<tag k="capacity" v="74" />
		<tag k="max_age" v="5" />
		<tag k="min_age" v="1" />
		<tag k="name" v="Tislegård barnehage" />
		<tag k="no-barnehage:nsrid" v="974572680" />
		<tag k="operator" v="Kongsberg kommune" />
		<tag k="operator:type" v="public" />
	</node>
	<node lat="59.65994" lon="9.63723" id="-2716">
		<tag k="ADDRESS" v="Roald Amundsens vei 20, 3616 KONGSBERG" />
		<tag k="amenity" v="kindergarten" />
		<tag k="capacity" v="43" />
		<tag k="max_age" v="5" />
		<tag k="min_age" v="1" />
		<tag k="name" v="Venåsløkka barnehage" />
		<tag k="no-barnehage:nsrid" v="974572583" />
		<tag k="operator" v="Kongsberg kommune" />
		<tag k="operator:type" v="public" />
	</node>
</osm>
