<?xml version="1.0" encoding="UTF-8"?>
<osm generator="osmapis" version="0.6">
	<node id="-311" lat="59.5115" lon="10.6915">
		<tag k="amenity" v="kindergarten" />
		<tag k="capacity" v="65" />
		<tag k="contact:email" v="kari.hagen@vestby.kommune.no" />
		<tag k="contact:phone" v="+47 40 42 63 20" />
		<tag k="max_age" v="5" />
		<tag k="min_age" v="1" />
		<tag k="name" v="Øståsen barnehage" />
		<tag k="no-barnehage:nsrid" v="1016412" />
		<tag k="operator" v="Vestby kommune" />
		<tag k="operator:type" v="public" />
		<tag k="start_date" v="2002-08-01" />
	</node>
	<node id="-310" lat="59.5993" lon="10.7564">
		<tag k="amenity" v="kindergarten" />
		<tag k="capacity" v="71" />
		<tag k="contact:email" v="grethe.fottland@vestby.kommune.no" />
		<tag k="contact:phone" v="+47 98 20 35 35" />
		<tag k="max_age" v="5" />
		<tag k="min_age" v="1" />
		<tag k="name" v="Østbydammen barnehage" />
		<tag k="no-barnehage:nsrid" v="1017147" />
		<tag k="operator" v="Vestby kommune" />
		<tag k="operator:type" v="public" />
		<tag k="start_date" v="2006-05-01" />
	</node>
	<node id="-309" lat="59.60237" lon="10.74668">
		<tag k="amenity" v="kindergarten" />
		<tag k="capacity" v="47" />
		<tag k="contact:email" v="kontor@lesteberg-gard.no" />
		<tag k="contact:phone" v="+47 48 08 08 70" />
		<tag k="contact:website" v="http://www.vestbynaturbarnehage.no" />
		<tag k="max_age" v="5" />
		<tag k="min_age" v="1" />
		<tag k="name" v="Vestby Naturbarnehage Avd Sundbytoppen" />
		<tag k="no-barnehage:nsrid" v="1017653" />
		<tag k="operator" v="Bjørg Tveit Strøm" />
		<tag k="operator:type" v="private" />
		<tag k="start_date" v="2006-08-02" />
	</node>
	<node id="-308" lat="59.52572" lon="10.69787">
		<tag k="amenity" v="kindergarten" />
		<tag k="capacity" v="38" />
		<tag k="contact:email" v="kontor@lesteberg-gard.no" />
		<tag k="contact:phone" v="+47 48 08 08 50" />
		<tag k="contact:website" v="http://www.vestbynaturbarnehage.no" />
		<tag k="max_age" v="5" />
		<tag k="min_age" v="1" />
		<tag k="name" v="Vestby Naturbarnehage Avd Son" />
		<tag k="no-barnehage:nsrid" v="1017148" />
		<tag k="operator" v="Bjørg Tveit Strøm" />
		<tag k="operator:type" v="private" />
		<tag k="start_date" v="2006-04-26" />
	</node>
	<node id="-307" lat="59.61517" lon="10.78864">
		<tag k="amenity" v="kindergarten" />
		<tag k="capacity" v="66" />
		<tag k="contact:email" v="kontor@lesteberg-gard.no" />
		<tag k="contact:phone" v="+47 48 08 08 60" />
		<tag k="contact:website" v="http://www.vestbynaturbarnehage.no" />
		<tag k="max_age" v="5" />
		<tag k="min_age" v="1" />
		<tag k="name" v="Vestby Naturbarnehage Avd Lesteberg" />
		<tag k="no-barnehage:nsrid" v="1015825" />
		<tag k="operator" v="Bjørg Tveit Strøm" />
		<tag k="operator:type" v="private" />
		<tag k="start_date" v="2000-08-15" />
	</node>
	<node id="-306" lat="59.59276" lon="10.71082">
		<tag k="amenity" v="kindergarten" />
		<tag k="capacity" v="5" />
		<tag k="contact:email" v="kontor@lesteberg-gard.no" />
		<tag k="contact:phone" v="+47 48 08 08 78" />
		<tag k="contact:website" v="http://www.vestbynaturbarnehage.no" />
		<tag k="max_age" v="5" />
		<tag k="min_age" v="3" />
		<tag k="name" v="Vestby Naturbarnehage Avd Johnsrudhuset Pepperstad" />
		<tag k="no-barnehage:nsrid" v="1015932" />
		<tag k="operator" v="Bjørg Tveit Strøm" />
		<tag k="operator:type" v="private" />
		<tag k="start_date" v="1989-01-02" />
	</node>
	<node id="-305" lat="59.6063" lon="10.7508">
		<tag k="amenity" v="kindergarten" />
		<tag k="capacity" v="55" />
		<tag k="contact:email" v="alexander.ulleberg@vestby.kommune.no" />
		<tag k="contact:phone" v="+47 40 42 63 00" />
		<tag k="max_age" v="5" />
		<tag k="min_age" v="1" />
		<tag k="name" v="Støttumveien barnehage" />
		<tag k="no-barnehage:nsrid" v="1016583" />
		<tag k="operator" v="Vestby kommune" />
		<tag k="operator:type" v="public" />
		<tag k="start_date" v="2003-10-17" />
	</node>
	<node id="-304" lat="59.5047" lon="10.6919">
		<tag k="amenity" v="kindergarten" />
		<tag k="capacity" v="59" />
		<tag k="contact:email" v="storebrevikbarnehage@gmail.com" />
		<tag k="contact:phone" v="+47 64985390" />
		<tag k="max_age" v="5" />
		<tag k="min_age" v="1" />
		<tag k="name" v="Store Brevik barnehage" />
		<tag k="no-barnehage:nsrid" v="1025403" />
		<tag k="operator" v="Vestby Stiftelsesbarnehager" />
		<tag k="operator:type" v="private" />
		<tag k="start_date" v="1992-08-01" />
	</node>
	<node id="-303" lat="59.50563" lon="10.68872">
		<tag k="amenity" v="kindergarten" />
		<tag k="capacity" v="80" />
		<tag k="contact:email" v="dl.solasen@bhg.no" />
		<tag k="max_age" v="5" />
		<tag k="min_age" v="1" />
		<tag k="name" v="Solåsen Fus barnehage AS" />
		<tag k="no-barnehage:nsrid" v="1021416" />
		<tag k="operator" v="Solåsen Fus barnehage AS" />
		<tag k="operator:type" v="private" />
		<tag k="start_date" v="2006-02-17" />
	</node>
	<node id="-302" lat="59.5957" lon="10.761">
		<tag k="amenity" v="kindergarten" />
		<tag k="capacity" v="82" />
		<tag k="contact:email" v="siw.karlsen@vestby.kommune.no" />
		<tag k="contact:phone" v="+47 40 42 63 30" />
		<tag k="max_age" v="5" />
		<tag k="min_age" v="1" />
		<tag k="name" v="Solerunden barnehage" />
		<tag k="no-barnehage:nsrid" v="1017503" />
		<tag k="operator" v="Vestby kommune" />
		<tag k="operator:type" v="public" />
		<tag k="start_date" v="1988-04-01" />
	</node>
	<node id="-301" lat="59.6012" lon="10.7586">
		<tag k="amenity" v="kindergarten" />
		<tag k="capacity" v="59" />
		<tag k="contact:email" v="soleskog@combitel.no" />
		<tag k="max_age" v="5" />
		<tag k="min_age" v="1" />
		<tag k="name" v="Sole Skog barnehage" />
		<tag k="no-barnehage:nsrid" v="1025325" />
		<tag k="operator" v="Vestby Stiftelsesbarnehager" />
		<tag k="operator:type" v="private" />
		<tag k="start_date" v="1992-10-01" />
	</node>
	<node id="-300" lat="59.6192" lon="10.7125">
		<tag k="amenity" v="kindergarten" />
		<tag k="capacity" v="49" />
		<tag k="contact:email" v="glenn@barnehagenett.no" />
		<tag k="contact:phone" v="+47 95237023" />
		<tag k="max_age" v="5" />
		<tag k="min_age" v="1" />
		<tag k="name" v="Skaug Idrettsbarnehage" />
		<tag k="no-barnehage:nsrid" v="1013131" />
		<tag k="operator" v="Borg Barnehager AS" />
		<tag k="operator:type" v="private" />
		<tag k="start_date" v="2004-11-01" />
	</node>
	<node id="-299" lat="59.5971" lon="10.7134">
		<tag k="amenity" v="kindergarten" />
		<tag k="capacity" v="81" />
		<tag k="contact:email" v="malin.abrahamsen@vestby.kommune.no" />
		<tag k="contact:phone" v="+47 40 42 63 40" />
		<tag k="max_age" v="5" />
		<tag k="min_age" v="1" />
		<tag k="name" v="Risil barnehage" />
		<tag k="no-barnehage:nsrid" v="1018482" />
		<tag k="operator" v="Vestby kommune" />
		<tag k="operator:type" v="public" />
		<tag k="start_date" v="2008-08-01" />
	</node>
	<node id="-298" lat="59.5967" lon="10.7028">
		<tag k="amenity" v="kindergarten" />
		<tag k="capacity" v="51" />
		<tag k="contact:email" v="helene.grondahl@vestby.kommune.no" />
		<tag k="contact:phone" v="+47 93 21 49 90" />
		<tag k="max_age" v="5" />
		<tag k="min_age" v="1" />
		<tag k="name" v="Pepperstadmarka barnehage" />
		<tag k="no-barnehage:nsrid" v="1017523" />
		<tag k="operator" v="Vestby kommune" />
		<tag k="operator:type" v="public" />
		<tag k="start_date" v="1988-04-01" />
	</node>
	<node id="-296" lat="59.59958" lon="10.7595">
		<tag k="amenity" v="kindergarten" />
		<tag k="name" v="Johnsrudhuset barnehage" />
		<tag k="no-barnehage:nsrid" v="2000043" />
		<tag k="operator" v="Elisabeth Lillemoen Teigen" />
		<tag k="operator:type" v="private" />
		<tag k="start_date" v="2016-08-15" />
	</node>
	<node id="-295" lat="59.54139" lon="10.73998">
		<tag k="amenity" v="kindergarten" />
		<tag k="capacity" v="65" />
		<tag k="contact:email" v="dl.holen@bhg.no" />
		<tag k="max_age" v="5" />
		<tag k="min_age" v="1" />
		<tag k="name" v="Hølen Fus barnehage AS" />
		<tag k="no-barnehage:nsrid" v="1022104" />
		<tag k="operator" v="Hølen Fus barnehage AS" />
		<tag k="operator:type" v="private" />
		<tag k="start_date" v="2010-12-31" />
	</node>
	<node id="-294" lat="59.60237" lon="10.74668">
		<tag k="amenity" v="kindergarten" />
		<tag k="capacity" v="20" />
		<tag k="contact:email" v="post@hvitstenbarnehage.no" />
		<tag k="contact:phone" v="+47 64 95 51 85" />
		<tag k="contact:website" v="http://www.hvitsten.barnehageside.no/" />
		<tag k="max_age" v="5" />
		<tag k="min_age" v="1" />
		<tag k="name" v="Hvitsten Naturbarnehage Sa" />
		<tag k="no-barnehage:nsrid" v="1020404" />
		<tag k="operator" v="Hvitsten Naturbarnehage Sa" />
		<tag k="operator:type" v="private" />
		<tag k="start_date" v="1976-12-24" />
	</node>
	<node id="-293" lat="59.61294" lon="10.74646">
		<tag k="amenity" v="kindergarten" />
		<tag k="capacity" v="16" />
		<tag k="contact:email" v="hjertehagen@gmail.com" />
		<tag k="max_age" v="5" />
		<tag k="min_age" v="1" />
		<tag k="name" v="Hjertehagen AS" />
		<tag k="no-barnehage:nsrid" v="1022356" />
		<tag k="operator" v="Hjertehagen AS" />
		<tag k="operator:type" v="private" />
		<tag k="start_date" v="2013-02-14" />
	</node>
	<node id="-292" lat="59.5199" lon="10.70105">
		<tag k="amenity" v="kindergarten" />
		<tag k="capacity" v="69" />
		<tag k="contact:email" v="emma.finstad@vestby.kommune.no" />
		<tag k="contact:phone" v="+47 98 25 86 90" />
		<tag k="max_age" v="5" />
		<tag k="min_age" v="1" />
		<tag k="name" v="Grevlingen barnehage" />
		<tag k="no-barnehage:nsrid" v="1017219" />
		<tag k="operator" v="Vestby kommune" />
		<tag k="operator:type" v="public" />
		<tag k="start_date" v="2006-06-01" />
	</node>
	<node id="-291" lat="59.58128" lon="10.80781">
		<tag k="amenity" v="kindergarten" />
		<tag k="capacity" v="32" />
		<tag k="contact:email" v="garderbarnehage@start.no" />
		<tag k="contact:phone" v="+47 994 76 267" />
		<tag k="max_age" v="5" />
		<tag k="min_age" v="1" />
		<tag k="name" v="Garder barnehage" />
		<tag k="no-barnehage:nsrid" v="1020256" />
		<tag k="operator" v="Garder barnehage" />
		<tag k="operator:type" v="private" />
		<tag k="start_date" v="1994-08-01" />
	</node>
	<node id="-290" lat="59.5213" lon="10.7021">
		<tag k="amenity" v="kindergarten" />
		<tag k="capacity" v="58" />
		<tag k="contact:email" v="jorunn.holmas@vestby.kommune.no" />
		<tag k="contact:phone" v="+47 40 42 63 10" />
		<tag k="max_age" v="5" />
		<tag k="min_age" v="1" />
		<tag k="name" v="Deør barnehage" />
		<tag k="no-barnehage:nsrid" v="1017504" />
		<tag k="operator" v="Vestby kommune" />
		<tag k="operator:type" v="public" />
		<tag k="start_date" v="1988-04-01" />
	</node>
</osm>
