<?xml version="1.0" encoding="UTF-8"?>
<osm generator="osmapis" version="0.6">
	<node id="-2360" lat="59.82197" lon="10.27331">
		<tag k="amenity" v="kindergarten" />
		<tag k="capacity" v="3" />
		<tag k="max_age" v="2" />
		<tag k="min_age" v="1" />
		<tag k="name" v="Hennum familiebarnehage Mona Maribo" />
		<tag k="no-barnehage:nsrid" v="1020677" />
		<tag k="operator" v="Hennum Familiebarnehage Mona Maribo" />
		<tag k="operator:type" v="private" />
	</node>
	<node id="-2366" lat="59.74805" lon="10.23337">
		<tag k="amenity" v="kindergarten" />
		<tag k="capacity" v="10" />
		<tag k="max_age" v="5" />
		<tag k="min_age" v="1" />
		<tag k="name" v="Mikkel Rev Marion Garofalo Andersen" />
		<tag k="no-barnehage:nsrid" v="1020417" />
		<tag k="operator" v="Mikkel Rev Marion Garofalo Andersen" />
		<tag k="operator:type" v="private" />
	</node>
	<node id="-2370" lat="59.72596" lon="10.3166">
		<tag k="amenity" v="kindergarten" />
		<tag k="capacity" v="8" />
		<tag k="max_age" v="5" />
		<tag k="min_age" v="1" />
		<tag k="name" v="Plutten familiebarnehage" />
		<tag k="no-barnehage:nsrid" v="2000055" />
		<tag k="operator" v="Plutten Familiebarnehage Sa" />
		<tag k="operator:type" v="private" />
	</node>
</osm>
