<?xml version="1.0" encoding="UTF-8"?>
<osm generator="osmapis" version="0.6">
	<node id="-2295" lat="59.82197" lon="10.27331">
		<tag k="amenity" v="kindergarten" />
		<tag k="capacity" v="3" />
		<tag k="contact:email" v="mona.maribo@gmail.com" />
		<tag k="contact:phone" v="+47 32 85 28 75" />
		<tag k="max_age" v="2" />
		<tag k="min_age" v="1" />
		<tag k="name" v="Hennum Familiebarnehage Mona Maribo" />
		<tag k="no-barnehage:nsrid" v="1020677" />
		<tag k="operator" v="Hennum Familiebarnehage Mona Maribo" />
		<tag k="operator:type" v="private" />
		<tag k="start_date" v="2000-10-05" />
	</node>
	<node id="-2301" lat="59.74805" lon="10.23337">
		<tag k="amenity" v="kindergarten" />
		<tag k="capacity" v="11" />
		<tag k="contact:email" v="mikkelrevfambhg@gmail.com" />
		<tag k="contact:phone" v="+47 32 84 87 38" />
		<tag k="max_age" v="5" />
		<tag k="min_age" v="1" />
		<tag k="name" v="Mikkel Rev Marion Garofalo Andersen" />
		<tag k="no-barnehage:nsrid" v="1020417" />
		<tag k="operator" v="Mikkel Rev Marion Garofalo Andersen" />
		<tag k="operator:type" v="private" />
		<tag k="start_date" v="1996-10-01" />
	</node>
	<node id="-2305" lat="59.72596" lon="10.3166">
		<tag k="amenity" v="kindergarten" />
		<tag k="capacity" v="8" />
		<tag k="max_age" v="5" />
		<tag k="min_age" v="1" />
		<tag k="name" v="Plutten Familiebarnehage Sa" />
		<tag k="no-barnehage:nsrid" v="2000055" />
		<tag k="operator" v="Plutten Familiebarnehage Sa" />
		<tag k="operator:type" v="private" />
		<tag k="start_date" v="2016-08-11" />
	</node>
</osm>
