<?xml version="1.0" encoding="UTF-8"?>
<osm generator="osmapis" version="0.6">
	<node id="-2489" lat="59.79379" lon="10.26296">
		<tag k="amenity" v="kindergarten" />
		<tag k="capacity" v="78" />
		<tag k="contact:email" v="dl.veslefrikk@bhg.no" />
		<tag k="contact:phone" v="32 84 97 70" />
		<tag k="max_age" v="5" />
		<tag k="min_age" v="1" />
		<tag k="name" v="Veslefrikk Fus barnehage AS" />
		<tag k="no-barnehage:nsrid" v="1021436" />
		<tag k="operator" v="Veslefrikk Fus barnehage AS" />
		<tag k="operator:type" v="private" />
		<tag k="start_date" v="2006-02-17" />
	</node>
	<node id="-2488" lat="59.79506" lon="10.279">
		<tag k="amenity" v="kindergarten" />
		<tag k="capacity" v="69" />
		<tag k="contact:email" v="post@utsikten-barnehage.no" />
		<tag k="contact:phone" v="95 76 64 76" />
		<tag k="contact:website" v="http://www.utsikten.barnehage.no" />
		<tag k="max_age" v="5" />
		<tag k="min_age" v="1" />
		<tag k="name" v="Utsikten barnehage Sa" />
		<tag k="no-barnehage:nsrid" v="1021214" />
		<tag k="operator" v="Utsikten barnehage Sa" />
		<tag k="operator:type" v="private" />
		<tag k="start_date" v="2005-03-16" />
	</node>
	<node id="-2487" lat="59.81232" lon="10.26793">
		<tag k="amenity" v="kindergarten" />
		<tag k="capacity" v="89" />
		<tag k="contact:phone" v="32 24 38 50" />
		<tag k="max_age" v="5" />
		<tag k="min_age" v="1" />
		<tag k="name" v="Tranby Andelsbarnehage" />
		<tag k="no-barnehage:nsrid" v="1020752" />
		<tag k="operator" v="Tranby barnehage Sa" />
		<tag k="operator:type" v="private" />
		<tag k="start_date" v="1978-08-16" />
	</node>
	<node id="-2486" lat="59.89346" lon="10.29193">
		<tag k="amenity" v="kindergarten" />
		<tag k="name" v="Sylling Fus barnehage AS" />
		<tag k="no-barnehage:nsrid" v="1026234" />
		<tag k="operator" v="Sylling Fus barnehage AS" />
		<tag k="operator:type" v="private" />
		<tag k="start_date" v="2013-01-01" />
	</node>
	<node id="-2485" lat="59.75457" lon="10.2892">
		<tag k="amenity" v="kindergarten" />
		<tag k="capacity" v="105" />
		<tag k="contact:email" v="post@linnesbakken.no" />
		<tag k="contact:phone" v="91 67 29 50" />
		<tag k="contact:website" v="http://www.sprellopp.no" />
		<tag k="max_age" v="5" />
		<tag k="min_age" v="1" />
		<tag k="name" v="Sprellopp Linnesbakken barnehage" />
		<tag k="no-barnehage:nsrid" v="1022153" />
		<tag k="operator" v="Linnesbakken barnehage AS" />
		<tag k="operator:type" v="private" />
		<tag k="start_date" v="2010-12-06" />
	</node>
	<node id="-2484" lat="59.82014" lon="10.33203">
		<tag k="amenity" v="kindergarten" />
		<tag k="capacity" v="30" />
		<tag k="contact:email" v="'trkve@c2i.net'" />
		<tag k="contact:phone" v="32850736" />
		<tag k="contact:website" v="http://www.regnbuen-barnehage.com" />
		<tag k="max_age" v="5" />
		<tag k="min_age" v="1" />
		<tag k="name" v="Regnbuen barnehage" />
		<tag k="no-barnehage:nsrid" v="1019702" />
		<tag k="operator" v="Regnbuen barnehage" />
		<tag k="operator:type" v="private" />
		<tag k="start_date" v="1989-01-02" />
	</node>
	<node id="-2482" lat="59.74899" lon="10.23536">
		<tag k="amenity" v="kindergarten" />
		<tag k="capacity" v="83" />
		<tag k="contact:phone" v="32 84 22 92" />
		<tag k="contact:website" v="http://nostebarnehage.no" />
		<tag k="max_age" v="5" />
		<tag k="min_age" v="1" />
		<tag k="name" v="Nøste barnehage Sa" />
		<tag k="no-barnehage:nsrid" v="1020437" />
		<tag k="operator" v="Nøste barnehage Sa" />
		<tag k="operator:type" v="private" />
		<tag k="start_date" v="1997-12-01" />
	</node>
	<node id="-2481" lat="59.74955" lon="10.22995">
		<tag k="amenity" v="kindergarten" />
		<tag k="capacity" v="96" />
		<tag k="contact:email" v="styrer@noahs-ark.no" />
		<tag k="max_age" v="5" />
		<tag k="min_age" v="1" />
		<tag k="name" v="Noahs Ark Miljøbarnehage AS" />
		<tag k="no-barnehage:nsrid" v="1021615" />
		<tag k="operator" v="Noahs Ark Miljøbarnehage AS" />
		<tag k="operator:type" v="private" />
		<tag k="start_date" v="2007-02-12" />
	</node>
	<node id="-2480" lat="59.81866" lon="10.34651">
		<tag k="amenity" v="kindergarten" />
		<tag k="capacity" v="42" />
		<tag k="max_age" v="5" />
		<tag k="min_age" v="1" />
		<tag k="name" v="Nedre Stabæk barnehage AS" />
		<tag k="no-barnehage:nsrid" v="1021335" />
		<tag k="operator" v="Nedre Stabæk barnehage AS" />
		<tag k="operator:type" v="private" />
		<tag k="start_date" v="1989-01-01" />
	</node>
	<node id="-2478" lat="59.84315" lon="10.22313">
		<tag k="amenity" v="kindergarten" />
		<tag k="capacity" v="40" />
		<tag k="contact:email" v="merikroken@barnehage.no" />
		<tag k="contact:phone" v="32 85 55 68" />
		<tag k="contact:website" v="http://www.merikroken.barnehage.no" />
		<tag k="max_age" v="5" />
		<tag k="min_age" v="1" />
		<tag k="name" v="Merikroken barnehage Sa" />
		<tag k="no-barnehage:nsrid" v="1019514" />
		<tag k="operator" v="Merikroken barnehage Sa" />
		<tag k="operator:type" v="private" />
		<tag k="start_date" v="1978-09-01" />
	</node>
	<node id="-2477" lat="59.7484" lon="10.2743">
		<tag k="amenity" v="kindergarten" />
		<tag k="capacity" v="54" />
		<tag k="contact:email" v="postmottak@lier.kommune.no" />
		<tag k="contact:phone" v="32 85 96 50" />
		<tag k="max_age" v="5" />
		<tag k="min_age" v="1" />
		<tag k="name" v="Linnesstranda barnehage" />
		<tag k="no-barnehage:nsrid" v="1012624" />
		<tag k="operator" v="Lier kommune" />
		<tag k="operator:type" v="public" />
		<tag k="start_date" v="1989-01-01" />
	</node>
	<node id="-2476" lat="59.79126" lon="10.26073">
		<tag k="amenity" v="kindergarten" />
		<tag k="capacity" v="55" />
		<tag k="contact:email" v="post@lnlbarnehage.no" />
		<tag k="contact:phone" v="32 85 47 85" />
		<tag k="contact:website" v="http://www.lnl.barnehage.no" />
		<tag k="max_age" v="5" />
		<tag k="min_age" v="1" />
		<tag k="name" v="Lier Natur og Landbruks barnehage Sa" />
		<tag k="no-barnehage:nsrid" v="1020848" />
		<tag k="operator" v="Lier Natur og Landbruks barnehage Sa" />
		<tag k="operator:type" v="private" />
		<tag k="start_date" v="2002-10-01" />
	</node>
	<node id="-2475" lat="59.75304" lon="10.22758">
		<tag k="amenity" v="kindergarten" />
		<tag k="capacity" v="24" />
		<tag k="contact:email" v="post@jordbaerkollen.no" />
		<tag k="contact:phone" v="32 84 86 88" />
		<tag k="max_age" v="5" />
		<tag k="min_age" v="1" />
		<tag k="name" v="Jordbærkollen barnehage Sa" />
		<tag k="no-barnehage:nsrid" v="1021639" />
		<tag k="operator" v="Jordbærkollen barnehage Sa" />
		<tag k="operator:type" v="private" />
		<tag k="start_date" v="2006-08-25" />
	</node>
	<node id="-2474" lat="59.8216" lon="10.2798">
		<tag k="amenity" v="kindergarten" />
		<tag k="capacity" v="52" />
		<tag k="contact:email" v="hennummarka.barnehage@lier.kommune.no" />
		<tag k="contact:phone" v="32 85 41 00" />
		<tag k="max_age" v="5" />
		<tag k="min_age" v="1" />
		<tag k="name" v="Hennummarka barnehage" />
		<tag k="no-barnehage:nsrid" v="1016027" />
		<tag k="operator" v="Lier kommune" />
		<tag k="operator:type" v="public" />
		<tag k="start_date" v="1990-01-01" />
	</node>
	<node id="-2472" lat="59.79101" lon="10.22359">
		<tag k="amenity" v="kindergarten" />
		<tag k="capacity" v="53" />
		<tag k="contact:phone" v="32 84 66 02" />
		<tag k="max_age" v="5" />
		<tag k="min_age" v="1" />
		<tag k="name" v="Helgerud Barnegård AS" />
		<tag k="no-barnehage:nsrid" v="1021387" />
		<tag k="operator" v="Helgerud Barnegård AS" />
		<tag k="operator:type" v="private" />
		<tag k="start_date" v="1997-09-01" />
	</node>
	<node id="-2471" lat="59.83063" lon="10.32049">
		<tag k="amenity" v="kindergarten" />
		<tag k="capacity" v="123" />
		<tag k="contact:phone" v="92019339" />
		<tag k="max_age" v="5" />
		<tag k="min_age" v="1" />
		<tag k="name" v="Heia Fus barnehage AS" />
		<tag k="no-barnehage:nsrid" v="1021175" />
		<tag k="operator" v="Heia Fus barnehage AS" />
		<tag k="operator:type" v="private" />
		<tag k="start_date" v="2005-01-04" />
	</node>
	<node id="-2470" lat="59.79379" lon="10.26296">
		<tag k="amenity" v="kindergarten" />
		<tag k="capacity" v="88" />
		<tag k="contact:email" v="brev@tryggebarnehager.no" />
		<tag k="max_age" v="5" />
		<tag k="min_age" v="1" />
		<tag k="name" v="Hasselbakken Fus barnehage AS" />
		<tag k="no-barnehage:nsrid" v="1021657" />
		<tag k="operator" v="Hasselbakken Fus barnehage AS" />
		<tag k="operator:type" v="private" />
		<tag k="start_date" v="2007-05-10" />
	</node>
	<node id="-2469" lat="59.81819" lon="10.28003">
		<tag k="amenity" v="kindergarten" />
		<tag k="capacity" v="55" />
		<tag k="contact:email" v="styrer@gunnersbratan.no" />
		<tag k="contact:phone" v="32 85 32 75" />
		<tag k="contact:website" v="http://www.gunnersbratan.no" />
		<tag k="max_age" v="5" />
		<tag k="min_age" v="1" />
		<tag k="name" v="Gunnersbråtan barnehage" />
		<tag k="no-barnehage:nsrid" v="1020224" />
		<tag k="operator" v="Gunnersbråtan barnehage Sa" />
		<tag k="operator:type" v="private" />
		<tag k="start_date" v="1993-09-27" />
	</node>
	<node id="-2468" lat="59.7933" lon="10.261">
		<tag k="amenity" v="kindergarten" />
		<tag k="capacity" v="63" />
		<tag k="max_age" v="5" />
		<tag k="min_age" v="1" />
		<tag k="name" v="Foss barnehage" />
		<tag k="no-barnehage:nsrid" v="1016644" />
		<tag k="operator" v="Ulna AS" />
		<tag k="operator:type" v="private" />
		<tag k="start_date" v="1989-01-02" />
	</node>
	<node id="-2466" lat="59.78821" lon="10.23422">
		<tag k="amenity" v="kindergarten" />
		<tag k="capacity" v="81" />
		<tag k="contact:email" v="post@espira.no" />
		<tag k="contact:phone" v="52 84 50 20" />
		<tag k="contact:website" v="http://www.espira.no" />
		<tag k="max_age" v="5" />
		<tag k="min_age" v="1" />
		<tag k="name" v="Espira Eikenga barnehage" />
		<tag k="no-barnehage:nsrid" v="1020186" />
		<tag k="operator" v="Espira Eikenga Sa" />
		<tag k="operator:type" v="private" />
		<tag k="start_date" v="1995-04-26" />
	</node>
	<node id="-2465" lat="59.9046" lon="10.264">
		<tag k="amenity" v="kindergarten" />
		<tag k="capacity" v="72" />
		<tag k="contact:email" v="dambratan.barnehage@lier.kommune.no" />
		<tag k="contact:phone" v="32 85 64 65" />
		<tag k="max_age" v="5" />
		<tag k="min_age" v="1" />
		<tag k="name" v="Dambråtan barnehage" />
		<tag k="no-barnehage:nsrid" v="1012623" />
		<tag k="operator" v="Lier kommune" />
		<tag k="operator:type" v="public" />
		<tag k="start_date" v="1992-01-01" />
	</node>
	<node id="-2464" lat="59.82944" lon="10.25655">
		<tag k="amenity" v="kindergarten" />
		<tag k="capacity" v="36" />
		<tag k="contact:email" v="post@borgestad-barnehage.no" />
		<tag k="contact:phone" v="32 85 00 15" />
		<tag k="contact:website" v="http://www.borgestad-barnehage.no" />
		<tag k="max_age" v="5" />
		<tag k="min_age" v="1" />
		<tag k="name" v="Borgestad barnehage Sa" />
		<tag k="no-barnehage:nsrid" v="1020030" />
		<tag k="operator" v="Borgestad barnehage Sa" />
		<tag k="operator:type" v="private" />
		<tag k="start_date" v="1992-01-01" />
	</node>
	<node id="-2463" lat="59.78515" lon="10.24112">
		<tag k="amenity" v="kindergarten" />
		<tag k="capacity" v="45" />
		<tag k="contact:email" v="styrer@bakkelibarnehage.no" />
		<tag k="contact:website" v="http://www.bakkelibarnehage.no" />
		<tag k="max_age" v="5" />
		<tag k="min_age" v="1" />
		<tag k="name" v="Bakkeli barnehage Sa" />
		<tag k="no-barnehage:nsrid" v="1021228" />
		<tag k="operator" v="Bakkeli barnehage Sa" />
		<tag k="operator:type" v="private" />
		<tag k="start_date" v="1976-01-01" />
	</node>
	<node id="-2462" lat="59.82851" lon="10.2853">
		<tag k="amenity" v="kindergarten" />
		<tag k="capacity" v="57" />
		<tag k="contact:email" v="post@akebakken.com" />
		<tag k="contact:phone" v="32 84 71 66" />
		<tag k="contact:website" v="http://www.akebakken.com" />
		<tag k="max_age" v="5" />
		<tag k="min_age" v="1" />
		<tag k="name" v="Akebakken barnehage Sa" />
		<tag k="no-barnehage:nsrid" v="1020431" />
		<tag k="operator" v="Akebakken barnehage Sa" />
		<tag k="operator:type" v="private" />
		<tag k="start_date" v="1997-04-10" />
	</node>
</osm>
