<?xml version="1.0" encoding="UTF-8"?>
<osm generator="osmapis" version="0.6">
	<node id="-1710" lat="68.91679" lon="15.08736">
		<tag k="ADDRESS" v="Støveien 8B, 8430 MYRE" />
		<tag k="amenity" v="kindergarten" />
		<tag k="capacity" v="40" />
		<tag k="max_age" v="5" />
		<tag k="min_age" v="1" />
		<tag k="name" v="Myre bedriftsbarnehage" />
		<tag k="no-barnehage:nsrid" v="972209503" />
		<tag k="operator" v="Myre bedriftsbarnehage AS" />
		<tag k="operator:type" v="private" />
	</node>
	<node id="-1711" lat="68.95983" lon="15.17808">
		<tag k="ADDRESS" v="Strengelvåg, 8430 MYRE" />
		<tag k="amenity" v="kindergarten" />
		<tag k="capacity" v="15" />
		<tag k="max_age" v="5" />
		<tag k="min_age" v="1" />
		<tag k="name" v="Strengelvåg barnehage" />
		<tag k="no-barnehage:nsrid" v="975313255" />
		<tag k="operator" v="Øksnes kommune" />
		<tag k="operator:type" v="public" />
	</node>
	<node id="-1712" lat="68.89748" lon="15.07372">
		<tag k="ADDRESS" v="Frivågveien 21, 8430 MYRE" />
		<tag k="amenity" v="kindergarten" />
		<tag k="capacity" v="40" />
		<tag k="max_age" v="5" />
		<tag k="min_age" v="1" />
		<tag k="name" v="Tangsprellen barnehage" />
		<tag k="no-barnehage:nsrid" v="994394339" />
		<tag k="operator" v="Øksnes kommune" />
		<tag k="operator:type" v="public" />
	</node>
	<node id="-1713" lat="68.92062" lon="15.0866">
		<tag k="ADDRESS" v="Nedre Kirkevei 7, 8430 MYRE" />
		<tag k="amenity" v="kindergarten" />
		<tag k="capacity" v="54" />
		<tag k="contact:website" v="http://www.trollskogen-bhg.no" />
		<tag k="max_age" v="5" />
		<tag k="min_age" v="1" />
		<tag k="name" v="Trollskogen barnehage" />
		<tag k="no-barnehage:nsrid" v="886584172" />
		<tag k="operator" v="Trollskogen barnehage SA" />
		<tag k="operator:type" v="private" />
	</node>
	<node id="-1714" lat="0.0" lon="0.0">
		<tag k="ADDRESS" v=", 8432 ALSVÅG" />
		<tag k="amenity" v="kindergarten" />
		<tag k="capacity" v="28" />
		<tag k="max_age" v="5" />
		<tag k="min_age" v="1" />
		<tag k="name" v="Ørntua barnehage" />
		<tag k="no-barnehage:nsrid" v="976692764" />
		<tag k="operator" v="Øksnes kommune" />
		<tag k="operator:type" v="public" />
	</node>
</osm>
