<?xml version="1.0" encoding="UTF-8"?>
<osm generator="osmapis" version="0.6">
	<node id="-445" lat="59.8052" lon="10.8215">
		<tag k="amenity" v="kindergarten" />
		<tag k="capacity" v="45" />
		<tag k="contact:email" v="mona.mobak@oppegard.kommune.no" />
		<tag k="contact:phone" v="+47 66 80 95 40" />
		<tag k="max_age" v="5" />
		<tag k="min_age" v="1" />
		<tag k="name" v="Ødegården barnehage" />
		<tag k="no-barnehage:nsrid" v="1012769" />
		<tag k="operator" v="Oppegård kommune" />
		<tag k="operator:type" v="public" />
		<tag k="start_date" v="1965-12-31" />
	</node>
	<node id="-444" lat="59.766" lon="10.8096">
		<tag k="amenity" v="kindergarten" />
		<tag k="capacity" v="17" />
		<tag k="contact:email" v="karin.strand@oppegard.kommune.no" />
		<tag k="contact:phone" v="+47 66993321" />
		<tag k="max_age" v="5" />
		<tag k="min_age" v="3" />
		<tag k="name" v="Vestre Greverud barnehage Avd Toppenhaug" />
		<tag k="no-barnehage:nsrid" v="1025484" />
		<tag k="operator" v="Oppegård kommune" />
		<tag k="operator:type" v="public" />
		<tag k="start_date" v="1988-04-01" />
	</node>
	<node id="-443" lat="59.7744" lon="10.8024">
		<tag k="amenity" v="kindergarten" />
		<tag k="capacity" v="46" />
		<tag k="contact:email" v="karin.strand@oppegard.kommune.no" />
		<tag k="contact:phone" v="+47 66822160" />
		<tag k="max_age" v="5" />
		<tag k="min_age" v="1" />
		<tag k="name" v="Vestre Greverud barnehage Avd Flåtestadveien" />
		<tag k="no-barnehage:nsrid" v="1012772" />
		<tag k="operator" v="Oppegård kommune" />
		<tag k="operator:type" v="public" />
		<tag k="start_date" v="1988-04-01" />
	</node>
	<node id="-442" lat="59.7779" lon="10.8032">
		<tag k="amenity" v="kindergarten" />
		<tag k="capacity" v="54" />
		<tag k="contact:email" v="vestliveien.barnehage@oppegard.kommune.no" />
		<tag k="contact:phone" v="+47 66891130" />
		<tag k="max_age" v="5" />
		<tag k="min_age" v="1" />
		<tag k="name" v="Vestliveien barnehage" />
		<tag k="no-barnehage:nsrid" v="1015992" />
		<tag k="operator" v="Oppegård kommune" />
		<tag k="operator:type" v="public" />
		<tag k="start_date" v="1989-01-02" />
	</node>
	<node id="-441" lat="59.794" lon="10.8148">
		<tag k="amenity" v="kindergarten" />
		<tag k="capacity" v="48" />
		<tag k="contact:email" v="sturle.hoff@oppegard.kommune.no" />
		<tag k="contact:phone" v="+47 66 81 29 30" />
		<tag k="max_age" v="5" />
		<tag k="min_age" v="1" />
		<tag k="name" v="Tømteveien barnehage" />
		<tag k="no-barnehage:nsrid" v="1012774" />
		<tag k="operator" v="Oppegård kommune" />
		<tag k="operator:type" v="public" />
		<tag k="start_date" v="1988-04-01" />
	</node>
	<node id="-440" lat="59.8122" lon="10.7858">
		<tag k="amenity" v="kindergarten" />
		<tag k="capacity" v="50" />
		<tag k="contact:email" v="john.borresen@oppegard.kommune.no" />
		<tag k="contact:phone" v="+47 66 89 29 20" />
		<tag k="max_age" v="5" />
		<tag k="min_age" v="1" />
		<tag k="name" v="Trolldalen barnehage Avd Vassbonn" />
		<tag k="no-barnehage:nsrid" v="1012770" />
		<tag k="operator" v="Oppegård kommune" />
		<tag k="operator:type" v="public" />
		<tag k="start_date" v="1981-07-27" />
	</node>
	<node id="-439" lat="59.8173" lon="10.7782">
		<tag k="amenity" v="kindergarten" />
		<tag k="capacity" v="31" />
		<tag k="contact:email" v="john.borresen@oppegard.kommune.no" />
		<tag k="contact:phone" v="+47 66 89 29 20" />
		<tag k="max_age" v="5" />
		<tag k="min_age" v="1" />
		<tag k="name" v="Trolldalen barnehage Avd Trollåsen" />
		<tag k="no-barnehage:nsrid" v="1016199" />
		<tag k="operator" v="Oppegård kommune" />
		<tag k="operator:type" v="public" />
		<tag k="start_date" v="1989-01-02" />
	</node>
	<node id="-438" lat="59.7666" lon="10.8165">
		<tag k="amenity" v="kindergarten" />
		<tag k="capacity" v="62" />
		<tag k="contact:email" v="tone.haugersveen@oppegard.kommune.no" />
		<tag k="contact:phone" v="+47 66 82 20 40" />
		<tag k="max_age" v="5" />
		<tag k="min_age" v="1" />
		<tag k="name" v="Sætreskogen barnehage" />
		<tag k="no-barnehage:nsrid" v="1012768" />
		<tag k="operator" v="Oppegård kommune" />
		<tag k="operator:type" v="public" />
		<tag k="start_date" v="1976-01-01" />
	</node>
	<node id="-437" lat="59.77857" lon="10.75117">
		<tag k="amenity" v="kindergarten" />
		<tag k="capacity" v="14" />
		<tag k="contact:email" v="svartskogbarnehage@online.no" />
		<tag k="contact:phone" v="+47 66 80 52 31" />
		<tag k="max_age" v="5" />
		<tag k="min_age" v="1" />
		<tag k="name" v="Svartskog Friluftsbarnehage Sa" />
		<tag k="no-barnehage:nsrid" v="1020590" />
		<tag k="operator" v="Svartskog Friluftsbarnehage Sa" />
		<tag k="operator:type" v="private" />
		<tag k="start_date" v="1991-07-01" />
	</node>
	<node id="-436" lat="59.79504" lon="10.8151">
		<tag k="amenity" v="kindergarten" />
		<tag k="capacity" v="65" />
		<tag k="contact:email" v="styrer@sofiemyrasen.no" />
		<tag k="contact:phone" v="+47 66 82 16 80" />
		<tag k="max_age" v="5" />
		<tag k="min_age" v="1" />
		<tag k="name" v="Sofiemyråsen barnehage Sa" />
		<tag k="no-barnehage:nsrid" v="1020604" />
		<tag k="operator" v="Sofiemyråsen barnehage Sa" />
		<tag k="operator:type" v="private" />
		<tag k="start_date" v="2000-08-31" />
	</node>
	<node id="-435" lat="59.7713" lon="10.8193">
		<tag k="amenity" v="kindergarten" />
		<tag k="capacity" v="65" />
		<tag k="contact:email" v="lisbeth.immerstein@oppegard.kommune.no" />
		<tag k="contact:phone" v="+47 66 81 91 22" />
		<tag k="max_age" v="5" />
		<tag k="min_age" v="1" />
		<tag k="name" v="Slåbråten barnehage" />
		<tag k="no-barnehage:nsrid" v="1017152" />
		<tag k="operator" v="Oppegård kommune" />
		<tag k="operator:type" v="public" />
		<tag k="start_date" v="2006-08-01" />
	</node>
	<node id="-434" lat="59.7887" lon="10.8162">
		<tag k="amenity" v="kindergarten" />
		<tag k="capacity" v="59" />
		<tag k="contact:email" v="marianne.bagge-skarheim@oppegard.kommune.no" />
		<tag k="contact:phone" v="+47 66 82 20 50" />
		<tag k="max_age" v="5" />
		<tag k="min_age" v="1" />
		<tag k="name" v="Rognebærlia barnehage" />
		<tag k="no-barnehage:nsrid" v="1015991" />
		<tag k="operator" v="Oppegård kommune" />
		<tag k="operator:type" v="public" />
		<tag k="start_date" v="1991-07-01" />
	</node>
	<node id="-433" lat="59.81791" lon="10.80059">
		<tag k="amenity" v="kindergarten" />
		<tag k="capacity" v="62" />
		<tag k="contact:email" v="rikeasen@online.no" />
		<tag k="contact:phone" v="+47 66 99 40 77" />
		<tag k="contact:website" v="http://www.rikeasen.barnehage.no" />
		<tag k="max_age" v="5" />
		<tag k="min_age" v="1" />
		<tag k="name" v="Rikeåsen barnehage Sa" />
		<tag k="no-barnehage:nsrid" v="1020337" />
		<tag k="operator" v="Rikeåsen barnehage Sa" />
		<tag k="operator:type" v="private" />
		<tag k="start_date" v="1997-02-28" />
	</node>
	<node id="-432" lat="59.8121" lon="10.799">
		<tag k="amenity" v="kindergarten" />
		<tag k="contact:email" v="Ingerelisabeth.merli@oppegard.kommune.no" />
		<tag k="contact:phone" v="+47 66 81 91 75" />
		<tag k="name" v="Oppegård kommune Åpen barnehage" />
		<tag k="no-barnehage:nsrid" v="1015681" />
		<tag k="operator" v="Oppegård kommune" />
		<tag k="operator:type" v="public" />
		<tag k="start_date" v="1998-01-01" />
	</node>
	<node id="-431" lat="59.7756" lon="10.795">
		<tag k="amenity" v="kindergarten" />
		<tag k="capacity" v="59" />
		<tag k="contact:email" v="inger.johanne.rose@oppegard.kommune.no" />
		<tag k="contact:phone" v="+47 66 89 11 60" />
		<tag k="max_age" v="5" />
		<tag k="min_age" v="1" />
		<tag k="name" v="Nordåsveien barnehage" />
		<tag k="no-barnehage:nsrid" v="1012776" />
		<tag k="operator" v="Oppegård kommune" />
		<tag k="operator:type" v="public" />
		<tag k="start_date" v="1990-08-01" />
	</node>
	<node id="-430" lat="59.8146" lon="10.7848">
		<tag k="amenity" v="kindergarten" />
		<tag k="capacity" v="61" />
		<tag k="contact:email" v="mellomasen.barnehage@oppegard.kommune.no" />
		<tag k="contact:phone" v="+47 66 81 24 50" />
		<tag k="max_age" v="5" />
		<tag k="min_age" v="1" />
		<tag k="name" v="Mellomåsen barnehage" />
		<tag k="no-barnehage:nsrid" v="1012775" />
		<tag k="operator" v="Oppegård kommune" />
		<tag k="operator:type" v="public" />
		<tag k="start_date" v="1988-04-01" />
	</node>
	<node id="-429" lat="59.8117" lon="10.8026">
		<tag k="amenity" v="kindergarten" />
		<tag k="capacity" v="49" />
		<tag k="contact:email" v="Ingerelisabeth.merli@oppegard.kommune.no" />
		<tag k="contact:phone" v="+47 66822210" />
		<tag k="max_age" v="5" />
		<tag k="min_age" v="1" />
		<tag k="name" v="Kolbotn barnehage Avd Skolebakken" />
		<tag k="no-barnehage:nsrid" v="1012773" />
		<tag k="operator" v="Oppegård kommune" />
		<tag k="operator:type" v="public" />
		<tag k="start_date" v="1988-04-01" />
	</node>
	<node id="-428" lat="59.8133" lon="10.7956">
		<tag k="amenity" v="kindergarten" />
		<tag k="capacity" v="13" />
		<tag k="contact:email" v="Ingerelisabeth.merli@oppegard.kommune.no" />
		<tag k="contact:phone" v="+47 66805968" />
		<tag k="max_age" v="5" />
		<tag k="min_age" v="1" />
		<tag k="name" v="Kolbotn barnehage Avd Liaveien" />
		<tag k="no-barnehage:nsrid" v="1013218" />
		<tag k="operator" v="Oppegård kommune" />
		<tag k="operator:type" v="public" />
		<tag k="start_date" v="2004-01-01" />
	</node>
	<node id="-427" lat="59.8137" lon="10.797">
		<tag k="amenity" v="kindergarten" />
		<tag k="capacity" v="68" />
		<tag k="contact:email" v="berit.kragebol@oppegard.kommune.no" />
		<tag k="contact:phone" v="+47 66823220" />
		<tag k="max_age" v="5" />
		<tag k="min_age" v="1" />
		<tag k="name" v="Kapellveien barnehage" />
		<tag k="no-barnehage:nsrid" v="1016467" />
		<tag k="operator" v="Oppegård kommune" />
		<tag k="operator:type" v="public" />
		<tag k="start_date" v="2002-11-18" />
	</node>
	<node id="-426" lat="59.8063" lon="10.7958">
		<tag k="amenity" v="kindergarten" />
		<tag k="capacity" v="41" />
		<tag k="contact:email" v="tove.lovold.stensby@oppegard.kommune.no" />
		<tag k="contact:phone" v="+47 66 82 21 80" />
		<tag k="max_age" v="5" />
		<tag k="min_age" v="1" />
		<tag k="name" v="Ingierkollen barnehage Avd Kantor" />
		<tag k="no-barnehage:nsrid" v="1016196" />
		<tag k="operator" v="Oppegård kommune" />
		<tag k="operator:type" v="public" />
		<tag k="start_date" v="1988-04-01" />
	</node>
	<node id="-425" lat="59.8053" lon="10.7853">
		<tag k="amenity" v="kindergarten" />
		<tag k="capacity" v="34" />
		<tag k="contact:email" v="tove.lovold.stensby@oppegard.kommune.no" />
		<tag k="contact:phone" v="+47 66 89 11 50" />
		<tag k="max_age" v="5" />
		<tag k="min_age" v="1" />
		<tag k="name" v="Ingierkollen barnehage Avd Ingieråsen" />
		<tag k="no-barnehage:nsrid" v="1025360" />
		<tag k="operator" v="Oppegård kommune" />
		<tag k="operator:type" v="public" />
		<tag k="start_date" v="1988-04-01" />
	</node>
	<node id="-424" lat="59.7985" lon="10.8151">
		<tag k="amenity" v="kindergarten" />
		<tag k="capacity" v="50" />
		<tag k="contact:email" v="norunn.juklestad@oppegard.kommune.no" />
		<tag k="contact:phone" v="+47 66 81 79 60" />
		<tag k="max_age" v="5" />
		<tag k="min_age" v="1" />
		<tag k="name" v="Holberg barnehage" />
		<tag k="no-barnehage:nsrid" v="1012778" />
		<tag k="operator" v="Oppegård kommune" />
		<tag k="operator:type" v="public" />
		<tag k="start_date" v="1991-08-01" />
	</node>
	<node id="-423" lat="59.8085" lon="10.8156">
		<tag k="amenity" v="kindergarten" />
		<tag k="capacity" v="54" />
		<tag k="contact:email" v="ingrid.annette.lien@oppegard.kommune.no" />
		<tag k="contact:phone" v="+47 66 80 27 22" />
		<tag k="max_age" v="5" />
		<tag k="min_age" v="1" />
		<tag k="name" v="Hellerasten barnehage" />
		<tag k="no-barnehage:nsrid" v="1012767" />
		<tag k="operator" v="Oppegård kommune" />
		<tag k="operator:type" v="public" />
		<tag k="start_date" v="1976-01-01" />
	</node>
	<node id="-422" lat="59.7879" lon="10.797">
		<tag k="amenity" v="kindergarten" />
		<tag k="capacity" v="57" />
		<tag k="contact:email" v="therese.michelet@oppegard.kommune.no" />
		<tag k="contact:phone" v="+47 66 81 92 52" />
		<tag k="max_age" v="5" />
		<tag k="min_age" v="1" />
		<tag k="name" v="Haukeliveien barnehage" />
		<tag k="no-barnehage:nsrid" v="1012777" />
		<tag k="operator" v="Oppegård kommune" />
		<tag k="operator:type" v="public" />
		<tag k="start_date" v="1991-08-01" />
	</node>
	<node id="-421" lat="59.8135" lon="10.8148">
		<tag k="amenity" v="kindergarten" />
		<tag k="capacity" v="86" />
		<tag k="contact:email" v="synnove.anfinsen@oppegard.kommune.no" />
		<tag k="contact:phone" v="+47 66 89 11 40" />
		<tag k="max_age" v="5" />
		<tag k="min_age" v="1" />
		<tag k="name" v="Hareveien barnehage" />
		<tag k="no-barnehage:nsrid" v="1013516" />
		<tag k="operator" v="Oppegård kommune" />
		<tag k="operator:type" v="public" />
		<tag k="start_date" v="2012-11-15" />
	</node>
	<node id="-420" lat="59.7683" lon="10.8043">
		<tag k="amenity" v="kindergarten" />
		<tag k="capacity" v="35" />
		<tag k="contact:email" v="hakon.larsen@oppegard.kommune.no" />
		<tag k="contact:phone" v="+47 66 81 31 90" />
		<tag k="max_age" v="5" />
		<tag k="min_age" v="1" />
		<tag k="name" v="Greverudlia barnehage" />
		<tag k="no-barnehage:nsrid" v="1013866" />
		<tag k="operator" v="Oppegård kommune" />
		<tag k="operator:type" v="public" />
		<tag k="start_date" v="1989-01-02" />
	</node>
	<node id="-419" lat="59.8178" lon="10.8187">
		<tag k="amenity" v="kindergarten" />
		<tag k="capacity" v="68" />
		<tag k="contact:email" v="toril.sjolund.dyrstad@oppegard.kommune.no" />
		<tag k="contact:phone" v="+47 66 81 28 30" />
		<tag k="max_age" v="5" />
		<tag k="min_age" v="1" />
		<tag k="name" v="Gimleveien barnehage" />
		<tag k="no-barnehage:nsrid" v="1013112" />
		<tag k="operator" v="Oppegård kommune" />
		<tag k="operator:type" v="public" />
		<tag k="start_date" v="2004-12-01" />
	</node>
	<node id="-418" lat="59.789" lon="10.7963">
		<tag k="amenity" v="kindergarten" />
		<tag k="capacity" v="93" />
		<tag k="contact:email" v="inger.ugland.haugen@oppegard.kommune.no" />
		<tag k="contact:phone" v="+47 66 89 11 90" />
		<tag k="max_age" v="5" />
		<tag k="min_age" v="1" />
		<tag k="name" v="Ekornrud barnehage" />
		<tag k="no-barnehage:nsrid" v="1017731" />
		<tag k="operator" v="Oppegård kommune" />
		<tag k="operator:type" v="public" />
		<tag k="start_date" v="2007-08-01" />
	</node>
	<node id="-417" lat="59.7965" lon="10.8111">
		<tag k="amenity" v="kindergarten" />
		<tag k="capacity" v="51" />
		<tag k="contact:email" v="braten.barnehage@oppegard.kommune.no" />
		<tag k="contact:phone" v="+47 66 89 11 20" />
		<tag k="max_age" v="5" />
		<tag k="min_age" v="1" />
		<tag k="name" v="Bråten barnehage" />
		<tag k="no-barnehage:nsrid" v="1012766" />
		<tag k="operator" v="Oppegård kommune" />
		<tag k="operator:type" v="public" />
		<tag k="start_date" v="1976-01-01" />
	</node>
	<node id="-416" lat="59.8146" lon="10.8128">
		<tag k="amenity" v="kindergarten" />
		<tag k="capacity" v="50" />
		<tag k="contact:email" v="augestad.barnehage@oppegard.kommune.no" />
		<tag k="contact:phone" v="+47 66 89 11 47" />
		<tag k="max_age" v="5" />
		<tag k="min_age" v="1" />
		<tag k="name" v="Augestad barnehage Avd Øståsen" />
		<tag k="no-barnehage:nsrid" v="1012779" />
		<tag k="operator" v="Oppegård kommune" />
		<tag k="operator:type" v="public" />
		<tag k="start_date" v="1965-12-31" />
	</node>
	<node id="-415" lat="59.812" lon="10.8203">
		<tag k="amenity" v="kindergarten" />
		<tag k="capacity" v="33" />
		<tag k="contact:email" v="augestad.barnehage@oppegard.kommune.no" />
		<tag k="contact:phone" v="+47 66 81 16 20" />
		<tag k="max_age" v="5" />
		<tag k="min_age" v="3" />
		<tag k="name" v="Augestad barnehage Avd Tårnåsen" />
		<tag k="no-barnehage:nsrid" v="1012771" />
		<tag k="operator" v="Oppegård kommune" />
		<tag k="operator:type" v="public" />
		<tag k="start_date" v="1965-12-31" />
	</node>
</osm>
