<?xml version="1.0" encoding="UTF-8"?>
<osm generator="osmapis" version="0.6">
	<node id="-4660" lat="62.3005" lon="6.08222">
		<tag k="amenity" v="kindergarten" />
		<tag k="capacity" v="47" />
		<tag k="contact:phone" v="70041073" />
		<tag k="max_age" v="5" />
		<tag k="min_age" v="1" />
		<tag k="name" v="Vartdal barnehage" />
		<tag k="no-barnehage:nsrid" v="1016841" />
		<tag k="operator" v="Ørsta kommune" />
		<tag k="operator:type" v="public" />
		<tag k="start_date" v="1976-12-24" />
	</node>
	<node id="-4659" lat="62.2068" lon="6.47503">
		<tag k="amenity" v="kindergarten" />
		<tag k="capacity" v="28" />
		<tag k="contact:phone" v="70040196" />
		<tag k="max_age" v="5" />
		<tag k="min_age" v="1" />
		<tag k="name" v="Sæbø barnehage" />
		<tag k="no-barnehage:nsrid" v="1013752" />
		<tag k="operator" v="Ørsta kommune" />
		<tag k="operator:type" v="public" />
		<tag k="start_date" v="1989-01-02" />
	</node>
	<node id="-4658" lat="62.20604" lon="6.118641">
		<tag k="amenity" v="kindergarten" />
		<tag k="capacity" v="63" />
		<tag k="contact:phone" v="70068840" />
		<tag k="max_age" v="5" />
		<tag k="min_age" v="1" />
		<tag k="name" v="Stiftelsen Farkvamen barnehage" />
		<tag k="no-barnehage:nsrid" v="1019834" />
		<tag k="operator" v="Stiftelsen Farkvamen" />
		<tag k="operator:type" v="private" />
		<tag k="start_date" v="1989-01-02" />
	</node>
	<node id="-4657" lat="62.187" lon="6.10962">
		<tag k="amenity" v="kindergarten" />
		<tag k="capacity" v="37" />
		<tag k="contact:phone" v="70068689" />
		<tag k="max_age" v="5" />
		<tag k="min_age" v="1" />
		<tag k="name" v="Rystene barnehage" />
		<tag k="no-barnehage:nsrid" v="1014735" />
		<tag k="operator" v="Ørsta kommune" />
		<tag k="operator:type" v="public" />
		<tag k="start_date" v="1992-01-01" />
	</node>
	<node id="-4656" lat="62.19758" lon="6.154055">
		<tag k="amenity" v="kindergarten" />
		<tag k="capacity" v="102" />
		<tag k="contact:email" v="arnt@mosmarka.no" />
		<tag k="contact:phone" v="70 06 83 58" />
		<tag k="contact:website" v="http://www.mosmarka.barnehage.no" />
		<tag k="max_age" v="5" />
		<tag k="min_age" v="1" />
		<tag k="name" v="Mosmarka barnehage Sa" />
		<tag k="no-barnehage:nsrid" v="1020268" />
		<tag k="operator" v="Mosmarka barnehage Sa" />
		<tag k="operator:type" v="private" />
		<tag k="start_date" v="1995-11-21" />
	</node>
	<node id="-4655" lat="62.24077" lon="5.998796">
		<tag k="amenity" v="kindergarten" />
		<tag k="capacity" v="27" />
		<tag k="contact:phone" v="70 06 12 12" />
		<tag k="max_age" v="5" />
		<tag k="min_age" v="1" />
		<tag k="name" v="Liadal barnehage Sa" />
		<tag k="no-barnehage:nsrid" v="1019729" />
		<tag k="operator" v="Liadal barnehage Sa" />
		<tag k="operator:type" v="private" />
		<tag k="start_date" v="1989-01-02" />
	</node>
	<node id="-4654" lat="62.206" lon="6.14385">
		<tag k="amenity" v="kindergarten" />
		<tag k="capacity" v="34" />
		<tag k="contact:phone" v="70067442" />
		<tag k="max_age" v="5" />
		<tag k="min_age" v="1" />
		<tag k="name" v="Kvitveisen barnehage" />
		<tag k="no-barnehage:nsrid" v="1014736" />
		<tag k="operator" v="Ørsta kommune" />
		<tag k="operator:type" v="public" />
		<tag k="start_date" v="1992-01-01" />
	</node>
	<node id="-4653" lat="62.1843" lon="6.07972">
		<tag k="amenity" v="kindergarten" />
		<tag k="capacity" v="59" />
		<tag k="contact:phone" v="70067044" />
		<tag k="max_age" v="5" />
		<tag k="min_age" v="1" />
		<tag k="name" v="Hovdebygda barnehage" />
		<tag k="no-barnehage:nsrid" v="1025400" />
		<tag k="operator" v="Ørsta kommune" />
		<tag k="operator:type" v="public" />
		<tag k="start_date" v="1976-12-24" />
	</node>
	<node id="-4652" lat="62.20067" lon="6.142385">
		<tag k="amenity" v="kindergarten" />
		<tag k="capacity" v="62" />
		<tag k="contact:phone" v="70 06 82 86" />
		<tag k="max_age" v="5" />
		<tag k="min_age" v="1" />
		<tag k="name" v="Foreldreforeininga Krokedalen Barne" />
		<tag k="no-barnehage:nsrid" v="1020755" />
		<tag k="operator" v="Krokedalen barnehage Sa" />
		<tag k="operator:type" v="private" />
		<tag k="start_date" v="1989-01-01" />
	</node>
	<node id="-4651" lat="62.1505" lon="6.0867">
		<tag k="amenity" v="kindergarten" />
		<tag k="capacity" v="45" />
		<tag k="contact:phone" v="70063210" />
		<tag k="max_age" v="5" />
		<tag k="min_age" v="1" />
		<tag k="name" v="Dalane barnehage" />
		<tag k="no-barnehage:nsrid" v="1015972" />
		<tag k="operator" v="Ørsta kommune" />
		<tag k="operator:type" v="public" />
		<tag k="start_date" v="1992-01-01" />
	</node>
	<node id="-4650" lat="62.1956" lon="6.13131">
		<tag k="amenity" v="kindergarten" />
		<tag k="capacity" v="123" />
		<tag k="contact:phone" v="70066967" />
		<tag k="max_age" v="5" />
		<tag k="min_age" v="1" />
		<tag k="name" v="Barnas Vel barnehage" />
		<tag k="no-barnehage:nsrid" v="1016103" />
		<tag k="operator" v="Ørsta kommune" />
		<tag k="operator:type" v="public" />
		<tag k="start_date" v="1965-12-31" />
	</node>
</osm>
