<?xml version="1.0" encoding="UTF-8"?>
<osm generator="osmapis" version="0.6">
	<node id="-5601" lat="69.25097" lon="17.95888">
		<tag k="ADDRESS" v="Asphaugen 5, 9303 SILSAND" />
		<tag k="amenity" v="kindergarten" />
		<tag k="capacity" v="55" />
		<tag k="contact:website" v="http://asphaugen.barnehage.no" />
		<tag k="max_age" v="5" />
		<tag k="min_age" v="1" />
		<tag k="name" v="Asphaugen friluftsbarnehage" />
		<tag k="no-barnehage:nsrid" v="874900702" />
		<tag k="operator" v="Asphaugen Friluftsbarnehage Sa" />
		<tag k="operator:type" v="private" />
	</node>
	<node id="-5602" lat="69.23434" lon="17.97565">
		<tag k="ADDRESS" v="Nygårdsveien 24, 9300 FINNSNES" />
		<tag k="amenity" v="kindergarten" />
		<tag k="capacity" v="28" />
		<tag k="max_age" v="5" />
		<tag k="min_age" v="1" />
		<tag k="name" v="Berglia barnehage" />
		<tag k="no-barnehage:nsrid" v="974061775" />
		<tag k="operator" v="Senja kommune" />
		<tag k="operator:type" v="public" />
	</node>
	<node id="-5603" lat="69.23528" lon="18.00197">
		<tag k="ADDRESS" v="Øvre Hamna 34, 9300 FINNSNES" />
		<tag k="amenity" v="kindergarten" />
		<tag k="capacity" v="44" />
		<tag k="max_age" v="5" />
		<tag k="min_age" v="1" />
		<tag k="name" v="Blomli barnehage" />
		<tag k="no-barnehage:nsrid" v="976979591" />
		<tag k="operator" v="Senja kommune" />
		<tag k="operator:type" v="public" />
	</node>
	<node id="-5604" lat="69.50111" lon="17.87234">
		<tag k="ADDRESS" v="Botnhamnveien 592, 9373 BOTNHAMN" />
		<tag k="amenity" v="kindergarten" />
		<tag k="capacity" v="24" />
		<tag k="max_age" v="5" />
		<tag k="min_age" v="1" />
		<tag k="name" v="Botnhamn barnehage" />
		<tag k="no-barnehage:nsrid" v="972280739" />
		<tag k="operator" v="Senja kommune" />
		<tag k="operator:type" v="public" />
	</node>
	<node id="-5605" lat="69.19314" lon="17.77365">
		<tag k="ADDRESS" v="Solliveien 64, 9303 SILSAND" />
		<tag k="amenity" v="kindergarten" />
		<tag k="capacity" v="40" />
		<tag k="max_age" v="5" />
		<tag k="min_age" v="1" />
		<tag k="name" v="Dansesletta barnehage" />
		<tag k="no-barnehage:nsrid" v="975321932" />
		<tag k="operator" v="Senja kommune" />
		<tag k="operator:type" v="public" />
	</node>
	<node id="-5606" lat="69.24201" lon="17.94018">
		<tag k="ADDRESS" v="Harald Silsands Vei 30, 9303 SILSAND" />
		<tag k="amenity" v="kindergarten" />
		<tag k="capacity" v="96" />
		<tag k="max_age" v="5" />
		<tag k="min_age" v="1" />
		<tag k="name" v="Furumoen barnehage" />
		<tag k="no-barnehage:nsrid" v="972280747" />
		<tag k="operator" v="Senja kommune" />
		<tag k="operator:type" v="public" />
	</node>
	<node id="-5607" lat="69.35438" lon="18.06395">
		<tag k="ADDRESS" v="Lysnesveien 28, 9372 GIBOSTAD" />
		<tag k="amenity" v="kindergarten" />
		<tag k="capacity" v="29" />
		<tag k="max_age" v="5" />
		<tag k="min_age" v="1" />
		<tag k="name" v="Gibostad barnehage" />
		<tag k="no-barnehage:nsrid" v="975313719" />
		<tag k="operator" v="Senja kommune" />
		<tag k="operator:type" v="public" />
	</node>
	<node id="-5608" lat="0.0" lon="0.0">
		<tag k="ADDRESS" v=", 9380 GRYLLEFJORD" />
		<tag k="amenity" v="kindergarten" />
		<tag k="capacity" v="20" />
		<tag k="max_age" v="5" />
		<tag k="min_age" v="1" />
		<tag k="name" v="Gryllefjord barnehage" />
		<tag k="no-barnehage:nsrid" v="976979397" />
		<tag k="operator" v="Senja kommune" />
		<tag k="operator:type" v="public" />
	</node>
	<node id="-5609" lat="69.54395" lon="17.6597">
		<tag k="ADDRESS" v="Skolebakken 24, 9389 HUSØY I SENJA" />
		<tag k="amenity" v="kindergarten" />
		<tag k="capacity" v="12" />
		<tag k="max_age" v="5" />
		<tag k="min_age" v="1" />
		<tag k="name" v="Husøy barnehage" />
		<tag k="no-barnehage:nsrid" v="975324346" />
		<tag k="operator" v="Senja kommune" />
		<tag k="operator:type" v="public" />
	</node>
	<node id="-5610" lat="69.39127" lon="18.1824">
		<tag k="ADDRESS" v="Kårvikveien 159, 9307 FINNSNES" />
		<tag k="amenity" v="kindergarten" />
		<tag k="capacity" v="9" />
		<tag k="max_age" v="5" />
		<tag k="min_age" v="1" />
		<tag k="name" v="Kårvik barnehage" />
		<tag k="no-barnehage:nsrid" v="975322467" />
		<tag k="operator" v="Senja kommune" />
		<tag k="operator:type" v="public" />
	</node>
	<node id="-5611" lat="69.28137" lon="17.05063">
		<tag k="ADDRESS" v="Medbyveien 105, 9395 KALDFARNES" />
		<tag k="amenity" v="kindergarten" />
		<tag k="capacity" v="9" />
		<tag k="max_age" v="5" />
		<tag k="min_age" v="1" />
		<tag k="name" v="Medby barnehage" />
		<tag k="no-barnehage:nsrid" v="975199150" />
		<tag k="operator" v="Senja kommune" />
		<tag k="operator:type" v="public" />
	</node>
	<node id="-5612" lat="0.0" lon="0.0">
		<tag k="ADDRESS" v="Helsesenterveien 12, 9300 FINNSNES" />
		<tag k="amenity" v="kindergarten" />
		<tag k="capacity" v="54" />
		<tag k="contact:website" v="http://nlm-heimly.barnehage.no/" />
		<tag k="max_age" v="5" />
		<tag k="min_age" v="1" />
		<tag k="name" v="NLM barnehagene avd. Heimly barnehage" />
		<tag k="no-barnehage:nsrid" v="882568202" />
		<tag k="operator" v="Nlm-Barnehagene AS" />
		<tag k="operator:type" v="private" />
	</node>
	<node id="-5613" lat="69.36462" lon="18.33039">
		<tag k="ADDRESS" v="Sultindvikveien 67, 9302 ROSSFJORDSTRAUMEN" />
		<tag k="amenity" v="kindergarten" />
		<tag k="capacity" v="23" />
		<tag k="max_age" v="5" />
		<tag k="min_age" v="1" />
		<tag k="name" v="Rossfjord barnehage" />
		<tag k="no-barnehage:nsrid" v="975322475" />
		<tag k="operator" v="Senja kommune" />
		<tag k="operator:type" v="public" />
	</node>
	<node id="-5614" lat="69.49801" lon="17.48619">
		<tag k="ADDRESS" v="Skoleveien 46, 9386 SENJAHOPEN" />
		<tag k="amenity" v="kindergarten" />
		<tag k="capacity" v="14" />
		<tag k="max_age" v="5" />
		<tag k="min_age" v="1" />
		<tag k="name" v="Senjahopen barnehage" />
		<tag k="no-barnehage:nsrid" v="974061643" />
		<tag k="operator" v="Senja kommune" />
		<tag k="operator:type" v="public" />
	</node>
	<node id="-5615" lat="69.24605" lon="17.9467">
		<tag k="ADDRESS" v="Hallveien 37, 9303 SILSAND" />
		<tag k="amenity" v="kindergarten" />
		<tag k="capacity" v="27" />
		<tag k="max_age" v="5" />
		<tag k="min_age" v="1" />
		<tag k="name" v="Silsand barnehage" />
		<tag k="no-barnehage:nsrid" v="975317900" />
		<tag k="operator" v="Senja kommune" />
		<tag k="operator:type" v="public" />
	</node>
	<node id="-5616" lat="69.44819" lon="17.29254">
		<tag k="ADDRESS" v="Prestegårdsveien 39, 9385 SKALAND" />
		<tag k="amenity" v="kindergarten" />
		<tag k="capacity" v="19" />
		<tag k="max_age" v="5" />
		<tag k="min_age" v="1" />
		<tag k="name" v="Skaland barnehage" />
		<tag k="no-barnehage:nsrid" v="975313697" />
		<tag k="operator" v="Senja kommune" />
		<tag k="operator:type" v="public" />
	</node>
	<node id="-5617" lat="69.23363" lon="18.0669">
		<tag k="ADDRESS" v="Stranda 1, 9300 FINNSNES" />
		<tag k="amenity" v="kindergarten" />
		<tag k="capacity" v="82" />
		<tag k="max_age" v="5" />
		<tag k="min_age" v="1" />
		<tag k="name" v="Skogen barnehage" />
		<tag k="no-barnehage:nsrid" v="989976621" />
		<tag k="operator" v="Senja kommune" />
		<tag k="operator:type" v="public" />
	</node>
	<node id="-5618" lat="69.08523" lon="17.16302">
		<tag k="ADDRESS" v="Mølnelva 10, 9392 STONGLANDSEIDET" />
		<tag k="amenity" v="kindergarten" />
		<tag k="capacity" v="22" />
		<tag k="max_age" v="5" />
		<tag k="min_age" v="1" />
		<tag k="name" v="Stonglangdet barnehage" />
		<tag k="no-barnehage:nsrid" v="975321959" />
		<tag k="operator" v="Senja kommune" />
		<tag k="operator:type" v="public" />
	</node>
	<node id="-5619" lat="69.23762" lon="18.04112">
		<tag k="ADDRESS" v="Otterveien 60, 9300 FINNSNES" />
		<tag k="amenity" v="kindergarten" />
		<tag k="capacity" v="41" />
		<tag k="max_age" v="5" />
		<tag k="min_age" v="1" />
		<tag k="name" v="Trollstua barnehage" />
		<tag k="no-barnehage:nsrid" v="972360643" />
		<tag k="operator" v="Småbarnsforeldrenes barnehage Lenvik Sa" />
		<tag k="operator:type" v="private" />
	</node>
	<node id="-5620" lat="0.0" lon="0.0">
		<tag k="ADDRESS" v="Trollvik, 9300 FINNSNES" />
		<tag k="amenity" v="kindergarten" />
		<tag k="capacity" v="26" />
		<tag k="max_age" v="5" />
		<tag k="min_age" v="1" />
		<tag k="name" v="Trollvik barnehage" />
		<tag k="no-barnehage:nsrid" v="973494007" />
		<tag k="operator" v="Senja kommune" />
		<tag k="operator:type" v="public" />
	</node>
</osm>
