<?xml version="1.0" encoding="UTF-8"?>
<osm version="0.6" generator="osmapis">
	<node lat="0.0" lon="0.0" id="-2618">
		<tag k="ADDRESS" v="Rognstadvegen 6, 2090 HURDAL" />
		<tag k="amenity" v="kindergarten" />
		<tag k="capacity" v="32" />
		<tag k="contact:website" v="http://www.hoppensprett.no" />
		<tag k="max_age" v="5" />
		<tag k="min_age" v="1" />
		<tag k="name" v="Hoppensprett Hurdal barnehage" />
		<tag k="no-barnehage:nsrid" v="812448072" />
		<tag k="operator" v="Hoppensprett Hurdal barnehage AS" />
		<tag k="operator:type" v="private" />
	</node>
	<node lat="60.34776" lon="11.00154" id="-2619">
		<tag k="ADDRESS" v="Jeppedalsvegen 7, 2090 HURDAL" />
		<tag k="amenity" v="kindergarten" />
		<tag k="capacity" v="26" />
		<tag k="max_age" v="5" />
		<tag k="min_age" v="1" />
		<tag k="name" v="Hurdal barnehage" />
		<tag k="no-barnehage:nsrid" v="885268412" />
		<tag k="operator" v="Hurdal kommune" />
		<tag k="operator:type" v="public" />
	</node>
	<node lat="60.43716" lon="11.06845" id="-2620">
		<tag k="ADDRESS" v="Øvre Hagavegen 5, 2090 HURDAL" />
		<tag k="amenity" v="kindergarten" />
		<tag k="capacity" v="77" />
		<tag k="contact:website" v="http://laringsverkstedet.no/barnehage/læringsverkstedet-hurdal" />
		<tag k="max_age" v="5" />
		<tag k="min_age" v="1" />
		<tag k="name" v="Læringsverkstedet Hurdal naturbarnehage" />
		<tag k="no-barnehage:nsrid" v="995412772" />
		<tag k="operator" v="Læringsverkstedet Hurdal naturbarnehage AS" />
		<tag k="operator:type" v="private" />
	</node>
</osm>
