<?xml version="1.0" encoding="UTF-8"?>
<osm generator="osmapis" version="0.6">
	<node id="-5039" lat="62.2978" lon="7.26374">
		<tag k="amenity" v="kindergarten" />
		<tag k="capacity" v="44" />
		<tag k="contact:email" v="vibu@norddal.kommune.no" />
		<tag k="contact:phone" v="+47 70 25 88 00" />
		<tag k="doNotImportAddress" v=" 6210 VALLDAL" />
		<tag k="max_age" v="5" />
		<tag k="min_age" v="1" />
		<tag k="name" v="SyltebÃ¸en barnehage" />
		<tag k="no-barnehage:nsrid" v="1012699" />
		<tag k="operator" v="Norddal kommune" />
		<tag k="operator:type" v="public" />
	</node>
	<node id="-5038" lat="62.2518" lon="7.23791">
		<tag k="amenity" v="kindergarten" />
		<tag k="capacity" v="14" />
		<tag k="contact:email" v="ann.lunden@norddal.kommune.no" />
		<tag k="contact:phone" v="+47 70 25 88 00" />
		<tag k="doNotImportAddress" v=" 6214 NORDDAL" />
		<tag k="max_age" v="5" />
		<tag k="min_age" v="1" />
		<tag k="name" v="Dalsbygda barnehage" />
		<tag k="no-barnehage:nsrid" v="1014779" />
		<tag k="operator" v="Norddal kommune" />
		<tag k="operator:type" v="public" />
	</node>
</osm>
