<?xml version="1.0" encoding="UTF-8"?>
<osm generator="osmapis" version="0.6">
	<node id="-208" lat="59.47916" lon="11.65641">
		<tag k="amenity" v="kindergarten" />
		<tag k="capacity" v="51" />
		<tag k="contact:email" v="tussilagobarnehage@hotmail.com" />
		<tag k="contact:phone" v="+47 69 81 12 12" />
		<tag k="max_age" v="5" />
		<tag k="min_age" v="1" />
		<tag k="name" v="Tussilago barnehage Grete Klund Ørken" />
		<tag k="no-barnehage:nsrid" v="1021330" />
		<tag k="operator" v="Tussilago barnehage Grete Klund Ørken" />
		<tag k="operator:type" v="private" />
		<tag k="start_date" v="2004-08-01" />
	</node>
	<node id="-207" lat="59.4802" lon="11.6602">
		<tag k="amenity" v="kindergarten" />
		<tag k="capacity" v="39" />
		<tag k="contact:email" v="tsw@marker.kommune.no" />
		<tag k="contact:phone" v="+47 92601327" />
		<tag k="max_age" v="5" />
		<tag k="min_age" v="1" />
		<tag k="name" v="Grimsby barnehage" />
		<tag k="no-barnehage:nsrid" v="1012869" />
		<tag k="operator" v="Marker kommune" />
		<tag k="operator:type" v="public" />
		<tag k="start_date" v="1988-04-01" />
	</node>
	<node id="-206" lat="59.47937" lon="11.6559">
		<tag k="amenity" v="kindergarten" />
		<tag k="capacity" v="30" />
		<tag k="contact:email" v="2etasje@online.no" />
		<tag k="contact:phone" v="+47 69 81 11 97" />
		<tag k="max_age" v="5" />
		<tag k="min_age" v="1" />
		<tag k="name" v="Annen Etasje barnehage" />
		<tag k="no-barnehage:nsrid" v="1020363" />
		<tag k="operator" v="Filadelfia Ørje" />
		<tag k="operator:type" v="private" />
		<tag k="start_date" v="1977-10-31" />
	</node>
	<node id="-209" lat="59.48023" lon="11.66016">
		<tag k="amenity" v="kindergarten" />
		<tag k="capacity" v="28" />
		<tag k="contact:email" v="oymarkbarnehage@hotmail.no" />
		<tag k="contact:phone" v="+47 098141530" />
		<tag k="max_age" v="5" />
		<tag k="min_age" v="1" />
		<tag k="name" v="Øymark barnehage" />
		<tag k="no-barnehage:nsrid" v="1019673" />
		<tag k="operator" v="Øymark barnehage" />
		<tag k="operator:type" v="private" />
		<tag k="start_date" v="1989-01-02" />
	</node>
</osm>
