<?xml version="1.0" encoding="UTF-8"?>
<osm generator="osmapis" version="0.6">
	<node id="-4992" lat="0.0" lon="0.0">
		<tag k="ADDRESS" v="Sundgotmarka, 6065 ULSTEINVIK" />
		<tag k="amenity" v="kindergarten" />
		<tag k="capacity" v="61" />
		<tag k="max_age" v="5" />
		<tag k="min_age" v="1" />
		<tag k="name" v="Sundgotmarka barnehage" />
		<tag k="no-barnehage:nsrid" v="1014730" />
		<tag k="operator" v="Ulstein kommune" />
		<tag k="operator:type" v="public" />
	</node>
	<node id="-4991" lat="62.34253" lon="5.86972">
		<tag k="ADDRESS" v="Rognahaugen 2, 6065 ULSTEINVIK" />
		<tag k="amenity" v="kindergarten" />
		<tag k="capacity" v="46" />
		<tag k="max_age" v="5" />
		<tag k="min_age" v="1" />
		<tag k="name" v="NLM barnehagene avd. Tryggheim barnehage Ulsteinvik" />
		<tag k="no-barnehage:nsrid" v="1016171" />
		<tag k="operator" v="Nlm-Barnehagene AS" />
		<tag k="operator:type" v="private" />
	</node>
	<node id="-4990" lat="62.3413" lon="5.88708">
		<tag k="ADDRESS" v="Varleitevegen 1, 6065 ULSTEINVIK" />
		<tag k="amenity" v="kindergarten" />
		<tag k="capacity" v="50" />
		<tag k="contact:website" v="http://haddvoll.barnehageside.no" />
		<tag k="max_age" v="5" />
		<tag k="min_age" v="1" />
		<tag k="name" v="Høddvollbarnehagen Al" />
		<tag k="no-barnehage:nsrid" v="1020088" />
		<tag k="operator" v="Høddvollbarnehagen Sa" />
		<tag k="operator:type" v="private" />
	</node>
	<node id="-4989" lat="62.34181" lon="5.87465">
		<tag k="ADDRESS" v="Hovsetråsa 85, 6065 ULSTEINVIK" />
		<tag k="amenity" v="kindergarten" />
		<tag k="capacity" v="121" />
		<tag k="contact:website" v="http://www.gnistbarnehager.no" />
		<tag k="max_age" v="5" />
		<tag k="min_age" v="1" />
		<tag k="name" v="Gnist barnehager Støylane" />
		<tag k="no-barnehage:nsrid" v="1021268" />
		<tag k="operator" v="Gnist Barnehager Støylane AS" />
		<tag k="operator:type" v="private" />
	</node>
	<node id="-4988" lat="62.34382" lon="5.8468">
		<tag k="ADDRESS" v="Kyrkjegata 12, 6065 ULSTEINVIK" />
		<tag k="amenity" v="kindergarten" />
		<tag k="name" v="Byggeklossen Open barnehage" />
		<tag k="no-barnehage:nsrid" v="1014219" />
		<tag k="operator" v="Ulstein Sokn" />
		<tag k="operator:type" v="private" />
	</node>
	<node id="-4987" lat="0.0" lon="0.0">
		<tag k="ADDRESS" v=", 6064 HADDAL" />
		<tag k="amenity" v="kindergarten" />
		<tag k="capacity" v="38" />
		<tag k="max_age" v="5" />
		<tag k="min_age" v="1" />
		<tag k="name" v="Blåtinden barnehage" />
		<tag k="no-barnehage:nsrid" v="1020211" />
		<tag k="operator" v="Blåtinden barnehage Sa" />
		<tag k="operator:type" v="private" />
	</node>
	<node id="-4986" lat="62.3456" lon="5.8365">
		<tag k="ADDRESS" v="Reiten 1, 6065 ULSTEINVIK" />
		<tag k="amenity" v="kindergarten" />
		<tag k="capacity" v="54" />
		<tag k="contact:website" v="http://almejordet.no" />
		<tag k="max_age" v="5" />
		<tag k="min_age" v="1" />
		<tag k="name" v="Almejordet barnehage" />
		<tag k="no-barnehage:nsrid" v="1020899" />
		<tag k="operator" v="Almejordet barnehage Sa" />
		<tag k="operator:type" v="private" />
	</node>
	<node id="-4994" lat="62.34631" lon="5.86398">
		<tag k="ADDRESS" v="Vikemarksvingen 7, 6065 ULSTEINVIK" />
		<tag k="amenity" v="kindergarten" />
		<tag k="capacity" v="63" />
		<tag k="max_age" v="5" />
		<tag k="min_age" v="1" />
		<tag k="name" v="Vikemarka barnehage" />
		<tag k="no-barnehage:nsrid" v="1022424" />
		<tag k="operator" v="Vikemarka barnehage AS" />
		<tag k="operator:type" v="private" />
	</node>
	<node id="-4993" lat="62.34837" lon="5.85514">
		<tag k="ADDRESS" v="Onglasætra 18, 6065 ULSTEINVIK" />
		<tag k="amenity" v="kindergarten" />
		<tag k="capacity" v="44" />
		<tag k="max_age" v="5" />
		<tag k="min_age" v="1" />
		<tag k="name" v="Sætra barnehage" />
		<tag k="no-barnehage:nsrid" v="1022278" />
		<tag k="operator" v="Sætra barnehage AS" />
		<tag k="operator:type" v="private" />
	</node>
</osm>
