<?xml version="1.0" encoding="UTF-8"?>
<osm generator="osmapis" version="0.6">
	<node id="-740" lat="0.0" lon="0.0">
		<tag k="amenity" v="kindergarten" />
		<tag k="capacity" v="11" />
		<tag k="max_age" v="5" />
		<tag k="min_age" v="1" />
		<tag k="name" v="Jensrud gårdsbarnehage" />
		<tag k="no-barnehage:nsrid" v="1020485" />
		<tag k="operator" v="Jensrud Gårdsbarnehage" />
		<tag k="operator:type" v="private" />
	</node>
	<node id="-731" lat="0.0" lon="0.0">
		<tag k="amenity" v="kindergarten" />
		<tag k="capacity" v="10" />
		<tag k="max_age" v="5" />
		<tag k="min_age" v="1" />
		<tag k="name" v="100-meterskogen" />
		<tag k="no-barnehage:nsrid" v="1021123" />
		<tag k="operator" v="Hundremeterskogen Familiebarnehage Borgaard" />
		<tag k="operator:type" v="private" />
	</node>
	<node id="-747" lat="60.02565" lon="11.06659">
		<tag k="amenity" v="kindergarten" />
		<tag k="capacity" v="5" />
		<tag k="contact:website" v="http://sfbh.mamutweb.com/" />
		<tag k="max_age" v="5" />
		<tag k="min_age" v="1" />
		<tag k="name" v="Skarstubben familiebarnehage Ann-charlott Slaaen" />
		<tag k="no-barnehage:nsrid" v="1020508" />
		<tag k="operator" v="Skarstubben Familiebarnehage Ann-Charlott Slaaen" />
		<tag k="operator:type" v="private" />
	</node>
</osm>
