<?xml version="1.0" encoding="UTF-8"?>
<osm generator="osmapis" version="0.6">
	<node id="-736" lat="0.0" lon="0.0">
		<tag k="amenity" v="kindergarten" />
		<tag k="capacity" v="64" />
		<tag k="max_age" v="5" />
		<tag k="min_age" v="1" />
		<tag k="name" v="Frogner barnehage" />
		<tag k="no-barnehage:nsrid" v="1017532" />
		<tag k="operator" v="Sørum kommune" />
		<tag k="operator:type" v="public" />
	</node>
	<node id="-735" lat="0.0" lon="0.0">
		<tag k="amenity" v="kindergarten" />
		<tag k="capacity" v="60" />
		<tag k="max_age" v="5" />
		<tag k="min_age" v="1" />
		<tag k="name" v="Fjuk oppvekstsenter avd. barnehage" />
		<tag k="no-barnehage:nsrid" v="1017531" />
		<tag k="operator" v="Sørum kommune" />
		<tag k="operator:type" v="public" />
	</node>
	<node id="-734" lat="0.0" lon="0.0">
		<tag k="amenity" v="kindergarten" />
		<tag k="capacity" v="78" />
		<tag k="max_age" v="5" />
		<tag k="min_age" v="1" />
		<tag k="name" v="Fjellbovegen barnehage" />
		<tag k="no-barnehage:nsrid" v="1021895" />
		<tag k="operator" v="Sørum kommune" />
		<tag k="operator:type" v="public" />
	</node>
	<node id="-733" lat="60.00103" lon="11.31717">
		<tag k="amenity" v="kindergarten" />
		<tag k="capacity" v="74" />
		<tag k="max_age" v="5" />
		<tag k="min_age" v="1" />
		<tag k="name" v="Camembert'n Kanvas-barnehage" />
		<tag k="no-barnehage:nsrid" v="1018336" />
		<tag k="operator" v="Stiftelsen Kanvas" />
		<tag k="operator:type" v="private" />
	</node>
	<node id="-732" lat="60.0237" lon="11.09973">
		<tag k="amenity" v="kindergarten" />
		<tag k="capacity" v="72" />
		<tag k="contact:website" v="http://www.bruslettabarnehage.no" />
		<tag k="max_age" v="5" />
		<tag k="min_age" v="1" />
		<tag k="name" v="Brusletta barnehage" />
		<tag k="no-barnehage:nsrid" v="1020769" />
		<tag k="operator" v="Brusletta barnehage Sa" />
		<tag k="operator:type" v="private" />
	</node>
	<node id="-731" lat="0.0" lon="0.0">
		<tag k="amenity" v="kindergarten" />
		<tag k="max_age" v="5" />
		<tag k="min_age" v="3" />
		<tag k="name" v="Askeladden familiebarnehage" />
		<tag k="no-barnehage:nsrid" v="1020290" />
		<tag k="operator" v="Askeladden Familiebarnehage Berit Thoresen" />
		<tag k="operator:type" v="private" />
	</node>
	<node id="-751" lat="0.0" lon="0.0">
		<tag k="amenity" v="kindergarten" />
		<tag k="name" v="Åpen barnehage" />
		<tag k="no-barnehage:nsrid" v="1025539" />
		<tag k="operator" v="Sørum kommune" />
		<tag k="operator:type" v="public" />
	</node>
	<node id="-750" lat="60.02901" lon="11.07544">
		<tag k="amenity" v="kindergarten" />
		<tag k="capacity" v="110" />
		<tag k="max_age" v="5" />
		<tag k="min_age" v="1" />
		<tag k="name" v="Vardefjellet barnehage" />
		<tag k="no-barnehage:nsrid" v="1013455" />
		<tag k="operator" v="Norlandia Barnehagene AS" />
		<tag k="operator:type" v="private" />
	</node>
	<node id="-749" lat="0.0" lon="0.0">
		<tag k="amenity" v="kindergarten" />
		<tag k="capacity" v="112" />
		<tag k="max_age" v="5" />
		<tag k="min_age" v="1" />
		<tag k="name" v="Sørumsand barnehage" />
		<tag k="no-barnehage:nsrid" v="1017050" />
		<tag k="operator" v="Norlandia Barnehagene AS" />
		<tag k="operator:type" v="private" />
	</node>
	<node id="-748" lat="0.0" lon="0.0">
		<tag k="amenity" v="kindergarten" />
		<tag k="capacity" v="53" />
		<tag k="max_age" v="5" />
		<tag k="min_age" v="1" />
		<tag k="name" v="Sorknes barnehage" />
		<tag k="no-barnehage:nsrid" v="1019890" />
		<tag k="operator" v="Sorknes barnehage Sa" />
		<tag k="operator:type" v="private" />
	</node>
	<node id="-747" lat="59.96776" lon="11.24572">
		<tag k="amenity" v="kindergarten" />
		<tag k="capacity" v="68" />
		<tag k="contact:website" v="http://www.skogkanten.no" />
		<tag k="max_age" v="5" />
		<tag k="min_age" v="1" />
		<tag k="name" v="Skogkanten barnehage" />
		<tag k="no-barnehage:nsrid" v="1020751" />
		<tag k="operator" v="Skogkanten barnehage Sa" />
		<tag k="operator:type" v="private" />
	</node>
	<node id="-745" lat="0.0" lon="0.0">
		<tag k="amenity" v="kindergarten" />
		<tag k="capacity" v="53" />
		<tag k="max_age" v="5" />
		<tag k="min_age" v="1" />
		<tag k="name" v="Sennerud FUS barnehage" />
		<tag k="no-barnehage:nsrid" v="1015954" />
		<tag k="operator" v="Sennerud Fus barnehage AS" />
		<tag k="operator:type" v="private" />
	</node>
	<node id="-744" lat="0.0" lon="0.0">
		<tag k="amenity" v="kindergarten" />
		<tag k="capacity" v="85" />
		<tag k="max_age" v="5" />
		<tag k="min_age" v="1" />
		<tag k="name" v="Nordli barnehage" />
		<tag k="no-barnehage:nsrid" v="1017358" />
		<tag k="operator" v="Sørum kommune" />
		<tag k="operator:type" v="public" />
	</node>
	<node id="-743" lat="0.0" lon="0.0">
		<tag k="amenity" v="kindergarten" />
		<tag k="name" v="Lykkeliten familie barnehage" />
		<tag k="no-barnehage:nsrid" v="1021977" />
		<tag k="operator" v="Lykkeliten Familie barnehage Da" />
		<tag k="operator:type" v="private" />
	</node>
	<node id="-742" lat="0.0" lon="0.0">
		<tag k="amenity" v="kindergarten" />
		<tag k="capacity" v="78" />
		<tag k="max_age" v="5" />
		<tag k="min_age" v="1" />
		<tag k="name" v="Lunderåsen FUS barnehage" />
		<tag k="no-barnehage:nsrid" v="1021206" />
		<tag k="operator" v="Lunderåsen Fus barnehage AS" />
		<tag k="operator:type" v="private" />
	</node>
	<node id="-741" lat="0.0" lon="0.0">
		<tag k="amenity" v="kindergarten" />
		<tag k="capacity" v="79" />
		<tag k="max_age" v="5" />
		<tag k="min_age" v="1" />
		<tag k="name" v="Lindeberg FUS barnehage" />
		<tag k="no-barnehage:nsrid" v="1021418" />
		<tag k="operator" v="Lindeberg Fus barnehage AS" />
		<tag k="operator:type" v="private" />
	</node>
	<node id="-740" lat="0.0" lon="0.0">
		<tag k="amenity" v="kindergarten" />
		<tag k="name" v="Lenkas Vikartjenester Lenka Jansen" />
		<tag k="no-barnehage:nsrid" v="1026472" />
		<tag k="operator" v="Lenkas Vikartjenester Lenka Jansen" />
		<tag k="operator:type" v="private" />
	</node>
	<node id="-738" lat="0.0" lon="0.0">
		<tag k="amenity" v="kindergarten" />
		<tag k="capacity" v="110" />
		<tag k="max_age" v="5" />
		<tag k="min_age" v="1" />
		<tag k="name" v="Idrettsparken barnehage" />
		<tag k="no-barnehage:nsrid" v="1017357" />
		<tag k="operator" v="Sørum kommune" />
		<tag k="operator:type" v="public" />
	</node>
	<node id="-737" lat="60.0243" lon="11.11576">
		<tag k="amenity" v="kindergarten" />
		<tag k="capacity" v="31" />
		<tag k="max_age" v="5" />
		<tag k="min_age" v="1" />
		<tag k="name" v="Hoppensprett avd. Sørum" />
		<tag k="no-barnehage:nsrid" v="1021710" />
		<tag k="operator" v="Hoppensprett AS" />
		<tag k="operator:type" v="private" />
	</node>
</osm>
