<?xml version="1.0" encoding="UTF-8"?>
<osm generator="osmapis" version="0.6">
	<node id="-731" lat="59.98455" lon="11.23377">
		<tag k="amenity" v="kindergarten" />
		<tag k="contact:email" v="ragnhild.naprud@sorum.kommune.no" />
		<tag k="name" v="Åpen barnehage" />
		<tag k="no-barnehage:nsrid" v="1025539" />
		<tag k="operator" v="Sørum kommune" />
		<tag k="operator:type" v="public" />
		<tag k="start_date" v="2014-08-01" />
	</node>
	<node id="-730" lat="60.029" lon="11.0755">
		<tag k="amenity" v="kindergarten" />
		<tag k="capacity" v="105" />
		<tag k="contact:email" v="vardefjellet.bhg@norlandiabarnehagene.no" />
		<tag k="max_age" v="5" />
		<tag k="min_age" v="1" />
		<tag k="name" v="Vardefjellet barnehage" />
		<tag k="no-barnehage:nsrid" v="1013455" />
		<tag k="operator" v="Norlandia Barnehagene AS" />
		<tag k="operator:type" v="private" />
		<tag k="start_date" v="2008-11-10" />
	</node>
	<node id="-729" lat="59.9807" lon="11.2345">
		<tag k="amenity" v="kindergarten" />
		<tag k="capacity" v="110" />
		<tag k="contact:email" v="sorumsand.bhg@norlandiabarnehagene.no" />
		<tag k="max_age" v="5" />
		<tag k="min_age" v="1" />
		<tag k="name" v="Sørumsand barnehage" />
		<tag k="no-barnehage:nsrid" v="1017050" />
		<tag k="operator" v="Norlandia Barnehagene AS" />
		<tag k="operator:type" v="private" />
		<tag k="start_date" v="2006-02-08" />
	</node>
	<node id="-728" lat="60.02261" lon="11.06175">
		<tag k="amenity" v="kindergarten" />
		<tag k="capacity" v="52" />
		<tag k="contact:email" v="sorknesb@online.no" />
		<tag k="contact:phone" v="+47 63821262" />
		<tag k="max_age" v="5" />
		<tag k="min_age" v="1" />
		<tag k="name" v="Sorknes barnehage" />
		<tag k="no-barnehage:nsrid" v="1019890" />
		<tag k="operator" v="Sorknes barnehage Sa" />
		<tag k="operator:type" v="private" />
		<tag k="start_date" v="1990-05-01" />
	</node>
	<node id="-727" lat="59.96776" lon="11.24572">
		<tag k="amenity" v="kindergarten" />
		<tag k="capacity" v="67" />
		<tag k="contact:email" v="post@skogkanten.no" />
		<tag k="contact:phone" v="+47 63 82 20 56" />
		<tag k="contact:website" v="http://www.skogkanten.no" />
		<tag k="max_age" v="5" />
		<tag k="min_age" v="1" />
		<tag k="name" v="Skogkanten barnehage Sa" />
		<tag k="no-barnehage:nsrid" v="1020751" />
		<tag k="operator" v="Skogkanten barnehage Sa" />
		<tag k="operator:type" v="private" />
		<tag k="start_date" v="2001-10-23" />
	</node>
	<node id="-725" lat="59.9778" lon="11.2468">
		<tag k="amenity" v="kindergarten" />
		<tag k="capacity" v="47" />
		<tag k="contact:email" v="toril.sissel.bjorkli@sorum.kommune.no" />
		<tag k="contact:phone" v="+47 63 82 63 81" />
		<tag k="max_age" v="5" />
		<tag k="min_age" v="1" />
		<tag k="name" v="Sennerud barnehage" />
		<tag k="no-barnehage:nsrid" v="1015954" />
		<tag k="operator" v="Sørum kommune" />
		<tag k="operator:type" v="public" />
		<tag k="start_date" v="1990-09-01" />
	</node>
	<node id="-724" lat="60.0715" lon="11.0867">
		<tag k="amenity" v="kindergarten" />
		<tag k="capacity" v="94" />
		<tag k="contact:email" v="lillian.nybraaten@sorum.kommune.no" />
		<tag k="contact:phone" v="+47 63 86 90 10" />
		<tag k="max_age" v="5" />
		<tag k="min_age" v="1" />
		<tag k="name" v="Nordli barnehage" />
		<tag k="no-barnehage:nsrid" v="1017358" />
		<tag k="operator" v="Sørum kommune" />
		<tag k="operator:type" v="public" />
		<tag k="start_date" v="1976-01-01" />
	</node>
	<node id="-723" lat="60.01009" lon="11.14958">
		<tag k="amenity" v="kindergarten" />
		<tag k="capacity" v="80" />
		<tag k="contact:email" v="dl.lunderasen@bhg.no" />
		<tag k="contact:phone" v="+47 63 82 95 82" />
		<tag k="max_age" v="5" />
		<tag k="min_age" v="1" />
		<tag k="name" v="Lunderåsen Fus barnehage AS" />
		<tag k="no-barnehage:nsrid" v="1021206" />
		<tag k="operator" v="Lunderåsen Fus barnehage AS" />
		<tag k="operator:type" v="private" />
		<tag k="start_date" v="2005-03-08" />
	</node>
	<node id="-722" lat="60.03928" lon="11.12625">
		<tag k="amenity" v="kindergarten" />
		<tag k="capacity" v="82" />
		<tag k="contact:email" v="dl.lindeberg@bhg.no" />
		<tag k="max_age" v="5" />
		<tag k="min_age" v="1" />
		<tag k="name" v="Lindeberg Fus barnehage AS" />
		<tag k="no-barnehage:nsrid" v="1021418" />
		<tag k="operator" v="Lindeberg Fus barnehage AS" />
		<tag k="operator:type" v="private" />
		<tag k="start_date" v="2006-02-17" />
	</node>
	<node id="-720" lat="59.9845" lon="11.2338">
		<tag k="amenity" v="kindergarten" />
		<tag k="capacity" v="119" />
		<tag k="contact:email" v="gry.heidi.torp@sorum.kommune.no" />
		<tag k="contact:phone" v="+47 63 86 90 70" />
		<tag k="max_age" v="5" />
		<tag k="min_age" v="1" />
		<tag k="name" v="Idrettsparken barnehage" />
		<tag k="no-barnehage:nsrid" v="1017357" />
		<tag k="operator" v="Sørum kommune" />
		<tag k="operator:type" v="public" />
		<tag k="start_date" v="1976-01-01" />
	</node>
	<node id="-719" lat="60.02418" lon="11.11511">
		<tag k="amenity" v="kindergarten" />
		<tag k="capacity" v="33" />
		<tag k="contact:email" v="Helga@hoppensprett.no" />
		<tag k="max_age" v="5" />
		<tag k="min_age" v="1" />
		<tag k="name" v="Hoppensprett AS Avd Sørum" />
		<tag k="no-barnehage:nsrid" v="1021710" />
		<tag k="operator" v="Hoppensprett AS" />
		<tag k="operator:type" v="private" />
		<tag k="start_date" v="2007-08-30" />
	</node>
	<node id="-718" lat="60.024" lon="11.1096">
		<tag k="amenity" v="kindergarten" />
		<tag k="capacity" v="69" />
		<tag k="contact:email" v="mona.brataseter@sorum.kommune.no" />
		<tag k="contact:phone" v="+47 63 86 98 00" />
		<tag k="max_age" v="5" />
		<tag k="min_age" v="1" />
		<tag k="name" v="Frogner barnehage" />
		<tag k="no-barnehage:nsrid" v="1017532" />
		<tag k="operator" v="Sørum kommune" />
		<tag k="operator:type" v="public" />
		<tag k="start_date" v="1988-04-01" />
	</node>
	<node id="-717" lat="59.9998" lon="11.3117">
		<tag k="amenity" v="kindergarten" />
		<tag k="capacity" v="49" />
		<tag k="contact:email" v="elisabeth.odden@sorum.kommune.no" />
		<tag k="max_age" v="5" />
		<tag k="min_age" v="1" />
		<tag k="name" v="Fjuk Oppvekstsenter barnehage" />
		<tag k="no-barnehage:nsrid" v="1017531" />
		<tag k="operator" v="Sørum kommune" />
		<tag k="operator:type" v="public" />
		<tag k="start_date" v="1988-04-01" />
	</node>
	<node id="-716" lat="59.999" lon="11.24242">
		<tag k="amenity" v="kindergarten" />
		<tag k="capacity" v="68" />
		<tag k="contact:email" v="bodil.moe@sorum.kommune.no" />
		<tag k="max_age" v="5" />
		<tag k="min_age" v="1" />
		<tag k="name" v="Fjellbovegen barnehage" />
		<tag k="no-barnehage:nsrid" v="1021895" />
		<tag k="operator" v="Sørum kommune" />
		<tag k="operator:type" v="public" />
		<tag k="start_date" v="1999-08-23" />
	</node>
	<node id="-715" lat="60.001" lon="11.3172">
		<tag k="amenity" v="kindergarten" />
		<tag k="capacity" v="74" />
		<tag k="contact:email" v="camemberten@kanvas.no" />
		<tag k="max_age" v="5" />
		<tag k="min_age" v="1" />
		<tag k="name" v="Camembert'N Kanvas-Barnehage" />
		<tag k="no-barnehage:nsrid" v="1018336" />
		<tag k="operator" v="Stiftelsen Kanvas" />
		<tag k="operator:type" v="private" />
		<tag k="start_date" v="2008-01-01" />
	</node>
	<node id="-714" lat="60.0237" lon="11.09973">
		<tag k="amenity" v="kindergarten" />
		<tag k="capacity" v="66" />
		<tag k="contact:email" v="lisa.schille@gmail.com" />
		<tag k="contact:phone" v="+47 63 86 86 50" />
		<tag k="contact:website" v="http://www.bruslettabarnehage.no" />
		<tag k="max_age" v="5" />
		<tag k="min_age" v="1" />
		<tag k="name" v="Brusletta barnehage Sa" />
		<tag k="no-barnehage:nsrid" v="1020769" />
		<tag k="operator" v="Brusletta barnehage Sa" />
		<tag k="operator:type" v="private" />
		<tag k="start_date" v="2002-09-01" />
	</node>
</osm>
