<?xml version="1.0" encoding="UTF-8"?>
<osm generator="osmapis" version="0.6">
	<node id="-727" lat="60.02445" lon="11.06748">
		<tag k="amenity" v="kindergarten" />
		<tag k="capacity" v="5" />
		<tag k="contact:email" v="beritthoresen@hotmail.com" />
		<tag k="contact:phone" v="63 82 12 72" />
		<tag k="max_age" v="5" />
		<tag k="min_age" v="3" />
		<tag k="name" v="Askeladden Familiebarnehage" />
		<tag k="no-barnehage:nsrid" v="1020290" />
		<tag k="operator" v="Askeladden Familiebarnehage Berit Thoresen" />
		<tag k="operator:type" v="private" />
		<tag k="start_date" v="2006-11-01" />
	</node>
	<node id="-726" lat="60.01651" lon="11.15279">
		<tag k="amenity" v="kindergarten" />
		<tag k="capacity" v="10" />
		<tag k="contact:email" v="hundremeterskogenfamiliebarnehage@hotmail.com" />
		<tag k="contact:phone" v="99048953" />
		<tag k="max_age" v="5" />
		<tag k="min_age" v="1" />
		<tag k="name" v="100-Meterskogen" />
		<tag k="no-barnehage:nsrid" v="1021123" />
		<tag k="operator" v="Hundremeterskogen Familiebarnehage Borgaard" />
		<tag k="operator:type" v="private" />
		<tag k="start_date" v="2005-01-01" />
	</node>
	<node id="-740" lat="60.02565" lon="11.0666">
		<tag k="amenity" v="kindergarten" />
		<tag k="capacity" v="4" />
		<tag k="contact:email" v="skarstubben@gmail.com" />
		<tag k="contact:phone" v="63 82 18 79" />
		<tag k="max_age" v="2" />
		<tag k="min_age" v="1" />
		<tag k="name" v="Skarstubben Familiebarnehage Ann-Charlott Slaaen" />
		<tag k="no-barnehage:nsrid" v="1020508" />
		<tag k="operator" v="Skarstubben Familiebarnehage Ann-Charlott Slaaen" />
		<tag k="operator:type" v="private" />
		<tag k="start_date" v="1998-05-04" />
	</node>
	<node id="-735" lat="60.00352" lon="11.30188">
		<tag k="amenity" v="kindergarten" />
		<tag k="capacity" v="10" />
		<tag k="contact:email" v="pille_nille1@hotmail.com" />
		<tag k="contact:phone" v="63 82 98 29" />
		<tag k="max_age" v="5" />
		<tag k="min_age" v="1" />
		<tag k="name" v="Jensrud Gårdsbarnehage" />
		<tag k="no-barnehage:nsrid" v="1020485" />
		<tag k="operator" v="Jensrud Gårdsbarnehage" />
		<tag k="operator:type" v="private" />
		<tag k="start_date" v="1997-08-04" />
	</node>
</osm>
