<?xml version="1.0" encoding="UTF-8"?>
<osm generator="osmapis" version="0.6">
	<node id="-5462" lat="68.5007" lon="16.4858">
		<tag k="amenity" v="kindergarten" />
		<tag k="capacity" v="19" />
		<tag k="doNotImportAddress" v="MÃ¸lnvollen 4 9442 RAMSUND" />
		<tag k="max_age" v="5" />
		<tag k="min_age" v="1" />
		<tag k="name" v="Ramsund barnehage" />
		<tag k="no-barnehage:nsrid" v="1013683" />
		<tag k="operator" v="Tjeldsund kommune" />
		<tag k="operator:type" v="public" />
	</node>
	<node id="-5461" lat="68.5677" lon="16.2437">
		<tag k="amenity" v="kindergarten" />
		<tag k="capacity" v="8" />
		<tag k="doNotImportAddress" v="Klungnesveien 1 9436 KONGSVIK" />
		<tag k="max_age" v="5" />
		<tag k="min_age" v="3" />
		<tag k="name" v="Kongsvik barnehage" />
		<tag k="no-barnehage:nsrid" v="1025340" />
		<tag k="operator" v="Tjeldsund kommune" />
		<tag k="operator:type" v="public" />
	</node>
	<node id="-5460" lat="68.5561" lon="16.5262">
		<tag k="amenity" v="kindergarten" />
		<tag k="capacity" v="15" />
		<tag k="doNotImportAddress" v="Fjelldalsveien 368 9441 FJELLDAL" />
		<tag k="max_age" v="5" />
		<tag k="min_age" v="1" />
		<tag k="name" v="Kanutten barnehage" />
		<tag k="no-barnehage:nsrid" v="1015946" />
		<tag k="operator" v="Tjeldsund kommune" />
		<tag k="operator:type" v="public" />
	</node>
</osm>
