<?xml version="1.0" encoding="UTF-8"?>
<osm generator="osmapis" version="0.6">
	<node id="-594" lat="59.90655" lon="11.09152">
		<tag k="amenity" v="kindergarten" />
		<tag k="capacity" v="89" />
		<tag k="contact:website" v="http://www.smestadtoppen.no" />
		<tag k="max_age" v="5" />
		<tag k="min_age" v="1" />
		<tag k="name" v="Smestadtoppen barnehage" />
		<tag k="no-barnehage:nsrid" v="1021093" />
		<tag k="operator" v="Rælingen kommune" />
		<tag k="operator:type" v="public" />
	</node>
	<node id="-593" lat="59.9305" lon="11.0631">
		<tag k="amenity" v="kindergarten" />
		<tag k="capacity" v="83" />
		<tag k="max_age" v="5" />
		<tag k="min_age" v="1" />
		<tag k="name" v="Sannum barnehage" />
		<tag k="no-barnehage:nsrid" v="1025370" />
		<tag k="operator" v="Rælingen kommune" />
		<tag k="operator:type" v="public" />
	</node>
	<node id="-592" lat="59.9468" lon="11.0356">
		<tag k="amenity" v="kindergarten" />
		<tag k="capacity" v="42" />
		<tag k="max_age" v="5" />
		<tag k="min_age" v="1" />
		<tag k="name" v="Petrine barnehage" />
		<tag k="no-barnehage:nsrid" v="1015469" />
		<tag k="operator" v="Rælingen Kirkelige Fellesråd" />
		<tag k="operator:type" v="private" />
	</node>
	<node id="-591" lat="59.9359" lon="11.0267">
		<tag k="amenity" v="kindergarten" />
		<tag k="capacity" v="70" />
		<tag k="max_age" v="5" />
		<tag k="min_age" v="1" />
		<tag k="name" v="Løvlia barnehage" />
		<tag k="no-barnehage:nsrid" v="1012829" />
		<tag k="operator" v="Rælingen kommune" />
		<tag k="operator:type" v="public" />
	</node>
	<node id="-590" lat="59.9355" lon="11.0264">
		<tag k="amenity" v="kindergarten" />
		<tag k="capacity" v="72" />
		<tag k="max_age" v="5" />
		<tag k="min_age" v="1" />
		<tag k="name" v="Løvenstad barnehage" />
		<tag k="no-barnehage:nsrid" v="1012825" />
		<tag k="operator" v="Rælingen kommune" />
		<tag k="operator:type" v="public" />
	</node>
	<node id="-589" lat="59.9487" lon="11.0354">
		<tag k="amenity" v="kindergarten" />
		<tag k="capacity" v="70" />
		<tag k="max_age" v="5" />
		<tag k="min_age" v="1" />
		<tag k="name" v="Lilleborg barnehage" />
		<tag k="no-barnehage:nsrid" v="1012827" />
		<tag k="operator" v="Rælingen kommune" />
		<tag k="operator:type" v="public" />
	</node>
	<node id="-588" lat="59.90313" lon="11.09064">
		<tag k="amenity" v="kindergarten" />
		<tag k="capacity" v="112" />
		<tag k="contact:website" v="http://www.hektnerasen.bhg.no" />
		<tag k="max_age" v="5" />
		<tag k="min_age" v="1" />
		<tag k="name" v="Hektneråsen FUS barnehage" />
		<tag k="no-barnehage:nsrid" v="1021776" />
		<tag k="operator" v="Hektneråsen Fus barnehage AS" />
		<tag k="operator:type" v="private" />
	</node>
	<node id="-587" lat="59.947" lon="11.0373">
		<tag k="amenity" v="kindergarten" />
		<tag k="capacity" v="65" />
		<tag k="max_age" v="5" />
		<tag k="min_age" v="1" />
		<tag k="name" v="Heimen barnehage" />
		<tag k="no-barnehage:nsrid" v="1018433" />
		<tag k="operator" v="Rælingen kommune" />
		<tag k="operator:type" v="public" />
	</node>
	<node id="-586" lat="59.92092" lon="11.07234">
		<tag k="amenity" v="kindergarten" />
		<tag k="capacity" v="94" />
		<tag k="max_age" v="5" />
		<tag k="min_age" v="1" />
		<tag k="name" v="Espira Tristilbakken barnehage" />
		<tag k="no-barnehage:nsrid" v="2000126" />
		<tag k="operator" v="Espira Barnehager AS" />
		<tag k="operator:type" v="private" />
	</node>
	<node id="-585" lat="59.9304" lon="11.0423">
		<tag k="amenity" v="kindergarten" />
		<tag k="capacity" v="59" />
		<tag k="max_age" v="5" />
		<tag k="min_age" v="1" />
		<tag k="name" v="Elgen barnehage" />
		<tag k="no-barnehage:nsrid" v="1012826" />
		<tag k="operator" v="Rælingen kommune" />
		<tag k="operator:type" v="public" />
	</node>
	<node id="-584" lat="59.93633" lon="11.05468">
		<tag k="amenity" v="kindergarten" />
		<tag k="capacity" v="72" />
		<tag k="max_age" v="5" />
		<tag k="min_age" v="1" />
		<tag k="name" v="Blåbærgrenda barnehage" />
		<tag k="no-barnehage:nsrid" v="1020696" />
		<tag k="operator" v="Blåbærgrenda barnehage Sa" />
		<tag k="operator:type" v="private" />
	</node>
	<node id="-583" lat="59.93129" lon="11.04069">
		<tag k="amenity" v="kindergarten" />
		<tag k="capacity" v="49" />
		<tag k="max_age" v="5" />
		<tag k="min_age" v="1" />
		<tag k="name" v="Blystadlia barnehage" />
		<tag k="no-barnehage:nsrid" v="1025444" />
		<tag k="operator" v="Rælingen kommune" />
		<tag k="operator:type" v="public" />
	</node>
</osm>
