<?xml version="1.0" encoding="UTF-8"?>
<osm generator="osmapis" version="0.6">
	<node id="-768" lat="59.9305" lon="11.0631">
		<tag k="amenity" v="kindergarten" />
		<tag k="capacity" v="103" />
		<tag k="contact:email" v="per.olaf.steinsland@ralingen.kommune.no" />
		<tag k="contact:phone" v="006835100" />
		<tag k="max_age" v="5" />
		<tag k="min_age" v="1" />
		<tag k="name" v="Sannum barnehage" />
		<tag k="no-barnehage:nsrid" v="1025370" />
		<tag k="operator" v="Rælingen kommune" />
		<tag k="operator:type" v="public" />
		<tag k="start_date" v="1988-04-01" />
	</node>
	<node id="-767" lat="59.9468" lon="11.0356">
		<tag k="amenity" v="kindergarten" />
		<tag k="capacity" v="42" />
		<tag k="contact:email" v="eli.anne.vold.borve@ralingen.kirken.no" />
		<tag k="contact:phone" v="63 83 88 54" />
		<tag k="max_age" v="5" />
		<tag k="min_age" v="1" />
		<tag k="name" v="Petrine barnehage" />
		<tag k="no-barnehage:nsrid" v="1015469" />
		<tag k="operator" v="Rælingen Kirkelige Fellesråd" />
		<tag k="operator:type" v="private" />
		<tag k="start_date" v="1978-11-15" />
	</node>
	<node id="-766" lat="59.9308" lon="11.0398">
		<tag k="amenity" v="kindergarten" />
		<tag k="capacity" v="46" />
		<tag k="contact:email" v="stian.lundberg@ralingen.kommune.no" />
		<tag k="contact:phone" v="006835100" />
		<tag k="max_age" v="5" />
		<tag k="min_age" v="1" />
		<tag k="name" v="Mårbakken barnehage" />
		<tag k="no-barnehage:nsrid" v="1012828" />
		<tag k="operator" v="Rælingen kommune" />
		<tag k="operator:type" v="public" />
		<tag k="start_date" v="1988-04-01" />
	</node>
	<node id="-765" lat="59.9359" lon="11.0267">
		<tag k="amenity" v="kindergarten" />
		<tag k="capacity" v="84" />
		<tag k="contact:email" v="ninette.rudberg@ralingen.kommune.no" />
		<tag k="contact:phone" v="006835100" />
		<tag k="max_age" v="5" />
		<tag k="min_age" v="1" />
		<tag k="name" v="Løvlia barnehage" />
		<tag k="no-barnehage:nsrid" v="1012829" />
		<tag k="operator" v="Rælingen kommune" />
		<tag k="operator:type" v="public" />
		<tag k="start_date" v="1988-04-01" />
	</node>
	<node id="-764" lat="59.9355" lon="11.0264">
		<tag k="amenity" v="kindergarten" />
		<tag k="capacity" v="71" />
		<tag k="contact:email" v="elisabeth.rasmussen@ralingen.kommune.no" />
		<tag k="contact:phone" v="006835100" />
		<tag k="max_age" v="5" />
		<tag k="min_age" v="1" />
		<tag k="name" v="Løvenstad barnehage" />
		<tag k="no-barnehage:nsrid" v="1012825" />
		<tag k="operator" v="Rælingen kommune" />
		<tag k="operator:type" v="public" />
		<tag k="start_date" v="1988-04-01" />
	</node>
	<node id="-763" lat="59.9487" lon="11.0354">
		<tag k="amenity" v="kindergarten" />
		<tag k="capacity" v="78" />
		<tag k="contact:email" v="ann.kristin.ringstad@ralingen.kommune.no" />
		<tag k="contact:phone" v="006835100" />
		<tag k="max_age" v="5" />
		<tag k="min_age" v="1" />
		<tag k="name" v="Lilleborg barnehage" />
		<tag k="no-barnehage:nsrid" v="1012827" />
		<tag k="operator" v="Rælingen kommune" />
		<tag k="operator:type" v="public" />
		<tag k="start_date" v="1988-04-01" />
	</node>
	<node id="-762" lat="59.90313" lon="11.09064">
		<tag k="amenity" v="kindergarten" />
		<tag k="capacity" v="115" />
		<tag k="contact:email" v="dl.hektnerasen@bhg.no" />
		<tag k="contact:phone" v="402 11 250" />
		<tag k="contact:website" v="http://www.hektnerasen.bhg.no" />
		<tag k="max_age" v="5" />
		<tag k="min_age" v="1" />
		<tag k="name" v="Hektneråsen Fus barnehage AS" />
		<tag k="no-barnehage:nsrid" v="1021776" />
		<tag k="operator" v="Hektneråsen Fus barnehage AS" />
		<tag k="operator:type" v="private" />
		<tag k="start_date" v="2008-01-22" />
	</node>
	<node id="-761" lat="59.947" lon="11.0373">
		<tag k="amenity" v="kindergarten" />
		<tag k="capacity" v="65" />
		<tag k="contact:email" v="anbjorg.helleland@ralingen.kommune.no" />
		<tag k="max_age" v="5" />
		<tag k="min_age" v="1" />
		<tag k="name" v="Heimen barnehage" />
		<tag k="no-barnehage:nsrid" v="1018433" />
		<tag k="operator" v="Rælingen kommune" />
		<tag k="operator:type" v="public" />
		<tag k="start_date" v="2008-08-01" />
	</node>
	<node id="-760" lat="59.9304" lon="11.0423">
		<tag k="amenity" v="kindergarten" />
		<tag k="capacity" v="61" />
		<tag k="contact:email" v="jane.ukkestad@ralingen.kommune.no" />
		<tag k="contact:phone" v="006835100" />
		<tag k="max_age" v="5" />
		<tag k="min_age" v="1" />
		<tag k="name" v="Elgen barnehage" />
		<tag k="no-barnehage:nsrid" v="1012826" />
		<tag k="operator" v="Rælingen kommune" />
		<tag k="operator:type" v="public" />
		<tag k="start_date" v="1988-04-01" />
	</node>
	<node id="-759" lat="59.93633" lon="11.05468">
		<tag k="amenity" v="kindergarten" />
		<tag k="capacity" v="71" />
		<tag k="contact:email" v="linda@blabergrenda.no" />
		<tag k="max_age" v="5" />
		<tag k="min_age" v="1" />
		<tag k="name" v="Blåbærgrenda barnehage" />
		<tag k="no-barnehage:nsrid" v="1020696" />
		<tag k="operator" v="Blåbærgrenda barnehage Sa" />
		<tag k="operator:type" v="private" />
		<tag k="start_date" v="2001-08-31" />
	</node>
	<node id="-758" lat="59.93129" lon="11.04069">
		<tag k="amenity" v="kindergarten" />
		<tag k="capacity" v="32" />
		<tag k="contact:email" v="blystadlia.skole@ralingen.kommune" />
		<tag k="max_age" v="5" />
		<tag k="min_age" v="1" />
		<tag k="name" v="Blystadlia barnehage" />
		<tag k="no-barnehage:nsrid" v="1025444" />
		<tag k="operator" v="Rælingen kommune" />
		<tag k="operator:type" v="public" />
		<tag k="start_date" v="2014-08-01" />
	</node>
	<node id="-773" lat="59.9474" lon="11.0294">
		<tag k="amenity" v="kindergarten" />
		<tag k="capacity" v="82" />
		<tag k="contact:email" v="dl.ostrestrom@bhg.no" />
		<tag k="max_age" v="5" />
		<tag k="min_age" v="1" />
		<tag k="name" v="Østre Strøm Fus barnehage AS" />
		<tag k="no-barnehage:nsrid" v="1021513" />
		<tag k="operator" v="Østre Strøm Fus barnehage AS" />
		<tag k="operator:type" v="private" />
		<tag k="start_date" v="2006-08-04" />
	</node>
	<node id="-772" lat="59.9472" lon="11.0506">
		<tag k="amenity" v="kindergarten" />
		<tag k="capacity" v="80" />
		<tag k="contact:email" v="ann.kristin.ringstad@ralingen.kommune.no" />
		<tag k="contact:phone" v="63 83 50 41" />
		<tag k="max_age" v="5" />
		<tag k="min_age" v="1" />
		<tag k="name" v="Torva barnehage" />
		<tag k="no-barnehage:nsrid" v="1017021" />
		<tag k="operator" v="Rælingen kommune" />
		<tag k="operator:type" v="public" />
		<tag k="start_date" v="2005-01-01" />
	</node>
	<node id="-771" lat="59.86303" lon="11.09451">
		<tag k="amenity" v="kindergarten" />
		<tag k="capacity" v="84" />
		<tag k="contact:email" v="dl.tomter@bhg.no" />
		<tag k="contact:phone" v="63 83 09 00" />
		<tag k="max_age" v="5" />
		<tag k="min_age" v="1" />
		<tag k="name" v="Tomter Fus barnehage AS" />
		<tag k="no-barnehage:nsrid" v="1021648" />
		<tag k="operator" v="Tomter Fus barnehage AS" />
		<tag k="operator:type" v="private" />
		<tag k="start_date" v="2007-04-19" />
	</node>
	<node id="-770" lat="59.93296" lon="11.06921">
		<tag k="amenity" v="kindergarten" />
		<tag k="capacity" v="34" />
		<tag k="contact:email" v="tangen@barnehage.no" />
		<tag k="contact:phone" v="97880868" />
		<tag k="contact:website" v="http://www.tangen.barnehage.no" />
		<tag k="max_age" v="5" />
		<tag k="min_age" v="1" />
		<tag k="name" v="Tangen barnehage Sa" />
		<tag k="no-barnehage:nsrid" v="1019922" />
		<tag k="operator" v="Tangen barnehage Sa" />
		<tag k="operator:type" v="private" />
		<tag k="start_date" v="1990-01-22" />
	</node>
	<node id="-769" lat="59.90655" lon="11.09152">
		<tag k="amenity" v="kindergarten" />
		<tag k="capacity" v="95" />
		<tag k="contact:email" v="gunn.berg@smestadtoppen.no" />
		<tag k="contact:phone" v="63 83 14 90" />
		<tag k="contact:website" v="http://www.smestadtoppen.no" />
		<tag k="max_age" v="5" />
		<tag k="min_age" v="1" />
		<tag k="name" v="Smedstadtoppen barnehage Ba" />
		<tag k="no-barnehage:nsrid" v="1021093" />
		<tag k="operator" v="Smestadtoppen barnehage Sa" />
		<tag k="operator:type" v="private" />
		<tag k="start_date" v="2004-06-02" />
	</node>
</osm>
