<?xml version="1.0" encoding="UTF-8"?>
<osm generator="osmapis" version="0.6">
	<node id="-3448" lat="64.7413" lon="12.8454">
		<tag k="amenity" v="kindergarten" />
		<tag k="capacity" v="11" />
		<tag k="contact:email" v="linda.ronningen@namsskogan.kommune.no" />
		<tag k="contact:phone" v="+47 74 33 33 85" />
		<tag k="doNotImportAddress" v=" 7892 TRONES" />
		<tag k="max_age" v="5" />
		<tag k="min_age" v="1" />
		<tag k="name" v="Trones barnehage" />
		<tag k="no-barnehage:nsrid" v="1013639" />
		<tag k="operator" v="Namsskogan kommune" />
		<tag k="operator:type" v="public" />
	</node>
	<node id="-3447" lat="64.9289" lon="13.1595">
		<tag k="amenity" v="kindergarten" />
		<tag k="capacity" v="10" />
		<tag k="contact:email" v="linda.ronningen@namsskogan.kommune.no" />
		<tag k="contact:phone" v="+47 74 33 33 80" />
		<tag k="doNotImportAddress" v=" 7890 NAMSSKOGAN" />
		<tag k="max_age" v="5" />
		<tag k="min_age" v="1" />
		<tag k="name" v="Lonet barnehage" />
		<tag k="no-barnehage:nsrid" v="1013638" />
		<tag k="operator" v="Namsskogan kommune" />
		<tag k="operator:type" v="public" />
	</node>
	<node id="-3446" lat="64.8447" lon="13.0113">
		<tag k="amenity" v="kindergarten" />
		<tag k="capacity" v="7" />
		<tag k="contact:email" v="linda.ronningen@namsskogan.kommune.no" />
		<tag k="contact:phone" v="+47 74 33 42 03" />
		<tag k="doNotImportAddress" v=" 7896 BREKKVASSELV" />
		<tag k="max_age" v="5" />
		<tag k="min_age" v="1" />
		<tag k="name" v="Elva barnehage" />
		<tag k="no-barnehage:nsrid" v="1018278" />
		<tag k="operator" v="Namsskogan kommune" />
		<tag k="operator:type" v="public" />
	</node>
</osm>
