<?xml version="1.0" encoding="UTF-8"?>
<osm generator="osmapis" version="0.6">
	<node id="-6069" lat="70.9778" lon="25.9668">
		<tag k="amenity" v="kindergarten" />
		<tag k="capacity" v="25" />
		<tag k="max_age" v="5" />
		<tag k="min_age" v="1" />
		<tag k="name" v="Skårungen barnehage" />
		<tag k="no-barnehage:nsrid" v="1015211" />
		<tag k="operator" v="Nordkapp kommune" />
		<tag k="operator:type" v="public" />
		<tag k="start_date" v="1992-08-01" />
	</node>
	<node id="-6068" lat="70.9849" lon="26.0314">
		<tag k="amenity" v="kindergarten" />
		<tag k="capacity" v="26" />
		<tag k="contact:email" v="nordvagen.barnehage@nordkapp.kommune.no" />
		<tag k="max_age" v="5" />
		<tag k="min_age" v="1" />
		<tag k="name" v="Nordvågen barnehage" />
		<tag k="no-barnehage:nsrid" v="1013730" />
		<tag k="operator" v="Nordkapp kommune" />
		<tag k="operator:type" v="public" />
		<tag k="start_date" v="1989-01-01" />
	</node>
	<node id="-6067" lat="70.9953" lon="25.9789">
		<tag k="amenity" v="kindergarten" />
		<tag k="capacity" v="42" />
		<tag k="max_age" v="5" />
		<tag k="min_age" v="1" />
		<tag k="name" v="Nordkapp barnehage" />
		<tag k="no-barnehage:nsrid" v="1013729" />
		<tag k="operator" v="Nordkapp kommune" />
		<tag k="operator:type" v="public" />
		<tag k="start_date" v="1989-01-01" />
	</node>
	<node id="-6066" lat="71.09899" lon="25.37495">
		<tag k="amenity" v="kindergarten" />
		<tag k="capacity" v="6" />
		<tag k="contact:email" v="geirfuglenbarnehage@30gigs.com" />
		<tag k="contact:phone" v="78 47 57 00" />
		<tag k="max_age" v="5" />
		<tag k="min_age" v="1" />
		<tag k="name" v="Geirfuglen barnehage" />
		<tag k="no-barnehage:nsrid" v="1021110" />
		<tag k="operator" v="Geirfuglen barnehage" />
		<tag k="operator:type" v="private" />
		<tag k="start_date" v="2004-08-01" />
	</node>
</osm>
