<?xml version="1.0" encoding="UTF-8"?>
<osm generator="osmapis" version="0.6">
	<node id="-5875" lat="68.24461" lon="14.57696">
		<tag k="amenity" v="kindergarten" />
		<tag k="capacity" v="20" />
		<tag k="max_age" v="5" />
		<tag k="min_age" v="1" />
		<tag k="name" v="Svolvær barnehage" />
		<tag k="no-barnehage:nsrid" v="1012685" />
		<tag k="operator" v="Vågan kommune" />
		<tag k="operator:type" v="public" />
	</node>
	<node id="-5874" lat="68.2899" lon="14.3211">
		<tag k="amenity" v="kindergarten" />
		<tag k="capacity" v="11" />
		<tag k="contact:website" v="http://svein.hansen@vagan.kommune.no" />
		<tag k="max_age" v="5" />
		<tag k="min_age" v="1" />
		<tag k="name" v="Strauman oppvekstsenter avd. barnehage" />
		<tag k="no-barnehage:nsrid" v="1016143" />
		<tag k="operator" v="Vågan kommune" />
		<tag k="operator:type" v="public" />
	</node>
	<node id="-5873" lat="68.23911" lon="14.55641">
		<tag k="amenity" v="kindergarten" />
		<tag k="capacity" v="81" />
		<tag k="max_age" v="5" />
		<tag k="min_age" v="1" />
		<tag k="name" v="Solheim barnehage" />
		<tag k="no-barnehage:nsrid" v="1020493" />
		<tag k="operator" v="Solheim barnehage AS" />
		<tag k="operator:type" v="private" />
	</node>
	<node id="-5872" lat="68.15141" lon="14.19948">
		<tag k="amenity" v="kindergarten" />
		<tag k="capacity" v="9" />
		<tag k="max_age" v="5" />
		<tag k="min_age" v="1" />
		<tag k="name" v="Småtrollan barnehage" />
		<tag k="no-barnehage:nsrid" v="1019753" />
		<tag k="operator" v="Småtrollan barnehage Sa" />
		<tag k="operator:type" v="private" />
	</node>
	<node id="-5871" lat="0.0" lon="0.0">
		<tag k="amenity" v="kindergarten" />
		<tag k="capacity" v="8" />
		<tag k="max_age" v="5" />
		<tag k="min_age" v="1" />
		<tag k="name" v="Skrova barnehage" />
		<tag k="no-barnehage:nsrid" v="1015976" />
		<tag k="operator" v="Vågan kommune" />
		<tag k="operator:type" v="public" />
	</node>
	<node id="-5870" lat="68.2366" lon="14.53848">
		<tag k="amenity" v="kindergarten" />
		<tag k="capacity" v="81" />
		<tag k="contact:website" v="http://www.osanstuabarnehage.no" />
		<tag k="max_age" v="5" />
		<tag k="min_age" v="1" />
		<tag k="name" v="Osanstua barnehage" />
		<tag k="no-barnehage:nsrid" v="1021898" />
		<tag k="operator" v="Osanstua barnehage AS" />
		<tag k="operator:type" v="private" />
	</node>
	<node id="-5869" lat="68.20772" lon="14.46598">
		<tag k="amenity" v="kindergarten" />
		<tag k="capacity" v="26" />
		<tag k="contact:website" v="http://www.nordlysbarnehage.no" />
		<tag k="max_age" v="5" />
		<tag k="min_age" v="1" />
		<tag k="name" v="Nordlys barnehage" />
		<tag k="no-barnehage:nsrid" v="1021839" />
		<tag k="operator" v="Nordlys barnehage AS" />
		<tag k="operator:type" v="private" />
	</node>
	<node id="-5868" lat="68.20728" lon="14.47627">
		<tag k="amenity" v="kindergarten" />
		<tag k="capacity" v="61" />
		<tag k="max_age" v="5" />
		<tag k="min_age" v="1" />
		<tag k="name" v="Nakken barnehage" />
		<tag k="no-barnehage:nsrid" v="1016144" />
		<tag k="operator" v="Vågan kommune" />
		<tag k="operator:type" v="public" />
	</node>
	<node id="-5866" lat="0.0" lon="0.0">
		<tag k="amenity" v="kindergarten" />
		<tag k="capacity" v="13" />
		<tag k="max_age" v="5" />
		<tag k="min_age" v="1" />
		<tag k="name" v="Laupstad barnehage" />
		<tag k="no-barnehage:nsrid" v="1017887" />
		<tag k="operator" v="Vågan kommune" />
		<tag k="operator:type" v="public" />
	</node>
	<node id="-5865" lat="0.0" lon="0.0">
		<tag k="amenity" v="kindergarten" />
		<tag k="capacity" v="20" />
		<tag k="max_age" v="5" />
		<tag k="min_age" v="1" />
		<tag k="name" v="Laukvik barnehage" />
		<tag k="no-barnehage:nsrid" v="1017888" />
		<tag k="operator" v="Vågan kommune" />
		<tag k="operator:type" v="public" />
	</node>
	<node id="-5864" lat="68.2457" lon="14.54581">
		<tag k="amenity" v="kindergarten" />
		<tag k="capacity" v="30" />
		<tag k="contact:website" v="http://www.lias.no" />
		<tag k="max_age" v="5" />
		<tag k="min_age" v="1" />
		<tag k="name" v="Knøttene barnehage" />
		<tag k="no-barnehage:nsrid" v="1025322" />
		<tag k="operator" v="Lofoten Industri AS" />
		<tag k="operator:type" v="private" />
	</node>
	<node id="-5862" lat="68.21015" lon="14.46983">
		<tag k="amenity" v="kindergarten" />
		<tag k="capacity" v="35" />
		<tag k="max_age" v="5" />
		<tag k="min_age" v="1" />
		<tag k="name" v="Kabelvåg barnehage" />
		<tag k="no-barnehage:nsrid" v="1022217" />
		<tag k="operator" v="Kabelvåg barnehage AS" />
		<tag k="operator:type" v="private" />
	</node>
	<node id="-5861" lat="0.0" lon="0.0">
		<tag k="amenity" v="kindergarten" />
		<tag k="capacity" v="10" />
		<tag k="max_age" v="5" />
		<tag k="min_age" v="1" />
		<tag k="name" v="Gimsøy barnehage" />
		<tag k="no-barnehage:nsrid" v="1017886" />
		<tag k="operator" v="Vågan kommune" />
		<tag k="operator:type" v="public" />
	</node>
	<node id="-5860" lat="68.21297" lon="14.48653">
		<tag k="amenity" v="kindergarten" />
		<tag k="capacity" v="17" />
		<tag k="contact:website" v="http://www.filipstua.no" />
		<tag k="max_age" v="5" />
		<tag k="min_age" v="1" />
		<tag k="name" v="Filipstua friluftsbarnehage" />
		<tag k="no-barnehage:nsrid" v="1020734" />
		<tag k="operator" v="Filipstua Friluftsbarnehage Sa" />
		<tag k="operator:type" v="private" />
	</node>
	<node id="-5859" lat="0.0" lon="0.0">
		<tag k="amenity" v="kindergarten" />
		<tag k="max_age" v="5" />
		<tag k="min_age" v="3" />
		<tag k="name" v="Digermulen barnehage" />
		<tag k="no-barnehage:nsrid" v="1015160" />
		<tag k="operator" v="Vågan kommune" />
		<tag k="operator:type" v="public" />
	</node>
	<node id="-5858" lat="68.24253" lon="14.54915">
		<tag k="amenity" v="kindergarten" />
		<tag k="capacity" v="22" />
		<tag k="max_age" v="5" />
		<tag k="min_age" v="1" />
		<tag k="name" v="Barnehagen Gunhilds Minne" />
		<tag k="no-barnehage:nsrid" v="1020469" />
		<tag k="operator" v="Barnehagen Gunhilds Minne AS" />
		<tag k="operator:type" v="private" />
	</node>
</osm>
