<?xml version="1.0" encoding="UTF-8"?>
<osm generator="osmapis" version="0.6">
	<node id="-5701" lat="68.24681" lon="14.55683">
		<tag k="amenity" v="kindergarten" />
		<tag k="capacity" v="9" />
		<tag k="contact:phone" v="76 07 22 49" />
		<tag k="max_age" v="5" />
		<tag k="min_age" v="1" />
		<tag k="name" v="Knutvika Familiebarnehage Nordheim" />
		<tag k="no-barnehage:nsrid" v="1020392" />
		<tag k="operator" v="Knutvika Familiebarnehage Nordheim" />
		<tag k="operator:type" v="private" />
		<tag k="start_date" v="1996-12-10" />
	</node>
	<node id="-5709" lat="68.23495" lon="14.56994">
		<tag k="amenity" v="kindergarten" />
		<tag k="capacity" v="10" />
		<tag k="contact:phone" v="76 07 58 30" />
		<tag k="max_age" v="5" />
		<tag k="min_age" v="1" />
		<tag k="name" v="Parkgata Familiebarnehage" />
		<tag k="no-barnehage:nsrid" v="1020249" />
		<tag k="operator" v="Parkgata Fam barnehage V/alice Steinbakk" />
		<tag k="operator:type" v="private" />
		<tag k="start_date" v="1994-08-01" />
	</node>
	<node id="-5705" lat="68.23626" lon="14.54101">
		<tag k="amenity" v="kindergarten" />
		<tag k="capacity" v="9" />
		<tag k="contact:email" v="lundeveien.barnehage@lofotkraft.net" />
		<tag k="contact:phone" v="76 07 86 44" />
		<tag k="max_age" v="5" />
		<tag k="min_age" v="1" />
		<tag k="name" v="Lundeveien Familiebarnehage Trine Malnes Grønvik" />
		<tag k="no-barnehage:nsrid" v="1021599" />
		<tag k="operator" v="Lundeveien Familiebarnehage Trine Malnes Grønvik" />
		<tag k="operator:type" v="private" />
		<tag k="start_date" v="2006-08-01" />
	</node>
</osm>
