<?xml version="1.0" encoding="UTF-8"?>
<osm generator="osmapis" version="0.6">
	<node id="-5696" lat="68.3587" lon="14.72">
		<tag k="amenity" v="kindergarten" />
		<tag k="capacity" v="9" />
		<tag k="contact:email" v="monika.bo@vagan.kommune.no" />
		<tag k="contact:phone" v="+47 75420000" />
		<tag k="max_age" v="5" />
		<tag k="min_age" v="1" />
		<tag k="name" v="Laupstad barnehage" />
		<tag k="no-barnehage:nsrid" v="1017887" />
		<tag k="operator" v="Vågan kommune" />
		<tag k="operator:type" v="public" />
		<tag k="start_date" v="2007-08-01" />
	</node>
	<node id="-5695" lat="68.3941" lon="14.4205">
		<tag k="amenity" v="kindergarten" />
		<tag k="capacity" v="15" />
		<tag k="contact:email" v="henrik.bjornevik@vagan.kommune.no" />
		<tag k="contact:phone" v="+47 75420000" />
		<tag k="max_age" v="5" />
		<tag k="min_age" v="1" />
		<tag k="name" v="Laukvik barnehage" />
		<tag k="no-barnehage:nsrid" v="1017888" />
		<tag k="operator" v="Vågan kommune" />
		<tag k="operator:type" v="public" />
		<tag k="start_date" v="2007-08-01" />
	</node>
	<node id="-5694" lat="68.2457" lon="14.5459">
		<tag k="amenity" v="kindergarten" />
		<tag k="capacity" v="30" />
		<tag k="contact:email" v="eva.tuer@lofoten-industri.no" />
		<tag k="contact:phone" v="+47 76 07 18 88" />
		<tag k="max_age" v="5" />
		<tag k="min_age" v="1" />
		<tag k="name" v="Knøttene barnehage" />
		<tag k="no-barnehage:nsrid" v="1025322" />
		<tag k="operator" v="Lofoten Industri AS" />
		<tag k="operator:type" v="private" />
		<tag k="start_date" v="1989-01-02" />
	</node>
	<node id="-5692" lat="68.21009" lon="14.46986">
		<tag k="amenity" v="kindergarten" />
		<tag k="capacity" v="28" />
		<tag k="contact:email" v="post@kabelvagbarnehage.no" />
		<tag k="max_age" v="5" />
		<tag k="min_age" v="1" />
		<tag k="name" v="Kabelvåg barnehage AS" />
		<tag k="no-barnehage:nsrid" v="1022217" />
		<tag k="operator" v="Kabelvåg barnehage AS" />
		<tag k="operator:type" v="private" />
		<tag k="start_date" v="2009-05-01" />
	</node>
	<node id="-5691" lat="68.3197" lon="14.2336">
		<tag k="amenity" v="kindergarten" />
		<tag k="capacity" v="7" />
		<tag k="contact:email" v="frank.robert.svendsen@vagan.kommune.no" />
		<tag k="contact:phone" v="+47 75420000" />
		<tag k="max_age" v="5" />
		<tag k="min_age" v="1" />
		<tag k="name" v="Gimsøy barnehage" />
		<tag k="no-barnehage:nsrid" v="1017886" />
		<tag k="operator" v="Vågan kommune" />
		<tag k="operator:type" v="public" />
		<tag k="start_date" v="2007-08-01" />
	</node>
	<node id="-5690" lat="68.21333" lon="14.48583">
		<tag k="amenity" v="kindergarten" />
		<tag k="capacity" v="15" />
		<tag k="contact:email" v="filipstua@gmail.com" />
		<tag k="contact:phone" v="+47 76 07 52 80" />
		<tag k="contact:website" v="http://www.filipstua.no" />
		<tag k="max_age" v="5" />
		<tag k="min_age" v="1" />
		<tag k="name" v="Filipstua Friluftsbarnehage Sa" />
		<tag k="no-barnehage:nsrid" v="1020734" />
		<tag k="operator" v="Filipstua Friluftsbarnehage Sa" />
		<tag k="operator:type" v="private" />
		<tag k="start_date" v="2001-08-01" />
	</node>
	<node id="-5689" lat="68.3127" lon="14.9884">
		<tag k="amenity" v="kindergarten" />
		<tag k="contact:email" v="Gunnar.Aarstein@vagan.kommune.no" />
		<tag k="contact:phone" v="+47 75 42 03 56" />
		<tag k="max_age" v="5" />
		<tag k="min_age" v="3" />
		<tag k="name" v="Digermulen barnehage" />
		<tag k="no-barnehage:nsrid" v="1015160" />
		<tag k="operator" v="Vågan kommune" />
		<tag k="operator:type" v="public" />
		<tag k="start_date" v="2012-08-01" />
	</node>
	<node id="-5688" lat="68.24251" lon="14.54903">
		<tag k="amenity" v="kindergarten" />
		<tag k="capacity" v="22" />
		<tag k="contact:email" v="gunhildsminne@gmail.com" />
		<tag k="contact:phone" v="+47 76 07 07 41" />
		<tag k="max_age" v="5" />
		<tag k="min_age" v="1" />
		<tag k="name" v="Barnehagen Gunhilds Minne AS" />
		<tag k="no-barnehage:nsrid" v="1020469" />
		<tag k="operator" v="Barnehagen Gunhilds Minne AS" />
		<tag k="operator:type" v="private" />
		<tag k="start_date" v="1989-01-02" />
	</node>
	<node id="-5705" lat="68.2858" lon="14.3473">
		<tag k="amenity" v="kindergarten" />
		<tag k="capacity" v="7" />
		<tag k="contact:email" v="siv.oddv.henriksen@vagan.kommune.no" />
		<tag k="contact:phone" v="+47 75420000" />
		<tag k="max_age" v="5" />
		<tag k="min_age" v="1" />
		<tag k="name" v="Sydal barnehage Avd Sydal" />
		<tag k="no-barnehage:nsrid" v="1016143" />
		<tag k="operator" v="Vågan kommune" />
		<tag k="operator:type" v="public" />
		<tag k="start_date" v="1993-11-01" />
	</node>
	<node id="-5704" lat="68.2443" lon="14.578">
		<tag k="amenity" v="kindergarten" />
		<tag k="capacity" v="21" />
		<tag k="contact:email" v="trine.ottemo@vagan.kommune.no" />
		<tag k="contact:phone" v="+47 75420000" />
		<tag k="max_age" v="5" />
		<tag k="min_age" v="1" />
		<tag k="name" v="Svolvær barnehage" />
		<tag k="no-barnehage:nsrid" v="1012685" />
		<tag k="operator" v="Vågan kommune" />
		<tag k="operator:type" v="public" />
		<tag k="start_date" v="1965-12-31" />
	</node>
	<node id="-5703" lat="68.23911" lon="14.55652">
		<tag k="amenity" v="kindergarten" />
		<tag k="capacity" v="65" />
		<tag k="contact:email" v="marthebj@gmail.com" />
		<tag k="contact:phone" v="+47 76 07 85 51" />
		<tag k="max_age" v="5" />
		<tag k="min_age" v="1" />
		<tag k="name" v="Solheim barnehage AS" />
		<tag k="no-barnehage:nsrid" v="1020493" />
		<tag k="operator" v="Solheim barnehage AS" />
		<tag k="operator:type" v="private" />
		<tag k="start_date" v="1989-01-02" />
	</node>
	<node id="-5702" lat="68.15143" lon="14.1995">
		<tag k="amenity" v="kindergarten" />
		<tag k="capacity" v="12" />
		<tag k="contact:email" v="post@smatrollan.com" />
		<tag k="contact:phone" v="+47 76 07 46 30" />
		<tag k="max_age" v="5" />
		<tag k="min_age" v="1" />
		<tag k="name" v="Småtrollan barnehage Sa" />
		<tag k="no-barnehage:nsrid" v="1019753" />
		<tag k="operator" v="Småtrollan barnehage Sa" />
		<tag k="operator:type" v="private" />
		<tag k="start_date" v="1989-01-02" />
	</node>
	<node id="-5701" lat="68.172" lon="14.6792">
		<tag k="amenity" v="kindergarten" />
		<tag k="capacity" v="10" />
		<tag k="contact:email" v="mona.sjavik@vagan.kommune.no" />
		<tag k="contact:phone" v="+47 75420000" />
		<tag k="max_age" v="5" />
		<tag k="min_age" v="1" />
		<tag k="name" v="Skrova barnehage" />
		<tag k="no-barnehage:nsrid" v="1015976" />
		<tag k="operator" v="Vågan kommune" />
		<tag k="operator:type" v="public" />
		<tag k="start_date" v="1992-08-01" />
	</node>
	<node id="-5700" lat="68.23665" lon="14.5383">
		<tag k="amenity" v="kindergarten" />
		<tag k="capacity" v="72" />
		<tag k="contact:email" v="beate@osanstuabarnehage.no" />
		<tag k="contact:phone" v="+47 76 07 21 92" />
		<tag k="contact:website" v="http://www.osanstuabarnehage.no" />
		<tag k="max_age" v="5" />
		<tag k="min_age" v="1" />
		<tag k="name" v="Osanstua barnehage AS" />
		<tag k="no-barnehage:nsrid" v="1021898" />
		<tag k="operator" v="Osanstua barnehage AS" />
		<tag k="operator:type" v="private" />
		<tag k="start_date" v="1990-01-01" />
	</node>
	<node id="-5699" lat="68.20688" lon="14.46805">
		<tag k="amenity" v="kindergarten" />
		<tag k="capacity" v="23" />
		<tag k="contact:email" v="cecilie.cock@lofotkraft.net" />
		<tag k="contact:phone" v="+47 76077730" />
		<tag k="contact:website" v="http://www.nordlysbarnehage.no" />
		<tag k="max_age" v="5" />
		<tag k="min_age" v="1" />
		<tag k="name" v="Nordlys barnehage AS" />
		<tag k="no-barnehage:nsrid" v="1021839" />
		<tag k="operator" v="Nordlys barnehage AS" />
		<tag k="operator:type" v="private" />
		<tag k="start_date" v="2007-07-09" />
	</node>
	<node id="-5698" lat="68.2073" lon="14.4763">
		<tag k="amenity" v="kindergarten" />
		<tag k="capacity" v="54" />
		<tag k="contact:email" v="inger.sortland@vagan.kommune.no" />
		<tag k="contact:phone" v="+47 75420000" />
		<tag k="max_age" v="5" />
		<tag k="min_age" v="1" />
		<tag k="name" v="Nakken barnehage" />
		<tag k="no-barnehage:nsrid" v="1016144" />
		<tag k="operator" v="Vågan kommune" />
		<tag k="operator:type" v="public" />
		<tag k="start_date" v="1992-08-01" />
	</node>
</osm>
