<?xml version="1.0" encoding="UTF-8"?>
<osm generator="osmapis" version="0.6">
	<node id="-6166" lat="70.12024" lon="29.33056">
		<tag k="amenity" v="kindergarten" />
		<tag k="capacity" v="19" />
		<tag k="max_age" v="5" />
		<tag k="min_age" v="1" />
		<tag k="name" v="Vestre Jakobselv barnehage" />
		<tag k="no-barnehage:nsrid" v="1015470" />
		<tag k="operator" v="Vadsø kommune" />
		<tag k="operator:type" v="public" />
	</node>
	<node id="-6165" lat="70.08206" lon="29.72369">
		<tag k="amenity" v="kindergarten" />
		<tag k="capacity" v="42" />
		<tag k="max_age" v="5" />
		<tag k="min_age" v="1" />
		<tag k="name" v="Stubben barnehage" />
		<tag k="no-barnehage:nsrid" v="1013715" />
		<tag k="operator" v="Vadsø kommune" />
		<tag k="operator:type" v="public" />
	</node>
	<node id="-6164" lat="70.08839" lon="29.718">
		<tag k="amenity" v="kindergarten" />
		<tag k="capacity" v="42" />
		<tag k="max_age" v="5" />
		<tag k="min_age" v="1" />
		<tag k="name" v="Ruija barnehage" />
		<tag k="no-barnehage:nsrid" v="1012562" />
		<tag k="operator" v="Vadsø kommune" />
		<tag k="operator:type" v="public" />
	</node>
	<node id="-6163" lat="0.0" lon="0.0">
		<tag k="amenity" v="kindergarten" />
		<tag k="capacity" v="48" />
		<tag k="max_age" v="5" />
		<tag k="min_age" v="1" />
		<tag k="name" v="Maurtua barnehage" />
		<tag k="no-barnehage:nsrid" v="1016166" />
		<tag k="operator" v="Vadsø kommune" />
		<tag k="operator:type" v="public" />
	</node>
	<node id="-6162" lat="70.07554" lon="29.79244">
		<tag k="amenity" v="kindergarten" />
		<tag k="capacity" v="51" />
		<tag k="max_age" v="5" />
		<tag k="min_age" v="1" />
		<tag k="name" v="Lomakka barnehage" />
		<tag k="no-barnehage:nsrid" v="1015586" />
		<tag k="operator" v="Vadsø kommune" />
		<tag k="operator:type" v="public" />
	</node>
	<node id="-6161" lat="70.08507" lon="29.70734">
		<tag k="amenity" v="kindergarten" />
		<tag k="capacity" v="51" />
		<tag k="max_age" v="5" />
		<tag k="min_age" v="1" />
		<tag k="name" v="Glimmerstua barnehage" />
		<tag k="no-barnehage:nsrid" v="1016867" />
		<tag k="operator" v="Vadsø kommune" />
		<tag k="operator:type" v="public" />
	</node>
</osm>
