<?xml version="1.0" encoding="UTF-8"?>
<osm generator="osmapis" version="0.6">
	<node id="-5865" lat="70.1184" lon="29.3304">
		<tag k="amenity" v="kindergarten" />
		<tag k="capacity" v="17" />
		<tag k="contact:email" v="lillborgny.ananiassen@vadso.kommune.no" />
		<tag k="contact:phone" v="+47 78956156" />
		<tag k="max_age" v="5" />
		<tag k="min_age" v="1" />
		<tag k="name" v="Vestre Jakobselv barnehage" />
		<tag k="no-barnehage:nsrid" v="1015470" />
		<tag k="operator" v="Vadsø kommune" />
		<tag k="operator:type" v="public" />
		<tag k="start_date" v="1989-01-01" />
	</node>
	<node id="-5864" lat="70.0821" lon="29.7237">
		<tag k="amenity" v="kindergarten" />
		<tag k="capacity" v="38" />
		<tag k="contact:email" v="silje.wallenius@vadso.kommune.no" />
		<tag k="contact:phone" v="+47 78953201" />
		<tag k="max_age" v="5" />
		<tag k="min_age" v="1" />
		<tag k="name" v="Stubben barnehage" />
		<tag k="no-barnehage:nsrid" v="1013715" />
		<tag k="operator" v="Vadsø kommune" />
		<tag k="operator:type" v="public" />
		<tag k="start_date" v="1989-01-01" />
	</node>
	<node id="-5863" lat="70.0884" lon="29.7178">
		<tag k="amenity" v="kindergarten" />
		<tag k="capacity" v="42" />
		<tag k="contact:email" v="Thor-Emil.Aronsen@vadso.kommune.no" />
		<tag k="contact:phone" v="+47 78942480" />
		<tag k="max_age" v="5" />
		<tag k="min_age" v="1" />
		<tag k="name" v="Ruija barnehage" />
		<tag k="no-barnehage:nsrid" v="1012562" />
		<tag k="operator" v="Vadsø kommune" />
		<tag k="operator:type" v="public" />
		<tag k="start_date" v="1991-01-01" />
	</node>
	<node id="-5862" lat="70.0772" lon="29.7456">
		<tag k="amenity" v="kindergarten" />
		<tag k="capacity" v="52" />
		<tag k="contact:email" v="marianne.knutsen@vadso.kommune.no" />
		<tag k="contact:phone" v="+47 78952361" />
		<tag k="max_age" v="5" />
		<tag k="min_age" v="1" />
		<tag k="name" v="Maurtua barnehage" />
		<tag k="no-barnehage:nsrid" v="1016166" />
		<tag k="operator" v="Vadsø kommune" />
		<tag k="operator:type" v="public" />
		<tag k="start_date" v="1976-01-01" />
	</node>
	<node id="-5861" lat="70.0756" lon="29.7922">
		<tag k="amenity" v="kindergarten" />
		<tag k="capacity" v="52" />
		<tag k="contact:email" v="nan.h.mikalsen@vadso.kommune.no" />
		<tag k="contact:phone" v="+47 78942690" />
		<tag k="max_age" v="5" />
		<tag k="min_age" v="1" />
		<tag k="name" v="Lomakka barnehage" />
		<tag k="no-barnehage:nsrid" v="1015586" />
		<tag k="operator" v="Vadsø kommune" />
		<tag k="operator:type" v="public" />
		<tag k="start_date" v="1997-09-01" />
	</node>
	<node id="-5860" lat="70.0851" lon="29.7076">
		<tag k="amenity" v="kindergarten" />
		<tag k="capacity" v="50" />
		<tag k="contact:email" v="bente.jakola@vadso.kommune.no" />
		<tag k="contact:phone" v="+47 78953190" />
		<tag k="max_age" v="5" />
		<tag k="min_age" v="1" />
		<tag k="name" v="Glimmerstua barnehage" />
		<tag k="no-barnehage:nsrid" v="1016867" />
		<tag k="operator" v="Vadsø kommune" />
		<tag k="operator:type" v="public" />
		<tag k="start_date" v="1989-01-02" />
	</node>
</osm>
