<?xml version="1.0" encoding="UTF-8"?>
<osm generator="osmapis" version="0.6">
	<node id="-3008" lat="58.4115" lon="8.637424">
		<tag k="amenity" v="kindergarten" />
		<tag k="capacity" v="10" />
		<tag k="contact:email" v="lisdal3@online.no" />
		<tag k="contact:phone" v="+47 37 09 65 63" />
		<tag k="max_age" v="5" />
		<tag k="min_age" v="1" />
		<tag k="name" v="Løvehulen Familiebarnehage Lisbeth Dalen" />
		<tag k="no-barnehage:nsrid" v="1021007" />
		<tag k="operator" v="Løvehulen Familiebarnehage Lisbeth Dalen" />
		<tag k="operator:type" v="private" />
		<tag k="start_date" v="2003-12-15" />
	</node>
	<node id="-3022" lat="58.4609" lon="8.755075">
		<tag k="amenity" v="kindergarten" />
		<tag k="capacity" v="10" />
		<tag k="contact:email" v="grethe@snehvitfamiliebarnehage.no" />
		<tag k="contact:phone" v="+47 37 02 76 25" />
		<tag k="contact:website" v="http://www.snehvitfamiliebarnehage.no" />
		<tag k="max_age" v="5" />
		<tag k="min_age" v="1" />
		<tag k="name" v="Snehvit Familiebarnehage" />
		<tag k="no-barnehage:nsrid" v="1020513" />
		<tag k="operator" v="Sigbjørnsen Familiebarnehage" />
		<tag k="operator:type" v="private" />
		<tag k="start_date" v="1998-07-01" />
	</node>
	<node id="-2989" lat="58.47294" lon="8.777997">
		<tag k="amenity" v="kindergarten" />
		<tag k="capacity" v="9" />
		<tag k="contact:email" v="relsiel@online.no" />
		<tag k="max_age" v="5" />
		<tag k="min_age" v="1" />
		<tag k="name" v="Bukkene Bruse barnehage" />
		<tag k="no-barnehage:nsrid" v="1020678" />
		<tag k="operator" v="Bukkene Bruse Rita Elsie Lunde" />
		<tag k="operator:type" v="private" />
		<tag k="start_date" v="2009-01-01" />
	</node>
	<node id="-3019" lat="58.48621" lon="8.863447">
		<tag k="amenity" v="kindergarten" />
		<tag k="capacity" v="16" />
		<tag k="contact:email" v="skarefambarnehage@online.no" />
		<tag k="contact:phone" v="+47 90065143" />
		<tag k="max_age" v="5" />
		<tag k="min_age" v="1" />
		<tag k="name" v="Skare Familiebarnehage AS" />
		<tag k="no-barnehage:nsrid" v="1022094" />
		<tag k="operator" v="Skare Familiebarnehage AS" />
		<tag k="operator:type" v="private" />
		<tag k="start_date" v="2005-08-01" />
	</node>
</osm>
