<?xml version="1.0" encoding="UTF-8"?>
<osm generator="osmapis" version="0.6">
	<node id="-3055" lat="58.4115" lon="8.63742">
		<tag k="amenity" v="kindergarten" />
		<tag k="capacity" v="36" />
		<tag k="contact:email" v="Gjertrud.halle@arendal.kommune.no" />
		<tag k="contact:phone" v="+47 37 01 30 90" />
		<tag k="contact:website" v="http://arendal.kommune.no" />
		<tag k="max_age" v="5" />
		<tag k="min_age" v="1" />
		<tag k="name" v="Øyestad Barnehageenhet, Rykene" />
		<tag k="no-barnehage:nsrid" v="1014722" />
		<tag k="operator" v="Arendal kommune" />
		<tag k="operator:type" v="public" />
		<tag k="start_date" v="1992-05-01" />
	</node>
	<node id="-3054" lat="58.4128" lon="8.70459">
		<tag k="amenity" v="kindergarten" />
		<tag k="capacity" v="71" />
		<tag k="contact:email" v="gjertrud.halle@arendal.kommune.no" />
		<tag k="contact:phone" v="+47 37 09 63 90" />
		<tag k="max_age" v="5" />
		<tag k="min_age" v="1" />
		<tag k="name" v="Øyestad Barnehageenhet, Engene" />
		<tag k="no-barnehage:nsrid" v="1017481" />
		<tag k="operator" v="Arendal kommune" />
		<tag k="operator:type" v="public" />
		<tag k="start_date" v="1986-10-01" />
	</node>
	<node id="-3053" lat="58.45847" lon="8.824165">
		<tag k="amenity" v="kindergarten" />
		<tag k="capacity" v="49" />
		<tag k="contact:email" v="postmaster@tybakken.no" />
		<tag k="contact:website" v="http://www.tybakken.no" />
		<tag k="max_age" v="5" />
		<tag k="min_age" v="1" />
		<tag k="name" v="Tybakken barnehage" />
		<tag k="no-barnehage:nsrid" v="1019632" />
		<tag k="operator" v="Stiftelsen Tromøy Menighets Barnehager" />
		<tag k="operator:type" v="private" />
		<tag k="start_date" v="1989-01-01" />
	</node>
	<node id="-3052" lat="58.4425" lon="8.84711">
		<tag k="amenity" v="kindergarten" />
		<tag k="capacity" v="13" />
		<tag k="contact:email" v="johnny.svensvik@arendal.kommune.no" />
		<tag k="max_age" v="5" />
		<tag k="min_age" v="1" />
		<tag k="name" v="Tromøy Barnehageenhet, Hove" />
		<tag k="no-barnehage:nsrid" v="1017919" />
		<tag k="operator" v="Arendal kommune" />
		<tag k="operator:type" v="public" />
		<tag k="start_date" v="2007-01-01" />
	</node>
	<node id="-3051" lat="58.4567" lon="8.81708">
		<tag k="amenity" v="kindergarten" />
		<tag k="capacity" v="18" />
		<tag k="contact:email" v="johnny.svensvik@arendal.kommune.no" />
		<tag k="max_age" v="5" />
		<tag k="min_age" v="3" />
		<tag k="name" v="Tromøy Barnehageenhet, Fjellvik" />
		<tag k="no-barnehage:nsrid" v="1014093" />
		<tag k="operator" v="Arendal kommune" />
		<tag k="operator:type" v="public" />
		<tag k="start_date" v="2009-12-01" />
	</node>
	<node id="-3050" lat="58.4792" lon="8.8556">
		<tag k="amenity" v="kindergarten" />
		<tag k="capacity" v="54" />
		<tag k="contact:email" v="johnny.svensvik@arendal.kommune.no" />
		<tag k="max_age" v="5" />
		<tag k="min_age" v="1" />
		<tag k="name" v="Tromøy Barnehageenhet, Fabakken Avd Karius og Baktus" />
		<tag k="no-barnehage:nsrid" v="1014721" />
		<tag k="operator" v="Arendal kommune" />
		<tag k="operator:type" v="public" />
		<tag k="start_date" v="1992-08-01" />
	</node>
	<node id="-3049" lat="58.55379" lon="8.964752">
		<tag k="amenity" v="kindergarten" />
		<tag k="capacity" v="39" />
		<tag k="contact:email" v="trollstubbenbhg@gmail.com" />
		<tag k="contact:website" v="http://www.trollstubbens.barnehageside.no" />
		<tag k="max_age" v="5" />
		<tag k="min_age" v="1" />
		<tag k="name" v="Trollstubben barnehage AS" />
		<tag k="no-barnehage:nsrid" v="1021569" />
		<tag k="operator" v="Trollstubben barnehage AS" />
		<tag k="operator:type" v="private" />
		<tag k="start_date" v="2002-08-01" />
	</node>
	<node id="-3048" lat="58.47862" lon="8.76031">
		<tag k="amenity" v="kindergarten" />
		<tag k="capacity" v="30" />
		<tag k="contact:email" v="post@svalestienbhg.no" />
		<tag k="contact:phone" v="+47 41265579" />
		<tag k="max_age" v="5" />
		<tag k="min_age" v="1" />
		<tag k="name" v="Svalestien barnehage AS" />
		<tag k="no-barnehage:nsrid" v="1021619" />
		<tag k="operator" v="Svalestien barnehage AS" />
		<tag k="operator:type" v="private" />
		<tag k="start_date" v="2006-10-04" />
	</node>
	<node id="-3047" lat="58.4502" lon="8.74272">
		<tag k="amenity" v="kindergarten" />
		<tag k="capacity" v="79" />
		<tag k="contact:email" v="ase.hoias.nilsen@arendal.kommune.no" />
		<tag k="max_age" v="5" />
		<tag k="min_age" v="1" />
		<tag k="name" v="Strømmen Oppvekstsenter barnehage" />
		<tag k="no-barnehage:nsrid" v="1018057" />
		<tag k="operator" v="Arendal kommune" />
		<tag k="operator:type" v="public" />
		<tag k="start_date" v="1989-01-01" />
	</node>
	<node id="-3046" lat="58.4592" lon="8.75309">
		<tag k="amenity" v="kindergarten" />
		<tag k="capacity" v="74" />
		<tag k="contact:email" v="hilde.ljostad.aasen@arendal.kommune.no" />
		<tag k="max_age" v="5" />
		<tag k="min_age" v="1" />
		<tag k="name" v="Stinta Barnehageenhet, Strømsbuåsen" />
		<tag k="no-barnehage:nsrid" v="1017038" />
		<tag k="operator" v="Arendal kommune" />
		<tag k="operator:type" v="public" />
		<tag k="start_date" v="2005-01-01" />
	</node>
	<node id="-3045" lat="58.4595" lon="8.74728">
		<tag k="amenity" v="kindergarten" />
		<tag k="capacity" v="36" />
		<tag k="contact:email" v="hilde.ljostad.aasen@arendal.kommune.no" />
		<tag k="max_age" v="5" />
		<tag k="min_age" v="1" />
		<tag k="name" v="Stinta Barnehageenhet, Gåsungen" />
		<tag k="no-barnehage:nsrid" v="1014115" />
		<tag k="operator" v="Arendal kommune" />
		<tag k="operator:type" v="public" />
		<tag k="start_date" v="2010-01-01" />
	</node>
	<node id="-3044" lat="58.47265" lon="8.784116">
		<tag k="amenity" v="kindergarten" />
		<tag k="capacity" v="35" />
		<tag k="contact:email" v="eldbjorg@stjerneglimt.no" />
		<tag k="contact:phone" v="+47 37016727" />
		<tag k="contact:website" v="http://www.stjerneglimt.no" />
		<tag k="max_age" v="5" />
		<tag k="min_age" v="1" />
		<tag k="name" v="Steinerbarnehagen Stjerneglimt" />
		<tag k="no-barnehage:nsrid" v="1019760" />
		<tag k="operator" v="Stiftelsen Stjerneglimt Steinerbarnehage" />
		<tag k="operator:type" v="private" />
		<tag k="start_date" v="1989-01-02" />
	</node>
	<node id="-3043" lat="58.45792" lon="8.765299">
		<tag k="amenity" v="kindergarten" />
		<tag k="capacity" v="19" />
		<tag k="contact:email" v="rsl@stfx.no" />
		<tag k="contact:phone" v="+47 37 00 06 35" />
		<tag k="contact:website" v="http://www.stfx.no" />
		<tag k="max_age" v="5" />
		<tag k="min_age" v="1" />
		<tag k="name" v="St Franciskus barnehage" />
		<tag k="no-barnehage:nsrid" v="1021531" />
		<tag k="operator" v="St. Franciskus barnehage" />
		<tag k="operator:type" v="private" />
		<tag k="start_date" v="1989-01-01" />
	</node>
	<node id="-3042" lat="58.46617" lon="8.758641">
		<tag k="amenity" v="kindergarten" />
		<tag k="capacity" v="27" />
		<tag k="contact:email" v="grethe@springkleivbarnehage.no" />
		<tag k="contact:phone" v="+47 416 23 930" />
		<tag k="max_age" v="5" />
		<tag k="min_age" v="1" />
		<tag k="name" v="Springkleiv barnehage AS" />
		<tag k="no-barnehage:nsrid" v="1022176" />
		<tag k="operator" v="Springkleiv barnehage AS" />
		<tag k="operator:type" v="private" />
		<tag k="start_date" v="2011-02-20" />
	</node>
	<node id="-3041" lat="58.45671" lon="8.817077">
		<tag k="amenity" v="kindergarten" />
		<tag k="capacity" v="54" />
		<tag k="contact:email" v="post@spornesbarn.no" />
		<tag k="contact:phone" v="+47 996 38 933" />
		<tag k="contact:website" v="http://www.spornesbarn.no" />
		<tag k="max_age" v="5" />
		<tag k="min_age" v="1" />
		<tag k="name" v="Spornes Gårdsbarnehage AS" />
		<tag k="no-barnehage:nsrid" v="1022015" />
		<tag k="operator" v="Spornes Gårdsbarnehage AS" />
		<tag k="operator:type" v="private" />
		<tag k="start_date" v="2010-01-18" />
	</node>
	<node id="-3040" lat="58.4963" lon="8.87302">
		<tag k="amenity" v="kindergarten" />
		<tag k="capacity" v="77" />
		<tag k="contact:email" v="sm.eydehavn@laringsverkstedet.no" />
		<tag k="contact:phone" v="+47 370 15595" />
		<tag k="contact:website" v="http://www.soriamoriabarnehage.no" />
		<tag k="max_age" v="5" />
		<tag k="min_age" v="1" />
		<tag k="name" v="Soria Moria barnehage i AS Avdeling Eydehavn" />
		<tag k="no-barnehage:nsrid" v="1015047" />
		<tag k="operator" v="Soria Moria barnehage i AS" />
		<tag k="operator:type" v="private" />
		<tag k="start_date" v="2011-07-01" />
	</node>
	<node id="-3039" lat="58.445" lon="8.77294">
		<tag k="amenity" v="kindergarten" />
		<tag k="capacity" v="53" />
		<tag k="contact:email" v="ronnaug@soriamoriabarnehage.no" />
		<tag k="contact:phone" v="+47 37 01 55 95" />
		<tag k="max_age" v="5" />
		<tag k="min_age" v="1" />
		<tag k="name" v="Soria Moria barnehage Hisøy AS Avd Sandvigveien 104" />
		<tag k="no-barnehage:nsrid" v="1017015" />
		<tag k="operator" v="Soria Moria barnehage Hisøy AS" />
		<tag k="operator:type" v="private" />
		<tag k="start_date" v="2005-10-20" />
	</node>
	<node id="-3038" lat="58.4446" lon="8.77438">
		<tag k="amenity" v="kindergarten" />
		<tag k="capacity" v="54" />
		<tag k="contact:email" v="connie@soriamoriabarnehage.no" />
		<tag k="contact:phone" v="+47 92212484" />
		<tag k="contact:website" v="http://www.soriamoriabarnehage.no" />
		<tag k="max_age" v="5" />
		<tag k="min_age" v="1" />
		<tag k="name" v="Soria Moria barnehage Hisøy Avd Sandvigveien 120" />
		<tag k="no-barnehage:nsrid" v="1015167" />
		<tag k="operator" v="Soria Moria barnehage Hisøy AS" />
		<tag k="operator:type" v="private" />
		<tag k="start_date" v="2012-10-05" />
	</node>
	<node id="-3037" lat="58.4576" lon="8.76615">
		<tag k="amenity" v="kindergarten" />
		<tag k="capacity" v="85" />
		<tag k="contact:email" v="annegrete@soriamoriabarnehage.no" />
		<tag k="contact:phone" v="+47 37 01 55 95" />
		<tag k="contact:website" v="http://www.soriamoriabarnehage.no" />
		<tag k="max_age" v="5" />
		<tag k="min_age" v="1" />
		<tag k="name" v="Soria Moria barnehage Arendal AS Avd Rådhusgaten" />
		<tag k="no-barnehage:nsrid" v="1013413" />
		<tag k="operator" v="Soria Moria barnehage Arendal AS" />
		<tag k="operator:type" v="private" />
		<tag k="start_date" v="2007-02-09" />
	</node>
	<node id="-3036" lat="58.4876" lon="8.76341">
		<tag k="amenity" v="kindergarten" />
		<tag k="capacity" v="48" />
		<tag k="contact:email" v="elin@soriamoriabarnehage.no" />
		<tag k="contact:website" v="http://www.soriamoriabarnehage.no/" />
		<tag k="max_age" v="5" />
		<tag k="min_age" v="1" />
		<tag k="name" v="Soria Moria barnehage Avd Longum Park" />
		<tag k="no-barnehage:nsrid" v="1014104" />
		<tag k="operator" v="Soria Moria barnehage Arendal AS" />
		<tag k="operator:type" v="private" />
		<tag k="start_date" v="2008-04-01" />
	</node>
	<node id="-3035" lat="58.4151" lon="8.700518">
		<tag k="amenity" v="kindergarten" />
		<tag k="capacity" v="24" />
		<tag k="contact:email" v="solsikkenbhg@solsikkenbhg.no" />
		<tag k="max_age" v="5" />
		<tag k="min_age" v="1" />
		<tag k="name" v="Solsikken barnehage AS" />
		<tag k="no-barnehage:nsrid" v="1020611" />
		<tag k="operator" v="Solsikken barnehage AS" />
		<tag k="operator:type" v="private" />
		<tag k="start_date" v="2000-01-11" />
	</node>
	<node id="-3033" lat="58.52691" lon="8.934676">
		<tag k="amenity" v="kindergarten" />
		<tag k="capacity" v="26" />
		<tag k="contact:email" v="skogenslykke@gmail.com" />
		<tag k="contact:phone" v="+47 37033998" />
		<tag k="contact:website" v="http://skogenslykke.barnehage.no" />
		<tag k="max_age" v="5" />
		<tag k="min_age" v="1" />
		<tag k="name" v="Skogens Lykke barnehage AS" />
		<tag k="no-barnehage:nsrid" v="1022075" />
		<tag k="operator" v="Skogens Lykke barnehage AS" />
		<tag k="operator:type" v="private" />
		<tag k="start_date" v="2010-05-05" />
	</node>
	<node id="-3031" lat="58.43755" lon="8.711318">
		<tag k="amenity" v="kindergarten" />
		<tag k="capacity" v="26" />
		<tag k="contact:email" v="post@sjiraffen.no" />
		<tag k="contact:phone" v="+47 37 08 84 81" />
		<tag k="contact:website" v="http://www.sjiraffen.barnehage.no" />
		<tag k="max_age" v="5" />
		<tag k="min_age" v="1" />
		<tag k="name" v="Sjiraffen barnehage AS" />
		<tag k="no-barnehage:nsrid" v="1021440" />
		<tag k="operator" v="Sjiraffen barnehage AS" />
		<tag k="operator:type" v="private" />
		<tag k="start_date" v="1993-08-01" />
	</node>
	<node id="-3030" lat="58.48478" lon="8.873774">
		<tag k="amenity" v="kindergarten" />
		<tag k="capacity" v="30" />
		<tag k="contact:email" v="jar-aanb@online.no" />
		<tag k="contact:phone" v="+47 908 60 648" />
		<tag k="max_age" v="5" />
		<tag k="min_age" v="1" />
		<tag k="name" v="Sandnes barnehage Jarl Aanby" />
		<tag k="no-barnehage:nsrid" v="1021507" />
		<tag k="operator" v="Sandnes barnehage Jarl Aanby" />
		<tag k="operator:type" v="private" />
		<tag k="start_date" v="2006-09-04" />
	</node>
	<node id="-3029" lat="58.4333" lon="8.74603">
		<tag k="amenity" v="kindergarten" />
		<tag k="capacity" v="33" />
		<tag k="contact:email" v="haavard@portveien.no" />
		<tag k="contact:phone" v="+47 37 03 36 00" />
		<tag k="max_age" v="5" />
		<tag k="min_age" v="1" />
		<tag k="name" v="Portveien Barnehagedrift AS Avd His" />
		<tag k="no-barnehage:nsrid" v="1015908" />
		<tag k="operator" v="Portveien Barnehagedrift AS" />
		<tag k="operator:type" v="private" />
		<tag k="start_date" v="1999-08-01" />
	</node>
	<node id="-3028" lat="58.4712" lon="8.77658">
		<tag k="amenity" v="kindergarten" />
		<tag k="capacity" v="44" />
		<tag k="contact:email" v="kari.p@landboe.no" />
		<tag k="max_age" v="5" />
		<tag k="min_age" v="1" />
		<tag k="name" v="Nyli barnehage" />
		<tag k="no-barnehage:nsrid" v="1016750" />
		<tag k="operator" v="Barbu Sokn" />
		<tag k="operator:type" v="private" />
		<tag k="start_date" v="1976-12-24" />
	</node>
	<node id="-3027" lat="58.4115" lon="8.637424">
		<tag k="amenity" v="kindergarten" />
		<tag k="capacity" v="23" />
		<tag k="contact:email" v="Jaskland@hotmail.com" />
		<tag k="max_age" v="5" />
		<tag k="min_age" v="1" />
		<tag k="name" v="Noas Park barnehage" />
		<tag k="no-barnehage:nsrid" v="1020468" />
		<tag k="operator" v="Rykene Bedehus" />
		<tag k="operator:type" v="private" />
		<tag k="start_date" v="1997-08-01" />
	</node>
	<node id="-3026" lat="58.48953" lon="8.836518">
		<tag k="amenity" v="kindergarten" />
		<tag k="capacity" v="13" />
		<tag k="contact:email" v="lisbvaa@online.no" />
		<tag k="max_age" v="5" />
		<tag k="min_age" v="1" />
		<tag k="name" v="Noah barnehage AS" />
		<tag k="no-barnehage:nsrid" v="1020947" />
		<tag k="operator" v="Noah barnehage AS" />
		<tag k="operator:type" v="private" />
		<tag k="start_date" v="2009-01-01" />
	</node>
	<node id="-3025" lat="58.4151" lon="8.700518">
		<tag k="amenity" v="kindergarten" />
		<tag k="capacity" v="14" />
		<tag k="contact:email" v="nita@nedenesaasen.no" />
		<tag k="contact:phone" v="+47 37 05 00 45" />
		<tag k="contact:website" v="http://www.nedenesaasen.no" />
		<tag k="max_age" v="5" />
		<tag k="min_age" v="1" />
		<tag k="name" v="Nedenesåsen barnehage AS" />
		<tag k="no-barnehage:nsrid" v="1020925" />
		<tag k="operator" v="Nedenesåsen barnehage AS" />
		<tag k="operator:type" v="private" />
		<tag k="start_date" v="2003-08-01" />
	</node>
	<node id="-3024" lat="58.42318" lon="8.716787">
		<tag k="amenity" v="kindergarten" />
		<tag k="capacity" v="56" />
		<tag k="contact:email" v="natvigheia@barnehage.no" />
		<tag k="contact:phone" v="+47 37 03 69 10" />
		<tag k="contact:website" v="http://www.natvigheiabarnehage.no" />
		<tag k="max_age" v="5" />
		<tag k="min_age" v="1" />
		<tag k="name" v="Natvigheia barnehage Sa" />
		<tag k="no-barnehage:nsrid" v="1021022" />
		<tag k="operator" v="Natvigheia barnehage Sa" />
		<tag k="operator:type" v="private" />
		<tag k="start_date" v="2004-01-22" />
	</node>
	<node id="-3023" lat="58.459" lon="8.75603">
		<tag k="amenity" v="kindergarten" />
		<tag k="capacity" v="50" />
		<tag k="contact:email" v="anita@villamatilda.no" />
		<tag k="contact:phone" v="+47 37 02 81 13" />
		<tag k="max_age" v="5" />
		<tag k="min_age" v="1" />
		<tag k="name" v="Matilda AS Avd Arendal" />
		<tag k="no-barnehage:nsrid" v="1014079" />
		<tag k="operator" v="Matilda AS" />
		<tag k="operator:type" v="private" />
		<tag k="start_date" v="2009-08-01" />
	</node>
	<node id="-3021" lat="58.4669" lon="8.74957">
		<tag k="amenity" v="kindergarten" />
		<tag k="capacity" v="61" />
		<tag k="contact:email" v="bhg.furukollen@laringsverkstedet.no" />
		<tag k="contact:phone" v="+47 38 04 09 38" />
		<tag k="max_age" v="5" />
		<tag k="min_age" v="1" />
		<tag k="name" v="Læringsverkstedet barnehage Avd Furukollen" />
		<tag k="no-barnehage:nsrid" v="1013387" />
		<tag k="operator" v="Læringsverkstedet AS" />
		<tag k="operator:type" v="private" />
		<tag k="start_date" v="2006-03-01" />
	</node>
	<node id="-3020" lat="58.47596" lon="8.74967">
		<tag k="amenity" v="kindergarten" />
		<tag k="capacity" v="42" />
		<tag k="contact:email" v="Lindebakken.barnehage@gmail.com" />
		<tag k="contact:phone" v="+47 37 00 13 33" />
		<tag k="contact:website" v="http://www.lindebakken.barnehage.no" />
		<tag k="max_age" v="5" />
		<tag k="min_age" v="1" />
		<tag k="name" v="Lindebakken barnehage AS" />
		<tag k="no-barnehage:nsrid" v="1021314" />
		<tag k="operator" v="Lindebakken barnehage AS" />
		<tag k="operator:type" v="private" />
		<tag k="start_date" v="2005-10-04" />
	</node>
	<node id="-3019" lat="58.45226" lon="8.740102">
		<tag k="amenity" v="kindergarten" />
		<tag k="name" v="Lille-Strømsbu barnehage B. Aanby" />
		<tag k="no-barnehage:nsrid" v="1026596" />
		<tag k="operator" v="Lille-Strømsbu barnehage B. Aanby" />
		<tag k="operator:type" v="private" />
		<tag k="start_date" v="2015-11-01" />
	</node>
	<node id="-3018" lat="58.45226" lon="8.740102">
		<tag k="amenity" v="kindergarten" />
		<tag k="capacity" v="17" />
		<tag k="contact:email" v="ie.lynghaug@hotmail.com" />
		<tag k="contact:phone" v="+47 90 06 29 24" />
		<tag k="contact:website" v="http://www.lille-stromsbu.barnehage.no/" />
		<tag k="max_age" v="5" />
		<tag k="min_age" v="1" />
		<tag k="name" v="Lille-Strømsbu barnehage Ans" />
		<tag k="no-barnehage:nsrid" v="1021048" />
		<tag k="operator" v="Lille-Strømsbu barnehage Ans" />
		<tag k="operator:type" v="private" />
		<tag k="start_date" v="2004-05-06" />
	</node>
	<node id="-3017" lat="58.46981" lon="8.754091">
		<tag k="amenity" v="kindergarten" />
		<tag k="capacity" v="17" />
		<tag k="contact:email" v="langsae@hotmail.com" />
		<tag k="contact:phone" v="+47 37 02 66 20" />
		<tag k="max_age" v="5" />
		<tag k="min_age" v="1" />
		<tag k="name" v="Langsæ Kulturbarnehage Helge Kolflaath" />
		<tag k="no-barnehage:nsrid" v="1020641" />
		<tag k="operator" v="Langsæ Kulturbarnehage Helge Kolflaath" />
		<tag k="operator:type" v="private" />
		<tag k="start_date" v="2000-07-01" />
	</node>
	<node id="-3016" lat="58.48621" lon="8.863447">
		<tag k="amenity" v="kindergarten" />
		<tag k="capacity" v="14" />
		<tag k="contact:email" v="jar-aanb@online.no" />
		<tag k="contact:phone" v="+47 37 03 30 40" />
		<tag k="max_age" v="5" />
		<tag k="min_age" v="1" />
		<tag k="name" v="Kongshavn barnehage Jarl Aanby" />
		<tag k="no-barnehage:nsrid" v="1021932" />
		<tag k="operator" v="Kongshavn barnehage Jarl Aanby" />
		<tag k="operator:type" v="private" />
		<tag k="start_date" v="2009-04-01" />
	</node>
	<node id="-3015" lat="58.45983" lon="8.769225">
		<tag k="amenity" v="kindergarten" />
		<tag k="contact:email" v="trygve@skbk.no" />
		<tag k="name" v="Kirkens Bymisjon Avd Kastellveien Åpen barnehage" />
		<tag k="no-barnehage:nsrid" v="1025648" />
		<tag k="operator" v="Stiftelsen Kirkens Bymisjon i Kristiansand" />
		<tag k="operator:type" v="private" />
		<tag k="start_date" v="2014-02-17" />
	</node>
	<node id="-3014" lat="58.4973" lon="8.84411">
		<tag k="amenity" v="kindergarten" />
		<tag k="capacity" v="53" />
		<tag k="contact:email" v="janne.andersen@arendal.kommune.no" />
		<tag k="max_age" v="5" />
		<tag k="min_age" v="1" />
		<tag k="name" v="Jovannslia Barnehageenhet, Lia" />
		<tag k="no-barnehage:nsrid" v="1012502" />
		<tag k="operator" v="Arendal kommune" />
		<tag k="operator:type" v="public" />
		<tag k="start_date" v="1989-01-01" />
	</node>
	<node id="-3013" lat="58.4804" lon="8.77236">
		<tag k="amenity" v="kindergarten" />
		<tag k="capacity" v="60" />
		<tag k="contact:email" v="janne.andersen@arendal.kommune.no" />
		<tag k="max_age" v="5" />
		<tag k="min_age" v="1" />
		<tag k="name" v="Jovannslia Barnehageenhet, Jovannslia" />
		<tag k="no-barnehage:nsrid" v="1017039" />
		<tag k="operator" v="Arendal kommune" />
		<tag k="operator:type" v="public" />
		<tag k="start_date" v="2005-01-01" />
	</node>
	<node id="-3012" lat="58.44039" lon="8.764569">
		<tag k="amenity" v="kindergarten" />
		<tag k="capacity" v="68" />
		<tag k="contact:email" v="solveig.abrahamsen@arendal.kommune.no" />
		<tag k="max_age" v="5" />
		<tag k="min_age" v="1" />
		<tag k="name" v="Hisøy Barnehageenhet, Stemmehagen" />
		<tag k="no-barnehage:nsrid" v="1025443" />
		<tag k="operator" v="Arendal kommune" />
		<tag k="operator:type" v="public" />
		<tag k="start_date" v="2014-08-01" />
	</node>
	<node id="-3011" lat="58.43395" lon="8.696306">
		<tag k="amenity" v="kindergarten" />
		<tag k="capacity" v="37" />
		<tag k="contact:email" v="gullungen@barnehage.no" />
		<tag k="max_age" v="5" />
		<tag k="min_age" v="1" />
		<tag k="name" v="Gullungen barnehage AS" />
		<tag k="no-barnehage:nsrid" v="1022280" />
		<tag k="operator" v="Gullungen barnehage AS" />
		<tag k="operator:type" v="private" />
		<tag k="start_date" v="2001-08-01" />
	</node>
	<node id="-3010" lat="58.50076" lon="8.872166">
		<tag k="amenity" v="kindergarten" />
		<tag k="capacity" v="56" />
		<tag k="contact:email" v="edel.ulven@grandehagen.no" />
		<tag k="contact:phone" v="+47 37 03 03 46" />
		<tag k="contact:website" v="http://www.grandehagen.barnehage.no" />
		<tag k="max_age" v="5" />
		<tag k="min_age" v="1" />
		<tag k="name" v="Grandehagen barnehage AS" />
		<tag k="no-barnehage:nsrid" v="1020529" />
		<tag k="operator" v="Grandehagen barnehage AS" />
		<tag k="operator:type" v="private" />
		<tag k="start_date" v="1995-08-01" />
	</node>
	<node id="-3009" lat="58.46176" lon="8.772449">
		<tag k="amenity" v="kindergarten" />
		<tag k="capacity" v="103" />
		<tag k="contact:email" v="styrer@myraskogen.espira.no" />
		<tag k="contact:phone" v="+47 52 84 50 20" />
		<tag k="contact:website" v="http://www.espira.no" />
		<tag k="max_age" v="5" />
		<tag k="min_age" v="1" />
		<tag k="name" v="Espira Myraskogen barnehage" />
		<tag k="no-barnehage:nsrid" v="1021752" />
		<tag k="operator" v="Espira Myraskogen AS" />
		<tag k="operator:type" v="private" />
		<tag k="start_date" v="2008-01-18" />
	</node>
	<node id="-3008" lat="58.43584" lon="8.695739">
		<tag k="amenity" v="kindergarten" />
		<tag k="capacity" v="38" />
		<tag k="contact:email" v="linda.langemyr@eplehagenbhg.no" />
		<tag k="max_age" v="5" />
		<tag k="min_age" v="1" />
		<tag k="name" v="Eplehagen Barnehagen AS" />
		<tag k="no-barnehage:nsrid" v="1025748" />
		<tag k="operator" v="Eplehagen Barnehagen AS" />
		<tag k="operator:type" v="private" />
		<tag k="start_date" v="2015-01-02" />
	</node>
	<node id="-3007" lat="58.47404" lon="8.804636">
		<tag k="amenity" v="kindergarten" />
		<tag k="capacity" v="26" />
		<tag k="contact:email" v="ebaras@online.no" />
		<tag k="contact:phone" v="+47 37 02 82 33" />
		<tag k="max_age" v="5" />
		<tag k="min_age" v="1" />
		<tag k="name" v="Enghaven barnehage AS" />
		<tag k="no-barnehage:nsrid" v="1020723" />
		<tag k="operator" v="Enghaven barnehage AS" />
		<tag k="operator:type" v="private" />
		<tag k="start_date" v="1992-08-01" />
	</node>
	<node id="-3006" lat="58.4774" lon="8.76261">
		<tag k="amenity" v="kindergarten" />
		<tag k="capacity" v="70" />
		<tag k="contact:email" v="berit.songe@durapart.no" />
		<tag k="max_age" v="5" />
		<tag k="min_age" v="1" />
		<tag k="name" v="Durapart AS Avd Moltemyrskogen Barnehage" />
		<tag k="no-barnehage:nsrid" v="1017689" />
		<tag k="operator" v="Durapart AS" />
		<tag k="operator:type" v="private" />
		<tag k="start_date" v="2006-12-01" />
	</node>
	<node id="-3005" lat="58.48718" lon="8.849227">
		<tag k="amenity" v="kindergarten" />
		<tag k="capacity" v="34" />
		<tag k="contact:email" v="siv.iren@bbskogen-naturbarnehage.no" />
		<tag k="max_age" v="5" />
		<tag k="min_age" v="1" />
		<tag k="name" v="Drømmevika Naturbarnehage AS" />
		<tag k="no-barnehage:nsrid" v="1022338" />
		<tag k="operator" v="Drømmevika Naturbarnehage AS" />
		<tag k="operator:type" v="private" />
		<tag k="start_date" v="2013-01-11" />
	</node>
	<node id="-3004" lat="58.46176" lon="8.772449">
		<tag k="amenity" v="kindergarten" />
		<tag k="capacity" v="58" />
		<tag k="contact:email" v="post@dalenbarnehage.net" />
		<tag k="contact:phone" v="+47 37033284" />
		<tag k="max_age" v="5" />
		<tag k="min_age" v="1" />
		<tag k="name" v="Dalen barnehage" />
		<tag k="no-barnehage:nsrid" v="1019908" />
		<tag k="operator" v="Dalen barnehage" />
		<tag k="operator:type" v="private" />
		<tag k="start_date" v="1990-08-01" />
	</node>
	<node id="-3002" lat="58.46422" lon="8.731263">
		<tag k="amenity" v="kindergarten" />
		<tag k="capacity" v="35" />
		<tag k="contact:email" v="post@brastadbhg.no" />
		<tag k="contact:phone" v="+47 37026668" />
		<tag k="contact:website" v="http://brastad.barnehage.no" />
		<tag k="max_age" v="5" />
		<tag k="min_age" v="1" />
		<tag k="name" v="Bråstad barnehage AS" />
		<tag k="no-barnehage:nsrid" v="1020672" />
		<tag k="operator" v="Bråstad barnehage AS" />
		<tag k="operator:type" v="private" />
		<tag k="start_date" v="2000-08-20" />
	</node>
	<node id="-3001" lat="58.45671" lon="8.817077">
		<tag k="amenity" v="kindergarten" />
		<tag k="capacity" v="20" />
		<tag k="contact:email" v="blaaklokken@barnehage.no" />
		<tag k="contact:phone" v="+47 37086372" />
		<tag k="max_age" v="5" />
		<tag k="min_age" v="1" />
		<tag k="name" v="Blåklokken barnehage" />
		<tag k="no-barnehage:nsrid" v="1019766" />
		<tag k="operator" v="Blåklokken barnehage" />
		<tag k="operator:type" v="private" />
		<tag k="start_date" v="1989-01-02" />
	</node>
	<node id="-3000" lat="58.46278" lon="8.746235">
		<tag k="amenity" v="kindergarten" />
		<tag k="capacity" v="15" />
		<tag k="contact:email" v="bjonnes.barnehage@gmail.com" />
		<tag k="max_age" v="5" />
		<tag k="min_age" v="1" />
		<tag k="name" v="Bjønnes barnehage AS" />
		<tag k="no-barnehage:nsrid" v="1020946" />
		<tag k="operator" v="Bjønnes barnehage AS" />
		<tag k="operator:type" v="private" />
		<tag k="start_date" v="2003-07-29" />
	</node>
	<node id="-2999" lat="58.4763" lon="8.81388">
		<tag k="amenity" v="kindergarten" />
		<tag k="capacity" v="29" />
		<tag k="contact:email" v="anne.quist-paulsen@arendal.kommune.no" />
		<tag k="max_age" v="5" />
		<tag k="min_age" v="1" />
		<tag k="name" v="Barnehager Sentrum Øst, Møllers Asyl" />
		<tag k="no-barnehage:nsrid" v="1017143" />
		<tag k="operator" v="Arendal kommune" />
		<tag k="operator:type" v="public" />
		<tag k="start_date" v="2006-01-01" />
	</node>
	<node id="-2998" lat="58.4736" lon="8.78757">
		<tag k="amenity" v="kindergarten" />
		<tag k="capacity" v="53" />
		<tag k="contact:email" v="anne.quist-paulsen@arendal.kommune.no" />
		<tag k="max_age" v="5" />
		<tag k="min_age" v="1" />
		<tag k="name" v="Barnehager Sentrum Øst, Gullfakse" />
		<tag k="no-barnehage:nsrid" v="1017142" />
		<tag k="operator" v="Arendal kommune" />
		<tag k="operator:type" v="public" />
		<tag k="start_date" v="2006-01-01" />
	</node>
	<node id="-2997" lat="58.44848" lon="8.766579">
		<tag k="amenity" v="kindergarten" />
		<tag k="capacity" v="40" />
		<tag k="contact:email" v="aa-pette@online.no" />
		<tag k="contact:phone" v="+47 37011499" />
		<tag k="max_age" v="5" />
		<tag k="min_age" v="1" />
		<tag k="name" v="Askeladden barnehage" />
		<tag k="no-barnehage:nsrid" v="1019939" />
		<tag k="operator" v="Askeladden barnehage Åge Pettersen" />
		<tag k="operator:type" v="private" />
		<tag k="start_date" v="1990-01-01" />
	</node>
	<node id="-2996" lat="58.44041" lon="8.708602">
		<tag k="amenity" v="kindergarten" />
		<tag k="capacity" v="20" />
		<tag k="contact:email" v="dl.alvehetta@bhg.no" />
		<tag k="contact:website" v="http://alvehetta.bhg.no" />
		<tag k="max_age" v="5" />
		<tag k="min_age" v="1" />
		<tag k="name" v="Alvehetta Fus barnehage" />
		<tag k="no-barnehage:nsrid" v="1021765" />
		<tag k="operator" v="Alvehetta Fus barnehage AS" />
		<tag k="operator:type" v="private" />
		<tag k="start_date" v="2008-01-11" />
	</node>
</osm>
