<?xml version="1.0" encoding="UTF-8"?>
<osm generator="osmapis" version="0.6">
	<node id="-3680" lat="58.088" lon="7.80127">
		<tag k="amenity" v="kindergarten" />
		<tag k="capacity" v="96" />
		<tag k="contact:website" v="http://laringsverkstedet.no/barnehage/sogne" />
		<tag k="doNotImportAddress" v="Moneveien 102 - 106 4640 SØGNE" />
		<tag k="max_age" v="5" />
		<tag k="min_age" v="1" />
		<tag k="name" v="Læringsverkstedet barnehage avd. Søgne" />
		<tag k="no-barnehage:nsrid" v="1017933" />
		<tag k="operator" v="Læringsverkstedet AS" />
		<tag k="operator:type" v="private" />
	</node>
	<node id="-3678" lat="58.08042" lon="7.787565">
		<tag k="amenity" v="kindergarten" />
		<tag k="capacity" v="16" />
		<tag k="doNotImportAddress" v="Agderstrand Eikeveien 177 4640 SØGNE" />
		<tag k="max_age" v="5" />
		<tag k="min_age" v="1" />
		<tag k="name" v="Leireklatten barnehage Asrti Pedersen" />
		<tag k="no-barnehage:nsrid" v="1020584" />
		<tag k="operator" v="Leireklatten barnehage Astri Pedersen" />
		<tag k="operator:type" v="private" />
	</node>
	<node id="-3677" lat="58.08041" lon="7.787565">
		<tag k="amenity" v="kindergarten" />
		<tag k="doNotImportAddress" v="Eikeveien 177 4640 SØGNE" />
		<tag k="name" v="Leireklatten barnehage" />
		<tag k="no-barnehage:nsrid" v="2000257" />
		<tag k="operator" v="Spiren barnehage Søgne AS" />
		<tag k="operator:type" v="private" />
	</node>
	<node id="-3675" lat="58.10597" lon="7.76265">
		<tag k="amenity" v="kindergarten" />
		<tag k="capacity" v="94" />
		<tag k="doNotImportAddress" v="Skytterveien 50 4642 SØGNE" />
		<tag k="max_age" v="5" />
		<tag k="min_age" v="1" />
		<tag k="name" v="Espira Vedderheia barnehage" />
		<tag k="no-barnehage:nsrid" v="1021352" />
		<tag k="operator" v="Espira Barnehager AS" />
		<tag k="operator:type" v="private" />
	</node>
	<node id="-3674" lat="58.0967" lon="7.80662">
		<tag k="amenity" v="kindergarten" />
		<tag k="capacity" v="13" />
		<tag k="doNotImportAddress" v="Stemveien 9 4640 SØGNE" />
		<tag k="max_age" v="5" />
		<tag k="min_age" v="1" />
		<tag k="name" v="Blåveisen barnehage" />
		<tag k="no-barnehage:nsrid" v="1018311" />
		<tag k="operator" v="Spiren barnehage Søgne AS" />
		<tag k="operator:type" v="private" />
	</node>
	<node id="-3688" lat="58.0778" lon="7.83451">
		<tag k="amenity" v="kindergarten" />
		<tag k="capacity" v="84" />
		<tag k="doNotImportAddress" v="Årosveien 220 4640 SØGNE" />
		<tag k="max_age" v="5" />
		<tag k="min_age" v="1" />
		<tag k="name" v="Åros barnehage" />
		<tag k="no-barnehage:nsrid" v="1013027" />
		<tag k="operator" v="Søgne kommune" />
		<tag k="operator:type" v="public" />
	</node>
	<node id="-3687" lat="58.087" lon="7.82817">
		<tag k="amenity" v="kindergarten" />
		<tag k="capacity" v="62" />
		<tag k="doNotImportAddress" v="Torvmoen 2 4640 SØGNE" />
		<tag k="max_age" v="5" />
		<tag k="min_age" v="1" />
		<tag k="name" v="Torvmoen barnehage" />
		<tag k="no-barnehage:nsrid" v="1018559" />
		<tag k="operator" v="Søgne kommune" />
		<tag k="operator:type" v="public" />
	</node>
	<node id="-3686" lat="58.0805" lon="7.78617">
		<tag k="amenity" v="kindergarten" />
		<tag k="capacity" v="33" />
		<tag k="doNotImportAddress" v="Eikeveien 174 4640 SØGNE" />
		<tag k="max_age" v="5" />
		<tag k="min_age" v="1" />
		<tag k="name" v="Tareskogen barnehage" />
		<tag k="no-barnehage:nsrid" v="1018312" />
		<tag k="operator" v="Spiren barnehage Søgne AS" />
		<tag k="operator:type" v="private" />
	</node>
	<node id="-3684" lat="58.0902" lon="7.82524">
		<tag k="amenity" v="kindergarten" />
		<tag k="capacity" v="24" />
		<tag k="contact:website" v="http://www.spiren-bhg.no" />
		<tag k="doNotImportAddress" v="Linneflaten 7 4640 SØGNE" />
		<tag k="max_age" v="5" />
		<tag k="min_age" v="3" />
		<tag k="name" v="Spiren barnehage" />
		<tag k="no-barnehage:nsrid" v="1018310" />
		<tag k="operator" v="Spiren barnehage Søgne AS" />
		<tag k="operator:type" v="private" />
	</node>
	<node id="-3683" lat="58.078" lon="7.85768">
		<tag k="amenity" v="kindergarten" />
		<tag k="capacity" v="69" />
		<tag k="doNotImportAddress" v="Øygarden 7 4643 SØGNE" />
		<tag k="max_age" v="5" />
		<tag k="min_age" v="1" />
		<tag k="name" v="Solstrålen barnehage" />
		<tag k="no-barnehage:nsrid" v="1015025" />
		<tag k="operator" v="Søgne kommune" />
		<tag k="operator:type" v="public" />
	</node>
	<node id="-3682" lat="58.0848" lon="7.81775">
		<tag k="amenity" v="kindergarten" />
		<tag k="capacity" v="92" />
		<tag k="doNotImportAddress" v="Sørheia 1a 4640 SØGNE" />
		<tag k="max_age" v="5" />
		<tag k="min_age" v="1" />
		<tag k="name" v="Sjøstjerna barnehage" />
		<tag k="no-barnehage:nsrid" v="1015554" />
		<tag k="operator" v="Søgne kommune" />
		<tag k="operator:type" v="public" />
	</node>
</osm>
