<?xml version="1.0" encoding="UTF-8"?>
<osm generator="osmapis" version="0.6">
	<node id="-3288" lat="58.0778" lon="7.83451">
		<tag k="amenity" v="kindergarten" />
		<tag k="capacity" v="78" />
		<tag k="contact:email" v="steinar.lomeland.seim@sogne.kommune.no" />
		<tag k="contact:phone" v="+47 38 16 78 11" />
		<tag k="max_age" v="5" />
		<tag k="min_age" v="1" />
		<tag k="name" v="Åros barnehage" />
		<tag k="no-barnehage:nsrid" v="1013027" />
		<tag k="operator" v="Søgne kommune" />
		<tag k="operator:type" v="public" />
		<tag k="start_date" v="2004-05-01" />
	</node>
	<node id="-3287" lat="58.087" lon="7.82817">
		<tag k="amenity" v="kindergarten" />
		<tag k="capacity" v="65" />
		<tag k="contact:email" v="siw.granroth@sogne.kommune.no" />
		<tag k="contact:phone" v="+47 38 05 56 49" />
		<tag k="max_age" v="5" />
		<tag k="min_age" v="1" />
		<tag k="name" v="Torvmoen barnehage" />
		<tag k="no-barnehage:nsrid" v="1018559" />
		<tag k="operator" v="Søgne kommune" />
		<tag k="operator:type" v="public" />
		<tag k="start_date" v="2009-02-01" />
	</node>
	<node id="-3286" lat="58.0805" lon="7.78617">
		<tag k="amenity" v="kindergarten" />
		<tag k="capacity" v="32" />
		<tag k="contact:email" v="Spiren@oasen.org" />
		<tag k="max_age" v="5" />
		<tag k="min_age" v="1" />
		<tag k="name" v="Tareskogen barnehage" />
		<tag k="no-barnehage:nsrid" v="1018312" />
		<tag k="operator" v="Spiren barnehage Søgne AS" />
		<tag k="operator:type" v="private" />
		<tag k="start_date" v="2008-01-03" />
	</node>
	<node id="-3284" lat="58.0902" lon="7.82524">
		<tag k="amenity" v="kindergarten" />
		<tag k="capacity" v="21" />
		<tag k="contact:email" v="spiren@oasen.org" />
		<tag k="contact:phone" v="+47 38 05 30 08" />
		<tag k="contact:website" v="http://www.spiren-bhg.no" />
		<tag k="max_age" v="5" />
		<tag k="min_age" v="3" />
		<tag k="name" v="Spiren barnehage" />
		<tag k="no-barnehage:nsrid" v="1018310" />
		<tag k="operator" v="Spiren barnehage Søgne AS" />
		<tag k="operator:type" v="private" />
		<tag k="start_date" v="2008-01-03" />
	</node>
	<node id="-3283" lat="58.078" lon="7.85768">
		<tag k="amenity" v="kindergarten" />
		<tag k="capacity" v="58" />
		<tag k="contact:email" v="Christel.holte@sogne.kommune.no" />
		<tag k="contact:phone" v="+47 97 99 03 58" />
		<tag k="max_age" v="5" />
		<tag k="min_age" v="1" />
		<tag k="name" v="Solstrålen barnehage" />
		<tag k="no-barnehage:nsrid" v="1015025" />
		<tag k="operator" v="Søgne kommune" />
		<tag k="operator:type" v="public" />
		<tag k="start_date" v="2011-08-01" />
	</node>
	<node id="-3282" lat="58.0848" lon="7.81775">
		<tag k="amenity" v="kindergarten" />
		<tag k="capacity" v="88" />
		<tag k="contact:email" v="erlend.bakke@sogne.kommune.no" />
		<tag k="contact:phone" v="+47 381 66337" />
		<tag k="max_age" v="5" />
		<tag k="min_age" v="1" />
		<tag k="name" v="Sjøstjerna barnehage" />
		<tag k="no-barnehage:nsrid" v="1015554" />
		<tag k="operator" v="Søgne kommune" />
		<tag k="operator:type" v="public" />
		<tag k="start_date" v="1982-01-01" />
	</node>
	<node id="-3281" lat="58.08397" lon="7.803283">
		<tag k="amenity" v="kindergarten" />
		<tag k="capacity" v="14" />
		<tag k="contact:email" v="sangvik.gardsbarnehage@gmail.com" />
		<tag k="contact:phone" v="+47 38 05 07 42" />
		<tag k="max_age" v="5" />
		<tag k="min_age" v="3" />
		<tag k="name" v="Sangvik Gårdsbarnehage Abrahamsen" />
		<tag k="no-barnehage:nsrid" v="1021770" />
		<tag k="operator" v="Sangvik Gårdsbarnehage Abrahamsen" />
		<tag k="operator:type" v="private" />
		<tag k="start_date" v="2008-08-01" />
	</node>
	<node id="-3279" lat="58.088" lon="7.80127">
		<tag k="amenity" v="kindergarten" />
		<tag k="capacity" v="97" />
		<tag k="contact:email" v="bhg.sogne@laringsverkstedet.no" />
		<tag k="max_age" v="5" />
		<tag k="min_age" v="1" />
		<tag k="name" v="Læringsverkstedet barnehage Avd Søgne" />
		<tag k="no-barnehage:nsrid" v="1017933" />
		<tag k="operator" v="Læringsverkstedet AS" />
		<tag k="operator:type" v="private" />
		<tag k="start_date" v="2007-11-13" />
	</node>
	<node id="-3277" lat="58.08042" lon="7.787565">
		<tag k="amenity" v="kindergarten" />
		<tag k="capacity" v="16" />
		<tag k="contact:email" v="leireklatten@gmail.com" />
		<tag k="contact:phone" v="+47 90 01 59 10" />
		<tag k="max_age" v="5" />
		<tag k="min_age" v="1" />
		<tag k="name" v="Leireklatten barnehage Asrti Pedersen" />
		<tag k="no-barnehage:nsrid" v="1020584" />
		<tag k="operator" v="Leireklatten barnehage Astri Pedersen" />
		<tag k="operator:type" v="private" />
		<tag k="start_date" v="1997-08-15" />
	</node>
	<node id="-3275" lat="58.10597" lon="7.76265">
		<tag k="amenity" v="kindergarten" />
		<tag k="capacity" v="70" />
		<tag k="contact:email" v="styrer@vedderheia.espira.no" />
		<tag k="contact:phone" v="+47 52 84 50 20" />
		<tag k="max_age" v="5" />
		<tag k="min_age" v="1" />
		<tag k="name" v="Espira Vedderheia barnehage" />
		<tag k="no-barnehage:nsrid" v="1021352" />
		<tag k="operator" v="Espira Barnehager AS" />
		<tag k="operator:type" v="private" />
		<tag k="start_date" v="2005-10-01" />
	</node>
	<node id="-3274" lat="58.0967" lon="7.80662">
		<tag k="amenity" v="kindergarten" />
		<tag k="capacity" v="10" />
		<tag k="contact:email" v="spiren@oasen.org" />
		<tag k="max_age" v="2" />
		<tag k="min_age" v="1" />
		<tag k="name" v="Blåveisen barnehage" />
		<tag k="no-barnehage:nsrid" v="1018311" />
		<tag k="operator" v="Spiren barnehage Søgne AS" />
		<tag k="operator:type" v="private" />
		<tag k="start_date" v="2008-01-03" />
	</node>
</osm>
