<?xml version="1.0" encoding="UTF-8"?>
<osm generator="osmapis" version="0.6">
	<node id="-3215" lat="58.08569" lon="7.831542">
		<tag k="amenity" v="kindergarten" />
		<tag k="capacity" v="8" />
		<tag k="contact:email" v="anneline-m@hotmail.com" />
		<tag k="contact:phone" v="+47 38 16 75 85" />
		<tag k="max_age" v="5" />
		<tag k="min_age" v="1" />
		<tag k="name" v="Bl책smoen Familiebarnehage" />
		<tag k="no-barnehage:nsrid" v="1020664" />
		<tag k="operator" v="Anne Line R Melvoll Bl책smoen Familiebarnehage" />
		<tag k="operator:type" v="private" />
		<tag k="start_date" v="2000-08-01" />
	</node>
	<node id="-3221" lat="58.0925" lon="7.786118">
		<tag k="amenity" v="kindergarten" />
		<tag k="capacity" v="10" />
		<tag k="contact:email" v="siren.pettersen@gmail.com" />
		<tag k="contact:phone" v="+47 38 05 01 11" />
		<tag k="max_age" v="5" />
		<tag k="min_age" v="1" />
		<tag k="name" v="Salemveien Familiebarnehage Siren Henriette Holskog Pettersen" />
		<tag k="no-barnehage:nsrid" v="1020930" />
		<tag k="operator" v="Salemveien Familiebarnehage Siren Henriette Holskog Pettersen" />
		<tag k="operator:type" v="private" />
		<tag k="start_date" v="2003-08-01" />
	</node>
	<node id="-3219" lat="58.10279" lon="7.762422">
		<tag k="amenity" v="kindergarten" />
		<tag k="capacity" v="11" />
		<tag k="contact:email" v="merethe23@hotmail.com" />
		<tag k="contact:phone" v="+47 92215677" />
		<tag k="max_age" v="5" />
		<tag k="min_age" v="1" />
		<tag k="name" v="Lisebo Familiebarnehage Lise Merethe Ekeland" />
		<tag k="no-barnehage:nsrid" v="1020646" />
		<tag k="operator" v="Lisebo Familiebarnehage Lise Merethe Ekeland" />
		<tag k="operator:type" v="private" />
		<tag k="start_date" v="2000-08-01" />
	</node>
	<node id="-3226" lat="58.08212" lon="7.847814">
		<tag k="amenity" v="kindergarten" />
		<tag k="capacity" v="11" />
		<tag k="contact:phone" v="+47 38 16 71 79" />
		<tag k="max_age" v="5" />
		<tag k="min_age" v="1" />
		<tag k="name" v="Stokkelands책sen Familiebarnehage AS" />
		<tag k="no-barnehage:nsrid" v="1020269" />
		<tag k="operator" v="Stokkelands책sen Familiebarnehage AS" />
		<tag k="operator:type" v="private" />
		<tag k="start_date" v="1995-11-01" />
	</node>
</osm>
