<?xml version="1.0" encoding="UTF-8"?>
<osm generator="osmapis" version="0.6">
	<node id="-5264" lat="64.6289" lon="12.3021">
		<tag k="amenity" v="kindergarten" />
		<tag k="capacity" v="5" />
		<tag k="contact:email" v="kristin.almaas@hoylandet.kommune.no" />
		<tag k="max_age" v="5" />
		<tag k="min_age" v="1" />
		<tag k="name" v="Kongsmoen barnehage" />
		<tag k="no-barnehage:nsrid" v="1012592" />
		<tag k="operator" v="Høylandet kommune" />
		<tag k="operator:type" v="public" />
		<tag k="start_date" v="1994-08-01" />
	</node>
	<node id="-5265" lat="64.6289" lon="12.3021">
		<tag k="amenity" v="kindergarten" />
		<tag k="capacity" v="64" />
		<tag k="contact:email" v="kristin.almaas@hoylandet.kommune.no" />
		<tag k="contact:phone" v="+47 74 32 48 50" />
		<tag k="max_age" v="5" />
		<tag k="min_age" v="1" />
		<tag k="name" v="Vargeia barnehage" />
		<tag k="no-barnehage:nsrid" v="1013642" />
		<tag k="operator" v="Høylandet kommune" />
		<tag k="operator:type" v="public" />
		<tag k="start_date" v="1989-01-01" />
	</node>
</osm>
