<?xml version="1.0" encoding="UTF-8"?>
<osm version="0.6" generator="osmapis">
	<node lat="60.8401" lon="10.0763" id="-3210">
		<tag k="ADDRESS" v="Nedre Smebyveg 11, 2870 DOKKA" />
		<tag k="amenity" v="kindergarten" />
		<tag k="capacity" v="76" />
		<tag k="max_age" v="5" />
		<tag k="min_age" v="1" />
		<tag k="name" v="Nordre Land kommune 0-24 Dokka barnehager Furulund" />
		<tag k="no-barnehage:nsrid" v="975303888" />
		<tag k="operator" v="Nordre Land kommune" />
		<tag k="operator:type" v="public" />
	</node>
	<node lat="60.83241" lon="10.09228" id="-3211">
		<tag k="ADDRESS" v="Tonlia 5, 2870 DOKKA" />
		<tag k="amenity" v="kindergarten" />
		<tag k="capacity" v="49" />
		<tag k="max_age" v="5" />
		<tag k="min_age" v="1" />
		<tag k="name" v="Nordre Land kommune 0-24 Dokka barnehager Tonlia" />
		<tag k="no-barnehage:nsrid" v="976823133" />
		<tag k="operator" v="Nordre Land kommune" />
		<tag k="operator:type" v="public" />
	</node>
	<node lat="60.84167" lon="10.06915" id="-3212">
		<tag k="ADDRESS" v="Landmovegen 13, 2870 DOKKA" />
		<tag k="amenity" v="kindergarten" />
		<tag k="capacity" v="77" />
		<tag k="max_age" v="5" />
		<tag k="min_age" v="1" />
		<tag k="name" v="Nordre Land kommune 0-24 Dokka barnehager Ã˜ygardsjordet" />
		<tag k="no-barnehage:nsrid" v="912349926" />
		<tag k="operator" v="Nordre Land kommune" />
		<tag k="operator:type" v="public" />
	</node>
	<node lat="60.96695" lon="10.10683" id="-3213">
		<tag k="ADDRESS" v="Nord-Torpvegen 16, 2881 AUST-TORPA" />
		<tag k="amenity" v="kindergarten" />
		<tag k="capacity" v="39" />
		<tag k="max_age" v="5" />
		<tag k="min_age" v="1" />
		<tag k="name" v="Nordre Land kommune 0-24 Torpa barnehager Mariringen" />
		<tag k="no-barnehage:nsrid" v="975303926" />
		<tag k="operator" v="Nordre Land kommune" />
		<tag k="operator:type" v="public" />
	</node>
	<node lat="61.00837" lon="10.01333" id="-3214">
		<tag k="ADDRESS" v="Synnfjellvegen 115, 2880 NORD-TORPA" />
		<tag k="amenity" v="kindergarten" />
		<tag k="capacity" v="19" />
		<tag k="max_age" v="5" />
		<tag k="min_age" v="1" />
		<tag k="name" v="Nordre Land kommune 0-24 Torpa barnehager Solheim" />
		<tag k="no-barnehage:nsrid" v="982890497" />
		<tag k="operator" v="Nordre Land kommune" />
		<tag k="operator:type" v="public" />
	</node>
</osm>
