<?xml version="1.0" encoding="UTF-8"?>
<osm generator="osmapis" version="0.6">
	<node id="-5250" lat="64.20174" lon="12.25907">
		<tag k="ADDRESS" v="Imsdalsvegen 18, 7760 SNÅSA" />
		<tag k="amenity" v="kindergarten" />
		<tag k="capacity" v="31" />
		<tag k="max_age" v="5" />
		<tag k="min_age" v="1" />
		<tag k="name" v="Snåsa barnehage avd. Breide" />
		<tag k="no-barnehage:nsrid" v="874038202" />
		<tag k="operator" v="Snåsa kommune" />
		<tag k="operator:type" v="public" />
	</node>
	<node id="-5251" lat="0.0" lon="0.0">
		<tag k="ADDRESS" v=", 7760 SNÅSA" />
		<tag k="amenity" v="kindergarten" />
		<tag k="capacity" v="36" />
		<tag k="max_age" v="5" />
		<tag k="min_age" v="1" />
		<tag k="name" v="Snåsa barnehage avd. Vinjebakken" />
		<tag k="no-barnehage:nsrid" v="976833503" />
		<tag k="operator" v="Snåsa kommune" />
		<tag k="operator:type" v="public" />
	</node>
	<node id="-5252" lat="64.27625" lon="12.5247">
		<tag k="ADDRESS" v="Øverbygdvegen 831, 7760 SNÅSA" />
		<tag k="amenity" v="kindergarten" />
		<tag k="capacity" v="27" />
		<tag k="max_age" v="5" />
		<tag k="min_age" v="1" />
		<tag k="name" v="Snåsa montessoribarnehage" />
		<tag k="no-barnehage:nsrid" v="987126531" />
		<tag k="operator" v="Snåsa Montessoribarnehage Sa" />
		<tag k="operator:type" v="private" />
	</node>
	<node id="-5253" lat="0.0" lon="0.0">
		<tag k="ADDRESS" v="Flatbostad, 7760 SNÅSA" />
		<tag k="amenity" v="kindergarten" />
		<tag k="capacity" v="10" />
		<tag k="max_age" v="5" />
		<tag k="min_age" v="1" />
		<tag k="name" v="Suaja Maanagierte" />
		<tag k="no-barnehage:nsrid" v="988012440" />
		<tag k="operator" v="Snåsa kommune" />
		<tag k="operator:type" v="public" />
	</node>
</osm>
