<?xml version="1.0" encoding="UTF-8"?>
<osm generator="osmapis" version="0.6">
	<node id="-5594" lat="0.0" lon="0.0">
		<tag k="ADDRESS" v=", 9130 HANSNES" />
		<tag k="amenity" v="kindergarten" />
		<tag k="capacity" v="9" />
		<tag k="max_age" v="5" />
		<tag k="min_age" v="1" />
		<tag k="name" v="Gamnes barnehage" />
		<tag k="no-barnehage:nsrid" v="974569027" />
		<tag k="operator" v="Karlsøy kommune" />
		<tag k="operator:type" v="public" />
	</node>
	<node id="-5595" lat="69.96352" lon="19.61641">
		<tag k="ADDRESS" v="Øvre kardemomme 17, 9130 HANSNES" />
		<tag k="amenity" v="kindergarten" />
		<tag k="capacity" v="35" />
		<tag k="contact:website" v="http://www.karlsoyoppvekst.no/skoleveven/index.php?module=edit&amp;view=edit&amp;pageID=44" />
		<tag k="max_age" v="5" />
		<tag k="min_age" v="1" />
		<tag k="name" v="Hansnes barnehage" />
		<tag k="no-barnehage:nsrid" v="974569035" />
		<tag k="operator" v="Karlsøy kommune" />
		<tag k="operator:type" v="public" />
	</node>
	<node id="-5596" lat="0.0" lon="0.0">
		<tag k="ADDRESS" v=", 9132 STAKKVIK" />
		<tag k="amenity" v="kindergarten" />
		<tag k="capacity" v="3" />
		<tag k="max_age" v="5" />
		<tag k="min_age" v="1" />
		<tag k="name" v="Stakkvik barnehage" />
		<tag k="no-barnehage:nsrid" v="983641946" />
		<tag k="operator" v="Karlsøy kommune" />
		<tag k="operator:type" v="public" />
	</node>
	<node id="-5597" lat="0.0" lon="0.0">
		<tag k="ADDRESS" v=", 9135 VANNVÅG" />
		<tag k="amenity" v="kindergarten" />
		<tag k="capacity" v="21" />
		<tag k="max_age" v="5" />
		<tag k="min_age" v="1" />
		<tag k="name" v="Vannvåg barnehage" />
		<tag k="no-barnehage:nsrid" v="974569051" />
		<tag k="operator" v="Karlsøy kommune" />
		<tag k="operator:type" v="public" />
	</node>
	<node id="-5598" lat="0.0" lon="0.0">
		<tag k="ADDRESS" v=", 9136 VANNAREID" />
		<tag k="amenity" v="kindergarten" />
		<tag k="capacity" v="5" />
		<tag k="max_age" v="5" />
		<tag k="min_age" v="1" />
		<tag k="name" v="Vannøy oppvekstsenter avd. Vannareid barnehage" />
		<tag k="no-barnehage:nsrid" v="974569043" />
		<tag k="operator" v="Karlsøy kommune" />
		<tag k="operator:type" v="public" />
	</node>
</osm>
