<?xml version="1.0" encoding="UTF-8"?>
<osm version="0.6" generator="osmapis">
	<node lat="60.18941" lon="10.27346" id="-2754">
		<tag k="ADDRESS" v="Almemoen 20, 3516 HØNEFOSS" />
		<tag k="amenity" v="kindergarten" />
		<tag k="capacity" v="73" />
		<tag k="max_age" v="5" />
		<tag k="min_age" v="1" />
		<tag k="name" v="Almemoen FUS barnehage" />
		<tag k="no-barnehage:nsrid" v="990983534" />
		<tag k="operator" v="Almemoen Fus barnehage AS" />
		<tag k="operator:type" v="private" />
	</node>
	<node lat="60.20934" lon="10.37506" id="-2755">
		<tag k="ADDRESS" v="Almveien 15, 3520 JEVNAKER" />
		<tag k="amenity" v="kindergarten" />
		<tag k="capacity" v="27" />
		<tag k="max_age" v="5" />
		<tag k="min_age" v="1" />
		<tag k="name" v="Almgrenda Steinerbarnehage" />
		<tag k="no-barnehage:nsrid" v="975820734" />
		<tag k="operator" v="Stiftelsen Almgrenda steinerbarnehage" />
		<tag k="operator:type" v="private" />
	</node>
	<node lat="60.16194" lon="10.24144" id="-2756">
		<tag k="ADDRESS" v="Hvelven 34, 3510 HØNEFOSS" />
		<tag k="amenity" v="kindergarten" />
		<tag k="capacity" v="60" />
		<tag k="contact:website" v="http://blaabaerskogen.barnehage.no" />
		<tag k="max_age" v="5" />
		<tag k="min_age" v="1" />
		<tag k="name" v="Blåbærskogen barnehage" />
		<tag k="no-barnehage:nsrid" v="985465568" />
		<tag k="operator" v="Blåbærskogen barnehage SA" />
		<tag k="operator:type" v="private" />
	</node>
	<node lat="60.15421" lon="10.25493" id="-2758">
		<tag k="ADDRESS" v="Carl Platous gate 5, 3511 HØNEFOSS" />
		<tag k="amenity" v="kindergarten" />
		<tag k="capacity" v="51" />
		<tag k="max_age" v="5" />
		<tag k="min_age" v="1" />
		<tag k="name" v="Dalsbråten barnehage" />
		<tag k="no-barnehage:nsrid" v="972243051" />
		<tag k="operator" v="Dalsbråten barnehage SA" />
		<tag k="operator:type" v="private" />
	</node>
	<node lat="0.0" lon="0.0" id="-2759">
		<tag k="ADDRESS" v="Eikliveien 15, 3511 HØNEFOSS" />
		<tag k="amenity" v="kindergarten" />
		<tag k="capacity" v="71" />
		<tag k="max_age" v="5" />
		<tag k="min_age" v="1" />
		<tag k="name" v="Eikli barnehage" />
		<tag k="no-barnehage:nsrid" v="875306162" />
		<tag k="operator" v="Ringerike kommune" />
		<tag k="operator:type" v="public" />
	</node>
	<node lat="60.18362" lon="10.26065" id="-2760">
		<tag k="ADDRESS" v="Hovsmarkveien 20, 3515 HØNEFOSS" />
		<tag k="amenity" v="kindergarten" />
		<tag k="capacity" v="82" />
		<tag k="contact:website" v="http://www.espira.no" />
		<tag k="max_age" v="5" />
		<tag k="min_age" v="1" />
		<tag k="name" v="Espira Hovsmarka barnehage" />
		<tag k="no-barnehage:nsrid" v="894941782" />
		<tag k="operator" v="Espira Hovsmarka AS" />
		<tag k="operator:type" v="private" />
	</node>
	<node lat="0.0" lon="0.0" id="-2761">
		<tag k="ADDRESS" v="Trygstadveien 1, 3511 HØNEFOSS" />
		<tag k="amenity" v="kindergarten" />
		<tag k="capacity" v="59" />
		<tag k="max_age" v="5" />
		<tag k="min_age" v="1" />
		<tag k="name" v="Espira Trygstad barnehage" />
		<tag k="no-barnehage:nsrid" v="974631415" />
		<tag k="operator" v="Espira Trygstad AS" />
		<tag k="operator:type" v="private" />
	</node>
	<node lat="60.26945" lon="10.18088" id="-2763">
		<tag k="ADDRESS" v="Hvalsbruveien 10, 3525 HALLINGBY" />
		<tag k="amenity" v="kindergarten" />
		<tag k="capacity" v="61" />
		<tag k="max_age" v="5" />
		<tag k="min_age" v="1" />
		<tag k="name" v="Hallingby barnehage" />
		<tag k="no-barnehage:nsrid" v="975322157" />
		<tag k="operator" v="Ringerike kommune" />
		<tag k="operator:type" v="public" />
	</node>
	<node lat="60.17325" lon="10.32375" id="-2764">
		<tag k="ADDRESS" v="Toppveien 18, 3514 HØNEFOSS" />
		<tag k="amenity" v="kindergarten" />
		<tag k="capacity" v="44" />
		<tag k="max_age" v="5" />
		<tag k="min_age" v="1" />
		<tag k="name" v="Haug barnehage" />
		<tag k="no-barnehage:nsrid" v="975306186" />
		<tag k="operator" v="Ringerike kommune" />
		<tag k="operator:type" v="public" />
	</node>
	<node lat="60.20296" lon="10.12825" id="-2765">
		<tag k="ADDRESS" v="Heradsbygdveien 260, 3518 HØNEFOSS" />
		<tag k="amenity" v="kindergarten" />
		<tag k="capacity" v="24" />
		<tag k="contact:website" v="http://www.ringerike.kommune.no/innhold/barn-og-unge/barnehager/heggen-barnehage/" />
		<tag k="max_age" v="5" />
		<tag k="min_age" v="1" />
		<tag k="name" v="Heggen barnehage" />
		<tag k="no-barnehage:nsrid" v="998578310" />
		<tag k="operator" v="Ringerike kommune" />
		<tag k="operator:type" v="public" />
	</node>
	<node lat="60.1816" lon="10.19792" id="-2766">
		<tag k="ADDRESS" v="Valhallveien 13, 3518 HØNEFOSS" />
		<tag k="amenity" v="kindergarten" />
		<tag k="capacity" v="63" />
		<tag k="contact:website" v="http://www.ringerike.kommune.no/Tjenester/Barnehager/Barnehager-i-Ringerike/Heradsbygda-barnehage/" />
		<tag k="max_age" v="5" />
		<tag k="min_age" v="1" />
		<tag k="name" v="Heradsbygda barnehage" />
		<tag k="no-barnehage:nsrid" v="975306208" />
		<tag k="operator" v="Ringerike kommune" />
		<tag k="operator:type" v="public" />
	</node>
	<node lat="60.18087" lon="10.27909" id="-2767">
		<tag k="ADDRESS" v="Hov alle 30, 3515 HØNEFOSS" />
		<tag k="amenity" v="kindergarten" />
		<tag k="capacity" v="71" />
		<tag k="max_age" v="5" />
		<tag k="min_age" v="1" />
		<tag k="name" v="Hov barnehage" />
		<tag k="no-barnehage:nsrid" v="978622542" />
		<tag k="operator" v="Hov barnehage SA" />
		<tag k="operator:type" v="private" />
	</node>
	<node lat="60.14505" lon="10.24751" id="-2768">
		<tag k="ADDRESS" v="Kartverksveien 13, 3511 HØNEFOSS" />
		<tag k="amenity" v="kindergarten" />
		<tag k="capacity" v="55" />
		<tag k="max_age" v="5" />
		<tag k="min_age" v="1" />
		<tag k="name" v="Hvervenmoen barnehage" />
		<tag k="no-barnehage:nsrid" v="975320251" />
		<tag k="operator" v="Ringerike kommune" />
		<tag k="operator:type" v="public" />
	</node>
	<node lat="60.16508" lon="10.25662" id="-2769">
		<tag k="ADDRESS" v="Kong Rings gate 7, 3510 HØNEFOSS" />
		<tag k="amenity" v="kindergarten" />
		<tag k="capacity" v="115" />
		<tag k="max_age" v="5" />
		<tag k="min_age" v="1" />
		<tag k="name" v="Hønefoss barnehage" />
		<tag k="no-barnehage:nsrid" v="975306216" />
		<tag k="operator" v="Ringerike kommune" />
		<tag k="operator:type" v="public" />
	</node>
	<node lat="60.24318" lon="9.92552" id="-2770">
		<tag k="ADDRESS" v="Sagveien 19, 3534 SOKNA" />
		<tag k="amenity" v="kindergarten" />
		<tag k="capacity" v="31" />
		<tag k="max_age" v="5" />
		<tag k="min_age" v="1" />
		<tag k="name" v="Kirkemoen barnehage" />
		<tag k="no-barnehage:nsrid" v="972235997" />
		<tag k="operator" v="Kirkemoen barnehage SA" />
		<tag k="operator:type" v="private" />
	</node>
	<node lat="0.0" lon="0.0" id="-2771">
		<tag k="ADDRESS" v="Knestanggata 23, 3514 HØNEFOSS" />
		<tag k="amenity" v="kindergarten" />
		<tag k="capacity" v="76" />
		<tag k="contact:website" v="http://nedreaurengards.barnehage.no/" />
		<tag k="max_age" v="5" />
		<tag k="min_age" v="1" />
		<tag k="name" v="Nedre Auren gårdsbarnehage" />
		<tag k="no-barnehage:nsrid" v="915693776" />
		<tag k="operator" v="Nedre Auren gårdsbarnehage AS" />
		<tag k="operator:type" v="private" />
	</node>
	<node lat="60.56573" lon="9.98682" id="-2772">
		<tag k="ADDRESS" v="Ådalsveien 1231, 3524 NES I ÅDAL" />
		<tag k="amenity" v="kindergarten" />
		<tag k="capacity" v="12" />
		<tag k="max_age" v="5" />
		<tag k="min_age" v="1" />
		<tag k="name" v="Nes barnehage" />
		<tag k="no-barnehage:nsrid" v="886023952" />
		<tag k="operator" v="Ringerike kommune" />
		<tag k="operator:type" v="public" />
	</node>
	<node lat="60.17728" lon="10.34221" id="-2774">
		<tag k="ADDRESS" v="Smeden 4, 3514 HØNEFOSS" />
		<tag k="amenity" v="kindergarten" />
		<tag k="capacity" v="47" />
		<tag k="contact:website" v="http://smeden.barnehage.no" />
		<tag k="max_age" v="5" />
		<tag k="min_age" v="1" />
		<tag k="name" v="Smeden barnehage" />
		<tag k="no-barnehage:nsrid" v="973755706" />
		<tag k="operator" v="Småbarnsforeldrenes barnehage Ringerike SA" />
		<tag k="operator:type" v="private" />
	</node>
	<node lat="60.23563" lon="9.96208" id="-2775">
		<tag k="ADDRESS" v="Nordmoveien 21, 3534 SOKNA" />
		<tag k="amenity" v="kindergarten" />
		<tag k="capacity" v="35" />
		<tag k="contact:website" v="http://www.minbarnehage.no/sokna" />
		<tag k="max_age" v="5" />
		<tag k="min_age" v="1" />
		<tag k="name" v="Sokna natur og gårdsbarnehage" />
		<tag k="no-barnehage:nsrid" v="929416309" />
		<tag k="operator" v="Sokna Natur og gårdsbarnehage AS" />
		<tag k="operator:type" v="private" />
	</node>
	<node lat="60.15856" lon="10.22484" id="-2776">
		<tag k="ADDRESS" v="Østmoveien 43, 3510 HØNEFOSS" />
		<tag k="amenity" v="kindergarten" />
		<tag k="capacity" v="79" />
		<tag k="contact:website" v="http://www.tolpinrud.barnehage.no" />
		<tag k="max_age" v="5" />
		<tag k="min_age" v="1" />
		<tag k="name" v="Tolpinrud barnehage" />
		<tag k="no-barnehage:nsrid" v="992141646" />
		<tag k="operator" v="Tolpinrud SA" />
		<tag k="operator:type" v="private" />
	</node>
	<node lat="60.08411" lon="10.09169" id="-2777">
		<tag k="ADDRESS" v="Kindsåsveien 26, 3533 TYRISTRAND" />
		<tag k="amenity" v="kindergarten" />
		<tag k="capacity" v="62" />
		<tag k="contact:website" v="http://www.ringerike.kommune.no/innhold/barn-og-unge/barnehager/tyristrand-barnehage/" />
		<tag k="max_age" v="5" />
		<tag k="min_age" v="1" />
		<tag k="name" v="Tyristrand barnehage" />
		<tag k="no-barnehage:nsrid" v="975306275" />
		<tag k="operator" v="Ringerike kommune" />
		<tag k="operator:type" v="public" />
	</node>
	<node lat="60.17999" lon="10.25822" id="-2778">
		<tag k="ADDRESS" v="Krokenveien 42, 3515 HØNEFOSS" />
		<tag k="amenity" v="kindergarten" />
		<tag k="capacity" v="30" />
		<tag k="max_age" v="5" />
		<tag k="min_age" v="1" />
		<tag k="name" v="Ullerål barnehage" />
		<tag k="no-barnehage:nsrid" v="973469827" />
		<tag k="operator" v="Ringerike kommune" />
		<tag k="operator:type" v="public" />
	</node>
	<node lat="60.17273" lon="10.22337" id="-2779">
		<tag k="ADDRESS" v="Ringveien 116, 3517 HØNEFOSS" />
		<tag k="amenity" v="kindergarten" />
		<tag k="capacity" v="41" />
		<tag k="max_age" v="5" />
		<tag k="min_age" v="1" />
		<tag k="name" v="Veien barnehage" />
		<tag k="no-barnehage:nsrid" v="975306305" />
		<tag k="operator" v="Ringerike kommune" />
		<tag k="operator:type" v="public" />
	</node>
	<node lat="60.12828" lon="10.35465" id="-2781">
		<tag k="ADDRESS" v="Tjyruhjellveien 21, 3512 HØNEFOSS" />
		<tag k="amenity" v="kindergarten" />
		<tag k="capacity" v="28" />
		<tag k="max_age" v="5" />
		<tag k="min_age" v="1" />
		<tag k="name" v="Åsatua naturbarnehage" />
		<tag k="no-barnehage:nsrid" v="986101675" />
		<tag k="operator" v="Åsatua naturbarnehage SA" />
		<tag k="operator:type" v="private" />
	</node>
</osm>
