<?xml version="1.0" encoding="UTF-8"?>
<osm generator="osmapis" version="0.6">
	<node id="-3542" lat="0.0" lon="0.0">
		<tag k="ADDRESS" v=", 8186 TJONGSFJORDEN" />
		<tag k="amenity" v="kindergarten" />
		<tag k="capacity" v="20" />
		<tag k="max_age" v="5" />
		<tag k="min_age" v="1" />
		<tag k="name" v="Tjongsfjord barnehage" />
		<tag k="no-barnehage:nsrid" v="1015592" />
		<tag k="operator" v="Rødøy kommune" />
		<tag k="operator:type" v="public" />
	</node>
	<node id="-3541" lat="0.0" lon="0.0">
		<tag k="ADDRESS" v=", 8196 SELSØYVIK" />
		<tag k="amenity" v="kindergarten" />
		<tag k="max_age" v="5" />
		<tag k="min_age" v="1" />
		<tag k="name" v="Selsøyvik barnehage" />
		<tag k="no-barnehage:nsrid" v="1016133" />
		<tag k="operator" v="Rødøy kommune" />
		<tag k="operator:type" v="public" />
	</node>
	<node id="-3540" lat="0.0" lon="0.0">
		<tag k="ADDRESS" v=", 8193 RØDØY" />
		<tag k="amenity" v="kindergarten" />
		<tag k="capacity" v="12" />
		<tag k="max_age" v="5" />
		<tag k="min_age" v="1" />
		<tag k="name" v="Rødøy barnehage" />
		<tag k="no-barnehage:nsrid" v="1013668" />
		<tag k="operator" v="Rødøy kommune" />
		<tag k="operator:type" v="public" />
	</node>
	<node id="-3539" lat="0.0" lon="0.0">
		<tag k="ADDRESS" v=", 8195 GJERØY" />
		<tag k="amenity" v="kindergarten" />
		<tag k="max_age" v="5" />
		<tag k="min_age" v="1" />
		<tag k="name" v="Gjerøy barnehage" />
		<tag k="no-barnehage:nsrid" v="1019532" />
		<tag k="operator" v="Rødøy kommune" />
		<tag k="operator:type" v="public" />
	</node>
</osm>
