<?xml version="1.0" encoding="UTF-8"?>
<osm version="0.6" generator="osmapis">
	<node lat="59.9222" lon="5.79614" id="-4345">
		<tag k="ADDRESS" v="Skulevegen 8, 5462 HERØYSUNDET" />
		<tag k="amenity" v="kindergarten" />
		<tag k="capacity" v="30" />
		<tag k="contact:website" v="http://www.kvinnherad.kommune.no" />
		<tag k="max_age" v="5" />
		<tag k="min_age" v="1" />
		<tag k="name" v="Bringedalsbygda barnehage" />
		<tag k="no-barnehage:nsrid" v="974614839" />
		<tag k="operator" v="Kvinnherad kommune" />
		<tag k="operator:type" v="public" />
	</node>
	<node lat="59.9297" lon="5.86988" id="-4346">
		<tag k="ADDRESS" v="Kjerlandssido 55, 5463 USKEDALEN" />
		<tag k="amenity" v="kindergarten" />
		<tag k="capacity" v="18" />
		<tag k="contact:website" v="http://www.donhauggardsbarnehage.no/" />
		<tag k="max_age" v="5" />
		<tag k="min_age" v="1" />
		<tag k="name" v="Dønhaug gardsbarnehage" />
		<tag k="no-barnehage:nsrid" v="989634488" />
		<tag k="operator" v="Dønhaug gardsbarnehage Helene H. Bjørnebøle" />
		<tag k="operator:type" v="private" />
	</node>
	<node lat="0.0" lon="0.0" id="-4347">
		<tag k="ADDRESS" v="Eidsnesvegen 73, 5455 HALSNØY KLOSTER" />
		<tag k="amenity" v="kindergarten" />
		<tag k="capacity" v="88" />
		<tag k="contact:website" v="http://www.espira.no" />
		<tag k="max_age" v="5" />
		<tag k="min_age" v="1" />
		<tag k="name" v="Espira Halsnøy Kloster barnehage" />
		<tag k="no-barnehage:nsrid" v="990835292" />
		<tag k="operator" v="Espira Halsnøy Kloster AS" />
		<tag k="operator:type" v="private" />
	</node>
	<node lat="59.82988" lon="5.78504" id="-4348">
		<tag k="ADDRESS" v="Valevegen 36, 5451 VALEN" />
		<tag k="amenity" v="kindergarten" />
		<tag k="capacity" v="50" />
		<tag k="contact:website" v="http://www.valenbarnehage.no" />
		<tag k="max_age" v="5" />
		<tag k="min_age" v="1" />
		<tag k="name" v="Eventus Valen barnehage" />
		<tag k="no-barnehage:nsrid" v="996833127" />
		<tag k="operator" v="Eventus Valen AS" />
		<tag k="operator:type" v="private" />
	</node>
	<node lat="60.05764" lon="5.91678" id="-4349">
		<tag k="ADDRESS" v="Tongavegen 16, 5635 HATLESTRAND" />
		<tag k="amenity" v="kindergarten" />
		<tag k="capacity" v="15" />
		<tag k="contact:website" v="http://www.kvinnherad.kommune.no" />
		<tag k="max_age" v="5" />
		<tag k="min_age" v="1" />
		<tag k="name" v="Hatlestrand barnehage" />
		<tag k="no-barnehage:nsrid" v="974614820" />
		<tag k="operator" v="Kvinnherad kommune" />
		<tag k="operator:type" v="public" />
	</node>
	<node lat="59.81598" lon="5.81536" id="-4350">
		<tag k="ADDRESS" v="Handelandsvegen 67, 5451 VALEN" />
		<tag k="amenity" v="kindergarten" />
		<tag k="capacity" v="41" />
		<tag k="contact:website" v="http://www.laringsverkstedet.no" />
		<tag k="max_age" v="5" />
		<tag k="min_age" v="1" />
		<tag k="name" v="Læringsverkstedet barnehage avd. Handeland friluftsbarnehage" />
		<tag k="no-barnehage:nsrid" v="988228303" />
		<tag k="operator" v="Læringsverkstedet AS" />
		<tag k="operator:type" v="private" />
	</node>
	<node lat="59.85399" lon="5.74423" id="-4351">
		<tag k="ADDRESS" v="Røsslandsvegen 19, 5460 HUSNES" />
		<tag k="amenity" v="kindergarten" />
		<tag k="capacity" v="57" />
		<tag k="contact:website" v="http://www.kvinnherad.kommune.no" />
		<tag k="max_age" v="5" />
		<tag k="min_age" v="1" />
		<tag k="name" v="Myrane barnehage" />
		<tag k="no-barnehage:nsrid" v="980846040" />
		<tag k="operator" v="Kvinnherad kommune" />
		<tag k="operator:type" v="public" />
	</node>
	<node lat="59.94316" lon="5.98687" id="-4352">
		<tag k="ADDRESS" v="Håvardhaugvegen 8, 5464 DIMMELSVIK" />
		<tag k="amenity" v="kindergarten" />
		<tag k="capacity" v="45" />
		<tag k="contact:website" v="http://www.kvinnherad.kommune.no" />
		<tag k="max_age" v="5" />
		<tag k="min_age" v="1" />
		<tag k="name" v="Omvikdalen barnehage" />
		<tag k="no-barnehage:nsrid" v="974614758" />
		<tag k="operator" v="Kvinnherad kommune" />
		<tag k="operator:type" v="public" />
	</node>
	<node lat="59.98842" lon="6.00903" id="-4353">
		<tag k="ADDRESS" v="Goto 26, 5470 ROSENDAL" />
		<tag k="amenity" v="kindergarten" />
		<tag k="capacity" v="81" />
		<tag k="contact:website" v="http://www.rosendal.bhg.no" />
		<tag k="max_age" v="5" />
		<tag k="min_age" v="1" />
		<tag k="name" v="Rosendal FUS barnehage" />
		<tag k="no-barnehage:nsrid" v="993595144" />
		<tag k="operator" v="Rosendal Fus barnehage AS" />
		<tag k="operator:type" v="private" />
	</node>
	<node lat="59.83599" lon="5.7143" id="-4354">
		<tag k="ADDRESS" v="Hamrabrekko 14, 5450 SUNDE I SUNNHORDLAND" />
		<tag k="amenity" v="kindergarten" />
		<tag k="capacity" v="42" />
		<tag k="contact:website" v="http://www.kvinnhead.kommune.no" />
		<tag k="max_age" v="5" />
		<tag k="min_age" v="1" />
		<tag k="name" v="Sunde barnehage" />
		<tag k="no-barnehage:nsrid" v="874614742" />
		<tag k="operator" v="Kvinnherad kommune" />
		<tag k="operator:type" v="public" />
	</node>
	<node lat="59.8549" lon="5.747" id="-4355">
		<tag k="ADDRESS" v="Stølshaugvegen 2, 5460 HUSNES" />
		<tag k="amenity" v="kindergarten" />
		<tag k="capacity" v="56" />
		<tag k="contact:website" v="http://www.kvinnherad.kommune.no" />
		<tag k="max_age" v="5" />
		<tag k="min_age" v="1" />
		<tag k="name" v="Undarheim barnehage" />
		<tag k="no-barnehage:nsrid" v="974614723" />
		<tag k="operator" v="Kvinnherad kommune" />
		<tag k="operator:type" v="public" />
	</node>
	<node lat="59.93322" lon="5.86127" id="-4356">
		<tag k="ADDRESS" v="Uskedalsvegen 552, 5463 USKEDALEN" />
		<tag k="amenity" v="kindergarten" />
		<tag k="capacity" v="18" />
		<tag k="contact:website" v="http://www.kvinnherad.kommune.no" />
		<tag k="max_age" v="5" />
		<tag k="min_age" v="1" />
		<tag k="name" v="Uskedalen barnehage" />
		<tag k="no-barnehage:nsrid" v="974614812" />
		<tag k="operator" v="Kvinnherad kommune" />
		<tag k="operator:type" v="public" />
	</node>
	<node lat="60.09652" lon="5.9751" id="-4357">
		<tag k="ADDRESS" v="Kyrkjebygdvegen 184, 5636 VARALDSØY" />
		<tag k="amenity" v="kindergarten" />
		<tag k="capacity" v="5" />
		<tag k="contact:website" v="http://www.kvinnherad.kommune.no" />
		<tag k="max_age" v="5" />
		<tag k="min_age" v="1" />
		<tag k="name" v="Varaldsøy barnehage" />
		<tag k="no-barnehage:nsrid" v="988471011" />
		<tag k="operator" v="Kvinnherad kommune" />
		<tag k="operator:type" v="public" />
	</node>
	<node lat="60.01095" lon="5.81145" id="-4358">
		<tag k="ADDRESS" v="Ølvesvegen 487, 5637 ØLVE" />
		<tag k="amenity" v="kindergarten" />
		<tag k="capacity" v="5" />
		<tag k="contact:website" v="http://www.kvinnherad.kommune.no" />
		<tag k="max_age" v="5" />
		<tag k="min_age" v="1" />
		<tag k="name" v="Ølve barnehage" />
		<tag k="no-barnehage:nsrid" v="974614847" />
		<tag k="operator" v="Kvinnherad kommune" />
		<tag k="operator:type" v="public" />
	</node>
	<node lat="59.7905" lon="6.09571" id="-4359">
		<tag k="ADDRESS" v="Åkravegen 607, 5499 ÅKRA" />
		<tag k="amenity" v="kindergarten" />
		<tag k="capacity" v="6" />
		<tag k="contact:website" v="http://www.kvinnherad.kommune.no" />
		<tag k="max_age" v="5" />
		<tag k="min_age" v="1" />
		<tag k="name" v="Åkra barnehage" />
		<tag k="no-barnehage:nsrid" v="974614790" />
		<tag k="operator" v="Kvinnherad kommune" />
		<tag k="operator:type" v="public" />
	</node>
</osm>
