<?xml version="1.0" encoding="UTF-8"?>
<osm generator="osmapis" version="0.6">
	<node id="-3504" lat="67.29718" lon="14.73938">
		<tag k="ADDRESS" v="Grindveien, 8050 TVERLANDET" />
		<tag k="amenity" v="kindergarten" />
		<tag k="capacity" v="11" />
		<tag k="max_age" v="5" />
		<tag k="min_age" v="1" />
		<tag k="name" v="Tverlandet kirkebarnehage" />
		<tag k="no-barnehage:nsrid" v="1016762" />
		<tag k="operator" v="Saltstraumen Sokn" />
		<tag k="operator:type" v="private" />
	</node>
	<node id="-3503" lat="67.27503" lon="14.49785">
		<tag k="ADDRESS" v="Andreas Markussons Vei 2, 8019 BODØ" />
		<tag k="amenity" v="kindergarten" />
		<tag k="capacity" v="52" />
		<tag k="max_age" v="5" />
		<tag k="min_age" v="1" />
		<tag k="name" v="Stokkvika barnehage" />
		<tag k="no-barnehage:nsrid" v="1016637" />
		<tag k="operator" v="Bodø kommune" />
		<tag k="operator:type" v="public" />
	</node>
	<node id="-3502" lat="67.30589" lon="14.43726">
		<tag k="ADDRESS" v="Holtan 6, 8014 BODØ" />
		<tag k="amenity" v="kindergarten" />
		<tag k="capacity" v="81" />
		<tag k="max_age" v="5" />
		<tag k="min_age" v="1" />
		<tag k="name" v="Skivik barnehage" />
		<tag k="no-barnehage:nsrid" v="1016636" />
		<tag k="operator" v="Bodø kommune" />
		<tag k="operator:type" v="public" />
	</node>
	<node id="-3501" lat="67.27484" lon="14.45033">
		<tag k="ADDRESS" v="Per Helgesens Vei 82a, 8013 BODØ" />
		<tag k="amenity" v="kindergarten" />
		<tag k="capacity" v="22" />
		<tag k="max_age" v="5" />
		<tag k="min_age" v="1" />
		<tag k="name" v="Skeidhaugen barnehage" />
		<tag k="no-barnehage:nsrid" v="1019952" />
		<tag k="operator" v="Skeidhaugen barnehage AS" />
		<tag k="operator:type" v="private" />
	</node>
	<node id="-3500" lat="67.2812" lon="14.3882">
		<tag k="ADDRESS" v="Parkveien 51, 8005 BODØ" />
		<tag k="amenity" v="kindergarten" />
		<tag k="capacity" v="29" />
		<tag k="max_age" v="5" />
		<tag k="min_age" v="1" />
		<tag k="name" v="Sentrum barnehage avd. Parkveien" />
		<tag k="no-barnehage:nsrid" v="1016633" />
		<tag k="operator" v="Bodø kommune" />
		<tag k="operator:type" v="public" />
	</node>
	<node id="-3499" lat="67.27803" lon="14.4464">
		<tag k="ADDRESS" v="Børsingveien 12, 8075 BODØ" />
		<tag k="amenity" v="kindergarten" />
		<tag k="capacity" v="20" />
		<tag k="max_age" v="5" />
		<tag k="min_age" v="1" />
		<tag k="name" v="Samvirkeforetaket Befalsfruene Bodø Garnison - Bamsebo barnehage" />
		<tag k="no-barnehage:nsrid" v="1019835" />
		<tag k="operator" v="Samvirkeforetaket Befalsfruene Bodø Garnison Sa - Bamsebo barnehage" />
		<tag k="operator:type" v="private" />
	</node>
	<node id="-3498" lat="0.0" lon="0.0">
		<tag k="ADDRESS" v="Tuv, 8056 SALTSTRAUMEN" />
		<tag k="amenity" v="kindergarten" />
		<tag k="capacity" v="33" />
		<tag k="max_age" v="5" />
		<tag k="min_age" v="1" />
		<tag k="name" v="Saltstraumen barnehage" />
		<tag k="no-barnehage:nsrid" v="1016635" />
		<tag k="operator" v="Bodø kommune" />
		<tag k="operator:type" v="public" />
	</node>
	<node id="-3497" lat="67.29252" lon="14.42541">
		<tag k="ADDRESS" v="Einmoveien 41, 8009 BODØ" />
		<tag k="amenity" v="kindergarten" />
		<tag k="capacity" v="32" />
		<tag k="contact:website" v="http://www.englebarn.barnehage.no" />
		<tag k="max_age" v="5" />
		<tag k="min_age" v="1" />
		<tag k="name" v="Rønvik menighetsbarnehage" />
		<tag k="no-barnehage:nsrid" v="1019807" />
		<tag k="operator" v="Stiftelsen Rønvik Menighetsbarnehage" />
		<tag k="operator:type" v="private" />
	</node>
	<node id="-3496" lat="67.2827" lon="14.4055">
		<tag k="ADDRESS" v="Sivert Nielsens Gate 58, 8007 BODØ" />
		<tag k="amenity" v="kindergarten" />
		<tag k="capacity" v="72" />
		<tag k="max_age" v="5" />
		<tag k="min_age" v="1" />
		<tag k="name" v="Rensåsen barnehage" />
		<tag k="no-barnehage:nsrid" v="1025382" />
		<tag k="operator" v="Bodø kommune" />
		<tag k="operator:type" v="public" />
	</node>
	<node id="-3495" lat="67.29615" lon="14.41624">
		<tag k="ADDRESS" v="Kuopioveien 6, 8012 BODØ" />
		<tag k="amenity" v="kindergarten" />
		<tag k="name" v="Nerenga barnehage" />
		<tag k="no-barnehage:nsrid" v="1020871" />
		<tag k="operator" v="Nerenga Barnehage Ans" />
		<tag k="operator:type" v="private" />
	</node>
	<node id="-3494" lat="67.10316" lon="14.83494">
		<tag k="ADDRESS" v="Misvær, 8100 MISVÆR" />
		<tag k="amenity" v="kindergarten" />
		<tag k="capacity" v="14" />
		<tag k="max_age" v="5" />
		<tag k="min_age" v="1" />
		<tag k="name" v="Misvær barnehage" />
		<tag k="no-barnehage:nsrid" v="1016913" />
		<tag k="operator" v="Bodø kommune" />
		<tag k="operator:type" v="public" />
	</node>
	<node id="-3493" lat="0.0" lon="0.0">
		<tag k="ADDRESS" v="Løding Vestre, 8050 TVERLANDET" />
		<tag k="amenity" v="kindergarten" />
		<tag k="capacity" v="29" />
		<tag k="max_age" v="5" />
		<tag k="min_age" v="1" />
		<tag k="name" v="Løding barnehage avd. Vestre Løding" />
		<tag k="no-barnehage:nsrid" v="1016631" />
		<tag k="operator" v="Bodø kommune" />
		<tag k="operator:type" v="public" />
	</node>
	<node id="-3492" lat="67.29624" lon="14.7362">
		<tag k="ADDRESS" v="Deppeldiket 54, 8050 TVERLANDET" />
		<tag k="amenity" v="kindergarten" />
		<tag k="capacity" v="26" />
		<tag k="max_age" v="5" />
		<tag k="min_age" v="1" />
		<tag k="name" v="Løding barnehage avd. Maurtua" />
		<tag k="no-barnehage:nsrid" v="1016643" />
		<tag k="operator" v="Bodø kommune" />
		<tag k="operator:type" v="public" />
	</node>
	<node id="-3491" lat="67.26979" lon="14.44093">
		<tag k="ADDRESS" v="Styrmannsveien 10, 8070 BODØ" />
		<tag k="amenity" v="kindergarten" />
		<tag k="capacity" v="92" />
		<tag k="contact:website" v="http://laringsverkstedet.no/barnehage/bodøsjøen" />
		<tag k="max_age" v="5" />
		<tag k="min_age" v="1" />
		<tag k="name" v="Læringsverkstedet barnehage avd. Bodøsjøen" />
		<tag k="no-barnehage:nsrid" v="1018392" />
		<tag k="operator" v="Læringsverkstedet AS" />
		<tag k="operator:type" v="private" />
	</node>
	<node id="-3490" lat="67.27246" lon="14.44419">
		<tag k="ADDRESS" v="Notveien 2, 8013 BODØ" />
		<tag k="amenity" v="kindergarten" />
		<tag k="capacity" v="85" />
		<tag k="contact:website" v="http://laringsverkstedet.no/barnehage/notveien" />
		<tag k="max_age" v="5" />
		<tag k="min_age" v="1" />
		<tag k="name" v="Læringsverkstedet barnehage avd. Notveien naturbarnehage" />
		<tag k="no-barnehage:nsrid" v="1013012" />
		<tag k="operator" v="Læringsverkstedet AS" />
		<tag k="operator:type" v="private" />
	</node>
	<node id="-3489" lat="67.28873" lon="14.42914">
		<tag k="ADDRESS" v="Bodinveien 64, 8010 BODØ" />
		<tag k="amenity" v="kindergarten" />
		<tag k="capacity" v="52" />
		<tag k="contact:website" v="http://www.laringsverkstedet.no/barnehage/saltvern" />
		<tag k="max_age" v="5" />
		<tag k="min_age" v="1" />
		<tag k="name" v="Læringsverkstedet barnehage avd. Saltvern" />
		<tag k="no-barnehage:nsrid" v="1013184" />
		<tag k="operator" v="Læringsverkstedet AS" />
		<tag k="operator:type" v="private" />
	</node>
	<node id="-3488" lat="67.29428" lon="14.42646">
		<tag k="ADDRESS" v="Fjellveien 56, 8011 BODØ" />
		<tag k="amenity" v="kindergarten" />
		<tag k="capacity" v="34" />
		<tag k="contact:website" v="http://laringsverkstedet.no/barnehage/knerten" />
		<tag k="max_age" v="5" />
		<tag k="min_age" v="1" />
		<tag k="name" v="Læringsverkstedet barnehage avd. Knerten" />
		<tag k="no-barnehage:nsrid" v="1019821" />
		<tag k="operator" v="Læringsverkstedet AS" />
		<tag k="operator:type" v="private" />
	</node>
	<node id="-3487" lat="67.29867" lon="14.41186">
		<tag k="ADDRESS" v="Leif Aunes Vei 3, 8012 BODØ" />
		<tag k="amenity" v="kindergarten" />
		<tag k="capacity" v="19" />
		<tag k="max_age" v="5" />
		<tag k="min_age" v="1" />
		<tag k="name" v="Linken barnehage" />
		<tag k="no-barnehage:nsrid" v="1016124" />
		<tag k="operator" v="Bodø kommune" />
		<tag k="operator:type" v="public" />
	</node>
	<node id="-3486" lat="67.28257" lon="14.40743">
		<tag k="ADDRESS" v="Sivert Nielsens Gate 70, 8007 BODØ" />
		<tag k="amenity" v="kindergarten" />
		<tag k="capacity" v="29" />
		<tag k="contact:website" v="http://labbetuss.no" />
		<tag k="max_age" v="5" />
		<tag k="min_age" v="1" />
		<tag k="name" v="Labbetuss barnehage" />
		<tag k="no-barnehage:nsrid" v="1020302" />
		<tag k="operator" v="Labbetuss barnehage Sa" />
		<tag k="operator:type" v="private" />
	</node>
	<node id="-3485" lat="67.28341" lon="14.53919">
		<tag k="ADDRESS" v="Galnåsmyra 51, 8022 BODØ" />
		<tag k="amenity" v="kindergarten" />
		<tag k="capacity" v="50" />
		<tag k="max_age" v="5" />
		<tag k="min_age" v="1" />
		<tag k="name" v="Hunstad Øst barnehage" />
		<tag k="no-barnehage:nsrid" v="1025384" />
		<tag k="operator" v="Bodø kommune" />
		<tag k="operator:type" v="public" />
	</node>
	<node id="-3484" lat="67.28707" lon="14.55634">
		<tag k="ADDRESS" v="Mørkvedtråkket 7, 8026 BODØ" />
		<tag k="amenity" v="kindergarten" />
		<tag k="capacity" v="28" />
		<tag k="max_age" v="5" />
		<tag k="min_age" v="1" />
		<tag k="name" v="Gjæran barnehage avd. Messiosen" />
		<tag k="no-barnehage:nsrid" v="1016630" />
		<tag k="operator" v="Bodø kommune" />
		<tag k="operator:type" v="public" />
	</node>
	<node id="-3483" lat="67.28874" lon="14.54923">
		<tag k="ADDRESS" v="Krøkkebærveien 5, 8026 BODØ" />
		<tag k="amenity" v="kindergarten" />
		<tag k="capacity" v="25" />
		<tag k="max_age" v="5" />
		<tag k="min_age" v="1" />
		<tag k="name" v="Gjæran barnehage avd. Osphaugen" />
		<tag k="no-barnehage:nsrid" v="1014195" />
		<tag k="operator" v="Bodø kommune" />
		<tag k="operator:type" v="public" />
	</node>
	<node id="-3482" lat="0.0" lon="0.0">
		<tag k="ADDRESS" v="Løding Vestre, 8050 TVERLANDET" />
		<tag k="amenity" v="kindergarten" />
		<tag k="capacity" v="113" />
		<tag k="contact:website" v="http://engmark.bodo.kommune.no" />
		<tag k="max_age" v="5" />
		<tag k="min_age" v="1" />
		<tag k="name" v="Engmark barnehage" />
		<tag k="no-barnehage:nsrid" v="1016640" />
		<tag k="operator" v="Bodø kommune" />
		<tag k="operator:type" v="public" />
	</node>
	<node id="-3481" lat="67.29551" lon="14.58867">
		<tag k="ADDRESS" v="Bjørndalslia 49, 8029 BODØ" />
		<tag k="amenity" v="kindergarten" />
		<tag k="capacity" v="101" />
		<tag k="max_age" v="5" />
		<tag k="min_age" v="1" />
		<tag k="name" v="Bjørneborgen barnehage" />
		<tag k="no-barnehage:nsrid" v="1015464" />
		<tag k="operator" v="Norlandia Barnehagene AS" />
		<tag k="operator:type" v="private" />
	</node>
	<node id="-3480" lat="67.28378" lon="14.38999">
		<tag k="ADDRESS" v="Tordenskjolds Gate 11, 8006 BODØ" />
		<tag k="amenity" v="kindergarten" />
		<tag k="capacity" v="34" />
		<tag k="max_age" v="5" />
		<tag k="min_age" v="1" />
		<tag k="name" v="Barnas Hus barnehage" />
		<tag k="no-barnehage:nsrid" v="1016125" />
		<tag k="operator" v="Bodø kommune" />
		<tag k="operator:type" v="public" />
	</node>
</osm>
