<?xml version="1.0" encoding="UTF-8"?>
<osm generator="osmapis" version="0.6">
	<node id="-5414" lat="67.2938" lon="14.58979">
		<tag k="amenity" v="kindergarten" />
		<tag k="capacity" v="3" />
		<tag k="contact:email" v="adriennemathisen@hotmail.com" />
		<tag k="contact:phone" v="+47 75 58 30 54" />
		<tag k="max_age" v="2" />
		<tag k="min_age" v="1" />
		<tag k="name" v="Bjørnehiet Familiebarnehage Bodø Adrienne Elizabeth Mathisen" />
		<tag k="no-barnehage:nsrid" v="1021491" />
		<tag k="operator" v="Bjørnehiet Familiebarnehage Bodø Adrienne Elizabeth Mathisen" />
		<tag k="operator:type" v="private" />
		<tag k="start_date" v="2006-08-28" />
	</node>
	<node id="-5429" lat="67.27781" lon="14.48253">
		<tag k="amenity" v="kindergarten" />
		<tag k="capacity" v="3" />
		<tag k="contact:email" v="v-uteng@online.no" />
		<tag k="contact:phone" v="+47 75 56 01 32" />
		<tag k="max_age" v="2" />
		<tag k="min_age" v="1" />
		<tag k="name" v="Lille Parallellen Familiebarnehage Vibeke Uteng Johansen" />
		<tag k="no-barnehage:nsrid" v="1021684" />
		<tag k="operator" v="Lille Parallellen Familiebarnehage Vibeke Uteng Johansen" />
		<tag k="operator:type" v="private" />
		<tag k="start_date" v="2007-08-13" />
	</node>
	<node id="-5422" lat="67.2939" lon="14.42433">
		<tag k="amenity" v="kindergarten" />
		<tag k="capacity" v="3" />
		<tag k="contact:email" v="hanne.torsteinsen@gmail.com" />
		<tag k="max_age" v="2" />
		<tag k="min_age" v="1" />
		<tag k="name" v="Holstveien Familiebarnehage Hanne Kristin Torsteinsen" />
		<tag k="no-barnehage:nsrid" v="1022164" />
		<tag k="operator" v="Holstveien Familiebarnehage Hanne Kristin Torsteinsen" />
		<tag k="operator:type" v="private" />
		<tag k="start_date" v="2011-02-01" />
	</node>
	<node id="-5442" lat="67.2769" lon="14.47007">
		<tag k="amenity" v="kindergarten" />
		<tag k="capacity" v="8" />
		<tag k="contact:email" v="synlau@start.no" />
		<tag k="contact:phone" v="+47 75 54 02 74" />
		<tag k="max_age" v="2" />
		<tag k="min_age" v="1" />
		<tag k="name" v="Musikanten Familiebarnehage Synnøve B Laukvik" />
		<tag k="no-barnehage:nsrid" v="1021570" />
		<tag k="operator" v="Musikanten Familiebarnehage Synnøve B Laukvik" />
		<tag k="operator:type" v="private" />
		<tag k="start_date" v="2007-03-15" />
	</node>
</osm>
