<?xml version="1.0" encoding="UTF-8"?>
<osm generator="osmapis" version="0.6">
	<node id="-5487" lat="67.2947" lon="14.4224">
		<tag k="amenity" v="kindergarten" />
		<tag k="capacity" v="39" />
		<tag k="max_age" v="5" />
		<tag k="min_age" v="1" />
		<tag k="name" v="Årnesveien barnehage" />
		<tag k="no-barnehage:nsrid" v="1016639" />
		<tag k="operator" v="Bodø kommune" />
		<tag k="operator:type" v="public" />
		<tag k="start_date" v="1989-01-01" />
	</node>
	<node id="-5486" lat="67.28551" lon="14.43711">
		<tag k="amenity" v="kindergarten" />
		<tag k="capacity" v="38" />
		<tag k="contact:email" v="vagones@barnehage.no" />
		<tag k="contact:phone" v="75 58 40 33" />
		<tag k="contact:website" v="http://vagones.barnehage.no" />
		<tag k="max_age" v="5" />
		<tag k="min_age" v="1" />
		<tag k="name" v="Vågønes barnehage AS" />
		<tag k="no-barnehage:nsrid" v="1020099" />
		<tag k="operator" v="Vågønes barnehage AS" />
		<tag k="operator:type" v="private" />
		<tag k="start_date" v="1992-08-01" />
	</node>
	<node id="-5485" lat="67.2931" lon="14.434">
		<tag k="amenity" v="kindergarten" />
		<tag k="capacity" v="96" />
		<tag k="max_age" v="5" />
		<tag k="min_age" v="1" />
		<tag k="name" v="Vollen barnehage" />
		<tag k="no-barnehage:nsrid" v="1015497" />
		<tag k="operator" v="Norlandia Barnehagene AS" />
		<tag k="operator:type" v="private" />
		<tag k="start_date" v="1989-01-02" />
	</node>
	<node id="-5484" lat="67.2769" lon="14.3701">
		<tag k="amenity" v="kindergarten" />
		<tag k="capacity" v="40" />
		<tag k="max_age" v="5" />
		<tag k="min_age" v="1" />
		<tag k="name" v="Vestbyen barnehage" />
		<tag k="no-barnehage:nsrid" v="1016638" />
		<tag k="operator" v="Bodø kommune" />
		<tag k="operator:type" v="public" />
		<tag k="start_date" v="1989-01-01" />
	</node>
	<node id="-5483" lat="67.2983" lon="14.7388">
		<tag k="amenity" v="kindergarten" />
		<tag k="capacity" v="13" />
		<tag k="contact:phone" v="75 55 02 40" />
		<tag k="max_age" v="5" />
		<tag k="min_age" v="1" />
		<tag k="name" v="Tverlandet Kirkes Korttidsbarnehage" />
		<tag k="no-barnehage:nsrid" v="1016762" />
		<tag k="operator" v="Saltstraumen Sokn" />
		<tag k="operator:type" v="private" />
		<tag k="start_date" v="1989-01-02" />
	</node>
	<node id="-5482" lat="67.2796" lon="14.4756">
		<tag k="amenity" v="kindergarten" />
		<tag k="capacity" v="107" />
		<tag k="max_age" v="5" />
		<tag k="min_age" v="1" />
		<tag k="name" v="Tusseladden barnehage" />
		<tag k="no-barnehage:nsrid" v="1016098" />
		<tag k="operator" v="Norlandia Barnehagene AS" />
		<tag k="operator:type" v="private" />
		<tag k="start_date" v="1994-02-07" />
	</node>
	<node id="-5481" lat="67.2904" lon="14.57942">
		<tag k="amenity" v="kindergarten" />
		<tag k="capacity" v="37" />
		<tag k="contact:email" v="elin@trollmyra.no" />
		<tag k="contact:phone" v="75 51 82 00" />
		<tag k="contact:website" v="http://www.trollmyra.no" />
		<tag k="max_age" v="5" />
		<tag k="min_age" v="1" />
		<tag k="name" v="Trollmyra barnehage AS" />
		<tag k="no-barnehage:nsrid" v="1020511" />
		<tag k="operator" v="Trollmyra barnehage AS" />
		<tag k="operator:type" v="private" />
		<tag k="start_date" v="1990-01-01" />
	</node>
	<node id="-5480" lat="67.2936" lon="14.4451">
		<tag k="amenity" v="kindergarten" />
		<tag k="capacity" v="43" />
		<tag k="contact:phone" v="75 54 16 80" />
		<tag k="max_age" v="5" />
		<tag k="min_age" v="1" />
		<tag k="name" v="Stordalen Friluftsbarnehage" />
		<tag k="no-barnehage:nsrid" v="1015457" />
		<tag k="operator" v="Norlandia Barnehagene AS" />
		<tag k="operator:type" v="private" />
		<tag k="start_date" v="1991-01-01" />
	</node>
	<node id="-5479" lat="67.275" lon="14.4979">
		<tag k="amenity" v="kindergarten" />
		<tag k="capacity" v="53" />
		<tag k="max_age" v="5" />
		<tag k="min_age" v="1" />
		<tag k="name" v="Stokkvika barnehage" />
		<tag k="no-barnehage:nsrid" v="1016637" />
		<tag k="operator" v="Bodø kommune" />
		<tag k="operator:type" v="public" />
		<tag k="start_date" v="1978-12-01" />
	</node>
	<node id="-5478" lat="67.28516" lon="14.4273">
		<tag k="amenity" v="kindergarten" />
		<tag k="contact:phone" v="75 51 40 11" />
		<tag k="contact:website" v="http://www.n4h.no/bodin" />
		<tag k="name" v="Stiftelsen Bodin 4h-Gård" />
		<tag k="no-barnehage:nsrid" v="1020496" />
		<tag k="operator" v="Stiftelsen Bodin 4h-Gård" />
		<tag k="operator:type" v="private" />
		<tag k="start_date" v="1999-11-09" />
	</node>
	<node id="-5477" lat="67.28" lon="14.411">
		<tag k="amenity" v="kindergarten" />
		<tag k="capacity" v="75" />
		<tag k="max_age" v="5" />
		<tag k="min_age" v="1" />
		<tag k="name" v="Stadionparken barnehage" />
		<tag k="no-barnehage:nsrid" v="1015498" />
		<tag k="operator" v="Norlandia Barnehagene AS" />
		<tag k="operator:type" v="private" />
		<tag k="start_date" v="1992-08-01" />
	</node>
	<node id="-5476" lat="67.2327" lon="15.0214">
		<tag k="amenity" v="kindergarten" />
		<tag k="capacity" v="11" />
		<tag k="max_age" v="5" />
		<tag k="min_age" v="1" />
		<tag k="name" v="Skjerstad Oppvekstsenter Avd Barnehage" />
		<tag k="no-barnehage:nsrid" v="1017499" />
		<tag k="operator" v="Bodø kommune" />
		<tag k="operator:type" v="public" />
		<tag k="start_date" v="1989-01-02" />
	</node>
	<node id="-5475" lat="67.3059" lon="14.4373">
		<tag k="amenity" v="kindergarten" />
		<tag k="capacity" v="71" />
		<tag k="contact:phone" v="000018040" />
		<tag k="max_age" v="5" />
		<tag k="min_age" v="1" />
		<tag k="name" v="Skivik barnehage" />
		<tag k="no-barnehage:nsrid" v="1016636" />
		<tag k="operator" v="Bodø kommune" />
		<tag k="operator:type" v="public" />
		<tag k="start_date" v="1988-04-01" />
	</node>
	<node id="-5474" lat="67.27484" lon="14.45033">
		<tag k="amenity" v="kindergarten" />
		<tag k="capacity" v="20" />
		<tag k="contact:phone" v="75 56 39 60" />
		<tag k="max_age" v="5" />
		<tag k="min_age" v="1" />
		<tag k="name" v="Skeidhaugen barnehage" />
		<tag k="no-barnehage:nsrid" v="1019952" />
		<tag k="operator" v="Skeidhaugen barnehage AS" />
		<tag k="operator:type" v="private" />
		<tag k="start_date" v="1991-01-01" />
	</node>
	<node id="-5473" lat="67.2804" lon="14.4049">
		<tag k="amenity" v="kindergarten" />
		<tag k="capacity" v="30" />
		<tag k="max_age" v="5" />
		<tag k="min_age" v="1" />
		<tag k="name" v="Skaug Oppvekstsenter Avd Barnehage" />
		<tag k="no-barnehage:nsrid" v="1016641" />
		<tag k="operator" v="Bodø kommune" />
		<tag k="operator:type" v="public" />
		<tag k="start_date" v="1990-01-01" />
	</node>
	<node id="-5472" lat="67.2207" lon="14.6187">
		<tag k="amenity" v="kindergarten" />
		<tag k="capacity" v="30" />
		<tag k="max_age" v="5" />
		<tag k="min_age" v="1" />
		<tag k="name" v="Saltstraumen barnehage" />
		<tag k="no-barnehage:nsrid" v="1016635" />
		<tag k="operator" v="Bodø kommune" />
		<tag k="operator:type" v="public" />
		<tag k="start_date" v="1989-01-02" />
	</node>
	<node id="-5471" lat="67.29252" lon="14.42541">
		<tag k="amenity" v="kindergarten" />
		<tag k="capacity" v="28" />
		<tag k="contact:email" v="englebarn@barnehage.no" />
		<tag k="contact:phone" v="75 58 22 10" />
		<tag k="contact:website" v="http://www.englebarn.barnehage.no" />
		<tag k="max_age" v="5" />
		<tag k="min_age" v="1" />
		<tag k="name" v="Rønvik Menighetsbarnehage" />
		<tag k="no-barnehage:nsrid" v="1019807" />
		<tag k="operator" v="Stiftelsen Rønvik Menighetsbarnehage" />
		<tag k="operator:type" v="private" />
		<tag k="start_date" v="1989-01-01" />
	</node>
	<node id="-5470" lat="67.2827" lon="14.4055">
		<tag k="amenity" v="kindergarten" />
		<tag k="capacity" v="109" />
		<tag k="contact:email" v="rensasen.barnehage@bodo.kommune.no" />
		<tag k="max_age" v="5" />
		<tag k="min_age" v="1" />
		<tag k="name" v="Rensåsen barnehage" />
		<tag k="no-barnehage:nsrid" v="1025382" />
		<tag k="operator" v="Bodø kommune" />
		<tag k="operator:type" v="public" />
		<tag k="start_date" v="1989-01-02" />
	</node>
	<node id="-5469" lat="67.2838" lon="14.39">
		<tag k="amenity" v="kindergarten" />
		<tag k="capacity" v="18" />
		<tag k="max_age" v="5" />
		<tag k="min_age" v="1" />
		<tag k="name" v="Regnbuen barnehage" />
		<tag k="no-barnehage:nsrid" v="1016642" />
		<tag k="operator" v="Bodø kommune" />
		<tag k="operator:type" v="public" />
		<tag k="start_date" v="1991-01-01" />
	</node>
	<node id="-5468" lat="67.281" lon="14.3886">
		<tag k="amenity" v="kindergarten" />
		<tag k="capacity" v="36" />
		<tag k="contact:phone" v="75 55 61 60" />
		<tag k="max_age" v="5" />
		<tag k="min_age" v="1" />
		<tag k="name" v="Parkveien barnehage" />
		<tag k="no-barnehage:nsrid" v="1016633" />
		<tag k="operator" v="Bodø kommune" />
		<tag k="operator:type" v="public" />
		<tag k="start_date" v="1989-01-01" />
	</node>
	<node id="-5467" lat="67.2765" lon="14.4784">
		<tag k="amenity" v="kindergarten" />
		<tag k="capacity" v="48" />
		<tag k="max_age" v="5" />
		<tag k="min_age" v="1" />
		<tag k="name" v="Paradiset barnehage" />
		<tag k="no-barnehage:nsrid" v="1014147" />
		<tag k="operator" v="Norlandia Barnehagene AS" />
		<tag k="operator:type" v="private" />
		<tag k="start_date" v="2010-04-01" />
	</node>
	<node id="-5466" lat="67.27866" lon="14.41841">
		<tag k="amenity" v="kindergarten" />
		<tag k="name" v="Norlandia Preschools AS Avd Bodø" />
		<tag k="no-barnehage:nsrid" v="1026483" />
		<tag k="operator" v="Norlandia Preschools AS" />
		<tag k="operator:type" v="private" />
		<tag k="start_date" v="2011-01-01" />
	</node>
	<node id="-5465" lat="67.27866" lon="14.41841">
		<tag k="amenity" v="kindergarten" />
		<tag k="name" v="Norlandia Barnehagebygg AS" />
		<tag k="no-barnehage:nsrid" v="1026085" />
		<tag k="operator" v="Norlandia Barnehagebygg AS" />
		<tag k="operator:type" v="private" />
		<tag k="start_date" v="2015-04-30" />
	</node>
	<node id="-5464" lat="67.2892" lon="14.5644">
		<tag k="amenity" v="kindergarten" />
		<tag k="capacity" v="76" />
		<tag k="contact:email" v="studentongan@studentinord.no" />
		<tag k="contact:phone" v="75 51 72 40" />
		<tag k="contact:website" v="http://www.studentinord.no" />
		<tag k="max_age" v="5" />
		<tag k="min_age" v="1" />
		<tag k="name" v="Nord Studentsamskipnad Avd Studentongan barnehage" />
		<tag k="no-barnehage:nsrid" v="1015510" />
		<tag k="operator" v="Studentsamskipnaden i Nordland" />
		<tag k="operator:type" v="private" />
		<tag k="start_date" v="1989-01-02" />
	</node>
	<node id="-5463" lat="67.2743" lon="14.4568">
		<tag k="amenity" v="kindergarten" />
		<tag k="capacity" v="55" />
		<tag k="max_age" v="5" />
		<tag k="min_age" v="1" />
		<tag k="name" v="Nissebo barnehage" />
		<tag k="no-barnehage:nsrid" v="1014916" />
		<tag k="operator" v="Norlandia Barnehagene AS" />
		<tag k="operator:type" v="private" />
		<tag k="start_date" v="1996-09-01" />
	</node>
	<node id="-5462" lat="67.28461" lon="14.43629">
		<tag k="amenity" v="kindergarten" />
		<tag k="capacity" v="31" />
		<tag k="contact:email" v="tove@nestasen.no" />
		<tag k="contact:phone" v="75 58 17 77" />
		<tag k="contact:website" v="http://www.nestasen.barnehage.no" />
		<tag k="max_age" v="5" />
		<tag k="min_age" v="1" />
		<tag k="name" v="Neståsen barnehage Sa" />
		<tag k="no-barnehage:nsrid" v="1020328" />
		<tag k="operator" v="Neståsen barnehage Sa" />
		<tag k="operator:type" v="private" />
		<tag k="start_date" v="1989-01-02" />
	</node>
	<node id="-5461" lat="67.28967" lon="14.58696">
		<tag k="amenity" v="kindergarten" />
		<tag k="capacity" v="29" />
		<tag k="contact:phone" v="415 17 073" />
		<tag k="max_age" v="5" />
		<tag k="min_age" v="1" />
		<tag k="name" v="Nerenga Miljøbarnehage AS" />
		<tag k="no-barnehage:nsrid" v="1022282" />
		<tag k="operator" v="Nerenga Miljøbarnehage AS" />
		<tag k="operator:type" v="private" />
		<tag k="start_date" v="2012-06-01" />
	</node>
	<node id="-5460" lat="67.2906" lon="14.5868">
		<tag k="amenity" v="kindergarten" />
		<tag k="capacity" v="65" />
		<tag k="max_age" v="5" />
		<tag k="min_age" v="1" />
		<tag k="name" v="Mørkvedmarka barnehage" />
		<tag k="no-barnehage:nsrid" v="1016632" />
		<tag k="operator" v="Bodø kommune" />
		<tag k="operator:type" v="public" />
		<tag k="start_date" v="1989-01-01" />
	</node>
	<node id="-5459" lat="67.288" lon="14.5677">
		<tag k="amenity" v="kindergarten" />
		<tag k="capacity" v="33" />
		<tag k="max_age" v="5" />
		<tag k="min_age" v="1" />
		<tag k="name" v="Mørkvedlia barnehage" />
		<tag k="no-barnehage:nsrid" v="1018290" />
		<tag k="operator" v="Bodø kommune" />
		<tag k="operator:type" v="public" />
		<tag k="start_date" v="2008-01-01" />
	</node>
	<node id="-5457" lat="67.1193" lon="15.0137">
		<tag k="amenity" v="kindergarten" />
		<tag k="capacity" v="19" />
		<tag k="max_age" v="5" />
		<tag k="min_age" v="1" />
		<tag k="name" v="Misvær barnehage" />
		<tag k="no-barnehage:nsrid" v="1016913" />
		<tag k="operator" v="Bodø kommune" />
		<tag k="operator:type" v="public" />
		<tag k="start_date" v="1976-12-24" />
	</node>
	<node id="-5456" lat="67.2906" lon="14.5741">
		<tag k="amenity" v="kindergarten" />
		<tag k="capacity" v="75" />
		<tag k="max_age" v="5" />
		<tag k="min_age" v="1" />
		<tag k="name" v="Mellommyra barnehage" />
		<tag k="no-barnehage:nsrid" v="1015496" />
		<tag k="operator" v="Norlandia Barnehagene AS" />
		<tag k="operator:type" v="private" />
		<tag k="start_date" v="1989-01-02" />
	</node>
	<node id="-5455" lat="67.29169" lon="14.4543">
		<tag k="amenity" v="kindergarten" />
		<tag k="capacity" v="23" />
		<tag k="contact:email" v="maskinisten@barnehage.no" />
		<tag k="contact:phone" v="75 58 05 00" />
		<tag k="contact:website" v="http://www.maskinisten.barnehage.no" />
		<tag k="max_age" v="5" />
		<tag k="min_age" v="1" />
		<tag k="name" v="Maskinisten Friluftsbarnehage AS" />
		<tag k="no-barnehage:nsrid" v="1021105" />
		<tag k="operator" v="Maskinisten Friluftsbarnehage AS" />
		<tag k="operator:type" v="private" />
		<tag k="start_date" v="2004-06-28" />
	</node>
	<node id="-5454" lat="67.2975" lon="14.7332">
		<tag k="amenity" v="kindergarten" />
		<tag k="capacity" v="34" />
		<tag k="contact:phone" v="75 55 62 80" />
		<tag k="max_age" v="5" />
		<tag k="min_age" v="1" />
		<tag k="name" v="Løding barnehage Avd Vestre Løding" />
		<tag k="no-barnehage:nsrid" v="1016631" />
		<tag k="operator" v="Bodø kommune" />
		<tag k="operator:type" v="public" />
		<tag k="start_date" v="1989-01-01" />
	</node>
	<node id="-5453" lat="67.2966" lon="14.7349">
		<tag k="amenity" v="kindergarten" />
		<tag k="capacity" v="27" />
		<tag k="max_age" v="5" />
		<tag k="min_age" v="1" />
		<tag k="name" v="Løding barnehage Avd Maurtua" />
		<tag k="no-barnehage:nsrid" v="1016643" />
		<tag k="operator" v="Bodø kommune" />
		<tag k="operator:type" v="public" />
		<tag k="start_date" v="1989-01-02" />
	</node>
	<node id="-5452" lat="67.2987" lon="14.4119">
		<tag k="amenity" v="kindergarten" />
		<tag k="capacity" v="38" />
		<tag k="contact:phone" v="75 55 62 10" />
		<tag k="max_age" v="5" />
		<tag k="min_age" v="1" />
		<tag k="name" v="Linken barnehage" />
		<tag k="no-barnehage:nsrid" v="1016124" />
		<tag k="operator" v="Bodø kommune" />
		<tag k="operator:type" v="public" />
		<tag k="start_date" v="1978-06-21" />
	</node>
	<node id="-5451" lat="67.29376" lon="14.44049">
		<tag k="amenity" v="kindergarten" />
		<tag k="capacity" v="65" />
		<tag k="contact:email" v="lillevollen@barnehage.no" />
		<tag k="contact:phone" v="75 58 46 60" />
		<tag k="contact:website" v="http://www.lillevollen.no" />
		<tag k="max_age" v="5" />
		<tag k="min_age" v="1" />
		<tag k="name" v="Lillevollen barnehage" />
		<tag k="no-barnehage:nsrid" v="1020101" />
		<tag k="operator" v="Lillevollen barnehage" />
		<tag k="operator:type" v="private" />
		<tag k="start_date" v="1990-01-01" />
	</node>
	<node id="-5449" lat="67.27244" lon="14.44998">
		<tag k="amenity" v="kindergarten" />
		<tag k="capacity" v="64" />
		<tag k="contact:email" v="runar@lillefrobel.no" />
		<tag k="contact:phone" v="91385131" />
		<tag k="contact:website" v="http://www.lillefrobel.no" />
		<tag k="max_age" v="5" />
		<tag k="min_age" v="1" />
		<tag k="name" v="Lille Frøbel barnehage Avd Trålveien" />
		<tag k="no-barnehage:nsrid" v="1022220" />
		<tag k="operator" v="Lille Frøbel AS" />
		<tag k="operator:type" v="private" />
		<tag k="start_date" v="2010-07-01" />
	</node>
	<node id="-5448" lat="67.2887" lon="14.4291">
		<tag k="amenity" v="kindergarten" />
		<tag k="capacity" v="52" />
		<tag k="contact:phone" v="40003657" />
		<tag k="max_age" v="5" />
		<tag k="min_age" v="1" />
		<tag k="name" v="Lille Frøbel barnehage Avd Saltvern" />
		<tag k="no-barnehage:nsrid" v="1013184" />
		<tag k="operator" v="Lille Frøbel AS" />
		<tag k="operator:type" v="private" />
		<tag k="start_date" v="2004-11-01" />
	</node>
	<node id="-5447" lat="67.2725" lon="14.4442">
		<tag k="amenity" v="kindergarten" />
		<tag k="capacity" v="89" />
		<tag k="contact:email" v="lillefrobel@lillefrobel.net" />
		<tag k="contact:phone" v="75 58 53 10" />
		<tag k="contact:website" v="http://www.lillefrobel.net" />
		<tag k="max_age" v="5" />
		<tag k="min_age" v="1" />
		<tag k="name" v="Lille Frøbel barnehage Avd Notveien" />
		<tag k="no-barnehage:nsrid" v="1013012" />
		<tag k="operator" v="Lille Frøbel AS" />
		<tag k="operator:type" v="private" />
		<tag k="start_date" v="2004-05-03" />
	</node>
	<node id="-5446" lat="67.2711" lon="14.4374">
		<tag k="amenity" v="kindergarten" />
		<tag k="capacity" v="99" />
		<tag k="contact:email" v="roar@bv-as.no" />
		<tag k="max_age" v="5" />
		<tag k="min_age" v="1" />
		<tag k="name" v="Lille Frøbel barnehage Avd Bodøsjøveien" />
		<tag k="no-barnehage:nsrid" v="1018392" />
		<tag k="operator" v="Lille Frøbel AS" />
		<tag k="operator:type" v="private" />
		<tag k="start_date" v="2008-03-12" />
	</node>
	<node id="-5445" lat="67.28257" lon="14.40743">
		<tag k="amenity" v="kindergarten" />
		<tag k="capacity" v="28" />
		<tag k="contact:email" v="labbetuss@barnehage.no" />
		<tag k="contact:phone" v="75 53 80 40" />
		<tag k="max_age" v="5" />
		<tag k="min_age" v="1" />
		<tag k="name" v="Labbetuss barnehage Sa" />
		<tag k="no-barnehage:nsrid" v="1020302" />
		<tag k="operator" v="Labbetuss barnehage Sa" />
		<tag k="operator:type" v="private" />
		<tag k="start_date" v="1996-01-01" />
	</node>
	<node id="-5444" lat="67.28967" lon="14.58696">
		<tag k="amenity" v="kindergarten" />
		<tag k="contact:phone" v="075583877" />
		<tag k="max_age" v="5" />
		<tag k="min_age" v="1" />
		<tag k="name" v="Knerten Miljøbarnehage AS" />
		<tag k="no-barnehage:nsrid" v="1019821" />
		<tag k="operator" v="Knerten Miljøbarnehage AS" />
		<tag k="operator:type" v="private" />
		<tag k="start_date" v="1989-01-02" />
	</node>
	<node id="-5443" lat="67.5195" lon="14.7642">
		<tag k="amenity" v="kindergarten" />
		<tag k="capacity" v="10" />
		<tag k="max_age" v="5" />
		<tag k="min_age" v="1" />
		<tag k="name" v="Kjerringøy barnehage" />
		<tag k="no-barnehage:nsrid" v="1018549" />
		<tag k="operator" v="Bodø kommune" />
		<tag k="operator:type" v="public" />
		<tag k="start_date" v="2007-01-01" />
	</node>
	<node id="-5442" lat="67.2932" lon="14.5614">
		<tag k="amenity" v="kindergarten" />
		<tag k="capacity" v="35" />
		<tag k="max_age" v="5" />
		<tag k="min_age" v="1" />
		<tag k="name" v="Kjeldmyrlia barnehage" />
		<tag k="no-barnehage:nsrid" v="1015452" />
		<tag k="operator" v="Norlandia Barnehagene AS" />
		<tag k="operator:type" v="private" />
		<tag k="start_date" v="1990-10-01" />
	</node>
	<node id="-5441" lat="67.2969" lon="14.4121">
		<tag k="amenity" v="kindergarten" />
		<tag k="capacity" v="47" />
		<tag k="max_age" v="5" />
		<tag k="min_age" v="1" />
		<tag k="name" v="Kirkhaugen barnehage" />
		<tag k="no-barnehage:nsrid" v="1018291" />
		<tag k="operator" v="Bodø kommune" />
		<tag k="operator:type" v="public" />
		<tag k="start_date" v="2008-01-01" />
	</node>
	<node id="-5440" lat="67.284" lon="14.4152">
		<tag k="amenity" v="kindergarten" />
		<tag k="capacity" v="76" />
		<tag k="max_age" v="5" />
		<tag k="min_age" v="1" />
		<tag k="name" v="Jentoftsletta barnehage" />
		<tag k="no-barnehage:nsrid" v="1025385" />
		<tag k="operator" v="Bodø kommune" />
		<tag k="operator:type" v="public" />
		<tag k="start_date" v="1991-01-01" />
	</node>
	<node id="-5439" lat="67.27614" lon="14.46725">
		<tag k="amenity" v="kindergarten" />
		<tag k="capacity" v="28" />
		<tag k="contact:phone" v="90509477" />
		<tag k="max_age" v="5" />
		<tag k="min_age" v="1" />
		<tag k="name" v="Jensvoll barnehage AS" />
		<tag k="no-barnehage:nsrid" v="1021453" />
		<tag k="operator" v="Jensvoll barnehage AS" />
		<tag k="operator:type" v="private" />
		<tag k="start_date" v="2006-06-01" />
	</node>
	<node id="-5438" lat="67.2834" lon="14.5392">
		<tag k="amenity" v="kindergarten" />
		<tag k="capacity" v="55" />
		<tag k="max_age" v="5" />
		<tag k="min_age" v="1" />
		<tag k="name" v="Hunstad Øst barnehage" />
		<tag k="no-barnehage:nsrid" v="1025384" />
		<tag k="operator" v="Bodø kommune" />
		<tag k="operator:type" v="public" />
		<tag k="start_date" v="1989-01-01" />
	</node>
	<node id="-5436" lat="67.2868" lon="14.41413">
		<tag k="amenity" v="kindergarten" />
		<tag k="capacity" v="27" />
		<tag k="contact:phone" v="081229600" />
		<tag k="max_age" v="5" />
		<tag k="min_age" v="1" />
		<tag k="name" v="Hestehoven barnehage Bodø Sa" />
		<tag k="no-barnehage:nsrid" v="1019820" />
		<tag k="operator" v="Hestehoven barnehage Bodø Sa" />
		<tag k="operator:type" v="private" />
		<tag k="start_date" v="1989-01-02" />
	</node>
	<node id="-5435" lat="67.442" lon="13.8953">
		<tag k="amenity" v="kindergarten" />
		<tag k="capacity" v="4" />
		<tag k="max_age" v="5" />
		<tag k="min_age" v="3" />
		<tag k="name" v="Helligvær barnehage" />
		<tag k="no-barnehage:nsrid" v="1018550" />
		<tag k="operator" v="Bodø kommune" />
		<tag k="operator:type" v="public" />
		<tag k="start_date" v="2007-01-01" />
	</node>
	<node id="-5434" lat="67.27846" lon="14.465">
		<tag k="amenity" v="kindergarten" />
		<tag k="capacity" v="31" />
		<tag k="contact:phone" v="075564190" />
		<tag k="max_age" v="5" />
		<tag k="min_age" v="1" />
		<tag k="name" v="Grønnåsen barnehage AS" />
		<tag k="no-barnehage:nsrid" v="1020100" />
		<tag k="operator" v="Grønnåsen barnehage AS" />
		<tag k="operator:type" v="private" />
		<tag k="start_date" v="1992-08-01" />
	</node>
	<node id="-5433" lat="67.28248" lon="14.40086">
		<tag k="amenity" v="kindergarten" />
		<tag k="capacity" v="35" />
		<tag k="contact:phone" v="75 52 17 03" />
		<tag k="max_age" v="5" />
		<tag k="min_age" v="1" />
		<tag k="name" v="Gla'Ungan AS" />
		<tag k="no-barnehage:nsrid" v="1021113" />
		<tag k="operator" v="Gla'Ungan AS" />
		<tag k="operator:type" v="private" />
		<tag k="start_date" v="1989-01-02" />
	</node>
	<node id="-5432" lat="67.2887" lon="14.5492">
		<tag k="amenity" v="kindergarten" />
		<tag k="capacity" v="30" />
		<tag k="max_age" v="5" />
		<tag k="min_age" v="1" />
		<tag k="name" v="Gjæran barnehage Avd Osphaugen" />
		<tag k="no-barnehage:nsrid" v="1014195" />
		<tag k="operator" v="Bodø kommune" />
		<tag k="operator:type" v="public" />
		<tag k="start_date" v="2010-08-01" />
	</node>
	<node id="-5431" lat="67.2871" lon="14.5563">
		<tag k="amenity" v="kindergarten" />
		<tag k="capacity" v="34" />
		<tag k="max_age" v="5" />
		<tag k="min_age" v="1" />
		<tag k="name" v="Gjæran barnehage Avd Messiosen" />
		<tag k="no-barnehage:nsrid" v="1016630" />
		<tag k="operator" v="Bodø kommune" />
		<tag k="operator:type" v="public" />
		<tag k="start_date" v="1991-01-01" />
	</node>
	<node id="-5430" lat="67.2975" lon="14.7332">
		<tag k="amenity" v="kindergarten" />
		<tag k="capacity" v="123" />
		<tag k="max_age" v="5" />
		<tag k="min_age" v="1" />
		<tag k="name" v="Engmark barnehage" />
		<tag k="no-barnehage:nsrid" v="1016640" />
		<tag k="operator" v="Bodø kommune" />
		<tag k="operator:type" v="public" />
		<tag k="start_date" v="1991-01-01" />
	</node>
	<node id="-5429" lat="67.2783" lon="14.3634">
		<tag k="amenity" v="kindergarten" />
		<tag k="capacity" v="84" />
		<tag k="max_age" v="5" />
		<tag k="min_age" v="1" />
		<tag k="name" v="Breivika barnehage" />
		<tag k="no-barnehage:nsrid" v="1015973" />
		<tag k="operator" v="Norlandia Barnehagene AS" />
		<tag k="operator:type" v="private" />
		<tag k="start_date" v="1992-08-01" />
	</node>
	<node id="-5427" lat="67.2955" lon="14.5887">
		<tag k="amenity" v="kindergarten" />
		<tag k="capacity" v="105" />
		<tag k="max_age" v="5" />
		<tag k="min_age" v="1" />
		<tag k="name" v="Bjørneborgen barnehage" />
		<tag k="no-barnehage:nsrid" v="1015464" />
		<tag k="operator" v="Norlandia Barnehagene AS" />
		<tag k="operator:type" v="private" />
		<tag k="start_date" v="1992-08-01" />
	</node>
	<node id="-5426" lat="67.2791" lon="14.4671">
		<tag k="amenity" v="kindergarten" />
		<tag k="capacity" v="17" />
		<tag k="max_age" v="5" />
		<tag k="min_age" v="1" />
		<tag k="name" v="Bjerkhaug barnehage" />
		<tag k="no-barnehage:nsrid" v="1016880" />
		<tag k="operator" v="Otto Koch AS" />
		<tag k="operator:type" v="private" />
		<tag k="start_date" v="1991-01-01" />
	</node>
	<node id="-5425" lat="67.2894" lon="14.4172">
		<tag k="amenity" v="kindergarten" />
		<tag k="capacity" v="58" />
		<tag k="max_age" v="5" />
		<tag k="min_age" v="1" />
		<tag k="name" v="Bjerkenga Miljøbarnehage" />
		<tag k="no-barnehage:nsrid" v="1016634" />
		<tag k="operator" v="Bodø kommune" />
		<tag k="operator:type" v="public" />
		<tag k="start_date" v="1976-12-24" />
	</node>
	<node id="-5424" lat="67.2838" lon="14.39">
		<tag k="amenity" v="kindergarten" />
		<tag k="capacity" v="38" />
		<tag k="contact:phone" v="75 55 63 50" />
		<tag k="max_age" v="5" />
		<tag k="min_age" v="1" />
		<tag k="name" v="Barnas Hus barnehage" />
		<tag k="no-barnehage:nsrid" v="1016125" />
		<tag k="operator" v="Bodø kommune" />
		<tag k="operator:type" v="public" />
		<tag k="start_date" v="1965-12-31" />
	</node>
	<node id="-5423" lat="67.27803" lon="14.4464">
		<tag k="amenity" v="kindergarten" />
		<tag k="capacity" v="17" />
		<tag k="contact:phone" v="75 53 73 72" />
		<tag k="max_age" v="5" />
		<tag k="min_age" v="1" />
		<tag k="name" v="Bamsebo barnehage" />
		<tag k="no-barnehage:nsrid" v="1019835" />
		<tag k="operator" v="Bamsebo barnehage" />
		<tag k="operator:type" v="private" />
		<tag k="start_date" v="1989-01-02" />
	</node>
	<node id="-5422" lat="67.2794" lon="14.3827">
		<tag k="amenity" v="kindergarten" />
		<tag k="capacity" v="95" />
		<tag k="contact:phone" v="75 52 69 50" />
		<tag k="max_age" v="5" />
		<tag k="min_age" v="1" />
		<tag k="name" v="Asphaugen barnehage" />
		<tag k="no-barnehage:nsrid" v="1016206" />
		<tag k="operator" v="Bodø kommune" />
		<tag k="operator:type" v="public" />
		<tag k="start_date" v="1989-01-01" />
	</node>
	<node id="-5421" lat="67.27541" lon="14.46286">
		<tag k="amenity" v="kindergarten" />
		<tag k="capacity" v="56" />
		<tag k="contact:phone" v="917 39 345" />
		<tag k="max_age" v="5" />
		<tag k="min_age" v="1" />
		<tag k="name" v="Alsgård Fus barnehage AS" />
		<tag k="no-barnehage:nsrid" v="1022116" />
		<tag k="operator" v="Alsgård Fus barnehage AS" />
		<tag k="operator:type" v="private" />
		<tag k="start_date" v="2011-03-01" />
	</node>
	<node id="-5420" lat="67.27869" lon="14.4913">
		<tag k="amenity" v="kindergarten" />
		<tag k="capacity" v="22" />
		<tag k="contact:email" v="kari-p2@frisurf.no" />
		<tag k="contact:phone" v="75 51 22 30" />
		<tag k="max_age" v="5" />
		<tag k="min_age" v="1" />
		<tag k="name" v="Abrakadabra barnehage AS" />
		<tag k="no-barnehage:nsrid" v="1021174" />
		<tag k="operator" v="Abrakadabra barnehage AS" />
		<tag k="operator:type" v="private" />
		<tag k="start_date" v="2005-01-31" />
	</node>
</osm>
