<?xml version="1.0" encoding="UTF-8"?>
<osm version="0.6" generator="osmapis">
	<node lat="0.0" lon="0.0" id="-4554">
		<tag k="ADDRESS" v="Bjordal, 5962 BJORDAL" />
		<tag k="amenity" v="kindergarten" />
		<tag k="capacity" v="15" />
		<tag k="max_age" v="5" />
		<tag k="min_age" v="1" />
		<tag k="name" v="Bjordal barnehage" />
		<tag k="no-barnehage:nsrid" v="975309495" />
		<tag k="operator" v="Høyanger kommune" />
		<tag k="operator:type" v="public" />
	</node>
	<node lat="61.22421" lon="6.07908" id="-4555">
		<tag k="ADDRESS" v="Dalevegen 3, 6993 HØYANGER" />
		<tag k="amenity" v="kindergarten" />
		<tag k="capacity" v="48" />
		<tag k="max_age" v="5" />
		<tag k="min_age" v="1" />
		<tag k="name" v="Hjetland barnehage" />
		<tag k="no-barnehage:nsrid" v="975309509" />
		<tag k="operator" v="Høyanger kommune" />
		<tag k="operator:type" v="public" />
	</node>
	<node lat="61.16455" lon="5.93648" id="-4556">
		<tag k="ADDRESS" v="Furevegen 3, 6995 KYRKJEBØ" />
		<tag k="amenity" v="kindergarten" />
		<tag k="capacity" v="25" />
		<tag k="max_age" v="5" />
		<tag k="min_age" v="1" />
		<tag k="name" v="Kyrkjebø barnehage" />
		<tag k="no-barnehage:nsrid" v="975268012" />
		<tag k="operator" v="Høyanger kommune" />
		<tag k="operator:type" v="public" />
	</node>
	<node lat="61.10487" lon="5.51485" id="-4557">
		<tag k="ADDRESS" v="Kvamsvegen 27, 6947 LAVIK" />
		<tag k="amenity" v="kindergarten" />
		<tag k="capacity" v="19" />
		<tag k="max_age" v="5" />
		<tag k="min_age" v="1" />
		<tag k="name" v="Lavik barnehage" />
		<tag k="no-barnehage:nsrid" v="975268020" />
		<tag k="operator" v="Høyanger kommune" />
		<tag k="operator:type" v="public" />
	</node>
	<node lat="61.22197" lon="6.08386" id="-4558">
		<tag k="ADDRESS" v="Fossøyrgata 21, 6993 HØYANGER" />
		<tag k="amenity" v="kindergarten" />
		<tag k="capacity" v="27" />
		<tag k="max_age" v="5" />
		<tag k="min_age" v="1" />
		<tag k="name" v="Olderdalen barnehage" />
		<tag k="no-barnehage:nsrid" v="973971735" />
		<tag k="operator" v="Høyanger kommune" />
		<tag k="operator:type" v="public" />
	</node>
	<node lat="0.0" lon="0.0" id="-4559">
		<tag k="ADDRESS" v="Vadheim, 6996 VADHEIM" />
		<tag k="amenity" v="kindergarten" />
		<tag k="capacity" v="4" />
		<tag k="max_age" v="2" />
		<tag k="min_age" v="1" />
		<tag k="name" v="Vadheim oppvekstsenter avd. barnehage" />
		<tag k="no-barnehage:nsrid" v="975309606" />
		<tag k="operator" v="Høyanger kommune" />
		<tag k="operator:type" v="public" />
	</node>
</osm>
