<?xml version="1.0" encoding="UTF-8"?>
<osm version="0.6" generator="osmapis">
	<node lat="59.57907" lon="5.3379" id="-4162">
		<tag k="ADDRESS" v="Tjernagelvegen 458, 5550 SVEIO" />
		<tag k="amenity" v="kindergarten" />
		<tag k="capacity" v="23" />
		<tag k="max_age" v="5" />
		<tag k="min_age" v="1" />
		<tag k="name" v="Bua kultur- og friluftsbarnehage" />
		<tag k="no-barnehage:nsrid" v="973456334" />
		<tag k="operator" v="Bua Kultur- og friluftsbarnehage AS" />
		<tag k="operator:type" v="private" />
	</node>
	<node lat="59.48676" lon="5.31644" id="-4163">
		<tag k="ADDRESS" v="Svehaugen 10, 5550 SVEIO" />
		<tag k="amenity" v="kindergarten" />
		<tag k="capacity" v="58" />
		<tag k="contact:website" v="http://espira.no/barnehage/espira-solkroken/" />
		<tag k="max_age" v="5" />
		<tag k="min_age" v="1" />
		<tag k="name" v="Espira Solkroken barnehage" />
		<tag k="no-barnehage:nsrid" v="897463962" />
		<tag k="operator" v="Espira Solkroken AS" />
		<tag k="operator:type" v="private" />
	</node>
	<node lat="59.61121" lon="5.47604" id="-4164">
		<tag k="ADDRESS" v="Tingvegen 29, 5555 FØRDE I HORDALAND" />
		<tag k="amenity" v="kindergarten" />
		<tag k="capacity" v="47" />
		<tag k="max_age" v="5" />
		<tag k="min_age" v="1" />
		<tag k="name" v="Førde barnehage" />
		<tag k="no-barnehage:nsrid" v="975308626" />
		<tag k="operator" v="Sveio kommune" />
		<tag k="operator:type" v="public" />
	</node>
	<node lat="59.54228" lon="5.33985" id="-4165">
		<tag k="ADDRESS" v="Tjernagelvegen 47, 5550 SVEIO" />
		<tag k="amenity" v="kindergarten" />
		<tag k="capacity" v="65" />
		<tag k="contact:website" v="http://www.fus.no/gjermundshaugen" />
		<tag k="max_age" v="5" />
		<tag k="min_age" v="1" />
		<tag k="name" v="Gjermundshaugen FUS barnehage" />
		<tag k="no-barnehage:nsrid" v="991194401" />
		<tag k="operator" v="Gjermundshaugen Fus barnehage AS" />
		<tag k="operator:type" v="private" />
	</node>
	<node lat="59.48602" lon="5.30853" id="-4166">
		<tag k="ADDRESS" v="Rophusvegen 8, 5550 SVEIO" />
		<tag k="amenity" v="kindergarten" />
		<tag k="capacity" v="40" />
		<tag k="contact:website" v="http://www.laringsverkstedet.no/barnehage/ekrene-natur-og-gardsbarnehage" />
		<tag k="max_age" v="5" />
		<tag k="min_age" v="1" />
		<tag k="name" v="Læringsverkstedet Ekrene natur og gårdsbarnehage" />
		<tag k="no-barnehage:nsrid" v="978691927" />
		<tag k="operator" v="Læringsverkstedet Ekrene Natur og gårdsbarnehage AS" />
		<tag k="operator:type" v="private" />
	</node>
	<node lat="59.54602" lon="5.35668" id="-4167">
		<tag k="ADDRESS" v="Åsvegen 1, 5550 SVEIO" />
		<tag k="amenity" v="kindergarten" />
		<tag k="capacity" v="44" />
		<tag k="max_age" v="5" />
		<tag k="min_age" v="1" />
		<tag k="name" v="Sveio barnehage" />
		<tag k="no-barnehage:nsrid" v="975296466" />
		<tag k="operator" v="Sveio kommune" />
		<tag k="operator:type" v="public" />
	</node>
	<node lat="59.70269" lon="5.4858" id="-4168">
		<tag k="ADDRESS" v="Tittelsnesvegen 732, 5554 VALEVÅG" />
		<tag k="amenity" v="kindergarten" />
		<tag k="capacity" v="16" />
		<tag k="max_age" v="5" />
		<tag k="min_age" v="1" />
		<tag k="name" v="Valestrand oppvekstsenter avd. barnehage" />
		<tag k="no-barnehage:nsrid" v="991691111" />
		<tag k="operator" v="Sveio kommune" />
		<tag k="operator:type" v="public" />
	</node>
</osm>
