<?xml version="1.0" encoding="UTF-8"?>
<osm generator="osmapis" version="0.6">
	<node id="-3338" lat="59.48586" lon="10.30063">
		<tag k="ADDRESS" v="Hvittingfossveien 101, 3085 HOLMESTRAND" />
		<tag k="amenity" v="kindergarten" />
		<tag k="capacity" v="27" />
		<tag k="max_age" v="5" />
		<tag k="min_age" v="1" />
		<tag k="name" v="Bmb barnehage" />
		<tag k="no-barnehage:nsrid" v="973346504" />
		<tag k="operator" v="Bmb barnehage" />
		<tag k="operator:type" v="private" />
	</node>
	<node id="-3339" lat="59.50558" lon="10.25148">
		<tag k="ADDRESS" v="Tryms Vei 20, 3089 HOLMESTRAND" />
		<tag k="amenity" v="kindergarten" />
		<tag k="capacity" v="20" />
		<tag k="max_age" v="5" />
		<tag k="min_age" v="1" />
		<tag k="name" v="Botnestua naturbarnehage" />
		<tag k="no-barnehage:nsrid" v="975185117" />
		<tag k="operator" v="Botne Skiklubb" />
		<tag k="operator:type" v="private" />
	</node>
	<node id="-3340" lat="59.59301" lon="10.0414">
		<tag k="ADDRESS" v="Eidsfossveien 46, 3095 EIDSFOSS" />
		<tag k="amenity" v="kindergarten" />
		<tag k="capacity" v="16" />
		<tag k="max_age" v="5" />
		<tag k="min_age" v="1" />
		<tag k="name" v="Eidsfoss barnehage" />
		<tag k="no-barnehage:nsrid" v="975306798" />
		<tag k="operator" v="Holmestrand kommune" />
		<tag k="operator:type" v="public" />
	</node>
	<node id="-3341" lat="59.47606" lon="10.32148">
		<tag k="ADDRESS" v="Eikelund 2, 3083 HOLMESTRAND" />
		<tag k="amenity" v="kindergarten" />
		<tag k="capacity" v="57" />
		<tag k="contact:website" v="http://eikelund.barnehage.no/" />
		<tag k="max_age" v="5" />
		<tag k="min_age" v="1" />
		<tag k="name" v="Eikelund barnehage" />
		<tag k="no-barnehage:nsrid" v="987495065" />
		<tag k="operator" v="Eikelund barnehage Sa" />
		<tag k="operator:type" v="private" />
	</node>
	<node id="-3342" lat="59.51094" lon="10.11994">
		<tag k="ADDRESS" v="Lindeveien 1, 3092 SUNDBYFOSS" />
		<tag k="amenity" v="kindergarten" />
		<tag k="capacity" v="61" />
		<tag k="contact:website" v="http://www.espira.no" />
		<tag k="max_age" v="5" />
		<tag k="min_age" v="1" />
		<tag k="name" v="Espira Sundbyfoss barnehage" />
		<tag k="no-barnehage:nsrid" v="994338471" />
		<tag k="operator" v="Espira Sundbyfoss AS" />
		<tag k="operator:type" v="private" />
	</node>
	<node id="-3343" lat="59.62115" lon="10.22135">
		<tag k="ADDRESS" v="Galleberggata 8, 3073 SANDE I VESTFOLD" />
		<tag k="amenity" v="kindergarten" />
		<tag k="capacity" v="72" />
		<tag k="contact:website" v="http://www.gallebergbarnehage.no." />
		<tag k="max_age" v="5" />
		<tag k="min_age" v="1" />
		<tag k="name" v="Galleberg barnehage" />
		<tag k="no-barnehage:nsrid" v="984186150" />
		<tag k="operator" v="Galleberg barnehage SA" />
		<tag k="operator:type" v="private" />
	</node>
	<node id="-3344" lat="59.50114" lon="10.2867">
		<tag k="ADDRESS" v="Kleivanveien 29, 3086 HOLMESTRAND" />
		<tag k="amenity" v="kindergarten" />
		<tag k="capacity" v="37" />
		<tag k="contact:website" v="http://www.gaupas.barnehage.no" />
		<tag k="max_age" v="5" />
		<tag k="min_age" v="1" />
		<tag k="name" v="Gaupås barnehage" />
		<tag k="no-barnehage:nsrid" v="973494899" />
		<tag k="operator" v="Gaupås barnehage SA" />
		<tag k="operator:type" v="private" />
	</node>
	<node id="-3345" lat="59.48488" lon="10.3229">
		<tag k="ADDRESS" v="Næskilds gate 2A, 3080 HOLMESTRAND" />
		<tag k="amenity" v="kindergarten" />
		<tag k="capacity" v="72" />
		<tag k="max_age" v="5" />
		<tag k="min_age" v="1" />
		<tag k="name" v="Gausetangen barnehage" />
		<tag k="no-barnehage:nsrid" v="919129026" />
		<tag k="operator" v="Holmestrand kommune" />
		<tag k="operator:type" v="public" />
	</node>
	<node id="-3346" lat="59.49646" lon="10.25637">
		<tag k="ADDRESS" v="Gurannveien 25C, 3089 HOLMESTRAND" />
		<tag k="amenity" v="kindergarten" />
		<tag k="capacity" v="63" />
		<tag k="max_age" v="5" />
		<tag k="min_age" v="1" />
		<tag k="name" v="Gullhaug barnehage" />
		<tag k="no-barnehage:nsrid" v="974542757" />
		<tag k="operator" v="Holmestrand kommune" />
		<tag k="operator:type" v="public" />
	</node>
	<node id="-3347" lat="59.58797" lon="10.21218">
		<tag k="ADDRESS" v="Magna Ottersens vei 7, 3070 SANDE I VESTFOLD" />
		<tag k="amenity" v="kindergarten" />
		<tag k="capacity" v="91" />
		<tag k="max_age" v="5" />
		<tag k="min_age" v="1" />
		<tag k="name" v="Haga barnehage" />
		<tag k="no-barnehage:nsrid" v="973766066" />
		<tag k="operator" v="Holmestrand kommune" />
		<tag k="operator:type" v="public" />
	</node>
	<node id="-3348" lat="59.53807" lon="10.07634">
		<tag k="ADDRESS" v="Lindsetveien 1, 3090 HOF" />
		<tag k="amenity" v="kindergarten" />
		<tag k="capacity" v="46" />
		<tag k="max_age" v="5" />
		<tag k="min_age" v="1" />
		<tag k="name" v="Hof barnehage" />
		<tag k="no-barnehage:nsrid" v="982248752" />
		<tag k="operator" v="Holmestrand kommune" />
		<tag k="operator:type" v="public" />
	</node>
	<node id="-3349" lat="59.47715" lon="10.32173">
		<tag k="ADDRESS" v="Eikelund 8, 3083 HOLMESTRAND" />
		<tag k="amenity" v="kindergarten" />
		<tag k="capacity" v="50" />
		<tag k="contact:website" v="http://www.montessoriskolen.no" />
		<tag k="max_age" v="5" />
		<tag k="min_age" v="1" />
		<tag k="name" v="Holmestrand Internasjonale montesssoribarnehage" />
		<tag k="no-barnehage:nsrid" v="985940398" />
		<tag k="operator" v="Holmestrand Internasjonale montesssoribarnehage SA" />
		<tag k="operator:type" v="private" />
	</node>
	<node id="-3350" lat="59.51075" lon="10.28459">
		<tag k="ADDRESS" v="Kleiverudveien 195, 3086 HOLMESTRAND" />
		<tag k="amenity" v="kindergarten" />
		<tag k="capacity" v="81" />
		<tag k="max_age" v="5" />
		<tag k="min_age" v="1" />
		<tag k="name" v="Kleiverud barnehage" />
		<tag k="no-barnehage:nsrid" v="974542749" />
		<tag k="operator" v="Holmestrand kommune" />
		<tag k="operator:type" v="public" />
	</node>
	<node id="-3351" lat="59.48632" lon="10.30928">
		<tag k="ADDRESS" v="Barlinveien 1, 3084 HOLMESTRAND" />
		<tag k="amenity" v="kindergarten" />
		<tag k="capacity" v="69" />
		<tag k="max_age" v="5" />
		<tag k="min_age" v="1" />
		<tag k="name" v="Knutseskogen barnehage" />
		<tag k="no-barnehage:nsrid" v="974542730" />
		<tag k="operator" v="Holmestrand kommune" />
		<tag k="operator:type" v="public" />
	</node>
	<node id="-3352" lat="59.62606" lon="10.23546">
		<tag k="ADDRESS" v="Lærumveien 32, 3074 SANDE I VESTFOLD" />
		<tag k="amenity" v="kindergarten" />
		<tag k="capacity" v="40" />
		<tag k="max_age" v="5" />
		<tag k="min_age" v="1" />
		<tag k="name" v="Læringsverkstedet barnehage avd. Sande" />
		<tag k="no-barnehage:nsrid" v="995657813" />
		<tag k="operator" v="Læringsverkstedet AS" />
		<tag k="operator:type" v="private" />
	</node>
	<node id="-3353" lat="59.56723" lon="10.25469">
		<tag k="ADDRESS" v="Lersbrygga 22, 3077 SANDE I VESTFOLD" />
		<tag k="amenity" v="kindergarten" />
		<tag k="capacity" v="111" />
		<tag k="max_age" v="5" />
		<tag k="min_age" v="1" />
		<tag k="name" v="Læringsverkstedet barnehage avd. Lersbrygga" />
		<tag k="no-barnehage:nsrid" v="998439086" />
		<tag k="operator" v="Læringsverkstedet AS" />
		<tag k="operator:type" v="private" />
	</node>
	<node id="-3354" lat="59.50969" lon="10.19204">
		<tag k="ADDRESS" v="Hvittingfossveien 350, 3089 HOLMESTRAND" />
		<tag k="amenity" v="kindergarten" />
		<tag k="capacity" v="59" />
		<tag k="max_age" v="5" />
		<tag k="min_age" v="1" />
		<tag k="name" v="Møllerdammen naturbarnehage" />
		<tag k="no-barnehage:nsrid" v="991053298" />
		<tag k="operator" v="Møllerdammen naturbarnehage AS" />
		<tag k="operator:type" v="private" />
	</node>
	<node id="-3355" lat="59.49942" lon="10.25668">
		<tag k="ADDRESS" v="Gurannveien 3, 3089 HOLMESTRAND" />
		<tag k="amenity" v="kindergarten" />
		<tag k="capacity" v="25" />
		<tag k="contact:website" v="http://www.fredlybarnehage.nlm.no" />
		<tag k="max_age" v="5" />
		<tag k="min_age" v="1" />
		<tag k="name" v="NLM barnehagene avd. Fredly barnehage" />
		<tag k="no-barnehage:nsrid" v="873138882" />
		<tag k="operator" v="Nlm-Barnehagene AS" />
		<tag k="operator:type" v="private" />
	</node>
	<node id="-3356" lat="59.56581" lon="10.26719">
		<tag k="ADDRESS" v="Willem Stibolts vei 2, 3077 SANDE I VESTFOLD" />
		<tag k="amenity" v="kindergarten" />
		<tag k="capacity" v="92" />
		<tag k="max_age" v="5" />
		<tag k="min_age" v="1" />
		<tag k="name" v="Nordre Jarlsberg barnehage" />
		<tag k="no-barnehage:nsrid" v="993239372" />
		<tag k="operator" v="Holmestrand kommune" />
		<tag k="operator:type" v="public" />
	</node>
	<node id="-3357" lat="0.0" lon="0.0">
		<tag k="ADDRESS" v="Kjeldås Vestre, 3070 SANDE I VESTFOLD" />
		<tag k="amenity" v="kindergarten" />
		<tag k="capacity" v="102" />
		<tag k="max_age" v="5" />
		<tag k="min_age" v="1" />
		<tag k="name" v="Vellebarnehagene avd. Kjeldås barnehage" />
		<tag k="no-barnehage:nsrid" v="973754769" />
		<tag k="operator" v="Vellebarnehagene AS" />
		<tag k="operator:type" v="private" />
	</node>
</osm>
