<?xml version="1.0" encoding="UTF-8"?>
<osm version="0.6" generator="osmapis">
	<node lat="59.48586" lon="10.30063" id="-3256">
		<tag k="ADDRESS" v="Hvittingfossveien 101, 3085 HOLMESTRAND" />
		<tag k="amenity" v="kindergarten" />
		<tag k="capacity" v="26" />
		<tag k="contact:website" v="http://bmb.barnehage.no" />
		<tag k="max_age" v="5" />
		<tag k="min_age" v="1" />
		<tag k="name" v="Bmb barnehage" />
		<tag k="no-barnehage:nsrid" v="973346504" />
		<tag k="operator" v="Bmb barnehage" />
		<tag k="operator:type" v="private" />
	</node>
	<node lat="59.59301" lon="10.0414" id="-3257">
		<tag k="ADDRESS" v="Eidsfossveien 46, 3095 EIDSFOSS" />
		<tag k="amenity" v="kindergarten" />
		<tag k="contact:website" v="http://eidsfossbarnehage.no/" />
		<tag k="name" v="Eidsfoss barnehage" />
		<tag k="no-barnehage:nsrid" v="931665642" />
		<tag k="operator" v="Eidsfoss barnehage AS" />
		<tag k="operator:type" v="private" />
	</node>
	<node lat="59.47628" lon="10.32163" id="-3258">
		<tag k="ADDRESS" v="Eikelund 2, 3083 HOLMESTRAND" />
		<tag k="amenity" v="kindergarten" />
		<tag k="capacity" v="58" />
		<tag k="contact:website" v="http://eikelund.barnehage.no/" />
		<tag k="max_age" v="5" />
		<tag k="min_age" v="1" />
		<tag k="name" v="Eikelund barnehage" />
		<tag k="no-barnehage:nsrid" v="987495065" />
		<tag k="operator" v="Eikelund barnehage SA" />
		<tag k="operator:type" v="private" />
	</node>
	<node lat="59.51094" lon="10.11994" id="-3259">
		<tag k="ADDRESS" v="Lindeveien 1, 3092 SUNDBYFOSS" />
		<tag k="amenity" v="kindergarten" />
		<tag k="capacity" v="68" />
		<tag k="contact:website" v="http://www.espira.no" />
		<tag k="max_age" v="5" />
		<tag k="min_age" v="1" />
		<tag k="name" v="Espira Sundbyfoss barnehage" />
		<tag k="no-barnehage:nsrid" v="994338471" />
		<tag k="operator" v="Espira Sundbyfoss AS" />
		<tag k="operator:type" v="private" />
	</node>
	<node lat="59.62115" lon="10.22135" id="-3260">
		<tag k="ADDRESS" v="Galleberggata 8, 3073 SANDE I VESTFOLD" />
		<tag k="amenity" v="kindergarten" />
		<tag k="capacity" v="70" />
		<tag k="contact:website" v="http://www.gallebergbarnehage.no." />
		<tag k="max_age" v="5" />
		<tag k="min_age" v="1" />
		<tag k="name" v="Galleberg barnehage" />
		<tag k="no-barnehage:nsrid" v="984186150" />
		<tag k="operator" v="Galleberg barnehage SA" />
		<tag k="operator:type" v="private" />
	</node>
	<node lat="59.50114" lon="10.2867" id="-3261">
		<tag k="ADDRESS" v="Kleivanveien 29, 3086 HOLMESTRAND" />
		<tag k="amenity" v="kindergarten" />
		<tag k="capacity" v="36" />
		<tag k="contact:website" v="http://www.gaupas.barnehage.no" />
		<tag k="max_age" v="5" />
		<tag k="min_age" v="1" />
		<tag k="name" v="Gaupås barnehage" />
		<tag k="no-barnehage:nsrid" v="973494899" />
		<tag k="operator" v="Gaupås barnehage SA" />
		<tag k="operator:type" v="private" />
	</node>
	<node lat="59.48488" lon="10.3229" id="-3262">
		<tag k="ADDRESS" v="Næskilds gate 2A, 3080 HOLMESTRAND" />
		<tag k="amenity" v="kindergarten" />
		<tag k="capacity" v="80" />
		<tag k="max_age" v="5" />
		<tag k="min_age" v="1" />
		<tag k="name" v="Gausetangen barnehage" />
		<tag k="no-barnehage:nsrid" v="919129026" />
		<tag k="operator" v="Holmestrand kommune" />
		<tag k="operator:type" v="public" />
	</node>
	<node lat="59.4965" lon="10.25647" id="-3263">
		<tag k="ADDRESS" v="Gurannveien 25C, 3089 HOLMESTRAND" />
		<tag k="amenity" v="kindergarten" />
		<tag k="capacity" v="63" />
		<tag k="max_age" v="5" />
		<tag k="min_age" v="1" />
		<tag k="name" v="Gullhaug barnehage" />
		<tag k="no-barnehage:nsrid" v="974542757" />
		<tag k="operator" v="Holmestrand kommune" />
		<tag k="operator:type" v="public" />
	</node>
	<node lat="59.58797" lon="10.21218" id="-3264">
		<tag k="ADDRESS" v="Magna Ottersens vei 7, 3070 SANDE I VESTFOLD" />
		<tag k="amenity" v="kindergarten" />
		<tag k="capacity" v="87" />
		<tag k="max_age" v="5" />
		<tag k="min_age" v="1" />
		<tag k="name" v="Haga barnehage" />
		<tag k="no-barnehage:nsrid" v="973766066" />
		<tag k="operator" v="Holmestrand kommune" />
		<tag k="operator:type" v="public" />
	</node>
	<node lat="59.53807" lon="10.07634" id="-3265">
		<tag k="ADDRESS" v="Lindsetveien 1, 3090 HOF" />
		<tag k="amenity" v="kindergarten" />
		<tag k="capacity" v="39" />
		<tag k="max_age" v="5" />
		<tag k="min_age" v="1" />
		<tag k="name" v="Hof barnehage" />
		<tag k="no-barnehage:nsrid" v="982248752" />
		<tag k="operator" v="Holmestrand kommune" />
		<tag k="operator:type" v="public" />
	</node>
	<node lat="59.47711" lon="10.32172" id="-3266">
		<tag k="ADDRESS" v="Eikelund 8, 3083 HOLMESTRAND" />
		<tag k="amenity" v="kindergarten" />
		<tag k="capacity" v="66" />
		<tag k="contact:website" v="http://www.montessoriskolen.no" />
		<tag k="max_age" v="5" />
		<tag k="min_age" v="1" />
		<tag k="name" v="Holmestrand Internasjonale montesssoribarnehage" />
		<tag k="no-barnehage:nsrid" v="985940398" />
		<tag k="operator" v="Holmestrand Internasjonale montesssoribarnehage SA" />
		<tag k="operator:type" v="private" />
	</node>
	<node lat="59.51075" lon="10.28459" id="-3267">
		<tag k="ADDRESS" v="Kleiverudveien 195, 3086 HOLMESTRAND" />
		<tag k="amenity" v="kindergarten" />
		<tag k="capacity" v="87" />
		<tag k="max_age" v="5" />
		<tag k="min_age" v="1" />
		<tag k="name" v="Kleiverud barnehage" />
		<tag k="no-barnehage:nsrid" v="974542749" />
		<tag k="operator" v="Holmestrand kommune" />
		<tag k="operator:type" v="public" />
	</node>
	<node lat="59.48622" lon="10.30929" id="-3268">
		<tag k="ADDRESS" v="Barlinveien 1, 3084 HOLMESTRAND" />
		<tag k="amenity" v="kindergarten" />
		<tag k="capacity" v="66" />
		<tag k="max_age" v="5" />
		<tag k="min_age" v="1" />
		<tag k="name" v="Knutseskogen barnehage" />
		<tag k="no-barnehage:nsrid" v="974542730" />
		<tag k="operator" v="Holmestrand kommune" />
		<tag k="operator:type" v="public" />
	</node>
	<node lat="59.56723" lon="10.25469" id="-3269">
		<tag k="ADDRESS" v="Lersbrygga 22, 3077 SANDE I VESTFOLD" />
		<tag k="amenity" v="kindergarten" />
		<tag k="capacity" v="114" />
		<tag k="max_age" v="5" />
		<tag k="min_age" v="1" />
		<tag k="name" v="Læringsverkstedet Lersbrygga barnehage" />
		<tag k="no-barnehage:nsrid" v="998439086" />
		<tag k="operator" v="Læringsverkstedet Lersbrygga barnehage AS" />
		<tag k="operator:type" v="private" />
	</node>
	<node lat="59.62606" lon="10.23546" id="-3270">
		<tag k="ADDRESS" v="Lærumveien 32, 3074 SANDE I VESTFOLD" />
		<tag k="amenity" v="kindergarten" />
		<tag k="capacity" v="35" />
		<tag k="max_age" v="5" />
		<tag k="min_age" v="1" />
		<tag k="name" v="Læringsverkstedet Sande barnehage" />
		<tag k="no-barnehage:nsrid" v="995657813" />
		<tag k="operator" v="Læringsverkstedet Sande barnehage AS" />
		<tag k="operator:type" v="private" />
	</node>
	<node lat="59.50969" lon="10.19204" id="-3271">
		<tag k="ADDRESS" v="Hvittingfossveien 350, 3089 HOLMESTRAND" />
		<tag k="amenity" v="kindergarten" />
		<tag k="capacity" v="64" />
		<tag k="max_age" v="5" />
		<tag k="min_age" v="1" />
		<tag k="name" v="Møllerdammen naturbarnehage" />
		<tag k="no-barnehage:nsrid" v="991053298" />
		<tag k="operator" v="Møllerdammen naturbarnehage AS" />
		<tag k="operator:type" v="private" />
	</node>
	<node lat="59.50558" lon="10.25148" id="-3272">
		<tag k="ADDRESS" v="Tryms vei 20, 3089 HOLMESTRAND" />
		<tag k="amenity" v="kindergarten" />
		<tag k="capacity" v="19" />
		<tag k="contact:website" v="http://botnestua.barnehage.no/" />
		<tag k="max_age" v="5" />
		<tag k="min_age" v="1" />
		<tag k="name" v="Preg barnehager Botne" />
		<tag k="no-barnehage:nsrid" v="975185117" />
		<tag k="operator" v="Nlm-Barnehage Botnestua AS" />
		<tag k="operator:type" v="private" />
	</node>
	<node lat="59.49942" lon="10.25668" id="-3273">
		<tag k="ADDRESS" v="Gurannveien 3, 3089 HOLMESTRAND" />
		<tag k="amenity" v="kindergarten" />
		<tag k="capacity" v="28" />
		<tag k="contact:website" v="http://www.fredlybarnehage.nlm.no" />
		<tag k="max_age" v="5" />
		<tag k="min_age" v="1" />
		<tag k="name" v="Preg barnehager Fredly" />
		<tag k="no-barnehage:nsrid" v="873138882" />
		<tag k="operator" v="Nlm-Barnehage Fredly AS" />
		<tag k="operator:type" v="private" />
	</node>
	<node lat="59.56581" lon="10.26719" id="-3274">
		<tag k="ADDRESS" v="Willem Stibolts vei 2, 3077 SANDE I VESTFOLD" />
		<tag k="amenity" v="kindergarten" />
		<tag k="capacity" v="97" />
		<tag k="max_age" v="5" />
		<tag k="min_age" v="1" />
		<tag k="name" v="Nordre Jarlsberg barnehage" />
		<tag k="no-barnehage:nsrid" v="993239372" />
		<tag k="operator" v="Holmestrand kommune" />
		<tag k="operator:type" v="public" />
	</node>
	<node lat="59.53419" lon="10.34608" id="-3275">
		<tag k="ADDRESS" v="Vammenveien 2, 3077 SANDE I VESTFOLD" />
		<tag k="amenity" v="kindergarten" />
		<tag k="capacity" v="34" />
		<tag k="contact:website" v="http://vammenfrilufts.barnehage.no/" />
		<tag k="max_age" v="5" />
		<tag k="min_age" v="1" />
		<tag k="name" v="Vammen friluftsbarnehage" />
		<tag k="no-barnehage:nsrid" v="982454689" />
		<tag k="operator" v="Vammen friluftsbarnehage AS" />
		<tag k="operator:type" v="private" />
	</node>
	<node lat="59.65122" lon="10.23687" id="-3276">
		<tag k="ADDRESS" v="Kjeldåsgata 6, 3074 SANDE I VESTFOLD" />
		<tag k="amenity" v="kindergarten" />
		<tag k="capacity" v="89" />
		<tag k="max_age" v="5" />
		<tag k="min_age" v="1" />
		<tag k="name" v="Velle Kjeldås barnehage" />
		<tag k="no-barnehage:nsrid" v="973754769" />
		<tag k="operator" v="Velle Kjeldås barnehage AS" />
		<tag k="operator:type" v="private" />
	</node>
</osm>
