<?xml version="1.0" encoding="UTF-8"?>
<osm generator="osmapis" version="0.6">
	<node id="-280" lat="59.6597" lon="10.9976">
		<tag k="amenity" v="kindergarten" />
		<tag k="capacity" v="32" />
		<tag k="contact:email" v="kristin.bjelland@hobol.kommune.no" />
		<tag k="contact:phone" v="+47 69 92 39 00" />
		<tag k="doNotImportAddress" v="Symreveien 5 1825 TOMTER" />
		<tag k="max_age" v="5" />
		<tag k="min_age" v="1" />
		<tag k="name" v="Symrelunden barnehage" />
		<tag k="no-barnehage:nsrid" v="1018526" />
		<tag k="operator" v="Hobøl kommune" />
		<tag k="operator:type" v="public" />
	</node>
	<node id="-279" lat="59.5572" lon="10.8458">
		<tag k="amenity" v="kindergarten" />
		<tag k="capacity" v="38" />
		<tag k="contact:email" v="bodil.brodholt@hobol.kommune.no" />
		<tag k="contact:phone" v="+47 69924400" />
		<tag k="doNotImportAddress" v="Trollveien 14 1827 HOBØL" />
		<tag k="max_age" v="5" />
		<tag k="min_age" v="1" />
		<tag k="name" v="Ringvoll barnehage" />
		<tag k="no-barnehage:nsrid" v="1025480" />
		<tag k="operator" v="Hobøl kommune" />
		<tag k="operator:type" v="public" />
	</node>
	<node id="-278" lat="59.66493" lon="10.9978">
		<tag k="amenity" v="kindergarten" />
		<tag k="capacity" v="73" />
		<tag k="contact:email" v="dagligleder@nordreoyen.no" />
		<tag k="contact:phone" v="+47 69 92 33 50" />
		<tag k="doNotImportAddress" v="Kråkstadveien 21 1825 TOMTER" />
		<tag k="max_age" v="5" />
		<tag k="min_age" v="1" />
		<tag k="name" v="Nordre Øyen barnehage" />
		<tag k="no-barnehage:nsrid" v="1021258" />
		<tag k="operator" v="Soløy Eiendom AS" />
		<tag k="operator:type" v="private" />
	</node>
	<node id="-277" lat="59.6591" lon="10.99487">
		<tag k="amenity" v="kindergarten" />
		<tag k="capacity" v="14" />
		<tag k="contact:email" v="jt.gaaseby@online.no" />
		<tag k="contact:phone" v="+47 069922228" />
		<tag k="doNotImportAddress" v="Tolvshusv 14 1825 TOMTER" />
		<tag k="max_age" v="5" />
		<tag k="min_age" v="1" />
		<tag k="name" v="Knoll og Tott barnehage Jørn-thomas Gaaseby" />
		<tag k="no-barnehage:nsrid" v="1020236" />
		<tag k="operator" v="Knoll og Tott barnehage Jørn-Thomas Gaaseby" />
		<tag k="operator:type" v="private" />
	</node>
	<node id="-276" lat="59.62423" lon="11.03275">
		<tag k="amenity" v="kindergarten" />
		<tag k="capacity" v="29" />
		<tag k="contact:email" v="knapstad@laringsverkstedet.no" />
		<tag k="contact:phone" v="+47 69 92 18 40" />
		<tag k="doNotImportAddress" v="Knapstadveien 17 1823 KNAPSTAD" />
		<tag k="max_age" v="5" />
		<tag k="min_age" v="1" />
		<tag k="name" v="Knapstad barnehage" />
		<tag k="no-barnehage:nsrid" v="1020237" />
		<tag k="operator" v="Knapstad barnehage AS" />
		<tag k="operator:type" v="private" />
	</node>
	<node id="-275" lat="59.6591" lon="10.99487">
		<tag k="amenity" v="kindergarten" />
		<tag k="capacity" v="64" />
		<tag k="contact:email" v="dl.brodholt@bhg.no" />
		<tag k="doNotImportAddress" v="Tolfshusveien 53 1825 TOMTER" />
		<tag k="max_age" v="5" />
		<tag k="min_age" v="1" />
		<tag k="name" v="Brødholt FUS barnehage" />
		<tag k="no-barnehage:nsrid" v="1022017" />
		<tag k="operator" v="Brødholt Fus barnehage AS" />
		<tag k="operator:type" v="private" />
	</node>
	<node id="-274" lat="59.6268" lon="11.0233">
		<tag k="amenity" v="kindergarten" />
		<tag k="capacity" v="107" />
		<tag k="contact:email" v="heidi.lovdal@hobol.kommune.no" />
		<tag k="contact:phone" v="+47 69 68 18 90" />
		<tag k="doNotImportAddress" v="Haugenveien 5 1823 KNAPSTAD" />
		<tag k="max_age" v="5" />
		<tag k="min_age" v="1" />
		<tag k="name" v="Bekkeblomen barnehage" />
		<tag k="no-barnehage:nsrid" v="1015538" />
		<tag k="operator" v="Hobøl kommune" />
		<tag k="operator:type" v="public" />
	</node>
</osm>
