<?xml version="1.0" encoding="UTF-8"?>
<osm generator="osmapis" version="0.6">
	<node id="-288" lat="59.6591" lon="10.99487">
		<tag k="amenity" v="kindergarten" />
		<tag k="capacity" v="17" />
		<tag k="contact:phone" v="069922228" />
		<tag k="max_age" v="5" />
		<tag k="min_age" v="1" />
		<tag k="name" v="Knoll og Tott barnehage Jørn-Thomas Gaaseby" />
		<tag k="no-barnehage:nsrid" v="1020236" />
		<tag k="operator" v="Knoll og Tott barnehage Jørn-Thomas Gaaseby" />
		<tag k="operator:type" v="private" />
		<tag k="start_date" v="1994-08-01" />
	</node>
	<node id="-287" lat="59.62423" lon="11.03275">
		<tag k="amenity" v="kindergarten" />
		<tag k="capacity" v="29" />
		<tag k="contact:phone" v="69 92 18 40" />
		<tag k="max_age" v="5" />
		<tag k="min_age" v="1" />
		<tag k="name" v="Knapstad barnehage" />
		<tag k="no-barnehage:nsrid" v="1020237" />
		<tag k="operator" v="Knapstad barnehage AS" />
		<tag k="operator:type" v="private" />
		<tag k="start_date" v="1992-11-19" />
	</node>
	<node id="-286" lat="59.6268" lon="11.0233">
		<tag k="amenity" v="kindergarten" />
		<tag k="capacity" v="94" />
		<tag k="contact:email" v="heidi.lovdal@hobol.kommune.no" />
		<tag k="contact:phone" v="69 68 18 90" />
		<tag k="max_age" v="5" />
		<tag k="min_age" v="1" />
		<tag k="name" v="Bekkeblomen barnehage" />
		<tag k="no-barnehage:nsrid" v="1015538" />
		<tag k="operator" v="Hobøl kommune" />
		<tag k="operator:type" v="public" />
		<tag k="start_date" v="1978-08-26" />
	</node>
	<node id="-291" lat="59.6597" lon="10.9976">
		<tag k="amenity" v="kindergarten" />
		<tag k="capacity" v="32" />
		<tag k="contact:email" v="kristin.bjelland@hobol.kommune.no" />
		<tag k="contact:phone" v="69 92 39 00" />
		<tag k="max_age" v="5" />
		<tag k="min_age" v="1" />
		<tag k="name" v="Symrelunden barnehage" />
		<tag k="no-barnehage:nsrid" v="1018526" />
		<tag k="operator" v="Hobøl kommune" />
		<tag k="operator:type" v="public" />
		<tag k="start_date" v="2008-10-01" />
	</node>
	<node id="-290" lat="59.5572" lon="10.8458">
		<tag k="amenity" v="kindergarten" />
		<tag k="capacity" v="43" />
		<tag k="contact:email" v="bodil.lilleng@hobol.kommune.no" />
		<tag k="contact:phone" v="69924400" />
		<tag k="max_age" v="5" />
		<tag k="min_age" v="1" />
		<tag k="name" v="Ringvoll barnehage" />
		<tag k="no-barnehage:nsrid" v="1025480" />
		<tag k="operator" v="Hobøl kommune" />
		<tag k="operator:type" v="public" />
		<tag k="start_date" v="1988-04-01" />
	</node>
	<node id="-289" lat="59.66493" lon="10.9978">
		<tag k="amenity" v="kindergarten" />
		<tag k="capacity" v="81" />
		<tag k="contact:email" v="dagligleder@nordreoyen.no" />
		<tag k="contact:phone" v="69 92 33 50" />
		<tag k="max_age" v="5" />
		<tag k="min_age" v="1" />
		<tag k="name" v="Nordre Øyen barnehage" />
		<tag k="no-barnehage:nsrid" v="1021258" />
		<tag k="operator" v="Soløy Eiendom AS" />
		<tag k="operator:type" v="private" />
		<tag k="start_date" v="2005-05-24" />
	</node>
</osm>
