<?xml version="1.0" encoding="UTF-8"?>
<osm version="0.6" generator="osmapis">
	<node lat="0.0" lon="0.0" id="-5415">
		<tag k="ADDRESS" v="Andslimoen, 9325 BARDUFOSS" />
		<tag k="amenity" v="kindergarten" />
		<tag k="capacity" v="76" />
		<tag k="max_age" v="5" />
		<tag k="min_age" v="1" />
		<tag k="name" v="Andslimoen barnehage" />
		<tag k="no-barnehage:nsrid" v="975315436" />
		<tag k="operator" v="Målselv kommune" />
		<tag k="operator:type" v="public" />
	</node>
	<node lat="69.02799" lon="19.29708" id="-5416">
		<tag k="ADDRESS" v="Takvassveien 46, 9334 ØVERBYGD" />
		<tag k="amenity" v="kindergarten" />
		<tag k="capacity" v="32" />
		<tag k="max_age" v="5" />
		<tag k="min_age" v="1" />
		<tag k="name" v="Bjørkeng oppvekstsenter avd. barnehage" />
		<tag k="no-barnehage:nsrid" v="988487465" />
		<tag k="operator" v="Målselv kommune" />
		<tag k="operator:type" v="public" />
	</node>
	<node lat="0.0" lon="0.0" id="-5417">
		<tag k="ADDRESS" v="Livegen, 9325 BARDUFOSS" />
		<tag k="amenity" v="kindergarten" />
		<tag k="capacity" v="82" />
		<tag k="max_age" v="5" />
		<tag k="min_age" v="1" />
		<tag k="name" v="Heggelia/noraførr barnehage" />
		<tag k="no-barnehage:nsrid" v="975318176" />
		<tag k="operator" v="Målselv kommune" />
		<tag k="operator:type" v="public" />
	</node>
	<node lat="0.0" lon="0.0" id="-5418">
		<tag k="ADDRESS" v="Karlstad, 9322 KARLSTAD" />
		<tag k="amenity" v="kindergarten" />
		<tag k="capacity" v="20" />
		<tag k="max_age" v="5" />
		<tag k="min_age" v="1" />
		<tag k="name" v="Karlstad oppvekstsenter avd. barnehage" />
		<tag k="no-barnehage:nsrid" v="975324281" />
		<tag k="operator" v="Målselv kommune" />
		<tag k="operator:type" v="public" />
	</node>
	<node lat="69.0225" lon="18.85331" id="-5419">
		<tag k="ADDRESS" v="Mellombygdveien 1842, 9336 RUNDHAUG" />
		<tag k="amenity" v="kindergarten" />
		<tag k="capacity" v="19" />
		<tag k="contact:website" v="http://minskole.no/bakkehaug" />
		<tag k="max_age" v="5" />
		<tag k="min_age" v="1" />
		<tag k="name" v="Mellembygd kultur og oppvekstsenter avd. barnehage" />
		<tag k="no-barnehage:nsrid" v="975268071" />
		<tag k="operator" v="Målselv kommune" />
		<tag k="operator:type" v="public" />
	</node>
	<node lat="0.0" lon="0.0" id="-5420">
		<tag k="ADDRESS" v=", 9321 MOEN" />
		<tag k="amenity" v="kindergarten" />
		<tag k="capacity" v="61" />
		<tag k="max_age" v="5" />
		<tag k="min_age" v="1" />
		<tag k="name" v="Olsborg barnehage" />
		<tag k="no-barnehage:nsrid" v="875313622" />
		<tag k="operator" v="Målselv kommune" />
		<tag k="operator:type" v="public" />
	</node>
</osm>
