<?xml version="1.0" encoding="UTF-8"?>
<osm generator="osmapis" version="0.6">
	<node id="-3964" lat="61.4181" lon="6.15876">
		<tag k="amenity" v="kindergarten" />
		<tag k="capacity" v="55" />
		<tag k="max_age" v="5" />
		<tag k="min_age" v="1" />
		<tag k="name" v="Sunde barnehage" />
		<tag k="no-barnehage:nsrid" v="1013086" />
		<tag k="operator" v="Førde kommune" />
		<tag k="operator:type" v="public" />
	</node>
	<node id="-3963" lat="61.4603" lon="5.88751">
		<tag k="amenity" v="kindergarten" />
		<tag k="capacity" v="49" />
		<tag k="max_age" v="5" />
		<tag k="min_age" v="1" />
		<tag k="name" v="Solvang barnehage" />
		<tag k="no-barnehage:nsrid" v="1016771" />
		<tag k="operator" v="Sunnfjord Folkehøgskule" />
		<tag k="operator:type" v="private" />
	</node>
	<node id="-3962" lat="61.4555" lon="5.86853">
		<tag k="amenity" v="kindergarten" />
		<tag k="capacity" v="43" />
		<tag k="max_age" v="5" />
		<tag k="min_age" v="1" />
		<tag k="name" v="Solsida barnehage avd. Toene" />
		<tag k="no-barnehage:nsrid" v="1016849" />
		<tag k="operator" v="Førde kommune" />
		<tag k="operator:type" v="public" />
	</node>
	<node id="-3961" lat="61.4638" lon="5.84574">
		<tag k="amenity" v="kindergarten" />
		<tag k="capacity" v="38" />
		<tag k="max_age" v="5" />
		<tag k="min_age" v="1" />
		<tag k="name" v="Solsida barnehage avd. Haugum" />
		<tag k="no-barnehage:nsrid" v="1018158" />
		<tag k="operator" v="Førde kommune" />
		<tag k="operator:type" v="public" />
	</node>
	<node id="-3960" lat="61.4516" lon="5.8258">
		<tag k="amenity" v="kindergarten" />
		<tag k="capacity" v="35" />
		<tag k="max_age" v="5" />
		<tag k="min_age" v="1" />
		<tag k="name" v="Slåttebakkane barnehage" />
		<tag k="no-barnehage:nsrid" v="1018159" />
		<tag k="operator" v="Førde kommune" />
		<tag k="operator:type" v="public" />
	</node>
	<node id="-3959" lat="61.45435" lon="5.869383">
		<tag k="amenity" v="kindergarten" />
		<tag k="capacity" v="45" />
		<tag k="contact:website" v="http://www.prestebakken.no" />
		<tag k="max_age" v="5" />
		<tag k="min_age" v="1" />
		<tag k="name" v="Prestebakken barnehage" />
		<tag k="no-barnehage:nsrid" v="1019963" />
		<tag k="operator" v="Småbarnsforeldrenes barnehage Førde Sa" />
		<tag k="operator:type" v="private" />
	</node>
	<node id="-3958" lat="61.45184" lon="5.859943">
		<tag k="amenity" v="kindergarten" />
		<tag k="capacity" v="81" />
		<tag k="contact:website" v="http://www.narleik.no" />
		<tag k="max_age" v="5" />
		<tag k="min_age" v="1" />
		<tag k="name" v="Nærleiken barnehage" />
		<tag k="no-barnehage:nsrid" v="1020247" />
		<tag k="operator" v="Førde kommune" />
		<tag k="operator:type" v="public" />
	</node>
	<node id="-3957" lat="61.4536" lon="5.84967">
		<tag k="amenity" v="kindergarten" />
		<tag k="capacity" v="5" />
		<tag k="max_age" v="5" />
		<tag k="min_age" v="1" />
		<tag k="name" v="Karstad Skule avd. barnehage" />
		<tag k="no-barnehage:nsrid" v="1017232" />
		<tag k="operator" v="Førde kommune" />
		<tag k="operator:type" v="public" />
	</node>
	<node id="-3956" lat="61.4181" lon="6.15876">
		<tag k="amenity" v="kindergarten" />
		<tag k="capacity" v="24" />
		<tag k="max_age" v="5" />
		<tag k="min_age" v="1" />
		<tag k="name" v="Holsen Skule og barnehage avd. barnehage" />
		<tag k="no-barnehage:nsrid" v="1018524" />
		<tag k="operator" v="Førde kommune" />
		<tag k="operator:type" v="public" />
	</node>
	<node id="-3955" lat="61.4582" lon="5.89152">
		<tag k="amenity" v="kindergarten" />
		<tag k="capacity" v="40" />
		<tag k="max_age" v="5" />
		<tag k="min_age" v="1" />
		<tag k="name" v="Hatlehaugen barnehage" />
		<tag k="no-barnehage:nsrid" v="1013964" />
		<tag k="operator" v="Førde kommune" />
		<tag k="operator:type" v="public" />
	</node>
	<node id="-3954" lat="61.4501" lon="5.83385">
		<tag k="amenity" v="kindergarten" />
		<tag k="capacity" v="54" />
		<tag k="max_age" v="5" />
		<tag k="min_age" v="1" />
		<tag k="name" v="Halbrend barnehage" />
		<tag k="no-barnehage:nsrid" v="1018157" />
		<tag k="operator" v="Førde kommune" />
		<tag k="operator:type" v="public" />
	</node>
</osm>
