<?xml version="1.0" encoding="UTF-8"?>
<osm generator="osmapis" version="0.6">
	<node id="-4365" lat="61.4181" lon="6.15876">
		<tag k="amenity" v="kindergarten" />
		<tag k="capacity" v="9" />
		<tag k="contact:email" v="aase.leknes@forde.kommune.no" />
		<tag k="max_age" v="2" />
		<tag k="min_age" v="1" />
		<tag k="name" v="Førde Familiebarnehage Avd Slåttebøen 33" />
		<tag k="no-barnehage:nsrid" v="1017635" />
		<tag k="operator" v="Førde kommune" />
		<tag k="operator:type" v="public" />
		<tag k="start_date" v="2006-11-01" />
	</node>
	<node id="-4364" lat="61.4494" lon="5.84155">
		<tag k="amenity" v="kindergarten" />
		<tag k="capacity" v="10" />
		<tag k="contact:email" v="aase.leknes@forde.kommune.no" />
		<tag k="max_age" v="5" />
		<tag k="min_age" v="1" />
		<tag k="name" v="Førde Familiebarnehage Avd Gamlestøylsvegen 17" />
		<tag k="no-barnehage:nsrid" v="1015852" />
		<tag k="operator" v="Førde kommune" />
		<tag k="operator:type" v="public" />
		<tag k="start_date" v="1996-08-01" />
	</node>
</osm>
