<?xml version="1.0" encoding="UTF-8"?>
<osm generator="osmapis" version="0.6">
	<node id="-4441" lat="61.4503" lon="5.8419">
		<tag k="amenity" v="kindergarten" />
		<tag k="capacity" v="62" />
		<tag k="contact:email" v="jorunn.kleiven@forde.kommune.no" />
		<tag k="contact:phone" v="+47 904 77 660" />
		<tag k="max_age" v="5" />
		<tag k="min_age" v="1" />
		<tag k="name" v="Ytre Hafstad barnehage" />
		<tag k="no-barnehage:nsrid" v="1014183" />
		<tag k="operator" v="Førde kommune" />
		<tag k="operator:type" v="public" />
		<tag k="start_date" v="2010-06-15" />
	</node>
	<node id="-4440" lat="61.4552" lon="5.90258">
		<tag k="amenity" v="kindergarten" />
		<tag k="capacity" v="54" />
		<tag k="contact:email" v="sissel.elin.ardal@forde.kommune.no" />
		<tag k="contact:phone" v="+47 57 82 04 58" />
		<tag k="max_age" v="5" />
		<tag k="min_age" v="1" />
		<tag k="name" v="Vieåsen barnehage" />
		<tag k="no-barnehage:nsrid" v="1015564" />
		<tag k="operator" v="Førde kommune" />
		<tag k="operator:type" v="public" />
		<tag k="start_date" v="1988-04-01" />
	</node>
	<node id="-4439" lat="61.45388" lon="5.90016">
		<tag k="amenity" v="kindergarten" />
		<tag k="capacity" v="57" />
		<tag k="contact:email" v="post@vieboen.no" />
		<tag k="contact:phone" v="+47 57 82 10 50" />
		<tag k="contact:website" v="http://www.vieboen.barnehage.forde.no" />
		<tag k="max_age" v="5" />
		<tag k="min_age" v="1" />
		<tag k="name" v="Viebøen barnehage Sa" />
		<tag k="no-barnehage:nsrid" v="1021193" />
		<tag k="operator" v="Viebøen barnehage Sa" />
		<tag k="operator:type" v="private" />
		<tag k="start_date" v="2005-01-11" />
	</node>
	<node id="-4438" lat="61.4584" lon="5.89058">
		<tag k="amenity" v="kindergarten" />
		<tag k="capacity" v="82" />
		<tag k="contact:email" v="siv.graberg@forde.kommune.no" />
		<tag k="contact:phone" v="+47 57 72 44 48" />
		<tag k="max_age" v="5" />
		<tag k="min_age" v="1" />
		<tag k="name" v="Vie barnehage" />
		<tag k="no-barnehage:nsrid" v="1018160" />
		<tag k="operator" v="Førde kommune" />
		<tag k="operator:type" v="public" />
		<tag k="start_date" v="1989-01-01" />
	</node>
	<node id="-4437" lat="61.4602" lon="5.8972">
		<tag k="amenity" v="kindergarten" />
		<tag k="capacity" v="51" />
		<tag k="contact:email" v="er@forde.kommune.no" />
		<tag k="contact:phone" v="+47 57 82 04 25" />
		<tag k="max_age" v="5" />
		<tag k="min_age" v="1" />
		<tag k="name" v="Tusenfryd barnehage" />
		<tag k="no-barnehage:nsrid" v="1025313" />
		<tag k="operator" v="Førde kommune" />
		<tag k="operator:type" v="public" />
		<tag k="start_date" v="1988-01-01" />
	</node>
	<node id="-4436" lat="61.4181" lon="6.15876">
		<tag k="amenity" v="kindergarten" />
		<tag k="capacity" v="55" />
		<tag k="contact:email" v="aase.leknes@forde.kommune.no" />
		<tag k="contact:phone" v="+47 57 82 87 30" />
		<tag k="max_age" v="5" />
		<tag k="min_age" v="1" />
		<tag k="name" v="Sunde barnehage" />
		<tag k="no-barnehage:nsrid" v="1013086" />
		<tag k="operator" v="Førde kommune" />
		<tag k="operator:type" v="public" />
		<tag k="start_date" v="2004-08-01" />
	</node>
	<node id="-4435" lat="61.4603" lon="5.88751">
		<tag k="amenity" v="kindergarten" />
		<tag k="capacity" v="51" />
		<tag k="contact:email" v="solvang.barnehage@gmail.com" />
		<tag k="max_age" v="5" />
		<tag k="min_age" v="1" />
		<tag k="name" v="Solvang barnehage" />
		<tag k="no-barnehage:nsrid" v="1016771" />
		<tag k="operator" v="Sunnfjord Folkehøgskule" />
		<tag k="operator:type" v="private" />
		<tag k="start_date" v="1982-01-01" />
	</node>
	<node id="-4434" lat="61.4555" lon="5.86853">
		<tag k="amenity" v="kindergarten" />
		<tag k="capacity" v="33" />
		<tag k="contact:email" v="elin.hagen@forde.kommune.no" />
		<tag k="contact:phone" v="+47 57 72 44 42" />
		<tag k="max_age" v="5" />
		<tag k="min_age" v="1" />
		<tag k="name" v="Solsida barnehage Avd Toene" />
		<tag k="no-barnehage:nsrid" v="1016849" />
		<tag k="operator" v="Førde kommune" />
		<tag k="operator:type" v="public" />
		<tag k="start_date" v="1982-01-01" />
	</node>
	<node id="-4433" lat="61.4638" lon="5.84574">
		<tag k="amenity" v="kindergarten" />
		<tag k="capacity" v="40" />
		<tag k="contact:email" v="elin.hagen@forde.kommune.no" />
		<tag k="contact:phone" v="+47 57 72 44 40" />
		<tag k="max_age" v="5" />
		<tag k="min_age" v="1" />
		<tag k="name" v="Solsida barnehage Avd Haugum" />
		<tag k="no-barnehage:nsrid" v="1018158" />
		<tag k="operator" v="Førde kommune" />
		<tag k="operator:type" v="public" />
		<tag k="start_date" v="1989-01-01" />
	</node>
	<node id="-4432" lat="61.4516" lon="5.8258">
		<tag k="amenity" v="kindergarten" />
		<tag k="capacity" v="37" />
		<tag k="contact:email" v="gudbjorg.gunnarsdottir@forde.kommune.no" />
		<tag k="contact:phone" v="+47 57 72 44 45" />
		<tag k="max_age" v="5" />
		<tag k="min_age" v="1" />
		<tag k="name" v="Slåttebakkane barnehage" />
		<tag k="no-barnehage:nsrid" v="1018159" />
		<tag k="operator" v="Førde kommune" />
		<tag k="operator:type" v="public" />
		<tag k="start_date" v="1989-01-01" />
	</node>
	<node id="-4431" lat="61.45435" lon="5.869383">
		<tag k="amenity" v="kindergarten" />
		<tag k="capacity" v="47" />
		<tag k="contact:email" v="styrar@prestebakken.no" />
		<tag k="contact:phone" v="+47 57 82 04 22" />
		<tag k="contact:website" v="http://www.prestebakken.no" />
		<tag k="max_age" v="5" />
		<tag k="min_age" v="1" />
		<tag k="name" v="Prestebakken barnehage" />
		<tag k="no-barnehage:nsrid" v="1019963" />
		<tag k="operator" v="Småbarnsforeldrenes barnehage Førde Sa" />
		<tag k="operator:type" v="private" />
		<tag k="start_date" v="1991-01-01" />
	</node>
	<node id="-4430" lat="61.45184" lon="5.859943">
		<tag k="amenity" v="kindergarten" />
		<tag k="capacity" v="81" />
		<tag k="contact:email" v="tone@narleik.no" />
		<tag k="contact:phone" v="+47 57 72 00 10" />
		<tag k="contact:website" v="http://www.narleik.no" />
		<tag k="max_age" v="5" />
		<tag k="min_age" v="1" />
		<tag k="name" v="Nærleiken barnehage" />
		<tag k="no-barnehage:nsrid" v="1020247" />
		<tag k="operator" v="Kyrkjevegen barnehage AS" />
		<tag k="operator:type" v="private" />
		<tag k="start_date" v="1989-01-02" />
	</node>
	<node id="-4429" lat="61.4536" lon="5.84967">
		<tag k="amenity" v="kindergarten" />
		<tag k="capacity" v="8" />
		<tag k="contact:email" v="britt.nesberg.solheim@forde.kommune.no" />
		<tag k="max_age" v="5" />
		<tag k="min_age" v="1" />
		<tag k="name" v="Karstad Skule Avdeling Barnehage" />
		<tag k="no-barnehage:nsrid" v="1017232" />
		<tag k="operator" v="Førde kommune" />
		<tag k="operator:type" v="public" />
		<tag k="start_date" v="2006-08-01" />
	</node>
	<node id="-4428" lat="61.4181" lon="6.15876">
		<tag k="amenity" v="kindergarten" />
		<tag k="capacity" v="30" />
		<tag k="contact:email" v="sbr@forde.kommune.no" />
		<tag k="max_age" v="5" />
		<tag k="min_age" v="1" />
		<tag k="name" v="Holsen Skule og barnehage Avd Barnehage" />
		<tag k="no-barnehage:nsrid" v="1018524" />
		<tag k="operator" v="Førde kommune" />
		<tag k="operator:type" v="public" />
		<tag k="start_date" v="2008-01-01" />
	</node>
	<node id="-4427" lat="61.4582" lon="5.89152">
		<tag k="amenity" v="kindergarten" />
		<tag k="capacity" v="40" />
		<tag k="contact:email" v="anita.bolstad.indrebo@forde.kommune.no" />
		<tag k="max_age" v="5" />
		<tag k="min_age" v="1" />
		<tag k="name" v="Hatlehaugen barnehage" />
		<tag k="no-barnehage:nsrid" v="1013964" />
		<tag k="operator" v="Førde kommune" />
		<tag k="operator:type" v="public" />
		<tag k="start_date" v="1991-01-01" />
	</node>
	<node id="-4426" lat="61.4501" lon="5.83385">
		<tag k="amenity" v="kindergarten" />
		<tag k="capacity" v="54" />
		<tag k="contact:email" v="sho@forde.kommune.no" />
		<tag k="contact:phone" v="+47 57 72 44 36" />
		<tag k="max_age" v="5" />
		<tag k="min_age" v="1" />
		<tag k="name" v="Halbrend barnehage" />
		<tag k="no-barnehage:nsrid" v="1018157" />
		<tag k="operator" v="Førde kommune" />
		<tag k="operator:type" v="public" />
		<tag k="start_date" v="1989-01-01" />
	</node>
	<node id="-4425" lat="61.4181" lon="6.15876">
		<tag k="amenity" v="kindergarten" />
		<tag k="capacity" v="9" />
		<tag k="contact:email" v="aase.leknes@forde.kommune.no" />
		<tag k="max_age" v="5" />
		<tag k="min_age" v="1" />
		<tag k="name" v="Førde Familiebarnehage Avd Slåttebøen 33" />
		<tag k="no-barnehage:nsrid" v="1017635" />
		<tag k="operator" v="Førde kommune" />
		<tag k="operator:type" v="public" />
		<tag k="start_date" v="2006-11-01" />
	</node>
	<node id="-4424" lat="61.4494" lon="5.84155">
		<tag k="amenity" v="kindergarten" />
		<tag k="contact:email" v="aase.leknes@forde.kommune.no" />
		<tag k="max_age" v="5" />
		<tag k="min_age" v="1" />
		<tag k="name" v="Førde Familiebarnehage Avd Gamlestøylsvegen 17" />
		<tag k="no-barnehage:nsrid" v="1015852" />
		<tag k="operator" v="Førde kommune" />
		<tag k="operator:type" v="public" />
		<tag k="start_date" v="1996-08-01" />
	</node>
</osm>
