<?xml version="1.0" encoding="UTF-8"?>
<osm generator="osmapis" version="0.6">
	<node id="-231" lat="59.5525" lon="11.3439">
		<tag k="amenity" v="kindergarten" />
		<tag k="capacity" v="58" />
		<tag k="doNotImportAddress" v="Kirkåsveien 1b 1850 MYSEN" />
		<tag k="max_age" v="5" />
		<tag k="min_age" v="1" />
		<tag k="name" v="Symra barnehage" />
		<tag k="no-barnehage:nsrid" v="1012753" />
		<tag k="operator" v="Eidsberg kommune" />
		<tag k="operator:type" v="public" />
	</node>
	<node id="-230" lat="59.5489" lon="11.3577">
		<tag k="amenity" v="kindergarten" />
		<tag k="capacity" v="102" />
		<tag k="doNotImportAddress" v="Susebakkeveien 12 1850 MYSEN" />
		<tag k="max_age" v="5" />
		<tag k="min_age" v="1" />
		<tag k="name" v="Susebakke barnehage" />
		<tag k="no-barnehage:nsrid" v="1013428" />
		<tag k="operator" v="Eidsberg kommune" />
		<tag k="operator:type" v="public" />
	</node>
	<node id="-229" lat="59.50762" lon="11.35616">
		<tag k="amenity" v="kindergarten" />
		<tag k="capacity" v="75" />
		<tag k="doNotImportAddress" v="Trømborg Menighetshus Trømborgveien 502 1850 MYSEN" />
		<tag k="max_age" v="5" />
		<tag k="min_age" v="1" />
		<tag k="name" v="Menighetens barnehage" />
		<tag k="no-barnehage:nsrid" v="1020484" />
		<tag k="operator" v="Menighetens barnehage" />
		<tag k="operator:type" v="private" />
	</node>
	<node id="-228" lat="59.5436" lon="11.39846">
		<tag k="amenity" v="kindergarten" />
		<tag k="capacity" v="47" />
		<tag k="contact:website" v="http://www.linneabarnehage.no" />
		<tag k="doNotImportAddress" v="Faugliveien 157 1850 MYSEN" />
		<tag k="max_age" v="5" />
		<tag k="min_age" v="1" />
		<tag k="name" v="Linnéa natur og gårdsbarnehage Marita Larsen Klund" />
		<tag k="no-barnehage:nsrid" v="1021930" />
		<tag k="operator" v="LinnÉa Natur og Gårdsbarnehage Marita Larsen Klund" />
		<tag k="operator:type" v="private" />
	</node>
	<node id="-227" lat="59.55521" lon="11.34124">
		<tag k="amenity" v="kindergarten" />
		<tag k="capacity" v="94" />
		<tag k="contact:website" v="http://opsahl.espira.no/" />
		<tag k="doNotImportAddress" v="Opsahlveien 41 1850 MYSEN" />
		<tag k="max_age" v="5" />
		<tag k="min_age" v="1" />
		<tag k="name" v="Espira Opsahl barnehage" />
		<tag k="no-barnehage:nsrid" v="1020937" />
		<tag k="operator" v="Espira Opsahl AS" />
		<tag k="operator:type" v="private" />
	</node>
	<node id="-226" lat="59.56674" lon="11.33642">
		<tag k="amenity" v="kindergarten" />
		<tag k="capacity" v="79" />
		<tag k="contact:website" v="http://www.espira.no" />
		<tag k="doNotImportAddress" v="Vardeveien 72 1850 MYSEN" />
		<tag k="max_age" v="5" />
		<tag k="min_age" v="1" />
		<tag k="name" v="Espira Høytorp Fort barnehage" />
		<tag k="no-barnehage:nsrid" v="1021316" />
		<tag k="operator" v="Espira Høytorp Fort AS" />
		<tag k="operator:type" v="private" />
	</node>
	<node id="-225" lat="59.5723" lon="11.2849">
		<tag k="amenity" v="kindergarten" />
		<tag k="capacity" v="79" />
		<tag k="doNotImportAddress" v="Edwin Ruuds Vei 4 1850 MYSEN" />
		<tag k="max_age" v="5" />
		<tag k="min_age" v="1" />
		<tag k="name" v="Edwin Ruuds barnehage" />
		<tag k="no-barnehage:nsrid" v="1012752" />
		<tag k="operator" v="Eidsberg kommune" />
		<tag k="operator:type" v="public" />
	</node>
</osm>
