<?xml version="1.0" encoding="UTF-8"?>
<osm generator="osmapis" version="0.6">
	<node id="-242" lat="59.5525" lon="11.3439">
		<tag k="amenity" v="kindergarten" />
		<tag k="capacity" v="56" />
		<tag k="contact:email" v="symra.bhg@eidsberg.kommune.no" />
		<tag k="max_age" v="5" />
		<tag k="min_age" v="1" />
		<tag k="name" v="Symra barnehage" />
		<tag k="no-barnehage:nsrid" v="1012753" />
		<tag k="operator" v="Eidsberg kommune" />
		<tag k="operator:type" v="public" />
		<tag k="start_date" v="1989-01-02" />
	</node>
	<node id="-241" lat="59.5489" lon="11.3577">
		<tag k="amenity" v="kindergarten" />
		<tag k="capacity" v="105" />
		<tag k="contact:email" v="Ingunn.Tveten@eidsberg.kommune.no" />
		<tag k="contact:phone" v="+47 69847299" />
		<tag k="max_age" v="5" />
		<tag k="min_age" v="1" />
		<tag k="name" v="Susebakke barnehage" />
		<tag k="no-barnehage:nsrid" v="1013428" />
		<tag k="operator" v="Eidsberg kommune" />
		<tag k="operator:type" v="public" />
		<tag k="start_date" v="2007-10-15" />
	</node>
	<node id="-240" lat="59.50762" lon="11.35616">
		<tag k="amenity" v="kindergarten" />
		<tag k="capacity" v="77" />
		<tag k="contact:email" v="post@menighetensbarnehage.no" />
		<tag k="contact:phone" v="+47 69 89 73 25" />
		<tag k="max_age" v="5" />
		<tag k="min_age" v="1" />
		<tag k="name" v="Menighetens barnehage" />
		<tag k="no-barnehage:nsrid" v="1020484" />
		<tag k="operator" v="Menighetens barnehage" />
		<tag k="operator:type" v="private" />
		<tag k="start_date" v="1997-08-01" />
	</node>
	<node id="-239" lat="59.5436" lon="11.39846">
		<tag k="amenity" v="kindergarten" />
		<tag k="capacity" v="50" />
		<tag k="contact:email" v="post@linneabarnehage.no" />
		<tag k="contact:phone" v="+47 95942979" />
		<tag k="contact:website" v="http://www.linneabarnehage.no" />
		<tag k="max_age" v="5" />
		<tag k="min_age" v="1" />
		<tag k="name" v="LinnÉa Natur og Gårdsbarnehage Marita Larsen Klund" />
		<tag k="no-barnehage:nsrid" v="1021930" />
		<tag k="operator" v="LinnÉa Natur og Gårdsbarnehage Marita Larsen Klund" />
		<tag k="operator:type" v="private" />
		<tag k="start_date" v="2009-03-01" />
	</node>
	<node id="-238" lat="59.55521" lon="11.34124">
		<tag k="amenity" v="kindergarten" />
		<tag k="capacity" v="96" />
		<tag k="contact:email" v="styrer@opsahl.espira.no" />
		<tag k="contact:phone" v="+47 52 84 50 20" />
		<tag k="contact:website" v="http://www.espira.no" />
		<tag k="max_age" v="5" />
		<tag k="min_age" v="1" />
		<tag k="name" v="Espira Opsahl barnehage" />
		<tag k="no-barnehage:nsrid" v="1020937" />
		<tag k="operator" v="Espira Opsahl AS" />
		<tag k="operator:type" v="private" />
		<tag k="start_date" v="2003-07-17" />
	</node>
	<node id="-237" lat="59.56674" lon="11.33642">
		<tag k="amenity" v="kindergarten" />
		<tag k="capacity" v="84" />
		<tag k="contact:email" v="styrer@hoytorpfort.espira.no" />
		<tag k="contact:phone" v="+47 52 84 50 20" />
		<tag k="contact:website" v="http://www.espira.no" />
		<tag k="max_age" v="5" />
		<tag k="min_age" v="1" />
		<tag k="name" v="Espira Høytorp Fort barnehage" />
		<tag k="no-barnehage:nsrid" v="1021316" />
		<tag k="operator" v="Espira Høytorp Fort AS" />
		<tag k="operator:type" v="private" />
		<tag k="start_date" v="2005-10-05" />
	</node>
	<node id="-236" lat="59.5511" lon="11.3301">
		<tag k="amenity" v="kindergarten" />
		<tag k="contact:email" v="anne.grethe.slorbakk@eidsberg.kommune.no" />
		<tag k="name" v="Eidsberg kommune Åpen barnehage" />
		<tag k="no-barnehage:nsrid" v="1018547" />
		<tag k="operator" v="Eidsberg kommune" />
		<tag k="operator:type" v="public" />
		<tag k="start_date" v="2008-12-01" />
	</node>
	<node id="-235" lat="59.5723" lon="11.2849">
		<tag k="amenity" v="kindergarten" />
		<tag k="capacity" v="72" />
		<tag k="contact:email" v="aase.klevberg@eidsberg.kommune.no" />
		<tag k="max_age" v="5" />
		<tag k="min_age" v="1" />
		<tag k="name" v="Edwin Ruuds barnehage" />
		<tag k="no-barnehage:nsrid" v="1012752" />
		<tag k="operator" v="Eidsberg kommune" />
		<tag k="operator:type" v="public" />
		<tag k="start_date" v="1976-01-01" />
	</node>
</osm>
