<?xml version="1.0" encoding="UTF-8"?>
<osm generator="osmapis" version="0.6">
	<node id="-128" lat="58.17373" lon="7.8312">
		<tag k="ADDRESS" v="Hortemo Gård, 4645 NODELAND" />
		<tag k="amenity" v="kindergarten" />
		<tag k="capacity" v="3" />
		<tag k="max_age" v="2" />
		<tag k="min_age" v="1" />
		<tag k="name" v="Hortemo familiebarnehage" />
		<tag k="no-barnehage:nsrid" v="1021475" />
		<tag k="operator" v="Hortemo Familiebarnehage Jorunn Øvland" />
		<tag k="operator:type" v="private" />
	</node>
	<node id="-191" lat="58.08212" lon="7.84781">
		<tag k="ADDRESS" v="Stokkelandsåsen 9, 4643 SØGNE" />
		<tag k="amenity" v="kindergarten" />
		<tag k="capacity" v="9" />
		<tag k="max_age" v="5" />
		<tag k="min_age" v="1" />
		<tag k="name" v="Stokkelandsåsen familiebarnehage" />
		<tag k="no-barnehage:nsrid" v="1020269" />
		<tag k="operator" v="Stokkelandsåsen Familiebarnehage AS" />
		<tag k="operator:type" v="private" />
	</node>
	<node id="-186" lat="58.15141" lon="8.01903">
		<tag k="ADDRESS" v="Freyasdalsveien 25, 4631 KRISTIANSAND S" />
		<tag k="amenity" v="kindergarten" />
		<tag k="capacity" v="9" />
		<tag k="max_age" v="5" />
		<tag k="min_age" v="1" />
		<tag k="name" v="Solsikken familebarnehage" />
		<tag k="no-barnehage:nsrid" v="1017267" />
		<tag k="operator" v="Lillebo Familiebarnehage Diane Foss" />
		<tag k="operator:type" v="private" />
	</node>
	<node id="-185" lat="58.15929" lon="8.08839">
		<tag k="ADDRESS" v="Gamle Strømmevei 55, 4638 KRISTIANSAND S" />
		<tag k="amenity" v="kindergarten" />
		<tag k="capacity" v="8" />
		<tag k="contact:website" v="http://www.snikkedalen.no" />
		<tag k="max_age" v="5" />
		<tag k="min_age" v="1" />
		<tag k="name" v="Snikkedalen familiebarnehage" />
		<tag k="no-barnehage:nsrid" v="1022378" />
		<tag k="operator" v="Snikkedalen Familiebarnehage AS" />
		<tag k="operator:type" v="private" />
	</node>
	<node id="-184" lat="58.14505" lon="7.84867">
		<tag k="ADDRESS" v="Lysgårdlia 2, 4647 BRENNÅSEN" />
		<tag k="amenity" v="kindergarten" />
		<tag k="capacity" v="10" />
		<tag k="max_age" v="5" />
		<tag k="min_age" v="1" />
		<tag k="name" v="Slottsparken familiebarnehage Vibeke Slotte" />
		<tag k="no-barnehage:nsrid" v="1020635" />
		<tag k="operator" v="Slottsparken Familiebarnehage Vibeke Slotte" />
		<tag k="operator:type" v="private" />
	</node>
	<node id="-183" lat="58.13442" lon="7.95362">
		<tag k="ADDRESS" v="Løvsangerveien 15b, 4626 KRISTIANSAND S" />
		<tag k="amenity" v="kindergarten" />
		<tag k="capacity" v="10" />
		<tag k="contact:website" v="http://www.barnehageside.slettheia.no" />
		<tag k="max_age" v="5" />
		<tag k="min_age" v="1" />
		<tag k="name" v="Slettheia familiebarnehage" />
		<tag k="no-barnehage:nsrid" v="1021104" />
		<tag k="operator" v="Slettheia Familiebarnehage AS" />
		<tag k="operator:type" v="private" />
	</node>
	<node id="-149" lat="58.10276" lon="7.76242">
		<tag k="ADDRESS" v="Vedderheia 20, 4642 SØGNE" />
		<tag k="amenity" v="kindergarten" />
		<tag k="capacity" v="11" />
		<tag k="max_age" v="5" />
		<tag k="min_age" v="1" />
		<tag k="name" v="Lisebo familiebarnehage Lise Merethe Ekeland" />
		<tag k="no-barnehage:nsrid" v="1020646" />
		<tag k="operator" v="Lisebo Familiebarnehage Lise Merethe Ekeland" />
		<tag k="operator:type" v="private" />
	</node>
	<node id="-180" lat="58.09325" lon="7.80233">
		<tag k="ADDRESS" v="Salemsveien 18, 4640 SØGNE" />
		<tag k="amenity" v="kindergarten" />
		<tag k="capacity" v="10" />
		<tag k="max_age" v="5" />
		<tag k="min_age" v="1" />
		<tag k="name" v="Salemveien familiebarnehage Siren Henriette Holskog Pettersen" />
		<tag k="no-barnehage:nsrid" v="1020930" />
		<tag k="operator" v="Salemveien Familiebarnehage Siren Henriette Holskog Pettersen" />
		<tag k="operator:type" v="private" />
	</node>
	<node id="-211" lat="58.12258" lon="7.95886">
		<tag k="ADDRESS" v="Nordre Hovedgårds Vei 3, 4621 KRISTIANSAND S" />
		<tag k="amenity" v="kindergarten" />
		<tag k="capacity" v="10" />
		<tag k="max_age" v="5" />
		<tag k="min_age" v="1" />
		<tag k="name" v="Vågsbygd familiebarnehage" />
		<tag k="no-barnehage:nsrid" v="1020160" />
		<tag k="operator" v="Vågsbygd Familiebarnehage Elin Marie Nilsen" />
		<tag k="operator:type" v="private" />
	</node>
	<node id="-178" lat="58.11678" lon="7.94708">
		<tag k="ADDRESS" v="Rognelia 17, 4622 KRISTIANSAND S" />
		<tag k="amenity" v="kindergarten" />
		<tag k="capacity" v="8" />
		<tag k="max_age" v="5" />
		<tag k="min_age" v="1" />
		<tag k="name" v="Rognelia familiebarnehage" />
		<tag k="no-barnehage:nsrid" v="1020217" />
		<tag k="operator" v="Rognelia Familiebarnehage Ans" />
		<tag k="operator:type" v="private" />
	</node>
	<node id="-145" lat="58.15154" lon="8.01949">
		<tag k="ADDRESS" v="Freyasdalsveien 58, 4631 KRISTIANSAND S" />
		<tag k="amenity" v="kindergarten" />
		<tag k="capacity" v="8" />
		<tag k="max_age" v="2" />
		<tag k="min_age" v="1" />
		<tag k="name" v="Lillebo familiebarnehage" />
		<tag k="no-barnehage:nsrid" v="1016442" />
		<tag k="operator" v="Lillebo Familiebarnehage Diane Foss" />
		<tag k="operator:type" v="private" />
	</node>
	<node id="-111" lat="58.17585" lon="8.04493">
		<tag k="ADDRESS" v="Hestnestangen 7, 4633 KRISTIANSAND S" />
		<tag k="amenity" v="kindergarten" />
		<tag k="capacity" v="8" />
		<tag k="max_age" v="5" />
		<tag k="min_age" v="1" />
		<tag k="name" v="Dino/nemo familiebarnehage" />
		<tag k="no-barnehage:nsrid" v="1021871" />
		<tag k="operator" v="Dino/nemo Familiebarnehage Ans" />
		<tag k="operator:type" v="private" />
	</node>
	<node id="-169" lat="58.13081" lon="7.96259">
		<tag k="ADDRESS" v="Blørstadkollen 5, 4626 KRISTIANSAND S" />
		<tag k="amenity" v="kindergarten" />
		<tag k="capacity" v="9" />
		<tag k="max_age" v="5" />
		<tag k="min_age" v="1" />
		<tag k="name" v="Nedre Slettheia familiebarnehage Tove M Løkke Mac Connacher" />
		<tag k="no-barnehage:nsrid" v="1020926" />
		<tag k="operator" v="Nedre Slettheia Familiebarnehage Tove Mac Connacher" />
		<tag k="operator:type" v="private" />
	</node>
	<node id="-109" lat="58.23044" lon="8.10179">
		<tag k="ADDRESS" v="Brattvoll Platå 33, 4658 TVEIT" />
		<tag k="amenity" v="kindergarten" />
		<tag k="capacity" v="11" />
		<tag k="max_age" v="5" />
		<tag k="min_age" v="1" />
		<tag k="name" v="Brattvolltoppen familiebarnehage" />
		<tag k="no-barnehage:nsrid" v="1020764" />
		<tag k="operator" v="Brattvolltoppen Familiebarnehage Ans" />
		<tag k="operator:type" v="private" />
	</node>
	<node id="-140" lat="58.14532" lon="7.95758">
		<tag k="ADDRESS" v="Gullveien 3e, 4629 KRISTIANSAND S" />
		<tag k="amenity" v="kindergarten" />
		<tag k="capacity" v="8" />
		<tag k="max_age" v="5" />
		<tag k="min_age" v="1" />
		<tag k="name" v="Knøttebo familiebarnehage Linda Tøllefsen" />
		<tag k="no-barnehage:nsrid" v="1021583" />
		<tag k="operator" v="Knøttebo Familiebarnehage Linda Tellefsen" />
		<tag k="operator:type" v="private" />
	</node>
	<node id="-107" lat="58.08568" lon="7.83155">
		<tag k="ADDRESS" v="Blåsmoen 17, 4640 SØGNE" />
		<tag k="amenity" v="kindergarten" />
		<tag k="capacity" v="10" />
		<tag k="max_age" v="5" />
		<tag k="min_age" v="1" />
		<tag k="name" v="Blåsmoen familiebarnehage" />
		<tag k="no-barnehage:nsrid" v="1020664" />
		<tag k="operator" v="Anne Line R Melvoll Blåsmoen Familiebarnehage" />
		<tag k="operator:type" v="private" />
	</node>
	<node id="-137" lat="58.11288" lon="7.96571">
		<tag k="ADDRESS" v="Hammerstien 6, 4623 KRISTIANSAND S" />
		<tag k="amenity" v="kindergarten" />
		<tag k="capacity" v="9" />
		<tag k="max_age" v="5" />
		<tag k="min_age" v="1" />
		<tag k="name" v="Kanutten familiebarnehage" />
		<tag k="no-barnehage:nsrid" v="1015741" />
		<tag k="operator" v="Euromix Entertainment &amp; Kanutten Familiebarnehage Hayek" />
		<tag k="operator:type" v="private" />
	</node>
	<node id="-136" lat="58.1951" lon="8.03498">
		<tag k="ADDRESS" v="Kalvehagen Justnes, 4634 KRISTIANSAND S" />
		<tag k="amenity" v="kindergarten" />
		<tag k="capacity" v="21" />
		<tag k="max_age" v="5" />
		<tag k="min_age" v="1" />
		<tag k="name" v="Kalvehagen familiebarnehage" />
		<tag k="no-barnehage:nsrid" v="1020908" />
		<tag k="operator" v="Kalvehagen Familiebarnehage Da" />
		<tag k="operator:type" v="private" />
	</node>
	<node id="-216" lat="58.17735" lon="8.09646">
		<tag k="ADDRESS" v="Hveteveien 46a, 4635 KRISTIANSAND S" />
		<tag k="amenity" v="kindergarten" />
		<tag k="capacity" v="9" />
		<tag k="max_age" v="5" />
		<tag k="min_age" v="1" />
		<tag k="name" v="Åshild Ek Bråtane" />
		<tag k="no-barnehage:nsrid" v="1020855" />
		<tag k="operator" v="Åshild Ek Bråtane" />
		<tag k="operator:type" v="private" />
	</node>
	<node id="-130" lat="58.08618" lon="7.81354">
		<tag k="ADDRESS" v="Hølleveien 123, 4640 SØGNE" />
		<tag k="amenity" v="kindergarten" />
		<tag k="capacity" v="9" />
		<tag k="max_age" v="5" />
		<tag k="min_age" v="1" />
		<tag k="name" v="Hølleveien familiebarnehage" />
		<tag k="no-barnehage:nsrid" v="1020233" />
		<tag k="operator" v="Familiebarnehage V/linda Nordbø" />
		<tag k="operator:type" v="private" />
	</node>
	<node id="-171" lat="58.15738" lon="8.08064">
		<tag k="ADDRESS" v="Ronatoppen 16, 4638 KRISTIANSAND S" />
		<tag k="amenity" v="kindergarten" />
		<tag k="capacity" v="10" />
		<tag k="max_age" v="5" />
		<tag k="min_age" v="1" />
		<tag k="name" v="Portveien familiebarnehage Lene V Engdahl" />
		<tag k="no-barnehage:nsrid" v="1020766" />
		<tag k="operator" v="Portveien Familiebarnehage Lene V Engdahl" />
		<tag k="operator:type" v="private" />
	</node>
</osm>
