<?xml version="1.0" encoding="UTF-8"?>
<osm generator="osmapis" version="0.6">
	<node id="-3836" lat="58.15919" lon="7.98685">
		<tag k="ADDRESS" v="Andreas Kjærs vei 77, 4615 KRISTIANSAND S" />
		<tag k="amenity" v="kindergarten" />
		<tag k="capacity" v="28" />
		<tag k="max_age" v="5" />
		<tag k="min_age" v="1" />
		<tag k="name" v="Alvejordet Steinerbarnehage" />
		<tag k="no-barnehage:nsrid" v="873464852" />
		<tag k="operator" v="Alvejordet steinerbarnehage" />
		<tag k="operator:type" v="private" />
	</node>
	<node id="-3837" lat="58.11322" lon="7.97867">
		<tag k="ADDRESS" v="Andøyveien 101, 4623 KRISTIANSAND S" />
		<tag k="amenity" v="kindergarten" />
		<tag k="capacity" v="102" />
		<tag k="contact:website" v="http://www.andungen.com" />
		<tag k="max_age" v="5" />
		<tag k="min_age" v="1" />
		<tag k="name" v="Andungen barnehage" />
		<tag k="no-barnehage:nsrid" v="972301760" />
		<tag k="operator" v="Andungen barnehage SA" />
		<tag k="operator:type" v="private" />
	</node>
	<node id="-3838" lat="58.14187" lon="8.06392">
		<tag k="ADDRESS" v="Knarrevikveien 19, 4638 KRISTIANSAND S" />
		<tag k="amenity" v="kindergarten" />
		<tag k="capacity" v="39" />
		<tag k="max_age" v="5" />
		<tag k="min_age" v="1" />
		<tag k="name" v="Askeladden barnehage" />
		<tag k="no-barnehage:nsrid" v="973831674" />
		<tag k="operator" v="Kristiansand kommune" />
		<tag k="operator:type" v="public" />
	</node>
	<node id="-3839" lat="58.12604" lon="7.93585">
		<tag k="ADDRESS" v="Øvre ringvei 91, 4620 KRISTIANSAND S" />
		<tag k="amenity" v="kindergarten" />
		<tag k="capacity" v="68" />
		<tag k="max_age" v="5" />
		<tag k="min_age" v="1" />
		<tag k="name" v="Auglandstjønn barnehage" />
		<tag k="no-barnehage:nsrid" v="973831690" />
		<tag k="operator" v="Kristiansand kommune" />
		<tag k="operator:type" v="public" />
	</node>
	<node id="-3840" lat="58.1501" lon="8.02104">
		<tag k="ADDRESS" v="Johan Øydegards vei 12, 4632 KRISTIANSAND S" />
		<tag k="amenity" v="kindergarten" />
		<tag k="capacity" v="84" />
		<tag k="max_age" v="5" />
		<tag k="min_age" v="1" />
		<tag k="name" v="Bamsebo barnehage" />
		<tag k="no-barnehage:nsrid" v="975914119" />
		<tag k="operator" v="Kristiansand kommune" />
		<tag k="operator:type" v="public" />
	</node>
	<node id="-3841" lat="58.17125" lon="8.02306">
		<tag k="ADDRESS" v="Bergtoras vei 62, 4633 KRISTIANSAND S" />
		<tag k="amenity" v="kindergarten" />
		<tag k="capacity" v="68" />
		<tag k="max_age" v="5" />
		<tag k="min_age" v="1" />
		<tag k="name" v="Bergtorasvei barnehage" />
		<tag k="no-barnehage:nsrid" v="974599015" />
		<tag k="operator" v="Kristiansand kommune" />
		<tag k="operator:type" v="public" />
	</node>
	<node id="-3842" lat="58.12668" lon="7.84612">
		<tag k="ADDRESS" v="Birkenesvegen 62, 4647 BRENNÅSEN" />
		<tag k="amenity" v="kindergarten" />
		<tag k="capacity" v="50" />
		<tag k="max_age" v="5" />
		<tag k="min_age" v="1" />
		<tag k="name" v="Birkelid barnehage" />
		<tag k="no-barnehage:nsrid" v="981543246" />
		<tag k="operator" v="Kristiansand kommune" />
		<tag k="operator:type" v="public" />
	</node>
	<node id="-3843" lat="58.13708" lon="7.84699">
		<tag k="ADDRESS" v="Birkenesvegen 26E, 4647 BRENNÅSEN" />
		<tag k="amenity" v="kindergarten" />
		<tag k="capacity" v="75" />
		<tag k="max_age" v="5" />
		<tag k="min_age" v="1" />
		<tag k="name" v="Bjørnungen barnehage" />
		<tag k="no-barnehage:nsrid" v="975307794" />
		<tag k="operator" v="Kristiansand kommune" />
		<tag k="operator:type" v="public" />
	</node>
	<node id="-3844" lat="58.13204" lon="8.11493">
		<tag k="ADDRESS" v="Holteveien 13, 4639 KRISTIANSAND S" />
		<tag k="amenity" v="kindergarten" />
		<tag k="capacity" v="17" />
		<tag k="max_age" v="5" />
		<tag k="min_age" v="1" />
		<tag k="name" v="Blekkulf barnehage" />
		<tag k="no-barnehage:nsrid" v="975822117" />
		<tag k="operator" v="Blekkulf barnehage Ans" />
		<tag k="operator:type" v="private" />
	</node>
	<node id="-3845" lat="58.15918" lon="8.01523">
		<tag k="ADDRESS" v="Tryms vei 13, 4631 KRISTIANSAND S" />
		<tag k="amenity" v="kindergarten" />
		<tag k="capacity" v="32" />
		<tag k="max_age" v="5" />
		<tag k="min_age" v="1" />
		<tag k="name" v="Blåmann Steinerbarnehage" />
		<tag k="no-barnehage:nsrid" v="979150954" />
		<tag k="operator" v="Blåmann steinerbarnehage" />
		<tag k="operator:type" v="private" />
	</node>
	<node id="-3849" lat="58.12532" lon="7.96739">
		<tag k="ADDRESS" v="Fiskåveien 12, 4621 KRISTIANSAND S" />
		<tag k="amenity" v="kindergarten" />
		<tag k="capacity" v="92" />
		<tag k="contact:website" v="http://www.eplehagen.net" />
		<tag k="max_age" v="5" />
		<tag k="min_age" v="1" />
		<tag k="name" v="Eplehagen barnehage" />
		<tag k="no-barnehage:nsrid" v="973465279" />
		<tag k="operator" v="Eplehagen barnehage SA" />
		<tag k="operator:type" v="private" />
	</node>
	<node id="-3850" lat="58.13162" lon="8.07088">
		<tag k="ADDRESS" v="Valsvigveien 11, 4639 KRISTIANSAND S" />
		<tag k="amenity" v="kindergarten" />
		<tag k="capacity" v="122" />
		<tag k="contact:website" v="http://dvergsnes.espira.no" />
		<tag k="max_age" v="5" />
		<tag k="min_age" v="1" />
		<tag k="name" v="Espira Dvergsnes barnehage" />
		<tag k="no-barnehage:nsrid" v="991190880" />
		<tag k="operator" v="Espira Dvergsnes AS" />
		<tag k="operator:type" v="private" />
	</node>
	<node id="-3851" lat="58.10596" lon="7.76282">
		<tag k="ADDRESS" v="Skytterveien 50, 4642 SØGNE" />
		<tag k="amenity" v="kindergarten" />
		<tag k="capacity" v="111" />
		<tag k="max_age" v="5" />
		<tag k="min_age" v="1" />
		<tag k="name" v="Espira Vedderheia barnehage" />
		<tag k="no-barnehage:nsrid" v="989154974" />
		<tag k="operator" v="Espira barnehager AS" />
		<tag k="operator:type" v="private" />
	</node>
	<node id="-3852" lat="58.16693" lon="7.85817">
		<tag k="ADDRESS" v="Tunballvegen 4, 4645 NODELAND" />
		<tag k="amenity" v="kindergarten" />
		<tag k="capacity" v="86" />
		<tag k="max_age" v="5" />
		<tag k="min_age" v="1" />
		<tag k="name" v="Eventyrheia barnehage" />
		<tag k="no-barnehage:nsrid" v="975307808" />
		<tag k="operator" v="Kristiansand kommune" />
		<tag k="operator:type" v="public" />
	</node>
	<node id="-3853" lat="58.19047" lon="7.92005">
		<tag k="ADDRESS" v="Straismoen 20, 4618 KRISTIANSAND S" />
		<tag k="amenity" v="kindergarten" />
		<tag k="capacity" v="36" />
		<tag k="max_age" v="5" />
		<tag k="min_age" v="1" />
		<tag k="name" v="Eventyrskogen barnehage Helleland" />
		<tag k="no-barnehage:nsrid" v="984600089" />
		<tag k="operator" v="Eventyrskogen barnehage Helleland AS" />
		<tag k="operator:type" v="private" />
	</node>
	<node id="-3854" lat="58.15208" lon="7.99383">
		<tag k="ADDRESS" v="Lømslands vei 23, 4614 KRISTIANSAND S" />
		<tag k="amenity" v="kindergarten" />
		<tag k="capacity" v="48" />
		<tag k="max_age" v="5" />
		<tag k="min_age" v="1" />
		<tag k="name" v="Fergefjellet barnehage" />
		<tag k="no-barnehage:nsrid" v="985545057" />
		<tag k="operator" v="Kristiansand kommune" />
		<tag k="operator:type" v="public" />
	</node>
	<node id="-3855" lat="58.27335" lon="7.64241">
		<tag k="ADDRESS" v="Songdalsvegen 788, 4646 FINSLAND" />
		<tag k="amenity" v="kindergarten" />
		<tag k="capacity" v="58" />
		<tag k="max_age" v="5" />
		<tag k="min_age" v="1" />
		<tag k="name" v="Finsland barnehage" />
		<tag k="no-barnehage:nsrid" v="975307786" />
		<tag k="operator" v="Kristiansand kommune" />
		<tag k="operator:type" v="public" />
	</node>
	<node id="-3856" lat="58.12909" lon="7.97419">
		<tag k="ADDRESS" v="Konsul Wilds vei 20A, 4621 KRISTIANSAND S" />
		<tag k="amenity" v="kindergarten" />
		<tag k="capacity" v="16" />
		<tag k="contact:website" v="http://www.fiskaatangen.no" />
		<tag k="max_age" v="5" />
		<tag k="min_age" v="1" />
		<tag k="name" v="Fiskåtangen barnehage" />
		<tag k="no-barnehage:nsrid" v="973471805" />
		<tag k="operator" v="Fiskåtangen barnehage AS" />
		<tag k="operator:type" v="private" />
	</node>
	<node id="-3857" lat="58.19211" lon="8.07957">
		<tag k="ADDRESS" v="Hamresandveien 15, 4656 HAMRESANDEN" />
		<tag k="amenity" v="kindergarten" />
		<tag k="capacity" v="16" />
		<tag k="max_age" v="5" />
		<tag k="min_age" v="1" />
		<tag k="name" v="Hamretun barnehage" />
		<tag k="no-barnehage:nsrid" v="973831496" />
		<tag k="operator" v="Kristiansand kommune" />
		<tag k="operator:type" v="public" />
	</node>
	<node id="-3858" lat="58.1901" lon="8.03766">
		<tag k="ADDRESS" v="Havliveien 4, 4634 KRISTIANSAND S" />
		<tag k="amenity" v="kindergarten" />
		<tag k="capacity" v="150" />
		<tag k="max_age" v="5" />
		<tag k="min_age" v="1" />
		<tag k="name" v="Havlimyra barnehage" />
		<tag k="no-barnehage:nsrid" v="994393391" />
		<tag k="operator" v="Kristiansand kommune" />
		<tag k="operator:type" v="public" />
	</node>
	<node id="-3859" lat="58.08056" lon="7.77361">
		<tag k="ADDRESS" v="Havåsen 60, 4641 SØGNE" />
		<tag k="amenity" v="kindergarten" />
		<tag k="capacity" v="64" />
		<tag k="max_age" v="5" />
		<tag k="min_age" v="1" />
		<tag k="name" v="Havåsen barnehage" />
		<tag k="no-barnehage:nsrid" v="922770999" />
		<tag k="operator" v="Kristiansand kommune" />
		<tag k="operator:type" v="public" />
	</node>
	<node id="-3860" lat="58.14708" lon="7.93778">
		<tag k="ADDRESS" v="Hellemyrtoppen 5, 4628 KRISTIANSAND S" />
		<tag k="amenity" v="kindergarten" />
		<tag k="capacity" v="40" />
		<tag k="max_age" v="5" />
		<tag k="min_age" v="1" />
		<tag k="name" v="Hellemyr barnehage" />
		<tag k="no-barnehage:nsrid" v="973831682" />
		<tag k="operator" v="Kristiansand kommune" />
		<tag k="operator:type" v="public" />
	</node>
	<node id="-3861" lat="58.14458" lon="7.96807">
		<tag k="ADDRESS" v="Kolsbergveien 24, 4616 KRISTIANSAND S" />
		<tag k="amenity" v="kindergarten" />
		<tag k="capacity" v="82" />
		<tag k="max_age" v="5" />
		<tag k="min_age" v="1" />
		<tag k="name" v="Hellinga barnehage" />
		<tag k="no-barnehage:nsrid" v="974599007" />
		<tag k="operator" v="Kristiansand kommune" />
		<tag k="operator:type" v="public" />
	</node>
	<node id="-3862" lat="58.16467" lon="7.99927">
		<tag k="ADDRESS" v="Kaserneveien 4, 4630 KRISTIANSAND S" />
		<tag k="amenity" v="kindergarten" />
		<tag k="capacity" v="132" />
		<tag k="max_age" v="5" />
		<tag k="min_age" v="1" />
		<tag k="name" v="Hokus Pokus barnehage Kristiansand" />
		<tag k="no-barnehage:nsrid" v="976844955" />
		<tag k="operator" v="Studentsamskipnaden i Agder" />
		<tag k="operator:type" v="private" />
	</node>
	<node id="-3863" lat="58.22386" lon="7.90526">
		<tag k="ADDRESS" v="Høietun 6, 4619 MOSBY" />
		<tag k="amenity" v="kindergarten" />
		<tag k="capacity" v="33" />
		<tag k="contact:website" v="http://hoietun.barnehage.no" />
		<tag k="max_age" v="5" />
		<tag k="min_age" v="1" />
		<tag k="name" v="Høietun barnehage" />
		<tag k="no-barnehage:nsrid" v="973470337" />
		<tag k="operator" v="Mosby Indremisjon" />
		<tag k="operator:type" v="private" />
	</node>
	<node id="-3865" lat="58.17751" lon="8.09229">
		<tag k="ADDRESS" v="Øvre Brattbakken 5, 4635 KRISTIANSAND S" />
		<tag k="amenity" v="kindergarten" />
		<tag k="contact:website" v="http://www.åpenbarnehage.no" />
		<tag k="name" v="Hånes åpne barnehage" />
		<tag k="no-barnehage:nsrid" v="892527512" />
		<tag k="operator" v="Åpne Barnehager AS" />
		<tag k="operator:type" v="private" />
	</node>
	<node id="-3866" lat="58.18008" lon="8.01204">
		<tag k="ADDRESS" v="Gillsveien 45, 4633 KRISTIANSAND S" />
		<tag k="amenity" v="kindergarten" />
		<tag k="capacity" v="31" />
		<tag k="contact:website" v="http://jegersbergbarnehage.no" />
		<tag k="max_age" v="5" />
		<tag k="min_age" v="1" />
		<tag k="name" v="Jegersberg barnehagedrift" />
		<tag k="no-barnehage:nsrid" v="998364531" />
		<tag k="operator" v="Jegersberg Barnehagedrift AS" />
		<tag k="operator:type" v="private" />
	</node>
	<node id="-3867" lat="58.17514" lon="8.09162">
		<tag k="ADDRESS" v="Jordbærveien 1, 4635 KRISTIANSAND S" />
		<tag k="amenity" v="kindergarten" />
		<tag k="capacity" v="69" />
		<tag k="max_age" v="5" />
		<tag k="min_age" v="1" />
		<tag k="name" v="Jordbærveien barnehage" />
		<tag k="no-barnehage:nsrid" v="974598981" />
		<tag k="operator" v="Kristiansand kommune" />
		<tag k="operator:type" v="public" />
	</node>
	<node id="-3868" lat="58.20033" lon="8.033">
		<tag k="ADDRESS" v="Grostølveien 4b, 4634 KRISTIANSAND S" />
		<tag k="amenity" v="kindergarten" />
		<tag k="name" v="Justvik åpne barnehage" />
		<tag k="no-barnehage:nsrid" v="992527684" />
		<tag k="operator" v="Åpne Barnehager AS" />
		<tag k="operator:type" v="private" />
	</node>
	<node id="-3872" lat="58.12878" lon="7.94885">
		<tag k="ADDRESS" v="Karussveien 4, 4620 KRISTIANSAND S" />
		<tag k="amenity" v="kindergarten" />
		<tag k="capacity" v="64" />
		<tag k="max_age" v="5" />
		<tag k="min_age" v="1" />
		<tag k="name" v="Karuss barnehage" />
		<tag k="no-barnehage:nsrid" v="973831828" />
		<tag k="operator" v="Kristiansand kommune" />
		<tag k="operator:type" v="public" />
	</node>
	<node id="-3873" lat="58.14402" lon="7.99858">
		<tag k="ADDRESS" v="Østre Strandgate 15, 4610 KRISTIANSAND S" />
		<tag k="amenity" v="kindergarten" />
		<tag k="capacity" v="50" />
		<tag k="max_age" v="5" />
		<tag k="min_age" v="1" />
		<tag k="name" v="Kløvergården barnehage" />
		<tag k="no-barnehage:nsrid" v="971724080" />
		<tag k="operator" v="Kristiansand kommune" />
		<tag k="operator:type" v="public" />
	</node>
	<node id="-3874" lat="0.0" lon="0.0">
		<tag k="ADDRESS" v="Kongsgård Alle 33B, 4631 KRISTIANSAND S" />
		<tag k="amenity" v="kindergarten" />
		<tag k="capacity" v="31" />
		<tag k="max_age" v="5" />
		<tag k="min_age" v="1" />
		<tag k="name" v="Kongsgård barnehagesenter" />
		<tag k="no-barnehage:nsrid" v="980425630" />
		<tag k="operator" v="Kristiansand kommune" />
		<tag k="operator:type" v="public" />
	</node>
	<node id="-3876" lat="58.17689" lon="8.0285">
		<tag k="ADDRESS" v="Louises vei 92, 4633 KRISTIANSAND S" />
		<tag k="amenity" v="kindergarten" />
		<tag k="capacity" v="88" />
		<tag k="max_age" v="5" />
		<tag k="min_age" v="1" />
		<tag k="name" v="Lindtjønn FUS barnehage avd. Louises vei" />
		<tag k="no-barnehage:nsrid" v="988801437" />
		<tag k="operator" v="Lindtjønn Fus barnehage AS" />
		<tag k="operator:type" v="private" />
	</node>
	<node id="-3877" lat="58.1592" lon="8.07051">
		<tag k="ADDRESS" v="Rødhettes vei 6, 4638 KRISTIANSAND S" />
		<tag k="amenity" v="kindergarten" />
		<tag k="capacity" v="39" />
		<tag k="contact:website" v="http://fus.no/lindtjonn-avd-rodhette" />
		<tag k="max_age" v="5" />
		<tag k="min_age" v="1" />
		<tag k="name" v="Lindtjønn FUS barnehage avd. Rødhettes vei" />
		<tag k="no-barnehage:nsrid" v="976687574" />
		<tag k="operator" v="Lindtjønn Fus barnehage AS" />
		<tag k="operator:type" v="private" />
	</node>
	<node id="-3878" lat="58.13374" lon="7.9629">
		<tag k="ADDRESS" v="Linerlebakken 23, 4626 KRISTIANSAND S" />
		<tag k="amenity" v="kindergarten" />
		<tag k="capacity" v="67" />
		<tag k="contact:website" v="http://minbarnehage.no/linerlabhg" />
		<tag k="max_age" v="5" />
		<tag k="min_age" v="1" />
		<tag k="name" v="Linerla barnehage" />
		<tag k="no-barnehage:nsrid" v="974599023" />
		<tag k="operator" v="Kristiansand kommune" />
		<tag k="operator:type" v="public" />
	</node>
	<node id="-3880" lat="58.15263" lon="8.01147">
		<tag k="ADDRESS" v="Marviksveien 5, 4631 KRISTIANSAND S" />
		<tag k="amenity" v="kindergarten" />
		<tag k="capacity" v="38" />
		<tag k="contact:website" v="http://www.lundbarnehage.no" />
		<tag k="max_age" v="5" />
		<tag k="min_age" v="1" />
		<tag k="name" v="Lund barnehage" />
		<tag k="no-barnehage:nsrid" v="874798452" />
		<tag k="operator" v="Lund barnehage AS" />
		<tag k="operator:type" v="private" />
	</node>
	<node id="-3881" lat="58.18438" lon="8.03418">
		<tag k="ADDRESS" v="Justnesskauen 41, 4634 KRISTIANSAND S" />
		<tag k="amenity" v="kindergarten" />
		<tag k="capacity" v="141" />
		<tag k="contact:website" v="http://laringsverkstedet.no/barnehage/eidet" />
		<tag k="max_age" v="5" />
		<tag k="min_age" v="1" />
		<tag k="name" v="Læringsverkstedet barnehage avd. Eidet barnehage" />
		<tag k="no-barnehage:nsrid" v="993528501" />
		<tag k="operator" v="Læringsverkstedet AS" />
		<tag k="operator:type" v="private" />
	</node>
	<node id="-3882" lat="58.18208" lon="8.09576">
		<tag k="ADDRESS" v="Hånesveien 101, 4635 KRISTIANSAND S" />
		<tag k="amenity" v="kindergarten" />
		<tag k="capacity" v="171" />
		<tag k="max_age" v="5" />
		<tag k="min_age" v="1" />
		<tag k="name" v="Læringsverkstedet barnehage avd. Solkollen Hånes" />
		<tag k="no-barnehage:nsrid" v="995921499" />
		<tag k="operator" v="Læringsverkstedet AS" />
		<tag k="operator:type" v="private" />
	</node>
	<node id="-3883" lat="58.07433" lon="8.00101">
		<tag k="ADDRESS" v="Mæbøveien 8, 4625 FLEKKERØY" />
		<tag k="amenity" v="kindergarten" />
		<tag k="capacity" v="61" />
		<tag k="contact:website" v="http://laringsverkstedet.no/barnehage/læringsverkstedet-flekkerøya" />
		<tag k="max_age" v="5" />
		<tag k="min_age" v="1" />
		<tag k="name" v="Læringsverkstedet barnehage avd. Flekkerøya barnehage" />
		<tag k="no-barnehage:nsrid" v="985535515" />
		<tag k="operator" v="Læringsverkstedet AS" />
		<tag k="operator:type" v="private" />
	</node>
	<node id="-3884" lat="58.12696" lon="8.09538">
		<tag k="ADDRESS" v="Bordalsbakken 3, 4639 KRISTIANSAND S" />
		<tag k="amenity" v="kindergarten" />
		<tag k="capacity" v="109" />
		<tag k="contact:website" v="http://www.laringsverkstedet.no/barnehage/fidje" />
		<tag k="max_age" v="5" />
		<tag k="min_age" v="1" />
		<tag k="name" v="Læringsverkstedet barnehage avd. Fidje barnehage" />
		<tag k="no-barnehage:nsrid" v="984985525" />
		<tag k="operator" v="Læringsverkstedet AS" />
		<tag k="operator:type" v="private" />
	</node>
	<node id="-3885" lat="58.16578" lon="8.01245">
		<tag k="ADDRESS" v="Presteheia 14, 4633 KRISTIANSAND S" />
		<tag k="amenity" v="kindergarten" />
		<tag k="capacity" v="111" />
		<tag k="contact:website" v="http://www.laringsverkstedet.no/presteheia" />
		<tag k="max_age" v="5" />
		<tag k="min_age" v="1" />
		<tag k="name" v="Læringsverkstedet barnehage avd. Presteheia barnehage" />
		<tag k="no-barnehage:nsrid" v="984779860" />
		<tag k="operator" v="Læringsverkstedet AS" />
		<tag k="operator:type" v="private" />
	</node>
	<node id="-3886" lat="58.10239" lon="7.94737">
		<tag k="ADDRESS" v="Voie ringvei 106, 4624 KRISTIANSAND S" />
		<tag k="amenity" v="kindergarten" />
		<tag k="capacity" v="68" />
		<tag k="contact:website" v="http://www.ravneheia.no" />
		<tag k="max_age" v="5" />
		<tag k="min_age" v="1" />
		<tag k="name" v="Læringsverkstedet barnehage avd. Ravneheia" />
		<tag k="no-barnehage:nsrid" v="983167578" />
		<tag k="operator" v="Læringsverkstedet AS" />
		<tag k="operator:type" v="private" />
	</node>
	<node id="-3887" lat="58.15156" lon="7.92724">
		<tag k="ADDRESS" v="Breimyrveien 100, 4628 KRISTIANSAND S" />
		<tag k="amenity" v="kindergarten" />
		<tag k="capacity" v="144" />
		<tag k="max_age" v="5" />
		<tag k="min_age" v="1" />
		<tag k="name" v="Læringsverkstedet barnehage avd. Solkollen barnehage Hellemyr" />
		<tag k="no-barnehage:nsrid" v="983211933" />
		<tag k="operator" v="Læringsverkstedet AS" />
		<tag k="operator:type" v="private" />
	</node>
	<node id="-3888" lat="0.0" lon="0.0">
		<tag k="ADDRESS" v="Moneveien 102 - 106, 4640 SØGNE" />
		<tag k="amenity" v="kindergarten" />
		<tag k="capacity" v="94" />
		<tag k="contact:website" v="http://laringsverkstedet.no/barnehage/sogne" />
		<tag k="max_age" v="5" />
		<tag k="min_age" v="1" />
		<tag k="name" v="Læringsverkstedet barnehage avd. Søgne" />
		<tag k="no-barnehage:nsrid" v="991948589" />
		<tag k="operator" v="Læringsverkstedet AS" />
		<tag k="operator:type" v="private" />
	</node>
	<node id="-3889" lat="58.15117" lon="8.0746">
		<tag k="ADDRESS" v="Liane ringvei 6, 4638 KRISTIANSAND S" />
		<tag k="amenity" v="kindergarten" />
		<tag k="capacity" v="110" />
		<tag k="contact:website" v="http://www.laringsverkstedet.no" />
		<tag k="max_age" v="5" />
		<tag k="min_age" v="1" />
		<tag k="name" v="Læringsverkstedet barnehage avd. Liantjønn barnehage" />
		<tag k="no-barnehage:nsrid" v="987059648" />
		<tag k="operator" v="Læringsverkstedet AS" />
		<tag k="operator:type" v="private" />
	</node>
	<node id="-3890" lat="58.11305" lon="7.93665">
		<tag k="ADDRESS" v="Bråvannsåsen 5, 4624 KRISTIANSAND S" />
		<tag k="amenity" v="kindergarten" />
		<tag k="capacity" v="49" />
		<tag k="contact:website" v="http://laringsverkstedet.no" />
		<tag k="max_age" v="5" />
		<tag k="min_age" v="1" />
		<tag k="name" v="Læringsverkstedet barnehage avd. Bråvannsåsen barnehage" />
		<tag k="no-barnehage:nsrid" v="988006513" />
		<tag k="operator" v="Læringsverkstedet AS" />
		<tag k="operator:type" v="private" />
	</node>
	<node id="-3891" lat="58.15736" lon="8.07209">
		<tag k="ADDRESS" v="Bamse Brakars vei 1, 4638 KRISTIANSAND S" />
		<tag k="amenity" v="kindergarten" />
		<tag k="capacity" v="80" />
		<tag k="contact:website" v="http://www.laringsverkstedet.no/barnehage/som" />
		<tag k="max_age" v="5" />
		<tag k="min_age" v="1" />
		<tag k="name" v="Læringsverkstedet barnehage avd. Solkollen barnehage Søm" />
		<tag k="no-barnehage:nsrid" v="988555118" />
		<tag k="operator" v="Læringsverkstedet AS" />
		<tag k="operator:type" v="private" />
	</node>
	<node id="-3892" lat="58.17154" lon="8.03645">
		<tag k="ADDRESS" v="Bergtoras vei 8, 4633 KRISTIANSAND S" />
		<tag k="amenity" v="kindergarten" />
		<tag k="capacity" v="63" />
		<tag k="contact:website" v="http://laringsverkstedet.no/gimlekollen" />
		<tag k="max_age" v="5" />
		<tag k="min_age" v="1" />
		<tag k="name" v="Læringsverkstedet barnehage avd. Gimlekollen" />
		<tag k="no-barnehage:nsrid" v="985908265" />
		<tag k="operator" v="Læringsverkstedet AS" />
		<tag k="operator:type" v="private" />
	</node>
	<node id="-3893" lat="58.14823" lon="7.96644">
		<tag k="ADDRESS" v="Fagerdalsveien 1, 4617 KRISTIANSAND S" />
		<tag k="amenity" v="kindergarten" />
		<tag k="capacity" v="32" />
		<tag k="contact:website" v="http://laringsverkstedet.no/grim" />
		<tag k="max_age" v="5" />
		<tag k="min_age" v="1" />
		<tag k="name" v="Læringsverkstedet barnehage avd. Grim" />
		<tag k="no-barnehage:nsrid" v="986335714" />
		<tag k="operator" v="Læringsverkstedet AS" />
		<tag k="operator:type" v="private" />
	</node>
	<node id="-3894" lat="58.08559" lon="7.99853">
		<tag k="ADDRESS" v="Lindebøskauen 31, 4625 FLEKKERØY" />
		<tag k="amenity" v="kindergarten" />
		<tag k="capacity" v="101" />
		<tag k="max_age" v="5" />
		<tag k="min_age" v="1" />
		<tag k="name" v="Læringsverkstedet barnehage avd. Lindebøskauen" />
		<tag k="no-barnehage:nsrid" v="895592102" />
		<tag k="operator" v="Læringsverkstedet AS" />
		<tag k="operator:type" v="private" />
	</node>
	<node id="-3895" lat="58.2336" lon="8.12149">
		<tag k="ADDRESS" v="Solsletta 16, 4658 TVEIT" />
		<tag k="amenity" v="kindergarten" />
		<tag k="capacity" v="62" />
		<tag k="contact:website" v="http://laringsverkstedet.no/barnehage/tveit" />
		<tag k="max_age" v="5" />
		<tag k="min_age" v="1" />
		<tag k="name" v="Læringsverkstedet barnehage avd. Tveit" />
		<tag k="no-barnehage:nsrid" v="872301992" />
		<tag k="operator" v="Læringsverkstedet AS" />
		<tag k="operator:type" v="private" />
	</node>
	<node id="-3896" lat="58.15844" lon="8.0228">
		<tag k="ADDRESS" v="Bispegra 28, 4632 KRISTIANSAND S" />
		<tag k="amenity" v="kindergarten" />
		<tag k="capacity" v="61" />
		<tag k="contact:website" v="http://laringsverkstedet.no/barnehage/bispegra" />
		<tag k="max_age" v="5" />
		<tag k="min_age" v="1" />
		<tag k="name" v="Læringsverkstedet barnehage avd. Bispegra" />
		<tag k="no-barnehage:nsrid" v="973513516" />
		<tag k="operator" v="Læringsverkstedet AS" />
		<tag k="operator:type" v="private" />
	</node>
	<node id="-3897" lat="58.17987" lon="8.14199">
		<tag k="ADDRESS" v="Travparkveien 4, 4636 KRISTIANSAND S" />
		<tag k="amenity" v="kindergarten" />
		<tag k="capacity" v="75" />
		<tag k="contact:website" v="http://www.laringsverkstedet.no" />
		<tag k="max_age" v="5" />
		<tag k="min_age" v="1" />
		<tag k="name" v="Læringsverkstedet barnehage avd. Sørlandsparken barnehage" />
		<tag k="no-barnehage:nsrid" v="973946188" />
		<tag k="operator" v="Læringsverkstedet AS" />
		<tag k="operator:type" v="private" />
	</node>
	<node id="-3898" lat="58.14638" lon="8.03074">
		<tag k="ADDRESS" v="Framnesveien 10, 4632 KRISTIANSAND S" />
		<tag k="amenity" v="kindergarten" />
		<tag k="capacity" v="53" />
		<tag k="max_age" v="5" />
		<tag k="min_age" v="1" />
		<tag k="name" v="Læringsverkstedet barnehage avd. Kuholmen" />
		<tag k="no-barnehage:nsrid" v="974402874" />
		<tag k="operator" v="Læringsverkstedet AS" />
		<tag k="operator:type" v="private" />
	</node>
	<node id="-3899" lat="58.14785" lon="7.92275">
		<tag k="ADDRESS" v="Skomagergada 8, 4628 KRISTIANSAND S" />
		<tag k="amenity" v="kindergarten" />
		<tag k="capacity" v="39" />
		<tag k="contact:website" v="http://laringsverkstedet.no/skomagergada" />
		<tag k="max_age" v="5" />
		<tag k="min_age" v="1" />
		<tag k="name" v="Læringsverkstedet barnehage avd. Skomakergada" />
		<tag k="no-barnehage:nsrid" v="975815145" />
		<tag k="operator" v="Læringsverkstedet AS" />
		<tag k="operator:type" v="private" />
	</node>
	<node id="-3900" lat="58.13622" lon="8.07876">
		<tag k="ADDRESS" v="Odderhei Terrasse 4, 4639 KRISTIANSAND S" />
		<tag k="amenity" v="kindergarten" />
		<tag k="capacity" v="82" />
		<tag k="contact:website" v="http://www.maurtuabarnehage.no" />
		<tag k="max_age" v="5" />
		<tag k="min_age" v="1" />
		<tag k="name" v="Maurtua barnehage" />
		<tag k="no-barnehage:nsrid" v="973513532" />
		<tag k="operator" v="Maurtua barnehage Sa" />
		<tag k="operator:type" v="private" />
	</node>
	<node id="-3901" lat="58.21618" lon="7.92727">
		<tag k="ADDRESS" v="Mosby ringvei 66, 4619 MOSBY" />
		<tag k="amenity" v="kindergarten" />
		<tag k="capacity" v="26" />
		<tag k="max_age" v="2" />
		<tag k="min_age" v="1" />
		<tag k="name" v="Mosby barnehage" />
		<tag k="no-barnehage:nsrid" v="974598930" />
		<tag k="operator" v="Kristiansand kommune" />
		<tag k="operator:type" v="public" />
	</node>
	<node id="-3902" lat="58.22016" lon="7.91315">
		<tag k="ADDRESS" v="Høietun 147B, 4619 MOSBY" />
		<tag k="amenity" v="kindergarten" />
		<tag k="capacity" v="53" />
		<tag k="max_age" v="5" />
		<tag k="min_age" v="3" />
		<tag k="name" v="Mosby oppvekstsenter barnehage" />
		<tag k="no-barnehage:nsrid" v="912271854" />
		<tag k="operator" v="Kristiansand kommune" />
		<tag k="operator:type" v="public" />
	</node>
	<node id="-3903" lat="58.10355" lon="7.97358">
		<tag k="ADDRESS" v="Villandveien 2, 4623 KRISTIANSAND S" />
		<tag k="amenity" v="kindergarten" />
		<tag k="capacity" v="33" />
		<tag k="max_age" v="5" />
		<tag k="min_age" v="1" />
		<tag k="name" v="Mummidalen barnehage" />
		<tag k="no-barnehage:nsrid" v="995983656" />
		<tag k="operator" v="Mummidalen barnehage AS" />
		<tag k="operator:type" v="private" />
	</node>
	<node id="-3904" lat="58.1475" lon="7.97169">
		<tag k="ADDRESS" v="Møllevannsveien 40, 4616 KRISTIANSAND S" />
		<tag k="amenity" v="kindergarten" />
		<tag k="capacity" v="97" />
		<tag k="max_age" v="5" />
		<tag k="min_age" v="1" />
		<tag k="name" v="Møllestua barnehage" />
		<tag k="no-barnehage:nsrid" v="974598647" />
		<tag k="operator" v="Kristiansand kommune" />
		<tag k="operator:type" v="public" />
	</node>
	<node id="-3906" lat="58.14038" lon="7.99793">
		<tag k="ADDRESS" v="Odderøyveien 5, 4610 KRISTIANSAND S" />
		<tag k="amenity" v="kindergarten" />
		<tag k="capacity" v="39" />
		<tag k="max_age" v="5" />
		<tag k="min_age" v="1" />
		<tag k="name" v="Odderøya barnehage" />
		<tag k="no-barnehage:nsrid" v="992263431" />
		<tag k="operator" v="Kristiansand kommune" />
		<tag k="operator:type" v="public" />
	</node>
	<node id="-3908" lat="58.1719" lon="8.0895">
		<tag k="ADDRESS" v="Kirsebærveien 10A, 4635 KRISTIANSAND S" />
		<tag k="amenity" v="kindergarten" />
		<tag k="capacity" v="25" />
		<tag k="contact:website" v="http://www.rakkerungan.no" />
		<tag k="max_age" v="5" />
		<tag k="min_age" v="1" />
		<tag k="name" v="Rakkerungan barnehage" />
		<tag k="no-barnehage:nsrid" v="986862374" />
		<tag k="operator" v="Rakkerungan Barnehagedrift AS" />
		<tag k="operator:type" v="private" />
	</node>
	<node id="-3909" lat="58.12962" lon="8.12065">
		<tag k="ADDRESS" v="Støleveien 21, 4639 KRISTIANSAND S" />
		<tag k="amenity" v="kindergarten" />
		<tag k="capacity" v="19" />
		<tag k="contact:website" v="http://www.rakkerungan.no" />
		<tag k="max_age" v="5" />
		<tag k="min_age" v="1" />
		<tag k="name" v="Rakkerungan gårdsbarnehage" />
		<tag k="no-barnehage:nsrid" v="993506095" />
		<tag k="operator" v="Rakkerungan Barnehagedrift AS" />
		<tag k="operator:type" v="private" />
	</node>
	<node id="-3910" lat="58.12542" lon="8.09644">
		<tag k="ADDRESS" v="Bordalen 2, 4639 KRISTIANSAND S" />
		<tag k="amenity" v="kindergarten" />
		<tag k="name" v="Randesund åpne barnehage" />
		<tag k="no-barnehage:nsrid" v="892527792" />
		<tag k="operator" v="Åpne Barnehager AS" />
		<tag k="operator:type" v="private" />
	</node>
	<node id="-3911" lat="58.15271" lon="7.97456">
		<tag k="ADDRESS" v="Jegergata 14, 4616 KRISTIANSAND S" />
		<tag k="amenity" v="kindergarten" />
		<tag k="capacity" v="56" />
		<tag k="max_age" v="5" />
		<tag k="min_age" v="1" />
		<tag k="name" v="Ravnedalen barnehage" />
		<tag k="no-barnehage:nsrid" v="973831704" />
		<tag k="operator" v="Kristiansand kommune" />
		<tag k="operator:type" v="public" />
	</node>
	<node id="-3912" lat="58.21263" lon="8.10303">
		<tag k="ADDRESS" v="Borgeveien 2b, 4658 TVEIT" />
		<tag k="amenity" v="kindergarten" />
		<tag k="capacity" v="15" />
		<tag k="max_age" v="5" />
		<tag k="min_age" v="1" />
		<tag k="name" v="Refshalen gårdsbarnehage" />
		<tag k="no-barnehage:nsrid" v="915341608" />
		<tag k="operator" v="Refshalen Gårdsbarnehage AS" />
		<tag k="operator:type" v="private" />
	</node>
	<node id="-3913" lat="58.14265" lon="7.99683">
		<tag k="ADDRESS" v="Østre Strandgate 6, 4610 KRISTIANSAND S" />
		<tag k="amenity" v="kindergarten" />
		<tag k="capacity" v="18" />
		<tag k="max_age" v="5" />
		<tag k="min_age" v="3" />
		<tag k="name" v="Revehiet naturbarnehage" />
		<tag k="no-barnehage:nsrid" v="982752809" />
		<tag k="operator" v="Revehiet naturbarnehage AS" />
		<tag k="operator:type" v="private" />
	</node>
	<node id="-3915" lat="58.14903" lon="8.02859">
		<tag k="ADDRESS" v="Teglverksveien 54, 4632 KRISTIANSAND S" />
		<tag k="amenity" v="kindergarten" />
		<tag k="capacity" v="214" />
		<tag k="max_age" v="5" />
		<tag k="min_age" v="1" />
		<tag k="name" v="Roligheden gård barnehage" />
		<tag k="no-barnehage:nsrid" v="974121557" />
		<tag k="operator" v="Kristiansand kommune" />
		<tag k="operator:type" v="public" />
	</node>
	<node id="-3917" lat="58.0848" lon="7.81776">
		<tag k="ADDRESS" v="Sørheia 1A, 4640 SØGNE" />
		<tag k="amenity" v="kindergarten" />
		<tag k="capacity" v="78" />
		<tag k="contact:website" v="http://www.sjostjerna.sognebarnehagene.no" />
		<tag k="max_age" v="5" />
		<tag k="min_age" v="1" />
		<tag k="name" v="Sjøstjerna barnehage" />
		<tag k="no-barnehage:nsrid" v="973383272" />
		<tag k="operator" v="Kristiansand kommune" />
		<tag k="operator:type" v="public" />
	</node>
	<node id="-3918" lat="58.11847" lon="7.96338">
		<tag k="ADDRESS" v="Vågsbygdveien 63, 4622 KRISTIANSAND S" />
		<tag k="amenity" v="kindergarten" />
		<tag k="capacity" v="51" />
		<tag k="max_age" v="5" />
		<tag k="min_age" v="1" />
		<tag k="name" v="Skårungen barnehage" />
		<tag k="no-barnehage:nsrid" v="974598922" />
		<tag k="operator" v="Kristiansand kommune" />
		<tag k="operator:type" v="public" />
	</node>
	<node id="-3922" lat="0.0" lon="0.0">
		<tag k="ADDRESS" v="Øygarden 7, 4643 SØGNE" />
		<tag k="amenity" v="kindergarten" />
		<tag k="capacity" v="59" />
		<tag k="max_age" v="5" />
		<tag k="min_age" v="1" />
		<tag k="name" v="Solstrålen barnehage" />
		<tag k="no-barnehage:nsrid" v="997287932" />
		<tag k="operator" v="Kristiansand kommune" />
		<tag k="operator:type" v="public" />
	</node>
	<node id="-3923" lat="58.08048" lon="7.78617">
		<tag k="ADDRESS" v="Eikeveien 174, 4640 SØGNE" />
		<tag k="amenity" v="kindergarten" />
		<tag k="capacity" v="30" />
		<tag k="max_age" v="5" />
		<tag k="min_age" v="1" />
		<tag k="name" v="Spiren barnehage avd. Tareskogen" />
		<tag k="no-barnehage:nsrid" v="992179929" />
		<tag k="operator" v="Spiren barnehage Søgne AS" />
		<tag k="operator:type" v="private" />
	</node>
	<node id="-3924" lat="58.09017" lon="7.82525">
		<tag k="ADDRESS" v="Linneflaten 7, 4640 SØGNE" />
		<tag k="amenity" v="kindergarten" />
		<tag k="capacity" v="16" />
		<tag k="contact:website" v="http://www.spirenbhg.no" />
		<tag k="max_age" v="5" />
		<tag k="min_age" v="1" />
		<tag k="name" v="Spiren barnehage avd. Hvitveisen" />
		<tag k="no-barnehage:nsrid" v="992179880" />
		<tag k="operator" v="Spiren barnehage Søgne AS" />
		<tag k="operator:type" v="private" />
	</node>
	<node id="-3925" lat="58.14685" lon="7.98019">
		<tag k="ADDRESS" v="Jørgen Moes gate 10, 4616 KRISTIANSAND S" />
		<tag k="amenity" v="kindergarten" />
		<tag k="capacity" v="27" />
		<tag k="max_age" v="5" />
		<tag k="min_age" v="1" />
		<tag k="name" v="Stasjonshaven barnehage Al" />
		<tag k="no-barnehage:nsrid" v="973498274" />
		<tag k="operator" v="Stasjonshaven barnehage SA" />
		<tag k="operator:type" v="private" />
	</node>
	<node id="-3926" lat="58.13651" lon="8.07043">
		<tag k="ADDRESS" v="Dvergsnesbakken 29, 4639 KRISTIANSAND S" />
		<tag k="amenity" v="kindergarten" />
		<tag k="capacity" v="138" />
		<tag k="contact:website" v="http://www.maritippen.no" />
		<tag k="max_age" v="5" />
		<tag k="min_age" v="1" />
		<tag k="name" v="Stiftelsen Maritippen barnehage" />
		<tag k="no-barnehage:nsrid" v="977295092" />
		<tag k="operator" v="Stiftelsen Maritippen barnehage" />
		<tag k="operator:type" v="private" />
	</node>
	<node id="-3928" lat="58.18849" lon="7.92542">
		<tag k="ADDRESS" v="Straismoen 11, 4618 KRISTIANSAND S" />
		<tag k="amenity" v="kindergarten" />
		<tag k="capacity" v="54" />
		<tag k="contact:website" v="http://www.straibarnehage.no" />
		<tag k="max_age" v="5" />
		<tag k="min_age" v="1" />
		<tag k="name" v="Strai barnehage" />
		<tag k="no-barnehage:nsrid" v="875185152" />
		<tag k="operator" v="Strai barnehage SA" />
		<tag k="operator:type" v="private" />
	</node>
	<node id="-3929" lat="58.15265" lon="8.0577">
		<tag k="ADDRESS" v="Vardåsveien 67, 4637 KRISTIANSAND S" />
		<tag k="amenity" v="kindergarten" />
		<tag k="capacity" v="31" />
		<tag k="max_age" v="5" />
		<tag k="min_age" v="1" />
		<tag k="name" v="Søm barnehage" />
		<tag k="no-barnehage:nsrid" v="974798441" />
		<tag k="operator" v="Kristiansand kommune" />
		<tag k="operator:type" v="public" />
	</node>
	<node id="-3930" lat="58.15622" lon="8.08189">
		<tag k="ADDRESS" v="Strømmeveien 49, 4638 KRISTIANSAND S" />
		<tag k="amenity" v="kindergarten" />
		<tag k="contact:website" v="http://www.åpenbarnehage.no" />
		<tag k="name" v="Søm åpne barnehage" />
		<tag k="no-barnehage:nsrid" v="992527587" />
		<tag k="operator" v="Åpne Barnehager AS" />
		<tag k="operator:type" v="private" />
	</node>
	<node id="-3931" lat="58.08583" lon="8.00048">
		<tag k="ADDRESS" v="Knudsmyr 1, 4625 FLEKKERØY" />
		<tag k="amenity" v="kindergarten" />
		<tag k="capacity" v="53" />
		<tag k="max_age" v="5" />
		<tag k="min_age" v="1" />
		<tag k="name" v="Taremareskogen barnehage" />
		<tag k="no-barnehage:nsrid" v="973831623" />
		<tag k="operator" v="Kristiansand kommune" />
		<tag k="operator:type" v="public" />
	</node>
	<node id="-3932" lat="58.10689" lon="7.97559">
		<tag k="ADDRESS" v="Ærfuglveien 13C, 4623 KRISTIANSAND S" />
		<tag k="amenity" v="kindergarten" />
		<tag k="capacity" v="18" />
		<tag k="contact:website" v="http://www.ternevig.barnehage.no" />
		<tag k="max_age" v="5" />
		<tag k="min_age" v="1" />
		<tag k="name" v="Ternevig barnehage" />
		<tag k="no-barnehage:nsrid" v="979374852" />
		<tag k="operator" v="Ternevig barnehage AS" />
		<tag k="operator:type" v="private" />
	</node>
	<node id="-3933" lat="58.16944" lon="8.10137">
		<tag k="ADDRESS" v="Timenesveien 20, 4635 KRISTIANSAND S" />
		<tag k="amenity" v="kindergarten" />
		<tag k="capacity" v="21" />
		<tag k="max_age" v="5" />
		<tag k="min_age" v="1" />
		<tag k="name" v="Timenes gårds og naturbarnehage Trine Isaksen" />
		<tag k="no-barnehage:nsrid" v="976482662" />
		<tag k="operator" v="Timenes Gårds og naturbarnehage Trine Isaksen" />
		<tag k="operator:type" v="private" />
	</node>
	<node id="-3934" lat="58.14771" lon="7.95551">
		<tag k="ADDRESS" v="Tinnheiveien 24, 4629 KRISTIANSAND S" />
		<tag k="amenity" v="kindergarten" />
		<tag k="capacity" v="62" />
		<tag k="max_age" v="5" />
		<tag k="min_age" v="1" />
		<tag k="name" v="Tinnstua barnehage" />
		<tag k="no-barnehage:nsrid" v="973276700" />
		<tag k="operator" v="Kristiansand kommune" />
		<tag k="operator:type" v="public" />
	</node>
	<node id="-3935" lat="58.20466" lon="7.929751">
		<tag k="ADDRESS" v="C/o Torridal Kirke Hommeren 4, 4618 KRISTIANSAND S" />
		<tag k="amenity" v="kindergarten" />
		<tag k="name" v="Torridal åpen barnehage" />
		<tag k="no-barnehage:nsrid" v="996006158" />
		<tag k="operator" v="Torridal Sokn" />
		<tag k="operator:type" v="private" />
	</node>
	<node id="-3936" lat="58.08703" lon="7.82818">
		<tag k="ADDRESS" v="Torvmoen 2, 4640 SØGNE" />
		<tag k="amenity" v="kindergarten" />
		<tag k="capacity" v="59" />
		<tag k="max_age" v="5" />
		<tag k="min_age" v="1" />
		<tag k="name" v="Torvmoen barnehage" />
		<tag k="no-barnehage:nsrid" v="993556920" />
		<tag k="operator" v="Kristiansand kommune" />
		<tag k="operator:type" v="public" />
	</node>
	<node id="-3937" lat="58.12921" lon="7.96183">
		<tag k="ADDRESS" v="Vågsbygd ringvei 100, 4621 KRISTIANSAND S" />
		<tag k="amenity" v="kindergarten" />
		<tag k="name" v="Trekanten åpen barnehage" />
		<tag k="no-barnehage:nsrid" v="987057912" />
		<tag k="operator" v="Vineyard Kristne Fellesskap Kristiansand" />
		<tag k="operator:type" v="private" />
	</node>
	<node id="-3938" lat="58.15949" lon="7.98847">
		<tag k="ADDRESS" v="Andreas Kjærs vei 76, 4615 KRISTIANSAND S" />
		<tag k="amenity" v="kindergarten" />
		<tag k="capacity" v="40" />
		<tag k="max_age" v="5" />
		<tag k="min_age" v="1" />
		<tag k="name" v="Trollhaugen barnehage" />
		<tag k="no-barnehage:nsrid" v="973484230" />
		<tag k="operator" v="Kristiansand kommune" />
		<tag k="operator:type" v="public" />
	</node>
	<node id="-3939" lat="58.24557" lon="8.14534">
		<tag k="ADDRESS" v="Boen 28, 4658 TVEIT" />
		<tag k="amenity" v="kindergarten" />
		<tag k="capacity" v="29" />
		<tag k="contact:website" v="http://www.trollstuaboen.barnehage.no" />
		<tag k="max_age" v="5" />
		<tag k="min_age" v="1" />
		<tag k="name" v="Trollstua barnehage Boen" />
		<tag k="no-barnehage:nsrid" v="995737299" />
		<tag k="operator" v="Trollstua barnehage Boen AS" />
		<tag k="operator:type" v="private" />
	</node>
	<node id="-3940" lat="0.0" lon="0.0">
		<tag k="ADDRESS" v="Tunballveien, 4645 NODELAND" />
		<tag k="amenity" v="kindergarten" />
		<tag k="capacity" v="61" />
		<tag k="max_age" v="5" />
		<tag k="min_age" v="1" />
		<tag k="name" v="Tunballen barnehage" />
		<tag k="no-barnehage:nsrid" v="975315703" />
		<tag k="operator" v="Kristiansand kommune" />
		<tag k="operator:type" v="public" />
	</node>
	<node id="-3941" lat="58.19328" lon="8.08602">
		<tag k="ADDRESS" v="Balchens Vei 3, 4656 HAMRESANDEN" />
		<tag k="amenity" v="kindergarten" />
		<tag k="contact:website" v="http://www.åpenbarnehage.no" />
		<tag k="name" v="Tveit åpne barnehage" />
		<tag k="no-barnehage:nsrid" v="992527722" />
		<tag k="operator" v="Åpne Barnehager AS" />
		<tag k="operator:type" v="private" />
	</node>
	<node id="-3942" lat="58.15163" lon="8.08021">
		<tag k="ADDRESS" v="Strømmeveien 103, 4638 KRISTIANSAND S" />
		<tag k="amenity" v="kindergarten" />
		<tag k="capacity" v="60" />
		<tag k="max_age" v="5" />
		<tag k="min_age" v="1" />
		<tag k="name" v="Veslefrikk barnehage" />
		<tag k="no-barnehage:nsrid" v="873831472" />
		<tag k="operator" v="Kristiansand kommune" />
		<tag k="operator:type" v="public" />
	</node>
	<node id="-3943" lat="58.10175" lon="7.94786">
		<tag k="ADDRESS" v="Voie ringvei 108, 4624 KRISTIANSAND S" />
		<tag k="amenity" v="kindergarten" />
		<tag k="capacity" v="4" />
		<tag k="max_age" v="5" />
		<tag k="min_age" v="1" />
		<tag k="name" v="Voie barnehage Merete Frigstad" />
		<tag k="no-barnehage:nsrid" v="975183548" />
		<tag k="operator" v="Voie barnehage Merete Frigstad" />
		<tag k="operator:type" v="private" />
	</node>
	<node id="-3944" lat="58.10403" lon="7.95798">
		<tag k="ADDRESS" v="Sjekteveien 1, 4624 KRISTIANSAND S" />
		<tag k="amenity" v="kindergarten" />
		<tag k="capacity" v="51" />
		<tag k="max_age" v="5" />
		<tag k="min_age" v="1" />
		<tag k="name" v="Voietun barnehage" />
		<tag k="no-barnehage:nsrid" v="974798484" />
		<tag k="operator" v="Kristiansand kommune" />
		<tag k="operator:type" v="public" />
	</node>
	<node id="-3946" lat="58.11658" lon="7.95518">
		<tag k="ADDRESS" v="Hundebakken 6, 4622 KRISTIANSAND S" />
		<tag k="amenity" v="kindergarten" />
		<tag k="capacity" v="197" />
		<tag k="max_age" v="5" />
		<tag k="min_age" v="1" />
		<tag k="name" v="Vågsbygd FUS barnehage" />
		<tag k="no-barnehage:nsrid" v="995598477" />
		<tag k="operator" v="Vågsbygd Fus barnehage AS" />
		<tag k="operator:type" v="private" />
	</node>
	<node id="-3947" lat="58.15093" lon="7.9791">
		<tag k="ADDRESS" v="Wergelandsveien 15A, 4616 KRISTIANSAND S" />
		<tag k="amenity" v="kindergarten" />
		<tag k="capacity" v="13" />
		<tag k="contact:website" v="http://wergelandsveienbarnehage.no" />
		<tag k="max_age" v="5" />
		<tag k="min_age" v="1" />
		<tag k="name" v="Wergelandsveien barnehage" />
		<tag k="no-barnehage:nsrid" v="973945319" />
		<tag k="operator" v="Wergelandsveien barnehage SA" />
		<tag k="operator:type" v="private" />
	</node>
	<node id="-3948" lat="0.0" lon="0.0">
		<tag k="ADDRESS" v="Slettheiveien 71, 4626 KRISTIANSAND S" />
		<tag k="amenity" v="kindergarten" />
		<tag k="capacity" v="72" />
		<tag k="max_age" v="5" />
		<tag k="min_age" v="1" />
		<tag k="name" v="Øvre Slettheia barnehage" />
		<tag k="no-barnehage:nsrid" v="974798476" />
		<tag k="operator" v="Kristiansand kommune" />
		<tag k="operator:type" v="public" />
	</node>
	<node id="-3949" lat="58.07868" lon="7.83524">
		<tag k="ADDRESS" v="Årosveien 220, 4640 SØGNE" />
		<tag k="amenity" v="kindergarten" />
		<tag k="capacity" v="70" />
		<tag k="max_age" v="5" />
		<tag k="min_age" v="1" />
		<tag k="name" v="Åros barnehage" />
		<tag k="no-barnehage:nsrid" v="986904085" />
		<tag k="operator" v="Kristiansand kommune" />
		<tag k="operator:type" v="public" />
	</node>
</osm>
