<?xml version="1.0" encoding="UTF-8"?>
<osm generator="osmapis" version="0.6">
	<node id="-3777" lat="58.70867" lon="9.21601">
		<tag k="ADDRESS" v="Randvikveien 63, 4956 RISØR" />
		<tag k="amenity" v="kindergarten" />
		<tag k="capacity" v="29" />
		<tag k="contact:website" v="http://www.amandus.barnehage.no" />
		<tag k="max_age" v="5" />
		<tag k="min_age" v="1" />
		<tag k="name" v="Amandus barnehage" />
		<tag k="no-barnehage:nsrid" v="973476556" />
		<tag k="operator" v="Amandus barnehage Sa" />
		<tag k="operator:type" v="private" />
	</node>
	<node id="-3778" lat="58.75004" lon="9.06514">
		<tag k="ADDRESS" v="Vormeliveien 59, 4990 SØNDELED" />
		<tag k="amenity" v="kindergarten" />
		<tag k="capacity" v="39" />
		<tag k="contact:website" v="http://fargeskrinet-barnehage.no" />
		<tag k="max_age" v="5" />
		<tag k="min_age" v="1" />
		<tag k="name" v="Fargeskrinet barnehage" />
		<tag k="no-barnehage:nsrid" v="975307360" />
		<tag k="operator" v="Risør kommune" />
		<tag k="operator:type" v="public" />
	</node>
	<node id="-3779" lat="58.71855" lon="9.21433">
		<tag k="ADDRESS" v="Tjenngata 76, 4950 RISØR" />
		<tag k="amenity" v="kindergarten" />
		<tag k="capacity" v="44" />
		<tag k="contact:website" v="http://www.frydenborg.barnehage.no" />
		<tag k="max_age" v="5" />
		<tag k="min_age" v="1" />
		<tag k="name" v="Frydenborg barnehage" />
		<tag k="no-barnehage:nsrid" v="973465597" />
		<tag k="operator" v="Frydenborg barnehage AS" />
		<tag k="operator:type" v="private" />
	</node>
	<node id="-3780" lat="0.0" lon="0.0">
		<tag k="ADDRESS" v=", 4950 RISØR" />
		<tag k="amenity" v="kindergarten" />
		<tag k="name" v="Frydendal åpen barnehage" />
		<tag k="no-barnehage:nsrid" v="993428841" />
		<tag k="operator" v="Frydendal Åpen barnehage" />
		<tag k="operator:type" v="private" />
	</node>
	<node id="-3781" lat="58.68945" lon="9.14603">
		<tag k="ADDRESS" v="Åkvågveien 495, 4957 RISØR" />
		<tag k="amenity" v="kindergarten" />
		<tag k="capacity" v="23" />
		<tag k="contact:website" v="http://Hope.oppvekstsenter.no" />
		<tag k="max_age" v="5" />
		<tag k="min_age" v="1" />
		<tag k="name" v="Hope oppvekstsenter avd. barnehage" />
		<tag k="no-barnehage:nsrid" v="976668545" />
		<tag k="operator" v="Risør kommune" />
		<tag k="operator:type" v="public" />
	</node>
	<node id="-3782" lat="58.70868" lon="9.21827">
		<tag k="ADDRESS" v="Randvikveien 80, 4956 RISØR" />
		<tag k="amenity" v="kindergarten" />
		<tag k="capacity" v="25" />
		<tag k="contact:website" v="http://lekeslottet.barnehage.no/" />
		<tag k="max_age" v="5" />
		<tag k="min_age" v="1" />
		<tag k="name" v="Lekeslottet barnehage Risør Helårsåpen barnehage" />
		<tag k="no-barnehage:nsrid" v="973458469" />
		<tag k="operator" v="Lekeslottet barnehage Risør AS" />
		<tag k="operator:type" v="private" />
	</node>
	<node id="-3783" lat="58.72145" lon="9.22756">
		<tag k="ADDRESS" v="Kranveien 4c, 4950 RISØR" />
		<tag k="amenity" v="kindergarten" />
		<tag k="capacity" v="48" />
		<tag k="contact:website" v="http://www.tjenna.barnehage.no" />
		<tag k="max_age" v="5" />
		<tag k="min_age" v="1" />
		<tag k="name" v="Tjenna barnehage" />
		<tag k="no-barnehage:nsrid" v="973502093" />
		<tag k="operator" v="Tjenna barnehage AS" />
		<tag k="operator:type" v="private" />
	</node>
	<node id="-3784" lat="58.71514" lon="9.21426">
		<tag k="ADDRESS" v="Caspersens vei 31, 4956 RISØR" />
		<tag k="amenity" v="kindergarten" />
		<tag k="capacity" v="44" />
		<tag k="contact:website" v="http://trollstua.barnehageveven.no/" />
		<tag k="max_age" v="5" />
		<tag k="min_age" v="1" />
		<tag k="name" v="Trollstua barnehage natur og idrettsbarnehage" />
		<tag k="no-barnehage:nsrid" v="873808802" />
		<tag k="operator" v="Risør kommune" />
		<tag k="operator:type" v="public" />
	</node>
</osm>
