<?xml version="1.0" encoding="UTF-8"?>
<osm generator="osmapis" version="0.6">
	<node id="-29" lat="59.11329" lon="11.41631">
		<tag k="amenity" v="kindergarten" />
		<tag k="capacity" v="4" />
		<tag k="contact:email" v="risum.familiebarnehage@halden.net" />
		<tag k="max_age" v="5" />
		<tag k="min_age" v="1" />
		<tag k="name" v="Risum Familiebarnehage (det Blå Huset)" />
		<tag k="no-barnehage:nsrid" v="1020482" />
		<tag k="operator" v="Risum Familiebarnehage Det Blå Huset V/ Lise Danino" />
		<tag k="operator:type" v="private" />
		<tag k="start_date" v="2010-01-01" />
	</node>
	<node id="-21" lat="59.12096" lon="11.44001">
		<tag k="amenity" v="kindergarten" />
		<tag k="capacity" v="4" />
		<tag k="contact:email" v="famlarsson@halden.net" />
		<tag k="contact:phone" v="+47 928 48 660" />
		<tag k="max_age" v="5" />
		<tag k="min_age" v="1" />
		<tag k="name" v="Lekestua Familiebarnehage" />
		<tag k="no-barnehage:nsrid" v="1021749" />
		<tag k="operator" v="Lekestua Familiebarnehage Seline Larsson" />
		<tag k="operator:type" v="private" />
		<tag k="start_date" v="2008-01-06" />
	</node>
	<node id="-14" lat="59.14317" lon="11.41151">
		<tag k="amenity" v="kindergarten" />
		<tag k="capacity" v="6" />
		<tag k="contact:email" v="heidin669@gmail.com" />
		<tag k="contact:phone" v="+47 69 18 76 19" />
		<tag k="max_age" v="5" />
		<tag k="min_age" v="1" />
		<tag k="name" v="Heidis Familiebarnehage Heidi Nilsen" />
		<tag k="no-barnehage:nsrid" v="1020220" />
		<tag k="operator" v="Heidis Familiebarnehage Heidi Nilsen" />
		<tag k="operator:type" v="private" />
		<tag k="start_date" v="1995-03-12" />
	</node>
	<node id="-10" lat="59.1366" lon="11.43682">
		<tag k="amenity" v="kindergarten" />
		<tag k="capacity" v="12" />
		<tag k="contact:email" v="ainastaxvold@gmail.com" />
		<tag k="contact:phone" v="+47 90867610" />
		<tag k="contact:website" v="http://www.cum-cura.no" />
		<tag k="max_age" v="5" />
		<tag k="min_age" v="1" />
		<tag k="name" v="Cum-Cura AS" />
		<tag k="no-barnehage:nsrid" v="1022219" />
		<tag k="operator" v="Cum-Cura AS" />
		<tag k="operator:type" v="private" />
		<tag k="start_date" v="2008-08-01" />
	</node>
	<node id="-38" lat="59.25583" lon="11.3279">
		<tag k="amenity" v="kindergarten" />
		<tag k="capacity" v="9" />
		<tag k="contact:email" v="marianne@svingenbarnehage.no" />
		<tag k="contact:phone" v="+47 900 14 808" />
		<tag k="contact:website" v="http://www.svingenbarnehage.no" />
		<tag k="max_age" v="5" />
		<tag k="min_age" v="1" />
		<tag k="name" v="Svingen Dyr- og Familiebarnehage AS" />
		<tag k="no-barnehage:nsrid" v="1022198" />
		<tag k="operator" v="Svingen Dyr- og Familiebarnehage AS" />
		<tag k="operator:type" v="private" />
		<tag k="start_date" v="1995-02-20" />
	</node>
	<node id="-34" lat="59.13197" lon="11.39337">
		<tag k="amenity" v="kindergarten" />
		<tag k="capacity" v="9" />
		<tag k="contact:email" v="efarbrot@online.no" />
		<tag k="contact:phone" v="+47 69 18 72 75" />
		<tag k="max_age" v="5" />
		<tag k="min_age" v="1" />
		<tag k="name" v="Solsiden Familiebarnehage Farbrot" />
		<tag k="no-barnehage:nsrid" v="1021041" />
		<tag k="operator" v="Solsiden Familiebarnehage Farbrot" />
		<tag k="operator:type" v="private" />
		<tag k="start_date" v="2004-04-26" />
	</node>
</osm>
