<?xml version="1.0" encoding="UTF-8"?>
<osm generator="osmapis" version="0.6">
	<node id="-2733" lat="59.3049" lon="10.1797">
		<tag k="amenity" v="kindergarten" />
		<tag k="capacity" v="34" />
		<tag k="contact:email" v="vesteraat.bhg@andebu.kommune.no" />
		<tag k="contact:phone" v="+47 33 44 37 80" />
		<tag k="max_age" v="5" />
		<tag k="min_age" v="1" />
		<tag k="name" v="Vesteråt barnehage" />
		<tag k="no-barnehage:nsrid" v="1018026" />
		<tag k="operator" v="Andebu kommune" />
		<tag k="operator:type" v="public" />
		<tag k="start_date" v="1989-01-01" />
	</node>
	<node id="-2732" lat="59.22697" lon="10.10258">
		<tag k="amenity" v="kindergarten" />
		<tag k="capacity" v="49" />
		<tag k="contact:email" v="ingergrete@smiehavna.no" />
		<tag k="contact:phone" v="+47 33 44 28 20" />
		<tag k="max_age" v="5" />
		<tag k="min_age" v="1" />
		<tag k="name" v="Smiehavna Gårdsbarnehage AS" />
		<tag k="no-barnehage:nsrid" v="1022329" />
		<tag k="operator" v="Smiehavna Gårdsbarnehage AS" />
		<tag k="operator:type" v="private" />
		<tag k="start_date" v="2003-06-25" />
	</node>
	<node id="-2731" lat="59.3016" lon="10.1728">
		<tag k="amenity" v="kindergarten" />
		<tag k="capacity" v="53" />
		<tag k="contact:email" v="grethe.johnsen@andebu.kommune.no" />
		<tag k="contact:phone" v="+47 33 43 82 75" />
		<tag k="max_age" v="5" />
		<tag k="min_age" v="1" />
		<tag k="name" v="Møyland barnehage" />
		<tag k="no-barnehage:nsrid" v="1013209" />
		<tag k="operator" v="Andebu kommune" />
		<tag k="operator:type" v="public" />
		<tag k="start_date" v="2005-08-01" />
	</node>
	<node id="-2730" lat="59.2153" lon="10.1396">
		<tag k="amenity" v="kindergarten" />
		<tag k="capacity" v="57" />
		<tag k="contact:email" v="kodal.bhg@andebu.kommune.no" />
		<tag k="contact:phone" v="+47 33 44 14 30" />
		<tag k="max_age" v="5" />
		<tag k="min_age" v="1" />
		<tag k="name" v="Kodal barnehage" />
		<tag k="no-barnehage:nsrid" v="1014690" />
		<tag k="operator" v="Andebu kommune" />
		<tag k="operator:type" v="public" />
		<tag k="start_date" v="1990-09-01" />
	</node>
	<node id="-2729" lat="59.3609" lon="10.1381">
		<tag k="amenity" v="kindergarten" />
		<tag k="capacity" v="42" />
		<tag k="contact:email" v="heidi.hov@andebu.kommune.no" />
		<tag k="contact:phone" v="+47 33 44 20 15" />
		<tag k="max_age" v="5" />
		<tag k="min_age" v="1" />
		<tag k="name" v="Høyjord barnehage" />
		<tag k="no-barnehage:nsrid" v="1015874" />
		<tag k="operator" v="Andebu kommune" />
		<tag k="operator:type" v="public" />
		<tag k="start_date" v="1999-08-01" />
	</node>
	<node id="-2728" lat="59.3097" lon="10.1987">
		<tag k="amenity" v="kindergarten" />
		<tag k="capacity" v="68" />
		<tag k="contact:email" v="elisabeth.trollsaas.jellum@andebu.kommune.no" />
		<tag k="contact:phone" v="+47 33 43 82 80" />
		<tag k="max_age" v="5" />
		<tag k="min_age" v="1" />
		<tag k="name" v="Gravdal barnehage" />
		<tag k="no-barnehage:nsrid" v="1013422" />
		<tag k="operator" v="Andebu kommune" />
		<tag k="operator:type" v="public" />
		<tag k="start_date" v="2007-08-01" />
	</node>
</osm>
