<?xml version="1.0" encoding="UTF-8"?>
<osm version="0.6" generator="osmapis">
	<node lat="61.13023" lon="11.30784" id="-3099">
		<tag k="ADDRESS" v="Åsbygdsveien 517, 2450 RENA" />
		<tag k="amenity" v="kindergarten" />
		<tag k="capacity" v="22" />
		<tag k="contact:website" v="http://klingen-naturbarnehage.no" />
		<tag k="max_age" v="5" />
		<tag k="min_age" v="1" />
		<tag k="name" v="Klingen naturbarnehage" />
		<tag k="no-barnehage:nsrid" v="973352377" />
		<tag k="operator" v="Klingen naturbarnehage SA" />
		<tag k="operator:type" v="private" />
	</node>
	<node lat="61.30252" lon="11.76366" id="-3100">
		<tag k="ADDRESS" v="Olav Nilsens vei 5, 2460 OSEN" />
		<tag k="amenity" v="kindergarten" />
		<tag k="capacity" v="7" />
		<tag k="max_age" v="5" />
		<tag k="min_age" v="1" />
		<tag k="name" v="Osen oppvekstsenter avd. barnehage" />
		<tag k="no-barnehage:nsrid" v="975302733" />
		<tag k="operator" v="Åmot kommune" />
		<tag k="operator:type" v="public" />
	</node>
	<node lat="61.15491" lon="11.42537" id="-3101">
		<tag k="ADDRESS" v="Haugedalsveien 406, 2450 RENA" />
		<tag k="amenity" v="kindergarten" />
		<tag k="capacity" v="31" />
		<tag k="max_age" v="5" />
		<tag k="min_age" v="1" />
		<tag k="name" v="Ottershagen gardsbarnehage" />
		<tag k="no-barnehage:nsrid" v="987046279" />
		<tag k="operator" v="Ottershagen gardsbarnehage AS" />
		<tag k="operator:type" v="private" />
	</node>
	<node lat="61.13269" lon="11.35711" id="-3102">
		<tag k="ADDRESS" v="Tyttebærstien 2, 2450 RENA" />
		<tag k="amenity" v="kindergarten" />
		<tag k="capacity" v="42" />
		<tag k="max_age" v="5" />
		<tag k="min_age" v="1" />
		<tag k="name" v="Skyssveien barnehage" />
		<tag k="no-barnehage:nsrid" v="980483940" />
		<tag k="operator" v="Åmot kommune" />
		<tag k="operator:type" v="public" />
	</node>
	<node lat="61.14376" lon="11.36568" id="-3103">
		<tag k="ADDRESS" v="Kirkebergg 58, 2450 RENA" />
		<tag k="amenity" v="kindergarten" />
		<tag k="capacity" v="20" />
		<tag k="max_age" v="5" />
		<tag k="min_age" v="1" />
		<tag k="name" v="Trollhaugen barnehage" />
		<tag k="no-barnehage:nsrid" v="975302741" />
		<tag k="operator" v="Åmot kommune" />
		<tag k="operator:type" v="public" />
	</node>
	<node lat="61.30172" lon="11.46208" id="-3104">
		<tag k="ADDRESS" v="Kvennbekkveien 24, 2450 RENA" />
		<tag k="amenity" v="kindergarten" />
		<tag k="capacity" v="11" />
		<tag k="contact:website" v="http://www.amotmontessori.no" />
		<tag k="max_age" v="5" />
		<tag k="min_age" v="1" />
		<tag k="name" v="Åmot montessoribarnehage" />
		<tag k="no-barnehage:nsrid" v="920143067" />
		<tag k="operator" v="Åmot montessoribarnehage SA" />
		<tag k="operator:type" v="private" />
	</node>
</osm>
