<?xml version="1.0" encoding="UTF-8"?>
<osm generator="osmapis" version="0.6">
	<node id="-2390" lat="59.34906" lon="10.461">
		<tag k="amenity" v="kindergarten" />
		<tag k="capacity" v="30" />
		<tag k="max_age" v="5" />
		<tag k="min_age" v="1" />
		<tag k="name" v="Åsgårdstrand barnehage avd. Nygårdsløkka" />
		<tag k="no-barnehage:nsrid" v="1019646" />
		<tag k="operator" v="Horten kommune" />
		<tag k="operator:type" v="public" />
	</node>
	<node id="-2389" lat="59.3483" lon="10.4551">
		<tag k="amenity" v="kindergarten" />
		<tag k="capacity" v="47" />
		<tag k="max_age" v="5" />
		<tag k="min_age" v="1" />
		<tag k="name" v="Åsgårdstrand barnehage avd. Lønneveien" />
		<tag k="no-barnehage:nsrid" v="1012880" />
		<tag k="operator" v="Horten kommune" />
		<tag k="operator:type" v="public" />
	</node>
	<node id="-2388" lat="59.40607" lon="10.48074">
		<tag k="amenity" v="kindergarten" />
		<tag k="name" v="Åpen barnehage" />
		<tag k="no-barnehage:nsrid" v="1022450" />
		<tag k="operator" v="Silvia Kristoffersen Kosmo" />
		<tag k="operator:type" v="private" />
	</node>
	<node id="-2386" lat="59.40516" lon="10.46232">
		<tag k="amenity" v="kindergarten" />
		<tag k="capacity" v="34" />
		<tag k="max_age" v="5" />
		<tag k="min_age" v="1" />
		<tag k="name" v="Trimveien barnehage" />
		<tag k="no-barnehage:nsrid" v="1020695" />
		<tag k="operator" v="Trimveien barnehage Da" />
		<tag k="operator:type" v="private" />
	</node>
	<node id="-2385" lat="59.4057" lon="10.4836">
		<tag k="amenity" v="kindergarten" />
		<tag k="capacity" v="77" />
		<tag k="max_age" v="5" />
		<tag k="min_age" v="1" />
		<tag k="name" v="Strandparken barnehage" />
		<tag k="no-barnehage:nsrid" v="1016998" />
		<tag k="operator" v="Horten kommune" />
		<tag k="operator:type" v="public" />
	</node>
	<node id="-2384" lat="59.3577" lon="10.45718">
		<tag k="amenity" v="kindergarten" />
		<tag k="capacity" v="51" />
		<tag k="contact:website" v="http://www.stifinnerenbarnehage.no" />
		<tag k="max_age" v="5" />
		<tag k="min_age" v="1" />
		<tag k="name" v="Stifinneren barnehage" />
		<tag k="no-barnehage:nsrid" v="1022354" />
		<tag k="operator" v="Stifinneren barnehage AS" />
		<tag k="operator:type" v="private" />
	</node>
	<node id="-2381" lat="59.4359" lon="10.4446">
		<tag k="amenity" v="kindergarten" />
		<tag k="capacity" v="81" />
		<tag k="max_age" v="5" />
		<tag k="min_age" v="1" />
		<tag k="name" v="Skavli barnehage" />
		<tag k="no-barnehage:nsrid" v="1016400" />
		<tag k="operator" v="Horten kommune" />
		<tag k="operator:type" v="public" />
	</node>
	<node id="-2380" lat="59.3961" lon="10.4644">
		<tag k="amenity" v="kindergarten" />
		<tag k="capacity" v="87" />
		<tag k="max_age" v="5" />
		<tag k="min_age" v="1" />
		<tag k="name" v="Rørehagen barnehage" />
		<tag k="no-barnehage:nsrid" v="1012879" />
		<tag k="operator" v="Horten kommune" />
		<tag k="operator:type" v="public" />
	</node>
	<node id="-2379" lat="59.4177" lon="10.4524">
		<tag k="amenity" v="kindergarten" />
		<tag k="capacity" v="53" />
		<tag k="max_age" v="5" />
		<tag k="min_age" v="1" />
		<tag k="name" v="Nordskogen barnehage" />
		<tag k="no-barnehage:nsrid" v="1012878" />
		<tag k="operator" v="Horten kommune" />
		<tag k="operator:type" v="public" />
	</node>
	<node id="-2378" lat="59.41922" lon="10.46139">
		<tag k="amenity" v="kindergarten" />
		<tag k="capacity" v="20" />
		<tag k="max_age" v="5" />
		<tag k="min_age" v="1" />
		<tag k="name" v="Lilaas gård barnehage, Inger Marie Semb Avdal" />
		<tag k="no-barnehage:nsrid" v="1020694" />
		<tag k="operator" v="Lilaas Gård Barnehage, Inger Marie Semb Avdal" />
		<tag k="operator:type" v="private" />
	</node>
	<node id="-2377" lat="59.4261" lon="10.4918">
		<tag k="amenity" v="kindergarten" />
		<tag k="capacity" v="80" />
		<tag k="max_age" v="5" />
		<tag k="min_age" v="1" />
		<tag k="name" v="Karljohansvern barnehage" />
		<tag k="no-barnehage:nsrid" v="1015695" />
		<tag k="operator" v="Horten kommune" />
		<tag k="operator:type" v="public" />
	</node>
	<node id="-2375" lat="59.4087" lon="10.4681">
		<tag k="amenity" v="kindergarten" />
		<tag k="capacity" v="66" />
		<tag k="max_age" v="5" />
		<tag k="min_age" v="1" />
		<tag k="name" v="Gartnerløkka barnehage" />
		<tag k="no-barnehage:nsrid" v="1012882" />
		<tag k="operator" v="Horten kommune" />
		<tag k="operator:type" v="public" />
	</node>
	<node id="-2374" lat="59.42416" lon="10.37416">
		<tag k="amenity" v="kindergarten" />
		<tag k="capacity" v="70" />
		<tag k="max_age" v="5" />
		<tag k="min_age" v="1" />
		<tag k="name" v="Espira Nykirke barnehage" />
		<tag k="no-barnehage:nsrid" v="1026617" />
		<tag k="operator" v="Espira Barnehager AS" />
		<tag k="operator:type" v="private" />
	</node>
	<node id="-2373" lat="59.40471" lon="10.46589">
		<tag k="amenity" v="kindergarten" />
		<tag k="capacity" v="167" />
		<tag k="max_age" v="5" />
		<tag k="min_age" v="1" />
		<tag k="name" v="Espira Baggerødbanen barnehage" />
		<tag k="no-barnehage:nsrid" v="1025673" />
		<tag k="operator" v="Espira Barnehager AS" />
		<tag k="operator:type" v="private" />
	</node>
	<node id="-2372" lat="59.37968" lon="10.44601">
		<tag k="amenity" v="kindergarten" />
		<tag k="capacity" v="58" />
		<tag k="max_age" v="5" />
		<tag k="min_age" v="1" />
		<tag k="name" v="Borre Student- og idrettsbarnehage" />
		<tag k="no-barnehage:nsrid" v="1026357" />
		<tag k="operator" v="Borre Student- og Idrettsbarnehage AS" />
		<tag k="operator:type" v="private" />
	</node>
	<node id="-2371" lat="59.3865" lon="10.405">
		<tag k="amenity" v="kindergarten" />
		<tag k="capacity" v="131" />
		<tag k="max_age" v="5" />
		<tag k="min_age" v="1" />
		<tag k="name" v="Blåbærlyngen barnehage" />
		<tag k="no-barnehage:nsrid" v="1012881" />
		<tag k="operator" v="Horten kommune" />
		<tag k="operator:type" v="public" />
	</node>
	<node id="-2370" lat="59.4187" lon="10.4515">
		<tag k="amenity" v="kindergarten" />
		<tag k="capacity" v="129" />
		<tag k="max_age" v="5" />
		<tag k="min_age" v="1" />
		<tag k="name" v="Bjørnestien barnehage" />
		<tag k="no-barnehage:nsrid" v="1018462" />
		<tag k="operator" v="Horten kommune" />
		<tag k="operator:type" v="public" />
	</node>
	<node id="-2369" lat="59.41496" lon="10.46043">
		<tag k="amenity" v="kindergarten" />
		<tag k="capacity" v="53" />
		<tag k="max_age" v="5" />
		<tag k="min_age" v="1" />
		<tag k="name" v="Barnas barnehage" />
		<tag k="no-barnehage:nsrid" v="1022067" />
		<tag k="operator" v="Barnas-Barnehage AS" />
		<tag k="operator:type" v="private" />
	</node>
</osm>
