<?xml version="1.0" encoding="UTF-8"?>
<osm generator="osmapis" version="0.6">
	<node id="-2432" lat="59.39613" lon="10.45941">
		<tag k="amenity" v="kindergarten" />
		<tag k="capacity" v="8" />
		<tag k="max_age" v="2" />
		<tag k="min_age" v="1" />
		<tag k="name" v="Horten familiebarnehage" />
		<tag k="no-barnehage:nsrid" v="1020338" />
		<tag k="operator" v="Babyhagen Familiebarnehage Liv GulestÃ¸l" />
		<tag k="operator:type" v="private" />
	</node>
	<node id="-2439" lat="59.42276" lon="10.46038">
		<tag k="amenity" v="kindergarten" />
		<tag k="capacity" v="8" />
		<tag k="max_age" v="2" />
		<tag k="min_age" v="1" />
		<tag k="name" v="Skrukketrollet familiebarnehage" />
		<tag k="no-barnehage:nsrid" v="1021118" />
		<tag k="operator" v="Skrukketrollet Familiebarnehage Da" />
		<tag k="operator:type" v="private" />
	</node>
	<node id="-2440" lat="59.40733" lon="10.46884">
		<tag k="amenity" v="kindergarten" />
		<tag k="capacity" v="4" />
		<tag k="max_age" v="2" />
		<tag k="min_age" v="1" />
		<tag k="name" v="Sommerfugl familiebarnehage" />
		<tag k="no-barnehage:nsrid" v="1020739" />
		<tag k="operator" v="Sommerfugl Familiebarnehage Ruth-Laila Larsen" />
		<tag k="operator:type" v="private" />
	</node>
	<node id="-2444" lat="59.40808" lon="10.46267">
		<tag k="amenity" v="kindergarten" />
		<tag k="capacity" v="4" />
		<tag k="max_age" v="2" />
		<tag k="min_age" v="1" />
		<tag k="name" v="Tusseladden familiebarnehage" />
		<tag k="no-barnehage:nsrid" v="1021672" />
		<tag k="operator" v="Kathrine Jonas Hansen Tusseladdenfamiliebarnehage" />
		<tag k="operator:type" v="private" />
	</node>
	<node id="-2434" lat="59.35803" lon="10.46283">
		<tag k="amenity" v="kindergarten" />
		<tag k="capacity" v="8" />
		<tag k="max_age" v="2" />
		<tag k="min_age" v="1" />
		<tag k="name" v="Kinaputten familiebarnehage" />
		<tag k="no-barnehage:nsrid" v="1021866" />
		<tag k="operator" v="Silvia Kristoffersen Kosmo" />
		<tag k="operator:type" v="private" />
	</node>
</osm>
