<?xml version="1.0" encoding="UTF-8"?>
<osm generator="osmapis" version="0.6">
	<node id="-2560" lat="59.42276" lon="10.46038">
		<tag k="amenity" v="kindergarten" />
		<tag k="capacity" v="8" />
		<tag k="contact:email" v="annette_magnussen@hotmail.com" />
		<tag k="contact:phone" v="915 36 915" />
		<tag k="max_age" v="2" />
		<tag k="min_age" v="1" />
		<tag k="name" v="Skrukketrollet Familiebarnehage Da" />
		<tag k="no-barnehage:nsrid" v="1021118" />
		<tag k="operator" v="Skrukketrollet Familiebarnehage Da" />
		<tag k="operator:type" v="private" />
		<tag k="start_date" v="2004-08-01" />
	</node>
	<node id="-2555" lat="59.35803" lon="10.46283">
		<tag k="amenity" v="kindergarten" />
		<tag k="capacity" v="8" />
		<tag k="contact:phone" v="41357452" />
		<tag k="max_age" v="2" />
		<tag k="min_age" v="1" />
		<tag k="name" v="Kinaputten Familiebarnehage" />
		<tag k="no-barnehage:nsrid" v="1021866" />
		<tag k="operator" v="Karina Tollefsen" />
		<tag k="operator:type" v="private" />
		<tag k="start_date" v="2005-10-31" />
	</node>
	<node id="-2553" lat="59.39696" lon="10.47245">
		<tag k="amenity" v="kindergarten" />
		<tag k="capacity" v="8" />
		<tag k="max_age" v="2" />
		<tag k="min_age" v="1" />
		<tag k="name" v="Horten Familiebarnehage Avd Granly" />
		<tag k="no-barnehage:nsrid" v="1020631" />
		<tag k="operator" v="Horten Familiebarnehage Avd. Granly Anne Karin Bjerkeli" />
		<tag k="operator:type" v="private" />
		<tag k="start_date" v="1995-12-15" />
	</node>
	<node id="-2552" lat="59.39613" lon="10.45941">
		<tag k="amenity" v="kindergarten" />
		<tag k="capacity" v="8" />
		<tag k="contact:phone" v="33 08 18 84" />
		<tag k="max_age" v="2" />
		<tag k="min_age" v="1" />
		<tag k="name" v="Horten Familiebarnehage Avd Babyhagen" />
		<tag k="no-barnehage:nsrid" v="1020338" />
		<tag k="operator" v="Babyhagen Familiebarnehage Liv GulestÃ¸l" />
		<tag k="operator:type" v="private" />
		<tag k="start_date" v="1989-01-01" />
	</node>
	<node id="-2569" lat="59.40637" lon="10.46964">
		<tag k="amenity" v="kindergarten" />
		<tag k="capacity" v="4" />
		<tag k="contact:email" v="marianneholtanb@hotmail.com" />
		<tag k="contact:phone" v="33 07 41 22" />
		<tag k="max_age" v="2" />
		<tag k="min_age" v="1" />
		<tag k="name" v="Villa Villekulla Familiebarnehage Marianne Holtan Bruun" />
		<tag k="no-barnehage:nsrid" v="1021817" />
		<tag k="operator" v="Villa Villekulla Familiebarnehage Marianne Holtan Bruun" />
		<tag k="operator:type" v="private" />
		<tag k="start_date" v="2008-08-01" />
	</node>
	<node id="-2568" lat="59.40808" lon="10.46267">
		<tag k="amenity" v="kindergarten" />
		<tag k="capacity" v="4" />
		<tag k="contact:phone" v="33 07 89 73" />
		<tag k="max_age" v="2" />
		<tag k="min_age" v="1" />
		<tag k="name" v="Tusseladden Familiebarnehage" />
		<tag k="no-barnehage:nsrid" v="1021672" />
		<tag k="operator" v="Kathrine Jonas Hansen Tusseladdenfamiliebarnehage" />
		<tag k="operator:type" v="private" />
		<tag k="start_date" v="2007-08-01" />
	</node>
	<node id="-2566" lat="59.44081" lon="10.43536">
		<tag k="amenity" v="kindergarten" />
		<tag k="capacity" v="8" />
		<tag k="contact:phone" v="33 07 82 62" />
		<tag k="max_age" v="2" />
		<tag k="min_age" v="1" />
		<tag k="name" v="Svebergstua Familiebarnehage Elin Bugge Johansson" />
		<tag k="no-barnehage:nsrid" v="1022047" />
		<tag k="operator" v="Svebergstua Familiebarnehage Elin Bugge Johansson" />
		<tag k="operator:type" v="private" />
		<tag k="start_date" v="2001-08-01" />
	</node>
	<node id="-2562" lat="59.40733" lon="10.46884">
		<tag k="amenity" v="kindergarten" />
		<tag k="capacity" v="4" />
		<tag k="max_age" v="2" />
		<tag k="min_age" v="1" />
		<tag k="name" v="Sommerfugl Familiebarnehage" />
		<tag k="no-barnehage:nsrid" v="1020739" />
		<tag k="operator" v="Sommerfugl Familiebarnehage Ruth-Laila Larsen" />
		<tag k="operator:type" v="private" />
		<tag k="start_date" v="2009-01-01" />
	</node>
</osm>
