<?xml version="1.0" encoding="UTF-8"?>
<osm generator="osmapis" version="0.6">
	<node id="-2560" lat="59.43085" lon="10.39347">
		<tag k="amenity" v="kindergarten" />
		<tag k="capacity" v="12" />
		<tag k="contact:email" v="monica_soergjerd@yahoo.no" />
		<tag k="contact:phone" v="957 09 048" />
		<tag k="max_age" v="2" />
		<tag k="min_age" v="1" />
		<tag k="name" v="Skånetoppen barnehage Da" />
		<tag k="no-barnehage:nsrid" v="1021430" />
		<tag k="operator" v="Skånetoppen barnehage Da" />
		<tag k="operator:type" v="private" />
		<tag k="start_date" v="2006-05-01" />
	</node>
	<node id="-2558" lat="59.4359" lon="10.4446">
		<tag k="amenity" v="kindergarten" />
		<tag k="capacity" v="94" />
		<tag k="max_age" v="5" />
		<tag k="min_age" v="1" />
		<tag k="name" v="Skavli barnehage" />
		<tag k="no-barnehage:nsrid" v="1016400" />
		<tag k="operator" v="Horten kommune" />
		<tag k="operator:type" v="public" />
		<tag k="start_date" v="2002-06-01" />
	</node>
	<node id="-2557" lat="59.3961" lon="10.4644">
		<tag k="amenity" v="kindergarten" />
		<tag k="capacity" v="129" />
		<tag k="contact:phone" v="033073430" />
		<tag k="max_age" v="5" />
		<tag k="min_age" v="1" />
		<tag k="name" v="Rørehagen barnehage" />
		<tag k="no-barnehage:nsrid" v="1012879" />
		<tag k="operator" v="Horten kommune" />
		<tag k="operator:type" v="public" />
		<tag k="start_date" v="1976-01-01" />
	</node>
	<node id="-2556" lat="59.4177" lon="10.4524">
		<tag k="amenity" v="kindergarten" />
		<tag k="capacity" v="58" />
		<tag k="contact:phone" v="033041159" />
		<tag k="max_age" v="5" />
		<tag k="min_age" v="1" />
		<tag k="name" v="Nordskogen barnehage" />
		<tag k="no-barnehage:nsrid" v="1012878" />
		<tag k="operator" v="Horten kommune" />
		<tag k="operator:type" v="public" />
		<tag k="start_date" v="1989-01-01" />
	</node>
	<node id="-2555" lat="59.41922" lon="10.46139">
		<tag k="amenity" v="kindergarten" />
		<tag k="capacity" v="25" />
		<tag k="contact:phone" v="33 04 87 86" />
		<tag k="max_age" v="5" />
		<tag k="min_age" v="1" />
		<tag k="name" v="Lilaas Gård Barnehage, Inger Marie Semb Avdal" />
		<tag k="no-barnehage:nsrid" v="1020694" />
		<tag k="operator" v="Lilaas Gård Barnehage, Inger Marie Semb Avdal" />
		<tag k="operator:type" v="private" />
		<tag k="start_date" v="1990-10-01" />
	</node>
	<node id="-2553" lat="59.4261" lon="10.4918">
		<tag k="amenity" v="kindergarten" />
		<tag k="capacity" v="86" />
		<tag k="contact:email" v="ellen.tetlie@horten.kommune.no" />
		<tag k="max_age" v="5" />
		<tag k="min_age" v="1" />
		<tag k="name" v="Karljohansvern barnehage" />
		<tag k="no-barnehage:nsrid" v="1015695" />
		<tag k="operator" v="Horten kommune" />
		<tag k="operator:type" v="public" />
		<tag k="start_date" v="1998-09-01" />
	</node>
	<node id="-2550" lat="59.4275" lon="10.4631">
		<tag k="amenity" v="kindergarten" />
		<tag k="capacity" v="27" />
		<tag k="contact:phone" v="33 04 13 03" />
		<tag k="max_age" v="5" />
		<tag k="min_age" v="1" />
		<tag k="name" v="Hakkebakkeskogen barnehage" />
		<tag k="no-barnehage:nsrid" v="1016293" />
		<tag k="operator" v="Baggerød barnehage AS" />
		<tag k="operator:type" v="private" />
		<tag k="start_date" v="2001-06-26" />
	</node>
	<node id="-2549" lat="59.4087" lon="10.4681">
		<tag k="amenity" v="kindergarten" />
		<tag k="capacity" v="75" />
		<tag k="contact:phone" v="033047515" />
		<tag k="max_age" v="5" />
		<tag k="min_age" v="1" />
		<tag k="name" v="Gartnerløkka barnehage" />
		<tag k="no-barnehage:nsrid" v="1012882" />
		<tag k="operator" v="Horten kommune" />
		<tag k="operator:type" v="public" />
		<tag k="start_date" v="1992-01-01" />
	</node>
	<node id="-2548" lat="59.4242" lon="10.3784">
		<tag k="amenity" v="kindergarten" />
		<tag k="capacity" v="55" />
		<tag k="contact:phone" v="97 55 03 20" />
		<tag k="max_age" v="5" />
		<tag k="min_age" v="1" />
		<tag k="name" v="Fagerheim barnehage" />
		<tag k="no-barnehage:nsrid" v="1015983" />
		<tag k="operator" v="Horten kommune" />
		<tag k="operator:type" v="public" />
		<tag k="start_date" v="1992-01-01" />
	</node>
	<node id="-2547" lat="59.35997" lon="10.42586">
		<tag k="amenity" v="kindergarten" />
		<tag k="name" v="Dal Gård Åpen barnehage" />
		<tag k="no-barnehage:nsrid" v="1020681" />
		<tag k="operator" v="Brunstad Kristelige Menighet Horten" />
		<tag k="operator:type" v="private" />
		<tag k="start_date" v="2012-10-01" />
	</node>
	<node id="-2546" lat="59.3865" lon="10.405">
		<tag k="amenity" v="kindergarten" />
		<tag k="capacity" v="134" />
		<tag k="contact:phone" v="033070951" />
		<tag k="max_age" v="5" />
		<tag k="min_age" v="1" />
		<tag k="name" v="Blåbærlyngen barnehage" />
		<tag k="no-barnehage:nsrid" v="1012881" />
		<tag k="operator" v="Horten kommune" />
		<tag k="operator:type" v="public" />
		<tag k="start_date" v="1990-01-01" />
	</node>
	<node id="-2545" lat="59.4187" lon="10.4515">
		<tag k="amenity" v="kindergarten" />
		<tag k="capacity" v="91" />
		<tag k="max_age" v="5" />
		<tag k="min_age" v="1" />
		<tag k="name" v="Bjørnestien barnehage" />
		<tag k="no-barnehage:nsrid" v="1018462" />
		<tag k="operator" v="Horten kommune" />
		<tag k="operator:type" v="public" />
		<tag k="start_date" v="2008-08-01" />
	</node>
	<node id="-2544" lat="59.4254" lon="10.4549">
		<tag k="amenity" v="kindergarten" />
		<tag k="capacity" v="68" />
		<tag k="contact:email" v="turid.hersvik@horten.kommune.no" />
		<tag k="contact:phone" v="330  85 280" />
		<tag k="max_age" v="5" />
		<tag k="min_age" v="1" />
		<tag k="name" v="Bassengbakken barnehage" />
		<tag k="no-barnehage:nsrid" v="1012563" />
		<tag k="operator" v="Horten kommune" />
		<tag k="operator:type" v="public" />
		<tag k="start_date" v="1991-08-01" />
	</node>
	<node id="-2543" lat="59.41496" lon="10.46043">
		<tag k="amenity" v="kindergarten" />
		<tag k="capacity" v="55" />
		<tag k="max_age" v="5" />
		<tag k="min_age" v="1" />
		<tag k="name" v="Barnas barnehage AS" />
		<tag k="no-barnehage:nsrid" v="1022067" />
		<tag k="operator" v="Barnas-Barnehage AS" />
		<tag k="operator:type" v="private" />
		<tag k="start_date" v="2008-03-04" />
	</node>
	<node id="-2542" lat="59.4036" lon="10.4645">
		<tag k="amenity" v="kindergarten" />
		<tag k="capacity" v="22" />
		<tag k="max_age" v="5" />
		<tag k="min_age" v="1" />
		<tag k="name" v="Baggerød barnehage" />
		<tag k="no-barnehage:nsrid" v="1015829" />
		<tag k="operator" v="Baggerød barnehage AS" />
		<tag k="operator:type" v="private" />
		<tag k="start_date" v="2000-02-04" />
	</node>
	<node id="-2571" lat="59.34906" lon="10.461">
		<tag k="amenity" v="kindergarten" />
		<tag k="capacity" v="36" />
		<tag k="max_age" v="5" />
		<tag k="min_age" v="1" />
		<tag k="name" v="Åsgårdstrand barnehage Avd Nygårdsløkka" />
		<tag k="no-barnehage:nsrid" v="1019646" />
		<tag k="operator" v="Horten kommune" />
		<tag k="operator:type" v="public" />
		<tag k="start_date" v="2012-01-01" />
	</node>
	<node id="-2570" lat="59.3483" lon="10.4551">
		<tag k="amenity" v="kindergarten" />
		<tag k="capacity" v="46" />
		<tag k="max_age" v="5" />
		<tag k="min_age" v="1" />
		<tag k="name" v="Åsgårdstrand barnehage Avd Lønneveien" />
		<tag k="no-barnehage:nsrid" v="1012880" />
		<tag k="operator" v="Horten kommune" />
		<tag k="operator:type" v="public" />
		<tag k="start_date" v="1989-01-01" />
	</node>
	<node id="-2569" lat="59.40607" lon="10.48074">
		<tag k="amenity" v="kindergarten" />
		<tag k="contact:email" v="familienkosmo@online.no" />
		<tag k="contact:phone" v="932 87 374" />
		<tag k="name" v="Åpen barnehage" />
		<tag k="no-barnehage:nsrid" v="1022450" />
		<tag k="operator" v="Silvia Kristoffersen Kosmo" />
		<tag k="operator:type" v="private" />
		<tag k="start_date" v="2014-03-01" />
	</node>
	<node id="-2566" lat="59.40516" lon="10.46232">
		<tag k="amenity" v="kindergarten" />
		<tag k="capacity" v="34" />
		<tag k="contact:phone" v="41 25 60 90" />
		<tag k="max_age" v="5" />
		<tag k="min_age" v="1" />
		<tag k="name" v="Trimveien barnehage Da" />
		<tag k="no-barnehage:nsrid" v="1020695" />
		<tag k="operator" v="Trimveien barnehage Da" />
		<tag k="operator:type" v="private" />
		<tag k="start_date" v="2000-12-18" />
	</node>
	<node id="-2564" lat="59.3799" lon="10.4539">
		<tag k="amenity" v="kindergarten" />
		<tag k="capacity" v="40" />
		<tag k="max_age" v="5" />
		<tag k="min_age" v="1" />
		<tag k="name" v="Studentsamskipnaden i Buskerud og Vestfold Start Stundentbanehage" />
		<tag k="no-barnehage:nsrid" v="1013077" />
		<tag k="operator" v="Studentsamskipnaden i Buskerud og Vestfold" />
		<tag k="operator:type" v="private" />
		<tag k="start_date" v="2004-08-01" />
	</node>
	<node id="-2563" lat="59.4057" lon="10.4836">
		<tag k="amenity" v="kindergarten" />
		<tag k="capacity" v="125" />
		<tag k="max_age" v="5" />
		<tag k="min_age" v="1" />
		<tag k="name" v="Strandparken barnehage" />
		<tag k="no-barnehage:nsrid" v="1016998" />
		<tag k="operator" v="Horten kommune" />
		<tag k="operator:type" v="public" />
		<tag k="start_date" v="2005-08-01" />
	</node>
	<node id="-2562" lat="59.3577" lon="10.45718">
		<tag k="amenity" v="kindergarten" />
		<tag k="capacity" v="47" />
		<tag k="contact:email" v="post@stifinnerenbarnehage.no" />
		<tag k="contact:phone" v="932 87 374" />
		<tag k="contact:website" v="http://www.stifinnerenbarnehage.no" />
		<tag k="max_age" v="5" />
		<tag k="min_age" v="1" />
		<tag k="name" v="Stifinneren barnehage AS" />
		<tag k="no-barnehage:nsrid" v="1022354" />
		<tag k="operator" v="Stifinneren barnehage AS" />
		<tag k="operator:type" v="private" />
		<tag k="start_date" v="2003-06-28" />
	</node>
</osm>
