<?xml version="1.0" encoding="UTF-8"?>
<osm version="0.6" generator="osmapis">
	<node lat="61.18047" lon="6.85477" id="-4564">
		<tag k="ADDRESS" v="Askedalen 1, 6863 LEIKANGER" />
		<tag k="amenity" v="kindergarten" />
		<tag k="capacity" v="40" />
		<tag k="max_age" v="5" />
		<tag k="min_age" v="1" />
		<tag k="name" v="Askedalen barnehage" />
		<tag k="no-barnehage:nsrid" v="992838787" />
		<tag k="operator" v="Askedalen barnehage AS" />
		<tag k="operator:type" v="private" />
	</node>
	<node lat="61.27167" lon="6.539" id="-4565">
		<tag k="ADDRESS" v="Torsnes 17, 6899 BALESTRAND" />
		<tag k="amenity" v="kindergarten" />
		<tag k="capacity" v="5" />
		<tag k="max_age" v="5" />
		<tag k="min_age" v="1" />
		<tag k="name" v="Fjordtun oppvekstsenter avd. barnehage" />
		<tag k="no-barnehage:nsrid" v="975309649" />
		<tag k="operator" v="Sogndal kommune" />
		<tag k="operator:type" v="public" />
	</node>
	<node lat="0.0" lon="0.0" id="-4566">
		<tag k="ADDRESS" v=", 6848 FJÆRLAND" />
		<tag k="amenity" v="kindergarten" />
		<tag k="capacity" v="6" />
		<tag k="max_age" v="5" />
		<tag k="min_age" v="3" />
		<tag k="name" v="Fjærland oppvekstsenter avd. barnehage" />
		<tag k="no-barnehage:nsrid" v="975309657" />
		<tag k="operator" v="Sogndal kommune" />
		<tag k="operator:type" v="public" />
	</node>
	<node lat="61.23166" lon="7.09268" id="-4567">
		<tag k="ADDRESS" v="Dalavegen 2S, 6856 SOGNDAL" />
		<tag k="amenity" v="kindergarten" />
		<tag k="capacity" v="73" />
		<tag k="contact:website" v="http://www.sogndal.kommune.no/fosshagen-utdanningsbarnehage.537168.nn.html" />
		<tag k="max_age" v="5" />
		<tag k="min_age" v="1" />
		<tag k="name" v="Fosshagen barnehage" />
		<tag k="no-barnehage:nsrid" v="925026409" />
		<tag k="operator" v="Sogndal kommune" />
		<tag k="operator:type" v="public" />
	</node>
	<node lat="61.18962" lon="7.21673" id="-4568">
		<tag k="ADDRESS" v="Dalkupvegen 5, 6854 KAUPANGER" />
		<tag k="amenity" v="kindergarten" />
		<tag k="capacity" v="93" />
		<tag k="max_age" v="5" />
		<tag k="min_age" v="1" />
		<tag k="name" v="Furuli barnehage" />
		<tag k="no-barnehage:nsrid" v="975317382" />
		<tag k="operator" v="Sogndal kommune" />
		<tag k="operator:type" v="public" />
	</node>
	<node lat="61.18971" lon="6.84261" id="-4569">
		<tag k="ADDRESS" v="Henjahaugane 1, 6863 LEIKANGER" />
		<tag k="amenity" v="kindergarten" />
		<tag k="capacity" v="41" />
		<tag k="max_age" v="5" />
		<tag k="min_age" v="1" />
		<tag k="name" v="Henjahaugane barnehage" />
		<tag k="no-barnehage:nsrid" v="975321738" />
		<tag k="operator" v="Sogndal kommune" />
		<tag k="operator:type" v="public" />
	</node>
	<node lat="0.0" lon="0.0" id="-4570">
		<tag k="ADDRESS" v="Kjørnessvingen, 6856 SOGNDAL" />
		<tag k="amenity" v="kindergarten" />
		<tag k="capacity" v="90" />
		<tag k="max_age" v="5" />
		<tag k="min_age" v="1" />
		<tag k="name" v="Kjørnes barnehage" />
		<tag k="no-barnehage:nsrid" v="988027014" />
		<tag k="operator" v="Sogndal kommune" />
		<tag k="operator:type" v="public" />
	</node>
	<node lat="61.22763" lon="7.09433" id="-4571">
		<tag k="ADDRESS" v="Kyrkjebakken 50, 6856 SOGNDAL" />
		<tag k="amenity" v="kindergarten" />
		<tag k="capacity" v="41" />
		<tag k="max_age" v="5" />
		<tag k="min_age" v="1" />
		<tag k="name" v="Kyrkjebakken barnehage" />
		<tag k="no-barnehage:nsrid" v="974554364" />
		<tag k="operator" v="Sogndal kommune" />
		<tag k="operator:type" v="public" />
	</node>
	<node lat="0.0" lon="0.0" id="-4572">
		<tag k="ADDRESS" v="NOTSETE, 6856 SOGNDAL" />
		<tag k="amenity" v="kindergarten" />
		<tag k="capacity" v="25" />
		<tag k="max_age" v="5" />
		<tag k="min_age" v="1" />
		<tag k="name" v="Notsete barnehage" />
		<tag k="no-barnehage:nsrid" v="975309703" />
		<tag k="operator" v="Sogndal kommune" />
		<tag k="operator:type" v="public" />
	</node>
	<node lat="61.1861" lon="6.83277" id="-4573">
		<tag k="ADDRESS" v="Sognefjordvegen 92, 6863 LEIKANGER" />
		<tag k="amenity" v="kindergarten" />
		<tag k="capacity" v="51" />
		<tag k="max_age" v="5" />
		<tag k="min_age" v="1" />
		<tag k="name" v="Nybø barnehage" />
		<tag k="no-barnehage:nsrid" v="875309692" />
		<tag k="operator" v="Sogndal kommune" />
		<tag k="operator:type" v="public" />
	</node>
	<node lat="61.23256" lon="7.11544" id="-4574">
		<tag k="ADDRESS" v="Helgheimsvegen 7, 6856 SOGNDAL" />
		<tag k="amenity" v="kindergarten" />
		<tag k="capacity" v="74" />
		<tag k="max_age" v="5" />
		<tag k="min_age" v="1" />
		<tag k="name" v="Rones barnehage" />
		<tag k="no-barnehage:nsrid" v="973449699" />
		<tag k="operator" v="Rones barnehage SA" />
		<tag k="operator:type" v="private" />
	</node>
	<node lat="61.20359" lon="6.53188" id="-4575">
		<tag k="ADDRESS" v="Balavegen 1, 6899 BALESTRAND" />
		<tag k="amenity" v="kindergarten" />
		<tag k="capacity" v="43" />
		<tag k="max_age" v="5" />
		<tag k="min_age" v="1" />
		<tag k="name" v="Sagatun barnehage" />
		<tag k="no-barnehage:nsrid" v="975309673" />
		<tag k="operator" v="Sogndal kommune" />
		<tag k="operator:type" v="public" />
	</node>
	<node lat="61.23313" lon="7.09513" id="-4576">
		<tag k="ADDRESS" v="Dalavegen 10, 6856 SOGNDAL" />
		<tag k="amenity" v="kindergarten" />
		<tag k="capacity" v="46" />
		<tag k="max_age" v="5" />
		<tag k="min_age" v="1" />
		<tag k="name" v="Sogndal studentbarnehage" />
		<tag k="no-barnehage:nsrid" v="979579829" />
		<tag k="operator" v="Studentsamskipnaden på Vestlandet" />
		<tag k="operator:type" v="private" />
	</node>
	<node lat="61.22594" lon="7.09735" id="-4577">
		<tag k="ADDRESS" v="Kyrkjevegen 6, 6856 SOGNDAL" />
		<tag k="amenity" v="kindergarten" />
		<tag k="capacity" v="60" />
		<tag k="contact:website" v="http://stedje.barnehage.no/" />
		<tag k="max_age" v="5" />
		<tag k="min_age" v="1" />
		<tag k="name" v="Stedje barnehage" />
		<tag k="no-barnehage:nsrid" v="973352350" />
		<tag k="operator" v="Stedje barnehage" />
		<tag k="operator:type" v="private" />
	</node>
	<node lat="0.0" lon="0.0" id="-4578">
		<tag k="ADDRESS" v="Ylvisåker, 6858 FARDAL" />
		<tag k="amenity" v="kindergarten" />
		<tag k="capacity" v="31" />
		<tag k="max_age" v="5" />
		<tag k="min_age" v="1" />
		<tag k="name" v="Ylvisåker barnehage" />
		<tag k="no-barnehage:nsrid" v="975317390" />
		<tag k="operator" v="Sogndal kommune" />
		<tag k="operator:type" v="public" />
	</node>
</osm>
