<?xml version="1.0" encoding="UTF-8"?>
<osm generator="osmapis" version="0.6">
	<node id="-4270" lat="60.43286" lon="12.11099">
		<tag k="ADDRESS" v="Tjuravegen 308, 2260 KIRKENÆR" />
		<tag k="amenity" v="kindergarten" />
		<tag k="capacity" v="47" />
		<tag k="contact:website" v="http://www.tjurabarnehage.no" />
		<tag k="max_age" v="5" />
		<tag k="min_age" v="1" />
		<tag k="name" v="Tjura barnehage" />
		<tag k="no-barnehage:nsrid" v="1020043" />
		<tag k="operator" v="Tjura barnehage Sa" />
		<tag k="operator:type" v="private" />
	</node>
	<node id="-4269" lat="60.42158" lon="12.40028">
		<tag k="ADDRESS" v="Røsslyngvegen 2, 2256 GRUE FINNSKOG" />
		<tag k="amenity" v="kindergarten" />
		<tag k="capacity" v="8" />
		<tag k="max_age" v="5" />
		<tag k="min_age" v="1" />
		<tag k="name" v="Svullrya barnehage avd. Av Solungen barnehage" />
		<tag k="no-barnehage:nsrid" v="1013781" />
		<tag k="operator" v="Grue kommune" />
		<tag k="operator:type" v="public" />
	</node>
	<node id="-4268" lat="60.44883" lon="12.069">
		<tag k="ADDRESS" v="St.Olavs Veg 1, 2260 KIRKENÆR" />
		<tag k="amenity" v="kindergarten" />
		<tag k="capacity" v="47" />
		<tag k="max_age" v="5" />
		<tag k="min_age" v="1" />
		<tag k="name" v="Solungen barnehage" />
		<tag k="no-barnehage:nsrid" v="1025497" />
		<tag k="operator" v="Grue kommune" />
		<tag k="operator:type" v="public" />
	</node>
	<node id="-4267" lat="0.0" lon="0.0">
		<tag k="ADDRESS" v="Skolegata, 2265 NAMNÅ" />
		<tag k="amenity" v="kindergarten" />
		<tag k="capacity" v="26" />
		<tag k="max_age" v="5" />
		<tag k="min_age" v="1" />
		<tag k="name" v="Gromungen barnehage avd. Namnå" />
		<tag k="no-barnehage:nsrid" v="1015862" />
		<tag k="operator" v="Grue kommune" />
		<tag k="operator:type" v="public" />
	</node>
</osm>
