<?xml version="1.0" encoding="UTF-8"?>
<osm generator="osmapis" version="0.6">
	<node id="-1015" lat="60.34233" lon="11.203">
		<tag k="ADDRESS" v="Åsleia 100, 2080 EIDSVOLL" />
		<tag k="amenity" v="kindergarten" />
		<tag k="capacity" v="46" />
		<tag k="contact:website" v="http://www.gårdsbarnehagen.no" />
		<tag k="max_age" v="5" />
		<tag k="min_age" v="1" />
		<tag k="name" v="Åsleia gårdsbarnehage" />
		<tag k="no-barnehage:nsrid" v="1020528" />
		<tag k="operator" v="Gårdsbarnehagen AS" />
		<tag k="operator:type" v="private" />
	</node>
	<node id="-1014" lat="60.2911" lon="11.16045">
		<tag k="ADDRESS" v="Sundbyvegen 1, 2074 EIDSVOLL VERK" />
		<tag k="amenity" v="kindergarten" />
		<tag k="capacity" v="31" />
		<tag k="contact:website" v="http://www.veslebrunen.no" />
		<tag k="max_age" v="5" />
		<tag k="min_age" v="1" />
		<tag k="name" v="Øvre Romerike Steinerbarnehage Veslebrunen" />
		<tag k="no-barnehage:nsrid" v="1020666" />
		<tag k="operator" v="Øvre Romerike Steinerbarnehage Veslebrunen" />
		<tag k="operator:type" v="private" />
	</node>
	<node id="-1013" lat="60.33253" lon="11.25861">
		<tag k="ADDRESS" v="Vilbergvegen 15, 2080 EIDSVOLL" />
		<tag k="amenity" v="kindergarten" />
		<tag k="capacity" v="74" />
		<tag k="max_age" v="5" />
		<tag k="min_age" v="1" />
		<tag k="name" v="Vilberg barnehage" />
		<tag k="no-barnehage:nsrid" v="1017547" />
		<tag k="operator" v="Eidsvoll kommune" />
		<tag k="operator:type" v="public" />
	</node>
	<node id="-1012" lat="60.38155" lon="11.19285">
		<tag k="ADDRESS" v="Stensbyvegen 28, 2092 MINNESUND" />
		<tag k="amenity" v="kindergarten" />
		<tag k="capacity" v="53" />
		<tag k="contact:website" v="http://www.eidsvollkommune.no" />
		<tag k="max_age" v="5" />
		<tag k="min_age" v="1" />
		<tag k="name" v="Stensby barnehage" />
		<tag k="no-barnehage:nsrid" v="1025388" />
		<tag k="operator" v="Eidsvoll kommune" />
		<tag k="operator:type" v="public" />
	</node>
	<node id="-1011" lat="60.2659" lon="11.18675">
		<tag k="ADDRESS" v="Råholtbråtan 2, 2070 RÅHOLT" />
		<tag k="amenity" v="kindergarten" />
		<tag k="capacity" v="92" />
		<tag k="max_age" v="5" />
		<tag k="min_age" v="1" />
		<tag k="name" v="Råholtbråtan barnehage" />
		<tag k="no-barnehage:nsrid" v="1014797" />
		<tag k="operator" v="Eidsvoll kommune" />
		<tag k="operator:type" v="public" />
	</node>
	<node id="-1010" lat="0.0" lon="0.0">
		<tag k="ADDRESS" v="Hasler, 2072 DAL" />
		<tag k="amenity" v="kindergarten" />
		<tag k="capacity" v="74" />
		<tag k="max_age" v="5" />
		<tag k="min_age" v="1" />
		<tag k="name" v="Norlandia Dalsliene barnehage" />
		<tag k="no-barnehage:nsrid" v="1016334" />
		<tag k="operator" v="Norlandia Barnehagene AS" />
		<tag k="operator:type" v="private" />
	</node>
	<node id="-1009" lat="60.25327" lon="11.19345">
		<tag k="ADDRESS" v="Mosvingen 5, 2072 DAL" />
		<tag k="amenity" v="kindergarten" />
		<tag k="capacity" v="76" />
		<tag k="contact:website" v="http://laringsverkstedet.no/barnehage/bjørnsrud-skog" />
		<tag k="max_age" v="5" />
		<tag k="min_age" v="1" />
		<tag k="name" v="Læringsverkstedet barnehage avd. Bjørnsrud Skog" />
		<tag k="no-barnehage:nsrid" v="1017186" />
		<tag k="operator" v="Læringsverkstedet AS" />
		<tag k="operator:type" v="private" />
	</node>
	<node id="-1008" lat="60.32544" lon="11.22491">
		<tag k="ADDRESS" v="Morkvegen 27, 2080 EIDSVOLL" />
		<tag k="amenity" v="kindergarten" />
		<tag k="capacity" v="100" />
		<tag k="contact:website" v="http://laringsverkstedet.no/mork" />
		<tag k="max_age" v="5" />
		<tag k="min_age" v="1" />
		<tag k="name" v="Læringsverkstedet barnehage avd. Mork" />
		<tag k="no-barnehage:nsrid" v="1017185" />
		<tag k="operator" v="Læringsverkstedet AS" />
		<tag k="operator:type" v="private" />
	</node>
	<node id="-1007" lat="60.27249" lon="11.17745">
		<tag k="ADDRESS" v="Vestengavegen 9, 2070 RÅHOLT" />
		<tag k="amenity" v="kindergarten" />
		<tag k="capacity" v="127" />
		<tag k="max_age" v="5" />
		<tag k="min_age" v="1" />
		<tag k="name" v="Læringsverkstedet barnehage avd. Råholt" />
		<tag k="no-barnehage:nsrid" v="1014142" />
		<tag k="operator" v="Læringsverkstedet AS" />
		<tag k="operator:type" v="private" />
	</node>
	<node id="-1006" lat="60.24838" lon="11.20712">
		<tag k="ADDRESS" v="Folkeparken 17, 2072 DAL" />
		<tag k="amenity" v="kindergarten" />
		<tag k="capacity" v="152" />
		<tag k="max_age" v="5" />
		<tag k="min_age" v="1" />
		<tag k="name" v="Læringsverkstedet barnehage avd. Folkeparken Dal" />
		<tag k="no-barnehage:nsrid" v="1018603" />
		<tag k="operator" v="Læringsverkstedet AS" />
		<tag k="operator:type" v="private" />
	</node>
	<node id="-1005" lat="0.0" lon="0.0">
		<tag k="ADDRESS" v="Hjeraveien, 2072 DAL" />
		<tag k="amenity" v="kindergarten" />
		<tag k="capacity" v="117" />
		<tag k="max_age" v="5" />
		<tag k="min_age" v="1" />
		<tag k="name" v="Læringsverkstedet barnehage avd. Dal" />
		<tag k="no-barnehage:nsrid" v="1018539" />
		<tag k="operator" v="Læringsverkstedet AS" />
		<tag k="operator:type" v="private" />
	</node>
	<node id="-1004" lat="60.26371" lon="11.18391">
		<tag k="ADDRESS" v="Trondheimsvegen 132, 2070 RÅHOLT" />
		<tag k="amenity" v="kindergarten" />
		<tag k="capacity" v="27" />
		<tag k="max_age" v="5" />
		<tag k="min_age" v="1" />
		<tag k="name" v="Ladderud barnehage" />
		<tag k="no-barnehage:nsrid" v="1022387" />
		<tag k="operator" v="Ladderud barnehage AS" />
		<tag k="operator:type" v="private" />
	</node>
	<node id="-1003" lat="60.32397" lon="11.27459">
		<tag k="ADDRESS" v="Gruehagan 39, 2080 EIDSVOLL" />
		<tag k="amenity" v="kindergarten" />
		<tag k="capacity" v="80" />
		<tag k="contact:website" v="http://www.knausen.bhg.no" />
		<tag k="max_age" v="5" />
		<tag k="min_age" v="1" />
		<tag k="name" v="Knausen FUS barnehage" />
		<tag k="no-barnehage:nsrid" v="1021881" />
		<tag k="operator" v="Knausen Fus barnehage AS" />
		<tag k="operator:type" v="private" />
	</node>
	<node id="-1002" lat="60.47817" lon="11.16267">
		<tag k="ADDRESS" v="Årnesvegen 15b, 2093 FEIRING" />
		<tag k="amenity" v="kindergarten" />
		<tag k="capacity" v="55" />
		<tag k="max_age" v="5" />
		<tag k="min_age" v="1" />
		<tag k="name" v="Feiring aktivitetsbarnehage" />
		<tag k="no-barnehage:nsrid" v="1021734" />
		<tag k="operator" v="Feiring Aktivitetsbarnehage AS" />
		<tag k="operator:type" v="private" />
	</node>
	<node id="-1001" lat="60.32368" lon="11.24224">
		<tag k="ADDRESS" v="Eidsvollbakken 20, 2080 EIDSVOLL" />
		<tag k="amenity" v="kindergarten" />
		<tag k="capacity" v="37" />
		<tag k="max_age" v="5" />
		<tag k="min_age" v="1" />
		<tag k="name" v="Camilla barnehage" />
		<tag k="no-barnehage:nsrid" v="1022010" />
		<tag k="operator" v="Camilla barnehage AS" />
		<tag k="operator:type" v="private" />
	</node>
	<node id="-1000" lat="60.28415" lon="11.1779">
		<tag k="ADDRESS" v="Bønsmovegen 19a, 2070 RÅHOLT" />
		<tag k="amenity" v="kindergarten" />
		<tag k="capacity" v="149" />
		<tag k="max_age" v="5" />
		<tag k="min_age" v="1" />
		<tag k="name" v="Bønsmoen barnehage" />
		<tag k="no-barnehage:nsrid" v="1017655" />
		<tag k="operator" v="Eidsvoll kommune" />
		<tag k="operator:type" v="public" />
	</node>
	<node id="-999" lat="60.31807" lon="11.18979">
		<tag k="ADDRESS" v="Brensmork 4, 2074 EIDSVOLL VERK" />
		<tag k="amenity" v="kindergarten" />
		<tag k="capacity" v="63" />
		<tag k="contact:website" v="http://www.eidsvoll.kommune.no/lokasjoner/barnehagene-i-eidsvoll/brensmork-barnehage" />
		<tag k="max_age" v="5" />
		<tag k="min_age" v="1" />
		<tag k="name" v="Brensmork barnehage" />
		<tag k="no-barnehage:nsrid" v="1015962" />
		<tag k="operator" v="Eidsvoll kommune" />
		<tag k="operator:type" v="public" />
	</node>
	<node id="-998" lat="60.29445" lon="11.15973">
		<tag k="ADDRESS" v="Furulundsgutua 8a, 2074 EIDSVOLL VERK" />
		<tag k="amenity" v="kindergarten" />
		<tag k="capacity" v="62" />
		<tag k="max_age" v="5" />
		<tag k="min_age" v="1" />
		<tag k="name" v="Ankertunet barnehage" />
		<tag k="no-barnehage:nsrid" v="1016936" />
		<tag k="operator" v="Eidsvoll kommune" />
		<tag k="operator:type" v="public" />
	</node>
	<node id="-997" lat="60.29995" lon="11.17263">
		<tag k="ADDRESS" v="Carsten Ankers Veg 15, 2074 EIDSVOLL VERK" />
		<tag k="amenity" v="kindergarten" />
		<tag k="capacity" v="19" />
		<tag k="contact:website" v="http://www.andungenbarnehage.com" />
		<tag k="max_age" v="5" />
		<tag k="min_age" v="1" />
		<tag k="name" v="Andungen barnehage 1." />
		<tag k="no-barnehage:nsrid" v="1019861" />
		<tag k="operator" v="Andungen barnehage 1. Sa" />
		<tag k="operator:type" v="private" />
	</node>
</osm>
