<?xml version="1.0" encoding="UTF-8"?>
<osm generator="osmapis" version="0.6">
	<node id="-983" lat="60.35213" lon="11.19454">
		<tag k="amenity" v="kindergarten" />
		<tag k="capacity" v="45" />
		<tag k="contact:email" v="aasleia@online.no" />
		<tag k="contact:website" v="http://www.gårdsbarnehagen.no" />
		<tag k="max_age" v="5" />
		<tag k="min_age" v="1" />
		<tag k="name" v="Åsleia Gårdsbarnehage" />
		<tag k="no-barnehage:nsrid" v="1020528" />
		<tag k="operator" v="Gårdsbarnehagen AS" />
		<tag k="operator:type" v="private" />
		<tag k="start_date" v="1998-08-01" />
	</node>
	<node id="-982" lat="60.3325" lon="11.2586">
		<tag k="amenity" v="kindergarten" />
		<tag k="capacity" v="83" />
		<tag k="contact:email" v="anne.elnan@eidsvoll.kommune.no" />
		<tag k="contact:phone" v="+47 66 10 78 30" />
		<tag k="max_age" v="5" />
		<tag k="min_age" v="1" />
		<tag k="name" v="Vilberg barnehage" />
		<tag k="no-barnehage:nsrid" v="1017547" />
		<tag k="operator" v="Eidsvoll kommune" />
		<tag k="operator:type" v="public" />
		<tag k="start_date" v="1988-04-01" />
	</node>
	<node id="-981" lat="60.29184" lon="11.16127">
		<tag k="amenity" v="kindergarten" />
		<tag k="capacity" v="27" />
		<tag k="contact:email" v="veslebrunen@steinerbarnehage.no" />
		<tag k="contact:phone" v="+47 63 95 66 69" />
		<tag k="contact:website" v="http://www.veslebrunen.no" />
		<tag k="max_age" v="5" />
		<tag k="min_age" v="1" />
		<tag k="name" v="Øvre Romerike Steinerbarnehage Veslebrunen" />
		<tag k="no-barnehage:nsrid" v="1020666" />
		<tag k="operator" v="Øvre Romerike Steinerbarnehage Veslebrunen" />
		<tag k="operator:type" v="private" />
		<tag k="start_date" v="2000-08-31" />
	</node>
	<node id="-980" lat="60.3941" lon="11.2208">
		<tag k="amenity" v="kindergarten" />
		<tag k="capacity" v="57" />
		<tag k="contact:email" v="heidi.saeter@eidsvoll.kommune.no" />
		<tag k="contact:phone" v="+47 66107860" />
		<tag k="contact:website" v="http://www.eidsvollkommune.no" />
		<tag k="max_age" v="5" />
		<tag k="min_age" v="1" />
		<tag k="name" v="Stensby barnehage" />
		<tag k="no-barnehage:nsrid" v="1025388" />
		<tag k="operator" v="Eidsvoll kommune" />
		<tag k="operator:type" v="public" />
		<tag k="start_date" v="1989-01-02" />
	</node>
	<node id="-979" lat="60.2659" lon="11.1868">
		<tag k="amenity" v="kindergarten" />
		<tag k="capacity" v="69" />
		<tag k="contact:email" v="ellen.drtina@eidsvoll.kommune.no" />
		<tag k="contact:phone" v="+47 66 10 78 20" />
		<tag k="max_age" v="5" />
		<tag k="min_age" v="1" />
		<tag k="name" v="Råholtbråtan barnehage" />
		<tag k="no-barnehage:nsrid" v="1014797" />
		<tag k="operator" v="Eidsvoll kommune" />
		<tag k="operator:type" v="public" />
		<tag k="start_date" v="1993-08-01" />
	</node>
	<node id="-978" lat="60.2712" lon="11.1736">
		<tag k="amenity" v="kindergarten" />
		<tag k="capacity" v="127" />
		<tag k="contact:email" v="kontor@laringsverkstedet.no" />
		<tag k="max_age" v="5" />
		<tag k="min_age" v="1" />
		<tag k="name" v="Læringsverkstedet barnehage Avd Råholt" />
		<tag k="no-barnehage:nsrid" v="1014142" />
		<tag k="operator" v="Læringsverkstedet AS" />
		<tag k="operator:type" v="private" />
		<tag k="start_date" v="2010-10-01" />
	</node>
	<node id="-977" lat="60.3257" lon="11.2243">
		<tag k="amenity" v="kindergarten" />
		<tag k="capacity" v="101" />
		<tag k="contact:email" v="kontor@laringsverkstedet.no" />
		<tag k="max_age" v="5" />
		<tag k="min_age" v="1" />
		<tag k="name" v="Læringsverkstedet barnehage Avd Mork" />
		<tag k="no-barnehage:nsrid" v="1017185" />
		<tag k="operator" v="Læringsverkstedet AS" />
		<tag k="operator:type" v="private" />
		<tag k="start_date" v="2006-07-31" />
	</node>
	<node id="-976" lat="60.2495" lon="11.2078">
		<tag k="amenity" v="kindergarten" />
		<tag k="capacity" v="145" />
		<tag k="contact:email" v="kontor@laringsverkstedet.no" />
		<tag k="max_age" v="5" />
		<tag k="min_age" v="1" />
		<tag k="name" v="Læringsverkstedet barnehage Avd Folkeparken Dal" />
		<tag k="no-barnehage:nsrid" v="1018603" />
		<tag k="operator" v="Læringsverkstedet AS" />
		<tag k="operator:type" v="private" />
		<tag k="start_date" v="2009-08-01" />
	</node>
	<node id="-975" lat="60.2694" lon="11.2021">
		<tag k="amenity" v="kindergarten" />
		<tag k="capacity" v="113" />
		<tag k="contact:email" v="kontor@laringsverkstedet.no" />
		<tag k="max_age" v="5" />
		<tag k="min_age" v="1" />
		<tag k="name" v="Læringsverkstedet barnehage Avd Dal" />
		<tag k="no-barnehage:nsrid" v="1018539" />
		<tag k="operator" v="Læringsverkstedet AS" />
		<tag k="operator:type" v="private" />
		<tag k="start_date" v="2009-01-01" />
	</node>
	<node id="-974" lat="60.2561" lon="11.1917">
		<tag k="amenity" v="kindergarten" />
		<tag k="capacity" v="80" />
		<tag k="contact:email" v="kontor@laringsverkstedet.no" />
		<tag k="max_age" v="5" />
		<tag k="min_age" v="1" />
		<tag k="name" v="Læringsverkstedet barnehage Avd Bjørnsrud Skog" />
		<tag k="no-barnehage:nsrid" v="1017186" />
		<tag k="operator" v="Læringsverkstedet AS" />
		<tag k="operator:type" v="private" />
		<tag k="start_date" v="2006-09-20" />
	</node>
	<node id="-973" lat="60.26371" lon="11.18391">
		<tag k="amenity" v="kindergarten" />
		<tag k="capacity" v="29" />
		<tag k="contact:email" v="ladderud@hotmail.com" />
		<tag k="contact:phone" v="+47 63 96 72 00" />
		<tag k="max_age" v="5" />
		<tag k="min_age" v="1" />
		<tag k="name" v="Ladderud barnehage AS" />
		<tag k="no-barnehage:nsrid" v="1022387" />
		<tag k="operator" v="Ladderud barnehage AS" />
		<tag k="operator:type" v="private" />
		<tag k="start_date" v="1997-02-27" />
	</node>
	<node id="-972" lat="60.32562" lon="11.27334">
		<tag k="amenity" v="kindergarten" />
		<tag k="capacity" v="79" />
		<tag k="contact:email" v="dl.knausen@bhg.no" />
		<tag k="contact:phone" v="+47 63 96 45 05" />
		<tag k="contact:website" v="http://www.knausen.bhg.no" />
		<tag k="max_age" v="5" />
		<tag k="min_age" v="1" />
		<tag k="name" v="Knausen Fus barnehage AS" />
		<tag k="no-barnehage:nsrid" v="1021881" />
		<tag k="operator" v="Knausen Fus barnehage AS" />
		<tag k="operator:type" v="private" />
		<tag k="start_date" v="2008-09-12" />
	</node>
	<node id="-971" lat="60.47928" lon="11.16013">
		<tag k="amenity" v="kindergarten" />
		<tag k="capacity" v="60" />
		<tag k="contact:email" v="unni@hoppensprett.no" />
		<tag k="contact:phone" v="+47 63 95 68 00" />
		<tag k="max_age" v="5" />
		<tag k="min_age" v="1" />
		<tag k="name" v="Feiring Aktivitetsbarnehage AS" />
		<tag k="no-barnehage:nsrid" v="1021734" />
		<tag k="operator" v="Feiring Aktivitetsbarnehage AS" />
		<tag k="operator:type" v="private" />
		<tag k="start_date" v="2008-01-01" />
	</node>
	<node id="-970" lat="60.2414" lon="11.2229">
		<tag k="amenity" v="kindergarten" />
		<tag k="capacity" v="74" />
		<tag k="contact:email" v="dalsliene.bhg@norlandiabarnehagene.no" />
		<tag k="max_age" v="5" />
		<tag k="min_age" v="1" />
		<tag k="name" v="Dalsliene barnehage" />
		<tag k="no-barnehage:nsrid" v="1016334" />
		<tag k="operator" v="Norlandia Barnehagene AS" />
		<tag k="operator:type" v="private" />
		<tag k="start_date" v="2001-05-21" />
	</node>
	<node id="-969" lat="60.32368" lon="11.24223">
		<tag k="amenity" v="kindergarten" />
		<tag k="capacity" v="36" />
		<tag k="contact:email" v="styrer@camillabarnehage.no" />
		<tag k="max_age" v="5" />
		<tag k="min_age" v="1" />
		<tag k="name" v="Camilla barnehage AS" />
		<tag k="no-barnehage:nsrid" v="1022010" />
		<tag k="operator" v="Camilla barnehage AS" />
		<tag k="operator:type" v="private" />
		<tag k="start_date" v="2009-12-22" />
	</node>
	<node id="-968" lat="60.2841" lon="11.1779">
		<tag k="amenity" v="kindergarten" />
		<tag k="capacity" v="142" />
		<tag k="contact:email" v="inger.gulbrandsen@eidsvoll.kommune.no" />
		<tag k="contact:phone" v="+47 66 10 78 41" />
		<tag k="max_age" v="5" />
		<tag k="min_age" v="1" />
		<tag k="name" v="Bønsmoen barnehage" />
		<tag k="no-barnehage:nsrid" v="1017655" />
		<tag k="operator" v="Eidsvoll kommune" />
		<tag k="operator:type" v="public" />
		<tag k="start_date" v="2006-12-01" />
	</node>
	<node id="-967" lat="60.3181" lon="11.1898">
		<tag k="amenity" v="kindergarten" />
		<tag k="capacity" v="61" />
		<tag k="contact:email" v="mona.white@eidsvoll.kommune.no" />
		<tag k="contact:phone" v="+47 66 10 78 00" />
		<tag k="max_age" v="5" />
		<tag k="min_age" v="1" />
		<tag k="name" v="Brensmork barnehage" />
		<tag k="no-barnehage:nsrid" v="1015962" />
		<tag k="operator" v="Eidsvoll kommune" />
		<tag k="operator:type" v="public" />
		<tag k="start_date" v="1990-12-01" />
	</node>
	<node id="-966" lat="60.2944" lon="11.1597">
		<tag k="amenity" v="kindergarten" />
		<tag k="capacity" v="59" />
		<tag k="contact:email" v="esb@orbitarena.no" />
		<tag k="max_age" v="5" />
		<tag k="min_age" v="1" />
		<tag k="name" v="Ankertunet barnehage" />
		<tag k="no-barnehage:nsrid" v="1016936" />
		<tag k="operator" v="Orbitarena AS" />
		<tag k="operator:type" v="private" />
		<tag k="start_date" v="2005-08-01" />
	</node>
	<node id="-965" lat="60.29965" lon="11.16982">
		<tag k="amenity" v="kindergarten" />
		<tag k="capacity" v="20" />
		<tag k="contact:email" v="andungen@combitel.no" />
		<tag k="contact:phone" v="+47 63 95 18 19" />
		<tag k="max_age" v="5" />
		<tag k="min_age" v="1" />
		<tag k="name" v="Andungen barnehage 1. Sa" />
		<tag k="no-barnehage:nsrid" v="1019861" />
		<tag k="operator" v="Andungen barnehage 1. Sa" />
		<tag k="operator:type" v="private" />
		<tag k="start_date" v="1988-01-01" />
	</node>
</osm>
