<?xml version="1.0" encoding="UTF-8"?>
<osm generator="osmapis" version="0.6">
	<node id="-4608" lat="62.5283" lon="7.43889">
		<tag k="amenity" v="kindergarten" />
		<tag k="capacity" v="37" />
		<tag k="contact:email" v="mabarneh@rauma.kommune.no" />
		<tag k="contact:phone" v="+47 072217110" />
		<tag k="max_age" v="5" />
		<tag k="min_age" v="1" />
		<tag k="name" v="Måndalen barnehage" />
		<tag k="no-barnehage:nsrid" v="1016108" />
		<tag k="operator" v="Rauma kommune" />
		<tag k="operator:type" v="public" />
		<tag k="start_date" v="1989-01-02" />
	</node>
	<node id="-4607" lat="62.5652" lon="7.68454">
		<tag k="amenity" v="kindergarten" />
		<tag k="capacity" v="58" />
		<tag k="contact:email" v="tomas.hage@rauma.kommune.no" />
		<tag k="contact:phone" v="+47 71166240" />
		<tag k="max_age" v="5" />
		<tag k="min_age" v="1" />
		<tag k="name" v="Myra barnehage" />
		<tag k="no-barnehage:nsrid" v="1016730" />
		<tag k="operator" v="Rauma kommune" />
		<tag k="operator:type" v="public" />
		<tag k="start_date" v="1989-01-01" />
	</node>
	<node id="-4606" lat="62.5815" lon="7.78807">
		<tag k="amenity" v="kindergarten" />
		<tag k="capacity" v="49" />
		<tag k="contact:email" v="greta.grotta@rauma.kommune.no" />
		<tag k="contact:phone" v="+47 71166235" />
		<tag k="max_age" v="5" />
		<tag k="min_age" v="1" />
		<tag k="name" v="Leiktun barnehage" />
		<tag k="no-barnehage:nsrid" v="1016729" />
		<tag k="operator" v="Rauma kommune" />
		<tag k="operator:type" v="public" />
		<tag k="start_date" v="1977-12-23" />
	</node>
	<node id="-4605" lat="62.49128" lon="7.559831">
		<tag k="amenity" v="kindergarten" />
		<tag k="capacity" v="28" />
		<tag k="contact:email" v="harriet@innfjorden.no" />
		<tag k="max_age" v="5" />
		<tag k="min_age" v="1" />
		<tag k="name" v="Innfjorden barnehage Sa" />
		<tag k="no-barnehage:nsrid" v="1025464" />
		<tag k="operator" v="Innfjorden barnehage Sa" />
		<tag k="operator:type" v="private" />
		<tag k="start_date" v="2014-05-12" />
	</node>
	<node id="-4604" lat="62.5868" lon="7.49499">
		<tag k="amenity" v="kindergarten" />
		<tag k="capacity" v="19" />
		<tag k="contact:email" v="eidsbygda@rauma.kommune.no" />
		<tag k="max_age" v="5" />
		<tag k="min_age" v="1" />
		<tag k="name" v="Eidsbygda barnehage" />
		<tag k="no-barnehage:nsrid" v="1017491" />
		<tag k="operator" v="Rauma kommune" />
		<tag k="operator:type" v="public" />
		<tag k="start_date" v="1989-01-02" />
	</node>
	<node id="-4612" lat="62.6616" lon="7.5027">
		<tag k="amenity" v="kindergarten" />
		<tag k="capacity" v="29" />
		<tag k="contact:email" v="aafarnes.barnehage@rauma.kommune.no" />
		<tag k="max_age" v="5" />
		<tag k="min_age" v="1" />
		<tag k="name" v="Åfarnes barnehage" />
		<tag k="no-barnehage:nsrid" v="1016731" />
		<tag k="operator" v="Rauma kommune" />
		<tag k="operator:type" v="public" />
		<tag k="start_date" v="1992-01-01" />
	</node>
	<node id="-4611" lat="62.6035" lon="7.31285">
		<tag k="amenity" v="kindergarten" />
		<tag k="capacity" v="15" />
		<tag k="contact:email" v="hanne.kildal@rauma.kommune.no" />
		<tag k="max_age" v="5" />
		<tag k="min_age" v="1" />
		<tag k="name" v="Vågstranda barnehage" />
		<tag k="no-barnehage:nsrid" v="1014931" />
		<tag k="operator" v="Rauma kommune" />
		<tag k="operator:type" v="public" />
		<tag k="start_date" v="1988-04-01" />
	</node>
	<node id="-4610" lat="62.57787" lon="7.793733">
		<tag k="amenity" v="kindergarten" />
		<tag k="capacity" v="102" />
		<tag k="contact:email" v="kontor@laringsverkstedet.no" />
		<tag k="contact:phone" v="+47 63 94 62 50" />
		<tag k="max_age" v="5" />
		<tag k="min_age" v="1" />
		<tag k="name" v="Rabben barnehage AS" />
		<tag k="no-barnehage:nsrid" v="1021398" />
		<tag k="operator" v="Rabben barnehage AS" />
		<tag k="operator:type" v="private" />
		<tag k="start_date" v="1990-01-01" />
	</node>
	<node id="-4609" lat="62.5599" lon="7.69468">
		<tag k="amenity" v="kindergarten" />
		<tag k="capacity" v="50" />
		<tag k="contact:email" v="tryggheim.andalsnes@nlmbhg.no" />
		<tag k="contact:phone" v="+47 71 22 17 10" />
		<tag k="max_age" v="5" />
		<tag k="min_age" v="1" />
		<tag k="name" v="Nlm Barnehagene AS Avd Tryggheim Barnehage Åndalsnes" />
		<tag k="no-barnehage:nsrid" v="1016182" />
		<tag k="operator" v="Nlm-Barnehagene AS" />
		<tag k="operator:type" v="private" />
		<tag k="start_date" v="1978-11-10" />
	</node>
</osm>
