<?xml version="1.0" encoding="UTF-8"?>
<osm generator="osmapis" version="0.6">
	<node id="-2495" lat="59.68131" lon="10.52737">
		<tag k="amenity" v="kindergarten" />
		<tag k="capacity" v="12" />
		<tag k="contact:email" v="post@bjorndalengard.no" />
		<tag k="max_age" v="5" />
		<tag k="min_age" v="1" />
		<tag k="name" v="Sætre Kunst &amp; Musikk barnehage" />
		<tag k="no-barnehage:nsrid" v="1016389" />
		<tag k="operator" v="Bjørndalen Gård M/barnehage Heidi Stav" />
		<tag k="operator:type" v="private" />
		<tag k="start_date" v="2002-04-01" />
	</node>
	<node id="-2494" lat="59.6339" lon="10.4959">
		<tag k="amenity" v="kindergarten" />
		<tag k="capacity" v="48" />
		<tag k="contact:email" v="astridvgs@yahoo.no" />
		<tag k="contact:phone" v="32 79 21 91" />
		<tag k="contact:website" v="http://www.askeladdensteinerbarnehage.no" />
		<tag k="max_age" v="5" />
		<tag k="min_age" v="1" />
		<tag k="name" v="Stiftelsen Askeladden Steinerbarnehage" />
		<tag k="no-barnehage:nsrid" v="1016648" />
		<tag k="operator" v="Stiftelsen Askeladden Steinerbarnehage" />
		<tag k="operator:type" v="private" />
		<tag k="start_date" v="1995-09-14" />
	</node>
	<node id="-2493" lat="59.667" lon="10.5317">
		<tag k="amenity" v="kindergarten" />
		<tag k="capacity" v="75" />
		<tag k="contact:email" v="gry.henriksen@hurum.kommune.no" />
		<tag k="max_age" v="5" />
		<tag k="min_age" v="1" />
		<tag k="name" v="Slingrebekken barnehage" />
		<tag k="no-barnehage:nsrid" v="1017348" />
		<tag k="operator" v="Hurum kommune" />
		<tag k="operator:type" v="public" />
		<tag k="start_date" v="1976-01-01" />
	</node>
	<node id="-2492" lat="59.54854" lon="10.48512">
		<tag k="amenity" v="kindergarten" />
		<tag k="capacity" v="44" />
		<tag k="contact:email" v="postmottak@kanabarnehage.no" />
		<tag k="contact:phone" v="32 79 36 65" />
		<tag k="max_age" v="5" />
		<tag k="min_age" v="1" />
		<tag k="name" v="Kana barnehage" />
		<tag k="no-barnehage:nsrid" v="1020455" />
		<tag k="operator" v="Stiftelsen Kana" />
		<tag k="operator:type" v="private" />
		<tag k="start_date" v="1990-09-01" />
	</node>
	<node id="-2490" lat="59.6096" lon="10.451">
		<tag k="amenity" v="kindergarten" />
		<tag k="capacity" v="30" />
		<tag k="contact:email" v="grybro@hurum.kommune.no" />
		<tag k="max_age" v="5" />
		<tag k="min_age" v="1" />
		<tag k="name" v="Hestehoven barnehage" />
		<tag k="no-barnehage:nsrid" v="1018019" />
		<tag k="operator" v="Hurum kommune" />
		<tag k="operator:type" v="public" />
		<tag k="start_date" v="1989-01-01" />
	</node>
	<node id="-2489" lat="59.5614" lon="10.5813">
		<tag k="amenity" v="kindergarten" />
		<tag k="capacity" v="35" />
		<tag k="contact:email" v="kari.toverud@hurum.kommune.no" />
		<tag k="max_age" v="5" />
		<tag k="min_age" v="1" />
		<tag k="name" v="Gulspurven barnehage" />
		<tag k="no-barnehage:nsrid" v="1013920" />
		<tag k="operator" v="Hurum kommune" />
		<tag k="operator:type" v="public" />
		<tag k="start_date" v="1990-09-01" />
	</node>
	<node id="-2488" lat="59.5508" lon="10.4645">
		<tag k="amenity" v="kindergarten" />
		<tag k="capacity" v="23" />
		<tag k="contact:email" v="grybro@hurum.kommune.no" />
		<tag k="max_age" v="5" />
		<tag k="min_age" v="1" />
		<tag k="name" v="Folkestad barnehage" />
		<tag k="no-barnehage:nsrid" v="1015050" />
		<tag k="operator" v="Hurum kommune" />
		<tag k="operator:type" v="public" />
		<tag k="start_date" v="2011-11-21" />
	</node>
	<node id="-2487" lat="59.5409" lon="10.551">
		<tag k="amenity" v="kindergarten" />
		<tag k="capacity" v="57" />
		<tag k="contact:email" v="kari.toverud@hurum.kommune.no" />
		<tag k="contact:phone" v="32 27 82 60" />
		<tag k="max_age" v="5" />
		<tag k="min_age" v="1" />
		<tag k="name" v="Doktorgården barnehage" />
		<tag k="no-barnehage:nsrid" v="1012498" />
		<tag k="operator" v="Hurum kommune" />
		<tag k="operator:type" v="public" />
		<tag k="start_date" v="1989-01-01" />
	</node>
	<node id="-2486" lat="59.67551" lon="10.51772">
		<tag k="amenity" v="kindergarten" />
		<tag k="capacity" v="40" />
		<tag k="contact:email" v="mk@kkrevisjon.no" />
		<tag k="contact:phone" v="32 79 81 70" />
		<tag k="max_age" v="5" />
		<tag k="min_age" v="1" />
		<tag k="name" v="Bjørndalen Gårdsbarnehage AS" />
		<tag k="no-barnehage:nsrid" v="1022160" />
		<tag k="operator" v="Bjørndalen Gårdsbarnehage AS" />
		<tag k="operator:type" v="private" />
		<tag k="start_date" v="2011-01-01" />
	</node>
	<node id="-2497" lat="59.65872" lon="10.57359">
		<tag k="amenity" v="kindergarten" />
		<tag k="capacity" v="83" />
		<tag k="contact:email" v="ellen.saethre@odegaarden.no" />
		<tag k="contact:phone" v="31 30 19 61" />
		<tag k="max_age" v="5" />
		<tag k="min_age" v="1" />
		<tag k="name" v="Ødegården Barnehagedrift AS" />
		<tag k="no-barnehage:nsrid" v="1022177" />
		<tag k="operator" v="Ødegården Barnehagedrift AS" />
		<tag k="operator:type" v="private" />
		<tag k="start_date" v="2011-01-03" />
	</node>
</osm>
