<?xml version="1.0" encoding="UTF-8"?>
<osm generator="osmapis" version="0.6">
	<node id="-2454" lat="59.6137" lon="10.458">
		<tag k="amenity" v="kindergarten" />
		<tag k="capacity" v="6" />
		<tag k="contact:email" v="askeladden@steinerbarnehage.no" />
		<tag k="contact:phone" v="+47 32 79 83 11" />
		<tag k="max_age" v="2" />
		<tag k="min_age" v="1" />
		<tag k="name" v="Holtebrekk Familiebarnehage" />
		<tag k="no-barnehage:nsrid" v="1014856" />
		<tag k="operator" v="Stiftelsen Askeladden Steinerbarnehage" />
		<tag k="operator:type" v="private" />
		<tag k="start_date" v="1996-06-07" />
	</node>
	<node id="-2459" lat="59.67031" lon="10.53287">
		<tag k="amenity" v="kindergarten" />
		<tag k="capacity" v="8" />
		<tag k="contact:email" v="rigmorborve@gmail.com" />
		<tag k="contact:phone" v="+47 32 79 03 37" />
		<tag k="max_age" v="2" />
		<tag k="min_age" v="1" />
		<tag k="name" v="Utsikt1 Familiebarnehage" />
		<tag k="no-barnehage:nsrid" v="1021758" />
		<tag k="operator" v="Rigmor BÃ¸rve Familiebarnehage" />
		<tag k="operator:type" v="private" />
		<tag k="start_date" v="2008-06-01" />
	</node>
</osm>
