<?xml version="1.0" encoding="UTF-8"?>
<osm generator="osmapis" version="0.6">
	<node id="-4030" lat="62.44012" lon="6.19224">
		<tag k="amenity" v="kindergarten" />
		<tag k="name" v="Sula kommune Spes.ped Hjelp Barneha" />
		<tag k="no-barnehage:nsrid" v="1019500" />
		<tag k="operator" v="Sula kommune" />
		<tag k="operator:type" v="public" />
	</node>
	<node id="-4029" lat="62.42338" lon="6.27072">
		<tag k="amenity" v="kindergarten" />
		<tag k="capacity" v="66" />
		<tag k="max_age" v="5" />
		<tag k="min_age" v="1" />
		<tag k="name" v="Måseide barnehage" />
		<tag k="no-barnehage:nsrid" v="1014780" />
		<tag k="operator" v="Sula kommune" />
		<tag k="operator:type" v="public" />
	</node>
	<node id="-4028" lat="62.43818" lon="6.18535">
		<tag k="amenity" v="kindergarten" />
		<tag k="capacity" v="108" />
		<tag k="max_age" v="5" />
		<tag k="min_age" v="1" />
		<tag k="name" v="Langevåg barnehage" />
		<tag k="no-barnehage:nsrid" v="1012520" />
		<tag k="operator" v="Sula kommune" />
		<tag k="operator:type" v="public" />
	</node>
</osm>
