<?xml version="1.0" encoding="UTF-8"?>
<osm generator="osmapis" version="0.6">
	<node id="-4670" lat="62.43765" lon="6.210794">
		<tag k="amenity" v="kindergarten" />
		<tag k="capacity" v="24" />
		<tag k="contact:email" v="vassetbarnehage@adsl.no" />
		<tag k="contact:phone" v="70 19 37 66" />
		<tag k="max_age" v="5" />
		<tag k="min_age" v="1" />
		<tag k="name" v="Vasset barnehage" />
		<tag k="no-barnehage:nsrid" v="1019730" />
		<tag k="operator" v="Vasset barnehage Sa" />
		<tag k="operator:type" v="private" />
		<tag k="start_date" v="1989-01-02" />
	</node>
	<node id="-4669" lat="62.4216" lon="6.32813">
		<tag k="amenity" v="kindergarten" />
		<tag k="capacity" v="40" />
		<tag k="max_age" v="5" />
		<tag k="min_age" v="1" />
		<tag k="name" v="Sunde barnehage" />
		<tag k="no-barnehage:nsrid" v="1018190" />
		<tag k="operator" v="Sula kommune" />
		<tag k="operator:type" v="public" />
		<tag k="start_date" v="1989-01-01" />
	</node>
	<node id="-4668" lat="62.43032" lon="6.270734">
		<tag k="amenity" v="kindergarten" />
		<tag k="capacity" v="63" />
		<tag k="contact:email" v="post@rorstadmarka-barnehage.no" />
		<tag k="contact:phone" v="70 19 40 50" />
		<tag k="contact:website" v="http://www.rorstadmarka.barnehage.no" />
		<tag k="max_age" v="5" />
		<tag k="min_age" v="1" />
		<tag k="name" v="Rørstadmarka barnehage Sa" />
		<tag k="no-barnehage:nsrid" v="1020902" />
		<tag k="operator" v="Rørstadmarka barnehage Sa" />
		<tag k="operator:type" v="private" />
		<tag k="start_date" v="2003-03-12" />
	</node>
	<node id="-4667" lat="62.43789" lon="6.183692">
		<tag k="amenity" v="kindergarten" />
		<tag k="contact:email" v="lrkl@c2i.net" />
		<tag k="contact:phone" v="70192335" />
		<tag k="name" v="Røde Kors Langevåg" />
		<tag k="no-barnehage:nsrid" v="1019781" />
		<tag k="operator" v="Langevåg Røde Kors Molvær" />
		<tag k="operator:type" v="private" />
		<tag k="start_date" v="1989-01-01" />
	</node>
	<node id="-4666" lat="62.43745" lon="6.189166">
		<tag k="amenity" v="kindergarten" />
		<tag k="capacity" v="122" />
		<tag k="contact:email" v="brev@tryggebarnehager.no" />
		<tag k="max_age" v="5" />
		<tag k="min_age" v="1" />
		<tag k="name" v="Nymarkbakken Fus barnehage AS" />
		<tag k="no-barnehage:nsrid" v="1021635" />
		<tag k="operator" v="Nymarkbakken Fus barnehage AS" />
		<tag k="operator:type" v="private" />
		<tag k="start_date" v="2007-04-11" />
	</node>
	<node id="-4665" lat="62.4234" lon="6.27072">
		<tag k="amenity" v="kindergarten" />
		<tag k="capacity" v="62" />
		<tag k="max_age" v="5" />
		<tag k="min_age" v="1" />
		<tag k="name" v="Måseide barnehage" />
		<tag k="no-barnehage:nsrid" v="1014780" />
		<tag k="operator" v="Sula kommune" />
		<tag k="operator:type" v="public" />
		<tag k="start_date" v="1993-08-01" />
	</node>
	<node id="-4664" lat="62.439" lon="6.18457">
		<tag k="amenity" v="kindergarten" />
		<tag k="capacity" v="77" />
		<tag k="max_age" v="5" />
		<tag k="min_age" v="1" />
		<tag k="name" v="Molvær barnehage" />
		<tag k="no-barnehage:nsrid" v="1016892" />
		<tag k="operator" v="Sula kommune" />
		<tag k="operator:type" v="public" />
		<tag k="start_date" v="1994-08-25" />
	</node>
	<node id="-4663" lat="62.4391" lon="6.19565">
		<tag k="amenity" v="kindergarten" />
		<tag k="capacity" v="85" />
		<tag k="max_age" v="5" />
		<tag k="min_age" v="1" />
		<tag k="name" v="Langevåg barnehage" />
		<tag k="no-barnehage:nsrid" v="1012520" />
		<tag k="operator" v="Sula kommune" />
		<tag k="operator:type" v="public" />
		<tag k="start_date" v="1989-01-01" />
	</node>
	<node id="-4662" lat="62.44728" lon="6.22016">
		<tag k="amenity" v="kindergarten" />
		<tag k="capacity" v="25" />
		<tag k="contact:phone" v="70 19 21 37" />
		<tag k="max_age" v="5" />
		<tag k="min_age" v="1" />
		<tag k="name" v="Hatlebakken barnehage Sa" />
		<tag k="no-barnehage:nsrid" v="1020553" />
		<tag k="operator" v="Hatlebakken barnehage Sa" />
		<tag k="operator:type" v="private" />
		<tag k="start_date" v="1998-08-17" />
	</node>
	<node id="-4661" lat="62.4253" lon="6.302713">
		<tag k="amenity" v="kindergarten" />
		<tag k="capacity" v="158" />
		<tag k="contact:email" v="firmapost@gnistbarnehager.no" />
		<tag k="contact:phone" v="40 00 65 96" />
		<tag k="contact:website" v="http://www.gnistbarnehager.no" />
		<tag k="max_age" v="5" />
		<tag k="min_age" v="1" />
		<tag k="name" v="Gnist Barnehager Bjørkavåg AS" />
		<tag k="no-barnehage:nsrid" v="1022084" />
		<tag k="operator" v="Gnist Barnehager Bjørkavåg AS" />
		<tag k="operator:type" v="private" />
		<tag k="start_date" v="2010-07-06" />
	</node>
</osm>
