<?xml version="1.0" encoding="UTF-8"?>
<osm generator="osmapis" version="0.6">
	<node id="-5447" lat="67.7631" lon="15.2325">
		<tag k="amenity" v="kindergarten" />
		<tag k="capacity" v="30" />
		<tag k="doNotImportAddress" v=" 8286 NORDFOLD" />
		<tag k="max_age" v="5" />
		<tag k="min_age" v="1" />
		<tag k="name" v="Nordfold barnehage" />
		<tag k="no-barnehage:nsrid" v="1013677" />
		<tag k="operator" v="Steigen kommune" />
		<tag k="operator:type" v="public" />
	</node>
	<node id="-5446" lat="67.756" lon="14.3094">
		<tag k="amenity" v="kindergarten" />
		<tag k="capacity" v="32" />
		<tag k="doNotImportAddress" v=" 8283 LEINESFJORD" />
		<tag k="max_age" v="5" />
		<tag k="min_age" v="1" />
		<tag k="name" v="Leinesfjord barnehage" />
		<tag k="no-barnehage:nsrid" v="1016140" />
		<tag k="operator" v="Steigen kommune" />
		<tag k="operator:type" v="public" />
	</node>
	<node id="-5445" lat="67.7373" lon="14.7955">
		<tag k="amenity" v="kindergarten" />
		<tag k="capacity" v="13" />
		<tag k="doNotImportAddress" v=" 8285 LEINES" />
		<tag k="max_age" v="5" />
		<tag k="min_age" v="1" />
		<tag k="name" v="Leines barnehage" />
		<tag k="no-barnehage:nsrid" v="1013676" />
		<tag k="operator" v="Steigen kommune" />
		<tag k="operator:type" v="public" />
	</node>
	<node id="-5444" lat="67.94055" lon="15.04416">
		<tag k="amenity" v="kindergarten" />
		<tag k="capacity" v="29" />
		<tag k="doNotImportAddress" v="Laskestad 8289 ENGELØYA" />
		<tag k="max_age" v="5" />
		<tag k="min_age" v="1" />
		<tag k="name" v="Engeløy barnehage" />
		<tag k="no-barnehage:nsrid" v="1012535" />
		<tag k="operator" v="Steigen kommune" />
		<tag k="operator:type" v="public" />
	</node>
</osm>
