<?xml version="1.0" encoding="UTF-8"?>
<osm generator="osmapis" version="0.6">
	<node id="-5296" lat="63.5535" lon="10.2109">
		<tag k="amenity" v="kindergarten" />
		<tag k="capacity" v="59" />
		<tag k="contact:email" v="turid.fagerkind@leksvik.kommune.no" />
		<tag k="contact:phone" v="+47 74856297" />
		<tag k="max_age" v="5" />
		<tag k="min_age" v="1" />
		<tag k="name" v="Vanvikan barnehage" />
		<tag k="no-barnehage:nsrid" v="1018270" />
		<tag k="operator" v="Leksvik kommune" />
		<tag k="operator:type" v="public" />
		<tag k="start_date" v="1989-01-01" />
	</node>
	<node id="-5295" lat="63.67329" lon="10.62397">
		<tag k="amenity" v="kindergarten" />
		<tag k="capacity" v="15" />
		<tag k="contact:email" v="tuppenoglillemorbarnehageas@gmail.com" />
		<tag k="max_age" v="5" />
		<tag k="min_age" v="1" />
		<tag k="name" v="Tuppen og Lillemor barnehage AS" />
		<tag k="no-barnehage:nsrid" v="1021674" />
		<tag k="operator" v="Tuppen og Lillemor barnehage AS" />
		<tag k="operator:type" v="private" />
		<tag k="start_date" v="2007-05-12" />
	</node>
	<node id="-5294" lat="63.67329" lon="10.62397">
		<tag k="amenity" v="kindergarten" />
		<tag k="capacity" v="43" />
		<tag k="contact:email" v="steinvegen@barnehage.no" />
		<tag k="contact:phone" v="+47 74 85 75 75" />
		<tag k="max_age" v="5" />
		<tag k="min_age" v="1" />
		<tag k="name" v="Steinvegen barnehage AS" />
		<tag k="no-barnehage:nsrid" v="1021188" />
		<tag k="operator" v="Steinvegen barnehage AS" />
		<tag k="operator:type" v="private" />
		<tag k="start_date" v="1994-08-01" />
	</node>
	<node id="-5293" lat="63.6733" lon="10.624">
		<tag k="amenity" v="kindergarten" />
		<tag k="capacity" v="41" />
		<tag k="contact:email" v="heidi.asphaug@leksvik.kommune.no" />
		<tag k="contact:phone" v="+47 74853670" />
		<tag k="max_age" v="5" />
		<tag k="min_age" v="1" />
		<tag k="name" v="Leksvik barnehage" />
		<tag k="no-barnehage:nsrid" v="1012780" />
		<tag k="operator" v="Leksvik kommune" />
		<tag k="operator:type" v="public" />
		<tag k="start_date" v="1976-12-24" />
	</node>
	<node id="-5292" lat="63.55275" lon="10.20989">
		<tag k="amenity" v="kindergarten" />
		<tag k="capacity" v="19" />
		<tag k="contact:email" v="Borglybarnehage@hotmail.com" />
		<tag k="max_age" v="5" />
		<tag k="min_age" v="1" />
		<tag k="name" v="Borgly barnehage AS" />
		<tag k="no-barnehage:nsrid" v="1021296" />
		<tag k="operator" v="Borgly barnehage AS" />
		<tag k="operator:type" v="private" />
		<tag k="start_date" v="2005-08-14" />
	</node>
</osm>
