<?xml version="1.0" encoding="UTF-8"?>
<osm generator="osmapis" version="0.6">
	<node id="-753" lat="60.153" lon="11.18993">
		<tag k="amenity" v="kindergarten" />
		<tag k="name" v="Vik Utbygging" />
		<tag k="no-barnehage:nsrid" v="2000340" />
		<tag k="operator" v="Vik Utbygging AS" />
		<tag k="operator:type" v="private" />
	</node>
	<node id="-752" lat="60.1545" lon="11.1863">
		<tag k="amenity" v="kindergarten" />
		<tag k="capacity" v="40" />
		<tag k="max_age" v="5" />
		<tag k="min_age" v="1" />
		<tag k="name" v="Tiurkroken barnehage" />
		<tag k="no-barnehage:nsrid" v="1016014" />
		<tag k="operator" v="Ullensaker kommune" />
		<tag k="operator:type" v="public" />
	</node>
	<node id="-751" lat="60.15865" lon="11.17968">
		<tag k="amenity" v="kindergarten" />
		<tag k="capacity" v="78" />
		<tag k="max_age" v="5" />
		<tag k="min_age" v="1" />
		<tag k="name" v="Sørholtet andelsbarnehage" />
		<tag k="no-barnehage:nsrid" v="1020717" />
		<tag k="operator" v="Sørholtet Andelslag Sa" />
		<tag k="operator:type" v="private" />
	</node>
	<node id="-747" lat="60.1415" lon="11.1752">
		<tag k="amenity" v="kindergarten" />
		<tag k="capacity" v="72" />
		<tag k="max_age" v="5" />
		<tag k="min_age" v="1" />
		<tag k="name" v="Romsaas barnehage" />
		<tag k="no-barnehage:nsrid" v="1016433" />
		<tag k="operator" v="Norlandia Barnehagene AS" />
		<tag k="operator:type" v="private" />
	</node>
	<node id="-746" lat="60.08246" lon="11.13766">
		<tag k="amenity" v="kindergarten" />
		<tag k="capacity" v="61" />
		<tag k="max_age" v="5" />
		<tag k="min_age" v="1" />
		<tag k="name" v="Olstadmoen barnehage" />
		<tag k="no-barnehage:nsrid" v="1020995" />
		<tag k="operator" v="Olstadmoen barnehage Sa" />
		<tag k="operator:type" v="private" />
	</node>
	<node id="-745" lat="60.168" lon="11.13679">
		<tag k="amenity" v="kindergarten" />
		<tag k="name" v="Norlandia Svanevågen gårds- og friluftsbarnehage" />
		<tag k="no-barnehage:nsrid" v="2000353" />
		<tag k="operator" v="Norlandia Svanevågen Gårds- og Friluftsbarnehage AS" />
		<tag k="operator:type" v="private" />
	</node>
	<node id="-744" lat="60.1597" lon="11.1866">
		<tag k="amenity" v="kindergarten" />
		<tag k="capacity" v="42" />
		<tag k="contact:website" v="http://nordbyhagen.norlandiabarnehagene.no" />
		<tag k="max_age" v="5" />
		<tag k="min_age" v="1" />
		<tag k="name" v="Nordbyhagen barnehage" />
		<tag k="no-barnehage:nsrid" v="1013116" />
		<tag k="operator" v="Norlandia Barnehagene AS" />
		<tag k="operator:type" v="private" />
	</node>
	<node id="-743" lat="60.154" lon="11.179">
		<tag k="amenity" v="kindergarten" />
		<tag k="capacity" v="64" />
		<tag k="max_age" v="5" />
		<tag k="min_age" v="1" />
		<tag k="name" v="Nordby barnehage" />
		<tag k="no-barnehage:nsrid" v="1017326" />
		<tag k="operator" v="Ullensaker kommune" />
		<tag k="operator:type" v="public" />
	</node>
	<node id="-742" lat="60.22939" lon="11.16798">
		<tag k="amenity" v="kindergarten" />
		<tag k="name" v="Mogreina barnehage Ii" />
		<tag k="no-barnehage:nsrid" v="2000352" />
		<tag k="operator" v="Norlandia Barnehagene AS" />
		<tag k="operator:type" v="private" />
	</node>
	<node id="-741" lat="60.1382" lon="11.168">
		<tag k="amenity" v="kindergarten" />
		<tag k="capacity" v="39" />
		<tag k="contact:website" v="http://www.laringsverkstedet.no/verkensveien" />
		<tag k="max_age" v="5" />
		<tag k="min_age" v="1" />
		<tag k="name" v="Læringsverkstedet barnehage avd. Verkensveien" />
		<tag k="no-barnehage:nsrid" v="1016985" />
		<tag k="operator" v="Læringsverkstedet AS" />
		<tag k="operator:type" v="private" />
	</node>
	<node id="-740" lat="60.1506" lon="11.1277">
		<tag k="amenity" v="kindergarten" />
		<tag k="capacity" v="80" />
		<tag k="contact:website" v="http://www.laringsverkstedet.no/solhellinga" />
		<tag k="max_age" v="5" />
		<tag k="min_age" v="1" />
		<tag k="name" v="Læringsverkstedet barnehage avd. Solhellinga" />
		<tag k="no-barnehage:nsrid" v="1017855" />
		<tag k="operator" v="Læringsverkstedet AS" />
		<tag k="operator:type" v="private" />
	</node>
	<node id="-739" lat="60.1403" lon="11.1993">
		<tag k="amenity" v="kindergarten" />
		<tag k="capacity" v="139" />
		<tag k="contact:website" v="http://www.laringsverkstedet.no/skogmo" />
		<tag k="max_age" v="5" />
		<tag k="min_age" v="1" />
		<tag k="name" v="Læringsverkstedet barnehage avd. Skogmo" />
		<tag k="no-barnehage:nsrid" v="1017187" />
		<tag k="operator" v="Læringsverkstedet AS" />
		<tag k="operator:type" v="private" />
	</node>
	<node id="-738" lat="60.1613" lon="11.1353">
		<tag k="amenity" v="kindergarten" />
		<tag k="capacity" v="27" />
		<tag k="contact:website" v="http://www.laringsverkstedet.no/olalokka" />
		<tag k="max_age" v="5" />
		<tag k="min_age" v="1" />
		<tag k="name" v="Læringsverkstedet barnehage avd. Olaløkka" />
		<tag k="no-barnehage:nsrid" v="1015471" />
		<tag k="operator" v="Læringsverkstedet AS" />
		<tag k="operator:type" v="private" />
	</node>
	<node id="-737" lat="60.161" lon="11.1912">
		<tag k="amenity" v="kindergarten" />
		<tag k="capacity" v="81" />
		<tag k="contact:website" v="http://www.laringsverkstedet.no/nordbymoen" />
		<tag k="max_age" v="5" />
		<tag k="min_age" v="1" />
		<tag k="name" v="Læringsverkstedet barnehage avd. Nordbymoen" />
		<tag k="no-barnehage:nsrid" v="1018417" />
		<tag k="operator" v="Læringsverkstedet AS" />
		<tag k="operator:type" v="private" />
	</node>
	<node id="-736" lat="60.1382" lon="11.2234">
		<tag k="amenity" v="kindergarten" />
		<tag k="capacity" v="88" />
		<tag k="max_age" v="5" />
		<tag k="min_age" v="1" />
		<tag k="name" v="Læringsverkstedet barnehage avd. Gystadmarka" />
		<tag k="no-barnehage:nsrid" v="1015119" />
		<tag k="operator" v="Læringsverkstedet AS" />
		<tag k="operator:type" v="private" />
	</node>
	<node id="-735" lat="60.1377" lon="11.2238">
		<tag k="amenity" v="kindergarten" />
		<tag k="capacity" v="127" />
		<tag k="contact:website" v="http://www.laringsverkstedet.no/ekornrud" />
		<tag k="max_age" v="5" />
		<tag k="min_age" v="1" />
		<tag k="name" v="Læringsverkstedet barnehage avd. Ekornrud" />
		<tag k="no-barnehage:nsrid" v="1018418" />
		<tag k="operator" v="Læringsverkstedet AS" />
		<tag k="operator:type" v="private" />
	</node>
	<node id="-734" lat="60.0741" lon="11.138">
		<tag k="amenity" v="kindergarten" />
		<tag k="capacity" v="52" />
		<tag k="contact:website" v="http://www.laringsverkstedet.no/borgen" />
		<tag k="max_age" v="5" />
		<tag k="min_age" v="1" />
		<tag k="name" v="Læringsverkstedet barnehage avd. Borgen" />
		<tag k="no-barnehage:nsrid" v="1015115" />
		<tag k="operator" v="Læringsverkstedet AS" />
		<tag k="operator:type" v="private" />
	</node>
	<node id="-733" lat="60.1507" lon="11.1527">
		<tag k="amenity" v="kindergarten" />
		<tag k="capacity" v="22" />
		<tag k="max_age" v="5" />
		<tag k="min_age" v="1" />
		<tag k="name" v="Kverndalen barnehage" />
		<tag k="no-barnehage:nsrid" v="1018600" />
		<tag k="operator" v="Ulna AS" />
		<tag k="operator:type" v="private" />
	</node>
	<node id="-732" lat="60.0835" lon="11.1296">
		<tag k="amenity" v="kindergarten" />
		<tag k="capacity" v="43" />
		<tag k="max_age" v="5" />
		<tag k="min_age" v="1" />
		<tag k="name" v="Kløftahallen barnehage" />
		<tag k="no-barnehage:nsrid" v="1017885" />
		<tag k="operator" v="Ullensaker kommune" />
		<tag k="operator:type" v="public" />
	</node>
	<node id="-731" lat="60.1449" lon="11.17528">
		<tag k="amenity" v="kindergarten" />
		<tag k="name" v="Jessheim åpen barnehage" />
		<tag k="no-barnehage:nsrid" v="1020407" />
		<tag k="operator" v="Hovin Sokn" />
		<tag k="operator:type" v="private" />
	</node>
	<node id="-730" lat="60.1446" lon="11.1656">
		<tag k="amenity" v="kindergarten" />
		<tag k="capacity" v="72" />
		<tag k="max_age" v="5" />
		<tag k="min_age" v="1" />
		<tag k="name" v="Jessheim barnehage" />
		<tag k="no-barnehage:nsrid" v="1025406" />
		<tag k="operator" v="Ullensaker kommune" />
		<tag k="operator:type" v="public" />
	</node>
	<node id="-729" lat="60.15254" lon="11.18482">
		<tag k="amenity" v="kindergarten" />
		<tag k="capacity" v="111" />
		<tag k="max_age" v="5" />
		<tag k="min_age" v="1" />
		<tag k="name" v="Hoppenspretthallen" />
		<tag k="no-barnehage:nsrid" v="1021617" />
		<tag k="operator" v="Hoppenspretthallen AS" />
		<tag k="operator:type" v="private" />
	</node>
	<node id="-728" lat="60.1376" lon="11.1923">
		<tag k="amenity" v="kindergarten" />
		<tag k="capacity" v="82" />
		<tag k="max_age" v="5" />
		<tag k="min_age" v="1" />
		<tag k="name" v="Hoppensprett avd. Skogmo" />
		<tag k="no-barnehage:nsrid" v="1017071" />
		<tag k="operator" v="Hoppensprett AS" />
		<tag k="operator:type" v="private" />
	</node>
	<node id="-727" lat="60.1412" lon="11.2154">
		<tag k="amenity" v="kindergarten" />
		<tag k="capacity" v="48" />
		<tag k="max_age" v="5" />
		<tag k="min_age" v="1" />
		<tag k="name" v="Hoppensprett avd. Gystad" />
		<tag k="no-barnehage:nsrid" v="1016546" />
		<tag k="operator" v="Hoppensprett AS" />
		<tag k="operator:type" v="private" />
	</node>
	<node id="-724" lat="60.1347" lon="11.2053">
		<tag k="amenity" v="kindergarten" />
		<tag k="capacity" v="42" />
		<tag k="max_age" v="5" />
		<tag k="min_age" v="1" />
		<tag k="name" v="Fladbyseter barnehage" />
		<tag k="no-barnehage:nsrid" v="1014873" />
		<tag k="operator" v="Ullensaker kommune" />
		<tag k="operator:type" v="public" />
	</node>
	<node id="-723" lat="60.15228" lon="11.18266">
		<tag k="amenity" v="kindergarten" />
		<tag k="name" v="Fjellfoten barnehage" />
		<tag k="no-barnehage:nsrid" v="2000252" />
		<tag k="operator" v="Fjellfoten barnehage AS" />
		<tag k="operator:type" v="private" />
	</node>
	<node id="-721" lat="60.13775" lon="11.16778">
		<tag k="amenity" v="kindergarten" />
		<tag k="capacity" v="43" />
		<tag k="contact:website" v="http://www.dolibarnehage.no" />
		<tag k="max_age" v="5" />
		<tag k="min_age" v="1" />
		<tag k="name" v="Døli barnehage" />
		<tag k="no-barnehage:nsrid" v="1019891" />
		<tag k="operator" v="Døli barnehage Sa" />
		<tag k="operator:type" v="private" />
	</node>
	<node id="-719" lat="60.10096" lon="11.21916">
		<tag k="amenity" v="kindergarten" />
		<tag k="capacity" v="72" />
		<tag k="max_age" v="5" />
		<tag k="min_age" v="1" />
		<tag k="name" v="Borgen FUS barnehage" />
		<tag k="no-barnehage:nsrid" v="1021129" />
		<tag k="operator" v="Borgen Fus barnehage AS" />
		<tag k="operator:type" v="private" />
	</node>
	<node id="-718" lat="60.06823" lon="11.13147">
		<tag k="amenity" v="kindergarten" />
		<tag k="capacity" v="58" />
		<tag k="max_age" v="5" />
		<tag k="min_age" v="1" />
		<tag k="name" v="Bakkedalen FUS barnehage" />
		<tag k="no-barnehage:nsrid" v="1020555" />
		<tag k="operator" v="Bakkedalen Fus barnehage AS" />
		<tag k="operator:type" v="private" />
	</node>
	<node id="-717" lat="60.0691" lon="11.1366">
		<tag k="amenity" v="kindergarten" />
		<tag k="capacity" v="54" />
		<tag k="max_age" v="5" />
		<tag k="min_age" v="1" />
		<tag k="name" v="Bakke barnehage" />
		<tag k="no-barnehage:nsrid" v="1017386" />
		<tag k="operator" v="Ullensaker kommune" />
		<tag k="operator:type" v="public" />
	</node>
</osm>
