<?xml version="1.0" encoding="UTF-8"?>
<osm generator="osmapis" version="0.6">
	<node id="-928" lat="60.13565" lon="11.19037">
		<tag k="amenity" v="kindergarten" />
		<tag k="capacity" v="5" />
		<tag k="contact:email" v="cknai@hotmail.com" />
		<tag k="contact:phone" v="+47 930 85 243" />
		<tag k="max_age" v="5" />
		<tag k="min_age" v="1" />
		<tag k="name" v="Charlotte Pedersens Familiebarnehag" />
		<tag k="no-barnehage:nsrid" v="1021793" />
		<tag k="operator" v="Charlotte Pedersens Familiebarnehage Avd. Hilton" />
		<tag k="operator:type" v="private" />
		<tag k="start_date" v="2008-04-16" />
	</node>
	<node id="-926" lat="60.14495" lon="11.25309">
		<tag k="amenity" v="kindergarten" />
		<tag k="capacity" v="8" />
		<tag k="contact:email" v="wencheschumacher@hotmail.com" />
		<tag k="contact:phone" v="+47 063976879" />
		<tag k="max_age" v="5" />
		<tag k="min_age" v="1" />
		<tag k="name" v="Berglia Familiebarnehage" />
		<tag k="no-barnehage:nsrid" v="1020169" />
		<tag k="operator" v="Berglia barnehage Wenche Schumacher" />
		<tag k="operator:type" v="private" />
		<tag k="start_date" v="1993-08-01" />
	</node>
	<node id="-925" lat="60.13565" lon="11.19037">
		<tag k="amenity" v="kindergarten" />
		<tag k="capacity" v="4" />
		<tag k="contact:email" v="cknai@hotmail.com" />
		<tag k="contact:phone" v="+47 63 98 10 51" />
		<tag k="max_age" v="5" />
		<tag k="min_age" v="1" />
		<tag k="name" v="Barnehage- og Vaktmester- Tjenester AS" />
		<tag k="no-barnehage:nsrid" v="1020670" />
		<tag k="operator" v="Barnehage- og Vaktmester- Tjenester AS" />
		<tag k="operator:type" v="private" />
		<tag k="start_date" v="1997-10-16" />
	</node>
	<node id="-924" lat="60.06613" lon="11.13916">
		<tag k="amenity" v="kindergarten" />
		<tag k="capacity" v="4" />
		<tag k="contact:email" v="cknai@hotmail.com" />
		<tag k="max_age" v="2" />
		<tag k="min_age" v="1" />
		<tag k="name" v="Bakkeveien Familiebarnehage" />
		<tag k="no-barnehage:nsrid" v="1022357" />
		<tag k="operator" v="Inge Pedersens Familiebarnehage" />
		<tag k="operator:type" v="private" />
		<tag k="start_date" v="2013-03-17" />
	</node>
	<node id="-946" lat="60.24152" lon="11.19767">
		<tag k="amenity" v="kindergarten" />
		<tag k="capacity" v="8" />
		<tag k="contact:email" v="kitt@kvisle.no" />
		<tag k="max_age" v="2" />
		<tag k="min_age" v="1" />
		<tag k="name" v="Kroken Familiebarnehage" />
		<tag k="no-barnehage:nsrid" v="1021190" />
		<tag k="operator" v="Kroken Familiebarnehage Kitt Eli Kvisle" />
		<tag k="operator:type" v="private" />
		<tag k="start_date" v="2006-10-01" />
	</node>
	<node id="-957" lat="60.13519" lon="11.21144">
		<tag k="amenity" v="kindergarten" />
		<tag k="capacity" v="8" />
		<tag k="contact:email" v="maurset@gmail.com" />
		<tag k="contact:phone" v="+47 63 98 14 24" />
		<tag k="max_age" v="5" />
		<tag k="min_age" v="1" />
		<tag k="name" v="Maurtua Familiebarnehage" />
		<tag k="no-barnehage:nsrid" v="1020260" />
		<tag k="operator" v="Maurtua Familiebarnehage V/claire Maurset" />
		<tag k="operator:type" v="private" />
		<tag k="start_date" v="1994-08-01" />
	</node>
	<node id="-967" lat="60.15117" lon="11.12832">
		<tag k="amenity" v="kindergarten" />
		<tag k="capacity" v="10" />
		<tag k="contact:email" v="irene@egeberg.as" />
		<tag k="contact:phone" v="+47 928 27 432" />
		<tag k="max_age" v="5" />
		<tag k="min_age" v="1" />
		<tag k="name" v="Solstråla Familiebarnehage Irene Lundeby" />
		<tag k="no-barnehage:nsrid" v="1021249" />
		<tag k="operator" v="Solstråla Familiebarnehage Irene Lundeby" />
		<tag k="operator:type" v="private" />
		<tag k="start_date" v="2005-08-17" />
	</node>
	<node id="-935" lat="60.06873" lon="11.12632">
		<tag k="amenity" v="kindergarten" />
		<tag k="capacity" v="5" />
		<tag k="contact:email" v="CKNAI@HOTMAIL.COM" />
		<tag k="contact:phone" v="+47 930 85 243" />
		<tag k="contact:website" v="http://www.kongletoppen-bhg.no" />
		<tag k="max_age" v="5" />
		<tag k="min_age" v="1" />
		<tag k="name" v="Hakkebakkeskogen Familiebarnehage" />
		<tag k="no-barnehage:nsrid" v="1021912" />
		<tag k="operator" v="Pedersens Familiebarnehage" />
		<tag k="operator:type" v="private" />
		<tag k="start_date" v="2009-02-01" />
	</node>
	<node id="-934" lat="60.15407" lon="11.17668">
		<tag k="amenity" v="kindergarten" />
		<tag k="capacity" v="10" />
		<tag k="contact:email" v="gullungenfamiliebarnehage@hotmail.com" />
		<tag k="max_age" v="5" />
		<tag k="min_age" v="1" />
		<tag k="name" v="Gullungen Familiebarnehage" />
		<tag k="no-barnehage:nsrid" v="1020170" />
		<tag k="operator" v="Gullungen Familiebarnehage avd Nordbyveien Marian Vårdal" />
		<tag k="operator:type" v="private" />
		<tag k="start_date" v="2005-01-01" />
	</node>
	<node id="-965" lat="60.0815" lon="11.1296">
		<tag k="amenity" v="kindergarten" />
		<tag k="capacity" v="5" />
		<tag k="contact:email" v="lill.rohneng@gmail.com" />
		<tag k="max_age" v="5" />
		<tag k="min_age" v="3" />
		<tag k="name" v="Rosterud Familiebarnehage AS Avd 2" />
		<tag k="no-barnehage:nsrid" v="1013481" />
		<tag k="operator" v="Rosterud Familiebarnehage AS" />
		<tag k="operator:type" v="private" />
		<tag k="start_date" v="2010-01-01" />
	</node>
	<node id="-964" lat="60.0817" lon="11.1297">
		<tag k="amenity" v="kindergarten" />
		<tag k="capacity" v="8" />
		<tag k="contact:email" v="lill.rohneng@gmail.com" />
		<tag k="max_age" v="2" />
		<tag k="min_age" v="1" />
		<tag k="name" v="Rosterud Familiebarnehage AS" />
		<tag k="no-barnehage:nsrid" v="1015643" />
		<tag k="operator" v="Rosterud Familiebarnehage AS" />
		<tag k="operator:type" v="private" />
		<tag k="start_date" v="1998-02-07" />
	</node>
	<node id="-963" lat="60.14662" lon="11.1571">
		<tag k="amenity" v="kindergarten" />
		<tag k="capacity" v="7" />
		<tag k="contact:email" v="bronwyn.picot@hotmail.com" />
		<tag k="contact:phone" v="+47 63 97 16 56" />
		<tag k="max_age" v="2" />
		<tag k="min_age" v="1" />
		<tag k="name" v="Rosenlund Familiebarnehage" />
		<tag k="no-barnehage:nsrid" v="1020651" />
		<tag k="operator" v="Rosenlund Familiebarnehage Bronwyn Picot" />
		<tag k="operator:type" v="private" />
		<tag k="start_date" v="1992-08-01" />
	</node>
	<node id="-930" lat="60.14463" lon="11.25501">
		<tag k="amenity" v="kindergarten" />
		<tag k="capacity" v="10" />
		<tag k="contact:email" v="gli.sked@gmail.com" />
		<tag k="contact:phone" v="+47 63 97 65 54" />
		<tag k="max_age" v="5" />
		<tag k="min_age" v="1" />
		<tag k="name" v="Ekornrud Familiebarnehage" />
		<tag k="no-barnehage:nsrid" v="1020125" />
		<tag k="operator" v="Ekornrud Familiebarnehage" />
		<tag k="operator:type" v="private" />
		<tag k="start_date" v="1994-01-03" />
	</node>
	<node id="-966" lat="60.15249" lon="11.12573">
		<tag k="amenity" v="kindergarten" />
		<tag k="capacity" v="8" />
		<tag k="contact:email" v="sandfambhg@hotmail.com" />
		<tag k="contact:phone" v="+47 63 97 70 00" />
		<tag k="max_age" v="5" />
		<tag k="min_age" v="1" />
		<tag k="name" v="Sand Familiebarnehage" />
		<tag k="no-barnehage:nsrid" v="1020054" />
		<tag k="operator" v="Sand Familiebarnehage" />
		<tag k="operator:type" v="private" />
		<tag k="start_date" v="1992-08-01" />
	</node>
</osm>
