<?xml version="1.0" encoding="UTF-8"?>
<osm generator="osmapis" version="0.6">
	<node id="-946" lat="60.1545" lon="11.1863">
		<tag k="amenity" v="kindergarten" />
		<tag k="capacity" v="43" />
		<tag k="contact:email" v="may.helen.hanssen@ullensaker.kommune.no" />
		<tag k="contact:phone" v="+47 66 10 89 40" />
		<tag k="max_age" v="5" />
		<tag k="min_age" v="1" />
		<tag k="name" v="Tiurkroken barnehage" />
		<tag k="no-barnehage:nsrid" v="1016014" />
		<tag k="operator" v="Ullensaker kommune" />
		<tag k="operator:type" v="public" />
		<tag k="start_date" v="1997-09-01" />
	</node>
	<node id="-945" lat="60.15865" lon="11.17968">
		<tag k="amenity" v="kindergarten" />
		<tag k="capacity" v="75" />
		<tag k="contact:email" v="styrer@sorholtet.no" />
		<tag k="contact:phone" v="+47 67 02 47 70" />
		<tag k="max_age" v="5" />
		<tag k="min_age" v="1" />
		<tag k="name" v="Sørholtet Andelsbarnehage" />
		<tag k="no-barnehage:nsrid" v="1020717" />
		<tag k="operator" v="Sørholtet Andelslag Sa" />
		<tag k="operator:type" v="private" />
		<tag k="start_date" v="2001-11-01" />
	</node>
	<node id="-944" lat="60.07738" lon="11.14367">
		<tag k="amenity" v="kindergarten" />
		<tag k="capacity" v="13" />
		<tag k="contact:email" v="soriamoria.vad@online.no" />
		<tag k="contact:phone" v="+47 63 98 19 94" />
		<tag k="max_age" v="5" />
		<tag k="min_age" v="1" />
		<tag k="name" v="Soria Moria barnehage" />
		<tag k="no-barnehage:nsrid" v="1020353" />
		<tag k="operator" v="Stiftelsen Soria Moria barnehage" />
		<tag k="operator:type" v="private" />
		<tag k="start_date" v="1995-02-22" />
	</node>
	<node id="-938" lat="60.1415" lon="11.1752">
		<tag k="amenity" v="kindergarten" />
		<tag k="capacity" v="71" />
		<tag k="contact:email" v="romsaas.bhg@norlandiabarnehagene.no" />
		<tag k="max_age" v="5" />
		<tag k="min_age" v="1" />
		<tag k="name" v="Romsaas barnehage" />
		<tag k="no-barnehage:nsrid" v="1016433" />
		<tag k="operator" v="Norlandia Barnehagene AS" />
		<tag k="operator:type" v="private" />
		<tag k="start_date" v="2002-03-01" />
	</node>
	<node id="-937" lat="60.08246" lon="11.13766">
		<tag k="amenity" v="kindergarten" />
		<tag k="capacity" v="57" />
		<tag k="contact:email" v="styrer@olstadmoen-barnehage.no" />
		<tag k="contact:phone" v="+47 63 94 77 70" />
		<tag k="max_age" v="5" />
		<tag k="min_age" v="1" />
		<tag k="name" v="Olstadmoen barnehage Sa" />
		<tag k="no-barnehage:nsrid" v="1020995" />
		<tag k="operator" v="Olstadmoen barnehage Sa" />
		<tag k="operator:type" v="private" />
		<tag k="start_date" v="2003-12-08" />
	</node>
	<node id="-936" lat="60.1597" lon="11.1866">
		<tag k="amenity" v="kindergarten" />
		<tag k="capacity" v="53" />
		<tag k="contact:email" v="nordbyhagen.barnehage@norlandia.com" />
		<tag k="contact:website" v="http://nordbyhagen.norlandiabarnehagene.no" />
		<tag k="max_age" v="5" />
		<tag k="min_age" v="1" />
		<tag k="name" v="Nordbyhagen barnehage" />
		<tag k="no-barnehage:nsrid" v="1013116" />
		<tag k="operator" v="Norlandia Barnehagene AS" />
		<tag k="operator:type" v="private" />
		<tag k="start_date" v="2004-10-01" />
	</node>
	<node id="-935" lat="60.154" lon="11.179">
		<tag k="amenity" v="kindergarten" />
		<tag k="capacity" v="67" />
		<tag k="contact:email" v="lise.eik@ullensaker.kommune.no" />
		<tag k="contact:phone" v="+47 66 10 89 20" />
		<tag k="max_age" v="5" />
		<tag k="min_age" v="1" />
		<tag k="name" v="Nordby barnehage" />
		<tag k="no-barnehage:nsrid" v="1017326" />
		<tag k="operator" v="Ullensaker kommune" />
		<tag k="operator:type" v="public" />
		<tag k="start_date" v="1972-12-26" />
	</node>
	<node id="-934" lat="60.2294" lon="11.1668">
		<tag k="amenity" v="kindergarten" />
		<tag k="capacity" v="131" />
		<tag k="contact:email" v="mogreina.bhg@norlandiabarnehagene.no" />
		<tag k="contact:phone" v="+47 67 02 46 70" />
		<tag k="max_age" v="5" />
		<tag k="min_age" v="1" />
		<tag k="name" v="Mogreina barnehage" />
		<tag k="no-barnehage:nsrid" v="1016398" />
		<tag k="operator" v="Norlandia Barnehagene AS" />
		<tag k="operator:type" v="private" />
		<tag k="start_date" v="2003-01-31" />
	</node>
	<node id="-933" lat="60.07406" lon="11.13804">
		<tag k="amenity" v="kindergarten" />
		<tag k="capacity" v="120" />
		<tag k="contact:email" v="admin@mamia.no" />
		<tag k="contact:website" v="http://www.mamia.no" />
		<tag k="max_age" v="5" />
		<tag k="min_age" v="1" />
		<tag k="name" v="Mamma Mia barnehage AS" />
		<tag k="no-barnehage:nsrid" v="1021782" />
		<tag k="operator" v="Mamma Mia barnehage AS" />
		<tag k="operator:type" v="private" />
		<tag k="start_date" v="2008-02-21" />
	</node>
	<node id="-932" lat="60.1382" lon="11.168">
		<tag k="amenity" v="kindergarten" />
		<tag k="capacity" v="39" />
		<tag k="contact:email" v="bhg.verkensveien@laringsverkstedet.no" />
		<tag k="contact:phone" v="+47 63 97 88 45" />
		<tag k="contact:website" v="http://www.laringsverkstedet.no/verkensveien" />
		<tag k="max_age" v="5" />
		<tag k="min_age" v="1" />
		<tag k="name" v="Læringsverkstedet barnehage Avd Verkensveien" />
		<tag k="no-barnehage:nsrid" v="1016985" />
		<tag k="operator" v="Læringsverkstedet AS" />
		<tag k="operator:type" v="private" />
		<tag k="start_date" v="2005-09-01" />
	</node>
	<node id="-931" lat="60.1506" lon="11.1277">
		<tag k="amenity" v="kindergarten" />
		<tag k="capacity" v="81" />
		<tag k="contact:email" v="kontor@laringsverkstedet.no" />
		<tag k="contact:phone" v="+47 41538050" />
		<tag k="contact:website" v="http://www.laringsverkstedet.no/solhellinga" />
		<tag k="max_age" v="5" />
		<tag k="min_age" v="1" />
		<tag k="name" v="Læringsverkstedet barnehage Avd Solhellinga" />
		<tag k="no-barnehage:nsrid" v="1017855" />
		<tag k="operator" v="Læringsverkstedet AS" />
		<tag k="operator:type" v="private" />
		<tag k="start_date" v="2007-09-01" />
	</node>
	<node id="-930" lat="60.1403" lon="11.1993">
		<tag k="amenity" v="kindergarten" />
		<tag k="capacity" v="127" />
		<tag k="contact:email" v="bhg.skogmo@laringsverkstedet.no" />
		<tag k="contact:phone" v="+47 41538020" />
		<tag k="contact:website" v="http://www.laringsverkstedet.no/skogmo" />
		<tag k="max_age" v="5" />
		<tag k="min_age" v="1" />
		<tag k="name" v="Læringsverkstedet barnehage Avd Skogmo" />
		<tag k="no-barnehage:nsrid" v="1017187" />
		<tag k="operator" v="Læringsverkstedet AS" />
		<tag k="operator:type" v="private" />
		<tag k="start_date" v="2006-09-15" />
	</node>
	<node id="-929" lat="60.1613" lon="11.1353">
		<tag k="amenity" v="kindergarten" />
		<tag k="capacity" v="28" />
		<tag k="contact:email" v="kontor@laringsverkstedet.no" />
		<tag k="contact:phone" v="+47 41 53 80 15" />
		<tag k="contact:website" v="http://www.laringsverkstedet.no/olalokka" />
		<tag k="max_age" v="5" />
		<tag k="min_age" v="1" />
		<tag k="name" v="Læringsverkstedet barnehage Avd Olaløkka" />
		<tag k="no-barnehage:nsrid" v="1015471" />
		<tag k="operator" v="Læringsverkstedet AS" />
		<tag k="operator:type" v="private" />
		<tag k="start_date" v="1992-10-05" />
	</node>
	<node id="-928" lat="60.161" lon="11.1912">
		<tag k="amenity" v="kindergarten" />
		<tag k="capacity" v="72" />
		<tag k="contact:email" v="nordbymoen@laringsverkstedet.no" />
		<tag k="contact:phone" v="+47 41 53 96 80" />
		<tag k="contact:website" v="http://www.laringsverkstedet.no/nordbymoen" />
		<tag k="max_age" v="5" />
		<tag k="min_age" v="1" />
		<tag k="name" v="Læringsverkstedet barnehage Avd Nordbymoen" />
		<tag k="no-barnehage:nsrid" v="1018417" />
		<tag k="operator" v="Læringsverkstedet AS" />
		<tag k="operator:type" v="private" />
		<tag k="start_date" v="2008-08-01" />
	</node>
	<node id="-927" lat="60.1382" lon="11.2234">
		<tag k="amenity" v="kindergarten" />
		<tag k="capacity" v="89" />
		<tag k="contact:email" v="gystadmarka@laringsverkstedet.no" />
		<tag k="max_age" v="5" />
		<tag k="min_age" v="1" />
		<tag k="name" v="Læringsverkstedet barnehage Avd Gystadmarka" />
		<tag k="no-barnehage:nsrid" v="1015119" />
		<tag k="operator" v="Læringsverkstedet AS" />
		<tag k="operator:type" v="private" />
		<tag k="start_date" v="2012-08-01" />
	</node>
	<node id="-926" lat="60.1377" lon="11.2238">
		<tag k="amenity" v="kindergarten" />
		<tag k="capacity" v="127" />
		<tag k="contact:email" v="bhg.ekornrud@laringsverkstedet.no" />
		<tag k="contact:phone" v="+47 41539675" />
		<tag k="contact:website" v="http://www.laringsverkstedet.no/ekornrud" />
		<tag k="max_age" v="5" />
		<tag k="min_age" v="1" />
		<tag k="name" v="Læringsverkstedet barnehage Avd Ekornrud" />
		<tag k="no-barnehage:nsrid" v="1018418" />
		<tag k="operator" v="Læringsverkstedet AS" />
		<tag k="operator:type" v="private" />
		<tag k="start_date" v="2008-08-01" />
	</node>
	<node id="-925" lat="60.0741" lon="11.138">
		<tag k="amenity" v="kindergarten" />
		<tag k="capacity" v="48" />
		<tag k="contact:email" v="bhg.borgen@laringsverkstedet.no" />
		<tag k="contact:phone" v="+47 97996745" />
		<tag k="contact:website" v="http://www.laringsverkstedet.no/borgen" />
		<tag k="max_age" v="5" />
		<tag k="min_age" v="1" />
		<tag k="name" v="Læringsverkstedet barnehage Avd Borgen" />
		<tag k="no-barnehage:nsrid" v="1015115" />
		<tag k="operator" v="Læringsverkstedet AS" />
		<tag k="operator:type" v="private" />
		<tag k="start_date" v="2012-08-01" />
	</node>
	<node id="-924" lat="60.1507" lon="11.1527">
		<tag k="amenity" v="kindergarten" />
		<tag k="capacity" v="21" />
		<tag k="contact:email" v="tove.nilssen@ulna.no" />
		<tag k="max_age" v="5" />
		<tag k="min_age" v="1" />
		<tag k="name" v="Kverndalen barnehage" />
		<tag k="no-barnehage:nsrid" v="1018600" />
		<tag k="operator" v="Ulna AS" />
		<tag k="operator:type" v="private" />
		<tag k="start_date" v="2009-04-01" />
	</node>
	<node id="-923" lat="60.0835" lon="11.1296">
		<tag k="amenity" v="kindergarten" />
		<tag k="capacity" v="45" />
		<tag k="contact:email" v="monica.nordsveen.pedersen@ullensaker.kommune.no" />
		<tag k="contact:phone" v="+47 66 10 87 90" />
		<tag k="max_age" v="5" />
		<tag k="min_age" v="1" />
		<tag k="name" v="Kløftahallen barnehage" />
		<tag k="no-barnehage:nsrid" v="1017885" />
		<tag k="operator" v="Ullensaker kommune" />
		<tag k="operator:type" v="public" />
		<tag k="start_date" v="2007-10-01" />
	</node>
	<node id="-922" lat="60.0776" lon="11.1419">
		<tag k="amenity" v="kindergarten" />
		<tag k="capacity" v="53" />
		<tag k="contact:email" v="nina.merethe.nyborg@ullensaker.kommune.no" />
		<tag k="contact:phone" v="+47 66 10 89 11" />
		<tag k="max_age" v="5" />
		<tag k="min_age" v="1" />
		<tag k="name" v="Kløfta barnehage" />
		<tag k="no-barnehage:nsrid" v="1016919" />
		<tag k="operator" v="Ullensaker kommune" />
		<tag k="operator:type" v="public" />
		<tag k="start_date" v="1976-12-24" />
	</node>
	<node id="-921" lat="60.1449" lon="11.17528">
		<tag k="amenity" v="kindergarten" />
		<tag k="contact:email" v="post@ullensaker.kirkene.net" />
		<tag k="contact:phone" v="+47 63 94 40 20" />
		<tag k="name" v="Jessheim Åpen barnehage" />
		<tag k="no-barnehage:nsrid" v="1020407" />
		<tag k="operator" v="Hovin Sokn" />
		<tag k="operator:type" v="private" />
		<tag k="start_date" v="2010-09-01" />
	</node>
	<node id="-920" lat="60.1446" lon="11.1656">
		<tag k="amenity" v="kindergarten" />
		<tag k="capacity" v="69" />
		<tag k="contact:email" v="hilde.kverner@ullensaker.kommune.no" />
		<tag k="contact:phone" v="+47 66 10 89 00" />
		<tag k="max_age" v="5" />
		<tag k="min_age" v="1" />
		<tag k="name" v="Jessheim barnehage" />
		<tag k="no-barnehage:nsrid" v="1025406" />
		<tag k="operator" v="Ullensaker kommune" />
		<tag k="operator:type" v="public" />
		<tag k="start_date" v="1976-12-24" />
	</node>
	<node id="-919" lat="60.15254" lon="11.18482">
		<tag k="amenity" v="kindergarten" />
		<tag k="capacity" v="102" />
		<tag k="contact:email" v="kirsti@hoppensprett.no" />
		<tag k="contact:phone" v="+47 99161900" />
		<tag k="max_age" v="5" />
		<tag k="min_age" v="1" />
		<tag k="name" v="Hoppenspretthallen AS" />
		<tag k="no-barnehage:nsrid" v="1021617" />
		<tag k="operator" v="Hoppenspretthallen AS" />
		<tag k="operator:type" v="private" />
		<tag k="start_date" v="2007-01-15" />
	</node>
	<node id="-918" lat="60.0689" lon="11.1384">
		<tag k="amenity" v="kindergarten" />
		<tag k="capacity" v="23" />
		<tag k="contact:email" v="helga@hoppensprett.no" />
		<tag k="max_age" v="5" />
		<tag k="min_age" v="1" />
		<tag k="name" v="Hoppensprett Avd Solbakken" />
		<tag k="no-barnehage:nsrid" v="1017701" />
		<tag k="operator" v="Hoppensprett AS" />
		<tag k="operator:type" v="private" />
		<tag k="start_date" v="2007-01-01" />
	</node>
	<node id="-917" lat="60.1376" lon="11.1923">
		<tag k="amenity" v="kindergarten" />
		<tag k="capacity" v="82" />
		<tag k="contact:email" v="stine@hoppensprett.no" />
		<tag k="max_age" v="5" />
		<tag k="min_age" v="1" />
		<tag k="name" v="Hoppensprett Avd Skogmo" />
		<tag k="no-barnehage:nsrid" v="1017071" />
		<tag k="operator" v="Hoppensprett AS" />
		<tag k="operator:type" v="private" />
		<tag k="start_date" v="2005-04-20" />
	</node>
	<node id="-916" lat="60.1889" lon="11.2636">
		<tag k="amenity" v="kindergarten" />
		<tag k="capacity" v="48" />
		<tag k="contact:email" v="eli@hoppensprett.no" />
		<tag k="contact:phone" v="+47 63 98 19 19" />
		<tag k="max_age" v="5" />
		<tag k="min_age" v="1" />
		<tag k="name" v="Hoppensprett Avd Nordkisa" />
		<tag k="no-barnehage:nsrid" v="1013034" />
		<tag k="operator" v="Hoppensprett AS" />
		<tag k="operator:type" v="private" />
		<tag k="start_date" v="2004-03-15" />
	</node>
	<node id="-915" lat="60.1412" lon="11.2154">
		<tag k="amenity" v="kindergarten" />
		<tag k="capacity" v="49" />
		<tag k="contact:email" v="anette@hoppensprett.no" />
		<tag k="contact:phone" v="+47 63 97 04 30" />
		<tag k="max_age" v="5" />
		<tag k="min_age" v="1" />
		<tag k="name" v="Hoppensprett Avd Gystad" />
		<tag k="no-barnehage:nsrid" v="1016546" />
		<tag k="operator" v="Hoppensprett AS" />
		<tag k="operator:type" v="private" />
		<tag k="start_date" v="2003-07-01" />
	</node>
	<node id="-914" lat="60.1756" lon="11.2652">
		<tag k="amenity" v="kindergarten" />
		<tag k="capacity" v="52" />
		<tag k="contact:email" v="leder.hauerseter@ulna.no" />
		<tag k="max_age" v="5" />
		<tag k="min_age" v="1" />
		<tag k="name" v="Hauerseter Friluftsbarnehage" />
		<tag k="no-barnehage:nsrid" v="1016975" />
		<tag k="operator" v="Ulna AS" />
		<tag k="operator:type" v="private" />
		<tag k="start_date" v="2005-08-15" />
	</node>
	<node id="-911" lat="60.15856" lon="11.11873">
		<tag k="amenity" v="kindergarten" />
		<tag k="capacity" v="14" />
		<tag k="contact:email" v="per-lien@online.no" />
		<tag k="contact:phone" v="+47 93860670" />
		<tag k="max_age" v="5" />
		<tag k="min_age" v="1" />
		<tag k="name" v="Grenaderstubben barnehage AS" />
		<tag k="no-barnehage:nsrid" v="1022270" />
		<tag k="operator" v="Grenaderstubben barnehage AS" />
		<tag k="operator:type" v="private" />
		<tag k="start_date" v="2005-07-25" />
	</node>
	<node id="-910" lat="60.1347" lon="11.2053">
		<tag k="amenity" v="kindergarten" />
		<tag k="capacity" v="45" />
		<tag k="contact:email" v="mari.sandnes.rodland@ullensaker.kommune.no" />
		<tag k="contact:phone" v="+47 66 10 88 90" />
		<tag k="max_age" v="5" />
		<tag k="min_age" v="1" />
		<tag k="name" v="Fladbyseter barnehage" />
		<tag k="no-barnehage:nsrid" v="1014873" />
		<tag k="operator" v="Ullensaker kommune" />
		<tag k="operator:type" v="public" />
		<tag k="start_date" v="1996-01-01" />
	</node>
	<node id="-908" lat="60.13775" lon="11.16778">
		<tag k="amenity" v="kindergarten" />
		<tag k="capacity" v="41" />
		<tag k="contact:email" v="doli.barnehage@start.no" />
		<tag k="contact:phone" v="+47 63 97 23 41" />
		<tag k="contact:website" v="http://www.dolibarnehage.no" />
		<tag k="max_age" v="5" />
		<tag k="min_age" v="1" />
		<tag k="name" v="Døli barnehage Sa" />
		<tag k="no-barnehage:nsrid" v="1019891" />
		<tag k="operator" v="Døli barnehage Sa" />
		<tag k="operator:type" v="private" />
		<tag k="start_date" v="1990-04-01" />
	</node>
	<node id="-906" lat="60.10096" lon="11.21916">
		<tag k="amenity" v="kindergarten" />
		<tag k="capacity" v="71" />
		<tag k="contact:email" v="dl.borgen@bhg.no" />
		<tag k="contact:phone" v="+47 63 98 68 50" />
		<tag k="max_age" v="5" />
		<tag k="min_age" v="1" />
		<tag k="name" v="Borgen Fus barnehage AS" />
		<tag k="no-barnehage:nsrid" v="1021129" />
		<tag k="operator" v="Borgen Fus barnehage AS" />
		<tag k="operator:type" v="private" />
		<tag k="start_date" v="2004-09-23" />
	</node>
	<node id="-903" lat="60.06823" lon="11.13147">
		<tag k="amenity" v="kindergarten" />
		<tag k="capacity" v="58" />
		<tag k="contact:email" v="dl.bakkedalen@bhg.no" />
		<tag k="contact:phone" v="+47 63 94 33 00" />
		<tag k="max_age" v="5" />
		<tag k="min_age" v="1" />
		<tag k="name" v="Bakkedalen Fus barnehage AS" />
		<tag k="no-barnehage:nsrid" v="1020555" />
		<tag k="operator" v="Bakkedalen Fus barnehage AS" />
		<tag k="operator:type" v="private" />
		<tag k="start_date" v="1999-08-01" />
	</node>
	<node id="-902" lat="60.0691" lon="11.1366">
		<tag k="amenity" v="kindergarten" />
		<tag k="capacity" v="57" />
		<tag k="contact:email" v="unni.lisbeth.lundberg@ullensaker.kommune.no" />
		<tag k="contact:phone" v="+47 66 10 88 80" />
		<tag k="max_age" v="5" />
		<tag k="min_age" v="1" />
		<tag k="name" v="Bakke barnehage" />
		<tag k="no-barnehage:nsrid" v="1017386" />
		<tag k="operator" v="Ullensaker kommune" />
		<tag k="operator:type" v="public" />
		<tag k="start_date" v="1978-07-17" />
	</node>
	<node id="-901" lat="60.0829" lon="11.1292">
		<tag k="amenity" v="kindergarten" />
		<tag k="capacity" v="52" />
		<tag k="contact:email" v="annebritt@ulna.no" />
		<tag k="contact:phone" v="+47 92 83 48 61" />
		<tag k="max_age" v="5" />
		<tag k="min_age" v="1" />
		<tag k="name" v="Alvheim barnehage" />
		<tag k="no-barnehage:nsrid" v="1013257" />
		<tag k="operator" v="Ulna AS" />
		<tag k="operator:type" v="private" />
		<tag k="start_date" v="2005-06-09" />
	</node>
</osm>
