<?xml version="1.0" encoding="UTF-8"?>
<osm generator="osmapis" version="0.6">
	<node id="-203" lat="59.43921" lon="11.32177">
		<tag k="amenity" v="kindergarten" />
		<tag k="capacity" v="40" />
		<tag k="max_age" v="5" />
		<tag k="min_age" v="1" />
		<tag k="name" v="Noahs Ark barnehage" />
		<tag k="no-barnehage:nsrid" v="1019625" />
		<tag k="operator" v="Noahs Ark barnehage" />
		<tag k="operator:type" v="private" />
	</node>
	<node id="-202" lat="59.3577" lon="11.4225">
		<tag k="amenity" v="kindergarten" />
		<tag k="capacity" v="67" />
		<tag k="max_age" v="5" />
		<tag k="min_age" v="1" />
		<tag k="name" v="Kirkeng barnehage" />
		<tag k="no-barnehage:nsrid" v="1017514" />
		<tag k="operator" v="Rakkestad kommune" />
		<tag k="operator:type" v="public" />
	</node>
	<node id="-201" lat="59.43136" lon="11.34064">
		<tag k="amenity" v="kindergarten" />
		<tag k="capacity" v="22" />
		<tag k="max_age" v="5" />
		<tag k="min_age" v="1" />
		<tag k="name" v="Gudim barnehage Ina Cecilie Alme Johansen" />
		<tag k="no-barnehage:nsrid" v="1021694" />
		<tag k="operator" v="Gudim barnehage Ina Cecilie Alme Johansen" />
		<tag k="operator:type" v="private" />
	</node>
	<node id="-200" lat="59.4258" lon="11.3469">
		<tag k="amenity" v="kindergarten" />
		<tag k="capacity" v="44" />
		<tag k="max_age" v="5" />
		<tag k="min_age" v="1" />
		<tag k="name" v="Fladstad barnehage" />
		<tag k="no-barnehage:nsrid" v="1025482" />
		<tag k="operator" v="Rakkestad kommune" />
		<tag k="operator:type" v="public" />
	</node>
	<node id="-199" lat="59.4395" lon="11.3211">
		<tag k="amenity" v="kindergarten" />
		<tag k="capacity" v="31" />
		<tag k="max_age" v="5" />
		<tag k="min_age" v="1" />
		<tag k="name" v="Elle Melle barnehage" />
		<tag k="no-barnehage:nsrid" v="1014158" />
		<tag k="operator" v="Rakkestad kommune" />
		<tag k="operator:type" v="public" />
	</node>
	<node id="-198" lat="59.4179" lon="11.3484">
		<tag k="amenity" v="kindergarten" />
		<tag k="capacity" v="63" />
		<tag k="max_age" v="5" />
		<tag k="min_age" v="1" />
		<tag k="name" v="Byggeklossen barnehage" />
		<tag k="no-barnehage:nsrid" v="1018313" />
		<tag k="operator" v="Rakkestad kommune" />
		<tag k="operator:type" v="public" />
	</node>
	<node id="-197" lat="59.4197" lon="11.3502">
		<tag k="amenity" v="kindergarten" />
		<tag k="capacity" v="51" />
		<tag k="max_age" v="5" />
		<tag k="min_age" v="1" />
		<tag k="name" v="Bergenhus barnehage" />
		<tag k="no-barnehage:nsrid" v="1013862" />
		<tag k="operator" v="Rakkestad kommune" />
		<tag k="operator:type" v="public" />
	</node>
</osm>
