<?xml version="1.0" encoding="UTF-8"?>
<osm generator="osmapis" version="0.6">
	<node id="-256" lat="59.4179" lon="11.3484">
		<tag k="amenity" v="kindergarten" />
		<tag k="capacity" v="59" />
		<tag k="contact:email" v="mats.berg-berthinussen@rakkestad.kommune.no" />
		<tag k="contact:phone" v="48 95 02 57" />
		<tag k="max_age" v="5" />
		<tag k="min_age" v="1" />
		<tag k="name" v="Byggeklossen barnehage" />
		<tag k="no-barnehage:nsrid" v="1018313" />
		<tag k="operator" v="Rakkestad kommune" />
		<tag k="operator:type" v="public" />
		<tag k="start_date" v="2007-08-01" />
	</node>
	<node id="-255" lat="59.4197" lon="11.3502">
		<tag k="amenity" v="kindergarten" />
		<tag k="capacity" v="53" />
		<tag k="contact:email" v="bergenhus.bhg@rakkestad.kommune.no" />
		<tag k="contact:phone" v="45 63 10 97" />
		<tag k="max_age" v="5" />
		<tag k="min_age" v="1" />
		<tag k="name" v="Bergenhus barnehage" />
		<tag k="no-barnehage:nsrid" v="1013862" />
		<tag k="operator" v="Rakkestad kommune" />
		<tag k="operator:type" v="public" />
		<tag k="start_date" v="1989-01-02" />
	</node>
	<node id="-263" lat="59.43921" lon="11.32177">
		<tag k="amenity" v="kindergarten" />
		<tag k="capacity" v="39" />
		<tag k="contact:phone" v="69 22 30 68" />
		<tag k="max_age" v="5" />
		<tag k="min_age" v="1" />
		<tag k="name" v="Noahs Ark barnehage" />
		<tag k="no-barnehage:nsrid" v="1019625" />
		<tag k="operator" v="Noahs Ark barnehage" />
		<tag k="operator:type" v="private" />
		<tag k="start_date" v="1982-01-01" />
	</node>
	<node id="-262" lat="59.41867" lon="11.3556">
		<tag k="amenity" v="kindergarten" />
		<tag k="capacity" v="36" />
		<tag k="contact:phone" v="69 22 20 80" />
		<tag k="max_age" v="5" />
		<tag k="min_age" v="1" />
		<tag k="name" v="Musikktrollet barnehage Liv Høidal Bjønnes" />
		<tag k="no-barnehage:nsrid" v="1021653" />
		<tag k="operator" v="Musikktrollet barnehage Liv Høidal Bjønnes" />
		<tag k="operator:type" v="private" />
		<tag k="start_date" v="2007-07-01" />
	</node>
	<node id="-261" lat="59.42834" lon="11.33546">
		<tag k="amenity" v="kindergarten" />
		<tag k="capacity" v="44" />
		<tag k="contact:email" v="post@knertitten.no" />
		<tag k="contact:phone" v="69 22 76 46" />
		<tag k="contact:website" v="http://www.knertitten.no" />
		<tag k="max_age" v="5" />
		<tag k="min_age" v="1" />
		<tag k="name" v="Knertitten barnehage AS" />
		<tag k="no-barnehage:nsrid" v="1022196" />
		<tag k="operator" v="Knertitten barnehage AS" />
		<tag k="operator:type" v="private" />
		<tag k="start_date" v="2003-01-01" />
	</node>
	<node id="-260" lat="59.3577" lon="11.4225">
		<tag k="amenity" v="kindergarten" />
		<tag k="capacity" v="54" />
		<tag k="contact:email" v="maritingberg.ostbye@rakkestad.kommune.no" />
		<tag k="contact:phone" v="99 09 10 70" />
		<tag k="max_age" v="5" />
		<tag k="min_age" v="1" />
		<tag k="name" v="Kirkeng barnehage" />
		<tag k="no-barnehage:nsrid" v="1017514" />
		<tag k="operator" v="Rakkestad kommune" />
		<tag k="operator:type" v="public" />
		<tag k="start_date" v="1988-04-01" />
	</node>
	<node id="-259" lat="59.43136" lon="11.34064">
		<tag k="amenity" v="kindergarten" />
		<tag k="capacity" v="22" />
		<tag k="contact:phone" v="69 22 77 41" />
		<tag k="max_age" v="5" />
		<tag k="min_age" v="1" />
		<tag k="name" v="Gudim barnehage Ina Cecilie Alme Johansen" />
		<tag k="no-barnehage:nsrid" v="1021694" />
		<tag k="operator" v="Gudim barnehage Ina Cecilie Alme Johansen" />
		<tag k="operator:type" v="private" />
		<tag k="start_date" v="2003-07-01" />
	</node>
	<node id="-258" lat="59.4258" lon="11.3469">
		<tag k="amenity" v="kindergarten" />
		<tag k="capacity" v="45" />
		<tag k="contact:email" v="fladstad.barnehage@rakkestad.kommune.no" />
		<tag k="contact:phone" v="48 99 74 78" />
		<tag k="max_age" v="5" />
		<tag k="min_age" v="1" />
		<tag k="name" v="Fladstad barnehage" />
		<tag k="no-barnehage:nsrid" v="1025482" />
		<tag k="operator" v="Rakkestad kommune" />
		<tag k="operator:type" v="public" />
		<tag k="start_date" v="1988-04-01" />
	</node>
	<node id="-257" lat="59.4395" lon="11.3211">
		<tag k="amenity" v="kindergarten" />
		<tag k="capacity" v="35" />
		<tag k="contact:email" v="henriette.myhrvang@rakkestad.kommune.no" />
		<tag k="max_age" v="5" />
		<tag k="min_age" v="1" />
		<tag k="name" v="Elle Melle barnehage" />
		<tag k="no-barnehage:nsrid" v="1014158" />
		<tag k="operator" v="Rakkestad kommune" />
		<tag k="operator:type" v="public" />
		<tag k="start_date" v="2010-04-20" />
	</node>
</osm>
