<?xml version="1.0" encoding="UTF-8"?>
<osm version="0.6" generator="osmapis">
	<node lat="59.41866" lon="10.4515" id="-3240">
		<tag k="ADDRESS" v="Bjørnestien 26, 3188 HORTEN" />
		<tag k="amenity" v="kindergarten" />
		<tag k="capacity" v="120" />
		<tag k="max_age" v="5" />
		<tag k="min_age" v="1" />
		<tag k="name" v="Bjørnestien barnehage" />
		<tag k="no-barnehage:nsrid" v="992962798" />
		<tag k="operator" v="Horten kommune" />
		<tag k="operator:type" v="public" />
	</node>
	<node lat="59.38654" lon="10.405" id="-3241">
		<tag k="ADDRESS" v="Sentrum 7, 3185 SKOPPUM" />
		<tag k="amenity" v="kindergarten" />
		<tag k="capacity" v="95" />
		<tag k="max_age" v="5" />
		<tag k="min_age" v="1" />
		<tag k="name" v="Blåbærlyngen barnehage" />
		<tag k="no-barnehage:nsrid" v="974605775" />
		<tag k="operator" v="Horten kommune" />
		<tag k="operator:type" v="public" />
	</node>
	<node lat="59.40421" lon="10.46678" id="-3242">
		<tag k="ADDRESS" v="Framveien 6A, 3188 HORTEN" />
		<tag k="amenity" v="kindergarten" />
		<tag k="capacity" v="160" />
		<tag k="max_age" v="5" />
		<tag k="min_age" v="1" />
		<tag k="name" v="Espira Baggerødbanen barnehage" />
		<tag k="no-barnehage:nsrid" v="914799732" />
		<tag k="operator" v="Espira Baggerødbanen AS" />
		<tag k="operator:type" v="private" />
	</node>
	<node lat="59.42274" lon="10.37353" id="-3243">
		<tag k="ADDRESS" v="Sletterødåsen 7, 3180 NYKIRKE" />
		<tag k="amenity" v="kindergarten" />
		<tag k="capacity" v="69" />
		<tag k="max_age" v="5" />
		<tag k="min_age" v="1" />
		<tag k="name" v="Espira Nykirke barnehage" />
		<tag k="no-barnehage:nsrid" v="917137803" />
		<tag k="operator" v="Espira Nykirke AS" />
		<tag k="operator:type" v="private" />
	</node>
	<node lat="59.40865" lon="10.4681" id="-3244">
		<tag k="ADDRESS" v="Haakons gate 21, 3188 HORTEN" />
		<tag k="amenity" v="kindergarten" />
		<tag k="capacity" v="55" />
		<tag k="max_age" v="5" />
		<tag k="min_age" v="1" />
		<tag k="name" v="Gartnerløkka barnehage" />
		<tag k="no-barnehage:nsrid" v="974605880" />
		<tag k="operator" v="Horten kommune" />
		<tag k="operator:type" v="public" />
	</node>
	<node lat="59.42612" lon="10.49178" id="-3246">
		<tag k="ADDRESS" v="Øvre vei 5B, 3183 HORTEN" />
		<tag k="amenity" v="kindergarten" />
		<tag k="capacity" v="45" />
		<tag k="max_age" v="5" />
		<tag k="min_age" v="1" />
		<tag k="name" v="Karljohansvern barnehage" />
		<tag k="no-barnehage:nsrid" v="980176800" />
		<tag k="operator" v="Horten kommune" />
		<tag k="operator:type" v="public" />
	</node>
	<node lat="59.41922" lon="10.46139" id="-3247">
		<tag k="ADDRESS" v="Lilaasveien 16, 3188 HORTEN" />
		<tag k="amenity" v="kindergarten" />
		<tag k="capacity" v="19" />
		<tag k="max_age" v="5" />
		<tag k="min_age" v="1" />
		<tag k="name" v="Lilaas gård barnehage, Inger Marie Semb Avdal" />
		<tag k="no-barnehage:nsrid" v="973484109" />
		<tag k="operator" v="Lilaas Gård Barnehage, Inger Marie Semb Avdal" />
		<tag k="operator:type" v="private" />
	</node>
	<node lat="59.38029" lon="10.4472" id="-3248">
		<tag k="ADDRESS" v="Inger Alver Gløersens vei 7, 3184 BORRE" />
		<tag k="amenity" v="kindergarten" />
		<tag k="capacity" v="56" />
		<tag k="contact:website" v="http://laringsverkstedet.no/barnehage/borre-student-og-idrettsbarnehage" />
		<tag k="max_age" v="5" />
		<tag k="min_age" v="1" />
		<tag k="name" v="Læringsverkstedet Borre idrettsbarnehage" />
		<tag k="no-barnehage:nsrid" v="916508182" />
		<tag k="operator" v="Læringsverkstedet Borre idrettsbarnehage AS" />
		<tag k="operator:type" v="private" />
	</node>
	<node lat="59.41976" lon="10.46072" id="-3249">
		<tag k="ADDRESS" v="Lilaasveien 11, 3189 HORTEN" />
		<tag k="amenity" v="kindergarten" />
		<tag k="capacity" v="58" />
		<tag k="max_age" v="5" />
		<tag k="min_age" v="1" />
		<tag k="name" v="Læringsverkstedet Lillås barnehage" />
		<tag k="no-barnehage:nsrid" v="992408707" />
		<tag k="operator" v="Læringsverkstedet Lillås barnehage AS" />
		<tag k="operator:type" v="private" />
	</node>
	<node lat="59.41766" lon="10.45237" id="-3250">
		<tag k="ADDRESS" v="Nordskogen 15, 3188 HORTEN" />
		<tag k="amenity" v="kindergarten" />
		<tag k="capacity" v="53" />
		<tag k="max_age" v="5" />
		<tag k="min_age" v="1" />
		<tag k="name" v="Nordskogen barnehage" />
		<tag k="no-barnehage:nsrid" v="974605546" />
		<tag k="operator" v="Horten kommune" />
		<tag k="operator:type" v="public" />
	</node>
	<node lat="59.39614" lon="10.46438" id="-3251">
		<tag k="ADDRESS" v="Strømsveien 32, 3186 HORTEN" />
		<tag k="amenity" v="kindergarten" />
		<tag k="capacity" v="94" />
		<tag k="max_age" v="5" />
		<tag k="min_age" v="1" />
		<tag k="name" v="Rørehagen barnehage" />
		<tag k="no-barnehage:nsrid" v="974605589" />
		<tag k="operator" v="Horten kommune" />
		<tag k="operator:type" v="public" />
	</node>
	<node lat="59.4359" lon="10.44464" id="-3252">
		<tag k="ADDRESS" v="Skavlisletta 137, 3189 HORTEN" />
		<tag k="amenity" v="kindergarten" />
		<tag k="capacity" v="66" />
		<tag k="max_age" v="5" />
		<tag k="min_age" v="1" />
		<tag k="name" v="Skavli barnehage" />
		<tag k="no-barnehage:nsrid" v="984633734" />
		<tag k="operator" v="Horten kommune" />
		<tag k="operator:type" v="public" />
	</node>
	<node lat="59.35776" lon="10.45766" id="-3255">
		<tag k="ADDRESS" v="Damgata 62, 3179 ÅSGÅRDSTRAND" />
		<tag k="amenity" v="kindergarten" />
		<tag k="capacity" v="49" />
		<tag k="contact:website" v="http://www.stifinnerenbarnehage.no" />
		<tag k="max_age" v="5" />
		<tag k="min_age" v="1" />
		<tag k="name" v="Stifinneren barnehage" />
		<tag k="no-barnehage:nsrid" v="985840202" />
		<tag k="operator" v="Stifinneren barnehage AS" />
		<tag k="operator:type" v="private" />
	</node>
	<node lat="59.40601" lon="10.48361" id="-3256">
		<tag k="ADDRESS" v="Strandparken 75, 3187 HORTEN" />
		<tag k="amenity" v="kindergarten" />
		<tag k="capacity" v="64" />
		<tag k="max_age" v="5" />
		<tag k="min_age" v="1" />
		<tag k="name" v="Strandparken barnehage" />
		<tag k="no-barnehage:nsrid" v="988721239" />
		<tag k="operator" v="Horten kommune" />
		<tag k="operator:type" v="public" />
	</node>
	<node lat="0.0" lon="0.0" id="-3257">
		<tag k="ADDRESS" v="Idrettshuset på Borre Trimveien 9, 3188 HORTEN" />
		<tag k="amenity" v="kindergarten" />
		<tag k="capacity" v="35" />
		<tag k="max_age" v="5" />
		<tag k="min_age" v="1" />
		<tag k="name" v="Trimveien barnehage" />
		<tag k="no-barnehage:nsrid" v="982947146" />
		<tag k="operator" v="Trimveien barnehage Da" />
		<tag k="operator:type" v="private" />
	</node>
	<node lat="59.40606" lon="10.48075" id="-3258">
		<tag k="ADDRESS" v="Sollistrandsveien 12, 3187 HORTEN" />
		<tag k="amenity" v="kindergarten" />
		<tag k="name" v="Åpen barnehage" />
		<tag k="no-barnehage:nsrid" v="913339231" />
		<tag k="operator" v="Stifinneren barnehage AS" />
		<tag k="operator:type" v="private" />
	</node>
	<node lat="0.0" lon="0.0" id="-3259">
		<tag k="ADDRESS" v="Lønneveien 15 A, 3179 ÅSGÅRDSTRAND" />
		<tag k="amenity" v="kindergarten" />
		<tag k="capacity" v="39" />
		<tag k="max_age" v="5" />
		<tag k="min_age" v="1" />
		<tag k="name" v="Åsgårdstrand barnehage avd. Lønneveien" />
		<tag k="no-barnehage:nsrid" v="974605597" />
		<tag k="operator" v="Horten kommune" />
		<tag k="operator:type" v="public" />
	</node>
	<node lat="59.34906" lon="10.46099" id="-3260">
		<tag k="ADDRESS" v="Grev Wedels gate 42, 3179 ÅSGÅRDSTRAND" />
		<tag k="amenity" v="kindergarten" />
		<tag k="capacity" v="28" />
		<tag k="max_age" v="5" />
		<tag k="min_age" v="1" />
		<tag k="name" v="Åsgårdstrand barnehage avd. Nygårdsløkka" />
		<tag k="no-barnehage:nsrid" v="913119827" />
		<tag k="operator" v="Horten kommune" />
		<tag k="operator:type" v="public" />
	</node>
</osm>
