<?xml version="1.0" encoding="UTF-8"?>
<osm version="0.6" generator="osmapis">
	<node lat="59.40302" lon="10.47329" id="-3189">
		<tag k="ADDRESS" v="Rustadgata 84, 3186 HORTEN" />
		<tag k="amenity" v="kindergarten" />
		<tag k="capacity" v="8" />
		<tag k="max_age" v="2" />
		<tag k="min_age" v="1" />
		<tag k="name" v="Horten familiebarnehage" />
		<tag k="no-barnehage:nsrid" v="874302732" />
		<tag k="operator" v="Babyhagen familiebarnehage Liv Gulestøl" />
		<tag k="operator:type" v="private" />
	</node>
	<node lat="59.42287" lon="10.46049" id="-3196">
		<tag k="ADDRESS" v="Øvre Keisemark 63, 3189 HORTEN" />
		<tag k="amenity" v="kindergarten" />
		<tag k="capacity" v="9" />
		<tag k="max_age" v="5" />
		<tag k="min_age" v="1" />
		<tag k="name" v="Skrukketrollet familiebarnehage" />
		<tag k="no-barnehage:nsrid" v="987176520" />
		<tag k="operator" v="Skrukketrollet familiebarnehage Da" />
		<tag k="operator:type" v="private" />
	</node>
	<node lat="59.40734" lon="10.46884" id="-3197">
		<tag k="ADDRESS" v="Thora Holms gate 5, 3188 HORTEN" />
		<tag k="amenity" v="kindergarten" />
		<tag k="capacity" v="4" />
		<tag k="max_age" v="5" />
		<tag k="min_age" v="1" />
		<tag k="name" v="Sommerfugl familiebarnehage" />
		<tag k="no-barnehage:nsrid" v="994936115" />
		<tag k="operator" v="Sommerfugl familiebarnehage Ruth-Laila Larsen" />
		<tag k="operator:type" v="private" />
	</node>
</osm>
