<?xml version="1.0" encoding="UTF-8"?>
<osm generator="osmapis" version="0.6">
	<node id="-5328" lat="65.7246" lon="12.5968">
		<tag k="amenity" v="kindergarten" />
		<tag k="capacity" v="4" />
		<tag k="contact:email" v="synnove.aakervik@vevelstad.kommune.no" />
		<tag k="doNotImportAddress" v=" 8870 VISTHUS" />
		<tag k="max_age" v="5" />
		<tag k="min_age" v="1" />
		<tag k="name" v="Stokka/visthus barnehage" />
		<tag k="no-barnehage:nsrid" v="1013655" />
		<tag k="operator" v="Vevelstad kommune" />
		<tag k="operator:type" v="public" />
	</node>
	<node id="-5329" lat="65.7002" lon="12.4407">
		<tag k="amenity" v="kindergarten" />
		<tag k="capacity" v="25" />
		<tag k="contact:email" v="synnove.aakervik@vevelstad.kommune.no" />
		<tag k="contact:phone" v="+47 75 03 80 26" />
		<tag k="doNotImportAddress" v=" 8976 VEVELSTAD" />
		<tag k="max_age" v="5" />
		<tag k="min_age" v="1" />
		<tag k="name" v="StorbjÃ¸rka barnehage" />
		<tag k="no-barnehage:nsrid" v="1016129" />
		<tag k="operator" v="Vevelstad kommune" />
		<tag k="operator:type" v="public" />
	</node>
</osm>
