<?xml version="1.0" encoding="UTF-8"?>
<osm version="0.6" generator="osmapis">
	<node lat="59.43711" lon="10.63432" id="-1718">
		<tag k="ADDRESS" v="Orkerødgata 43, 1511 MOSS" />
		<tag k="amenity" v="kindergarten" />
		<tag k="capacity" v="82" />
		<tag k="max_age" v="5" />
		<tag k="min_age" v="1" />
		<tag k="name" v="Bellevue barnehage" />
		<tag k="no-barnehage:nsrid" v="991642145" />
		<tag k="operator" v="Espira Bellevue AS" />
		<tag k="operator:type" v="private" />
	</node>
	<node lat="59.40734" lon="10.69175" id="-1719">
		<tag k="ADDRESS" v="Bredsandkroken 24, 1570 DILLING" />
		<tag k="amenity" v="kindergarten" />
		<tag k="capacity" v="78" />
		<tag k="max_age" v="5" />
		<tag k="min_age" v="1" />
		<tag k="name" v="Bredsandkroken barnehage" />
		<tag k="no-barnehage:nsrid" v="973484338" />
		<tag k="operator" v="Stiftelsen barnehage Rygge" />
		<tag k="operator:type" v="private" />
	</node>
	<node lat="59.42838" lon="10.63036" id="-1720">
		<tag k="ADDRESS" v="Bråtengata 79, 1517 MOSS" />
		<tag k="amenity" v="kindergarten" />
		<tag k="capacity" v="17" />
		<tag k="contact:website" v="http://www.bratenstua.no/" />
		<tag k="max_age" v="5" />
		<tag k="min_age" v="1" />
		<tag k="name" v="Bråtenstua barnehage" />
		<tag k="no-barnehage:nsrid" v="974827700" />
		<tag k="operator" v="Bråtenstua barnehage SA" />
		<tag k="operator:type" v="private" />
	</node>
	<node lat="59.41483" lon="10.67391" id="-1721">
		<tag k="ADDRESS" v="Midtveien 10, 1526 MOSS" />
		<tag k="amenity" v="kindergarten" />
		<tag k="capacity" v="73" />
		<tag k="max_age" v="5" />
		<tag k="min_age" v="1" />
		<tag k="name" v="Ekholt barnehage" />
		<tag k="no-barnehage:nsrid" v="880202332" />
		<tag k="operator" v="Ekholt barnehage SA" />
		<tag k="operator:type" v="private" />
	</node>
	<node lat="59.3754" lon="10.76127" id="-1722">
		<tag k="ADDRESS" v="Fasanveien 16, 1580 RYGGE" />
		<tag k="amenity" v="kindergarten" />
		<tag k="capacity" v="57" />
		<tag k="contact:website" v="http://www.espira.no" />
		<tag k="max_age" v="5" />
		<tag k="min_age" v="1" />
		<tag k="name" v="Espira Fasanveien" />
		<tag k="no-barnehage:nsrid" v="987456698" />
		<tag k="operator" v="Espira Fasanveien AS" />
		<tag k="operator:type" v="private" />
	</node>
	<node lat="59.43483" lon="10.63914" id="-1723">
		<tag k="ADDRESS" v="Folke Bernadottes gate 8, 1511 MOSS" />
		<tag k="amenity" v="kindergarten" />
		<tag k="capacity" v="16" />
		<tag k="contact:website" v="http://www.torderod-barnehage.no" />
		<tag k="max_age" v="5" />
		<tag k="min_age" v="1" />
		<tag k="name" v="Foreningen Torderød barnehage" />
		<tag k="no-barnehage:nsrid" v="986974873" />
		<tag k="operator" v="Foreningen Torderød barnehage" />
		<tag k="operator:type" v="private" />
	</node>
	<node lat="59.42096" lon="10.69033" id="-1724">
		<tag k="ADDRESS" v="Gaupefaret 10, 1528 MOSS" />
		<tag k="amenity" v="kindergarten" />
		<tag k="capacity" v="83" />
		<tag k="max_age" v="5" />
		<tag k="min_age" v="1" />
		<tag k="name" v="Gaupefaret barnehage" />
		<tag k="no-barnehage:nsrid" v="975301605" />
		<tag k="operator" v="Moss kommune" />
		<tag k="operator:type" v="public" />
	</node>
	<node lat="59.43267" lon="10.64994" id="-1725">
		<tag k="ADDRESS" v="Glassverket 40, 1515 MOSS" />
		<tag k="amenity" v="kindergarten" />
		<tag k="capacity" v="56" />
		<tag k="contact:website" v="http://www.moss.kommune.no" />
		<tag k="max_age" v="5" />
		<tag k="min_age" v="1" />
		<tag k="name" v="Glassverket barnehage" />
		<tag k="no-barnehage:nsrid" v="991391843" />
		<tag k="operator" v="Moss kommune" />
		<tag k="operator:type" v="public" />
	</node>
	<node lat="59.45228" lon="10.69359" id="-1726">
		<tag k="ADDRESS" v="Bukkespranget 19, 1535 MOSS" />
		<tag k="amenity" v="kindergarten" />
		<tag k="capacity" v="104" />
		<tag k="max_age" v="5" />
		<tag k="min_age" v="1" />
		<tag k="name" v="Grindvold barnehage" />
		<tag k="no-barnehage:nsrid" v="975296504" />
		<tag k="operator" v="Moss kommune" />
		<tag k="operator:type" v="public" />
	</node>
	<node lat="59.41408" lon="10.68148" id="-1727">
		<tag k="ADDRESS" v="Gartnerveien 25, 1526 MOSS" />
		<tag k="amenity" v="kindergarten" />
		<tag k="capacity" v="84" />
		<tag k="contact:website" v="http://www.gubbeskogen.no/" />
		<tag k="max_age" v="5" />
		<tag k="min_age" v="1" />
		<tag k="name" v="Gubbeskogen FUS barnehage" />
		<tag k="no-barnehage:nsrid" v="988725285" />
		<tag k="operator" v="Gubbeskogen Fus barnehage AS" />
		<tag k="operator:type" v="private" />
	</node>
	<node lat="59.43502" lon="10.65676" id="-1728">
		<tag k="ADDRESS" v="Storgata 10, 1531 MOSS" />
		<tag k="amenity" v="kindergarten" />
		<tag k="capacity" v="65" />
		<tag k="contact:website" v="http://kraka.bhg.no" />
		<tag k="max_age" v="5" />
		<tag k="min_age" v="1" />
		<tag k="name" v="Kråka FUS kulturbarnehage" />
		<tag k="no-barnehage:nsrid" v="994558323" />
		<tag k="operator" v="Kråka Fus kulturbarnehage AS" />
		<tag k="operator:type" v="private" />
	</node>
	<node lat="59.46699" lon="10.69336" id="-1729">
		<tag k="ADDRESS" v="Luenbakken 10, 1538 MOSS" />
		<tag k="amenity" v="kindergarten" />
		<tag k="capacity" v="54" />
		<tag k="contact:website" v="http://www.moss.kommune.no/oppvekst-og-utdanning/barnehage/oversikt-over-barnehager/luenbakken/" />
		<tag k="max_age" v="5" />
		<tag k="min_age" v="1" />
		<tag k="name" v="Luenbakken barnehage" />
		<tag k="no-barnehage:nsrid" v="975043827" />
		<tag k="operator" v="Moss kommune" />
		<tag k="operator:type" v="public" />
	</node>
	<node lat="59.38328" lon="10.7457" id="-1730">
		<tag k="ADDRESS" v="Bankveien 28, 1580 RYGGE" />
		<tag k="amenity" v="kindergarten" />
		<tag k="capacity" v="62" />
		<tag k="contact:website" v="http://www.laringsverkstedet.no" />
		<tag k="max_age" v="5" />
		<tag k="min_age" v="1" />
		<tag k="name" v="Læringsverkstedet Halmstad barnehage" />
		<tag k="no-barnehage:nsrid" v="983844995" />
		<tag k="operator" v="Læringsverkstedet Halmstad barnehage AS" />
		<tag k="operator:type" v="private" />
	</node>
	<node lat="59.41055" lon="10.6982" id="-1731">
		<tag k="ADDRESS" v="Revebjelleveien 35, 1529 MOSS" />
		<tag k="amenity" v="kindergarten" />
		<tag k="capacity" v="79" />
		<tag k="max_age" v="5" />
		<tag k="min_age" v="1" />
		<tag k="name" v="Læringsverkstedet Heimdalenga barnehage" />
		<tag k="no-barnehage:nsrid" v="984508921" />
		<tag k="operator" v="Læringsverkstedet Heimdalenga barnehage AS" />
		<tag k="operator:type" v="private" />
	</node>
	<node lat="59.33191" lon="10.67084" id="-1732">
		<tag k="ADDRESS" v="Støtvigveien 45, 1560 LARKOLLEN" />
		<tag k="amenity" v="kindergarten" />
		<tag k="capacity" v="60" />
		<tag k="max_age" v="5" />
		<tag k="min_age" v="1" />
		<tag k="name" v="Læringsverkstedet Støtvigenga barnehage" />
		<tag k="no-barnehage:nsrid" v="984137753" />
		<tag k="operator" v="Læringsverkstedet Støtvigenga barnehage AS" />
		<tag k="operator:type" v="private" />
	</node>
	<node lat="59.42502" lon="10.66935" id="-1733">
		<tag k="ADDRESS" v="Dyreveien 16B, 1532 MOSS" />
		<tag k="amenity" v="kindergarten" />
		<tag k="capacity" v="85" />
		<tag k="contact:website" v="http://www.mellosparkenbarnehage.no" />
		<tag k="max_age" v="5" />
		<tag k="min_age" v="1" />
		<tag k="name" v="Melløsparken barnehage" />
		<tag k="no-barnehage:nsrid" v="984168233" />
		<tag k="operator" v="Melløsparken barnehage SA" />
		<tag k="operator:type" v="private" />
	</node>
	<node lat="59.42098" lon="10.69499" id="-1734">
		<tag k="ADDRESS" v="Øreåsveien 11, 1528 MOSS" />
		<tag k="amenity" v="kindergarten" />
		<tag k="name" v="Moss Kommune, åpen barnehage, Øreåsen" />
		<tag k="no-barnehage:nsrid" v="995381036" />
		<tag k="operator" v="Moss kommune" />
		<tag k="operator:type" v="public" />
	</node>
	<node lat="59.45883" lon="10.69666" id="-1735">
		<tag k="ADDRESS" v="Skredderveien 100, 1537 MOSS" />
		<tag k="amenity" v="kindergarten" />
		<tag k="contact:website" v="http://www.moss.kommune.no/oppvekst-og-utdanning/barnehage/oversikt-over-barnehager/avangen-apen-barnehage/" />
		<tag k="name" v="Moss Kommune, åpen barnehage, Åvangen" />
		<tag k="no-barnehage:nsrid" v="982309026" />
		<tag k="operator" v="Moss kommune" />
		<tag k="operator:type" v="public" />
	</node>
	<node lat="59.44263" lon="10.62883" id="-1736">
		<tag k="ADDRESS" v="Bjerkealleen 38, 1512 MOSS" />
		<tag k="amenity" v="kindergarten" />
		<tag k="capacity" v="39" />
		<tag k="contact:website" v="http://www.moss.kommune.no" />
		<tag k="max_age" v="5" />
		<tag k="min_age" v="1" />
		<tag k="name" v="Ramberg barnehage" />
		<tag k="no-barnehage:nsrid" v="975301214" />
		<tag k="operator" v="Moss kommune" />
		<tag k="operator:type" v="public" />
	</node>
	<node lat="59.44108" lon="10.61777" id="-1737">
		<tag k="ADDRESS" v="Engfaret 8, 1518 MOSS" />
		<tag k="amenity" v="kindergarten" />
		<tag k="capacity" v="61" />
		<tag k="max_age" v="5" />
		<tag k="min_age" v="1" />
		<tag k="name" v="Refsnes barnehage" />
		<tag k="no-barnehage:nsrid" v="975301222" />
		<tag k="operator" v="Refsnes barnehage SA" />
		<tag k="operator:type" v="private" />
	</node>
	<node lat="59.4294" lon="10.6302" id="-1738">
		<tag k="ADDRESS" v="Brageveien 9, 1517 MOSS" />
		<tag k="amenity" v="kindergarten" />
		<tag k="capacity" v="53" />
		<tag k="max_age" v="5" />
		<tag k="min_age" v="1" />
		<tag k="name" v="Reier barnehage" />
		<tag k="no-barnehage:nsrid" v="991371907" />
		<tag k="operator" v="Moss kommune" />
		<tag k="operator:type" v="public" />
	</node>
	<node lat="59.44558" lon="10.67391" id="-1739">
		<tag k="ADDRESS" v="Halløkka 55, 1534 MOSS" />
		<tag k="amenity" v="kindergarten" />
		<tag k="capacity" v="60" />
		<tag k="max_age" v="5" />
		<tag k="min_age" v="1" />
		<tag k="name" v="Røysåsen barnehage" />
		<tag k="no-barnehage:nsrid" v="988391964" />
		<tag k="operator" v="Moss kommune" />
		<tag k="operator:type" v="public" />
	</node>
	<node lat="59.44524" lon="10.6701" id="-1740">
		<tag k="ADDRESS" v="Sandbukta 5, 1534 MOSS" />
		<tag k="amenity" v="kindergarten" />
		<tag k="capacity" v="37" />
		<tag k="contact:website" v="http://www.sandbuktabarnehage.no" />
		<tag k="max_age" v="5" />
		<tag k="min_age" v="1" />
		<tag k="name" v="Sandbukta barnehage" />
		<tag k="no-barnehage:nsrid" v="973073508" />
		<tag k="operator" v="Sandbukta barnehage AS" />
		<tag k="operator:type" v="private" />
	</node>
	<node lat="59.43153" lon="10.60021" id="-1741">
		<tag k="ADDRESS" v="Biørn Biørnstads vei 27, 1519 MOSS" />
		<tag k="amenity" v="kindergarten" />
		<tag k="capacity" v="50" />
		<tag k="max_age" v="5" />
		<tag k="min_age" v="1" />
		<tag k="name" v="Siritunet barnehage" />
		<tag k="no-barnehage:nsrid" v="930119784" />
		<tag k="operator" v="Moss kommune" />
		<tag k="operator:type" v="public" />
	</node>
	<node lat="59.48069" lon="10.69365" id="-1742">
		<tag k="ADDRESS" v="Kulpeveien 1, 1538 MOSS" />
		<tag k="amenity" v="kindergarten" />
		<tag k="capacity" v="76" />
		<tag k="contact:website" v="http://www.fus.no/sjohagen" />
		<tag k="max_age" v="5" />
		<tag k="min_age" v="1" />
		<tag k="name" v="Sjøhagen FUS barnehage" />
		<tag k="no-barnehage:nsrid" v="990894507" />
		<tag k="operator" v="Sjøhagen Fus barnehage AS" />
		<tag k="operator:type" v="private" />
	</node>
	<node lat="59.43253" lon="10.66868" id="-1743">
		<tag k="ADDRESS" v="Fjellveien 1, 1532 MOSS" />
		<tag k="amenity" v="kindergarten" />
		<tag k="capacity" v="65" />
		<tag k="max_age" v="5" />
		<tag k="min_age" v="1" />
		<tag k="name" v="Skarmyra barnehage" />
		<tag k="no-barnehage:nsrid" v="975268373" />
		<tag k="operator" v="Moss kommune" />
		<tag k="operator:type" v="public" />
	</node>
	<node lat="59.4572" lon="10.69366" id="-1744">
		<tag k="ADDRESS" v="Skredderveien 85, 1537 MOSS" />
		<tag k="amenity" v="kindergarten" />
		<tag k="capacity" v="58" />
		<tag k="contact:website" v="http://www.moss.kommune.no/oppvekst-og-utdanning/barnehage/oversikt-over-barnehager/skredderasen/" />
		<tag k="max_age" v="5" />
		<tag k="min_age" v="1" />
		<tag k="name" v="Skredderåsen barnehage" />
		<tag k="no-barnehage:nsrid" v="975301230" />
		<tag k="operator" v="Moss kommune" />
		<tag k="operator:type" v="public" />
	</node>
	<node lat="59.38905" lon="10.68427" id="-1745">
		<tag k="ADDRESS" v="Smedhusåsen 11, 1570 DILLING" />
		<tag k="amenity" v="kindergarten" />
		<tag k="capacity" v="80" />
		<tag k="contact:website" v="http://www.smedhusasen.barnehageside.no" />
		<tag k="max_age" v="5" />
		<tag k="min_age" v="1" />
		<tag k="name" v="Smedhusåsen barnehage" />
		<tag k="no-barnehage:nsrid" v="980241416" />
		<tag k="operator" v="Smedhusåsen barnehage SA" />
		<tag k="operator:type" v="private" />
	</node>
	<node lat="59.42263" lon="10.69306" id="-1746">
		<tag k="ADDRESS" v="Kantarellstien 58, 1529 MOSS" />
		<tag k="amenity" v="kindergarten" />
		<tag k="capacity" v="39" />
		<tag k="max_age" v="5" />
		<tag k="min_age" v="1" />
		<tag k="name" v="Solliskogen barnehage" />
		<tag k="no-barnehage:nsrid" v="975301583" />
		<tag k="operator" v="Moss kommune" />
		<tag k="operator:type" v="public" />
	</node>
	<node lat="59.46442" lon="10.69755" id="-1747">
		<tag k="ADDRESS" v="Veverbakken 42, 1536 MOSS" />
		<tag k="amenity" v="kindergarten" />
		<tag k="capacity" v="41" />
		<tag k="contact:website" v="http://steinerbarnehagen-moss.no" />
		<tag k="max_age" v="5" />
		<tag k="min_age" v="1" />
		<tag k="name" v="Stiftelsen steinerbarnehagen i Moss" />
		<tag k="no-barnehage:nsrid" v="873075392" />
		<tag k="operator" v="Stiftelsen Steinerbarnehagen i Moss" />
		<tag k="operator:type" v="private" />
	</node>
	<node lat="59.43447" lon="10.6967" id="-1748">
		<tag k="ADDRESS" v="Bjørnåsveien 75, 1596 MOSS" />
		<tag k="amenity" v="kindergarten" />
		<tag k="capacity" v="30" />
		<tag k="max_age" v="5" />
		<tag k="min_age" v="1" />
		<tag k="name" v="Sydskogen barnehage" />
		<tag k="no-barnehage:nsrid" v="986979085" />
		<tag k="operator" v="Sydskogen barnehage AS" />
		<tag k="operator:type" v="private" />
	</node>
	<node lat="59.42864" lon="10.63614" id="-1749">
		<tag k="ADDRESS" v="Bråtengata 80, 1517 MOSS" />
		<tag k="amenity" v="kindergarten" />
		<tag k="capacity" v="35" />
		<tag k="max_age" v="5" />
		<tag k="min_age" v="1" />
		<tag k="name" v="Søly barnehage" />
		<tag k="no-barnehage:nsrid" v="987001003" />
		<tag k="operator" v="Espira Søly AS" />
		<tag k="operator:type" v="private" />
	</node>
	<node lat="59.44586" lon="10.63999" id="-1751">
		<tag k="ADDRESS" v="Skogbrynet 52, 1513 MOSS" />
		<tag k="amenity" v="kindergarten" />
		<tag k="capacity" v="68" />
		<tag k="contact:website" v="http://www.trollskogen-naturbarnehage.no" />
		<tag k="max_age" v="5" />
		<tag k="min_age" v="1" />
		<tag k="name" v="Trollskogen naturbarnehage" />
		<tag k="no-barnehage:nsrid" v="985193452" />
		<tag k="operator" v="Trollskogen naturbarnehage SA" />
		<tag k="operator:type" v="private" />
	</node>
	<node lat="59.43737" lon="10.60497" id="-1752">
		<tag k="ADDRESS" v="Kortbølgen 15, 1519 MOSS" />
		<tag k="amenity" v="kindergarten" />
		<tag k="capacity" v="95" />
		<tag k="contact:website" v="http://www.tronvikgaard.no" />
		<tag k="max_age" v="5" />
		<tag k="min_age" v="1" />
		<tag k="name" v="Tronvik gårdsbarnehage" />
		<tag k="no-barnehage:nsrid" v="891532342" />
		<tag k="operator" v="Tronvik gårdsbarnehage AS" />
		<tag k="operator:type" v="private" />
	</node>
	<node lat="59.44353" lon="10.67873" id="-1753">
		<tag k="ADDRESS" v="Osloveien 23, 1534 MOSS" />
		<tag k="amenity" v="kindergarten" />
		<tag k="capacity" v="72" />
		<tag k="max_age" v="5" />
		<tag k="min_age" v="1" />
		<tag k="name" v="Verket barnehage" />
		<tag k="no-barnehage:nsrid" v="979626061" />
		<tag k="operator" v="Verket barnehage SA" />
		<tag k="operator:type" v="private" />
	</node>
	<node lat="0.0" lon="0.0" id="-1754">
		<tag k="ADDRESS" v="Holteveien 19, 1580 RYGGE" />
		<tag k="amenity" v="kindergarten" />
		<tag k="capacity" v="36" />
		<tag k="max_age" v="5" />
		<tag k="min_age" v="1" />
		<tag k="name" v="Voldskogen barnehage" />
		<tag k="no-barnehage:nsrid" v="819390002" />
		<tag k="operator" v="Moss kommune" />
		<tag k="operator:type" v="public" />
	</node>
	<node lat="59.4238" lon="10.67916" id="-1755">
		<tag k="ADDRESS" v="Solielunden 32, 1523 MOSS" />
		<tag k="amenity" v="kindergarten" />
		<tag k="capacity" v="111" />
		<tag k="max_age" v="5" />
		<tag k="min_age" v="1" />
		<tag k="name" v="Ørejordet barnehage" />
		<tag k="no-barnehage:nsrid" v="973491083" />
		<tag k="operator" v="Moss kommune" />
		<tag k="operator:type" v="public" />
	</node>
</osm>
