<?xml version="1.0" encoding="UTF-8"?>
<osm generator="osmapis" version="0.6">
	<node id="-1715" lat="68.68687" lon="15.39303">
		<tag k="ADDRESS" v="Bakkelia 4, 8403 SORTLAND" />
		<tag k="amenity" v="kindergarten" />
		<tag k="capacity" v="66" />
		<tag k="max_age" v="5" />
		<tag k="min_age" v="1" />
		<tag k="name" v="Blåfjell barnehage" />
		<tag k="no-barnehage:nsrid" v="986968164" />
		<tag k="operator" v="Blåfjell barnehage SA" />
		<tag k="operator:type" v="private" />
	</node>
	<node id="-1716" lat="68.73232" lon="15.14437">
		<tag k="ADDRESS" v="Eidsfjordveien 156, 8415 SORTLAND" />
		<tag k="amenity" v="kindergarten" />
		<tag k="capacity" v="26" />
		<tag k="max_age" v="5" />
		<tag k="min_age" v="1" />
		<tag k="name" v="Eidsfjord barnehage" />
		<tag k="no-barnehage:nsrid" v="975296725" />
		<tag k="operator" v="Sortland kommune / Suorttá Souhkan" />
		<tag k="operator:type" v="public" />
	</node>
	<node id="-1717" lat="68.69906" lon="15.41132">
		<tag k="ADDRESS" v="Kirkåsveien 1, 8402 SORTLAND" />
		<tag k="amenity" v="kindergarten" />
		<tag k="capacity" v="27" />
		<tag k="max_age" v="5" />
		<tag k="min_age" v="1" />
		<tag k="name" v="Granbuska andelsbarnehage" />
		<tag k="no-barnehage:nsrid" v="973482866" />
		<tag k="operator" v="Granbuska barnehage SA" />
		<tag k="operator:type" v="private" />
	</node>
	<node id="-1718" lat="68.72961" lon="15.52368">
		<tag k="ADDRESS" v="Sjøveien 4, 8407 SORTLAND" />
		<tag k="amenity" v="kindergarten" />
		<tag k="capacity" v="20" />
		<tag k="max_age" v="5" />
		<tag k="min_age" v="1" />
		<tag k="name" v="Holmvannet barnehage" />
		<tag k="no-barnehage:nsrid" v="975313271" />
		<tag k="operator" v="Sortland kommune / Suorttá Souhkan" />
		<tag k="operator:type" v="public" />
	</node>
	<node id="-1719" lat="68.69032" lon="15.40428">
		<tag k="ADDRESS" v="Kong Øysteins vei 11D, 8400 SORTLAND" />
		<tag k="amenity" v="kindergarten" />
		<tag k="capacity" v="18" />
		<tag k="contact:website" v="http://hoppensprett.no" />
		<tag k="max_age" v="5" />
		<tag k="min_age" v="1" />
		<tag k="name" v="Hoppensprett Bjørkmo" />
		<tag k="no-barnehage:nsrid" v="919771577" />
		<tag k="operator" v="Hoppensprett Bjørkmo AS" />
		<tag k="operator:type" v="private" />
	</node>
	<node id="-1720" lat="0.0" lon="0.0">
		<tag k="ADDRESS" v="Jennestad, 8416 SORTLAND" />
		<tag k="amenity" v="kindergarten" />
		<tag k="capacity" v="22" />
		<tag k="max_age" v="5" />
		<tag k="min_age" v="1" />
		<tag k="name" v="Jennestad barnehage" />
		<tag k="no-barnehage:nsrid" v="973465317" />
		<tag k="operator" v="Sortland kommune / Suorttá Souhkan" />
		<tag k="operator:type" v="public" />
	</node>
	<node id="-1721" lat="68.64333" lon="15.27373">
		<tag k="ADDRESS" v="Risevegen, 8404 SORTLAND" />
		<tag k="amenity" v="kindergarten" />
		<tag k="capacity" v="33" />
		<tag k="max_age" v="5" />
		<tag k="min_age" v="1" />
		<tag k="name" v="Kleiva naturbarnehage" />
		<tag k="no-barnehage:nsrid" v="887698392" />
		<tag k="operator" v="Kleiva naturbarnehage SA" />
		<tag k="operator:type" v="private" />
	</node>
	<node id="-1722" lat="68.69122" lon="15.41372">
		<tag k="ADDRESS" v="Strandgata 43, 8400 SORTLAND" />
		<tag k="amenity" v="kindergarten" />
		<tag k="capacity" v="43" />
		<tag k="max_age" v="5" />
		<tag k="min_age" v="1" />
		<tag k="name" v="Lykkentreff barnehage" />
		<tag k="no-barnehage:nsrid" v="975313263" />
		<tag k="operator" v="Sortland kommune / Suorttá Souhkan" />
		<tag k="operator:type" v="public" />
	</node>
	<node id="-1723" lat="68.71786" lon="15.40362">
		<tag k="ADDRESS" v="Søndre Ånstadsjøveien 12, 8416 SORTLAND" />
		<tag k="amenity" v="kindergarten" />
		<tag k="capacity" v="23" />
		<tag k="contact:website" v="http://nordskogenbarnehage.no" />
		<tag k="max_age" v="5" />
		<tag k="min_age" v="1" />
		<tag k="name" v="Nordskogen barnehage" />
		<tag k="no-barnehage:nsrid" v="983451829" />
		<tag k="operator" v="Nordskogen barnehage SA" />
		<tag k="operator:type" v="private" />
	</node>
	<node id="-1724" lat="68.68204" lon="15.387">
		<tag k="ADDRESS" v="Møllenbakkveien 1, 8403 SORTLAND" />
		<tag k="amenity" v="kindergarten" />
		<tag k="capacity" v="108" />
		<tag k="contact:website" v="http://www.prestelvabarnehage.no" />
		<tag k="max_age" v="5" />
		<tag k="min_age" v="1" />
		<tag k="name" v="Prestelva barnehage" />
		<tag k="no-barnehage:nsrid" v="973766589" />
		<tag k="operator" v="Prestelva barnehage SA" />
		<tag k="operator:type" v="private" />
	</node>
	<node id="-1725" lat="68.65868" lon="15.48609">
		<tag k="ADDRESS" v="Sigerfjordveien 134, 8406 SORTLAND" />
		<tag k="amenity" v="kindergarten" />
		<tag k="capacity" v="32" />
		<tag k="max_age" v="5" />
		<tag k="min_age" v="1" />
		<tag k="name" v="Sigerfjord barnehage" />
		<tag k="no-barnehage:nsrid" v="875313282" />
		<tag k="operator" v="Sortland kommune / Suorttá Souhkan" />
		<tag k="operator:type" v="public" />
	</node>
	<node id="-1727" lat="68.70663" lon="15.44216">
		<tag k="ADDRESS" v="Strand, 8406 SORTLAND" />
		<tag k="amenity" v="kindergarten" />
		<tag k="capacity" v="49" />
		<tag k="max_age" v="5" />
		<tag k="min_age" v="1" />
		<tag k="name" v="Strand barnehage" />
		<tag k="no-barnehage:nsrid" v="974053462" />
		<tag k="operator" v="Sortland kommune / Suorttá Souhkan" />
		<tag k="operator:type" v="public" />
	</node>
	<node id="-1728" lat="68.69765" lon="15.39667">
		<tag k="ADDRESS" v="Idrettsveien 9, 8402 SORTLAND" />
		<tag k="amenity" v="kindergarten" />
		<tag k="capacity" v="88" />
		<tag k="max_age" v="5" />
		<tag k="min_age" v="1" />
		<tag k="name" v="Vestmarka barnehage" />
		<tag k="no-barnehage:nsrid" v="975313298" />
		<tag k="operator" v="Sortland kommune / Suorttá Souhkan" />
		<tag k="operator:type" v="public" />
	</node>
</osm>
