<?xml version="1.0" encoding="UTF-8"?>
<osm generator="osmapis" version="0.6">
	<node id="-5728" lat="68.68687" lon="15.39301">
		<tag k="amenity" v="kindergarten" />
		<tag k="capacity" v="62" />
		<tag k="contact:email" v="bente@blaafjellbarnehage.no" />
		<tag k="contact:phone" v="+47 76 12 27 88" />
		<tag k="max_age" v="5" />
		<tag k="min_age" v="1" />
		<tag k="name" v="Blåfjell barnehage Sa" />
		<tag k="no-barnehage:nsrid" v="1021067" />
		<tag k="operator" v="Blåfjell barnehage Sa" />
		<tag k="operator:type" v="private" />
		<tag k="start_date" v="2004-06-09" />
	</node>
	<node id="-5727" lat="68.69164" lon="15.3977">
		<tag k="amenity" v="kindergarten" />
		<tag k="capacity" v="14" />
		<tag k="contact:email" v="post@bjorkmobarnehage.no" />
		<tag k="contact:phone" v="+47 76 12 34 04" />
		<tag k="max_age" v="5" />
		<tag k="min_age" v="1" />
		<tag k="name" v="Bjørkmo barnehage Sa" />
		<tag k="no-barnehage:nsrid" v="1020121" />
		<tag k="operator" v="Bjørkmo barnehage Sa" />
		<tag k="operator:type" v="private" />
		<tag k="start_date" v="1988-09-01" />
	</node>
	<node id="-5740" lat="68.6976" lon="15.3967">
		<tag k="amenity" v="kindergarten" />
		<tag k="capacity" v="93" />
		<tag k="contact:email" v="Vestmarka.barnehage@sortland.kommune.no" />
		<tag k="contact:phone" v="+47 76 10 83 50" />
		<tag k="max_age" v="5" />
		<tag k="min_age" v="1" />
		<tag k="name" v="Vestmarka barnehage" />
		<tag k="no-barnehage:nsrid" v="1013689" />
		<tag k="operator" v="Sortland kommune" />
		<tag k="operator:type" v="public" />
		<tag k="start_date" v="1989-01-01" />
	</node>
	<node id="-5739" lat="68.6994" lon="15.4506">
		<tag k="amenity" v="kindergarten" />
		<tag k="capacity" v="49" />
		<tag k="contact:email" v="strand.barnehage@sortland.kommune.no" />
		<tag k="contact:phone" v="+47 76 10 99 51" />
		<tag k="max_age" v="5" />
		<tag k="min_age" v="1" />
		<tag k="name" v="Strand barnehage" />
		<tag k="no-barnehage:nsrid" v="1016148" />
		<tag k="operator" v="Sortland kommune" />
		<tag k="operator:type" v="public" />
		<tag k="start_date" v="1979-01-31" />
	</node>
	<node id="-5737" lat="68.6467" lon="15.5077">
		<tag k="amenity" v="kindergarten" />
		<tag k="capacity" v="32" />
		<tag k="contact:email" v="lisa.rist@sortland.kommune.no" />
		<tag k="contact:phone" v="+47 76 10 94 77" />
		<tag k="max_age" v="5" />
		<tag k="min_age" v="1" />
		<tag k="name" v="Sigerfjord barnehage" />
		<tag k="no-barnehage:nsrid" v="1012537" />
		<tag k="operator" v="Sortland kommune" />
		<tag k="operator:type" v="public" />
		<tag k="start_date" v="1989-01-01" />
	</node>
	<node id="-5736" lat="68.68204" lon="15.387">
		<tag k="amenity" v="kindergarten" />
		<tag k="capacity" v="106" />
		<tag k="contact:email" v="post@prestelvabarnehage.no" />
		<tag k="contact:phone" v="+47 90097850" />
		<tag k="contact:website" v="http://www.prestelvabarnehage.no" />
		<tag k="max_age" v="5" />
		<tag k="min_age" v="1" />
		<tag k="name" v="Prestelva barnehage Sa" />
		<tag k="no-barnehage:nsrid" v="1020361" />
		<tag k="operator" v="Prestelva barnehage Sa" />
		<tag k="operator:type" v="private" />
		<tag k="start_date" v="1995-02-23" />
	</node>
	<node id="-5735" lat="68.71943" lon="15.39221">
		<tag k="amenity" v="kindergarten" />
		<tag k="capacity" v="22" />
		<tag k="contact:email" v="nordskogen@barnehage.no" />
		<tag k="contact:phone" v="+47 76 12 65 50" />
		<tag k="contact:website" v="http://nordskogenbarnehage.no" />
		<tag k="max_age" v="5" />
		<tag k="min_age" v="1" />
		<tag k="name" v="Nordskogen barnehage Sa" />
		<tag k="no-barnehage:nsrid" v="1020726" />
		<tag k="operator" v="Nordskogen barnehage Sa" />
		<tag k="operator:type" v="private" />
		<tag k="start_date" v="2001-08-01" />
	</node>
	<node id="-5734" lat="68.6912" lon="15.4137">
		<tag k="amenity" v="kindergarten" />
		<tag k="capacity" v="49" />
		<tag k="contact:email" v="lykkentreff.barnehage@sortland.kommune.no" />
		<tag k="contact:phone" v="+47 76 10 99 58" />
		<tag k="max_age" v="5" />
		<tag k="min_age" v="1" />
		<tag k="name" v="Lykkentreff barnehage" />
		<tag k="no-barnehage:nsrid" v="1013687" />
		<tag k="operator" v="Sortland kommune" />
		<tag k="operator:type" v="public" />
		<tag k="start_date" v="1989-01-01" />
	</node>
	<node id="-5733" lat="68.63798" lon="15.25199">
		<tag k="amenity" v="kindergarten" />
		<tag k="capacity" v="32" />
		<tag k="contact:email" v="kleiva@barnehage.no" />
		<tag k="contact:phone" v="+47 76 12 24 42" />
		<tag k="max_age" v="5" />
		<tag k="min_age" v="1" />
		<tag k="name" v="Kleiva barnehage Sa" />
		<tag k="no-barnehage:nsrid" v="1021161" />
		<tag k="operator" v="Kleiva barnehage Sa" />
		<tag k="operator:type" v="private" />
		<tag k="start_date" v="2005-01-06" />
	</node>
	<node id="-5732" lat="68.7506" lon="15.3025">
		<tag k="amenity" v="kindergarten" />
		<tag k="capacity" v="21" />
		<tag k="contact:email" v="jennestad.barnehage@sortland.kommune.no" />
		<tag k="contact:phone" v="+47 76 10 99 50" />
		<tag k="max_age" v="5" />
		<tag k="min_age" v="1" />
		<tag k="name" v="Jennestad barnehage" />
		<tag k="no-barnehage:nsrid" v="1015930" />
		<tag k="operator" v="Sortland kommune" />
		<tag k="operator:type" v="public" />
		<tag k="start_date" v="1989-01-01" />
	</node>
	<node id="-5731" lat="68.7527" lon="15.4734">
		<tag k="amenity" v="kindergarten" />
		<tag k="capacity" v="27" />
		<tag k="contact:email" v="dana.lockert@sortland.kommune.no" />
		<tag k="contact:phone" v="+47 76 10 99 52" />
		<tag k="max_age" v="5" />
		<tag k="min_age" v="1" />
		<tag k="name" v="Holmvannet barnehage" />
		<tag k="no-barnehage:nsrid" v="1013688" />
		<tag k="operator" v="Sortland kommune" />
		<tag k="operator:type" v="public" />
		<tag k="start_date" v="1989-01-01" />
	</node>
	<node id="-5730" lat="68.69906" lon="15.41132">
		<tag k="amenity" v="kindergarten" />
		<tag k="capacity" v="26" />
		<tag k="contact:email" v="granbuska@vkbb.no" />
		<tag k="contact:phone" v="+47 76 12 26 45" />
		<tag k="max_age" v="5" />
		<tag k="min_age" v="1" />
		<tag k="name" v="Granbuska Andelsbarnehage" />
		<tag k="no-barnehage:nsrid" v="1019898" />
		<tag k="operator" v="Granbuska barnehage Sa" />
		<tag k="operator:type" v="private" />
		<tag k="start_date" v="1990-04-01" />
	</node>
	<node id="-5729" lat="68.7233" lon="15.1447">
		<tag k="amenity" v="kindergarten" />
		<tag k="capacity" v="32" />
		<tag k="contact:email" v="eidsfjord.barnehage@sortland.kommune.no" />
		<tag k="contact:phone" v="+47 76 10 99 53" />
		<tag k="max_age" v="5" />
		<tag k="min_age" v="1" />
		<tag k="name" v="Eidsfjord barnehage" />
		<tag k="no-barnehage:nsrid" v="1017395" />
		<tag k="operator" v="Sortland kommune" />
		<tag k="operator:type" v="public" />
		<tag k="start_date" v="1978-10-20" />
	</node>
</osm>
