<?xml version="1.0" encoding="UTF-8"?>
<osm generator="osmapis" version="0.6">
	<node id="-2403" lat="59.7402" lon="10.4127">
		<tag k="amenity" v="kindergarten" />
		<tag k="contact:email" v="camilla.graff@royken.kommune.no" />
		<tag k="doNotImportAddress" v="Katrineåsveien 20 3440 RØYKEN" />
		<tag k="name" v="Åpen barnehage Midtbygda" />
		<tag k="no-barnehage:nsrid" v="1016589" />
		<tag k="operator" v="Røyken kommune" />
		<tag k="operator:type" v="public" />
	</node>
	<node id="-2401" lat="59.7777" lon="10.4881">
		<tag k="amenity" v="kindergarten" />
		<tag k="capacity" v="96" />
		<tag k="contact:email" v="dl.utforskeren@kanvas.no" />
		<tag k="doNotImportAddress" v="Kirkealleen 3470 SLEMMESTAD" />
		<tag k="max_age" v="5" />
		<tag k="min_age" v="1" />
		<tag k="name" v="Utforskeren Kanvas-barnehage" />
		<tag k="no-barnehage:nsrid" v="1014005" />
		<tag k="operator" v="Stiftelsen Kanvas" />
		<tag k="operator:type" v="private" />
	</node>
	<node id="-2400" lat="59.7611" lon="10.4779">
		<tag k="amenity" v="kindergarten" />
		<tag k="capacity" v="52" />
		<tag k="contact:email" v="torvbraaten@kanvas.no" />
		<tag k="contact:phone" v="+47 45968001" />
		<tag k="doNotImportAddress" v="Skogveien 19 3470 SLEMMESTAD" />
		<tag k="max_age" v="5" />
		<tag k="min_age" v="1" />
		<tag k="name" v="Torvbråten Kanvas-barnehage" />
		<tag k="no-barnehage:nsrid" v="1015990" />
		<tag k="operator" v="Stiftelsen Kanvas" />
		<tag k="operator:type" v="private" />
	</node>
	<node id="-2399" lat="59.7612" lon="10.4535">
		<tag k="amenity" v="kindergarten" />
		<tag k="capacity" v="46" />
		<tag k="contact:email" v="Jeanette.Stenrud@royken.kommune.no" />
		<tag k="contact:phone" v="+47 31296000" />
		<tag k="doNotImportAddress" v="Tors Vei 182 3472 BØDALEN" />
		<tag k="max_age" v="5" />
		<tag k="min_age" v="1" />
		<tag k="name" v="Sydskogen barnehage" />
		<tag k="no-barnehage:nsrid" v="1025326" />
		<tag k="operator" v="Røyken kommune" />
		<tag k="operator:type" v="public" />
	</node>
	<node id="-2398" lat="59.72009" lon="10.36606">
		<tag k="amenity" v="kindergarten" />
		<tag k="capacity" v="27" />
		<tag k="contact:email" v="kontoret@stjernenbarnehage.no" />
		<tag k="doNotImportAddress" v="Haugenveien 4 3442 HYGGEN" />
		<tag k="max_age" v="5" />
		<tag k="min_age" v="1" />
		<tag k="name" v="Stjernen barnehage" />
		<tag k="no-barnehage:nsrid" v="1022254" />
		<tag k="operator" v="Stjernen barnehage Sa" />
		<tag k="operator:type" v="private" />
	</node>
	<node id="-2397" lat="59.70931" lon="10.50725">
		<tag k="amenity" v="kindergarten" />
		<tag k="capacity" v="23" />
		<tag k="contact:email" v="spiren@itryggehender.no" />
		<tag k="contact:phone" v="+47 31 28 73 47" />
		<tag k="contact:website" v="http://www.itryggehender.no" />
		<tag k="doNotImportAddress" v="Hurumveien 42 3474 ÅROS" />
		<tag k="max_age" v="5" />
		<tag k="min_age" v="1" />
		<tag k="name" v="Spiren barnehage" />
		<tag k="no-barnehage:nsrid" v="1021076" />
		<tag k="operator" v="I Trygge Hender AS" />
		<tag k="operator:type" v="private" />
	</node>
	<node id="-2396" lat="59.7458" lon="10.3369">
		<tag k="amenity" v="kindergarten" />
		<tag k="capacity" v="60" />
		<tag k="contact:email" v="spikkestad@kanvas.no" />
		<tag k="contact:phone" v="+47 22 40 58 40" />
		<tag k="doNotImportAddress" v="Teglverksveien 8 3430 SPIKKESTAD" />
		<tag k="max_age" v="5" />
		<tag k="min_age" v="1" />
		<tag k="name" v="Spikkestad Kanvas-barnehage" />
		<tag k="no-barnehage:nsrid" v="1016219" />
		<tag k="operator" v="Stiftelsen Kanvas" />
		<tag k="operator:type" v="private" />
	</node>
	<node id="-2395" lat="59.7793" lon="10.4886">
		<tag k="amenity" v="kindergarten" />
		<tag k="capacity" v="66" />
		<tag k="contact:email" v="elin.evensen@royken.kommune.no" />
		<tag k="contact:phone" v="+47 31296000" />
		<tag k="doNotImportAddress" v="Boligveien 22 3470 SLEMMESTAD" />
		<tag k="max_age" v="5" />
		<tag k="min_age" v="1" />
		<tag k="name" v="Slemmestad barnehage" />
		<tag k="no-barnehage:nsrid" v="1012686" />
		<tag k="operator" v="Røyken kommune" />
		<tag k="operator:type" v="public" />
	</node>
	<node id="-2394" lat="59.7458" lon="10.3932">
		<tag k="amenity" v="kindergarten" />
		<tag k="capacity" v="49" />
		<tag k="contact:email" v="camilla.graff@royken.kommune.no" />
		<tag k="contact:phone" v="+47 31296000" />
		<tag k="doNotImportAddress" v="Løkenveien 1 3440 RØYKEN" />
		<tag k="max_age" v="5" />
		<tag k="min_age" v="1" />
		<tag k="name" v="Røyken barnehage" />
		<tag k="no-barnehage:nsrid" v="1016028" />
		<tag k="operator" v="Røyken kommune" />
		<tag k="operator:type" v="public" />
	</node>
	<node id="-2393" lat="59.7486" lon="10.3394">
		<tag k="amenity" v="kindergarten" />
		<tag k="capacity" v="88" />
		<tag k="contact:email" v="paletten@kanvas.no" />
		<tag k="doNotImportAddress" v="Kunnskapsveien 34 3430 SPIKKESTAD" />
		<tag k="max_age" v="5" />
		<tag k="min_age" v="1" />
		<tag k="name" v="Paletten Kanvas-barnehage" />
		<tag k="no-barnehage:nsrid" v="1017719" />
		<tag k="operator" v="Stiftelsen Kanvas" />
		<tag k="operator:type" v="private" />
	</node>
	<node id="-2392" lat="59.75443" lon="10.50182">
		<tag k="amenity" v="kindergarten" />
		<tag k="capacity" v="80" />
		<tag k="contact:email" v="kontor@kystbarnehagen.no" />
		<tag k="contact:phone" v="+47 31 28 05 60" />
		<tag k="contact:website" v="http://www.kystbarnehagen.no" />
		<tag k="doNotImportAddress" v="Sokkabekkveien 1 3478 NÆRSNES" />
		<tag k="max_age" v="5" />
		<tag k="min_age" v="1" />
		<tag k="name" v="Nærsnes kystbarnehage" />
		<tag k="no-barnehage:nsrid" v="1021192" />
		<tag k="operator" v="Nærsnes Kystbarnehage AS" />
		<tag k="operator:type" v="private" />
	</node>
	<node id="-2391" lat="59.76075" lon="10.49755">
		<tag k="amenity" v="kindergarten" />
		<tag k="capacity" v="14" />
		<tag k="contact:email" v="post@naersnes-barnehage.no" />
		<tag k="contact:phone" v="+47 31 28 55 67" />
		<tag k="contact:website" v="http://www.nærsnes-barnehage.no" />
		<tag k="doNotImportAddress" v="Sundbyveien 5 3478 NÆRSNES" />
		<tag k="max_age" v="5" />
		<tag k="min_age" v="1" />
		<tag k="name" v="Nærsnes barnehage" />
		<tag k="no-barnehage:nsrid" v="1020318" />
		<tag k="operator" v="Nærsnes barnehage Sa" />
		<tag k="operator:type" v="private" />
	</node>
	<node id="-2390" lat="59.72845" lon="10.51234">
		<tag k="amenity" v="kindergarten" />
		<tag k="capacity" v="75" />
		<tag k="contact:email" v="dl.nedrehovik@bhg.no" />
		<tag k="contact:phone" v="+47 31 29 21 20" />
		<tag k="doNotImportAddress" v="Høvikskogen 2 3477 BÅTSTØ" />
		<tag k="max_age" v="5" />
		<tag k="min_age" v="1" />
		<tag k="name" v="Nedre Høvik FUS barnehage" />
		<tag k="no-barnehage:nsrid" v="1021464" />
		<tag k="operator" v="Nedre Høvik Fus barnehage AS" />
		<tag k="operator:type" v="private" />
	</node>
	<node id="-2389" lat="59.77241" lon="10.49096">
		<tag k="amenity" v="kindergarten" />
		<tag k="capacity" v="91" />
		<tag k="contact:email" v="dl.morbergtoppen@bhg.no" />
		<tag k="contact:phone" v="+47 904 05 353" />
		<tag k="doNotImportAddress" v="Nyveien 39 3470 SLEMMESTAD" />
		<tag k="max_age" v="5" />
		<tag k="min_age" v="1" />
		<tag k="name" v="Morbergtoppen FUS barnehage" />
		<tag k="no-barnehage:nsrid" v="1021301" />
		<tag k="operator" v="Morbergtoppen Fus barnehage AS" />
		<tag k="operator:type" v="private" />
	</node>
	<node id="-2388" lat="59.7376" lon="10.4028">
		<tag k="amenity" v="kindergarten" />
		<tag k="capacity" v="50" />
		<tag k="contact:email" v="midtbygda@kanvas.no" />
		<tag k="doNotImportAddress" v="Nils Slottos Vei 5 3440 RØYKEN" />
		<tag k="max_age" v="5" />
		<tag k="min_age" v="1" />
		<tag k="name" v="Midtbygda Kanvas-barnehage" />
		<tag k="no-barnehage:nsrid" v="1012574" />
		<tag k="operator" v="Stiftelsen Kanvas" />
		<tag k="operator:type" v="private" />
	</node>
	<node id="-2387" lat="59.76143" lon="10.45346">
		<tag k="amenity" v="kindergarten" />
		<tag k="capacity" v="13" />
		<tag k="contact:email" v="maurtoppenbarnehage@live.no" />
		<tag k="contact:phone" v="+47 31280750" />
		<tag k="doNotImportAddress" v="Grendehuset Tors Vei 180 3472 BØDALEN" />
		<tag k="max_age" v="5" />
		<tag k="min_age" v="1" />
		<tag k="name" v="Maurtoppen barnehage" />
		<tag k="no-barnehage:nsrid" v="1019705" />
		<tag k="operator" v="Maurtoppen barnehage" />
		<tag k="operator:type" v="private" />
	</node>
	<node id="-2386" lat="59.7527" lon="10.3967">
		<tag k="amenity" v="kindergarten" />
		<tag k="capacity" v="48" />
		<tag k="contact:email" v="kjekstadmarka@kanvas.no" />
		<tag k="doNotImportAddress" v="Heggveien 40 3440 RØYKEN" />
		<tag k="max_age" v="5" />
		<tag k="min_age" v="1" />
		<tag k="name" v="Kjekstadmarka Kanvas-barnehage" />
		<tag k="no-barnehage:nsrid" v="1016322" />
		<tag k="operator" v="Stiftelsen Kanvas" />
		<tag k="operator:type" v="private" />
	</node>
	<node id="-2385" lat="59.7171" lon="10.374">
		<tag k="amenity" v="kindergarten" />
		<tag k="capacity" v="34" />
		<tag k="contact:email" v="kristin.novum@royken.kommune.no" />
		<tag k="doNotImportAddress" v="Bakkekroken 12 3442 HYGGEN" />
		<tag k="max_age" v="5" />
		<tag k="min_age" v="1" />
		<tag k="name" v="Hyggen oppvekstsenter avd. barnehage" />
		<tag k="no-barnehage:nsrid" v="1017063" />
		<tag k="operator" v="Røyken kommune" />
		<tag k="operator:type" v="public" />
	</node>
	<node id="-2383" lat="59.74249" lon="10.34132">
		<tag k="amenity" v="kindergarten" />
		<tag k="capacity" v="38" />
		<tag k="contact:email" v="dl.helledammen@bhg.no" />
		<tag k="contact:phone" v="+47 95897965" />
		<tag k="doNotImportAddress" v="Helledamsveien 31 3430 SPIKKESTAD" />
		<tag k="max_age" v="5" />
		<tag k="min_age" v="1" />
		<tag k="name" v="Helledammen FUS barnehage" />
		<tag k="no-barnehage:nsrid" v="1022202" />
		<tag k="operator" v="Helledammen Fus barnehage AS" />
		<tag k="operator:type" v="private" />
	</node>
	<node id="-2382" lat="59.74727" lon="10.4018">
		<tag k="amenity" v="kindergarten" />
		<tag k="capacity" v="41" />
		<tag k="contact:email" v="ma-bj2@frisurf.no" />
		<tag k="doNotImportAddress" v="Heggumhøgda 3 3440 RØYKEN" />
		<tag k="max_age" v="5" />
		<tag k="min_age" v="1" />
		<tag k="name" v="Heggum barnehage" />
		<tag k="no-barnehage:nsrid" v="1022082" />
		<tag k="operator" v="Heggum barnehage AS" />
		<tag k="operator:type" v="private" />
	</node>
	<node id="-2379" lat="59.7138" lon="10.5098">
		<tag k="amenity" v="kindergarten" />
		<tag k="capacity" v="57" />
		<tag k="contact:email" v="frydenlund@kanvas.no" />
		<tag k="doNotImportAddress" v="Astrid Skares Vei 70 3474 ÅROS" />
		<tag k="max_age" v="5" />
		<tag k="min_age" v="1" />
		<tag k="name" v="Frydenlund Kanvas-barnehage" />
		<tag k="no-barnehage:nsrid" v="1013097" />
		<tag k="operator" v="Stiftelsen Kanvas" />
		<tag k="operator:type" v="private" />
	</node>
	<node id="-2378" lat="59.7273" lon="10.3264">
		<tag k="amenity" v="kindergarten" />
		<tag k="capacity" v="67" />
		<tag k="contact:email" v="siv@ulna.no" />
		<tag k="contact:phone" v="+47 98 67 25 38" />
		<tag k="contact:website" v="http://www.carpediembarnehage.no" />
		<tag k="doNotImportAddress" v="Brøholtveien 79 3430 SPIKKESTAD" />
		<tag k="max_age" v="5" />
		<tag k="min_age" v="1" />
		<tag k="name" v="Carpe Diem barnehage" />
		<tag k="no-barnehage:nsrid" v="1014067" />
		<tag k="operator" v="Ulna AS" />
		<tag k="operator:type" v="private" />
	</node>
	<node id="-2377" lat="59.74209" lon="10.36646">
		<tag k="amenity" v="kindergarten" />
		<tag k="capacity" v="63" />
		<tag k="contact:email" v="barnehagen@bitehagen.no" />
		<tag k="contact:phone" v="+47 31 29 04 88" />
		<tag k="contact:website" v="http://www.bitehagenbarnehage.no" />
		<tag k="doNotImportAddress" v="Bitehagen 10b 3440 RØYKEN" />
		<tag k="max_age" v="5" />
		<tag k="min_age" v="1" />
		<tag k="name" v="Bitehagen barnehage" />
		<tag k="no-barnehage:nsrid" v="1020594" />
		<tag k="operator" v="Bitehagen barnehage Sa" />
		<tag k="operator:type" v="private" />
	</node>
	<node id="-2375" lat="59.74959" lon="10.39914">
		<tag k="amenity" v="kindergarten" />
		<tag k="capacity" v="64" />
		<tag k="contact:email" v="ingvild.hansen@100-meterskogenbhg.no" />
		<tag k="contact:phone" v="+47 901 97 532" />
		<tag k="doNotImportAddress" v="Godheimveien 26 3440 RØYKEN" />
		<tag k="max_age" v="5" />
		<tag k="min_age" v="1" />
		<tag k="name" v="100-meterskogen barnehage" />
		<tag k="no-barnehage:nsrid" v="1021563" />
		<tag k="operator" v="100-Meterskogen barnehage AS" />
		<tag k="operator:type" v="private" />
	</node>
</osm>
