<?xml version="1.0" encoding="UTF-8"?>
<osm generator="osmapis" version="0.6">
	<node id="-2544" lat="59.75354" lon="10.46588">
		<tag k="ADDRESS" v="Aukeveien 118d, 3472 BØDALEN" />
		<tag k="amenity" v="kindergarten" />
		<tag k="capacity" v="11" />
		<tag k="max_age" v="5" />
		<tag k="min_age" v="1" />
		<tag k="name" v="Hno barnehage" />
		<tag k="no-barnehage:nsrid" v="1013521" />
		<tag k="operator" v="Hno barnehage AS" />
		<tag k="operator:type" v="private" />
	</node>
	<node id="-2535" lat="59.73797" lon="10.40348">
		<tag k="ADDRESS" v="Furutoppveien 61, 3440 RØYKEN" />
		<tag k="amenity" v="kindergarten" />
		<tag k="capacity" v="6" />
		<tag k="max_age" v="5" />
		<tag k="min_age" v="1" />
		<tag k="name" v="Ayno" />
		<tag k="no-barnehage:nsrid" v="2000074" />
		<tag k="operator" v="Ayno Ans" />
		<tag k="operator:type" v="private" />
	</node>
	<node id="-2541" lat="59.77639" lon="10.41346">
		<tag k="ADDRESS" v="Hallenåsen Terrasse 41, 1389 HEGGEDAL" />
		<tag k="amenity" v="kindergarten" />
		<tag k="capacity" v="5" />
		<tag k="max_age" v="5" />
		<tag k="min_age" v="1" />
		<tag k="name" v="Hallenåsen familiebarnehage Marit Regine Kinserdal" />
		<tag k="no-barnehage:nsrid" v="2000032" />
		<tag k="operator" v="Hallenåsen Familiebarnehage Marit Regine Kinserdal" />
		<tag k="operator:type" v="private" />
	</node>
	<node id="-2540" lat="59.77612" lon="10.49338">
		<tag k="ADDRESS" v="Furulia 3a, 3470 SLEMMESTAD" />
		<tag k="amenity" v="kindergarten" />
		<tag k="capacity" v="7" />
		<tag k="contact:website" v="http://ja-riis.wix.com/furuliafamiliebhg" />
		<tag k="max_age" v="5" />
		<tag k="min_age" v="1" />
		<tag k="name" v="Furulia familiebarnehage" />
		<tag k="no-barnehage:nsrid" v="1020810" />
		<tag k="operator" v="Furulia Familiebarnehage Ruud" />
		<tag k="operator:type" v="private" />
	</node>
	<node id="-2563" lat="59.71272" lon="10.51716">
		<tag k="ADDRESS" v="Fjellstien 1, 3474 ÅROS" />
		<tag k="amenity" v="kindergarten" />
		<tag k="capacity" v="10" />
		<tag k="max_age" v="5" />
		<tag k="min_age" v="1" />
		<tag k="name" v="Utsikten familie barnehage Carina Abrahamsen" />
		<tag k="no-barnehage:nsrid" v="1021476" />
		<tag k="operator" v="Utsikten Familie barnehage Carina Abrahamsen" />
		<tag k="operator:type" v="private" />
	</node>
</osm>
