<?xml version="1.0" encoding="UTF-8"?>
<osm generator="osmapis" version="0.6">
	<node id="-2488" lat="59.753" lon="10.4652">
		<tag k="amenity" v="kindergarten" />
		<tag k="capacity" v="9" />
		<tag k="contact:email" v="lykkeliten.helene@gmail.com" />
		<tag k="contact:phone" v="+47 93057913" />
		<tag k="max_age" v="5" />
		<tag k="min_age" v="1" />
		<tag k="name" v="Hno barnehage AS" />
		<tag k="no-barnehage:nsrid" v="1013521" />
		<tag k="operator" v="Hno barnehage AS" />
		<tag k="operator:type" v="private" />
		<tag k="start_date" v="2012-01-17" />
	</node>
	<node id="-2484" lat="59.77612" lon="10.49339">
		<tag k="amenity" v="kindergarten" />
		<tag k="capacity" v="9" />
		<tag k="contact:email" v="ja-riis@online.no" />
		<tag k="contact:phone" v="+47 31 28 05 35" />
		<tag k="max_age" v="5" />
		<tag k="min_age" v="1" />
		<tag k="name" v="Furulia Familiebarnehage Ruud" />
		<tag k="no-barnehage:nsrid" v="1020810" />
		<tag k="operator" v="Furulia Familiebarnehage Ruud" />
		<tag k="operator:type" v="private" />
		<tag k="start_date" v="2002-06-01" />
	</node>
	<node id="-2506" lat="59.71351" lon="10.51752">
		<tag k="amenity" v="kindergarten" />
		<tag k="capacity" v="10" />
		<tag k="contact:email" v="carinakarlsen@hotmail.no" />
		<tag k="contact:phone" v="+47 480 91 061" />
		<tag k="max_age" v="5" />
		<tag k="min_age" v="1" />
		<tag k="name" v="Utsikten Familie barnehage Carina Abrahamsen" />
		<tag k="no-barnehage:nsrid" v="1021476" />
		<tag k="operator" v="Utsikten Familie barnehage Carina Abrahamsen" />
		<tag k="operator:type" v="private" />
		<tag k="start_date" v="2006-08-01" />
	</node>
</osm>
