<?xml version="1.0" encoding="UTF-8"?>
<osm generator="osmapis" version="0.6">
	<node id="-4237" lat="60.40064" lon="5.711639">
		<tag k="amenity" v="kindergarten" />
		<tag k="capacity" v="27" />
		<tag k="contact:email" v="ragnfridaao@hotmail.com" />
		<tag k="contact:phone" v="93 46 03 46" />
		<tag k="contact:website" v="http://www.gards-barnehagen.no" />
		<tag k="max_age" v="5" />
		<tag k="min_age" v="1" />
		<tag k="name" v="Aadland Gards- og Friluftsbarnehage AS" />
		<tag k="no-barnehage:nsrid" v="1022351" />
		<tag k="operator" v="Aadland Gards- og Friluftsbarnehage AS" />
		<tag k="operator:type" v="private" />
		<tag k="start_date" v="1999-08-02" />
	</node>
	<node id="-4236" lat="60.4006" lon="5.71164">
		<tag k="amenity" v="kindergarten" />
		<tag k="capacity" v="51" />
		<tag k="contact:phone" v="56 58 78 10" />
		<tag k="max_age" v="5" />
		<tag k="min_age" v="1" />
		<tag k="name" v="Vassloppa barnehage" />
		<tag k="no-barnehage:nsrid" v="1013953" />
		<tag k="operator" v="Samnanger kommune" />
		<tag k="operator:type" v="public" />
		<tag k="start_date" v="1990-01-01" />
	</node>
	<node id="-4235" lat="60.3961" lon="5.76658">
		<tag k="amenity" v="kindergarten" />
		<tag k="capacity" v="44" />
		<tag k="contact:phone" v="56 58 97 10" />
		<tag k="max_age" v="5" />
		<tag k="min_age" v="1" />
		<tag k="name" v="DrÃ¥peslottet barnehage" />
		<tag k="no-barnehage:nsrid" v="1014713" />
		<tag k="operator" v="Samnanger kommune" />
		<tag k="operator:type" v="public" />
		<tag k="start_date" v="1992-08-01" />
	</node>
</osm>
