<?xml version="1.0" encoding="UTF-8"?>
<osm generator="osmapis" version="0.6">
	<node id="-2973" lat="58.6324" lon="8.29542">
		<tag k="ADDRESS" v="Evjeveien 836, 4832 MYKLAND" />
		<tag k="amenity" v="kindergarten" />
		<tag k="capacity" v="11" />
		<tag k="contact:website" v="http://www.froland.kommune.no/tjenester/barnehage/barnehagene-i-froland/mykland-barnehage" />
		<tag k="max_age" v="5" />
		<tag k="min_age" v="1" />
		<tag k="name" v="Mykland barnehage" />
		<tag k="no-barnehage:nsrid" v="1016054" />
		<tag k="operator" v="Froland kommune" />
		<tag k="operator:type" v="public" />
	</node>
	<node id="-2972" lat="58.51314" lon="8.62811">
		<tag k="ADDRESS" v="Rislandsveien 17, 4820 FROLAND" />
		<tag k="amenity" v="kindergarten" />
		<tag k="capacity" v="27" />
		<tag k="contact:website" v="http://www.froland.kommune.no/tjenester/barnehage/barnehagene-i-froland/kringletoppen-barnehage" />
		<tag k="max_age" v="5" />
		<tag k="min_age" v="1" />
		<tag k="name" v="Kringletoppen barnehage" />
		<tag k="no-barnehage:nsrid" v="1012789" />
		<tag k="operator" v="Froland kommune" />
		<tag k="operator:type" v="public" />
	</node>
	<node id="-2971" lat="58.48571" lon="8.61707">
		<tag k="ADDRESS" v="Reiersølveien 203, 4820 FROLAND" />
		<tag k="amenity" v="kindergarten" />
		<tag k="capacity" v="12" />
		<tag k="contact:website" v="http://www.froland.kommune.no/tjenester/barnehage/barnehagene-i-froland/gardsbarnehagen-pa-ovelandsneset" />
		<tag k="max_age" v="5" />
		<tag k="min_age" v="1" />
		<tag k="name" v="Gårdsbarnehagen Ovelandsneset" />
		<tag k="no-barnehage:nsrid" v="1013612" />
		<tag k="operator" v="Froland kommune" />
		<tag k="operator:type" v="public" />
	</node>
</osm>
