<?xml version="1.0" encoding="UTF-8"?>
<osm generator="osmapis" version="0.6">
	<node id="-3100" lat="58.6322" lon="8.28798">
		<tag k="amenity" v="kindergarten" />
		<tag k="capacity" v="8" />
		<tag k="contact:email" v="fkmskole@online.no" />
		<tag k="contact:phone" v="37039135" />
		<tag k="max_age" v="5" />
		<tag k="min_age" v="1" />
		<tag k="name" v="Mykland barnehage" />
		<tag k="no-barnehage:nsrid" v="1016054" />
		<tag k="operator" v="Froland kommune" />
		<tag k="operator:type" v="public" />
		<tag k="start_date" v="1989-01-01" />
	</node>
	<node id="-3098" lat="58.5069" lon="8.64213">
		<tag k="amenity" v="kindergarten" />
		<tag k="capacity" v="29" />
		<tag k="contact:email" v="liv.hansen.vhile@froland.kommune.no" />
		<tag k="contact:phone" v="37235500" />
		<tag k="max_age" v="5" />
		<tag k="min_age" v="1" />
		<tag k="name" v="Kringletoppen barnehage Avd Tyrihans" />
		<tag k="no-barnehage:nsrid" v="1012789" />
		<tag k="operator" v="Froland kommune" />
		<tag k="operator:type" v="public" />
		<tag k="start_date" v="1989-01-01" />
	</node>
	<node id="-3097" lat="58.50686" lon="8.642127">
		<tag k="amenity" v="kindergarten" />
		<tag k="capacity" v="17" />
		<tag k="max_age" v="5" />
		<tag k="min_age" v="1" />
		<tag k="name" v="Gårdsbarnehagen Ovelandsneset" />
		<tag k="no-barnehage:nsrid" v="1013612" />
		<tag k="operator" v="Froland kommune" />
		<tag k="operator:type" v="public" />
		<tag k="start_date" v="2013-08-01" />
	</node>
	<node id="-3096" lat="58.50686" lon="8.642127">
		<tag k="amenity" v="kindergarten" />
		<tag k="capacity" v="59" />
		<tag k="max_age" v="5" />
		<tag k="min_age" v="1" />
		<tag k="name" v="Froland Musikkbarnehage" />
		<tag k="no-barnehage:nsrid" v="1022035" />
		<tag k="operator" v="Mjølhusmoen Barnehagedrift AS" />
		<tag k="operator:type" v="private" />
		<tag k="start_date" v="2010-02-25" />
	</node>
	<node id="-3095" lat="58.5556" lon="8.60777">
		<tag k="amenity" v="kindergarten" />
		<tag k="capacity" v="19" />
		<tag k="max_age" v="5" />
		<tag k="min_age" v="3" />
		<tag k="name" v="Froland Friluftsbarnehage" />
		<tag k="no-barnehage:nsrid" v="1012788" />
		<tag k="operator" v="Froland kommune" />
		<tag k="operator:type" v="public" />
		<tag k="start_date" v="1989-01-01" />
	</node>
	<node id="-3094" lat="58.5017" lon="8.57882">
		<tag k="amenity" v="kindergarten" />
		<tag k="capacity" v="110" />
		<tag k="contact:phone" v="37 03 84 83" />
		<tag k="max_age" v="5" />
		<tag k="min_age" v="1" />
		<tag k="name" v="Eikely barnehage" />
		<tag k="no-barnehage:nsrid" v="1016768" />
		<tag k="operator" v="Normisjon Region Agder" />
		<tag k="operator:type" v="private" />
		<tag k="start_date" v="1988-04-01" />
	</node>
	<node id="-3093" lat="58.4641" lon="8.733304">
		<tag k="amenity" v="kindergarten" />
		<tag k="capacity" v="51" />
		<tag k="max_age" v="5" />
		<tag k="min_age" v="1" />
		<tag k="name" v="Bliksåsen barnehage" />
		<tag k="no-barnehage:nsrid" v="1013611" />
		<tag k="operator" v="Froland kommune" />
		<tag k="operator:type" v="public" />
		<tag k="start_date" v="2013-08-01" />
	</node>
	<node id="-3092" lat="58.5061" lon="8.62804">
		<tag k="amenity" v="kindergarten" />
		<tag k="capacity" v="55" />
		<tag k="max_age" v="5" />
		<tag k="min_age" v="1" />
		<tag k="name" v="Blakstadheia barnehage" />
		<tag k="no-barnehage:nsrid" v="1016053" />
		<tag k="operator" v="Froland kommune" />
		<tag k="operator:type" v="public" />
		<tag k="start_date" v="1992-08-01" />
	</node>
</osm>
