<?xml version="1.0" encoding="UTF-8"?>
<osm generator="osmapis" version="0.6">
	<node id="-3304" lat="60.42675" lon="5.18921">
		<tag k="ADDRESS" v="Ospedalen 268, 5308 KLEPPESTØ" />
		<tag k="amenity" v="kindergarten" />
		<tag k="capacity" v="62" />
		<tag k="max_age" v="5" />
		<tag k="min_age" v="1" />
		<tag k="name" v="Læringsverkstedet Du og Jeg Sør" />
		<tag k="no-barnehage:nsrid" v="1013210" />
		<tag k="operator" v="Du og Jeg Krokåsfeltet Nord AS" />
		<tag k="operator:type" v="private" />
	</node>
	<node id="-3303" lat="60.4264" lon="5.18544">
		<tag k="ADDRESS" v="Ospedalen 239, 5308 KLEPPESTØ" />
		<tag k="amenity" v="kindergarten" />
		<tag k="capacity" v="69" />
		<tag k="contact:website" v="http://laringsverkstedet.no/laringsverkstedet-du-og-jeg-nord" />
		<tag k="max_age" v="5" />
		<tag k="min_age" v="1" />
		<tag k="name" v="Læringsverkstedet Du og Jeg Nord" />
		<tag k="no-barnehage:nsrid" v="1015824" />
		<tag k="operator" v="Du og Jeg Krokåsfeltet Nord AS" />
		<tag k="operator:type" v="private" />
	</node>
	<node id="-3302" lat="60.42315" lon="5.19907">
		<tag k="ADDRESS" v="Kleppevegen 124, 5308 KLEPPESTØ" />
		<tag k="amenity" v="kindergarten" />
		<tag k="capacity" v="92" />
		<tag k="max_age" v="5" />
		<tag k="min_age" v="1" />
		<tag k="name" v="Læringsverkstedet barnehage avd. Kleppe" />
		<tag k="no-barnehage:nsrid" v="1021179" />
		<tag k="operator" v="Læringsverkstedet AS" />
		<tag k="operator:type" v="private" />
	</node>
	<node id="-3305" lat="60.40614" lon="5.19066">
		<tag k="ADDRESS" v="Krokåsdalen 1, 5302 STRUSSHAMN" />
		<tag k="amenity" v="kindergarten" />
		<tag k="capacity" v="48" />
		<tag k="contact:website" v="http://strusshamnbarnehageside.no" />
		<tag k="max_age" v="5" />
		<tag k="min_age" v="1" />
		<tag k="name" v="Strusshamn barnehage" />
		<tag k="no-barnehage:nsrid" v="1020191" />
		<tag k="operator" v="Strusshamn barnehage Sa" />
		<tag k="operator:type" v="private" />
	</node>
</osm>
