<?xml version="1.0" encoding="UTF-8"?>
<osm generator="osmapis" version="0.6">
	<node id="-4239" lat="60.5018" lon="5.09011">
		<tag k="amenity" v="kindergarten" />
		<tag k="capacity" v="34" />
		<tag k="contact:email" v="gro.berg@askoy.kommune.no" />
		<tag k="contact:phone" v="56155360" />
		<tag k="max_age" v="5" />
		<tag k="min_age" v="1" />
		<tag k="name" v="Træet barnehage" />
		<tag k="no-barnehage:nsrid" v="1013896" />
		<tag k="operator" v="Askøy kommune" />
		<tag k="operator:type" v="public" />
		<tag k="start_date" v="1989-01-01" />
	</node>
	<node id="-4238" lat="60.4159" lon="5.22066">
		<tag k="amenity" v="kindergarten" />
		<tag k="capacity" v="63" />
		<tag k="contact:email" v="myrane@kanvas.no" />
		<tag k="contact:phone" v="22 40 58 40" />
		<tag k="max_age" v="5" />
		<tag k="min_age" v="1" />
		<tag k="name" v="Myrane Kanvas-Barnehage" />
		<tag k="no-barnehage:nsrid" v="1015489" />
		<tag k="operator" v="Stiftelsen Kanvas" />
		<tag k="operator:type" v="private" />
		<tag k="start_date" v="1992-08-01" />
	</node>
	<node id="-4237" lat="60.4268" lon="5.18921">
		<tag k="amenity" v="kindergarten" />
		<tag k="capacity" v="70" />
		<tag k="contact:email" v="lene.mjelstad@duogjegbarnehager.no" />
		<tag k="max_age" v="5" />
		<tag k="min_age" v="1" />
		<tag k="name" v="Læringsverkstedet Du og Jeg Sør" />
		<tag k="no-barnehage:nsrid" v="1013210" />
		<tag k="operator" v="Du og Jeg Krokåsfeltet Nord AS" />
		<tag k="operator:type" v="private" />
		<tag k="start_date" v="2005-02-14" />
	</node>
	<node id="-4236" lat="60.4264" lon="5.18544">
		<tag k="amenity" v="kindergarten" />
		<tag k="capacity" v="83" />
		<tag k="contact:email" v="anita.tvedt@duogjegbarnehager.no" />
		<tag k="contact:phone" v="56 15 75 80" />
		<tag k="max_age" v="5" />
		<tag k="min_age" v="1" />
		<tag k="name" v="Læringsverkstedet Du og Jeg Nord" />
		<tag k="no-barnehage:nsrid" v="1015824" />
		<tag k="operator" v="Du og Jeg Krokåsfeltet Nord AS" />
		<tag k="operator:type" v="private" />
		<tag k="start_date" v="2000-03-20" />
	</node>
	<node id="-4235" lat="60.40844" lon="5.227628">
		<tag k="amenity" v="kindergarten" />
		<tag k="capacity" v="182" />
		<tag k="contact:email" v="lene.mjelstad@duogjegbarnehager.no" />
		<tag k="contact:phone" v="56157843" />
		<tag k="contact:website" v="http://www.laringsverkstedet.no/laringsverkestedet-du-og-jeg-juvik" />
		<tag k="max_age" v="5" />
		<tag k="min_age" v="1" />
		<tag k="name" v="Læringsverkstedet Du og Jeg Juvik" />
		<tag k="no-barnehage:nsrid" v="1021893" />
		<tag k="operator" v="Du og Jeg Juvik AS" />
		<tag k="operator:type" v="private" />
		<tag k="start_date" v="2008-12-16" />
	</node>
	<node id="-4234" lat="60.447" lon="5.07655">
		<tag k="amenity" v="kindergarten" />
		<tag k="capacity" v="39" />
		<tag k="contact:email" v="ann.solberg@askoy.kommune.no" />
		<tag k="contact:phone" v="56155365" />
		<tag k="max_age" v="5" />
		<tag k="min_age" v="1" />
		<tag k="name" v="Hanøy barnehage" />
		<tag k="no-barnehage:nsrid" v="1014715" />
		<tag k="operator" v="Askøy kommune" />
		<tag k="operator:type" v="public" />
		<tag k="start_date" v="1992-08-01" />
	</node>
	<node id="-4233" lat="60.4426" lon="5.22709">
		<tag k="amenity" v="kindergarten" />
		<tag k="capacity" v="75" />
		<tag k="contact:email" v="furuly.barnehage@askoy.kommune.no" />
		<tag k="contact:phone" v="56155350" />
		<tag k="max_age" v="5" />
		<tag k="min_age" v="1" />
		<tag k="name" v="Furuly barnehage" />
		<tag k="no-barnehage:nsrid" v="1015506" />
		<tag k="operator" v="Askøy kommune" />
		<tag k="operator:type" v="public" />
		<tag k="start_date" v="1989-01-01" />
	</node>
	<node id="-4232" lat="60.449" lon="5.20318">
		<tag k="amenity" v="kindergarten" />
		<tag k="capacity" v="72" />
		<tag k="contact:email" v="Nina.Beate.Nilsen@askoy.kommune.no" />
		<tag k="contact:phone" v="56155305" />
		<tag k="max_age" v="5" />
		<tag k="min_age" v="1" />
		<tag k="name" v="Erdal barnehage" />
		<tag k="no-barnehage:nsrid" v="1012868" />
		<tag k="operator" v="Askøy kommune" />
		<tag k="operator:type" v="public" />
		<tag k="start_date" v="1976-01-01" />
	</node>
</osm>
