<?xml version="1.0" encoding="UTF-8"?>
<osm version="0.6" generator="osmapis">
	<node lat="62.5906" lon="6.44023" id="-1380">
		<tag k="ADDRESS" v="Fjellbu 2, 6270 BRATTVÅG" />
		<tag k="amenity" v="kindergarten" />
		<tag k="capacity" v="64" />
		<tag k="max_age" v="5" />
		<tag k="min_age" v="1" />
		<tag k="name" v="Brattvåg barnehage" />
		<tag k="no-barnehage:nsrid" v="972290807" />
		<tag k="operator" v="Brattvåg barnehage SA" />
		<tag k="operator:type" v="private" />
	</node>
	<node lat="62.63808" lon="6.26803" id="-1381">
		<tag k="ADDRESS" v="Barnehagevegen 66, 6290 HARAMSØY" />
		<tag k="amenity" v="kindergarten" />
		<tag k="capacity" v="33" />
		<tag k="max_age" v="5" />
		<tag k="min_age" v="1" />
		<tag k="name" v="Haramsøy barnehage" />
		<tag k="no-barnehage:nsrid" v="975310582" />
		<tag k="operator" v="Haram kommune" />
		<tag k="operator:type" v="public" />
	</node>
	<node lat="62.60756" lon="6.20005" id="-1382">
		<tag k="ADDRESS" v="Lepsøyvegen 23, 6292 KJERSTAD" />
		<tag k="amenity" v="kindergarten" />
		<tag k="capacity" v="12" />
		<tag k="max_age" v="5" />
		<tag k="min_age" v="1" />
		<tag k="name" v="Lepsøy barnehage" />
		<tag k="no-barnehage:nsrid" v="980454754" />
		<tag k="operator" v="Haram kommune" />
		<tag k="operator:type" v="public" />
	</node>
	<node lat="62.58195" lon="6.45032" id="-1383">
		<tag k="ADDRESS" v="Øvrehjellen 1, 6270 BRATTVÅG" />
		<tag k="amenity" v="kindergarten" />
		<tag k="capacity" v="80" />
		<tag k="contact:website" v="http://pregbrattvag.barnehage.no/" />
		<tag k="max_age" v="5" />
		<tag k="min_age" v="1" />
		<tag k="name" v="Preg barnehager Brattvåg" />
		<tag k="no-barnehage:nsrid" v="974156172" />
		<tag k="operator" v="Preg barnehager Brattvåg AS" />
		<tag k="operator:type" v="private" />
	</node>
	<node lat="62.5586" lon="6.62065" id="-1384">
		<tag k="ADDRESS" v="Ulvestadvegen 4, 6265 VATNE" />
		<tag k="amenity" v="kindergarten" />
		<tag k="capacity" v="76" />
		<tag k="max_age" v="5" />
		<tag k="min_age" v="1" />
		<tag k="name" v="Preg barnehager Vatne" />
		<tag k="no-barnehage:nsrid" v="974156164" />
		<tag k="operator" v="Preg barnehager Vatne AS" />
		<tag k="operator:type" v="private" />
	</node>
	<node lat="62.54535" lon="6.27753" id="-1385">
		<tag k="ADDRESS" v="Plassen 19, 6280 SØVIK" />
		<tag k="amenity" v="kindergarten" />
		<tag k="capacity" v="47" />
		<tag k="max_age" v="5" />
		<tag k="min_age" v="1" />
		<tag k="name" v="Søvik barnehage" />
		<tag k="no-barnehage:nsrid" v="975310590" />
		<tag k="operator" v="Haram kommune" />
		<tag k="operator:type" v="public" />
	</node>
	<node lat="62.54391" lon="6.58729" id="-1386">
		<tag k="ADDRESS" v="Trolldalssletta 18, 6264 TENNFJORD" />
		<tag k="amenity" v="kindergarten" />
		<tag k="capacity" v="71" />
		<tag k="max_age" v="5" />
		<tag k="min_age" v="1" />
		<tag k="name" v="Tennfjord barnehage" />
		<tag k="no-barnehage:nsrid" v="983952852" />
		<tag k="operator" v="Haram kommune" />
		<tag k="operator:type" v="public" />
	</node>
	<node lat="62.53366" lon="6.35453" id="-1387">
		<tag k="ADDRESS" v="Grytastrandvegen 606, 6265 VATNE" />
		<tag k="amenity" v="kindergarten" />
		<tag k="capacity" v="27" />
		<tag k="max_age" v="5" />
		<tag k="min_age" v="1" />
		<tag k="name" v="Utigarden barnehage" />
		<tag k="no-barnehage:nsrid" v="987110201" />
		<tag k="operator" v="Utigarden barnehage AS" />
		<tag k="operator:type" v="private" />
	</node>
</osm>
