<?xml version="1.0" encoding="UTF-8"?>
<osm generator="osmapis" version="0.6">
	<node id="-4467" lat="61.9197" lon="5.75826">
		<tag k="amenity" v="kindergarten" />
		<tag k="capacity" v="34" />
		<tag k="max_age" v="5" />
		<tag k="min_age" v="1" />
		<tag k="name" v="Stårheim barnehage" />
		<tag k="no-barnehage:nsrid" v="1013787" />
		<tag k="operator" v="Eid kommune" />
		<tag k="operator:type" v="public" />
		<tag k="start_date" v="1989-01-02" />
	</node>
	<node id="-4466" lat="61.91789" lon="5.991557">
		<tag k="amenity" v="kindergarten" />
		<tag k="capacity" v="11" />
		<tag k="contact:phone" v="473 95 464" />
		<tag k="max_age" v="2" />
		<tag k="min_age" v="1" />
		<tag k="name" v="Snøkrystall AS" />
		<tag k="no-barnehage:nsrid" v="1021536" />
		<tag k="operator" v="Snøkrystall AS" />
		<tag k="operator:type" v="private" />
		<tag k="start_date" v="2006-10-31" />
	</node>
	<node id="-4464" lat="61.91706" lon="5.631796">
		<tag k="amenity" v="kindergarten" />
		<tag k="capacity" v="17" />
		<tag k="contact:email" v="tanja@kjolsdalenmontessoriskule.no" />
		<tag k="contact:phone" v="51 86 31 25" />
		<tag k="contact:website" v="http://www.kjolsdalen.barnehage.no/" />
		<tag k="max_age" v="5" />
		<tag k="min_age" v="1" />
		<tag k="name" v="Kjølsdalen Montessoribarnehage Sa" />
		<tag k="no-barnehage:nsrid" v="1020212" />
		<tag k="operator" v="Kjølsdalen Montessoribarnehage Sa" />
		<tag k="operator:type" v="private" />
		<tag k="start_date" v="1989-01-01" />
	</node>
	<node id="-4463" lat="61.9244" lon="5.88345">
		<tag k="amenity" v="kindergarten" />
		<tag k="capacity" v="17" />
		<tag k="max_age" v="5" />
		<tag k="min_age" v="1" />
		<tag k="name" v="Haugen barnehage" />
		<tag k="no-barnehage:nsrid" v="1017062" />
		<tag k="operator" v="Eid kommune" />
		<tag k="operator:type" v="public" />
		<tag k="start_date" v="2005-08-15" />
	</node>
	<node id="-4462" lat="61.9063" lon="5.99156">
		<tag k="amenity" v="kindergarten" />
		<tag k="capacity" v="136" />
		<tag k="max_age" v="5" />
		<tag k="min_age" v="1" />
		<tag k="name" v="Golvsengane barnehage" />
		<tag k="no-barnehage:nsrid" v="1014789" />
		<tag k="operator" v="Eid kommune" />
		<tag k="operator:type" v="public" />
		<tag k="start_date" v="1993-08-01" />
	</node>
	<node id="-4461" lat="61.9063" lon="5.99156">
		<tag k="amenity" v="kindergarten" />
		<tag k="capacity" v="51" />
		<tag k="contact:email" v="gjerdane.barnehage@eid.kommune.no" />
		<tag k="contact:phone" v="57861259" />
		<tag k="max_age" v="5" />
		<tag k="min_age" v="1" />
		<tag k="name" v="Gjerdane barnehage" />
		<tag k="no-barnehage:nsrid" v="1025314" />
		<tag k="operator" v="Eid kommune" />
		<tag k="operator:type" v="public" />
		<tag k="start_date" v="1989-01-02" />
	</node>
	<node id="-4459" lat="61.90786" lon="5.993498">
		<tag k="amenity" v="kindergarten" />
		<tag k="capacity" v="81" />
		<tag k="contact:email" v="eid@bhg.no" />
		<tag k="contact:phone" v="57 86 30 40" />
		<tag k="max_age" v="5" />
		<tag k="min_age" v="1" />
		<tag k="name" v="Eid barnehage AS" />
		<tag k="no-barnehage:nsrid" v="1021419" />
		<tag k="operator" v="Eid barnehage AS" />
		<tag k="operator:type" v="private" />
		<tag k="start_date" v="1976-01-01" />
	</node>
</osm>
