<?xml version="1.0" encoding="UTF-8"?>
<osm generator="osmapis" version="0.6">
	<node id="-6215" lat="70.20012" lon="28.1759">
		<tag k="ADDRESS" v="Ringveien 55, 9845 TANA" />
		<tag k="amenity" v="kindergarten" />
		<tag k="capacity" v="39" />
		<tag k="max_age" v="5" />
		<tag k="min_age" v="1" />
		<tag k="name" v="Tanabru barnehage" />
		<tag k="no-barnehage:nsrid" v="1013738" />
		<tag k="operator" v="Deanu Gielda / Tana kommune" />
		<tag k="operator:type" v="public" />
	</node>
	<node id="-6214" lat="0.0" lon="0.0">
		<tag k="ADDRESS" v="Sirma, 9826 SIRMA" />
		<tag k="amenity" v="kindergarten" />
		<tag k="max_age" v="5" />
		<tag k="min_age" v="3" />
		<tag k="name" v="Sirpma Manaidgardi" />
		<tag k="no-barnehage:nsrid" v="1015073" />
		<tag k="operator" v="Deanu Gielda / Tana kommune" />
		<tag k="operator:type" v="public" />
	</node>
	<node id="-6213" lat="70.19641" lon="28.17428">
		<tag k="ADDRESS" v="Maskevarreveien 5, 9845 TANA" />
		<tag k="amenity" v="kindergarten" />
		<tag k="capacity" v="25" />
		<tag k="contact:website" v="http://giellavealgu.barnehage.no" />
		<tag k="max_age" v="5" />
		<tag k="min_age" v="1" />
		<tag k="name" v="Sami Baikegottiid Guovddas - Samisk Bygdesenter" />
		<tag k="no-barnehage:nsrid" v="1021499" />
		<tag k="operator" v="Sami Baikegottiid Guovddas - Samisk Bygdesenter" />
		<tag k="operator:type" v="private" />
	</node>
	<node id="-6212" lat="70.19971" lon="28.16616">
		<tag k="ADDRESS" v="Lyngveien 24, 9845 TANA" />
		<tag k="amenity" v="kindergarten" />
		<tag k="capacity" v="13" />
		<tag k="max_age" v="5" />
		<tag k="min_age" v="1" />
		<tag k="name" v="Deanu Samiid Searvi" />
		<tag k="no-barnehage:nsrid" v="1019824" />
		<tag k="operator" v="Deanu Samiid Searvi" />
		<tag k="operator:type" v="private" />
	</node>
	<node id="-6211" lat="70.37151" lon="28.17344">
		<tag k="ADDRESS" v="Boftsa, 9845 TANA" />
		<tag k="amenity" v="kindergarten" />
		<tag k="capacity" v="19" />
		<tag k="max_age" v="5" />
		<tag k="min_age" v="1" />
		<tag k="name" v="Boftsa oppvekstsenter avd. barnehage" />
		<tag k="no-barnehage:nsrid" v="1014791" />
		<tag k="operator" v="Deanu Gielda / Tana kommune" />
		<tag k="operator:type" v="public" />
	</node>
	<node id="-6210" lat="0.0" lon="0.0">
		<tag k="ADDRESS" v="Austertana, 9845 TANA" />
		<tag k="amenity" v="kindergarten" />
		<tag k="capacity" v="3" />
		<tag k="contact:website" v="http://tana.kommune.no" />
		<tag k="max_age" v="5" />
		<tag k="min_age" v="1" />
		<tag k="name" v="Austertana oppvekstsenter avd. barnehage" />
		<tag k="no-barnehage:nsrid" v="1016572" />
		<tag k="operator" v="Deanu Gielda / Tana kommune" />
		<tag k="operator:type" v="public" />
	</node>
</osm>
