<?xml version="1.0" encoding="UTF-8"?>
<osm generator="osmapis" version="0.6">
	<node id="-6048" lat="70.4384" lon="28.5104">
		<tag k="amenity" v="kindergarten" />
		<tag k="capacity" v="7" />
		<tag k="contact:email" v="oystein.hauge@tana.kommune.no" />
		<tag k="max_age" v="5" />
		<tag k="min_age" v="1" />
		<tag k="name" v="Austertana Oppvekstsenter Avdeling Barnehage" />
		<tag k="no-barnehage:nsrid" v="1016572" />
		<tag k="operator" v="Deanu Gielda / Tana kommune" />
		<tag k="operator:type" v="public" />
		<tag k="start_date" v="2003-08-01" />
	</node>
	<node id="-6053" lat="70.2001" lon="28.1759">
		<tag k="amenity" v="kindergarten" />
		<tag k="capacity" v="38" />
		<tag k="contact:email" v="msa@tana.kommune.no" />
		<tag k="max_age" v="5" />
		<tag k="min_age" v="1" />
		<tag k="name" v="Tanabru barnehage" />
		<tag k="no-barnehage:nsrid" v="1013738" />
		<tag k="operator" v="Deanu Gielda / Tana kommune" />
		<tag k="operator:type" v="public" />
		<tag k="start_date" v="1989-01-01" />
	</node>
	<node id="-6052" lat="70.0147" lon="27.3984">
		<tag k="amenity" v="kindergarten" />
		<tag k="capacity" v="2" />
		<tag k="contact:email" v="sonja.guttorm@tana.kommune.no" />
		<tag k="max_age" v="5" />
		<tag k="min_age" v="3" />
		<tag k="name" v="Sirpma Manaidgardi" />
		<tag k="no-barnehage:nsrid" v="1015073" />
		<tag k="operator" v="Deanu Gielda / Tana kommune" />
		<tag k="operator:type" v="public" />
		<tag k="start_date" v="2012-01-01" />
	</node>
	<node id="-6051" lat="70.19633" lon="28.17415">
		<tag k="amenity" v="kindergarten" />
		<tag k="capacity" v="22" />
		<tag k="contact:email" v="nsmelror@gmail.com" />
		<tag k="contact:phone" v="+47 78 92 81 00" />
		<tag k="contact:website" v="http://www.sadji.no" />
		<tag k="max_age" v="5" />
		<tag k="min_age" v="1" />
		<tag k="name" v="Sami Baikegottiid Guovddas - Samisk Bygdesenter" />
		<tag k="no-barnehage:nsrid" v="1021499" />
		<tag k="operator" v="Sami Baikegottiid Guovddas - Samisk Bygdesenter" />
		<tag k="operator:type" v="private" />
		<tag k="start_date" v="2006-06-19" />
	</node>
	<node id="-6050" lat="70.19971" lon="28.16616">
		<tag k="amenity" v="kindergarten" />
		<tag k="capacity" v="13" />
		<tag k="contact:email" v="diddima@online.no" />
		<tag k="contact:phone" v="+47 78 92 85 85" />
		<tag k="max_age" v="5" />
		<tag k="min_age" v="1" />
		<tag k="name" v="Deanu Samiid Searvi" />
		<tag k="no-barnehage:nsrid" v="1019824" />
		<tag k="operator" v="Deanu Samiid Searvi" />
		<tag k="operator:type" v="private" />
		<tag k="start_date" v="1989-01-02" />
	</node>
	<node id="-6049" lat="70.0453" lon="28.028">
		<tag k="amenity" v="kindergarten" />
		<tag k="capacity" v="19" />
		<tag k="contact:email" v="heidi.wilsgard@tana.kommune.no" />
		<tag k="max_age" v="5" />
		<tag k="min_age" v="1" />
		<tag k="name" v="Boftsa Oppvekstsenter Avdeling Barnehage" />
		<tag k="no-barnehage:nsrid" v="1014791" />
		<tag k="operator" v="Deanu Gielda / Tana kommune" />
		<tag k="operator:type" v="public" />
		<tag k="start_date" v="1993-08-01" />
	</node>
</osm>
