<?xml version="1.0" encoding="UTF-8"?>
<osm version="0.6" generator="osmapis">
	<node lat="61.80935" lon="6.15306" id="-4506">
		<tag k="ADDRESS" v="Øvre Nordstranda 351, 6823 SANDANE" />
		<tag k="amenity" v="kindergarten" />
		<tag k="capacity" v="26" />
		<tag k="max_age" v="5" />
		<tag k="min_age" v="1" />
		<tag k="name" v="Austrheim barnehage" />
		<tag k="no-barnehage:nsrid" v="972153621" />
		<tag k="operator" v="Stiftinga Austrheim barnehage" />
		<tag k="operator:type" v="private" />
	</node>
	<node lat="61.81179" lon="6.16011" id="-4507">
		<tag k="ADDRESS" v="Liavegen 39, 6823 SANDANE" />
		<tag k="amenity" v="kindergarten" />
		<tag k="capacity" v="24" />
		<tag k="max_age" v="5" />
		<tag k="min_age" v="1" />
		<tag k="name" v="Bakkelidgrenda barnehage Else Lundestad Bakkelid" />
		<tag k="no-barnehage:nsrid" v="893129472" />
		<tag k="operator" v="Bakkelidgrenda barnehage Else Lundestad Bakkelid" />
		<tag k="operator:type" v="private" />
	</node>
	<node lat="0.0" lon="0.0" id="-4508">
		<tag k="ADDRESS" v=", 6827 BREIM" />
		<tag k="amenity" v="kindergarten" />
		<tag k="capacity" v="75" />
		<tag k="max_age" v="5" />
		<tag k="min_age" v="1" />
		<tag k="name" v="Breim barnehage" />
		<tag k="no-barnehage:nsrid" v="995622572" />
		<tag k="operator" v="Gloppen kommune" />
		<tag k="operator:type" v="public" />
	</node>
	<node lat="61.73745" lon="5.91698" id="-4509">
		<tag k="ADDRESS" v="Straumsvegen 3, 6829 HYEN" />
		<tag k="amenity" v="kindergarten" />
		<tag k="capacity" v="20" />
		<tag k="contact:website" v="http://gloppen.kommune.no/" />
		<tag k="max_age" v="5" />
		<tag k="min_age" v="1" />
		<tag k="name" v="Hyen barnehage" />
		<tag k="no-barnehage:nsrid" v="875310062" />
		<tag k="operator" v="Gloppen kommune" />
		<tag k="operator:type" v="public" />
	</node>
	<node lat="61.76857" lon="6.22668" id="-4510">
		<tag k="ADDRESS" v="Åsavegen 153, 6823 SANDANE" />
		<tag k="amenity" v="kindergarten" />
		<tag k="capacity" v="87" />
		<tag k="contact:website" v="http://mona.barnehage.gloppen.no" />
		<tag k="max_age" v="5" />
		<tag k="min_age" v="1" />
		<tag k="name" v="Mona barnehage" />
		<tag k="no-barnehage:nsrid" v="975310078" />
		<tag k="operator" v="Gloppen kommune" />
		<tag k="operator:type" v="public" />
	</node>
	<node lat="61.80935" lon="6.15306" id="-4511">
		<tag k="ADDRESS" v="Øvre Nordstranda 351, 6823 SANDANE" />
		<tag k="amenity" v="kindergarten" />
		<tag k="capacity" v="36" />
		<tag k="max_age" v="5" />
		<tag k="min_age" v="1" />
		<tag k="name" v="Nordstranda barnehage" />
		<tag k="no-barnehage:nsrid" v="983650317" />
		<tag k="operator" v="Nordstranda barnehage" />
		<tag k="operator:type" v="private" />
	</node>
	<node lat="0.0" lon="0.0" id="-4512">
		<tag k="ADDRESS" v="Elvavegen, 6823 SANDANE" />
		<tag k="amenity" v="kindergarten" />
		<tag k="capacity" v="27" />
		<tag k="max_age" v="5" />
		<tag k="min_age" v="1" />
		<tag k="name" v="Nygård barnehage" />
		<tag k="no-barnehage:nsrid" v="994215574" />
		<tag k="operator" v="Nygård barnehage AS" />
		<tag k="operator:type" v="private" />
	</node>
	<node lat="61.77797" lon="6.12673" id="-4513">
		<tag k="ADDRESS" v="Ryggjavegen 24, 6823 SANDANE" />
		<tag k="amenity" v="kindergarten" />
		<tag k="capacity" v="28" />
		<tag k="max_age" v="5" />
		<tag k="min_age" v="1" />
		<tag k="name" v="Rygg barnehage" />
		<tag k="no-barnehage:nsrid" v="973546007" />
		<tag k="operator" v="Rygg barnehage SA" />
		<tag k="operator:type" v="private" />
	</node>
</osm>
