<?xml version="1.0" encoding="UTF-8"?>
<osm generator="osmapis" version="0.6">
	<node id="-3336" lat="0.0" lon="0.0">
		<tag k="ADDRESS" v=", 6868 GAUPNE" />
		<tag k="amenity" v="kindergarten" />
		<tag k="name" v="Grandmo barnehage" />
		<tag k="no-barnehage:nsrid" v="1023871" />
		<tag k="operator" v="Luster kommune" />
		<tag k="operator:type" v="public" />
	</node>
	<node id="-3338" lat="0.0" lon="0.0">
		<tag k="ADDRESS" v=", 6878 VEITASTROND" />
		<tag k="amenity" v="kindergarten" />
		<tag k="capacity" v="12" />
		<tag k="max_age" v="5" />
		<tag k="min_age" v="1" />
		<tag k="name" v="Veitastrond barnehage" />
		<tag k="no-barnehage:nsrid" v="1018488" />
		<tag k="operator" v="Luster kommune" />
		<tag k="operator:type" v="public" />
	</node>
	<node id="-3337" lat="61.31461" lon="7.20018">
		<tag k="ADDRESS" v="Hafslovegen 192, 6869 HAFSLO" />
		<tag k="amenity" v="kindergarten" />
		<tag k="capacity" v="46" />
		<tag k="max_age" v="5" />
		<tag k="min_age" v="1" />
		<tag k="name" v="Hafslo barnehage" />
		<tag k="no-barnehage:nsrid" v="1018152" />
		<tag k="operator" v="Luster kommune" />
		<tag k="operator:type" v="public" />
	</node>
</osm>
