<?xml version="1.0" encoding="UTF-8"?>
<osm generator="osmapis" version="0.6">
	<node id="-4415" lat="61.5048" lon="6.98581">
		<tag k="amenity" v="kindergarten" />
		<tag k="capacity" v="5" />
		<tag k="contact:phone" v="57 68 58 63" />
		<tag k="max_age" v="5" />
		<tag k="min_age" v="1" />
		<tag k="name" v="Veitastrond barnehage" />
		<tag k="no-barnehage:nsrid" v="1018488" />
		<tag k="operator" v="Luster kommune" />
		<tag k="operator:type" v="public" />
		<tag k="start_date" v="2008-08-01" />
	</node>
	<node id="-4414" lat="61.3014" lon="7.23764">
		<tag k="amenity" v="kindergarten" />
		<tag k="capacity" v="14" />
		<tag k="contact:email" v="Katrine.Dyrdal@luster.kommune.no" />
		<tag k="contact:phone" v="57685845" />
		<tag k="max_age" v="5" />
		<tag k="min_age" v="1" />
		<tag k="name" v="Solvorn Oppvekstsenter Avd Barnehage" />
		<tag k="no-barnehage:nsrid" v="1013956" />
		<tag k="operator" v="Luster kommune" />
		<tag k="operator:type" v="public" />
		<tag k="start_date" v="1990-01-01" />
	</node>
	<node id="-4413" lat="61.4913" lon="7.60261">
		<tag k="amenity" v="kindergarten" />
		<tag k="capacity" v="14" />
		<tag k="contact:email" v="anna.sissel.fuglesteg@luster.kommune.no" />
		<tag k="contact:phone" v="57685947" />
		<tag k="max_age" v="5" />
		<tag k="min_age" v="1" />
		<tag k="name" v="Skjolden Oppvekstsenter Avd Barnehage" />
		<tag k="no-barnehage:nsrid" v="1013909" />
		<tag k="operator" v="Luster kommune" />
		<tag k="operator:type" v="public" />
		<tag k="start_date" v="1989-01-01" />
	</node>
	<node id="-4412" lat="61.4448" lon="7.45815">
		<tag k="amenity" v="kindergarten" />
		<tag k="capacity" v="24" />
		<tag k="contact:email" v="lena.stai.bolstad@luster.kommune.no" />
		<tag k="contact:phone" v="57685935" />
		<tag k="max_age" v="5" />
		<tag k="min_age" v="1" />
		<tag k="name" v="Luster Oppvekstsenter Avd Barnehage" />
		<tag k="no-barnehage:nsrid" v="1018153" />
		<tag k="operator" v="Luster kommune" />
		<tag k="operator:type" v="public" />
		<tag k="start_date" v="1989-01-01" />
	</node>
	<node id="-4411" lat="61.5875" lon="7.28327">
		<tag k="amenity" v="kindergarten" />
		<tag k="capacity" v="13" />
		<tag k="contact:email" v="oddbjorg.ese@luster.kommune.no" />
		<tag k="contact:phone" v="57685965" />
		<tag k="max_age" v="5" />
		<tag k="min_age" v="1" />
		<tag k="name" v="Jostedal Oppvekstsenter Avd Barnehage" />
		<tag k="no-barnehage:nsrid" v="1013908" />
		<tag k="operator" v="Luster kommune" />
		<tag k="operator:type" v="public" />
		<tag k="start_date" v="1989-01-01" />
	</node>
	<node id="-4410" lat="61.3821" lon="7.30343">
		<tag k="amenity" v="kindergarten" />
		<tag k="capacity" v="21" />
		<tag k="contact:email" v="heidi.karin.njos@luster.kommune.no" />
		<tag k="contact:phone" v="57685980" />
		<tag k="max_age" v="5" />
		<tag k="min_age" v="1" />
		<tag k="name" v="Indre Hafslo Oppvekstsenter Avd Barnehage" />
		<tag k="no-barnehage:nsrid" v="1013955" />
		<tag k="operator" v="Luster kommune" />
		<tag k="operator:type" v="public" />
		<tag k="start_date" v="1990-01-01" />
	</node>
	<node id="-4409" lat="61.3145" lon="7.20009">
		<tag k="amenity" v="kindergarten" />
		<tag k="capacity" v="41" />
		<tag k="contact:email" v="solveig.lokkebo@luster.kommune.no" />
		<tag k="contact:phone" v="57685835" />
		<tag k="max_age" v="5" />
		<tag k="min_age" v="1" />
		<tag k="name" v="Hafslo barnehage" />
		<tag k="no-barnehage:nsrid" v="1018152" />
		<tag k="operator" v="Luster kommune" />
		<tag k="operator:type" v="public" />
		<tag k="start_date" v="1989-01-01" />
	</node>
	<node id="-4408" lat="61.4083" lon="7.2856">
		<tag k="amenity" v="kindergarten" />
		<tag k="capacity" v="78" />
		<tag k="contact:email" v="gunnhild.holen@luster.kommune.no" />
		<tag k="contact:phone" v="57685785" />
		<tag k="max_age" v="5" />
		<tag k="min_age" v="1" />
		<tag k="name" v="Gaupne barnehage" />
		<tag k="no-barnehage:nsrid" v="1018151" />
		<tag k="operator" v="Luster kommune" />
		<tag k="operator:type" v="public" />
		<tag k="start_date" v="1989-01-01" />
	</node>
	<node id="-4407" lat="61.3153" lon="7.20096">
		<tag k="amenity" v="kindergarten" />
		<tag k="capacity" v="45" />
		<tag k="contact:email" v="rune.helle@luster.kommune.no" />
		<tag k="contact:phone" v="57685850" />
		<tag k="max_age" v="5" />
		<tag k="min_age" v="1" />
		<tag k="name" v="Gamlestova barnehage" />
		<tag k="no-barnehage:nsrid" v="1013907" />
		<tag k="operator" v="Luster kommune" />
		<tag k="operator:type" v="public" />
		<tag k="start_date" v="1989-01-01" />
	</node>
</osm>
