<?xml version="1.0" encoding="UTF-8"?>
<osm version="0.6" generator="osmapis">
	<node lat="58.87109" lon="5.72185" id="-861">
		<tag k="ADDRESS" v="Gamle Somavei 26, 4313 SANDNES" />
		<tag k="amenity" v="kindergarten" />
		<tag k="capacity" v="98" />
		<tag k="contact:website" v="http://www.aktiv-barnehage.no" />
		<tag k="max_age" v="5" />
		<tag k="min_age" v="1" />
		<tag k="name" v="Aktiv barnehage" />
		<tag k="no-barnehage:nsrid" v="973465724" />
		<tag k="operator" v="Aktive Foreldre SA" />
		<tag k="operator:type" v="private" />
	</node>
	<node lat="58.84424" lon="5.75891" id="-862">
		<tag k="ADDRESS" v="Øygardsveien 162, 4325 SANDNES" />
		<tag k="amenity" v="kindergarten" />
		<tag k="capacity" v="69" />
		<tag k="max_age" v="5" />
		<tag k="min_age" v="1" />
		<tag k="name" v="Austrått barnehage" />
		<tag k="no-barnehage:nsrid" v="974610981" />
		<tag k="operator" v="Sandnes kommune" />
		<tag k="operator:type" v="public" />
	</node>
	<node lat="58.82052" lon="5.74671" id="-863">
		<tag k="ADDRESS" v="Lyngholen 3, 4324 SANDNES" />
		<tag k="amenity" v="kindergarten" />
		<tag k="name" v="Bogafjell åpne barnehage" />
		<tag k="no-barnehage:nsrid" v="994875698" />
		<tag k="operator" v="Bogafjell Sokn" />
		<tag k="operator:type" v="private" />
	</node>
	<node lat="58.81981" lon="5.74794" id="-864">
		<tag k="ADDRESS" v="Lyngholen 2, 4324 SANDNES" />
		<tag k="amenity" v="kindergarten" />
		<tag k="capacity" v="75" />
		<tag k="contact:website" v="http://www.bogafjellbakken.no" />
		<tag k="max_age" v="5" />
		<tag k="min_age" v="1" />
		<tag k="name" v="Bogafjellbakken naturbarnehage" />
		<tag k="no-barnehage:nsrid" v="984811977" />
		<tag k="operator" v="Bogafjellbakken naturbarnehage SA" />
		<tag k="operator:type" v="private" />
	</node>
	<node lat="0.0" lon="0.0" id="-865">
		<tag k="ADDRESS" v="Samuel J. Sandvedsvei 2-4, 4319 SANDNES" />
		<tag k="amenity" v="kindergarten" />
		<tag k="capacity" v="162" />
		<tag k="contact:website" v="http://www.sandnes.kommune.no/bruelandbhg" />
		<tag k="max_age" v="5" />
		<tag k="min_age" v="1" />
		<tag k="name" v="Brueland barnehage" />
		<tag k="no-barnehage:nsrid" v="974611201" />
		<tag k="operator" v="Sandnes kommune" />
		<tag k="operator:type" v="public" />
	</node>
	<node lat="58.8166" lon="5.75373" id="-866">
		<tag k="ADDRESS" v="Buggelandsbakken 145, 4324 SANDNES" />
		<tag k="amenity" v="kindergarten" />
		<tag k="capacity" v="68" />
		<tag k="contact:website" v="http://www.buggeland-barnehage.no" />
		<tag k="max_age" v="5" />
		<tag k="min_age" v="1" />
		<tag k="name" v="Buggeland barnehage" />
		<tag k="no-barnehage:nsrid" v="887536902" />
		<tag k="operator" v="Buggeland barnehage SA" />
		<tag k="operator:type" v="private" />
	</node>
	<node lat="58.92351" lon="5.8373" id="-867">
		<tag k="ADDRESS" v="Kyrkjevollveien 19, 4310 HOMMERSÅK" />
		<tag k="amenity" v="kindergarten" />
		<tag k="capacity" v="60" />
		<tag k="contact:website" v="http://www.espira.no" />
		<tag k="max_age" v="5" />
		<tag k="min_age" v="1" />
		<tag k="name" v="Espira Eikenøtta naturbarnehage" />
		<tag k="no-barnehage:nsrid" v="988801593" />
		<tag k="operator" v="Espira Eikenøtta naturbarnehage AS" />
		<tag k="operator:type" v="private" />
	</node>
	<node lat="58.83223" lon="5.70692" id="-868">
		<tag k="ADDRESS" v="Krystallveien 2, 4321 SANDNES" />
		<tag k="amenity" v="kindergarten" />
		<tag k="capacity" v="129" />
		<tag k="contact:website" v="http://www.espira.no" />
		<tag k="max_age" v="5" />
		<tag k="min_age" v="1" />
		<tag k="name" v="Espira Krystallveien barnehage" />
		<tag k="no-barnehage:nsrid" v="992482273" />
		<tag k="operator" v="Espira Krystallveien AS" />
		<tag k="operator:type" v="private" />
	</node>
	<node lat="58.88793" lon="5.72532" id="-869">
		<tag k="ADDRESS" v="Midtbergmyrå 6, 4313 SANDNES" />
		<tag k="amenity" v="kindergarten" />
		<tag k="capacity" v="99" />
		<tag k="contact:website" v="http://www.espira.no" />
		<tag k="max_age" v="5" />
		<tag k="min_age" v="1" />
		<tag k="name" v="Espira Lura barnehage" />
		<tag k="no-barnehage:nsrid" v="973730215" />
		<tag k="operator" v="Espira Lura AS" />
		<tag k="operator:type" v="private" />
	</node>
	<node lat="58.87069" lon="5.76692" id="-870">
		<tag k="ADDRESS" v="Sandvikbakken 21, 4329 SANDNES" />
		<tag k="amenity" v="kindergarten" />
		<tag k="capacity" v="55" />
		<tag k="contact:website" v="http://www.sandtoppen.no" />
		<tag k="max_age" v="5" />
		<tag k="min_age" v="1" />
		<tag k="name" v="Espira Sandtoppen naturbarnehage" />
		<tag k="no-barnehage:nsrid" v="996908739" />
		<tag k="operator" v="Espira Sandtoppen naturbarnehage AS" />
		<tag k="operator:type" v="private" />
	</node>
	<node lat="58.87008" lon="5.76586" id="-871">
		<tag k="ADDRESS" v="Sandvikbakken 23, 4329 SANDNES" />
		<tag k="amenity" v="kindergarten" />
		<tag k="capacity" v="69" />
		<tag k="contact:website" v="http://www.espira.no" />
		<tag k="max_age" v="5" />
		<tag k="min_age" v="1" />
		<tag k="name" v="Espira Taremareby barnehage" />
		<tag k="no-barnehage:nsrid" v="974701480" />
		<tag k="operator" v="Espira Taremareby AS" />
		<tag k="operator:type" v="private" />
	</node>
	<node lat="58.81182" lon="5.73794" id="-872">
		<tag k="ADDRESS" v="Buggelandsbakken 276, 4324 SANDNES" />
		<tag k="amenity" v="kindergarten" />
		<tag k="capacity" v="102" />
		<tag k="contact:website" v="http://vagletjorn.espira.no/" />
		<tag k="max_age" v="5" />
		<tag k="min_age" v="1" />
		<tag k="name" v="Espira Vagletjørn barnehage" />
		<tag k="no-barnehage:nsrid" v="989875922" />
		<tag k="operator" v="Espira Vagletjørn AS" />
		<tag k="operator:type" v="private" />
	</node>
	<node lat="58.78395" lon="5.81413" id="-873">
		<tag k="ADDRESS" v="Utslåtten 2A, 4332 FIGGJO" />
		<tag k="amenity" v="kindergarten" />
		<tag k="capacity" v="103" />
		<tag k="contact:website" v="http://www.sandnes.kommune.no/barnehage-og-skole/barnehager-i-sandnes2/kommunale-barnehager/Sor-ost-barneha" />
		<tag k="max_age" v="5" />
		<tag k="min_age" v="1" />
		<tag k="name" v="Figgjo barnehage" />
		<tag k="no-barnehage:nsrid" v="973341200" />
		<tag k="operator" v="Sandnes kommune" />
		<tag k="operator:type" v="public" />
	</node>
	<node lat="58.78743" lon="5.81398" id="-874">
		<tag k="ADDRESS" v="Tjessheimveien 8, 4332 FIGGJO" />
		<tag k="amenity" v="kindergarten" />
		<tag k="capacity" v="26" />
		<tag k="contact:website" v="http://www.sandnes.kommune.no/barnehage-og-skole/barnehager-i-sandnes2/kommunale-barnehager/" />
		<tag k="max_age" v="5" />
		<tag k="min_age" v="1" />
		<tag k="name" v="Figgjoelva barnehage" />
		<tag k="no-barnehage:nsrid" v="890906362" />
		<tag k="operator" v="Sandnes kommune" />
		<tag k="operator:type" v="public" />
	</node>
	<node lat="58.90157" lon="6.10687" id="-875">
		<tag k="ADDRESS" v="Bergekrossen 1, 4110 FORSAND" />
		<tag k="amenity" v="kindergarten" />
		<tag k="capacity" v="43" />
		<tag k="max_age" v="5" />
		<tag k="min_age" v="1" />
		<tag k="name" v="Forsand barnehage" />
		<tag k="no-barnehage:nsrid" v="975308367" />
		<tag k="operator" v="Sandnes kommune" />
		<tag k="operator:type" v="public" />
	</node>
	<node lat="58.82008" lon="5.7162" id="-876">
		<tag k="ADDRESS" v="Kvålveien 11, 4323 SANDNES" />
		<tag k="amenity" v="kindergarten" />
		<tag k="capacity" v="66" />
		<tag k="max_age" v="5" />
		<tag k="min_age" v="1" />
		<tag k="name" v="Ganddal barnehage" />
		<tag k="no-barnehage:nsrid" v="874610992" />
		<tag k="operator" v="Sandnes kommune" />
		<tag k="operator:type" v="public" />
	</node>
	<node lat="58.84834" lon="5.74377" id="-877">
		<tag k="ADDRESS" v="Gravarstunet 2, 4327 SANDNES" />
		<tag k="amenity" v="kindergarten" />
		<tag k="capacity" v="46" />
		<tag k="max_age" v="5" />
		<tag k="min_age" v="1" />
		<tag k="name" v="Gravarslia barnehage" />
		<tag k="no-barnehage:nsrid" v="874611182" />
		<tag k="operator" v="Sandnes kommune" />
		<tag k="operator:type" v="public" />
	</node>
	<node lat="58.84996" lon="5.7065" id="-878">
		<tag k="ADDRESS" v="Foren 51, 4318 SANDNES" />
		<tag k="amenity" v="kindergarten" />
		<tag k="capacity" v="66" />
		<tag k="max_age" v="5" />
		<tag k="min_age" v="1" />
		<tag k="name" v="Hans og Grete barnehage" />
		<tag k="no-barnehage:nsrid" v="972286478" />
		<tag k="operator" v="Hans og Grete barnehage SA" />
		<tag k="operator:type" v="private" />
	</node>
	<node lat="58.92764" lon="5.84808" id="-879">
		<tag k="ADDRESS" v="Teineveien 2, 4310 HOMMERSÅK" />
		<tag k="amenity" v="kindergarten" />
		<tag k="capacity" v="52" />
		<tag k="max_age" v="5" />
		<tag k="min_age" v="1" />
		<tag k="name" v="Hommersåk barnehage" />
		<tag k="no-barnehage:nsrid" v="974610728" />
		<tag k="operator" v="Sandnes kommune" />
		<tag k="operator:type" v="public" />
	</node>
	<node lat="58.89622" lon="6.01422" id="-880">
		<tag k="ADDRESS" v="Apalstøveien 28, 4308 SANDNES" />
		<tag k="amenity" v="kindergarten" />
		<tag k="capacity" v="30" />
		<tag k="max_age" v="5" />
		<tag k="min_age" v="1" />
		<tag k="name" v="Høle barnehage" />
		<tag k="no-barnehage:nsrid" v="974611155" />
		<tag k="operator" v="Sandnes kommune" />
		<tag k="operator:type" v="public" />
	</node>
	<node lat="58.82469" lon="5.75179" id="-881">
		<tag k="ADDRESS" v="Håbafjellveien 45, 4325 SANDNES" />
		<tag k="amenity" v="kindergarten" />
		<tag k="capacity" v="70" />
		<tag k="contact:website" v="http://www.haabafjell-idrettsbarnehage.no" />
		<tag k="max_age" v="5" />
		<tag k="min_age" v="1" />
		<tag k="name" v="Håbafjell idrettsbarnehage" />
		<tag k="no-barnehage:nsrid" v="980525856" />
		<tag k="operator" v="Håbafjell idrettsbarnehage SA" />
		<tag k="operator:type" v="private" />
	</node>
	<node lat="58.82541" lon="5.75336" id="-882">
		<tag k="ADDRESS" v="Håbafjellveien 39, 4325 SANDNES" />
		<tag k="amenity" v="kindergarten" />
		<tag k="capacity" v="52" />
		<tag k="contact:website" v="http://fus.no/habet" />
		<tag k="max_age" v="5" />
		<tag k="min_age" v="1" />
		<tag k="name" v="Håbet FUS barnehage" />
		<tag k="no-barnehage:nsrid" v="972397873" />
		<tag k="operator" v="Håbet Fus friluftsbarnehage AS" />
		<tag k="operator:type" v="private" />
	</node>
	<node lat="58.87205" lon="5.7321" id="-883">
		<tag k="ADDRESS" v="Kobberveien 113, 4313 SANDNES" />
		<tag k="amenity" v="kindergarten" />
		<tag k="capacity" v="50" />
		<tag k="contact:website" v="http://www.haaholenbarnehage.no" />
		<tag k="max_age" v="5" />
		<tag k="min_age" v="1" />
		<tag k="name" v="Håholen barnehage" />
		<tag k="no-barnehage:nsrid" v="974798670" />
		<tag k="operator" v="Håholen barnehage" />
		<tag k="operator:type" v="private" />
	</node>
	<node lat="58.8438" lon="5.75672" id="-884">
		<tag k="ADDRESS" v="Øygardsveien 191, 4325 SANDNES" />
		<tag k="amenity" v="kindergarten" />
		<tag k="capacity" v="75" />
		<tag k="max_age" v="5" />
		<tag k="min_age" v="1" />
		<tag k="name" v="Iglemyr FUS barnehage" />
		<tag k="no-barnehage:nsrid" v="989305174" />
		<tag k="operator" v="Iglemyr Fus barnehage AS" />
		<tag k="operator:type" v="private" />
	</node>
	<node lat="58.85955" lon="5.72092" id="-885">
		<tag k="ADDRESS" v="Tulipanveien 13, 4316 SANDNES" />
		<tag k="amenity" v="kindergarten" />
		<tag k="capacity" v="94" />
		<tag k="max_age" v="5" />
		<tag k="min_age" v="1" />
		<tag k="name" v="Jønningheia barnehage" />
		<tag k="no-barnehage:nsrid" v="974611007" />
		<tag k="operator" v="Sandnes kommune" />
		<tag k="operator:type" v="public" />
	</node>
	<node lat="58.83304" lon="5.77009" id="-886">
		<tag k="ADDRESS" v="Kvernhusbakken 1, 4336 SANDNES" />
		<tag k="amenity" v="kindergarten" />
		<tag k="capacity" v="171" />
		<tag k="max_age" v="5" />
		<tag k="min_age" v="1" />
		<tag k="name" v="Kleivane barnehage" />
		<tag k="no-barnehage:nsrid" v="919361719" />
		<tag k="operator" v="Sandnes kommune" />
		<tag k="operator:type" v="public" />
	</node>
	<node lat="58.92776" lon="5.85494" id="-887">
		<tag k="ADDRESS" v="Amboltveien 2, 4311 HOMMERSÅK" />
		<tag k="amenity" v="kindergarten" />
		<tag k="name" v="Knøttene åpen barnehage" />
		<tag k="no-barnehage:nsrid" v="982451361" />
		<tag k="operator" v="Riska Sokn" />
		<tag k="operator:type" v="private" />
	</node>
	<node lat="58.81401" lon="5.74753" id="-888">
		<tag k="ADDRESS" v="Buggelandsbakken 209, 4324 SANDNES" />
		<tag k="amenity" v="kindergarten" />
		<tag k="capacity" v="80" />
		<tag k="max_age" v="5" />
		<tag k="min_age" v="1" />
		<tag k="name" v="Kreativ barnehage Bogafjell" />
		<tag k="no-barnehage:nsrid" v="885472672" />
		<tag k="operator" v="Kreativ barnehage Bogafjell AS" />
		<tag k="operator:type" v="private" />
	</node>
	<node lat="58.83239" lon="5.73095" id="-889">
		<tag k="ADDRESS" v="Hafrakveien 11, 4320 SANDNES" />
		<tag k="amenity" v="kindergarten" />
		<tag k="capacity" v="88" />
		<tag k="max_age" v="5" />
		<tag k="min_age" v="1" />
		<tag k="name" v="Kreativ barnehage Hove" />
		<tag k="no-barnehage:nsrid" v="916115881" />
		<tag k="operator" v="Kreativ barnehage Hove AS" />
		<tag k="operator:type" v="private" />
	</node>
	<node lat="58.85536" lon="5.73856" id="-890">
		<tag k="ADDRESS" v="Langgata 74, 4306 SANDNES" />
		<tag k="amenity" v="kindergarten" />
		<tag k="capacity" v="102" />
		<tag k="max_age" v="5" />
		<tag k="min_age" v="1" />
		<tag k="name" v="Langgata barnehage" />
		<tag k="no-barnehage:nsrid" v="917084319" />
		<tag k="operator" v="Sandnes kommune" />
		<tag k="operator:type" v="public" />
	</node>
	<node lat="58.92353" lon="5.84244" id="-891">
		<tag k="ADDRESS" v="Kalamyrveien 2, 4310 HOMMERSÅK" />
		<tag k="amenity" v="kindergarten" />
		<tag k="capacity" v="51" />
		<tag k="max_age" v="5" />
		<tag k="min_age" v="1" />
		<tag k="name" v="Lekeland barnehage" />
		<tag k="no-barnehage:nsrid" v="988726206" />
		<tag k="operator" v="Lekeland barnehage Hommersåk AS" />
		<tag k="operator:type" v="private" />
	</node>
	<node lat="58.8264" lon="5.72366" id="-892">
		<tag k="ADDRESS" v="Haugen 2, 4323 SANDNES" />
		<tag k="amenity" v="kindergarten" />
		<tag k="capacity" v="63" />
		<tag k="contact:website" v="http://www.lundegardbarnehage.no" />
		<tag k="max_age" v="5" />
		<tag k="min_age" v="1" />
		<tag k="name" v="Lundegård barnehage" />
		<tag k="no-barnehage:nsrid" v="873263792" />
		<tag k="operator" v="Lundegård barnehage SA" />
		<tag k="operator:type" v="private" />
	</node>
	<node lat="58.82009" lon="5.70584" id="-893">
		<tag k="ADDRESS" v="Akselhagen 2, 4322 SANDNES" />
		<tag k="amenity" v="kindergarten" />
		<tag k="capacity" v="74" />
		<tag k="max_age" v="5" />
		<tag k="min_age" v="1" />
		<tag k="name" v="Lundehagen FUS barnehage" />
		<tag k="no-barnehage:nsrid" v="889305142" />
		<tag k="operator" v="Lundehagen Fus barnehage AS" />
		<tag k="operator:type" v="private" />
	</node>
	<node lat="58.82424" lon="5.75879" id="-894">
		<tag k="ADDRESS" v="Brattebøveien 8, 4336 SANDNES" />
		<tag k="amenity" v="kindergarten" />
		<tag k="capacity" v="65" />
		<tag k="max_age" v="5" />
		<tag k="min_age" v="1" />
		<tag k="name" v="Læringsverkstedet Bratteborg barnehage" />
		<tag k="no-barnehage:nsrid" v="994234331" />
		<tag k="operator" v="Læringsverkstedet Bratteborg barnehage AS" />
		<tag k="operator:type" v="private" />
	</node>
	<node lat="58.83194" lon="5.6578" id="-895">
		<tag k="ADDRESS" v="Heigreveien 401, 4312 SANDNES" />
		<tag k="amenity" v="kindergarten" />
		<tag k="capacity" v="74" />
		<tag k="contact:website" v="http://www.laringsverkstedet.no/julebygda" />
		<tag k="max_age" v="5" />
		<tag k="min_age" v="1" />
		<tag k="name" v="Læringsverkstedet Julebygda barnehage" />
		<tag k="no-barnehage:nsrid" v="997813553" />
		<tag k="operator" v="Læringsverkstedet Julebygda barnehage AS" />
		<tag k="operator:type" v="private" />
	</node>
	<node lat="58.81241" lon="5.69343" id="-896">
		<tag k="ADDRESS" v="Skjævelandveien 20, 4322 SANDNES" />
		<tag k="amenity" v="kindergarten" />
		<tag k="capacity" v="73" />
		<tag k="max_age" v="5" />
		<tag k="min_age" v="1" />
		<tag k="name" v="Læringsverkstedet Osa gårdsbarnehage" />
		<tag k="no-barnehage:nsrid" v="990906955" />
		<tag k="operator" v="Læringsverkstedet Osa gårdsbarnehage AS" />
		<tag k="operator:type" v="private" />
	</node>
	<node lat="58.83572" lon="5.75638" id="-897">
		<tag k="ADDRESS" v="Svebastadveien 68, 4325 SANDNES" />
		<tag k="amenity" v="kindergarten" />
		<tag k="capacity" v="149" />
		<tag k="max_age" v="5" />
		<tag k="min_age" v="1" />
		<tag k="name" v="Læringsverkstedet Strutsen naturbarnehage" />
		<tag k="no-barnehage:nsrid" v="986119698" />
		<tag k="operator" v="Læringsverkstedet Strutsen naturbarnehage AS" />
		<tag k="operator:type" v="private" />
	</node>
	<node lat="58.85572" lon="5.77371" id="-898">
		<tag k="ADDRESS" v="Hanamyrveien 23, 4328 SANDNES" />
		<tag k="amenity" v="kindergarten" />
		<tag k="capacity" v="103" />
		<tag k="contact:website" v="http://laringsverkstedet.no/barnehage/vatnekrossen" />
		<tag k="max_age" v="5" />
		<tag k="min_age" v="1" />
		<tag k="name" v="Læringsverkstedet Vatnekrossen barnehage" />
		<tag k="no-barnehage:nsrid" v="889484772" />
		<tag k="operator" v="Læringsverkstedet Vatnekrossen barnehage AS" />
		<tag k="operator:type" v="private" />
	</node>
	<node lat="58.92016" lon="5.86195" id="-899">
		<tag k="ADDRESS" v="Maudlandsveien 61, 4311 HOMMERSÅK" />
		<tag k="amenity" v="kindergarten" />
		<tag k="capacity" v="126" />
		<tag k="max_age" v="5" />
		<tag k="min_age" v="1" />
		<tag k="name" v="Maudland FUS barnehage" />
		<tag k="no-barnehage:nsrid" v="976719883" />
		<tag k="operator" v="Maudland Fus barnehage AS" />
		<tag k="operator:type" v="private" />
	</node>
	<node lat="58.88482" lon="5.7345" id="-900">
		<tag k="ADDRESS" v="Smørbukkveien 11, 4314 SANDNES" />
		<tag k="amenity" v="kindergarten" />
		<tag k="capacity" v="58" />
		<tag k="contact:website" v="http://www.sandnes.kommune.no/barnehage-og-skole/barnehager-i-sandnes2/kommunale-barnehager/gandsfjord-barn" />
		<tag k="max_age" v="5" />
		<tag k="min_age" v="1" />
		<tag k="name" v="Myklaberget barnehage" />
		<tag k="no-barnehage:nsrid" v="973857606" />
		<tag k="operator" v="Sandnes kommune" />
		<tag k="operator:type" v="public" />
	</node>
	<node lat="58.87962" lon="5.73142" id="-901">
		<tag k="ADDRESS" v="Porsholen 2A, 4314 SANDNES" />
		<tag k="amenity" v="kindergarten" />
		<tag k="capacity" v="29" />
		<tag k="contact:website" v="http://www.myrsnipa.barnehage.no" />
		<tag k="max_age" v="5" />
		<tag k="min_age" v="1" />
		<tag k="name" v="Myrsnipa barnehage" />
		<tag k="no-barnehage:nsrid" v="974288028" />
		<tag k="operator" v="Porsholen 2 SA" />
		<tag k="operator:type" v="private" />
	</node>
	<node lat="58.87836" lon="5.72912" id="-902">
		<tag k="ADDRESS" v="Lindeveien 79, 4314 SANDNES" />
		<tag k="amenity" v="kindergarten" />
		<tag k="capacity" v="54" />
		<tag k="max_age" v="5" />
		<tag k="min_age" v="1" />
		<tag k="name" v="Nlm-barnehage Lube" />
		<tag k="no-barnehage:nsrid" v="991581189" />
		<tag k="operator" v="Nlm-Barnehage Lube AS" />
		<tag k="operator:type" v="private" />
	</node>
	<node lat="58.86253" lon="5.71922" id="-903">
		<tag k="ADDRESS" v="Kjærholen 1, 4316 SANDNES" />
		<tag k="amenity" v="kindergarten" />
		<tag k="capacity" v="77" />
		<tag k="max_age" v="5" />
		<tag k="min_age" v="1" />
		<tag k="name" v="Ormaskogen barnehage" />
		<tag k="no-barnehage:nsrid" v="985669864" />
		<tag k="operator" v="Ormaskogen barnehage SA" />
		<tag k="operator:type" v="private" />
	</node>
	<node lat="58.8815" lon="5.7365" id="-904">
		<tag k="ADDRESS" v="Porsmyrveien 35, 4314 SANDNES" />
		<tag k="amenity" v="kindergarten" />
		<tag k="capacity" v="77" />
		<tag k="max_age" v="5" />
		<tag k="min_age" v="1" />
		<tag k="name" v="Porsholen barnehage" />
		<tag k="no-barnehage:nsrid" v="974611104" />
		<tag k="operator" v="Sandnes kommune" />
		<tag k="operator:type" v="public" />
	</node>
	<node lat="58.87945" lon="5.72758" id="-905">
		<tag k="ADDRESS" v="Porsmyrveien 7, 4314 SANDNES" />
		<tag k="amenity" v="kindergarten" />
		<tag k="capacity" v="33" />
		<tag k="max_age" v="5" />
		<tag k="min_age" v="1" />
		<tag k="name" v="Rabalder barnehage" />
		<tag k="no-barnehage:nsrid" v="973484656" />
		<tag k="operator" v="Sandnes kommune" />
		<tag k="operator:type" v="public" />
	</node>
	<node lat="58.92337" lon="5.84748" id="-906">
		<tag k="ADDRESS" v="Kydnaveien 33, 4310 HOMMERSÅK" />
		<tag k="amenity" v="kindergarten" />
		<tag k="capacity" v="49" />
		<tag k="max_age" v="5" />
		<tag k="min_age" v="1" />
		<tag k="name" v="Riska barnehage" />
		<tag k="no-barnehage:nsrid" v="974611015" />
		<tag k="operator" v="Sandnes kommune" />
		<tag k="operator:type" v="public" />
	</node>
	<node lat="58.88364" lon="5.74668" id="-907">
		<tag k="ADDRESS" v="Sjøveien 9, 4315 SANDNES" />
		<tag k="amenity" v="kindergarten" />
		<tag k="capacity" v="59" />
		<tag k="max_age" v="5" />
		<tag k="min_age" v="1" />
		<tag k="name" v="Rissebærstraen barnehage" />
		<tag k="no-barnehage:nsrid" v="979450133" />
		<tag k="operator" v="Sandnes kommune" />
		<tag k="operator:type" v="public" />
	</node>
	<node lat="58.804" lon="5.72645" id="-908">
		<tag k="ADDRESS" v="Røyrvikveien 1, 4323 SANDNES" />
		<tag k="amenity" v="kindergarten" />
		<tag k="capacity" v="58" />
		<tag k="contact:website" v="http://royrvik-gard.no" />
		<tag k="max_age" v="5" />
		<tag k="min_age" v="1" />
		<tag k="name" v="Røyrvik gårdsbarnehage" />
		<tag k="no-barnehage:nsrid" v="891521332" />
		<tag k="operator" v="Røyrvik gårdsbarnehage AS" />
		<tag k="operator:type" v="private" />
	</node>
	<node lat="58.83977" lon="5.71451" id="-909">
		<tag k="ADDRESS" v="Juvelveien 6, 4318 SANDNES" />
		<tag k="amenity" v="kindergarten" />
		<tag k="capacity" v="64" />
		<tag k="contact:website" v="http://www.sandnes.kommune.no/barnehager/sandved/" />
		<tag k="max_age" v="5" />
		<tag k="min_age" v="1" />
		<tag k="name" v="Sandved barnehage" />
		<tag k="no-barnehage:nsrid" v="974611023" />
		<tag k="operator" v="Sandnes kommune" />
		<tag k="operator:type" v="public" />
	</node>
	<node lat="58.84164" lon="5.71694" id="-910">
		<tag k="ADDRESS" v="Gamle Asheimvei 15, 4318 SANDNES" />
		<tag k="amenity" v="kindergarten" />
		<tag k="capacity" v="252" />
		<tag k="max_age" v="5" />
		<tag k="min_age" v="1" />
		<tag k="name" v="Sandvedhaugen barnehage" />
		<tag k="no-barnehage:nsrid" v="993003301" />
		<tag k="operator" v="Sandnes kommune" />
		<tag k="operator:type" v="public" />
	</node>
	<node lat="58.84196" lon="5.77251" id="-911">
		<tag k="ADDRESS" v="Skaret terrasse 1, 4326 SANDNES" />
		<tag k="amenity" v="kindergarten" />
		<tag k="capacity" v="54" />
		<tag k="max_age" v="5" />
		<tag k="min_age" v="1" />
		<tag k="name" v="Skaarlia barnehage" />
		<tag k="no-barnehage:nsrid" v="983492673" />
		<tag k="operator" v="Skaarlia barnehage SA" />
		<tag k="operator:type" v="private" />
	</node>
	<node lat="58.86302" lon="5.72162" id="-912">
		<tag k="ADDRESS" v="Kjærholen 3, 4316 SANDNES" />
		<tag k="amenity" v="kindergarten" />
		<tag k="capacity" v="71" />
		<tag k="contact:website" v="http://www.sandnes.kommune.no/barnehage-og-skole/barnehager-i-sandnes/kommunale-barnehager/smeaheia-barneha" />
		<tag k="max_age" v="5" />
		<tag k="min_age" v="1" />
		<tag k="name" v="Smeaheia barnehage" />
		<tag k="no-barnehage:nsrid" v="983639534" />
		<tag k="operator" v="Sandnes kommune" />
		<tag k="operator:type" v="public" />
	</node>
	<node lat="58.86741" lon="5.69603" id="-913">
		<tag k="ADDRESS" v="Sandnesveien 246, 4312 SANDNES" />
		<tag k="amenity" v="kindergarten" />
		<tag k="capacity" v="19" />
		<tag k="contact:website" v="http://www.somagard-bhg.no" />
		<tag k="max_age" v="5" />
		<tag k="min_age" v="3" />
		<tag k="name" v="Soma gård naturbarnehage" />
		<tag k="no-barnehage:nsrid" v="983093167" />
		<tag k="operator" v="Herredsvela private barnehage" />
		<tag k="operator:type" v="private" />
	</node>
	<node lat="0.0" lon="0.0" id="-914">
		<tag k="ADDRESS" v="Agneveien 1, 4319 SANDNES" />
		<tag k="amenity" v="kindergarten" />
		<tag k="capacity" v="61" />
		<tag k="max_age" v="5" />
		<tag k="min_age" v="1" />
		<tag k="name" v="Stangeland barnehage" />
		<tag k="no-barnehage:nsrid" v="974611031" />
		<tag k="operator" v="Sandnes kommune" />
		<tag k="operator:type" v="public" />
	</node>
	<node lat="58.84685" lon="5.70922" id="-915">
		<tag k="ADDRESS" v="Grovene 2, 4318 SANDNES" />
		<tag k="amenity" v="kindergarten" />
		<tag k="capacity" v="61" />
		<tag k="max_age" v="5" />
		<tag k="min_age" v="1" />
		<tag k="name" v="Stangelandsforen barnehage" />
		<tag k="no-barnehage:nsrid" v="980760618" />
		<tag k="operator" v="Sandnes kommune" />
		<tag k="operator:type" v="public" />
	</node>
	<node lat="58.89014" lon="5.70915" id="-916">
		<tag k="ADDRESS" v="Svanholmen 8, 4313 SANDNES" />
		<tag k="amenity" v="kindergarten" />
		<tag k="capacity" v="89" />
		<tag k="max_age" v="5" />
		<tag k="min_age" v="1" />
		<tag k="name" v="Svanholmen Kanvas-barnehage" />
		<tag k="no-barnehage:nsrid" v="973861905" />
		<tag k="operator" v="Stiftelsen Kanvas" />
		<tag k="operator:type" v="private" />
	</node>
	<node lat="58.8265" lon="5.82079" id="-917">
		<tag k="ADDRESS" v="Svilandveien 215, 4337 SANDNES" />
		<tag k="amenity" v="kindergarten" />
		<tag k="capacity" v="55" />
		<tag k="max_age" v="5" />
		<tag k="min_age" v="1" />
		<tag k="name" v="Sviland FUS barnehage" />
		<tag k="no-barnehage:nsrid" v="992098899" />
		<tag k="operator" v="Sviland Fus barnehage AS" />
		<tag k="operator:type" v="private" />
	</node>
	<node lat="58.82673" lon="5.7319" id="-918">
		<tag k="ADDRESS" v="Sørbøveien 59, 4320 SANDNES" />
		<tag k="amenity" v="kindergarten" />
		<tag k="capacity" v="92" />
		<tag k="contact:website" v="http://www.sandnes.kommune.no/sti/barn-unge-og-familie/barnehage/barnehager-i-sandnes/kommunale-barnehager/" />
		<tag k="max_age" v="5" />
		<tag k="min_age" v="1" />
		<tag k="name" v="Sørbø barnehage" />
		<tag k="no-barnehage:nsrid" v="913825721" />
		<tag k="operator" v="Sandnes kommune" />
		<tag k="operator:type" v="public" />
	</node>
	<node lat="58.82876" lon="5.73108" id="-919">
		<tag k="ADDRESS" v="Harahaugane 2, 4320 SANDNES" />
		<tag k="amenity" v="kindergarten" />
		<tag k="capacity" v="86" />
		<tag k="contact:website" v="http://www.sandnes.kommune.no/sti/barn-unge-og-familie/barnehage/barnehager-i-sandnes/kommunale-barnehager/" />
		<tag k="max_age" v="5" />
		<tag k="min_age" v="1" />
		<tag k="name" v="Sørbø barnehage Nord" />
		<tag k="no-barnehage:nsrid" v="920019242" />
		<tag k="operator" v="Sandnes kommune" />
		<tag k="operator:type" v="public" />
	</node>
	<node lat="58.86409" lon="5.75776" id="-920">
		<tag k="ADDRESS" v="Åsveien 124, 4328 SANDNES" />
		<tag k="amenity" v="kindergarten" />
		<tag k="name" v="Tripp Trapp åpen barnehage" />
		<tag k="no-barnehage:nsrid" v="975266842" />
		<tag k="operator" v="Hana Sokn" />
		<tag k="operator:type" v="private" />
	</node>
	<node lat="58.92524" lon="5.84279" id="-921">
		<tag k="ADDRESS" v="Urskjellveien 2, 4310 HOMMERSÅK" />
		<tag k="amenity" v="kindergarten" />
		<tag k="capacity" v="60" />
		<tag k="contact:website" v="http://www.trollhaugen-barnehage.no" />
		<tag k="max_age" v="5" />
		<tag k="min_age" v="1" />
		<tag k="name" v="Trollhaugen foreldrelagsbarnehage" />
		<tag k="no-barnehage:nsrid" v="986434283" />
		<tag k="operator" v="Trollhaugen foreldrelagsbarnehage SA" />
		<tag k="operator:type" v="private" />
	</node>
	<node lat="58.85564" lon="5.73231" id="-922">
		<tag k="ADDRESS" v="Postveien 63, 4307 SANDNES" />
		<tag k="amenity" v="kindergarten" />
		<tag k="capacity" v="51" />
		<tag k="max_age" v="5" />
		<tag k="min_age" v="1" />
		<tag k="name" v="Trones barnehage" />
		<tag k="no-barnehage:nsrid" v="973857576" />
		<tag k="operator" v="Sandnes kommune" />
		<tag k="operator:type" v="public" />
	</node>
	<node lat="58.81752" lon="5.74373" id="-923">
		<tag k="ADDRESS" v="Bogafjellbakken 90, 4324 SANDNES" />
		<tag k="amenity" v="kindergarten" />
		<tag k="capacity" v="69" />
		<tag k="max_age" v="5" />
		<tag k="min_age" v="1" />
		<tag k="name" v="Utsikten Vest FUS barnehage" />
		<tag k="no-barnehage:nsrid" v="987850027" />
		<tag k="operator" v="Utsikten Vest Fus barnehage AS" />
		<tag k="operator:type" v="private" />
	</node>
	<node lat="58.86516" lon="5.735" id="-924">
		<tag k="ADDRESS" v="Postveien 136, 4317 SANDNES" />
		<tag k="amenity" v="kindergarten" />
		<tag k="capacity" v="115" />
		<tag k="max_age" v="5" />
		<tag k="min_age" v="1" />
		<tag k="name" v="Varatun barnehage" />
		<tag k="no-barnehage:nsrid" v="874611042" />
		<tag k="operator" v="Sandnes kommune" />
		<tag k="operator:type" v="public" />
	</node>
	<node lat="0.0" lon="0.0" id="-925">
		<tag k="ADDRESS" v="Varatunhagen 54, 4317 SANDNES" />
		<tag k="amenity" v="kindergarten" />
		<tag k="capacity" v="108" />
		<tag k="max_age" v="5" />
		<tag k="min_age" v="1" />
		<tag k="name" v="Varatun barnehage Varatunhagen" />
		<tag k="no-barnehage:nsrid" v="920019293" />
		<tag k="operator" v="Sandnes kommune" />
		<tag k="operator:type" v="public" />
	</node>
	<node lat="58.86352" lon="5.79016" id="-926">
		<tag k="ADDRESS" v="Skytebaneveien 15, 4309 SANDNES" />
		<tag k="amenity" v="kindergarten" />
		<tag k="capacity" v="32" />
		<tag k="max_age" v="5" />
		<tag k="min_age" v="1" />
		<tag k="name" v="Vatne barnehage" />
		<tag k="no-barnehage:nsrid" v="974611058" />
		<tag k="operator" v="Sandnes kommune" />
		<tag k="operator:type" v="public" />
	</node>
	<node lat="58.85378" lon="5.76811" id="-927">
		<tag k="ADDRESS" v="Øygardsveien 21, 4327 SANDNES" />
		<tag k="amenity" v="kindergarten" />
		<tag k="capacity" v="113" />
		<tag k="max_age" v="5" />
		<tag k="min_age" v="1" />
		<tag k="name" v="Øygard barnehage" />
		<tag k="no-barnehage:nsrid" v="984937253" />
		<tag k="operator" v="Sandnes kommune" />
		<tag k="operator:type" v="public" />
	</node>
</osm>
