<?xml version="1.0" encoding="UTF-8"?>
<osm version="0.6" generator="osmapis">
	<node lat="59.56023" lon="9.26134" id="-3532">
		<tag k="ADDRESS" v="Hydros gate 9, 3674 NOTODDEN" />
		<tag k="amenity" v="kindergarten" />
		<tag k="capacity" v="25" />
		<tag k="max_age" v="5" />
		<tag k="min_age" v="1" />
		<tag k="name" v="Betania barnehage" />
		<tag k="no-barnehage:nsrid" v="911724782" />
		<tag k="operator" v="Betania barnehage AS" />
		<tag k="operator:type" v="private" />
	</node>
	<node lat="59.57698" lon="9.18518" id="-3533">
		<tag k="ADDRESS" v="Heddalsvegen 350, 3676 NOTODDEN" />
		<tag k="amenity" v="kindergarten" />
		<tag k="capacity" v="23" />
		<tag k="contact:website" v="http://www.betesda.barnehage.no" />
		<tag k="max_age" v="5" />
		<tag k="min_age" v="1" />
		<tag k="name" v="Betesda barnehage" />
		<tag k="no-barnehage:nsrid" v="874890952" />
		<tag k="operator" v="Betesda barnehage" />
		<tag k="operator:type" v="private" />
	</node>
	<node lat="59.69298" lon="9.02693" id="-3534">
		<tag k="ADDRESS" v="Lerkelunden 26, 3691 GRANSHERAD" />
		<tag k="amenity" v="kindergarten" />
		<tag k="capacity" v="32" />
		<tag k="max_age" v="5" />
		<tag k="min_age" v="1" />
		<tag k="name" v="Gransherad barnehage" />
		<tag k="no-barnehage:nsrid" v="975307085" />
		<tag k="operator" v="Notodden kommune" />
		<tag k="operator:type" v="public" />
	</node>
	<node lat="0.0" lon="0.0" id="-3535">
		<tag k="ADDRESS" v="Ola Storengs Veg 2 A, 3684 NOTODDEN" />
		<tag k="amenity" v="kindergarten" />
		<tag k="capacity" v="51" />
		<tag k="max_age" v="5" />
		<tag k="min_age" v="1" />
		<tag k="name" v="Idea barnehage Notodden" />
		<tag k="no-barnehage:nsrid" v="975856011" />
		<tag k="operator" v="Idea barnehage Notodden AS" />
		<tag k="operator:type" v="private" />
	</node>
	<node lat="59.55973" lon="9.27029" id="-3536">
		<tag k="ADDRESS" v="Kattekleiv 6, 3683 NOTODDEN" />
		<tag k="amenity" v="kindergarten" />
		<tag k="capacity" v="28" />
		<tag k="contact:website" v="http://www.kattkleiv.no" />
		<tag k="max_age" v="5" />
		<tag k="min_age" v="1" />
		<tag k="name" v="Kattekleiv barnehage" />
		<tag k="no-barnehage:nsrid" v="973716492" />
		<tag k="operator" v="Kattekleiv barnehage AS" />
		<tag k="operator:type" v="private" />
	</node>
	<node lat="59.57226" lon="9.25901" id="-3537">
		<tag k="ADDRESS" v="Langkåsveien 16, 3675 NOTODDEN" />
		<tag k="amenity" v="kindergarten" />
		<tag k="capacity" v="54" />
		<tag k="max_age" v="5" />
		<tag k="min_age" v="1" />
		<tag k="name" v="Lysbuen barnehage" />
		<tag k="no-barnehage:nsrid" v="972239968" />
		<tag k="operator" v="Notodden kommune" />
		<tag k="operator:type" v="public" />
	</node>
	<node lat="59.50849" lon="9.3331" id="-3538">
		<tag k="ADDRESS" v="Breisetvegen 46, 3683 NOTODDEN" />
		<tag k="amenity" v="kindergarten" />
		<tag k="capacity" v="15" />
		<tag k="max_age" v="5" />
		<tag k="min_age" v="1" />
		<tag k="name" v="Læringsverkstedet Hjuksebø naturbarnehage" />
		<tag k="no-barnehage:nsrid" v="875323172" />
		<tag k="operator" v="Læringsverkstedet Hjuksebø naturbarnehage AS" />
		<tag k="operator:type" v="private" />
	</node>
	<node lat="59.56259" lon="9.25625" id="-3539">
		<tag k="ADDRESS" v="Huvestads gate 6, 3675 NOTODDEN" />
		<tag k="amenity" v="kindergarten" />
		<tag k="capacity" v="86" />
		<tag k="max_age" v="5" />
		<tag k="min_age" v="1" />
		<tag k="name" v="Preg barnehager Tinnesmoen" />
		<tag k="no-barnehage:nsrid" v="974156261" />
		<tag k="operator" v="Nlm-Barnehage Tinnesmoen AS" />
		<tag k="operator:type" v="private" />
	</node>
	<node lat="59.58154" lon="9.17029" id="-3540">
		<tag k="ADDRESS" v="Heddalsvegen 447, 3676 NOTODDEN" />
		<tag k="amenity" v="kindergarten" />
		<tag k="capacity" v="59" />
		<tag k="max_age" v="5" />
		<tag k="min_age" v="1" />
		<tag k="name" v="Rygi barnehage" />
		<tag k="no-barnehage:nsrid" v="975325083" />
		<tag k="operator" v="Notodden kommune" />
		<tag k="operator:type" v="public" />
	</node>
	<node lat="0.0" lon="0.0" id="-3541">
		<tag k="ADDRESS" v="Storg 63-65, 3674 NOTODDEN" />
		<tag k="amenity" v="kindergarten" />
		<tag k="name" v="Sentrumskolen åpen barnehage" />
		<tag k="no-barnehage:nsrid" v="987744502" />
		<tag k="operator" v="Notodden kommune" />
		<tag k="operator:type" v="public" />
	</node>
	<node lat="59.56679" lon="9.27401" id="-3542">
		<tag k="ADDRESS" v="Nordahl Griegs gate 6, 3679 NOTODDEN" />
		<tag k="amenity" v="kindergarten" />
		<tag k="capacity" v="39" />
		<tag k="contact:website" v="http://www.kattekleiv.no" />
		<tag k="max_age" v="5" />
		<tag k="min_age" v="1" />
		<tag k="name" v="Sætrebo barnehage" />
		<tag k="no-barnehage:nsrid" v="991418784" />
		<tag k="operator" v="Sætrebo barnehage AS" />
		<tag k="operator:type" v="private" />
	</node>
	<node lat="59.56918" lon="9.28291" id="-3543">
		<tag k="ADDRESS" v="Meheiavegen 70, 3679 NOTODDEN" />
		<tag k="amenity" v="kindergarten" />
		<tag k="capacity" v="24" />
		<tag k="max_age" v="5" />
		<tag k="min_age" v="1" />
		<tag k="name" v="Sætreåsen barnehage" />
		<tag k="no-barnehage:nsrid" v="975849236" />
		<tag k="operator" v="Notodden kommune" />
		<tag k="operator:type" v="public" />
	</node>
	<node lat="59.56327" lon="9.27563" id="-3544">
		<tag k="ADDRESS" v="Hvålagata 4, 3681 NOTODDEN" />
		<tag k="amenity" v="kindergarten" />
		<tag k="capacity" v="48" />
		<tag k="max_age" v="5" />
		<tag k="min_age" v="1" />
		<tag k="name" v="Toppen barnehage" />
		<tag k="no-barnehage:nsrid" v="975307123" />
		<tag k="operator" v="Notodden kommune" />
		<tag k="operator:type" v="public" />
	</node>
	<node lat="59.55928" lon="9.26271" id="-3545">
		<tag k="ADDRESS" v="Orekåsgate 1, 3674 NOTODDEN" />
		<tag k="amenity" v="kindergarten" />
		<tag k="capacity" v="43" />
		<tag k="contact:website" v="http://www.kattekleiv.no" />
		<tag k="max_age" v="5" />
		<tag k="min_age" v="1" />
		<tag k="name" v="Villamoen barnehage" />
		<tag k="no-barnehage:nsrid" v="973489259" />
		<tag k="operator" v="Villamoen barnehage AS" />
		<tag k="operator:type" v="private" />
	</node>
	<node lat="59.56142" lon="9.19314" id="-3546">
		<tag k="ADDRESS" v="Reshjemvegen 155, 3677 NOTODDEN" />
		<tag k="amenity" v="kindergarten" />
		<tag k="capacity" v="43" />
		<tag k="contact:website" v="http://www.kattekleiv.no" />
		<tag k="max_age" v="5" />
		<tag k="min_age" v="1" />
		<tag k="name" v="Yli barnehage" />
		<tag k="no-barnehage:nsrid" v="986618066" />
		<tag k="operator" v="Yli barnehage AS" />
		<tag k="operator:type" v="private" />
	</node>
</osm>
