<?xml version="1.0" encoding="UTF-8"?>
<osm generator="osmapis" version="0.6">
	<node id="-2975" lat="58.3447" lon="8.594867">
		<tag k="amenity" v="kindergarten" />
		<tag k="capacity" v="10" />
		<tag k="contact:email" v="WENCHE@AGDER.COM" />
		<tag k="contact:phone" v="+47 37 04 85 59" />
		<tag k="max_age" v="5" />
		<tag k="min_age" v="1" />
		<tag k="name" v="Tøra Familiebarnehage V/ingunn Steine" />
		<tag k="no-barnehage:nsrid" v="1020850" />
		<tag k="operator" v="Tøra Familiebarnehage V/ingunn Steine" />
		<tag k="operator:type" v="private" />
		<tag k="start_date" v="2002-10-01" />
	</node>
	<node id="-2969" lat="58.37844" lon="8.683472">
		<tag k="amenity" v="kindergarten" />
		<tag k="capacity" v="11" />
		<tag k="contact:email" v="Skippergadafam@gmail.com" />
		<tag k="contact:phone" v="+47 37044327" />
		<tag k="max_age" v="5" />
		<tag k="min_age" v="1" />
		<tag k="name" v="Skippergada Familiebarnehage" />
		<tag k="no-barnehage:nsrid" v="1020657" />
		<tag k="operator" v="Ellen Rosita Salvesen Skippergada Fam barnehage" />
		<tag k="operator:type" v="private" />
		<tag k="start_date" v="2007-01-01" />
	</node>
	<node id="-2964" lat="58.39028" lon="8.63181">
		<tag k="amenity" v="kindergarten" />
		<tag k="capacity" v="9" />
		<tag k="contact:email" v="wenche@agder.com" />
		<tag k="contact:phone" v="+47 37 04 78 93" />
		<tag k="max_age" v="5" />
		<tag k="min_age" v="1" />
		<tag k="name" v="Nyhaven Familiebarnehage" />
		<tag k="no-barnehage:nsrid" v="1021985" />
		<tag k="operator" v="Nyhaven Familiebarnehage Hauge" />
		<tag k="operator:type" v="private" />
		<tag k="start_date" v="2005-03-03" />
	</node>
	<node id="-2963" lat="58.34127" lon="8.580065">
		<tag k="amenity" v="kindergarten" />
		<tag k="capacity" v="5" />
		<tag k="contact:email" v="elin.grom-hauge@getmail.no" />
		<tag k="max_age" v="5" />
		<tag k="min_age" v="1" />
		<tag k="name" v="Maurtua Familiebarnehage" />
		<tag k="no-barnehage:nsrid" v="1020981" />
		<tag k="operator" v="Maurtua Familiebarnehage Grøm-Hauge" />
		<tag k="operator:type" v="private" />
		<tag k="start_date" v="2005-01-01" />
	</node>
	<node id="-2962" lat="58.34251" lon="8.579634">
		<tag k="amenity" v="kindergarten" />
		<tag k="capacity" v="5" />
		<tag k="contact:email" v="arne.o.mellem@hotmail.no" />
		<tag k="max_age" v="5" />
		<tag k="min_age" v="3" />
		<tag k="name" v="Maurtua Familiebarnehage" />
		<tag k="no-barnehage:nsrid" v="1020980" />
		<tag k="operator" v="Maurtua Familiebarnehage Avdeling Grømheia Elin Wold" />
		<tag k="operator:type" v="private" />
		<tag k="start_date" v="2009-01-01" />
	</node>
	<node id="-2953" lat="58.37269" lon="8.663142">
		<tag k="amenity" v="kindergarten" />
		<tag k="capacity" v="4" />
		<tag k="contact:email" v="fraggelberget.familiebarnehage@hotmail.com" />
		<tag k="contact:phone" v="+47 94888778" />
		<tag k="max_age" v="2" />
		<tag k="min_age" v="1" />
		<tag k="name" v="Fraggelberget Familiebarnehage Jannie Jensen" />
		<tag k="no-barnehage:nsrid" v="1021483" />
		<tag k="operator" v="Fraggelberget Familiebarnehage Jannie Jensen" />
		<tag k="operator:type" v="private" />
		<tag k="start_date" v="2006-08-21" />
	</node>
	<node id="-2948" lat="58.33531" lon="8.530576">
		<tag k="amenity" v="kindergarten" />
		<tag k="capacity" v="4" />
		<tag k="contact:email" v="torvaasenfamiliebarnehage@live.no" />
		<tag k="contact:phone" v="+47 95176240" />
		<tag k="max_age" v="5" />
		<tag k="min_age" v="3" />
		<tag k="name" v="Bringsverd Bygg" />
		<tag k="no-barnehage:nsrid" v="1022260" />
		<tag k="operator" v="Torvåsen Familiebarnehage Bringsverd" />
		<tag k="operator:type" v="private" />
		<tag k="start_date" v="2012-04-11" />
	</node>
</osm>
