<?xml version="1.0" encoding="UTF-8"?>
<osm generator="osmapis" version="0.6">
	<node id="-2792" lat="58.3188" lon="8.56204">
		<tag k="amenity" v="kindergarten" />
		<tag k="capacity" v="47" />
		<tag k="contact:email" v="post@grimstad.kirken.no" />
		<tag k="contact:phone" v="+47 000043740" />
		<tag k="max_age" v="5" />
		<tag k="min_age" v="1" />
		<tag k="name" v="Østerhus barnehage" />
		<tag k="no-barnehage:nsrid" v="1015577" />
		<tag k="operator" v="Grimstad Kirkelige Fellesråd" />
		<tag k="operator:type" v="private" />
		<tag k="start_date" v="1989-01-02" />
	</node>
	<node id="-2791" lat="58.3651" lon="8.61355">
		<tag k="amenity" v="kindergarten" />
		<tag k="capacity" v="25" />
		<tag k="contact:email" v="sveinhelge@firearstider.no" />
		<tag k="max_age" v="5" />
		<tag k="min_age" v="1" />
		<tag k="name" v="Vikkilen barnehage AS" />
		<tag k="no-barnehage:nsrid" v="1015145" />
		<tag k="operator" v="Vikkilen barnehage AS" />
		<tag k="operator:type" v="private" />
		<tag k="start_date" v="2012-04-12" />
	</node>
	<node id="-2789" lat="58.3379" lon="8.57294">
		<tag k="amenity" v="kindergarten" />
		<tag k="capacity" v="64" />
		<tag k="contact:email" v="heidi.lunden@grimstad.kommune.no" />
		<tag k="contact:phone" v="+47 37 29 62 66" />
		<tag k="max_age" v="5" />
		<tag k="min_age" v="1" />
		<tag k="name" v="Tønnevoldskogen barnehage" />
		<tag k="no-barnehage:nsrid" v="1012633" />
		<tag k="operator" v="Grimstad kommune" />
		<tag k="operator:type" v="public" />
		<tag k="start_date" v="1989-01-01" />
	</node>
	<node id="-2788" lat="58.3782" lon="8.676021">
		<tag k="amenity" v="kindergarten" />
		<tag k="capacity" v="37" />
		<tag k="contact:email" v="vidar.lj@online.no" />
		<tag k="contact:phone" v="+47 37 09 12 50" />
		<tag k="max_age" v="5" />
		<tag k="min_age" v="1" />
		<tag k="name" v="Tykkåsen barnehage AS" />
		<tag k="no-barnehage:nsrid" v="1020964" />
		<tag k="operator" v="Tykkåsen barnehage AS" />
		<tag k="operator:type" v="private" />
		<tag k="start_date" v="2003-09-01" />
	</node>
	<node id="-2787" lat="58.37587" lon="8.632326">
		<tag k="amenity" v="kindergarten" />
		<tag k="capacity" v="53" />
		<tag k="contact:email" v="temseveien@barnehage.no" />
		<tag k="max_age" v="5" />
		<tag k="min_age" v="1" />
		<tag k="name" v="Temseveien barnehage AS" />
		<tag k="no-barnehage:nsrid" v="1021435" />
		<tag k="operator" v="Temseveien barnehage AS" />
		<tag k="operator:type" v="private" />
		<tag k="start_date" v="2006-02-01" />
	</node>
	<node id="-2786" lat="58.3434" lon="8.58924">
		<tag k="amenity" v="kindergarten" />
		<tag k="capacity" v="39" />
		<tag k="contact:email" v="anne.gurine.hegnar@grimstad.kommune.no" />
		<tag k="max_age" v="5" />
		<tag k="min_age" v="1" />
		<tag k="name" v="Storgaten barnehage" />
		<tag k="no-barnehage:nsrid" v="1012634" />
		<tag k="operator" v="Grimstad kommune" />
		<tag k="operator:type" v="public" />
		<tag k="start_date" v="1989-01-01" />
	</node>
	<node id="-2785" lat="58.37491" lon="8.679114">
		<tag k="amenity" v="kindergarten" />
		<tag k="capacity" v="27" />
		<tag k="contact:email" v="si-trond@online.no" />
		<tag k="contact:phone" v="+47 37 04 83 72" />
		<tag k="max_age" v="5" />
		<tag k="min_age" v="1" />
		<tag k="name" v="Solstrålen barnehage AS" />
		<tag k="no-barnehage:nsrid" v="1021185" />
		<tag k="operator" v="Solstrålen barnehage AS" />
		<tag k="operator:type" v="private" />
		<tag k="start_date" v="1994-08-01" />
	</node>
	<node id="-2783" lat="58.3502" lon="8.530514">
		<tag k="amenity" v="kindergarten" />
		<tag k="capacity" v="24" />
		<tag k="contact:email" v="resvikbhg@outlook.com" />
		<tag k="contact:phone" v="+47 37041025" />
		<tag k="max_age" v="5" />
		<tag k="min_age" v="1" />
		<tag k="name" v="Resvik barnehage" />
		<tag k="no-barnehage:nsrid" v="1019723" />
		<tag k="operator" v="Resvik Bedehus" />
		<tag k="operator:type" v="private" />
		<tag k="start_date" v="1989-01-02" />
	</node>
	<node id="-2782" lat="58.3458" lon="8.55688">
		<tag k="amenity" v="kindergarten" />
		<tag k="capacity" v="33" />
		<tag k="contact:email" v="post@regnbuebarna.as" />
		<tag k="contact:phone" v="+47 91 74 05 79" />
		<tag k="max_age" v="5" />
		<tag k="min_age" v="1" />
		<tag k="name" v="Regnbuebarna AS" />
		<tag k="no-barnehage:nsrid" v="1017072" />
		<tag k="operator" v="Regnbuebarna AS" />
		<tag k="operator:type" v="private" />
		<tag k="start_date" v="2005-12-13" />
	</node>
	<node id="-2781" lat="58.3894" lon="8.71566">
		<tag k="amenity" v="kindergarten" />
		<tag k="capacity" v="35" />
		<tag k="contact:email" v="haavard@portveien.no" />
		<tag k="max_age" v="5" />
		<tag k="min_age" v="1" />
		<tag k="name" v="Portveien Barnehagedrift AS Avd Sømveien" />
		<tag k="no-barnehage:nsrid" v="1014249" />
		<tag k="operator" v="Portveien Barnehagedrift AS" />
		<tag k="operator:type" v="private" />
		<tag k="start_date" v="2011-01-01" />
	</node>
	<node id="-2780" lat="58.3852" lon="8.69979">
		<tag k="amenity" v="kindergarten" />
		<tag k="capacity" v="26" />
		<tag k="contact:email" v="haavard@portveien.no" />
		<tag k="max_age" v="5" />
		<tag k="min_age" v="1" />
		<tag k="name" v="Portveien Barnehagedrift AS Avd Fevik" />
		<tag k="no-barnehage:nsrid" v="1015799" />
		<tag k="operator" v="Portveien Barnehagedrift AS" />
		<tag k="operator:type" v="private" />
		<tag k="start_date" v="2000-01-12" />
	</node>
	<node id="-2776" lat="58.345" lon="8.58558">
		<tag k="amenity" v="kindergarten" />
		<tag k="capacity" v="69" />
		<tag k="contact:email" v="anita@villamatilda.no" />
		<tag k="contact:phone" v="+47 49270343" />
		<tag k="max_age" v="5" />
		<tag k="min_age" v="1" />
		<tag k="name" v="Matilda AS Avd Grimstad" />
		<tag k="no-barnehage:nsrid" v="1013185" />
		<tag k="operator" v="Matilda AS" />
		<tag k="operator:type" v="private" />
		<tag k="start_date" v="2005-02-11" />
	</node>
	<node id="-2775" lat="58.35099" lon="8.574508">
		<tag k="amenity" v="kindergarten" />
		<tag k="name" v="Matilda AS Avd Egra" />
		<tag k="no-barnehage:nsrid" v="1026552" />
		<tag k="operator" v="Matilda AS" />
		<tag k="operator:type" v="private" />
		<tag k="start_date" v="2016-01-01" />
	</node>
	<node id="-2774" lat="58.37305" lon="8.663283">
		<tag k="amenity" v="kindergarten" />
		<tag k="capacity" v="25" />
		<tag k="contact:email" v="lillegullbhg@hotmail.com" />
		<tag k="contact:phone" v="+47 37 04 87 05" />
		<tag k="max_age" v="5" />
		<tag k="min_age" v="1" />
		<tag k="name" v="Lille Gull barnehage AS" />
		<tag k="no-barnehage:nsrid" v="1021773" />
		<tag k="operator" v="Lille Gull barnehage AS" />
		<tag k="operator:type" v="private" />
		<tag k="start_date" v="2008-01-24" />
	</node>
	<node id="-2773" lat="58.337" lon="8.53258">
		<tag k="amenity" v="kindergarten" />
		<tag k="capacity" v="107" />
		<tag k="contact:email" v="klmoester@kreativebarnehager.no" />
		<tag k="max_age" v="5" />
		<tag k="min_age" v="1" />
		<tag k="name" v="Kreative Barnehager AS Avd Fjellknausen" />
		<tag k="no-barnehage:nsrid" v="1018506" />
		<tag k="operator" v="Kreative Barnehager AS" />
		<tag k="operator:type" v="private" />
		<tag k="start_date" v="2008-08-01" />
	</node>
	<node id="-2772" lat="58.34827" lon="8.599074">
		<tag k="amenity" v="kindergarten" />
		<tag k="capacity" v="98" />
		<tag k="contact:email" v="kjell@mereo.no" />
		<tag k="contact:phone" v="+47 40 24 69 40" />
		<tag k="max_age" v="5" />
		<tag k="min_age" v="1" />
		<tag k="name" v="Holbekk Barnehagetun AS" />
		<tag k="no-barnehage:nsrid" v="1021535" />
		<tag k="operator" v="Holbekk Barnehagetun AS" />
		<tag k="operator:type" v="private" />
		<tag k="start_date" v="2006-10-01" />
	</node>
	<node id="-2771" lat="58.3348" lon="8.57461">
		<tag k="amenity" v="kindergarten" />
		<tag k="capacity" v="115" />
		<tag k="contact:email" v="camilla.svendsen@sia.no" />
		<tag k="max_age" v="5" />
		<tag k="min_age" v="1" />
		<tag k="name" v="Hokus Pokus barnehage Grimstad" />
		<tag k="no-barnehage:nsrid" v="1014940" />
		<tag k="operator" v="Studentsamskipnaden i Agder" />
		<tag k="operator:type" v="private" />
		<tag k="start_date" v="1996-08-15" />
	</node>
	<node id="-2770" lat="58.3739" lon="8.65694">
		<tag k="amenity" v="kindergarten" />
		<tag k="capacity" v="54" />
		<tag k="contact:email" v="gro.lisbeth.berg@grimstad.kommune.no" />
		<tag k="contact:phone" v="+47 37 04 85 56" />
		<tag k="max_age" v="5" />
		<tag k="min_age" v="1" />
		<tag k="name" v="Hausland barnehage" />
		<tag k="no-barnehage:nsrid" v="1012632" />
		<tag k="operator" v="Grimstad kommune" />
		<tag k="operator:type" v="public" />
		<tag k="start_date" v="1989-01-01" />
	</node>
	<node id="-2769" lat="58.3424" lon="8.58392">
		<tag k="amenity" v="kindergarten" />
		<tag k="capacity" v="40" />
		<tag k="contact:email" v="sissel.nytun@grimstad.kommune.no" />
		<tag k="max_age" v="5" />
		<tag k="min_age" v="1" />
		<tag k="name" v="Grimstad barnehage" />
		<tag k="no-barnehage:nsrid" v="1012631" />
		<tag k="operator" v="Grimstad kommune" />
		<tag k="operator:type" v="public" />
		<tag k="start_date" v="1976-12-24" />
	</node>
	<node id="-2767" lat="58.34871" lon="8.591269">
		<tag k="amenity" v="kindergarten" />
		<tag k="capacity" v="87" />
		<tag k="contact:email" v="flatebhg@online.no" />
		<tag k="max_age" v="5" />
		<tag k="min_age" v="1" />
		<tag k="name" v="Flatefjell Andelsbarnehage" />
		<tag k="no-barnehage:nsrid" v="1020649" />
		<tag k="operator" v="Flatefjell Andelslag Sa" />
		<tag k="operator:type" v="private" />
		<tag k="start_date" v="2001-01-01" />
	</node>
	<node id="-2766" lat="58.3638" lon="8.60054">
		<tag k="amenity" v="kindergarten" />
		<tag k="capacity" v="39" />
		<tag k="contact:email" v="sveinhelge@firearstider.no" />
		<tag k="max_age" v="5" />
		<tag k="min_age" v="1" />
		<tag k="name" v="Fjære barnehage AS" />
		<tag k="no-barnehage:nsrid" v="1015144" />
		<tag k="operator" v="Fjære barnehage AS" />
		<tag k="operator:type" v="private" />
		<tag k="start_date" v="2012-04-12" />
	</node>
	<node id="-2765" lat="58.3801" lon="8.6777">
		<tag k="amenity" v="kindergarten" />
		<tag k="capacity" v="50" />
		<tag k="contact:email" v="post@grimstad.kirken.no" />
		<tag k="contact:phone" v="+47 37047212" />
		<tag k="max_age" v="5" />
		<tag k="min_age" v="1" />
		<tag k="name" v="Fevik barnehage" />
		<tag k="no-barnehage:nsrid" v="1015531" />
		<tag k="operator" v="Grimstad Kirkelige Fellesråd" />
		<tag k="operator:type" v="private" />
		<tag k="start_date" v="1976-01-01" />
	</node>
	<node id="-2764" lat="58.2689" lon="8.50599">
		<tag k="amenity" v="kindergarten" />
		<tag k="capacity" v="61" />
		<tag k="contact:email" v="jorunn.palm@grimstad.kommune.no" />
		<tag k="max_age" v="5" />
		<tag k="min_age" v="1" />
		<tag k="name" v="Eide barnehage" />
		<tag k="no-barnehage:nsrid" v="1012607" />
		<tag k="operator" v="Grimstad kommune" />
		<tag k="operator:type" v="public" />
		<tag k="start_date" v="1999-01-01" />
	</node>
	<node id="-2762" lat="58.34827" lon="8.599074">
		<tag k="amenity" v="kindergarten" />
		<tag k="capacity" v="77" />
		<tag k="contact:email" v="kjell@mereo.no" />
		<tag k="contact:phone" v="+47 37 04 23 43" />
		<tag k="max_age" v="5" />
		<tag k="min_age" v="1" />
		<tag k="name" v="Askeladden barnehage AS" />
		<tag k="no-barnehage:nsrid" v="1020577" />
		<tag k="operator" v="Askeladden barnehage AS" />
		<tag k="operator:type" v="private" />
		<tag k="start_date" v="1999-07-01" />
	</node>
	<node id="-2761" lat="58.3695" lon="8.64547">
		<tag k="amenity" v="kindergarten" />
		<tag k="capacity" v="39" />
		<tag k="contact:email" v="post@annemorhuset.no" />
		<tag k="contact:phone" v="+47 37 04 19 30" />
		<tag k="max_age" v="5" />
		<tag k="min_age" v="1" />
		<tag k="name" v="Annemorhuset barnehage" />
		<tag k="no-barnehage:nsrid" v="1015689" />
		<tag k="operator" v="Annemorhuset barnehage AS" />
		<tag k="operator:type" v="private" />
		<tag k="start_date" v="1998-08-01" />
	</node>
	<node id="-2760" lat="58.32135" lon="8.574822">
		<tag k="amenity" v="kindergarten" />
		<tag k="capacity" v="23" />
		<tag k="contact:email" v="post@eventyrbarnehage.no" />
		<tag k="contact:website" v="http://ravnen-eventyrbarnehage.com" />
		<tag k="max_age" v="5" />
		<tag k="min_age" v="1" />
		<tag k="name" v="Alven Eventyrbarnehage i Trollvika AS" />
		<tag k="no-barnehage:nsrid" v="1022392" />
		<tag k="operator" v="Alven Eventyrbarnehage i Trollvika AS" />
		<tag k="operator:type" v="private" />
		<tag k="start_date" v="2001-08-01" />
	</node>
</osm>
