<?xml version="1.0" encoding="UTF-8"?>
<osm generator="osmapis" version="0.6">
	<node id="-2002" lat="61.5592" lon="9.89273">
		<tag k="amenity" v="kindergarten" />
		<tag k="capacity" v="87" />
		<tag k="contact:email" v="cathrine.soberg@sor-fron.kommune.no" />
		<tag k="contact:phone" v="+47 957 82 660" />
		<tag k="contact:website" v="http://www.liene.oppvekstsenter.no" />
		<tag k="doNotImportAddress" v="Baksidevegen 382 2647 SØR-FRON" />
		<tag k="max_age" v="5" />
		<tag k="min_age" v="1" />
		<tag k="name" v="Liene barnehage" />
		<tag k="no-barnehage:nsrid" v="1017951" />
		<tag k="operator" v="Sør-Fron kommune" />
		<tag k="operator:type" v="public" />
	</node>
	<node id="-2001" lat="61.5665" lon="9.86889">
		<tag k="amenity" v="kindergarten" />
		<tag k="capacity" v="52" />
		<tag k="contact:email" v="anne.margrethe.hallum@sor-fron.kommune.no" />
		<tag k="contact:phone" v="+47 61 29 93 45" />
		<tag k="doNotImportAddress" v="Vintervegen 315 2647 SØR-FRON" />
		<tag k="max_age" v="5" />
		<tag k="min_age" v="1" />
		<tag k="name" v="Harpefoss barnehage" />
		<tag k="no-barnehage:nsrid" v="1017952" />
		<tag k="operator" v="Sør-Fron kommune" />
		<tag k="operator:type" v="public" />
	</node>
</osm>
