<?xml version="1.0" encoding="UTF-8"?>
<osm version="0.6" generator="osmapis">
	<node lat="60.00368" lon="5.20065" id="-4428">
		<tag k="ADDRESS" v="Alvamyrvegen 11, 5397 BEKKJARVIK" />
		<tag k="amenity" v="kindergarten" />
		<tag k="capacity" v="88" />
		<tag k="contact:website" v="http://www.fus.no/bekkjarvik" />
		<tag k="max_age" v="5" />
		<tag k="min_age" v="1" />
		<tag k="name" v="Bekkjarvik Maritime FUS barnehage" />
		<tag k="no-barnehage:nsrid" v="975309061" />
		<tag k="operator" v="Bekkjarvik Maritime Fus barnehage AS" />
		<tag k="operator:type" v="private" />
	</node>
	<node lat="60.09793" lon="5.21931" id="-4429">
		<tag k="ADDRESS" v="Mehaugen 24, 5392 STOREBØ" />
		<tag k="amenity" v="kindergarten" />
		<tag k="capacity" v="100" />
		<tag k="contact:website" v="http://www.eventusbarnehage.no" />
		<tag k="max_age" v="5" />
		<tag k="min_age" v="1" />
		<tag k="name" v="Eventus Sol-li barnehage" />
		<tag k="no-barnehage:nsrid" v="920088074" />
		<tag k="operator" v="Eventus Sol-Li barnehage AS" />
		<tag k="operator:type" v="private" />
	</node>
	<node lat="60.04277" lon="5.20027" id="-4430">
		<tag k="ADDRESS" v="Brekka 31, 5394 KOLBEINSVIK" />
		<tag k="amenity" v="kindergarten" />
		<tag k="capacity" v="10" />
		<tag k="contact:website" v="http://www.kolbeinsvik.barnehage.no" />
		<tag k="max_age" v="5" />
		<tag k="min_age" v="1" />
		<tag k="name" v="Kolbeinsvik barnehage" />
		<tag k="no-barnehage:nsrid" v="973383426" />
		<tag k="operator" v="Kolbeinsvik barnehage" />
		<tag k="operator:type" v="private" />
	</node>
	<node lat="60.10079" lon="5.16982" id="-4431">
		<tag k="ADDRESS" v="Makkhamn 43, 5384 TORANGSVÅG" />
		<tag k="amenity" v="kindergarten" />
		<tag k="capacity" v="67" />
		<tag k="contact:website" v="http://fus.no/sjoliv" />
		<tag k="max_age" v="5" />
		<tag k="min_age" v="1" />
		<tag k="name" v="Sjøliv FUS barnehage" />
		<tag k="no-barnehage:nsrid" v="980182347" />
		<tag k="operator" v="Sjøliv Fus barnehage AS" />
		<tag k="operator:type" v="private" />
	</node>
	<node lat="60.08758" lon="5.24446" id="-4432">
		<tag k="ADDRESS" v="Lindevika 8, 5392 STOREBØ" />
		<tag k="amenity" v="kindergarten" />
		<tag k="capacity" v="60" />
		<tag k="contact:website" v="http://fus.no/storebo" />
		<tag k="max_age" v="5" />
		<tag k="min_age" v="1" />
		<tag k="name" v="Storebø FUS barnehage" />
		<tag k="no-barnehage:nsrid" v="996437752" />
		<tag k="operator" v="Storebø Fus barnehage AS" />
		<tag k="operator:type" v="private" />
	</node>
</osm>
