<?xml version="1.0" encoding="UTF-8"?>
<osm generator="osmapis" version="0.6">
	<node id="-6085" lat="69.08523" lon="17.16302">
		<tag k="amenity" v="kindergarten" />
		<tag k="capacity" v="26" />
		<tag k="max_age" v="5" />
		<tag k="min_age" v="1" />
		<tag k="name" v="Stonglandet barnehage" />
		<tag k="no-barnehage:nsrid" v="1013969" />
		<tag k="operator" v="Tranøy kommune" />
		<tag k="operator:type" v="public" />
	</node>
	<node id="-6084" lat="69.16836" lon="17.75771">
		<tag k="amenity" v="kindergarten" />
		<tag k="name" v="Dansesletta barnehage - Vangsvik" />
		<tag k="no-barnehage:nsrid" v="2000127" />
		<tag k="operator" v="Tranøy kommune" />
		<tag k="operator:type" v="public" />
	</node>
	<node id="-6083" lat="69.19314" lon="17.77365">
		<tag k="amenity" v="kindergarten" />
		<tag k="capacity" v="43" />
		<tag k="max_age" v="5" />
		<tag k="min_age" v="1" />
		<tag k="name" v="Dansesletta barnehage - Solli" />
		<tag k="no-barnehage:nsrid" v="1013968" />
		<tag k="operator" v="Tranøy kommune" />
		<tag k="operator:type" v="public" />
	</node>
</osm>
