<?xml version="1.0" encoding="UTF-8"?>
<osm generator="osmapis" version="0.6">
	<node id="-1836" lat="60.43676" lon="12.10007">
		<tag k="amenity" v="kindergarten" />
		<tag k="capacity" v="41" />
		<tag k="contact:email" v="tjurabhg@online.no" />
		<tag k="contact:phone" v="+47 62 94 87 12" />
		<tag k="contact:website" v="http://www.tjurabarnehage.no" />
		<tag k="max_age" v="5" />
		<tag k="min_age" v="1" />
		<tag k="name" v="Tjura barnehage Sa" />
		<tag k="no-barnehage:nsrid" v="1020043" />
		<tag k="operator" v="Tjura barnehage Sa" />
		<tag k="operator:type" v="private" />
	</node>
	<node id="-1835" lat="60.4216" lon="12.4003">
		<tag k="amenity" v="kindergarten" />
		<tag k="capacity" v="8" />
		<tag k="contact:email" v="berit.melsnes@grue.kommune.no" />
		<tag k="contact:phone" v="+47 62 94 62 74" />
		<tag k="max_age" v="5" />
		<tag k="min_age" v="1" />
		<tag k="name" v="Svullrya barnehage Avdeling Av Solungen barnehage" />
		<tag k="no-barnehage:nsrid" v="1013781" />
		<tag k="operator" v="Grue kommune" />
		<tag k="operator:type" v="public" />
	</node>
	<node id="-1834" lat="60.4525" lon="12.06">
		<tag k="amenity" v="kindergarten" />
		<tag k="capacity" v="44" />
		<tag k="contact:email" v="solungen.barnehage@grue.kommune.no" />
		<tag k="contact:phone" v="+47 62 94 79 68" />
		<tag k="max_age" v="5" />
		<tag k="min_age" v="1" />
		<tag k="name" v="Solungen barnehage" />
		<tag k="no-barnehage:nsrid" v="1025497" />
		<tag k="operator" v="Grue kommune" />
		<tag k="operator:type" v="public" />
	</node>
	<node id="-1833" lat="60.4993" lon="12.0746">
		<tag k="amenity" v="kindergarten" />
		<tag k="capacity" v="38" />
		<tag k="contact:email" v="guri.gjermshus@grue.kommune.no" />
		<tag k="max_age" v="5" />
		<tag k="min_age" v="1" />
		<tag k="name" v="Gromungen barnehage Avdeling NamnÃ¥" />
		<tag k="no-barnehage:nsrid" v="1015862" />
		<tag k="operator" v="Grue kommune" />
		<tag k="operator:type" v="public" />
	</node>
</osm>
