<?xml version="1.0" encoding="UTF-8"?>
<osm generator="osmapis" version="0.6">
	<node id="-1912" lat="60.43676" lon="12.10007">
		<tag k="amenity" v="kindergarten" />
		<tag k="capacity" v="53" />
		<tag k="contact:email" v="tjurabhg@online.no" />
		<tag k="contact:phone" v="62 94 87 12" />
		<tag k="contact:website" v="http://www.tjurabarnehage.no" />
		<tag k="max_age" v="5" />
		<tag k="min_age" v="1" />
		<tag k="name" v="Tjura barnehage Sa" />
		<tag k="no-barnehage:nsrid" v="1020043" />
		<tag k="operator" v="Tjura barnehage Sa" />
		<tag k="operator:type" v="private" />
		<tag k="start_date" v="1992-01-01" />
	</node>
	<node id="-1911" lat="60.4525" lon="12.06">
		<tag k="amenity" v="kindergarten" />
		<tag k="capacity" v="45" />
		<tag k="contact:email" v="solungen.barnehage@grue.kommune.no" />
		<tag k="contact:phone" v="62 94 79 68" />
		<tag k="max_age" v="5" />
		<tag k="min_age" v="1" />
		<tag k="name" v="Solungen barnehage" />
		<tag k="no-barnehage:nsrid" v="1025497" />
		<tag k="operator" v="Grue kommune" />
		<tag k="operator:type" v="public" />
		<tag k="start_date" v="1988-04-01" />
	</node>
	<node id="-1910" lat="60.4993" lon="12.0746">
		<tag k="amenity" v="kindergarten" />
		<tag k="capacity" v="33" />
		<tag k="contact:email" v="guri.gjermshus@grue.kommune.no" />
		<tag k="max_age" v="5" />
		<tag k="min_age" v="1" />
		<tag k="name" v="Gromungen barnehage Avdeling NamnÃ¥" />
		<tag k="no-barnehage:nsrid" v="1015862" />
		<tag k="operator" v="Grue kommune" />
		<tag k="operator:type" v="public" />
		<tag k="start_date" v="1999-08-01" />
	</node>
	<node id="-1909" lat="60.4076" lon="12.0498">
		<tag k="amenity" v="kindergarten" />
		<tag k="capacity" v="7" />
		<tag k="contact:email" v="guri.gjermshus@grue.kommune.no" />
		<tag k="contact:phone" v="62 94 15 50" />
		<tag k="max_age" v="5" />
		<tag k="min_age" v="1" />
		<tag k="name" v="Gromungen barnehage Avdeling Grinder" />
		<tag k="no-barnehage:nsrid" v="1014704" />
		<tag k="operator" v="Grue kommune" />
		<tag k="operator:type" v="public" />
		<tag k="start_date" v="1992-01-01" />
	</node>
	<node id="-1908" lat="60.4216" lon="12.4003">
		<tag k="amenity" v="kindergarten" />
		<tag k="capacity" v="3" />
		<tag k="contact:email" v="anne.berit.gullikstad@grue.kommune.no" />
		<tag k="contact:phone" v="62 94 62 74" />
		<tag k="max_age" v="5" />
		<tag k="min_age" v="1" />
		<tag k="name" v="Finnskogen Oppvekstsenter Avdeling Barnehage" />
		<tag k="no-barnehage:nsrid" v="1013781" />
		<tag k="operator" v="Grue kommune" />
		<tag k="operator:type" v="public" />
		<tag k="start_date" v="1989-01-02" />
	</node>
</osm>
