<?xml version="1.0" encoding="UTF-8"?>
<osm generator="osmapis" version="0.6">
	<node id="-5176" lat="0.0" lon="0.0">
		<tag k="amenity" v="kindergarten" />
		<tag k="max_age" v="5" />
		<tag k="min_age" v="3" />
		<tag k="name" v="Bortstuggu Flå Anita Sjulsen-hage" />
		<tag k="no-barnehage:nsrid" v="1020430" />
		<tag k="operator" v="Bortstuggu Flå Anita Sjulsen-Hage" />
		<tag k="operator:type" v="private" />
	</node>
	<node id="-5179" lat="0.0" lon="0.0">
		<tag k="amenity" v="kindergarten" />
		<tag k="capacity" v="53" />
		<tag k="max_age" v="5" />
		<tag k="min_age" v="1" />
		<tag k="name" v="Vonheim barnehage" />
		<tag k="no-barnehage:nsrid" v="1018237" />
		<tag k="operator" v="Rennebu kommune" />
		<tag k="operator:type" v="public" />
	</node>
	<node id="-5178" lat="0.0" lon="0.0">
		<tag k="amenity" v="kindergarten" />
		<tag k="capacity" v="31" />
		<tag k="max_age" v="5" />
		<tag k="min_age" v="1" />
		<tag k="name" v="Voll barnehage" />
		<tag k="no-barnehage:nsrid" v="1018238" />
		<tag k="operator" v="Rennebu kommune" />
		<tag k="operator:type" v="public" />
	</node>
	<node id="-5177" lat="0.0" lon="0.0">
		<tag k="amenity" v="kindergarten" />
		<tag k="name" v="Nerskogen barnehage" />
		<tag k="no-barnehage:nsrid" v="1019561" />
		<tag k="operator" v="Rennebu kommune" />
		<tag k="operator:type" v="public" />
	</node>
</osm>
