<?xml version="1.0" encoding="UTF-8"?>
<osm generator="osmapis" version="0.6">
	<node id="-5766" lat="70.3773" lon="31.0857">
		<tag k="amenity" v="kindergarten" />
		<tag k="capacity" v="64" />
		<tag k="contact:email" v="kjersti.nymoen@vardo.komunne.no" />
		<tag k="max_age" v="5" />
		<tag k="min_age" v="1" />
		<tag k="name" v="Vardø barnehage" />
		<tag k="no-barnehage:nsrid" v="1014265" />
		<tag k="operator" v="Vardø kommune" />
		<tag k="operator:type" v="public" />
	</node>
	<node id="-5765" lat="70.37732" lon="31.08565">
		<tag k="amenity" v="kindergarten" />
		<tag k="capacity" v="13" />
		<tag k="contact:email" v="post@sentrumbhg.no" />
		<tag k="contact:phone" v="+47 78 94 49 78" />
		<tag k="contact:website" v="http://www.sentrum.barnehageside.no" />
		<tag k="max_age" v="5" />
		<tag k="min_age" v="1" />
		<tag k="name" v="Sentrumbarnehage Sa" />
		<tag k="no-barnehage:nsrid" v="1020961" />
		<tag k="operator" v="Sentrumbarnehage Sa" />
		<tag k="operator:type" v="private" />
	</node>
</osm>
