<?xml version="1.0" encoding="UTF-8"?>
<osm generator="osmapis" version="0.6">
	<node id="-4180" lat="62.5601" lon="6.61873">
		<tag k="amenity" v="kindergarten" />
		<tag k="capacity" v="79" />
		<tag k="max_age" v="5" />
		<tag k="min_age" v="1" />
		<tag k="name" v="NLM barnehagene avd. Tryggheim barnehage Vatne" />
		<tag k="no-barnehage:nsrid" v="1016185" />
		<tag k="operator" v="Nlm-Barnehagene AS" />
		<tag k="operator:type" v="private" />
	</node>
	<node id="-4179" lat="62.582" lon="6.45017">
		<tag k="amenity" v="kindergarten" />
		<tag k="capacity" v="83" />
		<tag k="max_age" v="5" />
		<tag k="min_age" v="1" />
		<tag k="name" v="NLM barnehagene avd. Tryggheim barnehage Brattvåg" />
		<tag k="no-barnehage:nsrid" v="1016186" />
		<tag k="operator" v="Nlm-Barnehagene AS" />
		<tag k="operator:type" v="private" />
	</node>
	<node id="-4178" lat="62.66378" lon="6.279062">
		<tag k="amenity" v="kindergarten" />
		<tag k="capacity" v="19" />
		<tag k="max_age" v="5" />
		<tag k="min_age" v="1" />
		<tag k="name" v="Longva barnehage" />
		<tag k="no-barnehage:nsrid" v="1019641" />
		<tag k="operator" v="Longva barnehage" />
		<tag k="operator:type" v="private" />
	</node>
	<node id="-4177" lat="62.6189" lon="6.21315">
		<tag k="amenity" v="kindergarten" />
		<tag k="capacity" v="14" />
		<tag k="max_age" v="5" />
		<tag k="min_age" v="1" />
		<tag k="name" v="Lepsøy barnehage" />
		<tag k="no-barnehage:nsrid" v="1015721" />
		<tag k="operator" v="Haram kommune" />
		<tag k="operator:type" v="public" />
	</node>
	<node id="-4176" lat="62.6038" lon="6.33378">
		<tag k="amenity" v="kindergarten" />
		<tag k="capacity" v="20" />
		<tag k="max_age" v="5" />
		<tag k="min_age" v="1" />
		<tag k="name" v="Hildre barnehage" />
		<tag k="no-barnehage:nsrid" v="1016325" />
		<tag k="operator" v="Haram kommune" />
		<tag k="operator:type" v="public" />
	</node>
	<node id="-4175" lat="62.6665" lon="6.18935">
		<tag k="amenity" v="kindergarten" />
		<tag k="capacity" v="24" />
		<tag k="max_age" v="5" />
		<tag k="min_age" v="1" />
		<tag k="name" v="Haramsøy barnehage" />
		<tag k="no-barnehage:nsrid" v="1018191" />
		<tag k="operator" v="Haram kommune" />
		<tag k="operator:type" v="public" />
	</node>
	<node id="-4174" lat="62.59058" lon="6.440157">
		<tag k="amenity" v="kindergarten" />
		<tag k="capacity" v="69" />
		<tag k="max_age" v="5" />
		<tag k="min_age" v="1" />
		<tag k="name" v="Brattvåg barnehage" />
		<tag k="no-barnehage:nsrid" v="1020023" />
		<tag k="operator" v="Brattvåg barnehage Sa" />
		<tag k="operator:type" v="private" />
	</node>
</osm>
