<?xml version="1.0" encoding="UTF-8"?>
<osm generator="osmapis" version="0.6">
	<node id="-4690" lat="62.54364" lon="6.51938">
		<tag k="amenity" v="kindergarten" />
		<tag k="capacity" v="34" />
		<tag k="max_age" v="5" />
		<tag k="min_age" v="1" />
		<tag k="name" v="Utigarden barnehage AS" />
		<tag k="no-barnehage:nsrid" v="1021101" />
		<tag k="operator" v="Utigarden barnehage AS" />
		<tag k="operator:type" v="private" />
		<tag k="start_date" v="2004-06-01" />
	</node>
	<node id="-4689" lat="62.5347" lon="6.58408">
		<tag k="amenity" v="kindergarten" />
		<tag k="capacity" v="96" />
		<tag k="contact:email" v="tennfjord.barnehage@haram.kommune.no" />
		<tag k="contact:phone" v="70 21 39 95" />
		<tag k="max_age" v="5" />
		<tag k="min_age" v="1" />
		<tag k="name" v="Tennfjord barnehage" />
		<tag k="no-barnehage:nsrid" v="1016326" />
		<tag k="operator" v="Haram kommune" />
		<tag k="operator:type" v="public" />
		<tag k="start_date" v="2000-08-01" />
	</node>
	<node id="-4688" lat="62.5443" lon="6.28771">
		<tag k="amenity" v="kindergarten" />
		<tag k="capacity" v="68" />
		<tag k="contact:email" v="sovik.barnehage@haram.kommune.no" />
		<tag k="contact:phone" v="70 21 79 30" />
		<tag k="max_age" v="5" />
		<tag k="min_age" v="1" />
		<tag k="name" v="Søvik barnehage" />
		<tag k="no-barnehage:nsrid" v="1018192" />
		<tag k="operator" v="Haram kommune" />
		<tag k="operator:type" v="public" />
		<tag k="start_date" v="1989-01-01" />
	</node>
	<node id="-4687" lat="62.5601" lon="6.61873">
		<tag k="amenity" v="kindergarten" />
		<tag k="capacity" v="55" />
		<tag k="contact:phone" v="70 21 32 11" />
		<tag k="max_age" v="5" />
		<tag k="min_age" v="1" />
		<tag k="name" v="Nlm Barnehagene AS Avd Tryggheim Barnehage Vatne" />
		<tag k="no-barnehage:nsrid" v="1016185" />
		<tag k="operator" v="Nlm-Barnehagene AS" />
		<tag k="operator:type" v="private" />
		<tag k="start_date" v="1981-01-01" />
	</node>
	<node id="-4686" lat="62.582" lon="6.45017">
		<tag k="amenity" v="kindergarten" />
		<tag k="capacity" v="64" />
		<tag k="contact:phone" v="70 21 54 05" />
		<tag k="max_age" v="5" />
		<tag k="min_age" v="1" />
		<tag k="name" v="Nlm Barnehagene AS Avd Tryggheim Barnehage Brattvåg" />
		<tag k="no-barnehage:nsrid" v="1016186" />
		<tag k="operator" v="Nlm-Barnehagene AS" />
		<tag k="operator:type" v="private" />
		<tag k="start_date" v="1981-01-01" />
	</node>
	<node id="-4685" lat="62.66378" lon="6.279062">
		<tag k="amenity" v="kindergarten" />
		<tag k="capacity" v="24" />
		<tag k="contact:phone" v="70 21 77 42" />
		<tag k="max_age" v="5" />
		<tag k="min_age" v="1" />
		<tag k="name" v="Longva barnehage" />
		<tag k="no-barnehage:nsrid" v="1019641" />
		<tag k="operator" v="Longva barnehage" />
		<tag k="operator:type" v="private" />
		<tag k="start_date" v="1978-06-24" />
	</node>
	<node id="-4684" lat="62.6189" lon="6.21315">
		<tag k="amenity" v="kindergarten" />
		<tag k="capacity" v="6" />
		<tag k="contact:email" v="lepsoy.barnehage@haram.kommune.no" />
		<tag k="contact:phone" v="70 21 44 94" />
		<tag k="max_age" v="5" />
		<tag k="min_age" v="1" />
		<tag k="name" v="Lepsøy barnehage" />
		<tag k="no-barnehage:nsrid" v="1015721" />
		<tag k="operator" v="Haram kommune" />
		<tag k="operator:type" v="public" />
		<tag k="start_date" v="1999-01-01" />
	</node>
	<node id="-4683" lat="62.6038" lon="6.33378">
		<tag k="amenity" v="kindergarten" />
		<tag k="capacity" v="23" />
		<tag k="contact:email" v="hildre.barnehage@haram.kommune.no" />
		<tag k="contact:phone" v="70 21 44 18" />
		<tag k="max_age" v="5" />
		<tag k="min_age" v="1" />
		<tag k="name" v="Hildre barnehage" />
		<tag k="no-barnehage:nsrid" v="1016325" />
		<tag k="operator" v="Haram kommune" />
		<tag k="operator:type" v="public" />
		<tag k="start_date" v="2001-08-01" />
	</node>
	<node id="-4682" lat="62.6665" lon="6.18935">
		<tag k="amenity" v="kindergarten" />
		<tag k="capacity" v="22" />
		<tag k="contact:email" v="haramsoy.barnehage@haram.kommune.no" />
		<tag k="contact:phone" v="70 21 44 78" />
		<tag k="max_age" v="5" />
		<tag k="min_age" v="1" />
		<tag k="name" v="Haramsøy barnehage" />
		<tag k="no-barnehage:nsrid" v="1018191" />
		<tag k="operator" v="Haram kommune" />
		<tag k="operator:type" v="public" />
		<tag k="start_date" v="1989-01-01" />
	</node>
	<node id="-4681" lat="62.53196" lon="6.420439">
		<tag k="amenity" v="kindergarten" />
		<tag k="capacity" v="22" />
		<tag k="contact:phone" v="70 21 96 95" />
		<tag k="max_age" v="5" />
		<tag k="min_age" v="1" />
		<tag k="name" v="Grytestranda barnehage" />
		<tag k="no-barnehage:nsrid" v="1019731" />
		<tag k="operator" v="Grytastranda barnehage V/foreninga" />
		<tag k="operator:type" v="private" />
		<tag k="start_date" v="1989-01-02" />
	</node>
	<node id="-4680" lat="62.59058" lon="6.440157">
		<tag k="amenity" v="kindergarten" />
		<tag k="capacity" v="72" />
		<tag k="contact:phone" v="70 21 54 60" />
		<tag k="max_age" v="5" />
		<tag k="min_age" v="1" />
		<tag k="name" v="Brattvåg barnehage Sa" />
		<tag k="no-barnehage:nsrid" v="1020023" />
		<tag k="operator" v="Brattvåg barnehage Sa" />
		<tag k="operator:type" v="private" />
		<tag k="start_date" v="1989-05-18" />
	</node>
</osm>
