<?xml version="1.0" encoding="UTF-8"?>
<osm generator="osmapis" version="0.6">
	<node id="-1502" lat="60.77107" lon="11.11204">
		<tag k="amenity" v="kindergarten" />
		<tag k="capacity" v="77" />
		<tag k="contact:website" v="http://www.steinerbarnehagepaahedemarken.com" />
		<tag k="max_age" v="5" />
		<tag k="min_age" v="1" />
		<tag k="name" v="Stiftelsen steinerbarnehagen på Hedemarken" />
		<tag k="no-barnehage:nsrid" v="1020685" />
		<tag k="operator" v="Stiftelsen Steinerbarnehagen på Hedemarken" />
		<tag k="operator:type" v="private" />
	</node>
	<node id="-1501" lat="60.74645" lon="11.13695">
		<tag k="amenity" v="kindergarten" />
		<tag k="capacity" v="42" />
		<tag k="max_age" v="5" />
		<tag k="min_age" v="1" />
		<tag k="name" v="Solvang barnehage" />
		<tag k="no-barnehage:nsrid" v="1021388" />
		<tag k="operator" v="Solvang barnehage AS" />
		<tag k="operator:type" v="private" />
	</node>
	<node id="-1500" lat="60.7349" lon="11.2957">
		<tag k="amenity" v="kindergarten" />
		<tag k="capacity" v="51" />
		<tag k="max_age" v="5" />
		<tag k="min_age" v="1" />
		<tag k="name" v="Romedal barnehage" />
		<tag k="no-barnehage:nsrid" v="1017467" />
		<tag k="operator" v="Stange kommune" />
		<tag k="operator:type" v="public" />
	</node>
	<node id="-1499" lat="60.7715" lon="11.0884">
		<tag k="amenity" v="kindergarten" />
		<tag k="capacity" v="64" />
		<tag k="max_age" v="5" />
		<tag k="min_age" v="1" />
		<tag k="name" v="Nordstad barnehage" />
		<tag k="no-barnehage:nsrid" v="1017572" />
		<tag k="operator" v="Stange kommune" />
		<tag k="operator:type" v="public" />
	</node>
	<node id="-1498" lat="60.7137" lon="11.2078">
		<tag k="amenity" v="kindergarten" />
		<tag k="capacity" v="52" />
		<tag k="max_age" v="5" />
		<tag k="min_age" v="1" />
		<tag k="name" v="Navneberget barnehage" />
		<tag k="no-barnehage:nsrid" v="1017573" />
		<tag k="operator" v="Stange kommune" />
		<tag k="operator:type" v="public" />
	</node>
	<node id="-1497" lat="60.76978" lon="11.21581">
		<tag k="amenity" v="kindergarten" />
		<tag k="capacity" v="59" />
		<tag k="max_age" v="5" />
		<tag k="min_age" v="1" />
		<tag k="name" v="Læringsverkstedet Ilseng barnehage" />
		<tag k="no-barnehage:nsrid" v="1021271" />
		<tag k="operator" v="Læringsverkstedet Ilseng barnehage AS" />
		<tag k="operator:type" v="private" />
	</node>
	<node id="-1496" lat="60.7155" lon="11.1946">
		<tag k="amenity" v="kindergarten" />
		<tag k="capacity" v="120" />
		<tag k="max_age" v="5" />
		<tag k="min_age" v="1" />
		<tag k="name" v="Læringsverkstedet barnehage avd. Nerby" />
		<tag k="no-barnehage:nsrid" v="1015933" />
		<tag k="operator" v="Læringsverkstedet AS" />
		<tag k="operator:type" v="private" />
	</node>
	<node id="-1495" lat="60.73431" lon="11.1833">
		<tag k="amenity" v="kindergarten" />
		<tag k="capacity" v="51" />
		<tag k="contact:website" v="http://www.kausvol.no" />
		<tag k="max_age" v="5" />
		<tag k="min_age" v="1" />
		<tag k="name" v="Kausvol gardsbarnehage" />
		<tag k="no-barnehage:nsrid" v="1021403" />
		<tag k="operator" v="Kausvol Gardsbarnehage AS" />
		<tag k="operator:type" v="private" />
	</node>
	<node id="-1493" lat="60.7724" lon="11.1378">
		<tag k="amenity" v="kindergarten" />
		<tag k="capacity" v="86" />
		<tag k="max_age" v="5" />
		<tag k="min_age" v="1" />
		<tag k="name" v="Holmlund barnehage" />
		<tag k="no-barnehage:nsrid" v="1017574" />
		<tag k="operator" v="Stange kommune" />
		<tag k="operator:type" v="public" />
	</node>
	<node id="-1492" lat="60.7738" lon="11.1237">
		<tag k="amenity" v="kindergarten" />
		<tag k="capacity" v="50" />
		<tag k="max_age" v="5" />
		<tag k="min_age" v="1" />
		<tag k="name" v="Hoberg barnehage" />
		<tag k="no-barnehage:nsrid" v="1017368" />
		<tag k="operator" v="Stange kommune" />
		<tag k="operator:type" v="public" />
	</node>
	<node id="-1491" lat="60.7472" lon="11.1358">
		<tag k="amenity" v="kindergarten" />
		<tag k="capacity" v="38" />
		<tag k="max_age" v="5" />
		<tag k="min_age" v="1" />
		<tag k="name" v="Grimerud barnehage" />
		<tag k="no-barnehage:nsrid" v="1016302" />
		<tag k="operator" v="Stiftelsen Ungdom i Oppdrag Barnehager" />
		<tag k="operator:type" v="private" />
	</node>
	<node id="-1490" lat="60.5779" lon="11.2709">
		<tag k="amenity" v="kindergarten" />
		<tag k="capacity" v="26" />
		<tag k="max_age" v="5" />
		<tag k="min_age" v="1" />
		<tag k="name" v="Espa skole og barnehage avd. barnehage" />
		<tag k="no-barnehage:nsrid" v="1017570" />
		<tag k="operator" v="Stange kommune" />
		<tag k="operator:type" v="public" />
	</node>
	<node id="-1489" lat="60.7156" lon="11.1846">
		<tag k="amenity" v="kindergarten" />
		<tag k="capacity" v="48" />
		<tag k="max_age" v="5" />
		<tag k="min_age" v="1" />
		<tag k="name" v="Enerhaugen barnehage" />
		<tag k="no-barnehage:nsrid" v="1017569" />
		<tag k="operator" v="Stange kommune" />
		<tag k="operator:type" v="public" />
	</node>
	<node id="-1488" lat="60.7472" lon="11.1358">
		<tag k="amenity" v="kindergarten" />
		<tag k="capacity" v="40" />
		<tag k="max_age" v="5" />
		<tag k="min_age" v="1" />
		<tag k="name" v="Bekkelaget barnehage" />
		<tag k="no-barnehage:nsrid" v="1018543" />
		<tag k="operator" v="Stiftelsen Ungdom i Oppdrag Barnehager" />
		<tag k="operator:type" v="private" />
	</node>
	<node id="-1487" lat="60.74717" lon="11.13584">
		<tag k="amenity" v="kindergarten" />
		<tag k="capacity" v="81" />
		<tag k="max_age" v="5" />
		<tag k="min_age" v="1" />
		<tag k="name" v="Barnas Rett barnehage" />
		<tag k="no-barnehage:nsrid" v="1019685" />
		<tag k="operator" v="Barnas Rett barnehage Sa" />
		<tag k="operator:type" v="private" />
	</node>
</osm>
