<?xml version="1.0" encoding="UTF-8"?>
<osm generator="osmapis" version="0.6">
	<node id="-1888" lat="60.7715" lon="11.0884">
		<tag k="amenity" v="kindergarten" />
		<tag k="capacity" v="47" />
		<tag k="contact:email" v="nordstad.bhg@stange.kommune.no" />
		<tag k="contact:phone" v="+47 62 58 51 60" />
		<tag k="max_age" v="5" />
		<tag k="min_age" v="1" />
		<tag k="name" v="Nordstad barnehage" />
		<tag k="no-barnehage:nsrid" v="1017572" />
		<tag k="operator" v="Stange kommune" />
		<tag k="operator:type" v="public" />
		<tag k="start_date" v="1988-04-01" />
	</node>
	<node id="-1887" lat="60.7137" lon="11.2078">
		<tag k="amenity" v="kindergarten" />
		<tag k="capacity" v="48" />
		<tag k="contact:email" v="annkristin.henriksen@stange.kommune.no" />
		<tag k="contact:phone" v="+47 62 58 82 50" />
		<tag k="max_age" v="5" />
		<tag k="min_age" v="1" />
		<tag k="name" v="Navneberget barnehage" />
		<tag k="no-barnehage:nsrid" v="1017573" />
		<tag k="operator" v="Stange kommune" />
		<tag k="operator:type" v="public" />
		<tag k="start_date" v="1988-04-01" />
	</node>
	<node id="-1886" lat="60.7155" lon="11.1946">
		<tag k="amenity" v="kindergarten" />
		<tag k="capacity" v="78" />
		<tag k="contact:email" v="kontor@laringsverkstedet.no" />
		<tag k="contact:phone" v="+47 62572706" />
		<tag k="max_age" v="5" />
		<tag k="min_age" v="1" />
		<tag k="name" v="Læringsverkstedet barnehage Avd Nerby" />
		<tag k="no-barnehage:nsrid" v="1015933" />
		<tag k="operator" v="Læringsverkstedet AS" />
		<tag k="operator:type" v="private" />
		<tag k="start_date" v="1989-01-02" />
	</node>
	<node id="-1885" lat="60.73431" lon="11.1833">
		<tag k="amenity" v="kindergarten" />
		<tag k="capacity" v="56" />
		<tag k="contact:email" v="ragnhild@kausvol.no" />
		<tag k="contact:phone" v="+47 62 57 32 80" />
		<tag k="contact:website" v="http://www.kausvol.no" />
		<tag k="max_age" v="5" />
		<tag k="min_age" v="1" />
		<tag k="name" v="Kausvol Gardsbarnehage AS" />
		<tag k="no-barnehage:nsrid" v="1021403" />
		<tag k="operator" v="Kausvol Gardsbarnehage AS" />
		<tag k="operator:type" v="private" />
		<tag k="start_date" v="2006-01-02" />
	</node>
	<node id="-1883" lat="60.7724" lon="11.1378">
		<tag k="amenity" v="kindergarten" />
		<tag k="capacity" v="78" />
		<tag k="contact:email" v="holmlund.bhg@stange.kommune.no" />
		<tag k="contact:phone" v="+47 62 57 46 50" />
		<tag k="max_age" v="5" />
		<tag k="min_age" v="1" />
		<tag k="name" v="Holmlund barnehage" />
		<tag k="no-barnehage:nsrid" v="1017574" />
		<tag k="operator" v="Stange kommune" />
		<tag k="operator:type" v="public" />
		<tag k="start_date" v="1988-04-01" />
	</node>
	<node id="-1882" lat="60.7738" lon="11.1237">
		<tag k="amenity" v="kindergarten" />
		<tag k="capacity" v="48" />
		<tag k="contact:email" v="ingunn.hantveit@stange.kommune.no" />
		<tag k="contact:phone" v="+47 62 58 82 10" />
		<tag k="max_age" v="5" />
		<tag k="min_age" v="1" />
		<tag k="name" v="Hoberg barnehage" />
		<tag k="no-barnehage:nsrid" v="1017368" />
		<tag k="operator" v="Stange kommune" />
		<tag k="operator:type" v="public" />
		<tag k="start_date" v="1976-01-01" />
	</node>
	<node id="-1881" lat="60.7472" lon="11.1358">
		<tag k="amenity" v="kindergarten" />
		<tag k="capacity" v="41" />
		<tag k="contact:email" v="solveigb@ywam.no" />
		<tag k="max_age" v="5" />
		<tag k="min_age" v="1" />
		<tag k="name" v="Grimerud barnehage" />
		<tag k="no-barnehage:nsrid" v="1016302" />
		<tag k="operator" v="Stiftelsen Ungdom i Oppdrag Barnehager" />
		<tag k="operator:type" v="private" />
		<tag k="start_date" v="2001-01-01" />
	</node>
	<node id="-1880" lat="60.5779" lon="11.2709">
		<tag k="amenity" v="kindergarten" />
		<tag k="capacity" v="31" />
		<tag k="contact:email" v="anne.godsveen@stange.kommune.no" />
		<tag k="contact:phone" v="+47 62 56 25 70" />
		<tag k="max_age" v="5" />
		<tag k="min_age" v="1" />
		<tag k="name" v="Espa Skole og barnehage Avd Barnehage" />
		<tag k="no-barnehage:nsrid" v="1017570" />
		<tag k="operator" v="Stange kommune" />
		<tag k="operator:type" v="public" />
		<tag k="start_date" v="1988-04-01" />
	</node>
	<node id="-1879" lat="60.7156" lon="11.1846">
		<tag k="amenity" v="kindergarten" />
		<tag k="capacity" v="51" />
		<tag k="contact:email" v="kathrine.hanssveeen@stange.kommune.no" />
		<tag k="contact:phone" v="+47 62 58 82 00" />
		<tag k="max_age" v="5" />
		<tag k="min_age" v="1" />
		<tag k="name" v="Enerhaugen barnehage" />
		<tag k="no-barnehage:nsrid" v="1017569" />
		<tag k="operator" v="Stange kommune" />
		<tag k="operator:type" v="public" />
		<tag k="start_date" v="1988-04-01" />
	</node>
	<node id="-1877" lat="60.7472" lon="11.1358">
		<tag k="amenity" v="kindergarten" />
		<tag k="capacity" v="37" />
		<tag k="contact:email" v="malinm@ywam.no" />
		<tag k="max_age" v="5" />
		<tag k="min_age" v="1" />
		<tag k="name" v="Bekkelaget barnehage" />
		<tag k="no-barnehage:nsrid" v="1018543" />
		<tag k="operator" v="Stiftelsen Ungdom i Oppdrag Barnehager" />
		<tag k="operator:type" v="private" />
		<tag k="start_date" v="2008-12-01" />
	</node>
	<node id="-1876" lat="60.74717" lon="11.13584">
		<tag k="amenity" v="kindergarten" />
		<tag k="capacity" v="76" />
		<tag k="contact:email" v="stig@barnasrett-barnehage.no" />
		<tag k="contact:phone" v="+47 62 57 80 61" />
		<tag k="max_age" v="5" />
		<tag k="min_age" v="1" />
		<tag k="name" v="Barnas Rett barnehage Sa" />
		<tag k="no-barnehage:nsrid" v="1019685" />
		<tag k="operator" v="Barnas Rett barnehage Sa" />
		<tag k="operator:type" v="private" />
		<tag k="start_date" v="1989-01-02" />
	</node>
	<node id="-1875" lat="60.76978" lon="11.21581">
		<tag k="amenity" v="kindergarten" />
		<tag k="capacity" v="62" />
		<tag k="contact:email" v="bamsebobarnehage@gmail.com" />
		<tag k="contact:phone" v="+47 62 57 33 55" />
		<tag k="max_age" v="5" />
		<tag k="min_age" v="1" />
		<tag k="name" v="Bamsebo barnehage AS" />
		<tag k="no-barnehage:nsrid" v="1021271" />
		<tag k="operator" v="Bamsebo barnehage AS" />
		<tag k="operator:type" v="private" />
		<tag k="start_date" v="1999-08-01" />
	</node>
	<node id="-1895" lat="60.7407" lon="11.3666">
		<tag k="amenity" v="kindergarten" />
		<tag k="capacity" v="49" />
		<tag k="contact:email" v="asbygda.bhg@stange.kommune.no" />
		<tag k="contact:phone" v="+47 62 57 41 87" />
		<tag k="max_age" v="5" />
		<tag k="min_age" v="1" />
		<tag k="name" v="Åsbygda barnehage" />
		<tag k="no-barnehage:nsrid" v="1017571" />
		<tag k="operator" v="Stange kommune" />
		<tag k="operator:type" v="public" />
		<tag k="start_date" v="1988-04-01" />
	</node>
	<node id="-1894" lat="60.6823" lon="11.3408">
		<tag k="amenity" v="kindergarten" />
		<tag k="capacity" v="63" />
		<tag k="contact:email" v="gunn-elin.engen@stange.kommune.no" />
		<tag k="contact:phone" v="+47 62 58 82 40" />
		<tag k="max_age" v="5" />
		<tag k="min_age" v="1" />
		<tag k="name" v="Vallset barnehage" />
		<tag k="no-barnehage:nsrid" v="1014874" />
		<tag k="operator" v="Stange kommune" />
		<tag k="operator:type" v="public" />
		<tag k="start_date" v="1994-08-01" />
	</node>
	<node id="-1893" lat="60.78711" lon="11.11126">
		<tag k="amenity" v="kindergarten" />
		<tag k="capacity" v="76" />
		<tag k="contact:email" v="styrer@utsiktenbarnehage.no" />
		<tag k="contact:phone" v="+47 62 57 85 47" />
		<tag k="contact:website" v="http://www.utsiktenbarnehage.no" />
		<tag k="max_age" v="5" />
		<tag k="min_age" v="1" />
		<tag k="name" v="Utsikten barnehage" />
		<tag k="no-barnehage:nsrid" v="1019875" />
		<tag k="operator" v="Utsikten barnehage Ottestad Sa" />
		<tag k="operator:type" v="private" />
		<tag k="start_date" v="1989-01-01" />
	</node>
	<node id="-1892" lat="60.6159" lon="11.2605">
		<tag k="amenity" v="kindergarten" />
		<tag k="capacity" v="49" />
		<tag k="contact:email" v="post@tangenmbh.no" />
		<tag k="contact:phone" v="+47 62582449" />
		<tag k="max_age" v="5" />
		<tag k="min_age" v="1" />
		<tag k="name" v="Tangen Menighets barnehage" />
		<tag k="no-barnehage:nsrid" v="1015541" />
		<tag k="operator" v="Tangen Sokn" />
		<tag k="operator:type" v="private" />
		<tag k="start_date" v="1978-10-26" />
	</node>
	<node id="-1891" lat="60.77107" lon="11.11204">
		<tag k="amenity" v="kindergarten" />
		<tag k="capacity" v="71" />
		<tag k="contact:email" v="hedemarken@steinerbarnehage.no" />
		<tag k="contact:phone" v="+47 62 57 77 60" />
		<tag k="contact:website" v="http://www.steinerbarnehagepaahedemarken.com" />
		<tag k="max_age" v="5" />
		<tag k="min_age" v="1" />
		<tag k="name" v="Stiftelsen Steinerbarnehagen på Hedmarken" />
		<tag k="no-barnehage:nsrid" v="1020685" />
		<tag k="operator" v="Stiftelsen Steinerbarnehagen på Hedemarken" />
		<tag k="operator:type" v="private" />
		<tag k="start_date" v="1989-01-02" />
	</node>
	<node id="-1890" lat="60.74645" lon="11.13695">
		<tag k="amenity" v="kindergarten" />
		<tag k="capacity" v="39" />
		<tag k="contact:email" v="grethe@solvangbarnehage.net" />
		<tag k="contact:phone" v="+47 62 57 32 50" />
		<tag k="max_age" v="5" />
		<tag k="min_age" v="1" />
		<tag k="name" v="Solvang barnehage AS" />
		<tag k="no-barnehage:nsrid" v="1021388" />
		<tag k="operator" v="Solvang barnehage AS" />
		<tag k="operator:type" v="private" />
		<tag k="start_date" v="1998-08-03" />
	</node>
	<node id="-1889" lat="60.7349" lon="11.2957">
		<tag k="amenity" v="kindergarten" />
		<tag k="capacity" v="58" />
		<tag k="contact:email" v="trude.fiskum@stange.kommune.no" />
		<tag k="contact:phone" v="+47 62 58 56 50" />
		<tag k="max_age" v="5" />
		<tag k="min_age" v="1" />
		<tag k="name" v="Romedal barnehage" />
		<tag k="no-barnehage:nsrid" v="1017467" />
		<tag k="operator" v="Stange kommune" />
		<tag k="operator:type" v="public" />
		<tag k="start_date" v="1982-01-01" />
	</node>
</osm>
