<?xml version="1.0" encoding="UTF-8"?>
<osm generator="osmapis" version="0.6">
	<node id="-1911" lat="60.73968" lon="11.24035">
		<tag k="amenity" v="kindergarten" />
		<tag k="capacity" v="8" />
		<tag k="contact:phone" v="62 57 85 46" />
		<tag k="max_age" v="5" />
		<tag k="min_age" v="1" />
		<tag k="name" v="Huse Gards- Familiebarnehage AS" />
		<tag k="no-barnehage:nsrid" v="1020669" />
		<tag k="operator" v="Huse Gards- Familiebarnehage AS" />
		<tag k="operator:type" v="private" />
		<tag k="start_date" v="2000-08-21" />
	</node>
	<node id="-1905" lat="60.76738" lon="11.15521">
		<tag k="amenity" v="kindergarten" />
		<tag k="capacity" v="5" />
		<tag k="contact:email" v="bjorklundfbh@gmail.com" />
		<tag k="contact:phone" v="62 57 76 27" />
		<tag k="max_age" v="5" />
		<tag k="min_age" v="1" />
		<tag k="name" v="Bjørklund Familiebarnehage Da" />
		<tag k="no-barnehage:nsrid" v="1022045" />
		<tag k="operator" v="Bjørklund Familiebarnehage Da" />
		<tag k="operator:type" v="private" />
		<tag k="start_date" v="2010-03-01" />
	</node>
</osm>
