<?xml version="1.0" encoding="UTF-8"?>
<osm generator="osmapis" version="0.6">
	<node id="-5776" lat="68.11604" lon="15.82172">
		<tag k="ADDRESS" v="Vednesset 193, 8290 SKUTVIK" />
		<tag k="amenity" v="kindergarten" />
		<tag k="capacity" v="6" />
		<tag k="max_age" v="5" />
		<tag k="min_age" v="1" />
		<tag k="name" v="Skutvik barnehage" />
		<tag k="no-barnehage:nsrid" v="1013678" />
		<tag k="operator" v="Hamarøy kommune" />
		<tag k="operator:type" v="public" />
	</node>
	<node id="-5775" lat="68.08027" lon="15.62394">
		<tag k="ADDRESS" v="Hersethskogen, 8294 HAMARØY" />
		<tag k="amenity" v="kindergarten" />
		<tag k="capacity" v="25" />
		<tag k="max_age" v="5" />
		<tag k="min_age" v="1" />
		<tag k="name" v="Marielund barnehage" />
		<tag k="no-barnehage:nsrid" v="1016224" />
		<tag k="operator" v="Hamarøy kommune" />
		<tag k="operator:type" v="public" />
	</node>
	<node id="-5774" lat="0.0" lon="0.0">
		<tag k="ADDRESS" v=", 8260 INNHAVET" />
		<tag k="amenity" v="kindergarten" />
		<tag k="capacity" v="9" />
		<tag k="max_age" v="5" />
		<tag k="min_age" v="1" />
		<tag k="name" v="Innhavet oppvekstsenter avd. barnehage" />
		<tag k="no-barnehage:nsrid" v="1016813" />
		<tag k="operator" v="Hamarøy kommune" />
		<tag k="operator:type" v="public" />
	</node>
	<node id="-5777" lat="0.0" lon="0.0">
		<tag k="ADDRESS" v="Ulvsvåg 165, 8276 ULVSVÅG" />
		<tag k="amenity" v="kindergarten" />
		<tag k="capacity" v="14" />
		<tag k="max_age" v="5" />
		<tag k="min_age" v="1" />
		<tag k="name" v="Ulvsvag barnehage" />
		<tag k="no-barnehage:nsrid" v="1013679" />
		<tag k="operator" v="Hamarøy kommune" />
		<tag k="operator:type" v="public" />
	</node>
</osm>
