<?xml version="1.0" encoding="UTF-8"?>
<osm generator="osmapis" version="0.6">
	<node id="-5624" lat="67.9633" lon="15.9319">
		<tag k="amenity" v="kindergarten" />
		<tag k="capacity" v="13" />
		<tag k="contact:email" v="es@hamaroy.kommune.no" />
		<tag k="contact:phone" v="+47 75772586" />
		<tag k="max_age" v="5" />
		<tag k="min_age" v="1" />
		<tag k="name" v="Innhavet Oppvekstsenter Avd Barnehage" />
		<tag k="no-barnehage:nsrid" v="1016813" />
		<tag k="operator" v="Hamarøy kommune" />
		<tag k="operator:type" v="public" />
		<tag k="start_date" v="1989-01-01" />
	</node>
	<node id="-5627" lat="68.117" lon="15.8658">
		<tag k="amenity" v="kindergarten" />
		<tag k="capacity" v="14" />
		<tag k="contact:email" v="inger.bakkeli@hamaroy.kommune.no" />
		<tag k="contact:phone" v="+47 75 77 16 40" />
		<tag k="max_age" v="5" />
		<tag k="min_age" v="1" />
		<tag k="name" v="Ulvsvåg Oppvekstsenter Avd Barnehage" />
		<tag k="no-barnehage:nsrid" v="1013679" />
		<tag k="operator" v="Hamarøy kommune" />
		<tag k="operator:type" v="public" />
		<tag k="start_date" v="1989-01-01" />
	</node>
	<node id="-5626" lat="68.0168" lon="15.3276">
		<tag k="amenity" v="kindergarten" />
		<tag k="capacity" v="21" />
		<tag k="contact:email" v="dag.winsjansen@hamaroy.kommune.no" />
		<tag k="max_age" v="5" />
		<tag k="min_age" v="1" />
		<tag k="name" v="Skutvik Oppvekstsenter Avd Barnehage" />
		<tag k="no-barnehage:nsrid" v="1013678" />
		<tag k="operator" v="Hamarøy kommune" />
		<tag k="operator:type" v="public" />
		<tag k="start_date" v="1989-01-01" />
	</node>
	<node id="-5625" lat="68.08114" lon="15.61707">
		<tag k="amenity" v="kindergarten" />
		<tag k="capacity" v="22" />
		<tag k="contact:email" v="marielund.barnehage@hamaroy.kommune.no" />
		<tag k="contact:phone" v="+47 75 77 01 42" />
		<tag k="max_age" v="5" />
		<tag k="min_age" v="1" />
		<tag k="name" v="Marielund barnehage" />
		<tag k="no-barnehage:nsrid" v="1016224" />
		<tag k="operator" v="Hamarøy kommune" />
		<tag k="operator:type" v="public" />
		<tag k="start_date" v="1992-08-01" />
	</node>
</osm>
