<?xml version="1.0" encoding="UTF-8"?>
<osm version="0.6" generator="osmapis">
	<node lat="59.77612" lon="10.49338" id="-2445">
		<tag k="ADDRESS" v="Furulia 3A, 3470 SLEMMESTAD" />
		<tag k="amenity" v="kindergarten" />
		<tag k="capacity" v="9" />
		<tag k="contact:website" v="http://ja-riis.wix.com/furuliafamiliebhg" />
		<tag k="max_age" v="5" />
		<tag k="min_age" v="1" />
		<tag k="name" v="Furulia familiebarnehage" />
		<tag k="no-barnehage:nsrid" v="984614381" />
		<tag k="operator" v="Furulia familiebarnehage Ruud" />
		<tag k="operator:type" v="private" />
	</node>
	<node lat="59.77639" lon="10.41346" id="-2450">
		<tag k="ADDRESS" v="Hallenåsen terrasse 41, 1389 HEGGEDAL" />
		<tag k="amenity" v="kindergarten" />
		<tag k="capacity" v="6" />
		<tag k="contact:website" v="http://hallenasen-familiebarnehage.webnode.com/" />
		<tag k="max_age" v="5" />
		<tag k="min_age" v="1" />
		<tag k="name" v="Hallenåsen familiebarnehage Marit Regine Kinserdal" />
		<tag k="no-barnehage:nsrid" v="917487669" />
		<tag k="operator" v="Hallenåsen familiebarnehage Marit Regine Kinserdal" />
		<tag k="operator:type" v="private" />
	</node>
	<node lat="59.75354" lon="10.46588" id="-2457">
		<tag k="ADDRESS" v="Aukeveien 118D, 3472 BØDALEN" />
		<tag k="amenity" v="kindergarten" />
		<tag k="capacity" v="9" />
		<tag k="max_age" v="5" />
		<tag k="min_age" v="1" />
		<tag k="name" v="Hno barnehage" />
		<tag k="no-barnehage:nsrid" v="897894602" />
		<tag k="operator" v="Hno barnehage AS" />
		<tag k="operator:type" v="private" />
	</node>
	<node lat="59.78842" lon="10.48111" id="-2463">
		<tag k="ADDRESS" v="Høymyrmarka 58, 1391 VOLLEN" />
		<tag k="amenity" v="kindergarten" />
		<tag k="capacity" v="3" />
		<tag k="contact:website" v="http://www.hoymyrmarka.barnehageside.no" />
		<tag k="max_age" v="2" />
		<tag k="min_age" v="1" />
		<tag k="name" v="Høymyrmarka familiebarnehage" />
		<tag k="no-barnehage:nsrid" v="994966065" />
		<tag k="operator" v="Høymyrmarka Familiebarnehage Tone Karin Bjellvåg" />
		<tag k="operator:type" v="private" />
	</node>
	<node lat="59.82906" lon="10.41578" id="-2495">
		<tag k="ADDRESS" v="Drengsrudveien 40, 1383 ASKER" />
		<tag k="amenity" v="kindergarten" />
		<tag k="capacity" v="4" />
		<tag k="max_age" v="2" />
		<tag k="min_age" v="1" />
		<tag k="name" v="Snoopy familiebarnehage" />
		<tag k="no-barnehage:nsrid" v="994864653" />
		<tag k="operator" v="Snoopy Familie barnehage Manjit Kaur" />
		<tag k="operator:type" v="private" />
	</node>
	<node lat="59.67031" lon="10.53287" id="-2510">
		<tag k="ADDRESS" v="Falkeveien 25, 3475 SÆTRE" />
		<tag k="amenity" v="kindergarten" />
		<tag k="capacity" v="8" />
		<tag k="max_age" v="2" />
		<tag k="min_age" v="1" />
		<tag k="name" v="Utsikt1 familiebarnehage" />
		<tag k="no-barnehage:nsrid" v="992232196" />
		<tag k="operator" v="Rigmor Børve familiebarnehage" />
		<tag k="operator:type" v="private" />
	</node>
	<node lat="59.79919" lon="10.48606" id="-2517">
		<tag k="ADDRESS" v="Råengveien 3a, 1390 VOLLEN" />
		<tag k="amenity" v="kindergarten" />
		<tag k="capacity" v="3" />
		<tag k="max_age" v="5" />
		<tag k="min_age" v="1" />
		<tag k="name" v="Vollen familiebarnehage" />
		<tag k="no-barnehage:nsrid" v="995079151" />
		<tag k="operator" v="Vollen Familiebarnehage Linda Cecilie Elverum Keyn" />
		<tag k="operator:type" v="private" />
	</node>
	<node lat="59.73797" lon="10.40348" id="-2519">
		<tag k="ADDRESS" v="Furutoppveien 61, 3440 RØYKEN" />
		<tag k="amenity" v="kindergarten" />
		<tag k="capacity" v="3" />
		<tag k="max_age" v="5" />
		<tag k="min_age" v="1" />
		<tag k="name" v="Vår familiebarnehage" />
		<tag k="no-barnehage:nsrid" v="918100717" />
		<tag k="operator" v="Ayno Ans" />
		<tag k="operator:type" v="private" />
	</node>
</osm>
