<?xml version="1.0" encoding="UTF-8"?>
<osm version="0.6" generator="osmapis">
	<node lat="60.16453" lon="9.01753" id="-2845">
		<tag k="ADDRESS" v="Langodden 40, 3629 NORE" />
		<tag k="amenity" v="kindergarten" />
		<tag k="capacity" v="23" />
		<tag k="max_age" v="5" />
		<tag k="min_age" v="1" />
		<tag k="name" v="Nore barnehage" />
		<tag k="no-barnehage:nsrid" v="975306682" />
		<tag k="operator" v="Nore og Uvdal kommune" />
		<tag k="operator:type" v="public" />
	</node>
	<node lat="60.26926" lon="8.93985" id="-2846">
		<tag k="ADDRESS" v="Vikangrendvegen 1, 3630 RØDBERG" />
		<tag k="amenity" v="kindergarten" />
		<tag k="capacity" v="31" />
		<tag k="max_age" v="5" />
		<tag k="min_age" v="1" />
		<tag k="name" v="Rødberg barnehage" />
		<tag k="no-barnehage:nsrid" v="975306690" />
		<tag k="operator" v="Nore og Uvdal kommune" />
		<tag k="operator:type" v="public" />
	</node>
	<node lat="60.46119" lon="8.76038" id="-2847">
		<tag k="ADDRESS" v="Tunhovdvegen 2164, 3544 TUNHOVD" />
		<tag k="amenity" v="kindergarten" />
		<tag k="capacity" v="4" />
		<tag k="max_age" v="5" />
		<tag k="min_age" v="3" />
		<tag k="name" v="Tunhovd barnehage" />
		<tag k="no-barnehage:nsrid" v="973750399" />
		<tag k="operator" v="Nore og Uvdal kommune" />
		<tag k="operator:type" v="public" />
	</node>
	<node lat="60.27068" lon="8.74656" id="-2848">
		<tag k="ADDRESS" v="Uvdalsvegen 1209, 3632 UVDAL" />
		<tag k="amenity" v="kindergarten" />
		<tag k="capacity" v="30" />
		<tag k="max_age" v="5" />
		<tag k="min_age" v="1" />
		<tag k="name" v="Uvdal barnehage" />
		<tag k="no-barnehage:nsrid" v="975296695" />
		<tag k="operator" v="Nore og Uvdal kommune" />
		<tag k="operator:type" v="public" />
	</node>
</osm>
