<?xml version="1.0" encoding="UTF-8"?>
<osm generator="osmapis" version="0.6">
	<node id="-3426" lat="60.12316" lon="11.47961">
		<tag k="ADDRESS" v="Kjuushagen 11, 2150 ÅRNES" />
		<tag k="amenity" v="kindergarten" />
		<tag k="capacity" v="117" />
		<tag k="max_age" v="5" />
		<tag k="min_age" v="1" />
		<tag k="name" v="Årnes barnehage" />
		<tag k="no-barnehage:nsrid" v="2000215" />
		<tag k="operator" v="Nes kommune" />
		<tag k="operator:type" v="public" />
	</node>
	<node id="-3425" lat="60.1588" lon="11.41738">
		<tag k="ADDRESS" v="Hovindvegen 10, 2160 VORMSUND" />
		<tag k="amenity" v="kindergarten" />
		<tag k="capacity" v="58" />
		<tag k="contact:website" v="http://vormsund.barnehage.no" />
		<tag k="max_age" v="5" />
		<tag k="min_age" v="1" />
		<tag k="name" v="Vormsund barnehage" />
		<tag k="no-barnehage:nsrid" v="1020171" />
		<tag k="operator" v="Vormsund barnehage Sa" />
		<tag k="operator:type" v="private" />
	</node>
	<node id="-3424" lat="60.09994" lon="11.36486">
		<tag k="ADDRESS" v="Hvamsmovegen 16, 2165 HVAM" />
		<tag k="amenity" v="kindergarten" />
		<tag k="capacity" v="20" />
		<tag k="contact:website" v="http://www.hoppensprett.no" />
		<tag k="max_age" v="5" />
		<tag k="min_age" v="1" />
		<tag k="name" v="Udnes naturbarnehage" />
		<tag k="no-barnehage:nsrid" v="1019570" />
		<tag k="operator" v="Udnes Naturbarnehage AS" />
		<tag k="operator:type" v="private" />
	</node>
	<node id="-3423" lat="60.10844" lon="11.37048">
		<tag k="ADDRESS" v="Tomteråsvegen 10, 2165 HVAM" />
		<tag k="amenity" v="kindergarten" />
		<tag k="capacity" v="42" />
		<tag k="contact:website" v="http://tomterasen.barnehage.no" />
		<tag k="max_age" v="5" />
		<tag k="min_age" v="1" />
		<tag k="name" v="Tomteråsen barnehage" />
		<tag k="no-barnehage:nsrid" v="1020489" />
		<tag k="operator" v="Tomteråsen barnehage Sa" />
		<tag k="operator:type" v="private" />
	</node>
	<node id="-3422" lat="60.1193" lon="11.48234">
		<tag k="ADDRESS" v="Svarverudvegen 109, 2150 ÅRNES" />
		<tag k="amenity" v="kindergarten" />
		<tag k="max_age" v="5" />
		<tag k="min_age" v="1" />
		<tag k="name" v="Svarverud barnehage" />
		<tag k="no-barnehage:nsrid" v="1017364" />
		<tag k="operator" v="Nes kommune" />
		<tag k="operator:type" v="public" />
	</node>
	<node id="-3421" lat="60.23146" lon="11.51859">
		<tag k="ADDRESS" v="Skograndvegen 13, 2164 SKOGBYGDA" />
		<tag k="amenity" v="kindergarten" />
		<tag k="capacity" v="39" />
		<tag k="max_age" v="5" />
		<tag k="min_age" v="1" />
		<tag k="name" v="Skogbygda barnehage" />
		<tag k="no-barnehage:nsrid" v="1015916" />
		<tag k="operator" v="Nes kommune" />
		<tag k="operator:type" v="public" />
	</node>
	<node id="-3420" lat="60.12559" lon="11.34134">
		<tag k="ADDRESS" v="Tellusvegen 2, 2165 HVAM" />
		<tag k="amenity" v="kindergarten" />
		<tag k="capacity" v="95" />
		<tag k="max_age" v="5" />
		<tag k="min_age" v="1" />
		<tag k="name" v="Norlandia Neskollen Tellusvegen barnehage" />
		<tag k="no-barnehage:nsrid" v="1013101" />
		<tag k="operator" v="Norlandia Barnehagene AS" />
		<tag k="operator:type" v="private" />
	</node>
	<node id="-3419" lat="60.12464" lon="11.33846">
		<tag k="ADDRESS" v="Melkevegen 23, 2165 HVAM" />
		<tag k="amenity" v="kindergarten" />
		<tag k="capacity" v="116" />
		<tag k="contact:website" v="http://neskollen-melkevegen.norlandiabarnehagene.no/" />
		<tag k="max_age" v="5" />
		<tag k="min_age" v="1" />
		<tag k="name" v="Norlandia Neskollen Melkeveien barnehage" />
		<tag k="no-barnehage:nsrid" v="1013029" />
		<tag k="operator" v="Norlandia Barnehagene AS" />
		<tag k="operator:type" v="private" />
	</node>
	<node id="-3418" lat="60.12105" lon="11.46745">
		<tag k="ADDRESS" v="Seterstøavegen 2b, 2150 ÅRNES" />
		<tag k="amenity" v="kindergarten" />
		<tag k="name" v="Nes kommune familiens Hus åpen barnehage" />
		<tag k="no-barnehage:nsrid" v="1016966" />
		<tag k="operator" v="Nes kommune" />
		<tag k="operator:type" v="public" />
	</node>
	<node id="-3417" lat="60.05382" lon="11.37182">
		<tag k="ADDRESS" v="Stranda 7, 1929 AULI" />
		<tag k="amenity" v="kindergarten" />
		<tag k="capacity" v="52" />
		<tag k="contact:website" v="http://www.laringsverkstedet.no/haga" />
		<tag k="max_age" v="5" />
		<tag k="min_age" v="1" />
		<tag k="name" v="Læringsverkstedet barnehage avd. Haga" />
		<tag k="no-barnehage:nsrid" v="1015576" />
		<tag k="operator" v="Læringsverkstedet AS" />
		<tag k="operator:type" v="private" />
	</node>
	<node id="-3416" lat="60.11633" lon="11.34142">
		<tag k="ADDRESS" v="Sekstanten 25, 2165 HVAM" />
		<tag k="amenity" v="kindergarten" />
		<tag k="capacity" v="80" />
		<tag k="contact:website" v="http://www.laringsverkstedet.no/barnehage/neskollen" />
		<tag k="max_age" v="5" />
		<tag k="min_age" v="1" />
		<tag k="name" v="Læringsverkstedet barnehage avd. Øvre Neskollen" />
		<tag k="no-barnehage:nsrid" v="2000145" />
		<tag k="operator" v="Læringsverkstedet AS" />
		<tag k="operator:type" v="private" />
	</node>
	<node id="-3415" lat="60.11946" lon="11.47383">
		<tag k="ADDRESS" v="Møllertorget 18b, 2150 ÅRNES" />
		<tag k="amenity" v="kindergarten" />
		<tag k="capacity" v="56" />
		<tag k="contact:website" v="http://www.laringsverkstedet.no/barnehage/husmo" />
		<tag k="max_age" v="5" />
		<tag k="min_age" v="1" />
		<tag k="name" v="Læringsverkstedet barnehage avd. Husmo" />
		<tag k="no-barnehage:nsrid" v="1020309" />
		<tag k="operator" v="Læringsverkstedet AS" />
		<tag k="operator:type" v="private" />
	</node>
	<node id="-3414" lat="60.02581" lon="11.33004">
		<tag k="ADDRESS" v="Eidsveien 112, 1927 RÅNÅSFOSS" />
		<tag k="amenity" v="kindergarten" />
		<tag k="name" v="Lykkeliten familie barnehage" />
		<tag k="no-barnehage:nsrid" v="1021977" />
		<tag k="operator" v="Lykkeliten Familie barnehage Da" />
		<tag k="operator:type" v="private" />
	</node>
	<node id="-3413" lat="60.05457" lon="11.38135">
		<tag k="ADDRESS" v="Hagaplassen 1, 1929 AULI" />
		<tag k="amenity" v="kindergarten" />
		<tag k="capacity" v="45" />
		<tag k="max_age" v="5" />
		<tag k="min_age" v="1" />
		<tag k="name" v="Korsdalen barnehage avd. Hagadalen" />
		<tag k="no-barnehage:nsrid" v="1017761" />
		<tag k="operator" v="Korsdalen barnehage Sa" />
		<tag k="operator:type" v="private" />
	</node>
	<node id="-3412" lat="60.03698" lon="11.36934">
		<tag k="ADDRESS" v="Grendehusvegen 2, 1929 AULI" />
		<tag k="amenity" v="kindergarten" />
		<tag k="capacity" v="82" />
		<tag k="max_age" v="5" />
		<tag k="min_age" v="1" />
		<tag k="name" v="Korsdalen barnehage avd. grendehusvegen" />
		<tag k="no-barnehage:nsrid" v="1015980" />
		<tag k="operator" v="Korsdalen barnehage Sa" />
		<tag k="operator:type" v="private" />
	</node>
	<node id="-3411" lat="60.08848" lon="11.48051">
		<tag k="ADDRESS" v="Fjellfotvegen 58, 2150 ÅRNES" />
		<tag k="amenity" v="kindergarten" />
		<tag k="capacity" v="105" />
		<tag k="max_age" v="5" />
		<tag k="min_age" v="1" />
		<tag k="name" v="Hoppensprett Fjellfoten" />
		<tag k="no-barnehage:nsrid" v="1017545" />
		<tag k="operator" v="Hoppensprett Nes AS" />
		<tag k="operator:type" v="private" />
	</node>
	<node id="-3410" lat="60.21391" lon="11.33552">
		<tag k="ADDRESS" v="Brårud, Gunnerudberget, 2162 BRÅRUD" />
		<tag k="amenity" v="kindergarten" />
		<tag k="capacity" v="52" />
		<tag k="max_age" v="5" />
		<tag k="min_age" v="1" />
		<tag k="name" v="Hoppensprett Brårud" />
		<tag k="no-barnehage:nsrid" v="1013499" />
		<tag k="operator" v="Hoppensprett Nes AS" />
		<tag k="operator:type" v="private" />
	</node>
	<node id="-3409" lat="60.18036" lon="11.51543">
		<tag k="ADDRESS" v="Skolealleen 4, 2166 OPPAKER" />
		<tag k="amenity" v="kindergarten" />
		<tag k="capacity" v="93" />
		<tag k="contact:website" v="http://www.espira.no" />
		<tag k="max_age" v="5" />
		<tag k="min_age" v="1" />
		<tag k="name" v="Espira Opaker barnehage" />
		<tag k="no-barnehage:nsrid" v="1021756" />
		<tag k="operator" v="Espira Opaker AS" />
		<tag k="operator:type" v="private" />
	</node>
	<node id="-3408" lat="60.11796" lon="11.47775">
		<tag k="ADDRESS" v="Øvre Drognesveg 2, 2150 ÅRNES" />
		<tag k="amenity" v="kindergarten" />
		<tag k="capacity" v="103" />
		<tag k="contact:website" v="http://www.espira.no" />
		<tag k="max_age" v="5" />
		<tag k="min_age" v="1" />
		<tag k="name" v="Espira Kløverenga barnehage" />
		<tag k="no-barnehage:nsrid" v="1021215" />
		<tag k="operator" v="Espira Kløverenga AS" />
		<tag k="operator:type" v="private" />
	</node>
	<node id="-3407" lat="60.226" lon="11.38135">
		<tag k="ADDRESS" v="Grinderstubben 1, 2170 FENSTAD" />
		<tag k="amenity" v="kindergarten" />
		<tag k="capacity" v="69" />
		<tag k="contact:website" v="http://www.espira.no" />
		<tag k="max_age" v="5" />
		<tag k="min_age" v="1" />
		<tag k="name" v="Espira Fenstad barnehage" />
		<tag k="no-barnehage:nsrid" v="1021172" />
		<tag k="operator" v="Espira Fenstad AS" />
		<tag k="operator:type" v="private" />
	</node>
	<node id="-3406" lat="60.11349" lon="11.46164">
		<tag k="ADDRESS" v="Evangjordet, 2150 ÅRNES" />
		<tag k="amenity" v="kindergarten" />
		<tag k="capacity" v="4" />
		<tag k="max_age" v="2" />
		<tag k="min_age" v="1" />
		<tag k="name" v="Espira Evangtunet barnehage" />
		<tag k="no-barnehage:nsrid" v="2000523" />
		<tag k="operator" v="Espira Barnehager AS" />
		<tag k="operator:type" v="private" />
	</node>
	<node id="-3405" lat="60.03683" lon="11.36762">
		<tag k="ADDRESS" v="Grendehusvegen 1, 1929 AULI" />
		<tag k="amenity" v="kindergarten" />
		<tag k="capacity" v="64" />
		<tag k="max_age" v="5" />
		<tag k="min_age" v="1" />
		<tag k="name" v="Auli barnehage" />
		<tag k="no-barnehage:nsrid" v="1013782" />
		<tag k="operator" v="Nes kommune" />
		<tag k="operator:type" v="public" />
	</node>
</osm>
