<?xml version="1.0" encoding="UTF-8"?>
<osm generator="osmapis" version="0.6">
	<node id="-5307" lat="63.09687" lon="7.85188">
		<tag k="amenity" v="kindergarten" />
		<tag k="capacity" v="58" />
		<tag k="max_age" v="5" />
		<tag k="min_age" v="1" />
		<tag k="name" v="Veslefrikk barnehage" />
		<tag k="no-barnehage:nsrid" v="1019994" />
		<tag k="operator" v="Veslefrikk barnehage Sa" />
		<tag k="operator:type" v="private" />
	</node>
	<node id="-5306" lat="63.09606" lon="7.82117">
		<tag k="amenity" v="kindergarten" />
		<tag k="capacity" v="28" />
		<tag k="contact:website" v="http://www.vassbakken.barnehage.no" />
		<tag k="max_age" v="5" />
		<tag k="min_age" v="1" />
		<tag k="name" v="Vassbakken barnehage" />
		<tag k="no-barnehage:nsrid" v="1020098" />
		<tag k="operator" v="Vassbakken barnehage Sa" />
		<tag k="operator:type" v="private" />
	</node>
	<node id="-5305" lat="63.03663" lon="7.78302">
		<tag k="amenity" v="kindergarten" />
		<tag k="capacity" v="73" />
		<tag k="contact:website" v="http://www.storbakken.barnehage.no" />
		<tag k="max_age" v="5" />
		<tag k="min_age" v="1" />
		<tag k="name" v="Storbakken barnehage" />
		<tag k="no-barnehage:nsrid" v="1020833" />
		<tag k="operator" v="Storbakken barnehage Sa" />
		<tag k="operator:type" v="private" />
	</node>
	<node id="-5304" lat="63.12241" lon="7.75023">
		<tag k="amenity" v="kindergarten" />
		<tag k="capacity" v="47" />
		<tag k="max_age" v="5" />
		<tag k="min_age" v="1" />
		<tag k="name" v="Røsslyngveien barnehage" />
		<tag k="no-barnehage:nsrid" v="1018174" />
		<tag k="operator" v="Kristiansund kommune" />
		<tag k="operator:type" v="public" />
	</node>
	<node id="-5303" lat="63.09402" lon="7.81628">
		<tag k="amenity" v="kindergarten" />
		<tag k="capacity" v="82" />
		<tag k="max_age" v="5" />
		<tag k="min_age" v="1" />
		<tag k="name" v="Rensvik barnehage" />
		<tag k="no-barnehage:nsrid" v="1018201" />
		<tag k="operator" v="Kristiansund kommune" />
		<tag k="operator:type" v="public" />
	</node>
	<node id="-5302" lat="63.11636" lon="7.75039">
		<tag k="amenity" v="kindergarten" />
		<tag k="max_age" v="5" />
		<tag k="min_age" v="1" />
		<tag k="name" v="Nøtteliten barnehage" />
		<tag k="no-barnehage:nsrid" v="1021863" />
		<tag k="operator" v="Nøtteliten barnehage AS" />
		<tag k="operator:type" v="private" />
	</node>
	<node id="-5301" lat="63.10946" lon="7.76128">
		<tag k="amenity" v="kindergarten" />
		<tag k="name" v="Nordlandet barnehage" />
		<tag k="no-barnehage:nsrid" v="2000358" />
		<tag k="operator" v="Kristiansund kommune" />
		<tag k="operator:type" v="public" />
	</node>
	<node id="-5300" lat="63.11222" lon="7.71702">
		<tag k="amenity" v="kindergarten" />
		<tag k="capacity" v="64" />
		<tag k="max_age" v="5" />
		<tag k="min_age" v="1" />
		<tag k="name" v="Læringsverkstedet barnehage avd. Blåtoppen" />
		<tag k="no-barnehage:nsrid" v="1016727" />
		<tag k="operator" v="Læringsverkstedet AS" />
		<tag k="operator:type" v="private" />
	</node>
	<node id="-5299" lat="63.12272" lon="7.7543">
		<tag k="amenity" v="kindergarten" />
		<tag k="capacity" v="75" />
		<tag k="contact:website" v="http://laringsverkstedet.no/barnehage/atlantis" />
		<tag k="max_age" v="5" />
		<tag k="min_age" v="1" />
		<tag k="name" v="Læringsverkstedet barnehage avd. Atlantis" />
		<tag k="no-barnehage:nsrid" v="1015753" />
		<tag k="operator" v="Læringsverkstedet AS" />
		<tag k="operator:type" v="private" />
	</node>
	<node id="-5298" lat="63.1242" lon="7.73799">
		<tag k="amenity" v="kindergarten" />
		<tag k="capacity" v="121" />
		<tag k="contact:website" v="http://laringsverskstedet.no" />
		<tag k="max_age" v="5" />
		<tag k="min_age" v="1" />
		<tag k="name" v="Læringsverkstedet barnehage avd. Kristiansund idrettsbarnehage" />
		<tag k="no-barnehage:nsrid" v="1021567" />
		<tag k="operator" v="Læringsverkstedet AS" />
		<tag k="operator:type" v="private" />
	</node>
	<node id="-5297" lat="63.12551" lon="7.80135">
		<tag k="amenity" v="kindergarten" />
		<tag k="capacity" v="91" />
		<tag k="max_age" v="5" />
		<tag k="min_age" v="1" />
		<tag k="name" v="Læringsverkstedet barnehage avd. Draget" />
		<tag k="no-barnehage:nsrid" v="1014065" />
		<tag k="operator" v="Læringsverkstedet AS" />
		<tag k="operator:type" v="private" />
	</node>
	<node id="-5296" lat="63.09925" lon="7.86055">
		<tag k="amenity" v="kindergarten" />
		<tag k="capacity" v="42" />
		<tag k="max_age" v="5" />
		<tag k="min_age" v="1" />
		<tag k="name" v="Kvalvika barnehage" />
		<tag k="no-barnehage:nsrid" v="1021979" />
		<tag k="operator" v="Kvalvika barnehage AS" />
		<tag k="operator:type" v="private" />
	</node>
	<node id="-5295" lat="63.1252" lon="7.70921">
		<tag k="amenity" v="kindergarten" />
		<tag k="capacity" v="122" />
		<tag k="max_age" v="5" />
		<tag k="min_age" v="1" />
		<tag k="name" v="Karihola barnehage" />
		<tag k="no-barnehage:nsrid" v="1018172" />
		<tag k="operator" v="Kristiansund kommune" />
		<tag k="operator:type" v="public" />
	</node>
	<node id="-5294" lat="0.0" lon="0.0">
		<tag k="amenity" v="kindergarten" />
		<tag k="name" v="Jørihaugen FUS barnehage" />
		<tag k="no-barnehage:nsrid" v="1026345" />
		<tag k="operator" v="Jørihaugen Fus barnehage AS" />
		<tag k="operator:type" v="private" />
	</node>
	<node id="-5293" lat="63.10834" lon="7.76031">
		<tag k="amenity" v="kindergarten" />
		<tag k="capacity" v="28" />
		<tag k="max_age" v="5" />
		<tag k="min_age" v="1" />
		<tag k="name" v="Juulenga barnehage" />
		<tag k="no-barnehage:nsrid" v="1018171" />
		<tag k="operator" v="Kristiansund kommune" />
		<tag k="operator:type" v="public" />
	</node>
	<node id="-5292" lat="63.1021" lon="7.734">
		<tag k="amenity" v="kindergarten" />
		<tag k="capacity" v="47" />
		<tag k="max_age" v="5" />
		<tag k="min_age" v="1" />
		<tag k="name" v="Heinsa barnehage" />
		<tag k="no-barnehage:nsrid" v="1018170" />
		<tag k="operator" v="Kristiansund kommune" />
		<tag k="operator:type" v="public" />
	</node>
	<node id="-5291" lat="63.08931" lon="7.8832">
		<tag k="amenity" v="kindergarten" />
		<tag k="capacity" v="26" />
		<tag k="max_age" v="5" />
		<tag k="min_age" v="1" />
		<tag k="name" v="Gårdsbarnehage" />
		<tag k="no-barnehage:nsrid" v="1021293" />
		<tag k="operator" v="Gårdsbarnehage AS" />
		<tag k="operator:type" v="private" />
	</node>
	<node id="-5290" lat="63.11189" lon="7.78485">
		<tag k="amenity" v="kindergarten" />
		<tag k="capacity" v="37" />
		<tag k="max_age" v="5" />
		<tag k="min_age" v="1" />
		<tag k="name" v="Fosna barnehage" />
		<tag k="no-barnehage:nsrid" v="1012567" />
		<tag k="operator" v="Kristiansund kommune" />
		<tag k="operator:type" v="public" />
	</node>
	<node id="-5289" lat="63.11939" lon="7.78906">
		<tag k="amenity" v="kindergarten" />
		<tag k="capacity" v="72" />
		<tag k="max_age" v="5" />
		<tag k="min_age" v="1" />
		<tag k="name" v="Dale barnehage" />
		<tag k="no-barnehage:nsrid" v="1018169" />
		<tag k="operator" v="Kristiansund kommune" />
		<tag k="operator:type" v="public" />
	</node>
	<node id="-5288" lat="63.11655" lon="7.75161">
		<tag k="amenity" v="kindergarten" />
		<tag k="capacity" v="19" />
		<tag k="max_age" v="5" />
		<tag k="min_age" v="1" />
		<tag k="name" v="Blåskjellet barnehage" />
		<tag k="no-barnehage:nsrid" v="1020509" />
		<tag k="operator" v="Blåskjellet Barnepark Da" />
		<tag k="operator:type" v="private" />
	</node>
	<node id="-5287" lat="63.12243" lon="7.78931">
		<tag k="amenity" v="kindergarten" />
		<tag k="capacity" v="50" />
		<tag k="max_age" v="5" />
		<tag k="min_age" v="1" />
		<tag k="name" v="Abc Bakken barnehage" />
		<tag k="no-barnehage:nsrid" v="1020086" />
		<tag k="operator" v="Kristiansund barnehage Sa" />
		<tag k="operator:type" v="private" />
	</node>
</osm>
