<?xml version="1.0" encoding="UTF-8"?>
<osm generator="osmapis" version="0.6">
	<node id="-4587" lat="63.09687" lon="7.851883">
		<tag k="amenity" v="kindergarten" />
		<tag k="capacity" v="60" />
		<tag k="contact:phone" v="71 52 53 78" />
		<tag k="max_age" v="5" />
		<tag k="min_age" v="1" />
		<tag k="name" v="Veslefrikk barnehage Sa" />
		<tag k="no-barnehage:nsrid" v="1019994" />
		<tag k="operator" v="Veslefrikk barnehage Sa" />
		<tag k="operator:type" v="private" />
		<tag k="start_date" v="1991-10-01" />
	</node>
	<node id="-4586" lat="63.09606" lon="7.821179">
		<tag k="amenity" v="kindergarten" />
		<tag k="capacity" v="31" />
		<tag k="contact:phone" v="71525035" />
		<tag k="max_age" v="5" />
		<tag k="min_age" v="1" />
		<tag k="name" v="Vassbakken barnehage Sa" />
		<tag k="no-barnehage:nsrid" v="1020098" />
		<tag k="operator" v="Vassbakken barnehage Sa" />
		<tag k="operator:type" v="private" />
		<tag k="start_date" v="1990-09-15" />
	</node>
	<node id="-4585" lat="63.03577" lon="7.780806">
		<tag k="amenity" v="kindergarten" />
		<tag k="capacity" v="80" />
		<tag k="contact:email" v="storbakken@barnehage.no" />
		<tag k="contact:phone" v="71 52 61 91" />
		<tag k="contact:website" v="http://www.storbakken.barnehage.no" />
		<tag k="max_age" v="5" />
		<tag k="min_age" v="1" />
		<tag k="name" v="Storbakken barnehage" />
		<tag k="no-barnehage:nsrid" v="1020833" />
		<tag k="operator" v="Storbakken barnehage Sa" />
		<tag k="operator:type" v="private" />
		<tag k="start_date" v="2002-04-01" />
	</node>
	<node id="-4584" lat="63.1177" lon="7.72668">
		<tag k="amenity" v="kindergarten" />
		<tag k="capacity" v="39" />
		<tag k="contact:email" v="reidun.myrstad@kristiansund.kommune.no" />
		<tag k="contact:phone" v="71 57 52 05" />
		<tag k="max_age" v="5" />
		<tag k="min_age" v="1" />
		<tag k="name" v="Stella Maris barnehage" />
		<tag k="no-barnehage:nsrid" v="1018175" />
		<tag k="operator" v="Kristiansund kommune" />
		<tag k="operator:type" v="public" />
		<tag k="start_date" v="1989-01-01" />
	</node>
	<node id="-4583" lat="63.1224" lon="7.75022">
		<tag k="amenity" v="kindergarten" />
		<tag k="capacity" v="59" />
		<tag k="contact:email" v="elin.elgsaas@kristiansund.kommune.no" />
		<tag k="contact:phone" v="71 57 52 45" />
		<tag k="max_age" v="5" />
		<tag k="min_age" v="1" />
		<tag k="name" v="Røsslyngveien barnehage" />
		<tag k="no-barnehage:nsrid" v="1018174" />
		<tag k="operator" v="Kristiansund kommune" />
		<tag k="operator:type" v="public" />
		<tag k="start_date" v="1989-01-01" />
	</node>
	<node id="-4582" lat="63.094" lon="7.81627">
		<tag k="amenity" v="kindergarten" />
		<tag k="capacity" v="90" />
		<tag k="contact:email" v="heidi.kleivli@kristiansund.kommune.no" />
		<tag k="contact:phone" v="71575755" />
		<tag k="max_age" v="5" />
		<tag k="min_age" v="1" />
		<tag k="name" v="Rensvik barnehage" />
		<tag k="no-barnehage:nsrid" v="1018201" />
		<tag k="operator" v="Kristiansund kommune" />
		<tag k="operator:type" v="public" />
		<tag k="start_date" v="1989-01-01" />
	</node>
	<node id="-4581" lat="63.11646" lon="7.750292">
		<tag k="amenity" v="kindergarten" />
		<tag k="capacity" v="27" />
		<tag k="contact:phone" v="71 58 42 85" />
		<tag k="max_age" v="5" />
		<tag k="min_age" v="1" />
		<tag k="name" v="Nøtteliten barnehage AS" />
		<tag k="no-barnehage:nsrid" v="1021863" />
		<tag k="operator" v="Nøtteliten barnehage AS" />
		<tag k="operator:type" v="private" />
		<tag k="start_date" v="1995-02-23" />
	</node>
	<node id="-4580" lat="63.1196" lon="7.71436">
		<tag k="amenity" v="kindergarten" />
		<tag k="capacity" v="67" />
		<tag k="contact:email" v="reidun.wullum@kristiansund.kommune.no" />
		<tag k="contact:phone" v="71 57 52 00" />
		<tag k="max_age" v="5" />
		<tag k="min_age" v="1" />
		<tag k="name" v="Myra barnehage" />
		<tag k="no-barnehage:nsrid" v="1018173" />
		<tag k="operator" v="Kristiansund kommune" />
		<tag k="operator:type" v="public" />
		<tag k="start_date" v="1989-01-01" />
	</node>
	<node id="-4579" lat="63.09989" lon="7.861467">
		<tag k="amenity" v="kindergarten" />
		<tag k="capacity" v="36" />
		<tag k="contact:email" v="renathe@renathe.no" />
		<tag k="max_age" v="5" />
		<tag k="min_age" v="1" />
		<tag k="name" v="Kvalvika barnehage AS" />
		<tag k="no-barnehage:nsrid" v="1021979" />
		<tag k="operator" v="Kvalvika barnehage AS" />
		<tag k="operator:type" v="private" />
		<tag k="start_date" v="2009-08-01" />
	</node>
	<node id="-4578" lat="63.11034" lon="7.728079">
		<tag k="amenity" v="kindergarten" />
		<tag k="capacity" v="115" />
		<tag k="contact:email" v="terje@idretsbarnehage.no" />
		<tag k="contact:phone" v="71 67 97 64" />
		<tag k="contact:website" v="http://idretsbarnehage.no" />
		<tag k="max_age" v="5" />
		<tag k="min_age" v="1" />
		<tag k="name" v="Kristiansund Idrettsbarnehage AS" />
		<tag k="no-barnehage:nsrid" v="1021567" />
		<tag k="operator" v="Kristiansund Idrettsbarnehage AS" />
		<tag k="operator:type" v="private" />
		<tag k="start_date" v="2007-01-10" />
	</node>
	<node id="-4577" lat="63.1244" lon="7.7198">
		<tag k="amenity" v="kindergarten" />
		<tag k="capacity" v="19" />
		<tag k="contact:email" v="unni.kvale@kristiansund.kommune.no" />
		<tag k="contact:phone" v="71 57 52 35" />
		<tag k="max_age" v="2" />
		<tag k="min_age" v="1" />
		<tag k="name" v="Karihola barnehage Avdeling Lilleputten" />
		<tag k="no-barnehage:nsrid" v="1025301" />
		<tag k="operator" v="Kristiansund kommune" />
		<tag k="operator:type" v="public" />
		<tag k="start_date" v="1992-01-01" />
	</node>
	<node id="-4576" lat="63.1251" lon="7.7096">
		<tag k="amenity" v="kindergarten" />
		<tag k="capacity" v="42" />
		<tag k="contact:email" v="unni.kvale@kristiansund.kommune.no" />
		<tag k="contact:phone" v="71 57 52 30" />
		<tag k="max_age" v="5" />
		<tag k="min_age" v="1" />
		<tag k="name" v="Karihola barnehage" />
		<tag k="no-barnehage:nsrid" v="1018172" />
		<tag k="operator" v="Kristiansund kommune" />
		<tag k="operator:type" v="public" />
		<tag k="start_date" v="1989-01-01" />
	</node>
	<node id="-4575" lat="63.1084" lon="7.7603">
		<tag k="amenity" v="kindergarten" />
		<tag k="capacity" v="42" />
		<tag k="contact:email" v="kari.leren@kristiansund.kommune.no" />
		<tag k="contact:phone" v="71 57 57 65" />
		<tag k="max_age" v="5" />
		<tag k="min_age" v="1" />
		<tag k="name" v="Juulenga barnehage" />
		<tag k="no-barnehage:nsrid" v="1018171" />
		<tag k="operator" v="Kristiansund kommune" />
		<tag k="operator:type" v="public" />
		<tag k="start_date" v="1989-01-01" />
	</node>
	<node id="-4574" lat="63.1021" lon="7.73401">
		<tag k="amenity" v="kindergarten" />
		<tag k="capacity" v="54" />
		<tag k="contact:email" v="ann-kristin.dybvik@kristiansund.kommune.no" />
		<tag k="contact:phone" v="71 57 52 70" />
		<tag k="max_age" v="5" />
		<tag k="min_age" v="1" />
		<tag k="name" v="Heinsa barnehage" />
		<tag k="no-barnehage:nsrid" v="1018170" />
		<tag k="operator" v="Kristiansund kommune" />
		<tag k="operator:type" v="public" />
		<tag k="start_date" v="1989-01-01" />
	</node>
	<node id="-4573" lat="63.08931" lon="7.883192">
		<tag k="amenity" v="kindergarten" />
		<tag k="capacity" v="27" />
		<tag k="contact:email" v="dagligleder@bjerkas.no" />
		<tag k="contact:phone" v="71 52 89 89" />
		<tag k="max_age" v="5" />
		<tag k="min_age" v="1" />
		<tag k="name" v="Gårdsbarnehage AS" />
		<tag k="no-barnehage:nsrid" v="1021293" />
		<tag k="operator" v="Gårdsbarnehage AS" />
		<tag k="operator:type" v="private" />
		<tag k="start_date" v="2005-08-18" />
	</node>
	<node id="-4572" lat="63.112" lon="7.78507">
		<tag k="amenity" v="kindergarten" />
		<tag k="capacity" v="44" />
		<tag k="contact:email" v="hege.karlsen@kristiansund.kommune.no" />
		<tag k="contact:phone" v="71 57 58 90" />
		<tag k="max_age" v="5" />
		<tag k="min_age" v="1" />
		<tag k="name" v="Fosna barnehage" />
		<tag k="no-barnehage:nsrid" v="1012567" />
		<tag k="operator" v="Kristiansund kommune" />
		<tag k="operator:type" v="public" />
		<tag k="start_date" v="1992-01-01" />
	</node>
	<node id="-4571" lat="63.1107" lon="7.72081">
		<tag k="amenity" v="kindergarten" />
		<tag k="capacity" v="40" />
		<tag k="contact:email" v="margit.eide-andersen@kristiansund.kommune.no" />
		<tag k="contact:phone" v="71 57 52 10" />
		<tag k="max_age" v="5" />
		<tag k="min_age" v="1" />
		<tag k="name" v="Fløya barnehage" />
		<tag k="no-barnehage:nsrid" v="1017475" />
		<tag k="operator" v="Kristiansund kommune" />
		<tag k="operator:type" v="public" />
		<tag k="start_date" v="1982-01-01" />
	</node>
	<node id="-4570" lat="63.1257" lon="7.80252">
		<tag k="amenity" v="kindergarten" />
		<tag k="capacity" v="90" />
		<tag k="max_age" v="5" />
		<tag k="min_age" v="1" />
		<tag k="name" v="Draget barnehage" />
		<tag k="no-barnehage:nsrid" v="1014065" />
		<tag k="operator" v="Arena Barn AS" />
		<tag k="operator:type" v="private" />
		<tag k="start_date" v="2009-08-19" />
	</node>
	<node id="-4569" lat="63.1194" lon="7.78906">
		<tag k="amenity" v="kindergarten" />
		<tag k="capacity" v="120" />
		<tag k="contact:email" v="bente.olsen@kristiansund.kommune.no" />
		<tag k="contact:phone" v="71 57 58 80" />
		<tag k="max_age" v="5" />
		<tag k="min_age" v="1" />
		<tag k="name" v="Dale barnehage" />
		<tag k="no-barnehage:nsrid" v="1018169" />
		<tag k="operator" v="Kristiansund kommune" />
		<tag k="operator:type" v="public" />
		<tag k="start_date" v="1989-01-01" />
	</node>
	<node id="-4568" lat="63.1123" lon="7.71714">
		<tag k="amenity" v="kindergarten" />
		<tag k="capacity" v="63" />
		<tag k="contact:phone" v="71 67 50 05" />
		<tag k="max_age" v="5" />
		<tag k="min_age" v="1" />
		<tag k="name" v="Blåtoppen barnehage" />
		<tag k="no-barnehage:nsrid" v="1016727" />
		<tag k="operator" v="Arena Barn AS" />
		<tag k="operator:type" v="private" />
		<tag k="start_date" v="1989-01-02" />
	</node>
	<node id="-4567" lat="63.11655" lon="7.751612">
		<tag k="amenity" v="kindergarten" />
		<tag k="capacity" v="23" />
		<tag k="contact:phone" v="71 58 30 27" />
		<tag k="max_age" v="5" />
		<tag k="min_age" v="1" />
		<tag k="name" v="Blåskjellet barnehage" />
		<tag k="no-barnehage:nsrid" v="1020509" />
		<tag k="operator" v="Blåskjellet Barnepark Da" />
		<tag k="operator:type" v="private" />
		<tag k="start_date" v="1989-08-15" />
	</node>
	<node id="-4566" lat="63.1227" lon="7.75431">
		<tag k="amenity" v="kindergarten" />
		<tag k="capacity" v="76" />
		<tag k="contact:phone" v="71 67 21 20" />
		<tag k="max_age" v="5" />
		<tag k="min_age" v="1" />
		<tag k="name" v="Atlantis barnehage" />
		<tag k="no-barnehage:nsrid" v="1015753" />
		<tag k="operator" v="Arena Barn AS" />
		<tag k="operator:type" v="private" />
		<tag k="start_date" v="1998-12-29" />
	</node>
	<node id="-4565" lat="63.12244" lon="7.789298">
		<tag k="amenity" v="kindergarten" />
		<tag k="capacity" v="60" />
		<tag k="contact:phone" v="71 58 21 97" />
		<tag k="max_age" v="5" />
		<tag k="min_age" v="1" />
		<tag k="name" v="Abc Bakken barnehage" />
		<tag k="no-barnehage:nsrid" v="1020086" />
		<tag k="operator" v="Kristiansund barnehage Sa" />
		<tag k="operator:type" v="private" />
		<tag k="start_date" v="1992-01-01" />
	</node>
</osm>
