<?xml version="1.0" encoding="UTF-8"?>
<osm version="0.6" generator="osmapis">
	<node lat="0.0" lon="0.0" id="-4015">
		<tag k="ADDRESS" v="Jerstadmonen, 4480 KVINESDAL" />
		<tag k="amenity" v="kindergarten" />
		<tag k="capacity" v="30" />
		<tag k="max_age" v="5" />
		<tag k="min_age" v="1" />
		<tag k="name" v="Austerdalen barnehage" />
		<tag k="no-barnehage:nsrid" v="975323633" />
		<tag k="operator" v="Kvinesdal kommune" />
		<tag k="operator:type" v="public" />
	</node>
	<node lat="0.0" lon="0.0" id="-4016">
		<tag k="ADDRESS" v=", 4485 FEDA" />
		<tag k="amenity" v="kindergarten" />
		<tag k="capacity" v="39" />
		<tag k="max_age" v="5" />
		<tag k="min_age" v="1" />
		<tag k="name" v="Feda barnehage" />
		<tag k="no-barnehage:nsrid" v="975307956" />
		<tag k="operator" v="Kvinesdal kommune" />
		<tag k="operator:type" v="public" />
	</node>
	<node lat="0.0" lon="0.0" id="-4017">
		<tag k="ADDRESS" v=", 4473 KVINLOG" />
		<tag k="amenity" v="kindergarten" />
		<tag k="capacity" v="23" />
		<tag k="max_age" v="5" />
		<tag k="min_age" v="1" />
		<tag k="name" v="Fjotland barnehage" />
		<tag k="no-barnehage:nsrid" v="976827546" />
		<tag k="operator" v="Kvinesdal kommune" />
		<tag k="operator:type" v="public" />
	</node>
	<node lat="58.31282" lon="6.96744" id="-4018">
		<tag k="ADDRESS" v="Eljestraumvegen 19, 4480 KVINESDAL" />
		<tag k="amenity" v="kindergarten" />
		<tag k="capacity" v="24" />
		<tag k="max_age" v="5" />
		<tag k="min_age" v="1" />
		<tag k="name" v="Knerten barnehage Kvinesdal" />
		<tag k="no-barnehage:nsrid" v="975307964" />
		<tag k="operator" v="Kvinesdal kommune" />
		<tag k="operator:type" v="public" />
	</node>
	<node lat="0.0" lon="0.0" id="-4019">
		<tag k="ADDRESS" v="Gullsmedvegen 2, 4484 ØYESTRANDA" />
		<tag k="amenity" v="kindergarten" />
		<tag k="capacity" v="18" />
		<tag k="max_age" v="5" />
		<tag k="min_age" v="1" />
		<tag k="name" v="Knerten barnehage Øye" />
		<tag k="no-barnehage:nsrid" v="914766044" />
		<tag k="operator" v="Kvinesdal kommune" />
		<tag k="operator:type" v="public" />
	</node>
	<node lat="58.36068" lon="6.9722" id="-4020">
		<tag k="ADDRESS" v="Rahommen 30, 4480 KVINESDAL" />
		<tag k="amenity" v="kindergarten" />
		<tag k="capacity" v="31" />
		<tag k="max_age" v="5" />
		<tag k="min_age" v="1" />
		<tag k="name" v="Rafoss barnehage" />
		<tag k="no-barnehage:nsrid" v="976827589" />
		<tag k="operator" v="Kvinesdal kommune" />
		<tag k="operator:type" v="public" />
	</node>
	<node lat="58.31578" lon="6.9572" id="-4021">
		<tag k="ADDRESS" v="Gullestadvegen 7, 4480 KVINESDAL" />
		<tag k="amenity" v="kindergarten" />
		<tag k="capacity" v="40" />
		<tag k="max_age" v="5" />
		<tag k="min_age" v="1" />
		<tag k="name" v="Sentrum barnehage" />
		<tag k="no-barnehage:nsrid" v="993154504" />
		<tag k="operator" v="Kvinesdal kommune" />
		<tag k="operator:type" v="public" />
	</node>
	<node lat="58.32961" lon="6.98284" id="-4022">
		<tag k="ADDRESS" v="Vangslia 6, 4480 KVINESDAL" />
		<tag k="amenity" v="kindergarten" />
		<tag k="capacity" v="73" />
		<tag k="max_age" v="5" />
		<tag k="min_age" v="1" />
		<tag k="name" v="Åmotsmarka barnehage" />
		<tag k="no-barnehage:nsrid" v="975307972" />
		<tag k="operator" v="Kvinesdal kommune" />
		<tag k="operator:type" v="public" />
	</node>
</osm>
