<?xml version="1.0" encoding="UTF-8"?>
<osm version="0.6" generator="osmapis">
	<node lat="59.80401" lon="10.69247" id="-2367">
		<tag k="ADDRESS" v="Jaerveien 18, 1459 NESODDEN" />
		<tag k="amenity" v="kindergarten" />
		<tag k="capacity" v="19" />
		<tag k="contact:website" v="http://www.askeladden.nesodden.no" />
		<tag k="max_age" v="5" />
		<tag k="min_age" v="1" />
		<tag k="name" v="Askeladden barnehage" />
		<tag k="no-barnehage:nsrid" v="973597639" />
		<tag k="operator" v="Askeladden barnehage" />
		<tag k="operator:type" v="private" />
	</node>
	<node lat="59.79288" lon="10.63728" id="-2368">
		<tag k="ADDRESS" v="Midtveien 21, 1458 FJELLSTRAND" />
		<tag k="amenity" v="kindergarten" />
		<tag k="capacity" v="28" />
		<tag k="contact:website" v="http://www.aurorabarn.no" />
		<tag k="max_age" v="5" />
		<tag k="min_age" v="1" />
		<tag k="name" v="Aurora Steinerbarnehage" />
		<tag k="no-barnehage:nsrid" v="973706160" />
		<tag k="operator" v="Aurora steinerbarnehage Bjørg Lobben Røed" />
		<tag k="operator:type" v="private" />
	</node>
	<node lat="59.8355" lon="10.67603" id="-2369">
		<tag k="ADDRESS" v="Bergersletta 125, 1459 NESODDEN" />
		<tag k="amenity" v="kindergarten" />
		<tag k="capacity" v="18" />
		<tag k="max_age" v="5" />
		<tag k="min_age" v="1" />
		<tag k="name" v="Bergerkollektivet barnehage" />
		<tag k="no-barnehage:nsrid" v="973454870" />
		<tag k="operator" v="Bergerkollektivet barnehage" />
		<tag k="operator:type" v="private" />
	</node>
	<node lat="59.82986" lon="10.6431" id="-2370">
		<tag k="ADDRESS" v="Tosletta 52, 1453 BJØRNEMYR" />
		<tag k="amenity" v="kindergarten" />
		<tag k="capacity" v="28" />
		<tag k="max_age" v="5" />
		<tag k="min_age" v="1" />
		<tag k="name" v="Bjørnemyr barnehage" />
		<tag k="no-barnehage:nsrid" v="975301729" />
		<tag k="operator" v="Nesodden kommune" />
		<tag k="operator:type" v="public" />
	</node>
	<node lat="59.80611" lon="10.62597" id="-2371">
		<tag k="ADDRESS" v="Bleksliveien 208, 1458 FJELLSTRAND" />
		<tag k="amenity" v="kindergarten" />
		<tag k="capacity" v="33" />
		<tag k="contact:website" v="http://www.ellingstad.barnehage.no" />
		<tag k="max_age" v="5" />
		<tag k="min_age" v="1" />
		<tag k="name" v="Ellingstad barnehage" />
		<tag k="no-barnehage:nsrid" v="973936301" />
		<tag k="operator" v="Ellingstad barnehage AS" />
		<tag k="operator:type" v="private" />
	</node>
	<node lat="59.79641" lon="10.62106" id="-2372">
		<tag k="ADDRESS" v="Fjellveien 30, 1458 FJELLSTRAND" />
		<tag k="amenity" v="kindergarten" />
		<tag k="capacity" v="63" />
		<tag k="contact:website" v="http://www.nesodden.kommune.no/barn-unge/barnehager/kommunale-barnehager/eplehagen-barnehage/" />
		<tag k="max_age" v="5" />
		<tag k="min_age" v="1" />
		<tag k="name" v="Eplehagen barnehage" />
		<tag k="no-barnehage:nsrid" v="997115953" />
		<tag k="operator" v="Nesodden kommune" />
		<tag k="operator:type" v="public" />
	</node>
	<node lat="59.74171" lon="10.59387" id="-2373">
		<tag k="ADDRESS" v="Tajbråtveien 15, 1454 FAGERSTRAND" />
		<tag k="amenity" v="kindergarten" />
		<tag k="capacity" v="66" />
		<tag k="contact:website" v="http://www.fagerskog.bhg.no" />
		<tag k="max_age" v="5" />
		<tag k="min_age" v="1" />
		<tag k="name" v="Fager Skog FUS barnehage" />
		<tag k="no-barnehage:nsrid" v="988725919" />
		<tag k="operator" v="Fager Skog Fus barnehage AS" />
		<tag k="operator:type" v="private" />
	</node>
	<node lat="59.73573" lon="10.6048" id="-2374">
		<tag k="ADDRESS" v="Skogåsveien 75, 1454 FAGERSTRAND" />
		<tag k="amenity" v="kindergarten" />
		<tag k="capacity" v="91" />
		<tag k="max_age" v="5" />
		<tag k="min_age" v="1" />
		<tag k="name" v="Fagerstrand barnehage" />
		<tag k="no-barnehage:nsrid" v="975301745" />
		<tag k="operator" v="Nesodden kommune" />
		<tag k="operator:type" v="public" />
	</node>
	<node lat="59.83066" lon="10.68494" id="-2375">
		<tag k="ADDRESS" v="Fjordvangveien 36, 1459 NESODDEN" />
		<tag k="amenity" v="kindergarten" />
		<tag k="capacity" v="54" />
		<tag k="contact:website" v="http://www.fjordvangen.no" />
		<tag k="max_age" v="5" />
		<tag k="min_age" v="1" />
		<tag k="name" v="Fjordvangen barnehage" />
		<tag k="no-barnehage:nsrid" v="984168349" />
		<tag k="operator" v="Fjordvangen barnehage SA" />
		<tag k="operator:type" v="private" />
	</node>
	<node lat="59.84649" lon="10.66756" id="-2377">
		<tag k="ADDRESS" v="Kapellveien 20, 1452 NESODDTANGEN" />
		<tag k="amenity" v="kindergarten" />
		<tag k="capacity" v="145" />
		<tag k="max_age" v="5" />
		<tag k="min_age" v="1" />
		<tag k="name" v="Heia barnehage" />
		<tag k="no-barnehage:nsrid" v="998380537" />
		<tag k="operator" v="Nesodden kommune" />
		<tag k="operator:type" v="public" />
	</node>
	<node lat="59.83438" lon="10.68957" id="-2378">
		<tag k="ADDRESS" v="Hakkespettlia 8, 1459 NESODDEN" />
		<tag k="amenity" v="kindergarten" />
		<tag k="capacity" v="31" />
		<tag k="contact:website" v="http://www.hellvikbarnehage.no" />
		<tag k="max_age" v="5" />
		<tag k="min_age" v="1" />
		<tag k="name" v="Hellvik barnehage, Hakkespettlia" />
		<tag k="no-barnehage:nsrid" v="974180871" />
		<tag k="operator" v="Hellvik Barnehage, Hakkespettlia SA" />
		<tag k="operator:type" v="private" />
	</node>
	<node lat="59.85458" lon="10.66835" id="-2380">
		<tag k="ADDRESS" v="v/ Styreleder Lene Charlott Albæk Oksval terrasse 21C, 1456 NESODDTANGEN" />
		<tag k="amenity" v="kindergarten" />
		<tag k="name" v="Hind Herred" />
		<tag k="no-barnehage:nsrid" v="832624632" />
		<tag k="operator" v="Hind Herred AS" />
		<tag k="operator:type" v="private" />
	</node>
	<node lat="59.85294" lon="10.66466" id="-2381">
		<tag k="ADDRESS" v="Kongleveien 33, 1452 NESODDTANGEN" />
		<tag k="amenity" v="kindergarten" />
		<tag k="capacity" v="125" />
		<tag k="max_age" v="5" />
		<tag k="min_age" v="1" />
		<tag k="name" v="Kongleveien barnehage" />
		<tag k="no-barnehage:nsrid" v="975301753" />
		<tag k="operator" v="Nesodden kommune" />
		<tag k="operator:type" v="public" />
	</node>
	<node lat="59.74527" lon="10.60296" id="-2382">
		<tag k="ADDRESS" v="Gneisveien 31, 1454 FAGERSTRAND" />
		<tag k="amenity" v="kindergarten" />
		<tag k="capacity" v="21" />
		<tag k="max_age" v="5" />
		<tag k="min_age" v="1" />
		<tag k="name" v="Lilleengen naturbarnehage Else Marie Fossbråten Wennersgaard" />
		<tag k="no-barnehage:nsrid" v="984680937" />
		<tag k="operator" v="Lilleengen naturbarnehage Else Marie Fossbråten Wennersgaard" />
		<tag k="operator:type" v="private" />
	</node>
	<node lat="59.8516" lon="10.67107" id="-2383">
		<tag k="ADDRESS" v="Munkefaret 12, 1456 NESODDTANGEN" />
		<tag k="amenity" v="kindergarten" />
		<tag k="capacity" v="41" />
		<tag k="max_age" v="5" />
		<tag k="min_age" v="1" />
		<tag k="name" v="Læringsverkstedet Blåbærstien barnehage" />
		<tag k="no-barnehage:nsrid" v="988538744" />
		<tag k="operator" v="Læringsverkstedet Blåbærstien barnehage AS" />
		<tag k="operator:type" v="private" />
	</node>
	<node lat="0.0" lon="0.0" id="-2385">
		<tag k="ADDRESS" v="Hellvik Skogsvei 2, 1450 NESODDTANGEN" />
		<tag k="amenity" v="kindergarten" />
		<tag k="capacity" v="81" />
		<tag k="max_age" v="5" />
		<tag k="min_age" v="1" />
		<tag k="name" v="Munkestien barnehage" />
		<tag k="no-barnehage:nsrid" v="979835272" />
		<tag k="operator" v="Nesodden kommune" />
		<tag k="operator:type" v="public" />
	</node>
	<node lat="59.85952" lon="10.6614" id="-2386">
		<tag k="ADDRESS" v="Tangen terrasse 41, 1450 NESODDTANGEN" />
		<tag k="amenity" v="kindergarten" />
		<tag k="capacity" v="45" />
		<tag k="max_age" v="5" />
		<tag k="min_age" v="1" />
		<tag k="name" v="Oksval barnehage" />
		<tag k="no-barnehage:nsrid" v="875301772" />
		<tag k="operator" v="Nesodden kommune" />
		<tag k="operator:type" v="public" />
	</node>
	<node lat="59.79638" lon="10.61997" id="-2387">
		<tag k="ADDRESS" v="Fjellveien 31, 1458 FJELLSTRAND" />
		<tag k="amenity" v="kindergarten" />
		<tag k="capacity" v="18" />
		<tag k="contact:website" v="http://www.salamanderskogen.barnehage.no" />
		<tag k="max_age" v="5" />
		<tag k="min_age" v="1" />
		<tag k="name" v="Salamanderskogen barnehage" />
		<tag k="no-barnehage:nsrid" v="974288346" />
		<tag k="operator" v="Salamanderskogen barnehage SA" />
		<tag k="operator:type" v="private" />
	</node>
	<node lat="59.857" lon="10.67288" id="-2388">
		<tag k="ADDRESS" v="Støps vei 31, 1456 NESODDTANGEN" />
		<tag k="amenity" v="kindergarten" />
		<tag k="capacity" v="67" />
		<tag k="max_age" v="5" />
		<tag k="min_age" v="1" />
		<tag k="name" v="Solsikken Steinerbarnehage" />
		<tag k="no-barnehage:nsrid" v="973076922" />
		<tag k="operator" v="Stiftelsen Solsikken Steinerbarne- Hage" />
		<tag k="operator:type" v="private" />
	</node>
	<node lat="59.83686" lon="10.64362" id="-2389">
		<tag k="ADDRESS" v="Håkonskastet 29, 1453 BJØRNEMYR" />
		<tag k="amenity" v="kindergarten" />
		<tag k="capacity" v="46" />
		<tag k="max_age" v="5" />
		<tag k="min_age" v="1" />
		<tag k="name" v="Sunnhagen barnehage" />
		<tag k="no-barnehage:nsrid" v="975301788" />
		<tag k="operator" v="Nesodden kommune" />
		<tag k="operator:type" v="public" />
	</node>
	<node lat="59.75898" lon="10.60618" id="-2390">
		<tag k="ADDRESS" v="Toppåsveien 99, 1454 FAGERSTRAND" />
		<tag k="amenity" v="kindergarten" />
		<tag k="name" v="Toppen gård familiebarnehage Vilde E. Højfeldt" />
		<tag k="no-barnehage:nsrid" v="931255436" />
		<tag k="operator" v="Toppen Gård familiebarnehage Vilde E. Højfeldt" />
		<tag k="operator:type" v="private" />
	</node>
	<node lat="59.82347" lon="10.63299" id="-2391">
		<tag k="ADDRESS" v="Myrlia 2, 1453 BJØRNEMYR" />
		<tag k="amenity" v="kindergarten" />
		<tag k="capacity" v="40" />
		<tag k="max_age" v="5" />
		<tag k="min_age" v="1" />
		<tag k="name" v="Vestsiden barnehage" />
		<tag k="no-barnehage:nsrid" v="975315843" />
		<tag k="operator" v="Nesodden kommune" />
		<tag k="operator:type" v="public" />
	</node>
	<node lat="0.0" lon="0.0" id="-2392">
		<tag k="ADDRESS" v="NIF - Huset Bergersletta 125, 1459 NESODDEN" />
		<tag k="amenity" v="kindergarten" />
		<tag k="name" v="Åpen barnehage Berger" />
		<tag k="no-barnehage:nsrid" v="986963413" />
		<tag k="operator" v="Carpe Diem stiftelsen" />
		<tag k="operator:type" v="private" />
	</node>
	<node lat="59.74818" lon="10.6123" id="-2393">
		<tag k="ADDRESS" v="Damengveien 6, 1454 FAGERSTRAND" />
		<tag k="amenity" v="kindergarten" />
		<tag k="name" v="Åpen barnehage Fagerstrand" />
		<tag k="no-barnehage:nsrid" v="988777404" />
		<tag k="operator" v="Carpe Diem stiftelsen" />
		<tag k="operator:type" v="private" />
	</node>
</osm>
