<?xml version="1.0" encoding="UTF-8"?>
<osm version="0.6" generator="osmapis">
	<node lat="59.77187" lon="10.69823" id="-2344">
		<tag k="ADDRESS" v="Haslerudveien 21, 1459 NESODDEN" />
		<tag k="amenity" v="kindergarten" />
		<tag k="capacity" v="10" />
		<tag k="max_age" v="5" />
		<tag k="min_age" v="1" />
		<tag k="name" v="Haslerud natur familiebarnehage Are Dammann" />
		<tag k="no-barnehage:nsrid" v="990006598" />
		<tag k="operator" v="Haslerud Natur familiebarnehage Are Dammann" />
		<tag k="operator:type" v="private" />
	</node>
	<node lat="59.82954" lon="10.68474" id="-2347">
		<tag k="ADDRESS" v="Sjølies vei 7, 1459 NESODDEN" />
		<tag k="amenity" v="kindergarten" />
		<tag k="capacity" v="4" />
		<tag k="max_age" v="2" />
		<tag k="min_age" v="1" />
		<tag k="name" v="Hestehoven familiebarnehage" />
		<tag k="no-barnehage:nsrid" v="985820449" />
		<tag k="operator" v="Lena Susanne Moland Hestehoven familiebarnehage" />
		<tag k="operator:type" v="private" />
	</node>
	<node lat="59.84264" lon="10.67894" id="-2352">
		<tag k="ADDRESS" v="Mosses vei 12, 1459 NESODDEN" />
		<tag k="amenity" v="kindergarten" />
		<tag k="capacity" v="4" />
		<tag k="max_age" v="2" />
		<tag k="min_age" v="1" />
		<tag k="name" v="Mosseliten familiebarnehage Hege Frøyland" />
		<tag k="no-barnehage:nsrid" v="890705952" />
		<tag k="operator" v="Mosseliten familiebarnehage Hege Frøyland" />
		<tag k="operator:type" v="private" />
	</node>
</osm>
