<?xml version="1.0" encoding="UTF-8"?>
<osm generator="osmapis" version="0.6">
	<node id="-1637" lat="67.25516" lon="15.35469">
		<tag k="ADDRESS" v="Tareveien 5, 8206 FAUSKE" />
		<tag k="amenity" v="kindergarten" />
		<tag k="capacity" v="47" />
		<tag k="max_age" v="5" />
		<tag k="min_age" v="1" />
		<tag k="name" v="Erikstad barnehage" />
		<tag k="no-barnehage:nsrid" v="975296156" />
		<tag k="operator" v="Fauske kommune" />
		<tag k="operator:type" v="public" />
	</node>
	<node id="-1638" lat="67.25818" lon="15.35262">
		<tag k="ADDRESS" v="Tareveien 7, 8206 FAUSKE" />
		<tag k="amenity" v="kindergarten" />
		<tag k="capacity" v="31" />
		<tag k="contact:website" v="http://www.fauskeidretts.barnehage.no" />
		<tag k="max_age" v="5" />
		<tag k="min_age" v="1" />
		<tag k="name" v="Fauske idrettsbarnehage" />
		<tag k="no-barnehage:nsrid" v="994468642" />
		<tag k="operator" v="Fauske idrettsbarnehage AS" />
		<tag k="operator:type" v="private" />
	</node>
	<node id="-1639" lat="67.26665" lon="15.40844">
		<tag k="ADDRESS" v="Grendeveien 1, 8209 FAUSKE" />
		<tag k="amenity" v="kindergarten" />
		<tag k="capacity" v="25" />
		<tag k="max_age" v="5" />
		<tag k="min_age" v="1" />
		<tag k="name" v="Hauan barnehage" />
		<tag k="no-barnehage:nsrid" v="974049228" />
		<tag k="operator" v="Fauske kommune" />
		<tag k="operator:type" v="public" />
	</node>
	<node id="-1640" lat="0.0" lon="0.0">
		<tag k="ADDRESS" v="Kvitblik, 8214 FAUSKE" />
		<tag k="amenity" v="kindergarten" />
		<tag k="capacity" v="26" />
		<tag k="contact:website" v="http://www.kvitrebarnehage.no" />
		<tag k="max_age" v="5" />
		<tag k="min_age" v="1" />
		<tag k="name" v="Kvitre barnehage" />
		<tag k="no-barnehage:nsrid" v="990032270" />
		<tag k="operator" v="Kvitre barnehage AS" />
		<tag k="operator:type" v="private" />
	</node>
	<node id="-1641" lat="67.26788" lon="15.42642">
		<tag k="ADDRESS" v="Lyngveien 4, 8209 FAUSKE" />
		<tag k="amenity" v="kindergarten" />
		<tag k="capacity" v="70" />
		<tag k="contact:website" v="http://lyngheia-barnehage.no" />
		<tag k="max_age" v="5" />
		<tag k="min_age" v="1" />
		<tag k="name" v="Lyngheia barnehage avd. Lyngveien barnehage" />
		<tag k="no-barnehage:nsrid" v="972285706" />
		<tag k="operator" v="Lyngheia barnehage AS" />
		<tag k="operator:type" v="private" />
	</node>
	<node id="-1642" lat="67.29541" lon="15.43117">
		<tag k="ADDRESS" v="Medåsveien 3, 8218 FAUSKE" />
		<tag k="amenity" v="kindergarten" />
		<tag k="capacity" v="78" />
		<tag k="max_age" v="5" />
		<tag k="min_age" v="1" />
		<tag k="name" v="Læringsverkstedet barnehage avd. Medås gårdsbarnehage" />
		<tag k="no-barnehage:nsrid" v="981075412" />
		<tag k="operator" v="Læringsverkstedet AS" />
		<tag k="operator:type" v="private" />
	</node>
	<node id="-1643" lat="67.28611" lon="15.13198">
		<tag k="ADDRESS" v="Stemlandveien 14, 8215 VALNESFJORD" />
		<tag k="amenity" v="kindergarten" />
		<tag k="capacity" v="30" />
		<tag k="contact:website" v="http://www.stemland.net" />
		<tag k="max_age" v="5" />
		<tag k="min_age" v="1" />
		<tag k="name" v="Stemland gårdsbarnehage" />
		<tag k="no-barnehage:nsrid" v="992794291" />
		<tag k="operator" v="Stemland gårdsbarnehage AS" />
		<tag k="operator:type" v="private" />
	</node>
	<node id="-1644" lat="67.13433" lon="16.06908">
		<tag k="ADDRESS" v="Sandnes 3B, 8230 SULITJELMA" />
		<tag k="amenity" v="kindergarten" />
		<tag k="capacity" v="16" />
		<tag k="max_age" v="5" />
		<tag k="min_age" v="1" />
		<tag k="name" v="Sulitjelma barnehage" />
		<tag k="no-barnehage:nsrid" v="975312895" />
		<tag k="operator" v="Fauske kommune" />
		<tag k="operator:type" v="public" />
	</node>
	<node id="-1645" lat="67.29427" lon="15.17572">
		<tag k="ADDRESS" v="Skoleveien 4, 8215 VALNESFJORD" />
		<tag k="amenity" v="kindergarten" />
		<tag k="capacity" v="53" />
		<tag k="max_age" v="5" />
		<tag k="min_age" v="1" />
		<tag k="name" v="Valnesfjord barnehage avd. Løkås" />
		<tag k="no-barnehage:nsrid" v="975312909" />
		<tag k="operator" v="Fauske kommune" />
		<tag k="operator:type" v="public" />
	</node>
	<node id="-1646" lat="0.0" lon="0.0">
		<tag k="ADDRESS" v="TIURVEIEN 4, 8207 FAUSKE" />
		<tag k="amenity" v="kindergarten" />
		<tag k="capacity" v="62" />
		<tag k="max_age" v="5" />
		<tag k="min_age" v="1" />
		<tag k="name" v="Vestmyra barnehage" />
		<tag k="no-barnehage:nsrid" v="975312917" />
		<tag k="operator" v="Fauske kommune" />
		<tag k="operator:type" v="public" />
	</node>
</osm>
