<?xml version="1.0" encoding="UTF-8"?>
<osm generator="osmapis" version="0.6">
	<node id="-5568" lat="67.2661" lon="15.3717">
		<tag k="amenity" v="kindergarten" />
		<tag k="capacity" v="81" />
		<tag k="contact:email" v="sissel.alver@fauske.kommune.no" />
		<tag k="contact:phone" v="75 60 41 50" />
		<tag k="max_age" v="5" />
		<tag k="min_age" v="1" />
		<tag k="name" v="Vestmyra barnehage" />
		<tag k="no-barnehage:nsrid" v="1013674" />
		<tag k="operator" v="Fauske kommune" />
		<tag k="operator:type" v="public" />
		<tag k="start_date" v="1989-01-01" />
	</node>
	<node id="-5567" lat="67.2965" lon="15.1642">
		<tag k="amenity" v="kindergarten" />
		<tag k="capacity" v="39" />
		<tag k="contact:email" v="laila.finvik@fauske.kommune.no" />
		<tag k="contact:phone" v="75 60 41 90" />
		<tag k="max_age" v="5" />
		<tag k="min_age" v="1" />
		<tag k="name" v="Valnesfjord barnehage Avd Løkås" />
		<tag k="no-barnehage:nsrid" v="1013673" />
		<tag k="operator" v="Fauske kommune" />
		<tag k="operator:type" v="public" />
		<tag k="start_date" v="1989-01-01" />
	</node>
	<node id="-5566" lat="67.3517" lon="15.2726">
		<tag k="amenity" v="kindergarten" />
		<tag k="capacity" v="13" />
		<tag k="contact:email" v="laila.finvik@fauske.kommune.no" />
		<tag k="contact:phone" v="75 60 42 72" />
		<tag k="max_age" v="5" />
		<tag k="min_age" v="1" />
		<tag k="name" v="Valnesfjord barnehage Avd Kosmo" />
		<tag k="no-barnehage:nsrid" v="1013671" />
		<tag k="operator" v="Fauske kommune" />
		<tag k="operator:type" v="public" />
		<tag k="start_date" v="1989-01-01" />
	</node>
	<node id="-5565" lat="67.1327" lon="16.0797">
		<tag k="amenity" v="kindergarten" />
		<tag k="capacity" v="20" />
		<tag k="contact:email" v="siv.lillian.johansen@fauske.kommune.no" />
		<tag k="contact:phone" v="75 60 44 80" />
		<tag k="max_age" v="5" />
		<tag k="min_age" v="1" />
		<tag k="name" v="Sulitjelma barnehage" />
		<tag k="no-barnehage:nsrid" v="1013672" />
		<tag k="operator" v="Fauske kommune" />
		<tag k="operator:type" v="public" />
		<tag k="start_date" v="1989-01-01" />
	</node>
	<node id="-5564" lat="67.29652" lon="15.16417">
		<tag k="amenity" v="kindergarten" />
		<tag k="capacity" v="28" />
		<tag k="contact:email" v="lars.bergli@online.no" />
		<tag k="contact:phone" v="93032979" />
		<tag k="contact:website" v="http://www.stemland.net" />
		<tag k="max_age" v="5" />
		<tag k="min_age" v="1" />
		<tag k="name" v="Stemland Gårdsbarnehage AS" />
		<tag k="no-barnehage:nsrid" v="1021820" />
		<tag k="operator" v="Stemland Gårdsbarnehage AS" />
		<tag k="operator:type" v="private" />
		<tag k="start_date" v="2008-05-18" />
	</node>
	<node id="-5563" lat="67.25919" lon="15.39163">
		<tag k="amenity" v="kindergarten" />
		<tag k="capacity" v="69" />
		<tag k="contact:email" v="barnehagen@medas.no" />
		<tag k="contact:phone" v="75 64 86 10" />
		<tag k="max_age" v="5" />
		<tag k="min_age" v="1" />
		<tag k="name" v="Medås Gårdsbarnehage AS" />
		<tag k="no-barnehage:nsrid" v="1020786" />
		<tag k="operator" v="Medås Gårdsbarnehage AS" />
		<tag k="operator:type" v="private" />
		<tag k="start_date" v="1999-08-15" />
	</node>
	<node id="-5562" lat="67.26788" lon="15.42642">
		<tag k="amenity" v="kindergarten" />
		<tag k="capacity" v="62" />
		<tag k="contact:email" v="nina@lyngheia.no" />
		<tag k="contact:phone" v="75 64 58 79" />
		<tag k="contact:website" v="http://lyngheia-barnehage.no" />
		<tag k="max_age" v="5" />
		<tag k="min_age" v="1" />
		<tag k="name" v="Lyngheia barnehage AS" />
		<tag k="no-barnehage:nsrid" v="1019998" />
		<tag k="operator" v="Lyngheia barnehage AS" />
		<tag k="operator:type" v="private" />
		<tag k="start_date" v="1991-10-01" />
	</node>
	<node id="-5561" lat="67.25919" lon="15.39163">
		<tag k="amenity" v="kindergarten" />
		<tag k="capacity" v="25" />
		<tag k="contact:email" v="lisa@kvitrebarnehage.no" />
		<tag k="contact:phone" v="75 64 99 55" />
		<tag k="contact:website" v="http://www.kvitrebarnehage.no" />
		<tag k="max_age" v="5" />
		<tag k="min_age" v="1" />
		<tag k="name" v="Kvitre barnehage AS" />
		<tag k="no-barnehage:nsrid" v="1021468" />
		<tag k="operator" v="Kvitre barnehage AS" />
		<tag k="operator:type" v="private" />
		<tag k="start_date" v="2006-06-07" />
	</node>
	<node id="-5560" lat="67.2668" lon="15.4083">
		<tag k="amenity" v="kindergarten" />
		<tag k="capacity" v="25" />
		<tag k="contact:email" v="hilde.moen@fauske.kommune.no" />
		<tag k="contact:phone" v="75 60 41 20" />
		<tag k="max_age" v="5" />
		<tag k="min_age" v="1" />
		<tag k="name" v="Hauan barnehage" />
		<tag k="no-barnehage:nsrid" v="1016138" />
		<tag k="operator" v="Fauske kommune" />
		<tag k="operator:type" v="public" />
		<tag k="start_date" v="1976-01-01" />
	</node>
	<node id="-5559" lat="67.25818" lon="15.35262">
		<tag k="amenity" v="kindergarten" />
		<tag k="capacity" v="29" />
		<tag k="contact:email" v="fauske.idrettsbarnehage@barnehage.no" />
		<tag k="contact:phone" v="41 28 45 83" />
		<tag k="contact:website" v="http://www.fauskeidretts.barnehage.no" />
		<tag k="max_age" v="5" />
		<tag k="min_age" v="1" />
		<tag k="name" v="Fauske Idrettsbarnehage AS" />
		<tag k="no-barnehage:nsrid" v="1021978" />
		<tag k="operator" v="Fauske Idrettsbarnehage AS" />
		<tag k="operator:type" v="private" />
		<tag k="start_date" v="2009-08-27" />
	</node>
	<node id="-5558" lat="67.2552" lon="15.3547">
		<tag k="amenity" v="kindergarten" />
		<tag k="capacity" v="26" />
		<tag k="contact:email" v="karen.ro@fauske.kommune.no" />
		<tag k="contact:phone" v="75 60 43 30" />
		<tag k="max_age" v="5" />
		<tag k="min_age" v="1" />
		<tag k="name" v="Erikstad barnehage" />
		<tag k="no-barnehage:nsrid" v="1017377" />
		<tag k="operator" v="Fauske kommune" />
		<tag k="operator:type" v="public" />
		<tag k="start_date" v="1976-01-01" />
	</node>
</osm>
