<?xml version="1.0" encoding="UTF-8"?>
<osm generator="osmapis" version="0.6">
	<node id="-2130" lat="59.46792" lon="10.78405">
		<tag k="ADDRESS" v="Augerødveien 1, 1591 SPERREBOTN" />
		<tag k="amenity" v="kindergarten" />
		<tag k="capacity" v="97" />
		<tag k="max_age" v="5" />
		<tag k="min_age" v="1" />
		<tag k="name" v="Augerød barnehage" />
		<tag k="no-barnehage:nsrid" v="995610124" />
		<tag k="operator" v="Våler kommune" />
		<tag k="operator:type" v="public" />
	</node>
	<node id="-2131" lat="59.49125" lon="10.85514">
		<tag k="ADDRESS" v="Folkestadveien 2, 1592 VÅLER I ØSTFOLD" />
		<tag k="amenity" v="kindergarten" />
		<tag k="capacity" v="89" />
		<tag k="max_age" v="5" />
		<tag k="min_age" v="1" />
		<tag k="name" v="Kirkebygden barnehage" />
		<tag k="no-barnehage:nsrid" v="973491059" />
		<tag k="operator" v="Våler kommune" />
		<tag k="operator:type" v="public" />
	</node>
	<node id="-2132" lat="59.49565" lon="10.85123">
		<tag k="ADDRESS" v="Folkestadåsen 2, 1592 VÅLER I ØSTFOLD" />
		<tag k="amenity" v="kindergarten" />
		<tag k="capacity" v="63" />
		<tag k="contact:website" v="http://laringsverkstedet.no/barnehage/vaaler" />
		<tag k="max_age" v="5" />
		<tag k="min_age" v="1" />
		<tag k="name" v="Læringsverkstedet barnehage Våler naturbarnehage" />
		<tag k="no-barnehage:nsrid" v="991209751" />
		<tag k="operator" v="Læringsverkstedet AS" />
		<tag k="operator:type" v="private" />
	</node>
	<node id="-2133" lat="59.46013" lon="10.79954">
		<tag k="ADDRESS" v="Karl Toverudsvei 3, 1591 SPERREBOTN" />
		<tag k="amenity" v="kindergarten" />
		<tag k="capacity" v="53" />
		<tag k="max_age" v="5" />
		<tag k="min_age" v="1" />
		<tag k="name" v="NLM barnehagene avd. Våk barnehage" />
		<tag k="no-barnehage:nsrid" v="974156237" />
		<tag k="operator" v="Nlm-Barnehagene AS" />
		<tag k="operator:type" v="private" />
	</node>
	<node id="-2135" lat="59.42318" lon="11.01332">
		<tag k="ADDRESS" v="Gunnerødveien 1, 1593 SVINNDAL" />
		<tag k="amenity" v="kindergarten" />
		<tag k="capacity" v="49" />
		<tag k="contact:website" v="http://svinndal.barnehageside.no/" />
		<tag k="max_age" v="5" />
		<tag k="min_age" v="1" />
		<tag k="name" v="Svinndal barnehage" />
		<tag k="no-barnehage:nsrid" v="975301621" />
		<tag k="operator" v="Våler kommune" />
		<tag k="operator:type" v="public" />
	</node>
</osm>
