<?xml version="1.0" encoding="UTF-8"?>
<osm generator="osmapis" version="0.6">
	<node id="-5158" lat="63.1037" lon="9.32366">
		<tag k="amenity" v="kindergarten" />
		<tag k="capacity" v="24" />
		<tag k="contact:email" v="randi.folden@rindal.kommune.no" />
		<tag k="contact:phone" v="+47 71664470" />
		<tag k="doNotImportAddress" v=" 6658 RINDALSSKOGEN" />
		<tag k="max_age" v="5" />
		<tag k="min_age" v="1" />
		<tag k="name" v="Ã˜vre Rindal barnehage" />
		<tag k="no-barnehage:nsrid" v="1014744" />
		<tag k="operator" v="Rindal kommune" />
		<tag k="operator:type" v="public" />
	</node>
	<node id="-5157" lat="63.0533" lon="9.22028">
		<tag k="amenity" v="kindergarten" />
		<tag k="capacity" v="20" />
		<tag k="contact:phone" v="+47 71664680" />
		<tag k="doNotImportAddress" v=" 6657 RINDAL" />
		<tag k="max_age" v="5" />
		<tag k="min_age" v="1" />
		<tag k="name" v="Rindal barnehage" />
		<tag k="no-barnehage:nsrid" v="1017411" />
		<tag k="operator" v="Rindal kommune" />
		<tag k="operator:type" v="public" />
	</node>
	<node id="-5156" lat="63.0533" lon="9.22028">
		<tag k="amenity" v="kindergarten" />
		<tag k="capacity" v="52" />
		<tag k="contact:email" v="gunnveig.roen@rindal.kommune.no" />
		<tag k="contact:phone" v="+47 71664070" />
		<tag k="doNotImportAddress" v=" 6657 RINDAL" />
		<tag k="max_age" v="5" />
		<tag k="min_age" v="1" />
		<tag k="name" v="Bolme barnehage" />
		<tag k="no-barnehage:nsrid" v="1013947" />
		<tag k="operator" v="Rindal kommune" />
		<tag k="operator:type" v="public" />
	</node>
</osm>
