<?xml version="1.0" encoding="UTF-8"?>
<osm generator="osmapis" version="0.6">
	<node id="-6216" lat="70.62988" lon="21.98492">
		<tag k="amenity" v="kindergarten" />
		<tag k="capacity" v="13" />
		<tag k="max_age" v="5" />
		<tag k="min_age" v="1" />
		<tag k="name" v="Sørvær oppvekstsenter avd. barnehage" />
		<tag k="no-barnehage:nsrid" v="1013726" />
		<tag k="operator" v="Hasvik kommune" />
		<tag k="operator:type" v="public" />
	</node>
	<node id="-6215" lat="70.488" lon="22.16682">
		<tag k="amenity" v="kindergarten" />
		<tag k="capacity" v="17" />
		<tag k="max_age" v="5" />
		<tag k="min_age" v="1" />
		<tag k="name" v="Hasvik barnehage" />
		<tag k="no-barnehage:nsrid" v="1013725" />
		<tag k="operator" v="Hasvik kommune" />
		<tag k="operator:type" v="public" />
	</node>
	<node id="-6214" lat="0.0" lon="0.0">
		<tag k="amenity" v="kindergarten" />
		<tag k="capacity" v="20" />
		<tag k="max_age" v="5" />
		<tag k="min_age" v="1" />
		<tag k="name" v="Breivikbotn barnehage" />
		<tag k="no-barnehage:nsrid" v="1013724" />
		<tag k="operator" v="Hasvik kommune" />
		<tag k="operator:type" v="public" />
	</node>
</osm>
