<?xml version="1.0" encoding="UTF-8"?>
<osm generator="osmapis" version="0.6">
	<node id="-4608" lat="60.6983" lon="4.92676">
		<tag k="amenity" v="kindergarten" />
		<tag k="capacity" v="52" />
		<tag k="max_age" v="5" />
		<tag k="min_age" v="1" />
		<tag k="name" v="Bø barnehage" />
		<tag k="no-barnehage:nsrid" v="1018127" />
		<tag k="operator" v="Radøy kommune" />
		<tag k="operator:type" v="public" />
	</node>
	<node id="-4607" lat="60.6929" lon="5.03229">
		<tag k="amenity" v="kindergarten" />
		<tag k="capacity" v="18" />
		<tag k="max_age" v="5" />
		<tag k="min_age" v="1" />
		<tag k="name" v="Austebygd barnehage" />
		<tag k="no-barnehage:nsrid" v="1017408" />
		<tag k="operator" v="Radøy kommune" />
		<tag k="operator:type" v="public" />
	</node>
	<node id="-4611" lat="60.6187" lon="5.178">
		<tag k="amenity" v="kindergarten" />
		<tag k="capacity" v="52" />
		<tag k="max_age" v="5" />
		<tag k="min_age" v="1" />
		<tag k="name" v="Sæbø barnehage" />
		<tag k="no-barnehage:nsrid" v="1017409" />
		<tag k="operator" v="Radøy kommune" />
		<tag k="operator:type" v="public" />
	</node>
	<node id="-4610" lat="60.6585" lon="4.99857">
		<tag k="amenity" v="kindergarten" />
		<tag k="capacity" v="136" />
		<tag k="max_age" v="5" />
		<tag k="min_age" v="1" />
		<tag k="name" v="Prestmarka barnehage" />
		<tag k="no-barnehage:nsrid" v="1017473" />
		<tag k="operator" v="Radøy kommune" />
		<tag k="operator:type" v="public" />
	</node>
</osm>
