<?xml version="1.0" encoding="UTF-8"?>
<osm generator="osmapis" version="0.6">
	<node id="-4326" lat="60.6187" lon="5.178">
		<tag k="amenity" v="kindergarten" />
		<tag k="capacity" v="49" />
		<tag k="contact:email" v="tony.vetas@radoy.kommune.no" />
		<tag k="max_age" v="5" />
		<tag k="min_age" v="1" />
		<tag k="name" v="Sæbø barnehage" />
		<tag k="no-barnehage:nsrid" v="1017409" />
		<tag k="operator" v="Radøy kommune" />
		<tag k="operator:type" v="public" />
		<tag k="start_date" v="1978-11-02" />
	</node>
	<node id="-4325" lat="60.6585" lon="4.99857">
		<tag k="amenity" v="kindergarten" />
		<tag k="capacity" v="113" />
		<tag k="contact:email" v="rita.v.amundsen@radoy.kommune.no" />
		<tag k="max_age" v="5" />
		<tag k="min_age" v="1" />
		<tag k="name" v="Prestmarka barnehage" />
		<tag k="no-barnehage:nsrid" v="1017473" />
		<tag k="operator" v="Radøy kommune" />
		<tag k="operator:type" v="public" />
		<tag k="start_date" v="1982-01-01" />
	</node>
	<node id="-4324" lat="60.67457" lon="4.991239">
		<tag k="amenity" v="kindergarten" />
		<tag k="name" v="Grindheim Familie- og Gardsbarnehage AS" />
		<tag k="no-barnehage:nsrid" v="1026607" />
		<tag k="operator" v="Grindheim Familie- og Gardsbarnehage AS" />
		<tag k="operator:type" v="private" />
		<tag k="start_date" v="2016-04-04" />
	</node>
	<node id="-4323" lat="60.6983" lon="4.92676">
		<tag k="amenity" v="kindergarten" />
		<tag k="capacity" v="61" />
		<tag k="contact:email" v="gro.haland@radoy.kommune.no" />
		<tag k="max_age" v="5" />
		<tag k="min_age" v="1" />
		<tag k="name" v="Bø barnehage" />
		<tag k="no-barnehage:nsrid" v="1018127" />
		<tag k="operator" v="Radøy kommune" />
		<tag k="operator:type" v="public" />
		<tag k="start_date" v="1989-01-01" />
	</node>
	<node id="-4322" lat="60.6929" lon="5.03229">
		<tag k="amenity" v="kindergarten" />
		<tag k="capacity" v="22" />
		<tag k="contact:email" v="austebygd.skule@radoy.kommune.no" />
		<tag k="max_age" v="5" />
		<tag k="min_age" v="1" />
		<tag k="name" v="Austebygd barnehage" />
		<tag k="no-barnehage:nsrid" v="1017408" />
		<tag k="operator" v="Radøy kommune" />
		<tag k="operator:type" v="public" />
		<tag k="start_date" v="1978-10-16" />
	</node>
</osm>
