<?xml version="1.0" encoding="UTF-8"?>
<osm generator="osmapis" version="0.6">
	<node id="-2832" lat="59.0977" lon="9.05866">
		<tag k="amenity" v="kindergarten" />
		<tag k="capacity" v="14" />
		<tag k="contact:email" v="beate.rosland@drangedal.kommune.no" />
		<tag k="contact:phone" v="35 99 78 70" />
		<tag k="max_age" v="5" />
		<tag k="min_age" v="1" />
		<tag k="name" v="TÃ¸rdal barnehage" />
		<tag k="no-barnehage:nsrid" v="1013881" />
		<tag k="operator" v="Drangedal kommune" />
		<tag k="operator:type" v="public" />
		<tag k="start_date" v="1989-01-02" />
	</node>
	<node id="-2831" lat="58.9682" lon="9.16724">
		<tag k="amenity" v="kindergarten" />
		<tag k="capacity" v="65" />
		<tag k="contact:email" v="katrine.tornes@drangedal.kommune.no" />
		<tag k="max_age" v="5" />
		<tag k="min_age" v="1" />
		<tag k="name" v="Kroken barnehage" />
		<tag k="no-barnehage:nsrid" v="1015608" />
		<tag k="operator" v="Drangedal kommune" />
		<tag k="operator:type" v="public" />
		<tag k="start_date" v="1997-11-01" />
	</node>
	<node id="-2830" lat="59.0928" lon="9.05236">
		<tag k="amenity" v="kindergarten" />
		<tag k="capacity" v="118" />
		<tag k="contact:email" v="Brit-Elin.Kilane@drangedal.kommune.no" />
		<tag k="max_age" v="5" />
		<tag k="min_age" v="1" />
		<tag k="name" v="Heirekshaug barnehage" />
		<tag k="no-barnehage:nsrid" v="1014920" />
		<tag k="operator" v="Drangedal kommune" />
		<tag k="operator:type" v="public" />
		<tag k="start_date" v="1994-08-01" />
	</node>
</osm>
