<?xml version="1.0" encoding="UTF-8"?>
<osm generator="osmapis" version="0.6">
	<node id="-2108" lat="61.0071" lon="10.0159">
		<tag k="amenity" v="kindergarten" />
		<tag k="capacity" v="33" />
		<tag k="max_age" v="5" />
		<tag k="min_age" v="1" />
		<tag k="name" v="Nordre Land kommune Torpa barnehage avd. Solheim" />
		<tag k="no-barnehage:nsrid" v="1015903" />
		<tag k="operator" v="Nordre Land kommune" />
		<tag k="operator:type" v="public" />
	</node>
	<node id="-2107" lat="60.9666" lon="10.1092">
		<tag k="amenity" v="kindergarten" />
		<tag k="capacity" v="35" />
		<tag k="max_age" v="5" />
		<tag k="min_age" v="1" />
		<tag k="name" v="Nordre Land kommune Torpa barnehage avd. Mariringen" />
		<tag k="no-barnehage:nsrid" v="1017977" />
		<tag k="operator" v="Nordre Land kommune" />
		<tag k="operator:type" v="public" />
	</node>
	<node id="-2106" lat="60.9462" lon="9.98704">
		<tag k="amenity" v="kindergarten" />
		<tag k="capacity" v="11" />
		<tag k="max_age" v="5" />
		<tag k="min_age" v="1" />
		<tag k="name" v="Nordre Land kommune Torpa barnehage avd. Lundhaug" />
		<tag k="no-barnehage:nsrid" v="1017976" />
		<tag k="operator" v="Nordre Land kommune" />
		<tag k="operator:type" v="public" />
	</node>
	<node id="-2105" lat="60.8545" lon="10.0108">
		<tag k="amenity" v="kindergarten" />
		<tag k="capacity" v="22" />
		<tag k="max_age" v="5" />
		<tag k="min_age" v="1" />
		<tag k="name" v="Nordre Land kommune Nordsinni barnehage avd. Dæhli" />
		<tag k="no-barnehage:nsrid" v="1025512" />
		<tag k="operator" v="Nordre Land kommune" />
		<tag k="operator:type" v="public" />
	</node>
	<node id="-2104" lat="60.84097" lon="10.06951">
		<tag k="amenity" v="kindergarten" />
		<tag k="capacity" v="72" />
		<tag k="max_age" v="5" />
		<tag k="min_age" v="1" />
		<tag k="name" v="Nordre Land kommune Dokka barnehage avd. Øygardsjordet" />
		<tag k="no-barnehage:nsrid" v="1019607" />
		<tag k="operator" v="Nordre Land kommune" />
		<tag k="operator:type" v="public" />
	</node>
	<node id="-2103" lat="60.8324" lon="10.0923">
		<tag k="amenity" v="kindergarten" />
		<tag k="capacity" v="51" />
		<tag k="max_age" v="5" />
		<tag k="min_age" v="1" />
		<tag k="name" v="Nordre Land kommune Dokka barnehage avd. Tonlia" />
		<tag k="no-barnehage:nsrid" v="1014918" />
		<tag k="operator" v="Nordre Land kommune" />
		<tag k="operator:type" v="public" />
	</node>
	<node id="-2102" lat="60.8401" lon="10.0763">
		<tag k="amenity" v="kindergarten" />
		<tag k="capacity" v="73" />
		<tag k="max_age" v="5" />
		<tag k="min_age" v="1" />
		<tag k="name" v="Nordre Land kommune Dokka barnehage avd. Furulund" />
		<tag k="no-barnehage:nsrid" v="1017975" />
		<tag k="operator" v="Nordre Land kommune" />
		<tag k="operator:type" v="public" />
	</node>
</osm>
