<?xml version="1.0" encoding="UTF-8"?>
<osm generator="osmapis" version="0.6">
	<node id="-224" lat="59.58637" lon="11.12423">
		<tag k="amenity" v="kindergarten" />
		<tag k="capacity" v="30" />
		<tag k="contact:website" v="http://steinerskoleniindreostfold.com" />
		<tag k="doNotImportAddress" v="Romsveien 10 1815 ASKIM" />
		<tag k="max_age" v="5" />
		<tag k="min_age" v="1" />
		<tag k="name" v="Stiftelsen steinerbarnehagen i Indre Østfold" />
		<tag k="no-barnehage:nsrid" v="1021494" />
		<tag k="operator" v="Stiftelsen Steinerbarnehagen i Indre Østfold" />
		<tag k="operator:type" v="private" />
	</node>
	<node id="-223" lat="59.5901" lon="11.1277">
		<tag k="amenity" v="kindergarten" />
		<tag k="capacity" v="122" />
		<tag k="doNotImportAddress" v="Gramveien 65 1832 ASKIM" />
		<tag k="max_age" v="5" />
		<tag k="min_age" v="1" />
		<tag k="name" v="Rom barnehage" />
		<tag k="no-barnehage:nsrid" v="1013912" />
		<tag k="operator" v="Askim kommune" />
		<tag k="operator:type" v="public" />
	</node>
	<node id="-221" lat="59.5866" lon="11.1607">
		<tag k="amenity" v="kindergarten" />
		<tag k="capacity" v="120" />
		<tag k="doNotImportAddress" v="Prestenggata 1 1807 ASKIM" />
		<tag k="max_age" v="5" />
		<tag k="min_age" v="1" />
		<tag k="name" v="Prestenga barnehage" />
		<tag k="no-barnehage:nsrid" v="1016024" />
		<tag k="operator" v="Askim kommune" />
		<tag k="operator:type" v="public" />
	</node>
	<node id="-219" lat="59.5818" lon="11.159">
		<tag k="amenity" v="kindergarten" />
		<tag k="capacity" v="31" />
		<tag k="doNotImportAddress" v="Roald Amundsens Gate 1 1831 ASKIM" />
		<tag k="max_age" v="5" />
		<tag k="min_age" v="1" />
		<tag k="name" v="Misjonskirken barnehage" />
		<tag k="no-barnehage:nsrid" v="1015475" />
		<tag k="operator" v="Askim Frie Misjonsmenighet" />
		<tag k="operator:type" v="private" />
	</node>
	<node id="-218" lat="59.59618" lon="11.13328">
		<tag k="amenity" v="kindergarten" />
		<tag k="capacity" v="37" />
		<tag k="contact:website" v="http://www.ilen.no" />
		<tag k="doNotImportAddress" v="Langnesveien 133 1815 ASKIM" />
		<tag k="max_age" v="5" />
		<tag k="min_age" v="1" />
		<tag k="name" v="Ilen gårds- og naturbarnehage" />
		<tag k="no-barnehage:nsrid" v="1022204" />
		<tag k="operator" v="Ilen Gårds- og Naturbarnehage AS" />
		<tag k="operator:type" v="private" />
	</node>
	<node id="-217" lat="59.58331" lon="11.15658">
		<tag k="amenity" v="kindergarten" />
		<tag k="capacity" v="108" />
		<tag k="contact:website" v="http://www.espira.no" />
		<tag k="doNotImportAddress" v="Skolegata 15 1831 ASKIM" />
		<tag k="max_age" v="5" />
		<tag k="min_age" v="1" />
		<tag k="name" v="Espira skolegata barnehage" />
		<tag k="no-barnehage:nsrid" v="1021060" />
		<tag k="operator" v="Espira Skolegata AS" />
		<tag k="operator:type" v="private" />
	</node>
	<node id="-216" lat="59.59313" lon="11.17982">
		<tag k="amenity" v="kindergarten" />
		<tag k="capacity" v="124" />
		<tag k="doNotImportAddress" v="Vinkelveien 28 1807 ASKIM" />
		<tag k="max_age" v="5" />
		<tag k="min_age" v="1" />
		<tag k="name" v="Eid barnehage" />
		<tag k="no-barnehage:nsrid" v="2000143" />
		<tag k="operator" v="Askim kommune" />
		<tag k="operator:type" v="public" />
	</node>
	<node id="-215" lat="59.5907" lon="11.1766">
		<tag k="amenity" v="kindergarten" />
		<tag k="capacity" v="22" />
		<tag k="doNotImportAddress" v="Museumsveien 21 1807 ASKIM" />
		<tag k="max_age" v="5" />
		<tag k="min_age" v="1" />
		<tag k="name" v="Askim menighets barnehage" />
		<tag k="no-barnehage:nsrid" v="1016660" />
		<tag k="operator" v="Askim Sokn" />
		<tag k="operator:type" v="private" />
	</node>
	<node id="-214" lat="59.5859" lon="11.178">
		<tag k="amenity" v="kindergarten" />
		<tag k="doNotImportAddress" v="Vinkelveien 28 1807 ASKIM" />
		<tag k="name" v="Askim kommune åpen barnehage" />
		<tag k="no-barnehage:nsrid" v="1015585" />
		<tag k="operator" v="Askim kommune" />
		<tag k="operator:type" v="public" />
	</node>
	<node id="-225" lat="59.5909" lon="11.1903">
		<tag k="amenity" v="kindergarten" />
		<tag k="capacity" v="140" />
		<tag k="doNotImportAddress" v="Enerveien 14 1812 ASKIM" />
		<tag k="max_age" v="5" />
		<tag k="min_age" v="1" />
		<tag k="name" v="Trippestadlia barnehage" />
		<tag k="no-barnehage:nsrid" v="1017352" />
		<tag k="operator" v="Askim kommune" />
		<tag k="operator:type" v="public" />
	</node>
</osm>
