<?xml version="1.0" encoding="UTF-8"?>
<osm generator="osmapis" version="0.6">
	<node id="-232" lat="59.57993" lon="11.16324">
		<tag k="amenity" v="kindergarten" />
		<tag k="capacity" v="4" />
		<tag k="contact:email" v="asmund.egge@iakh.uio.no" />
		<tag k="contact:phone" v="+47 69 88 01 69" />
		<tag k="max_age" v="5" />
		<tag k="min_age" v="1" />
		<tag k="name" v="Sole Familiebarnehage" />
		<tag k="no-barnehage:nsrid" v="1020227" />
		<tag k="operator" v="Sole Familiebarnehage V/bente LangsÃ¦ther" />
		<tag k="operator:type" v="private" />
		<tag k="start_date" v="1994-08-01" />
	</node>
	<node id="-230" lat="59.59102" lon="11.19624">
		<tag k="amenity" v="kindergarten" />
		<tag k="capacity" v="8" />
		<tag k="contact:email" v="lailafry@online.no" />
		<tag k="contact:phone" v="+47 69 88 63 43" />
		<tag k="max_age" v="2" />
		<tag k="min_age" v="1" />
		<tag k="name" v="Regnbuen Familiebarnehage" />
		<tag k="no-barnehage:nsrid" v="1020679" />
		<tag k="operator" v="Laila Frydenlund" />
		<tag k="operator:type" v="private" />
		<tag k="start_date" v="2000-08-15" />
	</node>
	<node id="-228" lat="59.59233" lon="11.19074">
		<tag k="amenity" v="kindergarten" />
		<tag k="capacity" v="4" />
		<tag k="contact:email" v="krsmilja@online.no" />
		<tag k="contact:phone" v="+47 69 88 59 06" />
		<tag k="max_age" v="2" />
		<tag k="min_age" v="1" />
		<tag k="name" v="Ole Brumm Familiebarnehage Kristina Smiljanic" />
		<tag k="no-barnehage:nsrid" v="1021374" />
		<tag k="operator" v="Ole Brumm Familiebarnehage Kristina Smiljanic" />
		<tag k="operator:type" v="private" />
		<tag k="start_date" v="2006-01-01" />
	</node>
</osm>
