<?xml version="1.0" encoding="UTF-8"?>
<osm generator="osmapis" version="0.6">
	<node id="-224" lat="59.59618" lon="11.13328">
		<tag k="amenity" v="kindergarten" />
		<tag k="capacity" v="41" />
		<tag k="contact:email" v="post@ilen.no" />
		<tag k="contact:phone" v="47467995" />
		<tag k="contact:website" v="http://www.ilen.no" />
		<tag k="max_age" v="5" />
		<tag k="min_age" v="1" />
		<tag k="name" v="Ilen Gårds- og Naturbarnehage AS" />
		<tag k="no-barnehage:nsrid" v="1022204" />
		<tag k="operator" v="Ilen Gårds- og Naturbarnehage AS" />
		<tag k="operator:type" v="private" />
		<tag k="start_date" v="2006-04-01" />
	</node>
	<node id="-223" lat="59.5845" lon="11.17">
		<tag k="amenity" v="kindergarten" />
		<tag k="capacity" v="51" />
		<tag k="contact:email" v="cecilia.hultgren@askim.kommune.no" />
		<tag k="contact:phone" v="69 81 91 68" />
		<tag k="max_age" v="5" />
		<tag k="min_age" v="1" />
		<tag k="name" v="Henstad barnehage" />
		<tag k="no-barnehage:nsrid" v="1017351" />
		<tag k="operator" v="Askim kommune" />
		<tag k="operator:type" v="public" />
		<tag k="start_date" v="1976-01-01" />
	</node>
	<node id="-222" lat="59.5933" lon="11.1813">
		<tag k="amenity" v="kindergarten" />
		<tag k="capacity" v="49" />
		<tag k="contact:email" v="cecilia.hultgren@askim.kommune.no" />
		<tag k="contact:phone" v="69 88 10 87" />
		<tag k="max_age" v="5" />
		<tag k="min_age" v="1" />
		<tag k="name" v="Grøtvedt barnehage" />
		<tag k="no-barnehage:nsrid" v="1017505" />
		<tag k="operator" v="Askim kommune" />
		<tag k="operator:type" v="public" />
		<tag k="start_date" v="1988-04-01" />
	</node>
	<node id="-221" lat="59.58331" lon="11.15658">
		<tag k="amenity" v="kindergarten" />
		<tag k="capacity" v="108" />
		<tag k="contact:email" v="styrer@skolegata.espira.no" />
		<tag k="contact:website" v="http://www.espira.no" />
		<tag k="max_age" v="5" />
		<tag k="min_age" v="1" />
		<tag k="name" v="Espira Skolegata barnehage" />
		<tag k="no-barnehage:nsrid" v="1021060" />
		<tag k="operator" v="Espira Skolegata AS" />
		<tag k="operator:type" v="private" />
		<tag k="start_date" v="1976-01-01" />
	</node>
	<node id="-220" lat="59.5907" lon="11.1766">
		<tag k="amenity" v="kindergarten" />
		<tag k="capacity" v="15" />
		<tag k="contact:email" v="trond.kalhagen@askim.kommune.no" />
		<tag k="max_age" v="5" />
		<tag k="min_age" v="1" />
		<tag k="name" v="Askim Menighets barnehage" />
		<tag k="no-barnehage:nsrid" v="1016660" />
		<tag k="operator" v="Askim Sokn" />
		<tag k="operator:type" v="private" />
		<tag k="start_date" v="1989-01-02" />
	</node>
	<node id="-219" lat="59.5859" lon="11.178">
		<tag k="amenity" v="kindergarten" />
		<tag k="contact:email" v="kristin.sanne.wattum@askim.kommune.no" />
		<tag k="name" v="Askim kommune Åpen barnehage" />
		<tag k="no-barnehage:nsrid" v="1015585" />
		<tag k="operator" v="Askim kommune" />
		<tag k="operator:type" v="public" />
		<tag k="start_date" v="1997-09-01" />
	</node>
	<node id="-233" lat="59.5909" lon="11.1903">
		<tag k="amenity" v="kindergarten" />
		<tag k="capacity" v="136" />
		<tag k="contact:email" v="catrine.b.bakker@askim.kommune.no" />
		<tag k="contact:phone" v="69 81 77 50" />
		<tag k="max_age" v="5" />
		<tag k="min_age" v="1" />
		<tag k="name" v="Trippestadlia barnehage" />
		<tag k="no-barnehage:nsrid" v="1017352" />
		<tag k="operator" v="Askim kommune" />
		<tag k="operator:type" v="public" />
		<tag k="start_date" v="1976-01-01" />
	</node>
	<node id="-232" lat="59.58637" lon="11.12423">
		<tag k="amenity" v="kindergarten" />
		<tag k="capacity" v="28" />
		<tag k="contact:email" v="Askim@steinerbarnehage.no" />
		<tag k="contact:website" v="http://steinerskoleniindreostfold.com" />
		<tag k="max_age" v="5" />
		<tag k="min_age" v="1" />
		<tag k="name" v="Steinerbarnehagen i Indre Østfold" />
		<tag k="no-barnehage:nsrid" v="1021494" />
		<tag k="operator" v="Stiftelsen Steinerbarnehagen i Indre Østfold" />
		<tag k="operator:type" v="private" />
		<tag k="start_date" v="1999-08-01" />
	</node>
	<node id="-230" lat="59.5901" lon="11.1277">
		<tag k="amenity" v="kindergarten" />
		<tag k="capacity" v="126" />
		<tag k="contact:email" v="ann-lisbet.kolstad@askim.kommune.no" />
		<tag k="contact:phone" v="69 81 91 98" />
		<tag k="max_age" v="5" />
		<tag k="min_age" v="1" />
		<tag k="name" v="Rom barnehage" />
		<tag k="no-barnehage:nsrid" v="1013912" />
		<tag k="operator" v="Askim kommune" />
		<tag k="operator:type" v="public" />
		<tag k="start_date" v="1990-08-01" />
	</node>
	<node id="-228" lat="59.5866" lon="11.1607">
		<tag k="amenity" v="kindergarten" />
		<tag k="capacity" v="125" />
		<tag k="contact:email" v="trude.skogsberg@askim.kommune.no" />
		<tag k="contact:phone" v="69 84 46 50" />
		<tag k="max_age" v="5" />
		<tag k="min_age" v="1" />
		<tag k="name" v="Prestenga barnehage" />
		<tag k="no-barnehage:nsrid" v="1016024" />
		<tag k="operator" v="Askim kommune" />
		<tag k="operator:type" v="public" />
		<tag k="start_date" v="1988-04-01" />
	</node>
	<node id="-226" lat="59.5818" lon="11.159">
		<tag k="amenity" v="kindergarten" />
		<tag k="capacity" v="35" />
		<tag k="contact:email" v="barnehagen@misjonskirken-askim.no" />
		<tag k="contact:phone" v="69882324" />
		<tag k="max_age" v="5" />
		<tag k="min_age" v="1" />
		<tag k="name" v="Misjonskirken barnehage" />
		<tag k="no-barnehage:nsrid" v="1015475" />
		<tag k="operator" v="Askim Frie Misjonsmenighet" />
		<tag k="operator:type" v="private" />
		<tag k="start_date" v="1982-01-01" />
	</node>
	<node id="-225" lat="59.5742" lon="11.192">
		<tag k="amenity" v="kindergarten" />
		<tag k="capacity" v="43" />
		<tag k="contact:email" v="cecilia.hultgren@askim.kommune.no" />
		<tag k="contact:phone" v="69880710" />
		<tag k="max_age" v="5" />
		<tag k="min_age" v="1" />
		<tag k="name" v="Jahrbo barnehage" />
		<tag k="no-barnehage:nsrid" v="1016016" />
		<tag k="operator" v="Askim kommune" />
		<tag k="operator:type" v="public" />
		<tag k="start_date" v="1995-02-22" />
	</node>
</osm>
