<?xml version="1.0" encoding="UTF-8"?>
<osm generator="osmapis" version="0.6">
	<node id="-4715" lat="60.8002" lon="5.30278">
		<tag k="amenity" v="kindergarten" />
		<tag k="capacity" v="33" />
		<tag k="doNotImportAddress" v="Sandnesstykket 1 5981 MASFJORDNES" />
		<tag k="max_age" v="5" />
		<tag k="min_age" v="1" />
		<tag k="name" v="Sandnes barnehage" />
		<tag k="no-barnehage:nsrid" v="1012586" />
		<tag k="operator" v="Masfjorden kommune" />
		<tag k="operator:type" v="public" />
	</node>
	<node id="-4714" lat="60.8333" lon="5.2992">
		<tag k="amenity" v="kindergarten" />
		<tag k="capacity" v="47" />
		<tag k="doNotImportAddress" v=" 5986 HOSTELAND" />
		<tag k="max_age" v="5" />
		<tag k="min_age" v="1" />
		<tag k="name" v="Nordbygda barnehage" />
		<tag k="no-barnehage:nsrid" v="1014891" />
		<tag k="operator" v="Masfjorden kommune" />
		<tag k="operator:type" v="public" />
	</node>
	<node id="-4713" lat="60.9038" lon="5.68958">
		<tag k="amenity" v="kindergarten" />
		<tag k="capacity" v="22" />
		<tag k="doNotImportAddress" v=" 5984 MATREDAL" />
		<tag k="max_age" v="5" />
		<tag k="min_age" v="1" />
		<tag k="name" v="Indre Masfjorden barnehage" />
		<tag k="no-barnehage:nsrid" v="1015556" />
		<tag k="operator" v="Masfjorden kommune" />
		<tag k="operator:type" v="public" />
	</node>
</osm>
