<?xml version="1.0" encoding="UTF-8"?>
<osm generator="osmapis" version="0.6">
	<node id="-4288" lat="60.8333" lon="5.2992">
		<tag k="amenity" v="kindergarten" />
		<tag k="capacity" v="41" />
		<tag k="contact:email" v="inger.marie.duesund@masfjorden.kommune.no" />
		<tag k="contact:phone" v="+47 56166430" />
		<tag k="max_age" v="5" />
		<tag k="min_age" v="1" />
		<tag k="name" v="Nordbygda barnehage" />
		<tag k="no-barnehage:nsrid" v="1014891" />
		<tag k="operator" v="Masfjorden kommune" />
		<tag k="operator:type" v="public" />
		<tag k="start_date" v="1978-12-24" />
	</node>
	<node id="-4287" lat="60.9038" lon="5.68958">
		<tag k="amenity" v="kindergarten" />
		<tag k="capacity" v="21" />
		<tag k="contact:email" v="maja.a.dahle@masfjorden.kommune.no" />
		<tag k="contact:phone" v="+47 56166130" />
		<tag k="max_age" v="5" />
		<tag k="min_age" v="1" />
		<tag k="name" v="Indre Masfjorden barnehage" />
		<tag k="no-barnehage:nsrid" v="1015556" />
		<tag k="operator" v="Masfjorden kommune" />
		<tag k="operator:type" v="public" />
		<tag k="start_date" v="1982-01-01" />
	</node>
	<node id="-4289" lat="60.8002" lon="5.30278">
		<tag k="amenity" v="kindergarten" />
		<tag k="capacity" v="28" />
		<tag k="contact:email" v="maja.a.dahle@masfjorden.kommune.no" />
		<tag k="contact:phone" v="+47 56166100" />
		<tag k="max_age" v="5" />
		<tag k="min_age" v="1" />
		<tag k="name" v="Sandnes barnehage" />
		<tag k="no-barnehage:nsrid" v="1012586" />
		<tag k="operator" v="Masfjorden kommune" />
		<tag k="operator:type" v="public" />
		<tag k="start_date" v="1982-01-01" />
	</node>
</osm>
