<?xml version="1.0" encoding="UTF-8"?>
<osm generator="osmapis" version="0.6">
	<node id="-3691" lat="69.9581" lon="23.24803">
		<tag k="ADDRESS" v="Skoleåsen 81, 9513 ALTA" />
		<tag k="amenity" v="kindergarten" />
		<tag k="capacity" v="38" />
		<tag k="max_age" v="5" />
		<tag k="min_age" v="1" />
		<tag k="name" v="Åsen barnehage" />
		<tag k="no-barnehage:nsrid" v="1019883" />
		<tag k="operator" v="Stiftelsen Åsen barnehage" />
		<tag k="operator:type" v="private" />
	</node>
	<node id="-3690" lat="70.04199" lon="22.94537">
		<tag k="ADDRESS" v="Mellomgjerdet 7, 9540 TALVIK" />
		<tag k="amenity" v="kindergarten" />
		<tag k="capacity" v="18" />
		<tag k="max_age" v="5" />
		<tag k="min_age" v="1" />
		<tag k="name" v="Talvik barnehage" />
		<tag k="no-barnehage:nsrid" v="1013722" />
		<tag k="operator" v="Alta kommune" />
		<tag k="operator:type" v="public" />
	</node>
	<node id="-3689" lat="69.96053" lon="23.41315">
		<tag k="ADDRESS" v="Saga 5, 9517 ALTA" />
		<tag k="amenity" v="kindergarten" />
		<tag k="capacity" v="78" />
		<tag k="max_age" v="5" />
		<tag k="min_age" v="1" />
		<tag k="name" v="Saga barnehage" />
		<tag k="no-barnehage:nsrid" v="1013055" />
		<tag k="operator" v="Alta kommune" />
		<tag k="operator:type" v="public" />
	</node>
	<node id="-3688" lat="0.0" lon="0.0">
		<tag k="ADDRESS" v="Rafsbotn, 9517 ALTA" />
		<tag k="amenity" v="kindergarten" />
		<tag k="capacity" v="20" />
		<tag k="max_age" v="5" />
		<tag k="min_age" v="1" />
		<tag k="name" v="Rafsbotn barnehage" />
		<tag k="no-barnehage:nsrid" v="1014761" />
		<tag k="operator" v="Alta kommune" />
		<tag k="operator:type" v="public" />
	</node>
	<node id="-3687" lat="69.94984" lon="23.20454">
		<tag k="ADDRESS" v="Oterfaret 41, 9512 ALTA" />
		<tag k="amenity" v="kindergarten" />
		<tag k="capacity" v="49" />
		<tag k="max_age" v="5" />
		<tag k="min_age" v="1" />
		<tag k="name" v="Oterfaret barnehage" />
		<tag k="no-barnehage:nsrid" v="1017869" />
		<tag k="operator" v="Alta kommune" />
		<tag k="operator:type" v="public" />
	</node>
	<node id="-3686" lat="69.96908" lon="23.28391">
		<tag k="ADDRESS" v="Follumsvei 27, 9510 ALTA" />
		<tag k="amenity" v="kindergarten" />
		<tag k="capacity" v="42" />
		<tag k="max_age" v="5" />
		<tag k="min_age" v="1" />
		<tag k="name" v="Nyland studentbarnehage" />
		<tag k="no-barnehage:nsrid" v="1025307" />
		<tag k="operator" v="Norges Arktiske Studentsamskipnad" />
		<tag k="operator:type" v="private" />
	</node>
	<node id="-3685" lat="0.0" lon="0.0">
		<tag k="ADDRESS" v=", 9545 LANGFJORDBOTN" />
		<tag k="amenity" v="kindergarten" />
		<tag k="name" v="Langfjordbotn Barnetilbud" />
		<tag k="no-barnehage:nsrid" v="1019523" />
		<tag k="operator" v="Alta kommune" />
		<tag k="operator:type" v="public" />
	</node>
	<node id="-3684" lat="0.0" lon="0.0">
		<tag k="ADDRESS" v=", 9536 KORSFJORDEN" />
		<tag k="amenity" v="kindergarten" />
		<tag k="name" v="Korsfjord barnehage" />
		<tag k="no-barnehage:nsrid" v="1019524" />
		<tag k="operator" v="Alta kommune" />
		<tag k="operator:type" v="public" />
	</node>
	<node id="-3683" lat="69.95612" lon="23.37321">
		<tag k="ADDRESS" v="Myrullveien 2, 9516 ALTA" />
		<tag k="amenity" v="kindergarten" />
		<tag k="capacity" v="65" />
		<tag k="max_age" v="5" />
		<tag k="min_age" v="1" />
		<tag k="name" v="Kaiskuru barnehage" />
		<tag k="no-barnehage:nsrid" v="1016888" />
		<tag k="operator" v="Alta kommune" />
		<tag k="operator:type" v="public" />
	</node>
	<node id="-3682" lat="69.97214" lon="23.2745">
		<tag k="ADDRESS" v="Midtbakkveien 53, 9511 ALTA" />
		<tag k="amenity" v="kindergarten" />
		<tag k="name" v="Imi barnehage avd. Komsabasen" />
		<tag k="no-barnehage:nsrid" v="1020329" />
		<tag k="operator" v="Stiftelsen Imi barnehage" />
		<tag k="operator:type" v="private" />
	</node>
	<node id="-3681" lat="69.95782" lon="23.24544">
		<tag k="ADDRESS" v="Holtenalleen 3, 9513 ALTA" />
		<tag k="amenity" v="kindergarten" />
		<tag k="capacity" v="27" />
		<tag k="max_age" v="5" />
		<tag k="min_age" v="1" />
		<tag k="name" v="Holten barnehage" />
		<tag k="no-barnehage:nsrid" v="1019666" />
		<tag k="operator" v="Stiftelsen Holten barnehage" />
		<tag k="operator:type" v="private" />
	</node>
</osm>
