<?xml version="1.0" encoding="UTF-8"?>
<osm generator="osmapis" version="0.6">
	<node id="-5888" lat="69.9536" lon="23.2074">
		<tag k="amenity" v="kindergarten" />
		<tag k="capacity" v="62" />
		<tag k="contact:email" v="sissel@betania-alta.no" />
		<tag k="contact:phone" v="+47 353400000" />
		<tag k="max_age" v="5" />
		<tag k="min_age" v="1" />
		<tag k="name" v="Betania Barnehagedrift" />
		<tag k="no-barnehage:nsrid" v="1015511" />
		<tag k="operator" v="Stiftelsen Betania Alta" />
		<tag k="operator:type" v="private" />
		<tag k="start_date" v="1989-01-02" />
	</node>
	<node id="-5887" lat="69.9741" lon="23.3061">
		<tag k="amenity" v="kindergarten" />
		<tag k="capacity" v="60" />
		<tag k="contact:email" v="havi@alta.kommune.no" />
		<tag k="max_age" v="5" />
		<tag k="min_age" v="1" />
		<tag k="name" v="Aronnes barnehage" />
		<tag k="no-barnehage:nsrid" v="1016167" />
		<tag k="operator" v="Alta kommune" />
		<tag k="operator:type" v="public" />
		<tag k="start_date" v="1989-01-01" />
	</node>
	<node id="-5886" lat="69.97183" lon="23.29233">
		<tag k="amenity" v="kindergarten" />
		<tag k="capacity" v="41" />
		<tag k="contact:email" v="post@alttasiida.no" />
		<tag k="contact:phone" v="+47 78 44 30 70" />
		<tag k="contact:website" v="http://www.altasiida.barnehage.no" />
		<tag k="max_age" v="5" />
		<tag k="min_age" v="1" />
		<tag k="name" v="Áltta Siida AS" />
		<tag k="no-barnehage:nsrid" v="1021191" />
		<tag k="operator" v="Áltta Siida AS" />
		<tag k="operator:type" v="private" />
		<tag k="start_date" v="2005-01-22" />
	</node>
	<node id="-5912" lat="69.9584" lon="23.24834">
		<tag k="amenity" v="kindergarten" />
		<tag k="capacity" v="40" />
		<tag k="contact:email" v="aasen.barnehage@trollnet.no" />
		<tag k="contact:phone" v="+47 78 43 73 62" />
		<tag k="max_age" v="5" />
		<tag k="min_age" v="1" />
		<tag k="name" v="Åsen barnehage stiftelsen" />
		<tag k="no-barnehage:nsrid" v="1019883" />
		<tag k="operator" v="Stiftelsen Åsen barnehage" />
		<tag k="operator:type" v="private" />
		<tag k="start_date" v="1990-03-01" />
	</node>
	<node id="-5911" lat="69.9244" lon="23.4899">
		<tag k="amenity" v="kindergarten" />
		<tag k="capacity" v="39" />
		<tag k="contact:email" v="anitabakken.strom@alta.kommune.no" />
		<tag k="max_age" v="5" />
		<tag k="min_age" v="1" />
		<tag k="name" v="Tverrelvdalen barnehage" />
		<tag k="no-barnehage:nsrid" v="1016225" />
		<tag k="operator" v="Alta kommune" />
		<tag k="operator:type" v="public" />
		<tag k="start_date" v="1992-08-01" />
	</node>
	<node id="-5910" lat="70.042" lon="22.9454">
		<tag k="amenity" v="kindergarten" />
		<tag k="capacity" v="20" />
		<tag k="contact:email" v="siry@alta.kommune.no" />
		<tag k="max_age" v="5" />
		<tag k="min_age" v="1" />
		<tag k="name" v="Talvik barnehage" />
		<tag k="no-barnehage:nsrid" v="1013722" />
		<tag k="operator" v="Alta kommune" />
		<tag k="operator:type" v="public" />
		<tag k="start_date" v="1989-01-01" />
	</node>
	<node id="-5909" lat="69.97428" lon="23.3477">
		<tag k="amenity" v="kindergarten" />
		<tag k="capacity" v="48" />
		<tag k="contact:email" v="postmaster@snehvit-barnehage.no" />
		<tag k="contact:phone" v="+47 78 43 07 07" />
		<tag k="contact:website" v="http://www.snehvit.barnehageside.no" />
		<tag k="max_age" v="5" />
		<tag k="min_age" v="1" />
		<tag k="name" v="Snehvit barnehage AS" />
		<tag k="no-barnehage:nsrid" v="1020024" />
		<tag k="operator" v="Snehvit barnehage AS" />
		<tag k="operator:type" v="private" />
		<tag k="start_date" v="1990-11-26" />
	</node>
	<node id="-5908" lat="69.9722" lon="23.2867">
		<tag k="amenity" v="kindergarten" />
		<tag k="capacity" v="60" />
		<tag k="contact:email" v="Anita.Thomassen@alta.kommune.no" />
		<tag k="max_age" v="5" />
		<tag k="min_age" v="1" />
		<tag k="name" v="Sentrum barnehage" />
		<tag k="no-barnehage:nsrid" v="1013721" />
		<tag k="operator" v="Alta kommune" />
		<tag k="operator:type" v="public" />
		<tag k="start_date" v="1989-01-01" />
	</node>
	<node id="-5907" lat="69.9605" lon="23.4132">
		<tag k="amenity" v="kindergarten" />
		<tag k="capacity" v="78" />
		<tag k="contact:email" v="inbr@alta.kommune.no" />
		<tag k="max_age" v="5" />
		<tag k="min_age" v="1" />
		<tag k="name" v="Saga barnehage" />
		<tag k="no-barnehage:nsrid" v="1013055" />
		<tag k="operator" v="Alta kommune" />
		<tag k="operator:type" v="public" />
		<tag k="start_date" v="2004-08-01" />
	</node>
	<node id="-5906" lat="69.97222" lon="23.36368">
		<tag k="amenity" v="kindergarten" />
		<tag k="capacity" v="42" />
		<tag k="contact:email" v="post@rishaugenbarnehage.no" />
		<tag k="contact:phone" v="+47 78 44 22 00" />
		<tag k="contact:website" v="http://www.rishaugenbarnehage.no" />
		<tag k="max_age" v="5" />
		<tag k="min_age" v="1" />
		<tag k="name" v="Rishaugen barnehage" />
		<tag k="no-barnehage:nsrid" v="1020010" />
		<tag k="operator" v="Rishaugen barnehage Sa" />
		<tag k="operator:type" v="private" />
		<tag k="start_date" v="1991-04-01" />
	</node>
	<node id="-5905" lat="70.0193" lon="23.5333">
		<tag k="amenity" v="kindergarten" />
		<tag k="capacity" v="20" />
		<tag k="contact:email" v="lise.jonas@alta.kommune.no" />
		<tag k="max_age" v="5" />
		<tag k="min_age" v="1" />
		<tag k="name" v="Rafsbotn barnehage" />
		<tag k="no-barnehage:nsrid" v="1014761" />
		<tag k="operator" v="Alta kommune" />
		<tag k="operator:type" v="public" />
		<tag k="start_date" v="1992-08-01" />
	</node>
	<node id="-5904" lat="69.9498" lon="23.2045">
		<tag k="amenity" v="kindergarten" />
		<tag k="capacity" v="47" />
		<tag k="contact:email" v="anne-lill.pedersen@alta.kommune.no" />
		<tag k="max_age" v="5" />
		<tag k="min_age" v="1" />
		<tag k="name" v="Oterfaret barnehage" />
		<tag k="no-barnehage:nsrid" v="1017869" />
		<tag k="operator" v="Alta kommune" />
		<tag k="operator:type" v="public" />
		<tag k="start_date" v="2007-08-01" />
	</node>
	<node id="-5903" lat="69.9672" lon="23.2778">
		<tag k="amenity" v="kindergarten" />
		<tag k="capacity" v="58" />
		<tag k="contact:email" v="Merete.daniloff@samskipnaden.no" />
		<tag k="contact:phone" v="+47 08435344" />
		<tag k="max_age" v="5" />
		<tag k="min_age" v="1" />
		<tag k="name" v="Nyland barnehage" />
		<tag k="no-barnehage:nsrid" v="1025307" />
		<tag k="operator" v="Norges Arktiske Studentsamskipnad" />
		<tag k="operator:type" v="private" />
		<tag k="start_date" v="1989-01-02" />
	</node>
	<node id="-5902" lat="69.9685" lon="23.267">
		<tag k="amenity" v="kindergarten" />
		<tag k="capacity" v="27" />
		<tag k="contact:email" v="anita.wahl@alta.kommune.no" />
		<tag k="max_age" v="5" />
		<tag k="min_age" v="1" />
		<tag k="name" v="Midtbakken barnehage" />
		<tag k="no-barnehage:nsrid" v="1013719" />
		<tag k="operator" v="Alta kommune" />
		<tag k="operator:type" v="public" />
		<tag k="start_date" v="1989-01-01" />
	</node>
	<node id="-5901" lat="60.14495" lon="11.18379">
		<tag k="amenity" v="kindergarten" />
		<tag k="capacity" v="45" />
		<tag k="contact:email" v="tornerose@trollnet.no" />
		<tag k="contact:phone" v="+47 78437399" />
		<tag k="max_age" v="5" />
		<tag k="min_age" v="1" />
		<tag k="name" v="Læringsverkstedet Tornerose barnehage AS" />
		<tag k="no-barnehage:nsrid" v="1020109" />
		<tag k="operator" v="Læringsverkstedet Tornerose barnehage AS" />
		<tag k="operator:type" v="private" />
		<tag k="start_date" v="1992-08-01" />
	</node>
	<node id="-5900" lat="70.115" lon="23.3833">
		<tag k="amenity" v="kindergarten" />
		<tag k="capacity" v="3" />
		<tag k="contact:email" v="eva.nygard@alta.kommune.no" />
		<tag k="contact:phone" v="+47 78 43 81 02" />
		<tag k="max_age" v="5" />
		<tag k="min_age" v="1" />
		<tag k="name" v="Leirbotn barnehage" />
		<tag k="no-barnehage:nsrid" v="1014762" />
		<tag k="operator" v="Alta kommune" />
		<tag k="operator:type" v="public" />
		<tag k="start_date" v="1992-08-01" />
	</node>
	<node id="-5899" lat="69.9652" lon="23.3744">
		<tag k="amenity" v="kindergarten" />
		<tag k="capacity" v="41" />
		<tag k="contact:email" v="yvonne.heitmann@alta.kommune.no" />
		<tag k="max_age" v="5" />
		<tag k="min_age" v="1" />
		<tag k="name" v="Kronstad barnehage" />
		<tag k="no-barnehage:nsrid" v="1013720" />
		<tag k="operator" v="Alta kommune" />
		<tag k="operator:type" v="public" />
		<tag k="start_date" v="1989-01-01" />
	</node>
	<node id="-5898" lat="69.9789" lon="23.28999">
		<tag k="amenity" v="kindergarten" />
		<tag k="capacity" v="37" />
		<tag k="contact:email" v="postmaster@komsatoppen.no" />
		<tag k="contact:phone" v="+47 78 44 04 02" />
		<tag k="contact:website" v="http://www.komsatoppen.no" />
		<tag k="max_age" v="5" />
		<tag k="min_age" v="1" />
		<tag k="name" v="Komsatoppen barnehage AS" />
		<tag k="no-barnehage:nsrid" v="1022444" />
		<tag k="operator" v="Komsatoppen barnehage AS" />
		<tag k="operator:type" v="private" />
		<tag k="start_date" v="1993-05-21" />
	</node>
	<node id="-5897" lat="69.9561" lon="23.3732">
		<tag k="amenity" v="kindergarten" />
		<tag k="capacity" v="68" />
		<tag k="contact:email" v="siri.vebenstad@alta.kommune.no" />
		<tag k="max_age" v="5" />
		<tag k="min_age" v="1" />
		<tag k="name" v="Kaiskuru barnehage" />
		<tag k="no-barnehage:nsrid" v="1016888" />
		<tag k="operator" v="Alta kommune" />
		<tag k="operator:type" v="public" />
		<tag k="start_date" v="1993-08-09" />
	</node>
	<node id="-5896" lat="69.9638" lon="23.244">
		<tag k="amenity" v="kindergarten" />
		<tag k="capacity" v="69" />
		<tag k="contact:email" v="imi@trollnet.no" />
		<tag k="contact:phone" v="+47 22111315" />
		<tag k="max_age" v="5" />
		<tag k="min_age" v="1" />
		<tag k="name" v="Imi barnehage Avd Bakkeveien" />
		<tag k="no-barnehage:nsrid" v="1016193" />
		<tag k="operator" v="Stiftelsen Imi barnehage" />
		<tag k="operator:type" v="private" />
		<tag k="start_date" v="1981-09-01" />
	</node>
	<node id="-5895" lat="69.95782" lon="23.24544">
		<tag k="amenity" v="kindergarten" />
		<tag k="capacity" v="31" />
		<tag k="contact:email" v="post@holtenbarnehage.no" />
		<tag k="contact:phone" v="+47 78 43 61 75" />
		<tag k="max_age" v="5" />
		<tag k="min_age" v="1" />
		<tag k="name" v="Holten barnehage" />
		<tag k="no-barnehage:nsrid" v="1019666" />
		<tag k="operator" v="Stiftelsen Holten barnehage" />
		<tag k="operator:type" v="private" />
		<tag k="start_date" v="1988-04-01" />
	</node>
	<node id="-5894" lat="69.94102" lon="23.28876">
		<tag k="amenity" v="kindergarten" />
		<tag k="capacity" v="28" />
		<tag k="contact:email" v="holmen@kraftlaget.no" />
		<tag k="contact:phone" v="+47 41 55 51 15" />
		<tag k="contact:website" v="http://www.holmen.barnehage.no" />
		<tag k="max_age" v="5" />
		<tag k="min_age" v="1" />
		<tag k="name" v="Holmen Gårds og Naturbarnehage AS" />
		<tag k="no-barnehage:nsrid" v="1021988" />
		<tag k="operator" v="Holmen Gårds og Naturbarnehage AS" />
		<tag k="operator:type" v="private" />
		<tag k="start_date" v="2009-09-14" />
	</node>
	<node id="-5893" lat="69.9515" lon="23.2238">
		<tag k="amenity" v="kindergarten" />
		<tag k="capacity" v="27" />
		<tag k="contact:email" v="dagmar.andreassen@alta.kommune.no" />
		<tag k="max_age" v="5" />
		<tag k="min_age" v="1" />
		<tag k="name" v="Gakori barnehage" />
		<tag k="no-barnehage:nsrid" v="1013718" />
		<tag k="operator" v="Alta kommune" />
		<tag k="operator:type" v="public" />
		<tag k="start_date" v="1989-01-01" />
	</node>
	<node id="-5892" lat="69.97342" lon="23.35522">
		<tag k="amenity" v="kindergarten" />
		<tag k="capacity" v="67" />
		<tag k="contact:email" v="postmaster@furuabarnehage.no" />
		<tag k="contact:phone" v="+47 78 44 93 90" />
		<tag k="max_age" v="5" />
		<tag k="min_age" v="1" />
		<tag k="name" v="Furua barnehage AS" />
		<tag k="no-barnehage:nsrid" v="1020869" />
		<tag k="operator" v="Furua barnehage AS" />
		<tag k="operator:type" v="private" />
		<tag k="start_date" v="2002-12-13" />
	</node>
	<node id="-5891" lat="69.95763" lon="23.23725">
		<tag k="amenity" v="kindergarten" />
		<tag k="capacity" v="41" />
		<tag k="contact:email" v="lill@betania-alta.no" />
		<tag k="contact:phone" v="+47 78 44 65 00" />
		<tag k="contact:website" v="http://www.breverud-barnehage.no" />
		<tag k="max_age" v="5" />
		<tag k="min_age" v="1" />
		<tag k="name" v="Breverud barnehage AS" />
		<tag k="no-barnehage:nsrid" v="1022174" />
		<tag k="operator" v="Breverud barnehage AS" />
		<tag k="operator:type" v="private" />
		<tag k="start_date" v="2011-03-05" />
	</node>
	<node id="-5890" lat="69.974" lon="23.2367">
		<tag k="amenity" v="kindergarten" />
		<tag k="capacity" v="68" />
		<tag k="contact:email" v="gry.roe@alta.kommune.no" />
		<tag k="max_age" v="5" />
		<tag k="min_age" v="1" />
		<tag k="name" v="Breidablikk barnehage" />
		<tag k="no-barnehage:nsrid" v="1016517" />
		<tag k="operator" v="Alta kommune" />
		<tag k="operator:type" v="public" />
		<tag k="start_date" v="2003-01-01" />
	</node>
	<node id="-5889" lat="69.95615" lon="23.23956">
		<tag k="amenity" v="kindergarten" />
		<tag k="capacity" v="36" />
		<tag k="contact:email" v="post@bossekopbarnehage.no" />
		<tag k="contact:phone" v="+47 78 44 31 00" />
		<tag k="max_age" v="5" />
		<tag k="min_age" v="1" />
		<tag k="name" v="Bossekop barnehage AS" />
		<tag k="no-barnehage:nsrid" v="1020970" />
		<tag k="operator" v="Bossekop barnehage AS" />
		<tag k="operator:type" v="private" />
		<tag k="start_date" v="2003-09-25" />
	</node>
</osm>
