<?xml version="1.0" encoding="UTF-8"?>
<osm generator="osmapis" version="0.6">
	<node id="-6176" lat="69.00233" lon="23.0583">
		<tag k="amenity" v="kindergarten" />
		<tag k="name" v="Håkon Hansen" />
		<tag k="no-barnehage:nsrid" v="1022446" />
		<tag k="operator" v="Håkon Hansen" />
		<tag k="operator:type" v="private" />
	</node>
	<node id="-6175" lat="69.01166" lon="23.04339">
		<tag k="amenity" v="kindergarten" />
		<tag k="capacity" v="24" />
		<tag k="max_age" v="5" />
		<tag k="min_age" v="1" />
		<tag k="name" v="Gili barnehage" />
		<tag k="no-barnehage:nsrid" v="1014760" />
		<tag k="operator" v="Guovdageainnu Suohkan / Kautokeino kommune" />
		<tag k="operator:type" v="public" />
	</node>
	<node id="-6174" lat="0.0" lon="0.0">
		<tag k="amenity" v="kindergarten" />
		<tag k="capacity" v="27" />
		<tag k="max_age" v="5" />
		<tag k="min_age" v="1" />
		<tag k="name" v="Gartnetluohkka barnehage" />
		<tag k="no-barnehage:nsrid" v="1013806" />
		<tag k="operator" v="Guovdageainnu Suohkan / Kautokeino kommune" />
		<tag k="operator:type" v="public" />
	</node>
	<node id="-6173" lat="0.0" lon="0.0">
		<tag k="amenity" v="kindergarten" />
		<tag k="capacity" v="35" />
		<tag k="contact:website" v="http://siiif.no" />
		<tag k="max_age" v="5" />
		<tag k="min_age" v="1" />
		<tag k="name" v="Gahkkorcorru Manaigardi" />
		<tag k="no-barnehage:nsrid" v="1016826" />
		<tag k="operator" v="Sis Finnmarkku Studeanttaid Ovttastus Sso" />
		<tag k="operator:type" v="private" />
	</node>
	<node id="-6172" lat="69.01425" lon="23.05013">
		<tag k="amenity" v="kindergarten" />
		<tag k="capacity" v="43" />
		<tag k="max_age" v="5" />
		<tag k="min_age" v="1" />
		<tag k="name" v="Beazedievva barnehage" />
		<tag k="no-barnehage:nsrid" v="1013716" />
		<tag k="operator" v="Guovdageainnu Suohkan / Kautokeino kommune" />
		<tag k="operator:type" v="public" />
	</node>
	<node id="-6179" lat="0.0" lon="0.0">
		<tag k="amenity" v="kindergarten" />
		<tag k="capacity" v="34" />
		<tag k="max_age" v="5" />
		<tag k="min_age" v="1" />
		<tag k="name" v="Nuortamielli Mánáidgárdi" />
		<tag k="no-barnehage:nsrid" v="1021903" />
		<tag k="operator" v="Nuortamielli Mánáidgárdi AS" />
		<tag k="operator:type" v="private" />
	</node>
	<node id="-6178" lat="69.00233" lon="23.0583">
		<tag k="amenity" v="kindergarten" />
		<tag k="name" v="Nuortamielli Bearaimanaidgardi Kristine Buljo" />
		<tag k="no-barnehage:nsrid" v="1025636" />
		<tag k="operator" v="Nuortamielli Bearaimanaidgardi Kristine Buljo" />
		<tag k="operator:type" v="private" />
	</node>
	<node id="-6177" lat="0.0" lon="0.0">
		<tag k="amenity" v="kindergarten" />
		<tag k="capacity" v="6" />
		<tag k="max_age" v="5" />
		<tag k="min_age" v="1" />
		<tag k="name" v="Maze barnehage" />
		<tag k="no-barnehage:nsrid" v="1013717" />
		<tag k="operator" v="Guovdageainnu Suohkan / Kautokeino kommune" />
		<tag k="operator:type" v="public" />
	</node>
</osm>
