<?xml version="1.0" encoding="UTF-8"?>
<osm generator="osmapis" version="0.6">
	<node id="-5929" lat="69.00233" lon="23.05831">
		<tag k="amenity" v="kindergarten" />
		<tag k="capacity" v="34" />
		<tag k="contact:email" v="kristine.buljo@gmail.com" />
		<tag k="contact:phone" v="78 48 69 25" />
		<tag k="max_age" v="5" />
		<tag k="min_age" v="1" />
		<tag k="name" v="Nuortamielli Mánáidgárdi AS" />
		<tag k="no-barnehage:nsrid" v="1021903" />
		<tag k="operator" v="Nuortamielli Mánáidgárdi AS" />
		<tag k="operator:type" v="private" />
		<tag k="start_date" v="2009-01-01" />
	</node>
	<node id="-5928" lat="69.4437" lon="23.667">
		<tag k="amenity" v="kindergarten" />
		<tag k="capacity" v="5" />
		<tag k="contact:email" v="MASI-BHAGE@HOTMAIL.COM" />
		<tag k="contact:phone" v="78 48 72 25" />
		<tag k="max_age" v="5" />
		<tag k="min_age" v="1" />
		<tag k="name" v="Maze barnehage" />
		<tag k="no-barnehage:nsrid" v="1013717" />
		<tag k="operator" v="Guovdageainnu Suohkan / Kautokeino kommune" />
		<tag k="operator:type" v="public" />
		<tag k="start_date" v="1989-01-01" />
	</node>
	<node id="-5927" lat="69.0079" lon="23.0349">
		<tag k="amenity" v="kindergarten" />
		<tag k="capacity" v="11" />
		<tag k="contact:email" v="britt.hansen@kautokeino.kommune.no" />
		<tag k="contact:phone" v="78 48 62 00" />
		<tag k="max_age" v="5" />
		<tag k="min_age" v="1" />
		<tag k="name" v="Gili barnehage" />
		<tag k="no-barnehage:nsrid" v="1014760" />
		<tag k="operator" v="Guovdageainnu Suohkan / Kautokeino kommune" />
		<tag k="operator:type" v="public" />
		<tag k="start_date" v="1992-08-01" />
	</node>
	<node id="-5926" lat="69.002" lon="23.0584">
		<tag k="amenity" v="kindergarten" />
		<tag k="capacity" v="26" />
		<tag k="contact:email" v="annelise.haetta@kautokeino.kommune.no" />
		<tag k="contact:phone" v="78 48 69 11" />
		<tag k="max_age" v="5" />
		<tag k="min_age" v="1" />
		<tag k="name" v="Gartnetluohkka barnehage" />
		<tag k="no-barnehage:nsrid" v="1013806" />
		<tag k="operator" v="Guovdageainnu Suohkan / Kautokeino kommune" />
		<tag k="operator:type" v="public" />
		<tag k="start_date" v="1989-01-02" />
	</node>
	<node id="-5925" lat="69.0125" lon="23.0411">
		<tag k="amenity" v="kindergarten" />
		<tag k="capacity" v="29" />
		<tag k="contact:email" v="maritrbs@online.no" />
		<tag k="max_age" v="5" />
		<tag k="min_age" v="1" />
		<tag k="name" v="Gahkkorcorru Manaigardi" />
		<tag k="no-barnehage:nsrid" v="1016826" />
		<tag k="operator" v="Sis Finnmarkku Studeanttaid Ovttastus Sso" />
		<tag k="operator:type" v="private" />
		<tag k="start_date" v="1990-01-01" />
	</node>
	<node id="-5924" lat="69.015" lon="23.0498">
		<tag k="amenity" v="kindergarten" />
		<tag k="capacity" v="37" />
		<tag k="contact:email" v="inga.berit.skum@kautokeino.kommune.no" />
		<tag k="contact:phone" v="78 48 72 26" />
		<tag k="max_age" v="5" />
		<tag k="min_age" v="1" />
		<tag k="name" v="Beazedievva barnehage" />
		<tag k="no-barnehage:nsrid" v="1013716" />
		<tag k="operator" v="Guovdageainnu Suohkan / Kautokeino kommune" />
		<tag k="operator:type" v="public" />
		<tag k="start_date" v="1989-01-01" />
	</node>
</osm>
