<?xml version="1.0" encoding="UTF-8"?>
<osm generator="osmapis" version="0.6">
	<node id="-2624" lat="59.34018" lon="10.31452">
		<tag k="amenity" v="kindergarten" />
		<tag k="capacity" v="44" />
		<tag k="contact:website" v="http://www.linnestadbarnehage.no" />
		<tag k="doNotImportAddress" v="Kløvveien 2 3175 RAMNES" />
		<tag k="max_age" v="5" />
		<tag k="min_age" v="1" />
		<tag k="name" v="Linnestad barnehage" />
		<tag k="no-barnehage:nsrid" v="1020733" />
		<tag k="operator" v="Linnestad barnehage Sa" />
		<tag k="operator:type" v="private" />
	</node>
	<node id="-2622" lat="59.4128" lon="10.209">
		<tag k="amenity" v="kindergarten" />
		<tag k="capacity" v="42" />
		<tag k="doNotImportAddress" v="Eketuftveien 3 3174 REVETAL" />
		<tag k="max_age" v="5" />
		<tag k="min_age" v="1" />
		<tag k="name" v="Fon barnehage" />
		<tag k="no-barnehage:nsrid" v="1014698" />
		<tag k="operator" v="Re kommune" />
		<tag k="operator:type" v="public" />
	</node>
	<node id="-2621" lat="59.3699" lon="10.2561">
		<tag k="amenity" v="kindergarten" />
		<tag k="capacity" v="52" />
		<tag k="doNotImportAddress" v="Ramskiveien 4 3175 RAMNES" />
		<tag k="max_age" v="5" />
		<tag k="min_age" v="1" />
		<tag k="name" v="Brår barnehage" />
		<tag k="no-barnehage:nsrid" v="1013868" />
		<tag k="operator" v="Re kommune" />
		<tag k="operator:type" v="public" />
	</node>
	<node id="-2620" lat="59.412" lon="10.2805">
		<tag k="amenity" v="kindergarten" />
		<tag k="capacity" v="89" />
		<tag k="doNotImportAddress" v="Skaugveien 10 3178 VÅLE" />
		<tag k="max_age" v="5" />
		<tag k="min_age" v="1" />
		<tag k="name" v="Brekkeåsen barnehage" />
		<tag k="no-barnehage:nsrid" v="1013951" />
		<tag k="operator" v="Re kommune" />
		<tag k="operator:type" v="public" />
	</node>
	<node id="-2631" lat="59.3472" lon="10.2569">
		<tag k="amenity" v="kindergarten" />
		<tag k="capacity" v="16" />
		<tag k="doNotImportAddress" v="Midtåsveien 2 3175 RAMNES" />
		<tag k="max_age" v="5" />
		<tag k="min_age" v="1" />
		<tag k="name" v="Vivestad barnehage" />
		<tag k="no-barnehage:nsrid" v="1014203" />
		<tag k="operator" v="Re kommune" />
		<tag k="operator:type" v="public" />
	</node>
	<node id="-2630" lat="59.37188" lon="10.36874">
		<tag k="amenity" v="kindergarten" />
		<tag k="capacity" v="48" />
		<tag k="doNotImportAddress" v="Kåpeveien 703 3176 UNDRUMSDAL" />
		<tag k="max_age" v="5" />
		<tag k="min_age" v="1" />
		<tag k="name" v="Solerød oppvekstsenter avd. barnehage" />
		<tag k="no-barnehage:nsrid" v="1013952" />
		<tag k="operator" v="Re kommune" />
		<tag k="operator:type" v="public" />
	</node>
	<node id="-2628" lat="59.3724" lon="10.26308">
		<tag k="amenity" v="kindergarten" />
		<tag k="capacity" v="49" />
		<tag k="doNotImportAddress" v="Mor Kristins Vei 2 3174 REVETAL" />
		<tag k="max_age" v="5" />
		<tag k="min_age" v="1" />
		<tag k="name" v="Skjeggestadåsen barnehage" />
		<tag k="no-barnehage:nsrid" v="1026074" />
		<tag k="operator" v="Re kommune" />
		<tag k="operator:type" v="public" />
	</node>
	<node id="-2627" lat="59.3746" lon="10.2665">
		<tag k="amenity" v="kindergarten" />
		<tag k="capacity" v="61" />
		<tag k="doNotImportAddress" v="Skoleveien 1 3174 REVETAL" />
		<tag k="max_age" v="5" />
		<tag k="min_age" v="1" />
		<tag k="name" v="Revetal barnehage" />
		<tag k="no-barnehage:nsrid" v="1015665" />
		<tag k="operator" v="Re kommune" />
		<tag k="operator:type" v="public" />
	</node>
	<node id="-2626" lat="59.36641" lon="10.24695">
		<tag k="amenity" v="kindergarten" />
		<tag k="capacity" v="66" />
		<tag k="contact:website" v="http://www.ramnesprivatebarnehage.no/" />
		<tag k="doNotImportAddress" v="Berganveien 41 3175 RAMNES" />
		<tag k="max_age" v="5" />
		<tag k="min_age" v="1" />
		<tag k="name" v="Ramnes private barnehage" />
		<tag k="no-barnehage:nsrid" v="1019758" />
		<tag k="operator" v="Ramnes Private barnehage A/s" />
		<tag k="operator:type" v="private" />
	</node>
</osm>
