<?xml version="1.0" encoding="UTF-8"?>
<osm generator="osmapis" version="0.6">
	<node id="-2711" lat="59.3472" lon="10.2569">
		<tag k="amenity" v="kindergarten" />
		<tag k="capacity" v="14" />
		<tag k="contact:email" v="anne.klausen@re.kommune.no" />
		<tag k="max_age" v="5" />
		<tag k="min_age" v="1" />
		<tag k="name" v="Vivestad barnehage" />
		<tag k="no-barnehage:nsrid" v="1014203" />
		<tag k="operator" v="Re kommune" />
		<tag k="operator:type" v="public" />
		<tag k="start_date" v="2010-08-01" />
	</node>
	<node id="-2710" lat="59.37188" lon="10.36874">
		<tag k="amenity" v="kindergarten" />
		<tag k="capacity" v="44" />
		<tag k="contact:email" v="merete.aadnoy@re.kommune.no" />
		<tag k="max_age" v="5" />
		<tag k="min_age" v="1" />
		<tag k="name" v="Solerød Oppvekstsenter Avd Barnehage" />
		<tag k="no-barnehage:nsrid" v="1013952" />
		<tag k="operator" v="Re kommune" />
		<tag k="operator:type" v="public" />
		<tag k="start_date" v="1990-01-01" />
	</node>
	<node id="-2708" lat="59.3724" lon="10.26308">
		<tag k="amenity" v="kindergarten" />
		<tag k="capacity" v="26" />
		<tag k="contact:email" v="liv.sigstad@re.kommune.no" />
		<tag k="max_age" v="5" />
		<tag k="min_age" v="1" />
		<tag k="name" v="Skjeggestadåsen barnehage" />
		<tag k="no-barnehage:nsrid" v="1026074" />
		<tag k="operator" v="Re kommune" />
		<tag k="operator:type" v="public" />
		<tag k="start_date" v="2015-08-01" />
	</node>
	<node id="-2707" lat="59.3746" lon="10.2665">
		<tag k="amenity" v="kindergarten" />
		<tag k="capacity" v="73" />
		<tag k="contact:email" v="liv.sigstad@re.kommune.no" />
		<tag k="contact:phone" v="33 06 53 90" />
		<tag k="max_age" v="5" />
		<tag k="min_age" v="1" />
		<tag k="name" v="Revetal barnehage" />
		<tag k="no-barnehage:nsrid" v="1015665" />
		<tag k="operator" v="Re kommune" />
		<tag k="operator:type" v="public" />
		<tag k="start_date" v="1998-06-01" />
	</node>
	<node id="-2706" lat="59.36641" lon="10.24695">
		<tag k="amenity" v="kindergarten" />
		<tag k="capacity" v="64" />
		<tag k="contact:email" v="post@ramnesprivatebarnehage.no" />
		<tag k="contact:phone" v="33 39 67 64" />
		<tag k="max_age" v="5" />
		<tag k="min_age" v="1" />
		<tag k="name" v="Ramnes Private barnehage AS" />
		<tag k="no-barnehage:nsrid" v="1019758" />
		<tag k="operator" v="Ramnes Private barnehage A/s" />
		<tag k="operator:type" v="private" />
		<tag k="start_date" v="1989-01-02" />
	</node>
	<node id="-2704" lat="59.34018" lon="10.31452">
		<tag k="amenity" v="kindergarten" />
		<tag k="capacity" v="43" />
		<tag k="contact:email" v="irene@linnestadbarnehage.no" />
		<tag k="contact:phone" v="33 39 52 50" />
		<tag k="contact:website" v="http://www.linnestadbarnehage.no" />
		<tag k="max_age" v="5" />
		<tag k="min_age" v="1" />
		<tag k="name" v="Linnestad barnehage Sa" />
		<tag k="no-barnehage:nsrid" v="1020733" />
		<tag k="operator" v="Linnestad barnehage Sa" />
		<tag k="operator:type" v="private" />
		<tag k="start_date" v="2002-08-15" />
	</node>
	<node id="-2702" lat="59.4128" lon="10.209">
		<tag k="amenity" v="kindergarten" />
		<tag k="capacity" v="47" />
		<tag k="contact:email" v="anne.klausen@re.kommune.no" />
		<tag k="contact:phone" v="33 06 48 70" />
		<tag k="max_age" v="5" />
		<tag k="min_age" v="1" />
		<tag k="name" v="Fon barnehage" />
		<tag k="no-barnehage:nsrid" v="1014698" />
		<tag k="operator" v="Re kommune" />
		<tag k="operator:type" v="public" />
		<tag k="start_date" v="1992-01-01" />
	</node>
	<node id="-2701" lat="59.3699" lon="10.2561">
		<tag k="amenity" v="kindergarten" />
		<tag k="capacity" v="59" />
		<tag k="contact:email" v="liv.sigstad@re.kommune.no" />
		<tag k="contact:phone" v="33 06 19 30" />
		<tag k="max_age" v="5" />
		<tag k="min_age" v="1" />
		<tag k="name" v="Brår barnehage" />
		<tag k="no-barnehage:nsrid" v="1013868" />
		<tag k="operator" v="Re kommune" />
		<tag k="operator:type" v="public" />
		<tag k="start_date" v="1989-01-02" />
	</node>
	<node id="-2700" lat="59.412" lon="10.2805">
		<tag k="amenity" v="kindergarten" />
		<tag k="capacity" v="93" />
		<tag k="contact:email" v="anne.klausen@re.kommune.no" />
		<tag k="contact:phone" v="33 06 17 35" />
		<tag k="max_age" v="5" />
		<tag k="min_age" v="1" />
		<tag k="name" v="Brekkeåsen barnehage" />
		<tag k="no-barnehage:nsrid" v="1013951" />
		<tag k="operator" v="Re kommune" />
		<tag k="operator:type" v="public" />
		<tag k="start_date" v="1990-01-01" />
	</node>
</osm>
