<?xml version="1.0" encoding="UTF-8"?>
<osm generator="osmapis" version="0.6">
	<node id="-6003" lat="69.2342" lon="18.0063">
		<tag k="amenity" v="kindergarten" />
		<tag k="capacity" v="27" />
		<tag k="max_age" v="5" />
		<tag k="min_age" v="1" />
		<tag k="name" v="Øvre Hamna barnehage" />
		<tag k="no-barnehage:nsrid" v="1013707" />
		<tag k="operator" v="Lenvik kommune" />
		<tag k="operator:type" v="public" />
		<tag k="start_date" v="1989-01-01" />
	</node>
	<node id="-6002" lat="69.2625" lon="17.999">
		<tag k="amenity" v="kindergarten" />
		<tag k="capacity" v="28" />
		<tag k="max_age" v="5" />
		<tag k="min_age" v="1" />
		<tag k="name" v="Trollvik barnehage" />
		<tag k="no-barnehage:nsrid" v="1015967" />
		<tag k="operator" v="Lenvik kommune" />
		<tag k="operator:type" v="public" />
		<tag k="start_date" v="1991-01-01" />
	</node>
	<node id="-6001" lat="69.23204" lon="17.98086">
		<tag k="amenity" v="kindergarten" />
		<tag k="capacity" v="44" />
		<tag k="contact:email" v="trollstua@barnehage.no" />
		<tag k="contact:phone" v="77842160" />
		<tag k="max_age" v="5" />
		<tag k="min_age" v="1" />
		<tag k="name" v="Trollstua barnehage" />
		<tag k="no-barnehage:nsrid" v="1020115" />
		<tag k="operator" v="Småbarnsforeldrenes barnehage Lenvik Sa" />
		<tag k="operator:type" v="private" />
		<tag k="start_date" v="1992-05-14" />
	</node>
	<node id="-6000" lat="69.2336" lon="18.0669">
		<tag k="amenity" v="kindergarten" />
		<tag k="capacity" v="110" />
		<tag k="max_age" v="5" />
		<tag k="min_age" v="1" />
		<tag k="name" v="Skogen barnehage" />
		<tag k="no-barnehage:nsrid" v="1017191" />
		<tag k="operator" v="Lenvik kommune" />
		<tag k="operator:type" v="public" />
		<tag k="start_date" v="2006-06-15" />
	</node>
	<node id="-5999" lat="69.246" lon="17.9467">
		<tag k="amenity" v="kindergarten" />
		<tag k="capacity" v="27" />
		<tag k="max_age" v="5" />
		<tag k="min_age" v="1" />
		<tag k="name" v="Silsand barnehage" />
		<tag k="no-barnehage:nsrid" v="1013904" />
		<tag k="operator" v="Lenvik kommune" />
		<tag k="operator:type" v="public" />
		<tag k="start_date" v="1989-01-01" />
	</node>
	<node id="-5998" lat="69.3632" lon="18.3136">
		<tag k="amenity" v="kindergarten" />
		<tag k="capacity" v="29" />
		<tag k="max_age" v="5" />
		<tag k="min_age" v="1" />
		<tag k="name" v="Rossfjord barnehage" />
		<tag k="no-barnehage:nsrid" v="1014696" />
		<tag k="operator" v="Lenvik kommune" />
		<tag k="operator:type" v="public" />
		<tag k="start_date" v="1991-01-01" />
	</node>
	<node id="-5997" lat="69.2325" lon="17.9958">
		<tag k="amenity" v="kindergarten" />
		<tag k="capacity" v="57" />
		<tag k="contact:email" v="kontor@heimlybarnehage.no" />
		<tag k="contact:phone" v="77 84 36 00" />
		<tag k="contact:website" v="http://heimlybarnehage.no" />
		<tag k="max_age" v="5" />
		<tag k="min_age" v="1" />
		<tag k="name" v="Nlm Barnehagene AS Avd Heimly Barnehage" />
		<tag k="no-barnehage:nsrid" v="1013291" />
		<tag k="operator" v="Nlm-Barnehagene AS" />
		<tag k="operator:type" v="private" />
		<tag k="start_date" v="2000-09-14" />
	</node>
	<node id="-5996" lat="69.3941" lon="18.1815">
		<tag k="amenity" v="kindergarten" />
		<tag k="capacity" v="15" />
		<tag k="max_age" v="5" />
		<tag k="min_age" v="1" />
		<tag k="name" v="Kårvik barnehage" />
		<tag k="no-barnehage:nsrid" v="1014695" />
		<tag k="operator" v="Lenvik kommune" />
		<tag k="operator:type" v="public" />
		<tag k="start_date" v="1991-01-01" />
	</node>
	<node id="-5995" lat="69.5439" lon="17.6597">
		<tag k="amenity" v="kindergarten" />
		<tag k="capacity" v="19" />
		<tag k="max_age" v="5" />
		<tag k="min_age" v="1" />
		<tag k="name" v="Husøy barnehage" />
		<tag k="no-barnehage:nsrid" v="1014758" />
		<tag k="operator" v="Lenvik kommune" />
		<tag k="operator:type" v="public" />
		<tag k="start_date" v="1992-01-01" />
	</node>
	<node id="-5994" lat="69.3541" lon="18.071">
		<tag k="amenity" v="kindergarten" />
		<tag k="capacity" v="13" />
		<tag k="max_age" v="5" />
		<tag k="min_age" v="1" />
		<tag k="name" v="Gibostad barnehage" />
		<tag k="no-barnehage:nsrid" v="1013706" />
		<tag k="operator" v="Lenvik kommune" />
		<tag k="operator:type" v="public" />
		<tag k="start_date" v="1989-01-01" />
	</node>
	<node id="-5993" lat="69.242" lon="17.9402">
		<tag k="amenity" v="kindergarten" />
		<tag k="capacity" v="117" />
		<tag k="contact:phone" v="77844770" />
		<tag k="max_age" v="5" />
		<tag k="min_age" v="1" />
		<tag k="name" v="Furumoen barnehage" />
		<tag k="no-barnehage:nsrid" v="1015460" />
		<tag k="operator" v="Lenvik kommune" />
		<tag k="operator:type" v="public" />
		<tag k="start_date" v="1989-12-12" />
	</node>
	<node id="-5992" lat="69.5075" lon="17.903">
		<tag k="amenity" v="kindergarten" />
		<tag k="capacity" v="24" />
		<tag k="contact:email" v="Botnhamn.barnehage@lenvik.kommune.no" />
		<tag k="contact:phone" v="77848597" />
		<tag k="max_age" v="5" />
		<tag k="min_age" v="1" />
		<tag k="name" v="Botnhamn barnehage" />
		<tag k="no-barnehage:nsrid" v="1015459" />
		<tag k="operator" v="Lenvik kommune" />
		<tag k="operator:type" v="public" />
		<tag k="start_date" v="1991-01-01" />
	</node>
	<node id="-5991" lat="69.235" lon="18.0019">
		<tag k="amenity" v="kindergarten" />
		<tag k="capacity" v="45" />
		<tag k="max_age" v="5" />
		<tag k="min_age" v="1" />
		<tag k="name" v="Blomli barnehage" />
		<tag k="no-barnehage:nsrid" v="1014954" />
		<tag k="operator" v="Lenvik kommune" />
		<tag k="operator:type" v="public" />
		<tag k="start_date" v="1989-01-01" />
	</node>
	<node id="-5990" lat="69.2343" lon="17.9757">
		<tag k="amenity" v="kindergarten" />
		<tag k="capacity" v="31" />
		<tag k="max_age" v="5" />
		<tag k="min_age" v="1" />
		<tag k="name" v="Berglia barnehage" />
		<tag k="no-barnehage:nsrid" v="1016164" />
		<tag k="operator" v="Lenvik kommune" />
		<tag k="operator:type" v="public" />
		<tag k="start_date" v="1989-01-01" />
	</node>
	<node id="-5989" lat="69.23863" lon="17.93906">
		<tag k="amenity" v="kindergarten" />
		<tag k="capacity" v="56" />
		<tag k="contact:email" v="asphaugen@barnehage.no" />
		<tag k="contact:phone" v="77 84 87 88" />
		<tag k="contact:website" v="http://asphaugen.barnehage.no" />
		<tag k="max_age" v="5" />
		<tag k="min_age" v="1" />
		<tag k="name" v="Asphaugen Friluftsbarnehage Sa" />
		<tag k="no-barnehage:nsrid" v="1020208" />
		<tag k="operator" v="Asphaugen Friluftsbarnehage Sa" />
		<tag k="operator:type" v="private" />
		<tag k="start_date" v="1996-01-01" />
	</node>
</osm>
