<?xml version="1.0" encoding="UTF-8"?>
<osm generator="osmapis" version="0.6">
	<node id="-3194" lat="60.08025" lon="10.28116">
		<tag k="ADDRESS" v="Viksveien 29, 3530 RØYSE" />
		<tag k="amenity" v="kindergarten" />
		<tag k="capacity" v="50" />
		<tag k="max_age" v="5" />
		<tag k="min_age" v="1" />
		<tag k="name" v="Vik formingsbarnehage" />
		<tag k="no-barnehage:nsrid" v="1013934" />
		<tag k="operator" v="Hole kommune" />
		<tag k="operator:type" v="public" />
	</node>
	<node id="-3193" lat="60.06845" lon="10.17166">
		<tag k="ADDRESS" v="Tyrifjordveien 32, 3530 RØYSE" />
		<tag k="amenity" v="kindergarten" />
		<tag k="capacity" v="17" />
		<tag k="contact:website" v="http://tyrifjordbarnehage.no" />
		<tag k="max_age" v="5" />
		<tag k="min_age" v="1" />
		<tag k="name" v="Tyrifjorden barnehage" />
		<tag k="no-barnehage:nsrid" v="1025656" />
		<tag k="operator" v="Tyrifjord barnehage" />
		<tag k="operator:type" v="private" />
	</node>
	<node id="-3192" lat="60.09078" lon="10.23484">
		<tag k="ADDRESS" v="Trongmoen 45, 3530 RØYSE" />
		<tag k="amenity" v="kindergarten" />
		<tag k="capacity" v="80" />
		<tag k="contact:website" v="http://www.naturbarnehagen.com" />
		<tag k="max_age" v="5" />
		<tag k="min_age" v="1" />
		<tag k="name" v="Svensrud natur- og idrettsbarnehage" />
		<tag k="no-barnehage:nsrid" v="1015822" />
		<tag k="operator" v="Hole kommune" />
		<tag k="operator:type" v="public" />
	</node>
	<node id="-3191" lat="60.05833" lon="10.31306">
		<tag k="ADDRESS" v="Dronningveien 19, 3531 KROKKLEIVA" />
		<tag k="amenity" v="kindergarten" />
		<tag k="capacity" v="33" />
		<tag k="max_age" v="5" />
		<tag k="min_age" v="1" />
		<tag k="name" v="Sundvollen oppvekstsenter avd. barnehage" />
		<tag k="no-barnehage:nsrid" v="1017098" />
		<tag k="operator" v="Hole kommune" />
		<tag k="operator:type" v="public" />
	</node>
	<node id="-3190" lat="60.06141" lon="10.31248">
		<tag k="ADDRESS" v="Dronningveien 4, 3531 KROKKLEIVA" />
		<tag k="amenity" v="kindergarten" />
		<tag k="capacity" v="38" />
		<tag k="max_age" v="5" />
		<tag k="min_age" v="1" />
		<tag k="name" v="Sundvollen barnehage" />
		<tag k="no-barnehage:nsrid" v="1018003" />
		<tag k="operator" v="Hole kommune" />
		<tag k="operator:type" v="public" />
	</node>
	<node id="-3189" lat="59.96317" lon="10.34789">
		<tag k="ADDRESS" v="Holeveien 36, 3538 SOLLIHØGDA" />
		<tag k="amenity" v="kindergarten" />
		<tag k="capacity" v="15" />
		<tag k="max_age" v="5" />
		<tag k="min_age" v="1" />
		<tag k="name" v="Sollihøgda barnehage" />
		<tag k="no-barnehage:nsrid" v="1014701" />
		<tag k="operator" v="Hole kommune" />
		<tag k="operator:type" v="public" />
	</node>
	<node id="-3188" lat="60.07594" lon="10.26751">
		<tag k="ADDRESS" v="Løkenenga 2, 3530 RØYSE" />
		<tag k="amenity" v="kindergarten" />
		<tag k="capacity" v="51" />
		<tag k="max_age" v="5" />
		<tag k="min_age" v="1" />
		<tag k="name" v="Løken barnehage" />
		<tag k="no-barnehage:nsrid" v="1012495" />
		<tag k="operator" v="Hole kommune" />
		<tag k="operator:type" v="public" />
	</node>
	<node id="-3187" lat="60.05326" lon="10.28925">
		<tag k="ADDRESS" v="Klokkerlia 12, 3531 KROKKLEIVA" />
		<tag k="amenity" v="kindergarten" />
		<tag k="capacity" v="50" />
		<tag k="max_age" v="5" />
		<tag k="min_age" v="1" />
		<tag k="name" v="Læringsverkstedet barnehage avd. Doremi Elstangen" />
		<tag k="no-barnehage:nsrid" v="1025966" />
		<tag k="operator" v="Læringsverkstedet AS" />
		<tag k="operator:type" v="private" />
	</node>
	<node id="-3186" lat="60.11465" lon="10.22913">
		<tag k="ADDRESS" v="Portveien 17, 3512 HØNEFOSS" />
		<tag k="amenity" v="kindergarten" />
		<tag k="capacity" v="40" />
		<tag k="max_age" v="5" />
		<tag k="min_age" v="1" />
		<tag k="name" v="Helgelandsmoen barnehage" />
		<tag k="no-barnehage:nsrid" v="1018400" />
		<tag k="operator" v="Hole kommune" />
		<tag k="operator:type" v="public" />
	</node>
</osm>
