<?xml version="1.0" encoding="UTF-8"?>
<osm generator="osmapis" version="0.6">
	<node id="-4591" lat="60.46084" lon="4.96087">
		<tag k="ADDRESS" v="Knappevegen 39, 5337 RONG" />
		<tag k="amenity" v="kindergarten" />
		<tag k="capacity" v="4" />
		<tag k="max_age" v="5" />
		<tag k="min_age" v="1" />
		<tag k="name" v="Knappen familiebarnehage" />
		<tag k="no-barnehage:nsrid" v="994954113" />
		<tag k="operator" v="Malin Pernille Lid Romarheim" />
		<tag k="operator:type" v="private" />
	</node>
	<node id="-4593" lat="60.34877" lon="5.08914">
		<tag k="ADDRESS" v="Skorafjellet 34, 5360 KOLLTVEIT" />
		<tag k="amenity" v="kindergarten" />
		<tag k="capacity" v="10" />
		<tag k="max_age" v="5" />
		<tag k="min_age" v="1" />
		<tag k="name" v="Knerten familiebarnehage" />
		<tag k="no-barnehage:nsrid" v="995141639" />
		<tag k="operator" v="Knerten Familiebarnehage Torill Hesjedal" />
		<tag k="operator:type" v="private" />
	</node>
	<node id="-4612" lat="60.41091" lon="4.985">
		<tag k="ADDRESS" v="Landrovegen 125, 5363 ÅGOTNES" />
		<tag k="amenity" v="kindergarten" />
		<tag k="capacity" v="9" />
		<tag k="max_age" v="5" />
		<tag k="min_age" v="1" />
		<tag k="name" v="Soltunet Drift" />
		<tag k="no-barnehage:nsrid" v="982272823" />
		<tag k="operator" v="Soltunet Drift AS" />
		<tag k="operator:type" v="private" />
	</node>
	<node id="-4613" lat="60.53601" lon="4.8744">
		<tag k="ADDRESS" v="Dalevegen 7, 5337 RONG" />
		<tag k="amenity" v="kindergarten" />
		<tag k="capacity" v="4" />
		<tag k="max_age" v="2" />
		<tag k="min_age" v="1" />
		<tag k="name" v="Spurven familiebarnehage" />
		<tag k="no-barnehage:nsrid" v="994954059" />
		<tag k="operator" v="Spurven Familiebarnehage Helen Nelly Dale" />
		<tag k="operator:type" v="private" />
	</node>
	<node id="-4616" lat="60.3591" lon="5.13323">
		<tag k="ADDRESS" v="Vardevegen 7, 5353 STRAUME" />
		<tag k="amenity" v="kindergarten" />
		<tag k="capacity" v="10" />
		<tag k="max_age" v="5" />
		<tag k="min_age" v="1" />
		<tag k="name" v="Straumsfjellet Fam barnehage" />
		<tag k="no-barnehage:nsrid" v="987583134" />
		<tag k="operator" v="Straumsfjellet Fam barnehage Anita Jørgensen Østensen" />
		<tag k="operator:type" v="private" />
	</node>
</osm>
