<?xml version="1.0" encoding="UTF-8"?>
<osm version="0.6" generator="osmapis">
	<node lat="60.35294" lon="5.11368" id="-4433">
		<tag k="ADDRESS" v="Bjørkestølen 4, 5353 STRAUME" />
		<tag k="amenity" v="kindergarten" />
		<tag k="capacity" v="23" />
		<tag k="max_age" v="5" />
		<tag k="min_age" v="1" />
		<tag k="name" v="Bildøy barnehage" />
		<tag k="no-barnehage:nsrid" v="975325652" />
		<tag k="operator" v="Øygarden kommune" />
		<tag k="operator:type" v="public" />
	</node>
	<node lat="60.32011" lon="5.17395" id="-4434">
		<tag k="ADDRESS" v="Bjorøyvegen 163, 5177 BJØRØYHAMN" />
		<tag k="amenity" v="kindergarten" />
		<tag k="capacity" v="83" />
		<tag k="contact:website" v="http://www.oygarden.kommune.no/bjoroybarnehage/" />
		<tag k="max_age" v="5" />
		<tag k="min_age" v="1" />
		<tag k="name" v="Bjorøy barnehage" />
		<tag k="no-barnehage:nsrid" v="993754994" />
		<tag k="operator" v="Øygarden kommune" />
		<tag k="operator:type" v="public" />
	</node>
	<node lat="60.35571" lon="5.12668" id="-4435">
		<tag k="ADDRESS" v="Lonavegen 4, 5353 STRAUME" />
		<tag k="amenity" v="kindergarten" />
		<tag k="capacity" v="70" />
		<tag k="contact:website" v="http://eventus.barnehage.no" />
		<tag k="max_age" v="5" />
		<tag k="min_age" v="1" />
		<tag k="name" v="Eventus Sartorlunden barnehage" />
		<tag k="no-barnehage:nsrid" v="924637447" />
		<tag k="operator" v="Eventus Sartorlunden AS" />
		<tag k="operator:type" v="private" />
	</node>
	<node lat="0.0" lon="0.0" id="-4436">
		<tag k="ADDRESS" v=", 5363 ÅGOTNES" />
		<tag k="amenity" v="kindergarten" />
		<tag k="capacity" v="93" />
		<tag k="contact:website" v="http://www.fjell.no/hamramyrabarnehage" />
		<tag k="max_age" v="5" />
		<tag k="min_age" v="1" />
		<tag k="name" v="Hamramyra barnehage" />
		<tag k="no-barnehage:nsrid" v="998736250" />
		<tag k="operator" v="Øygarden kommune" />
		<tag k="operator:type" v="public" />
	</node>
	<node lat="60.35761" lon="5.07961" id="-4437">
		<tag k="ADDRESS" v="Kolltveitvegen 140, 5360 KOLLTVEIT" />
		<tag k="amenity" v="kindergarten" />
		<tag k="capacity" v="84" />
		<tag k="max_age" v="5" />
		<tag k="min_age" v="1" />
		<tag k="name" v="Havhesten FUS barnehage" />
		<tag k="no-barnehage:nsrid" v="876772752" />
		<tag k="operator" v="Havhesten Fus barnehage AS" />
		<tag k="operator:type" v="private" />
	</node>
	<node lat="60.22608" lon="5.1464" id="-4438">
		<tag k="ADDRESS" v="Gamle Kyrkjevegen 14, 5378 KLOKKARVIK" />
		<tag k="amenity" v="kindergarten" />
		<tag k="capacity" v="70" />
		<tag k="max_age" v="5" />
		<tag k="min_age" v="1" />
		<tag k="name" v="Klokkarvik barnehage" />
		<tag k="no-barnehage:nsrid" v="873167092" />
		<tag k="operator" v="Øygarden kommune" />
		<tag k="operator:type" v="public" />
	</node>
	<node lat="60.37576" lon="5.05235" id="-4440">
		<tag k="ADDRESS" v="Fjæreidevegen 34, 5360 KOLLTVEIT" />
		<tag k="amenity" v="kindergarten" />
		<tag k="capacity" v="79" />
		<tag k="max_age" v="5" />
		<tag k="min_age" v="1" />
		<tag k="name" v="Knappskog barnehage" />
		<tag k="no-barnehage:nsrid" v="992686111" />
		<tag k="operator" v="Øygarden kommune" />
		<tag k="operator:type" v="public" />
	</node>
	<node lat="0.0" lon="0.0" id="-4442">
		<tag k="ADDRESS" v="Langøy, 5357 FJELL" />
		<tag k="amenity" v="kindergarten" />
		<tag k="capacity" v="35" />
		<tag k="max_age" v="5" />
		<tag k="min_age" v="1" />
		<tag k="name" v="Langøy friluftsbarnehage" />
		<tag k="no-barnehage:nsrid" v="988593451" />
		<tag k="operator" v="Langøy friluftsbarnehage AS" />
		<tag k="operator:type" v="private" />
	</node>
	<node lat="60.36779" lon="5.12536" id="-4443">
		<tag k="ADDRESS" v="Austre Skiftedalsveg 23, 5354 STRAUME" />
		<tag k="amenity" v="kindergarten" />
		<tag k="capacity" v="76" />
		<tag k="contact:website" v="http://www.oygarden.kommune.no/leirstadenbarnehage/" />
		<tag k="max_age" v="5" />
		<tag k="min_age" v="1" />
		<tag k="name" v="Leirstaden barnehage" />
		<tag k="no-barnehage:nsrid" v="989616005" />
		<tag k="operator" v="Øygarden kommune" />
		<tag k="operator:type" v="public" />
	</node>
	<node lat="60.29672" lon="5.12982" id="-4444">
		<tag k="ADDRESS" v="Gyldalen 4, 5360 KOLLTVEIT" />
		<tag k="amenity" v="kindergarten" />
		<tag k="capacity" v="25" />
		<tag k="max_age" v="5" />
		<tag k="min_age" v="1" />
		<tag k="name" v="Liatunet barnehage" />
		<tag k="no-barnehage:nsrid" v="988371114" />
		<tag k="operator" v="Liatunet barnehage AS" />
		<tag k="operator:type" v="private" />
	</node>
	<node lat="60.36695" lon="5.14972" id="-4445">
		<tag k="ADDRESS" v="Arefjordvegen 290, 5355 KNARREVIK" />
		<tag k="amenity" v="kindergarten" />
		<tag k="capacity" v="88" />
		<tag k="max_age" v="5" />
		<tag k="min_age" v="1" />
		<tag k="name" v="Liljevatnet barnehage" />
		<tag k="no-barnehage:nsrid" v="923249613" />
		<tag k="operator" v="Øygarden kommune" />
		<tag k="operator:type" v="public" />
	</node>
	<node lat="60.35931" lon="5.1317" id="-4446">
		<tag k="ADDRESS" v="Vardevegen 14, 5353 STRAUME" />
		<tag k="amenity" v="kindergarten" />
		<tag k="capacity" v="59" />
		<tag k="contact:website" v="http://laringsverkstedet.no/laringsverkstedet-aronien-barnehage" />
		<tag k="max_age" v="5" />
		<tag k="min_age" v="1" />
		<tag k="name" v="Læringsverkstedet barnehage avd. Aronien" />
		<tag k="no-barnehage:nsrid" v="972242225" />
		<tag k="operator" v="Læringsverkstedet AS" />
		<tag k="operator:type" v="private" />
	</node>
	<node lat="60.36482" lon="5.12112" id="-4447">
		<tag k="ADDRESS" v="Skjenet 6, 5354 STRAUME" />
		<tag k="amenity" v="kindergarten" />
		<tag k="capacity" v="113" />
		<tag k="max_age" v="5" />
		<tag k="min_age" v="1" />
		<tag k="name" v="Læringsverkstedet barnehage avd. Straume" />
		<tag k="no-barnehage:nsrid" v="889412062" />
		<tag k="operator" v="Læringsverkstedet AS" />
		<tag k="operator:type" v="private" />
	</node>
	<node lat="60.36376" lon="5.15805" id="-4448">
		<tag k="ADDRESS" v="Valavegen 56, 5355 KNARREVIK" />
		<tag k="amenity" v="kindergarten" />
		<tag k="capacity" v="92" />
		<tag k="max_age" v="5" />
		<tag k="min_age" v="1" />
		<tag k="name" v="Læringsverkstedet barnehage avd. Valen" />
		<tag k="no-barnehage:nsrid" v="982206103" />
		<tag k="operator" v="Læringsverkstedet AS" />
		<tag k="operator:type" v="private" />
	</node>
	<node lat="60.32919" lon="5.07666" id="-4449">
		<tag k="ADDRESS" v="Leitevegen 6, 5357 FJELL" />
		<tag k="amenity" v="kindergarten" />
		<tag k="capacity" v="60" />
		<tag k="max_age" v="5" />
		<tag k="min_age" v="1" />
		<tag k="name" v="Læringsverkstedet barnehage avd. Gardstunet barnehage" />
		<tag k="no-barnehage:nsrid" v="979192576" />
		<tag k="operator" v="Læringsverkstedet AS" />
		<tag k="operator:type" v="private" />
	</node>
	<node lat="60.38225" lon="5.1518" id="-4450">
		<tag k="ADDRESS" v="Hjelteryggvegen 126, 5355 KNARREVIK" />
		<tag k="amenity" v="kindergarten" />
		<tag k="capacity" v="62" />
		<tag k="max_age" v="5" />
		<tag k="min_age" v="1" />
		<tag k="name" v="Marihøna barnehage" />
		<tag k="no-barnehage:nsrid" v="992686073" />
		<tag k="operator" v="Øygarden kommune" />
		<tag k="operator:type" v="public" />
	</node>
	<node lat="60.53609" lon="4.87798" id="-4451">
		<tag k="ADDRESS" v="Høgeseta 1, 5337 RONG" />
		<tag k="amenity" v="kindergarten" />
		<tag k="capacity" v="63" />
		<tag k="max_age" v="5" />
		<tag k="min_age" v="1" />
		<tag k="name" v="NLM barnehage i Øygarden avd. Blomvåg barnehage" />
		<tag k="no-barnehage:nsrid" v="875314602" />
		<tag k="operator" v="Nlm-Barnehage i Øygarden AS" />
		<tag k="operator:type" v="private" />
	</node>
	<node lat="60.34784" lon="5.13382" id="-4452">
		<tag k="ADDRESS" v="Trollhaugmyra 11, 5353 STRAUME" />
		<tag k="amenity" v="kindergarten" />
		<tag k="capacity" v="73" />
		<tag k="contact:website" v="http://loveparken.no" />
		<tag k="max_age" v="5" />
		<tag k="min_age" v="1" />
		<tag k="name" v="NLM barnehagene avd. Løveparken barnehage" />
		<tag k="no-barnehage:nsrid" v="989297937" />
		<tag k="operator" v="Nlm-Barnehagene AS" />
		<tag k="operator:type" v="private" />
	</node>
	<node lat="60.48189" lon="4.94758" id="-4453">
		<tag k="ADDRESS" v="Skulebrekka 31, 5337 RONG" />
		<tag k="amenity" v="kindergarten" />
		<tag k="capacity" v="102" />
		<tag k="max_age" v="5" />
		<tag k="min_age" v="1" />
		<tag k="name" v="Nlm-barnehage i Øygarden" />
		<tag k="no-barnehage:nsrid" v="997183479" />
		<tag k="operator" v="Nlm-Barnehage i Øygarden AS" />
		<tag k="operator:type" v="private" />
	</node>
	<node lat="60.40643" lon="4.98662" id="-4454">
		<tag k="ADDRESS" v="Grønebakkane 2, 5363 ÅGOTNES" />
		<tag k="amenity" v="kindergarten" />
		<tag k="capacity" v="89" />
		<tag k="contact:website" v="http://kartveitpollen.norlandiabarnehagene.no/" />
		<tag k="max_age" v="5" />
		<tag k="min_age" v="1" />
		<tag k="name" v="Norlandia Kårtveitpollen barnehage" />
		<tag k="no-barnehage:nsrid" v="990303398" />
		<tag k="operator" v="Norlandia barnehagene AS" />
		<tag k="operator:type" v="private" />
	</node>
	<node lat="60.40542" lon="5.01842" id="-4455">
		<tag k="ADDRESS" v="Naustvikvegen 32, 5363 ÅGOTNES" />
		<tag k="amenity" v="kindergarten" />
		<tag k="capacity" v="89" />
		<tag k="max_age" v="5" />
		<tag k="min_age" v="1" />
		<tag k="name" v="Norlandia Naustvika barnehage" />
		<tag k="no-barnehage:nsrid" v="985138907" />
		<tag k="operator" v="Norlandia barnehagene AS" />
		<tag k="operator:type" v="private" />
	</node>
	<node lat="60.57015" lon="4.83836" id="-4456">
		<tag k="ADDRESS" v="Breivikvegen 104, 5337 RONG" />
		<tag k="amenity" v="kindergarten" />
		<tag k="capacity" v="43" />
		<tag k="contact:website" v="http://svanevagen.norlandiabarnehagene.no/" />
		<tag k="max_age" v="5" />
		<tag k="min_age" v="1" />
		<tag k="name" v="Norlandia Svanevågen gårds- og friluftsbarnehage" />
		<tag k="no-barnehage:nsrid" v="921801033" />
		<tag k="operator" v="Norlandia Svanevågen Gårds- og friluftsbarnehage AS" />
		<tag k="operator:type" v="private" />
	</node>
	<node lat="60.32835" lon="5.0309" id="-4457">
		<tag k="ADDRESS" v="Halsvardtjørna 27, 5357 FJELL" />
		<tag k="amenity" v="kindergarten" />
		<tag k="capacity" v="89" />
		<tag k="contact:website" v="http://ulven.norlandiabarnehagene.no/" />
		<tag k="max_age" v="5" />
		<tag k="min_age" v="1" />
		<tag k="name" v="Norlandia Ulven naturbarnehage" />
		<tag k="no-barnehage:nsrid" v="988387207" />
		<tag k="operator" v="Norlandia barnehagene AS" />
		<tag k="operator:type" v="private" />
	</node>
	<node lat="60.26469" lon="5.08731" id="-4458">
		<tag k="ADDRESS" v="Lambhusvegen 11, 5382 SKOGSVÅG" />
		<tag k="amenity" v="kindergarten" />
		<tag k="capacity" v="91" />
		<tag k="max_age" v="5" />
		<tag k="min_age" v="1" />
		<tag k="name" v="Sauafjellet FUS barnehage" />
		<tag k="no-barnehage:nsrid" v="994506404" />
		<tag k="operator" v="Sauafjellet Fus barnehage AS" />
		<tag k="operator:type" v="private" />
	</node>
	<node lat="60.26796" lon="5.07681" id="-4459">
		<tag k="ADDRESS" v="Hidlamyrvegen 21, 5382 SKOGSVÅG" />
		<tag k="amenity" v="kindergarten" />
		<tag k="capacity" v="65" />
		<tag k="max_age" v="5" />
		<tag k="min_age" v="1" />
		<tag k="name" v="Skogsvåg barnehage" />
		<tag k="no-barnehage:nsrid" v="975315762" />
		<tag k="operator" v="Øygarden kommune" />
		<tag k="operator:type" v="public" />
	</node>
	<node lat="60.23904" lon="5.03895" id="-4460">
		<tag k="ADDRESS" v="Grasbakken 100, 5381 GLESVÆR" />
		<tag k="amenity" v="kindergarten" />
		<tag k="capacity" v="84" />
		<tag k="max_age" v="5" />
		<tag k="min_age" v="1" />
		<tag k="name" v="Spildepollen barnehage" />
		<tag k="no-barnehage:nsrid" v="926378562" />
		<tag k="operator" v="Øygarden kommune" />
		<tag k="operator:type" v="public" />
	</node>
	<node lat="60.19324" lon="5.10066" id="-4462">
		<tag k="ADDRESS" v="Austefjordsvegen 16, 5379 STEINSLAND" />
		<tag k="amenity" v="kindergarten" />
		<tag k="capacity" v="87" />
		<tag k="max_age" v="5" />
		<tag k="min_age" v="1" />
		<tag k="name" v="Stranda barnehage" />
		<tag k="no-barnehage:nsrid" v="876673452" />
		<tag k="operator" v="Øygarden kommune" />
		<tag k="operator:type" v="public" />
	</node>
	<node lat="60.36243" lon="5.11766" id="-4463">
		<tag k="ADDRESS" v="Blombakkane 4, 5354 STRAUME" />
		<tag k="amenity" v="kindergarten" />
		<tag k="capacity" v="42" />
		<tag k="max_age" v="5" />
		<tag k="min_age" v="1" />
		<tag k="name" v="Straume barnehage" />
		<tag k="no-barnehage:nsrid" v="875309072" />
		<tag k="operator" v="Øygarden kommune" />
		<tag k="operator:type" v="public" />
	</node>
	<node lat="60.51752" lon="4.91112" id="-4465">
		<tag k="ADDRESS" v="Ternholmvegen 59, 5337 RONG" />
		<tag k="amenity" v="kindergarten" />
		<tag k="capacity" v="60" />
		<tag k="max_age" v="5" />
		<tag k="min_age" v="1" />
		<tag k="name" v="Terna barnehage" />
		<tag k="no-barnehage:nsrid" v="975309223" />
		<tag k="operator" v="Øygarden kommune" />
		<tag k="operator:type" v="public" />
	</node>
	<node lat="60.37463" lon="5.10245" id="-4466">
		<tag k="ADDRESS" v="Vetelsvegen 48, 5354 STRAUME" />
		<tag k="amenity" v="kindergarten" />
		<tag k="capacity" v="25" />
		<tag k="max_age" v="5" />
		<tag k="min_age" v="1" />
		<tag k="name" v="Tiriltunet barnehage" />
		<tag k="no-barnehage:nsrid" v="990137455" />
		<tag k="operator" v="Tiriltunet barnehage AS" />
		<tag k="operator:type" v="private" />
	</node>
	<node lat="0.0" lon="0.0" id="-4467">
		<tag k="ADDRESS" v="Foldnes, 5353 STRAUME" />
		<tag k="amenity" v="kindergarten" />
		<tag k="capacity" v="30" />
		<tag k="max_age" v="5" />
		<tag k="min_age" v="1" />
		<tag k="name" v="Tussetjødna barnehage" />
		<tag k="no-barnehage:nsrid" v="976673603" />
		<tag k="operator" v="Øygarden kommune" />
		<tag k="operator:type" v="public" />
	</node>
	<node lat="60.32825" lon="5.03837" id="-4468">
		<tag k="ADDRESS" v="Våtemyrvegen 2, 5357 FJELL" />
		<tag k="amenity" v="kindergarten" />
		<tag k="capacity" v="34" />
		<tag k="max_age" v="5" />
		<tag k="min_age" v="1" />
		<tag k="name" v="Ulveseth barnehage avd. Fjell" />
		<tag k="no-barnehage:nsrid" v="975323366" />
		<tag k="operator" v="Øygarden kommune" />
		<tag k="operator:type" v="public" />
	</node>
	<node lat="0.0" lon="0.0" id="-4469">
		<tag k="ADDRESS" v="2 Etg. Helsehuset Sartorvegen 8, 5353 STRAUME" />
		<tag k="amenity" v="kindergarten" />
		<tag k="name" v="Øygarden Kfuk-kfum avd. Straume" />
		<tag k="no-barnehage:nsrid" v="990635285" />
		<tag k="operator" v="Øygarden Kfuk-Kfum" />
		<tag k="operator:type" v="private" />
	</node>
	<node lat="60.33171" lon="5.07587" id="-4470">
		<tag k="ADDRESS" v="Fjellavegen 259, 5357 FJELL" />
		<tag k="amenity" v="kindergarten" />
		<tag k="name" v="Øygarden Kfuk-kfum avd. Fjell" />
		<tag k="no-barnehage:nsrid" v="990635498" />
		<tag k="operator" v="Øygarden Kfuk-Kfum" />
		<tag k="operator:type" v="private" />
	</node>
	<node lat="0.0" lon="0.0" id="-4471">
		<tag k="ADDRESS" v="Landrovegen, 5363 ÅGOTNES" />
		<tag k="amenity" v="kindergarten" />
		<tag k="name" v="Øygarden Kfuk-kfum avd. Landro" />
		<tag k="no-barnehage:nsrid" v="991843876" />
		<tag k="operator" v="Øygarden Kfuk-Kfum" />
		<tag k="operator:type" v="private" />
	</node>
	<node lat="60.40694" lon="4.99261" id="-4472">
		<tag k="ADDRESS" v="Hamramyra 4, 5363 ÅGOTNES" />
		<tag k="amenity" v="kindergarten" />
		<tag k="capacity" v="68" />
		<tag k="max_age" v="5" />
		<tag k="min_age" v="1" />
		<tag k="name" v="Ågotnes barnehage" />
		<tag k="no-barnehage:nsrid" v="975309088" />
		<tag k="operator" v="Øygarden kommune" />
		<tag k="operator:type" v="public" />
	</node>
</osm>
