<?xml version="1.0" encoding="UTF-8"?>
<osm generator="osmapis" version="0.6">
	<node id="-2954" lat="64.00217" lon="11.87313">
		<tag k="ADDRESS" v="Nordvegen 885, 7718 STEINKJER" />
		<tag k="amenity" v="kindergarten" />
		<tag k="capacity" v="11" />
		<tag k="contact:website" v="http://www.valenbhg.no" />
		<tag k="max_age" v="5" />
		<tag k="min_age" v="1" />
		<tag k="name" v="Vålen barnehage" />
		<tag k="no-barnehage:nsrid" v="1019498" />
		<tag k="operator" v="Vålen barnehage Sa" />
		<tag k="operator:type" v="private" />
	</node>
	<node id="-2953" lat="63.99558" lon="11.47378">
		<tag k="ADDRESS" v="Kanefartsvegen 8, 7712 STEINKJER" />
		<tag k="amenity" v="kindergarten" />
		<tag k="capacity" v="31" />
		<tag k="max_age" v="5" />
		<tag k="min_age" v="1" />
		<tag k="name" v="Sørlia barnehage" />
		<tag k="no-barnehage:nsrid" v="1017344" />
		<tag k="operator" v="Steinkjer kommune" />
		<tag k="operator:type" v="public" />
	</node>
	<node id="-2952" lat="64.02155" lon="11.45732">
		<tag k="ADDRESS" v="Karolinavegen 11, 7725 STEINKJER" />
		<tag k="amenity" v="kindergarten" />
		<tag k="capacity" v="64" />
		<tag k="max_age" v="5" />
		<tag k="min_age" v="1" />
		<tag k="name" v="Søndre Egge barnehage" />
		<tag k="no-barnehage:nsrid" v="1018260" />
		<tag k="operator" v="Steinkjer kommune" />
		<tag k="operator:type" v="public" />
	</node>
	<node id="-2950" lat="64.01102" lon="11.503">
		<tag k="ADDRESS" v="Steinkjersannan 6, 7713 STEINKJER" />
		<tag k="amenity" v="kindergarten" />
		<tag k="capacity" v="21" />
		<tag k="max_age" v="5" />
		<tag k="min_age" v="1" />
		<tag k="name" v="Nord Studentsamskipnad avd. studentbarnehagen Steinkjer" />
		<tag k="no-barnehage:nsrid" v="1015994" />
		<tag k="operator" v="Nord Studentsamskipnad" />
		<tag k="operator:type" v="private" />
	</node>
	<node id="-2949" lat="64.09254" lon="11.71499">
		<tag k="ADDRESS" v="Stodvegen 1073, 7717 STEINKJER" />
		<tag k="amenity" v="kindergarten" />
		<tag k="capacity" v="48" />
		<tag k="contact:website" v="http://marisletta.barnehage.no" />
		<tag k="max_age" v="5" />
		<tag k="min_age" v="1" />
		<tag k="name" v="Marisletta barnehage" />
		<tag k="no-barnehage:nsrid" v="1019806" />
		<tag k="operator" v="Marisletta barnehage Sa" />
		<tag k="operator:type" v="private" />
	</node>
	<node id="-2948" lat="63.99007" lon="11.50225">
		<tag k="ADDRESS" v="Kvernhusvegen 7, 7713 STEINKJER" />
		<tag k="amenity" v="kindergarten" />
		<tag k="capacity" v="28" />
		<tag k="contact:website" v="http://www.lerkehaug.barnehage.no" />
		<tag k="max_age" v="5" />
		<tag k="min_age" v="1" />
		<tag k="name" v="Lerkehaug barnehage" />
		<tag k="no-barnehage:nsrid" v="1020297" />
		<tag k="operator" v="Lerkehaug barnehage" />
		<tag k="operator:type" v="private" />
	</node>
	<node id="-2947" lat="64.10992" lon="11.57027">
		<tag k="ADDRESS" v="Kvamsvegen 1444, 7732 STEINKJER" />
		<tag k="amenity" v="kindergarten" />
		<tag k="capacity" v="28" />
		<tag k="max_age" v="5" />
		<tag k="min_age" v="1" />
		<tag k="name" v="Følling barnehage" />
		<tag k="no-barnehage:nsrid" v="1019505" />
		<tag k="operator" v="Følling barnehage" />
		<tag k="operator:type" v="private" />
	</node>
	<node id="-2946" lat="64.00248" lon="11.49491">
		<tag k="ADDRESS" v="Løsmarka 61, 7712 STEINKJER" />
		<tag k="amenity" v="kindergarten" />
		<tag k="capacity" v="37" />
		<tag k="contact:website" v="http://www.figgabarnehage.no" />
		<tag k="max_age" v="5" />
		<tag k="min_age" v="1" />
		<tag k="name" v="Figga barnehage" />
		<tag k="no-barnehage:nsrid" v="1020619" />
		<tag k="operator" v="Figga barnehage" />
		<tag k="operator:type" v="private" />
	</node>
</osm>
