<?xml version="1.0" encoding="UTF-8"?>
<osm generator="osmapis" version="0.6">
	<node id="-3192" lat="64.02038" lon="11.4979">
		<tag k="amenity" v="kindergarten" />
		<tag k="capacity" v="8" />
		<tag k="contact:email" v="hilde@taraldsen-regnskap.no" />
		<tag k="doNotImportAddress" v="Martensvegen 11 7715 STEINKJER" />
		<tag k="max_age" v="2" />
		<tag k="min_age" v="1" />
		<tag k="name" v="Nordsihaugen familiebarnehage" />
		<tag k="no-barnehage:nsrid" v="1021448" />
		<tag k="operator" v="Nordsihaugen Familiebarnehage AS" />
		<tag k="operator:type" v="private" />
	</node>
	<node id="-3188" lat="64.02212" lon="11.50126">
		<tag k="amenity" v="kindergarten" />
		<tag k="capacity" v="8" />
		<tag k="contact:email" v="lykkeliten.bhg@hotmail.com" />
		<tag k="contact:phone" v="+47 412 37 276" />
		<tag k="doNotImportAddress" v="Einar Solstads Veg 31 7715 STEINKJER" />
		<tag k="max_age" v="2" />
		<tag k="min_age" v="1" />
		<tag k="name" v="Lykke Liten familiebarnehage Trude Brandtzæg" />
		<tag k="no-barnehage:nsrid" v="1021851" />
		<tag k="operator" v="Lykke Liten Familiebarnehage Trude Brandtzæg" />
		<tag k="operator:type" v="private" />
	</node>
	<node id="-3194" lat="64.02122" lon="11.54056">
		<tag k="amenity" v="kindergarten" />
		<tag k="capacity" v="7" />
		<tag k="contact:email" v="risgropa.familiebarnehage@ntebb.no" />
		<tag k="contact:phone" v="+47 74 16 45 18" />
		<tag k="doNotImportAddress" v="Risgropa 18 7716 STEINKJER" />
		<tag k="max_age" v="2" />
		<tag k="min_age" v="1" />
		<tag k="name" v="Risgropa familiebarnehage" />
		<tag k="no-barnehage:nsrid" v="1020957" />
		<tag k="operator" v="Karin Wahl Oldren" />
		<tag k="operator:type" v="private" />
	</node>
</osm>
