<?xml version="1.0" encoding="UTF-8"?>
<osm generator="osmapis" version="0.6">
	<node id="-2432" lat="60.68524" lon="8.84623">
		<tag k="amenity" v="kindergarten" />
		<tag k="max_age" v="5" />
		<tag k="min_age" v="1" />
		<tag k="name" v="Rotneim barnehage" />
		<tag k="no-barnehage:nsrid" v="1016885" />
		<tag k="operator" v="Gol kommune" />
		<tag k="operator:type" v="public" />
	</node>
	<node id="-2430" lat="60.6978" lon="9.01617">
		<tag k="amenity" v="kindergarten" />
		<tag k="capacity" v="66" />
		<tag k="contact:website" v="http://www.gol.kommune.no" />
		<tag k="max_age" v="5" />
		<tag k="min_age" v="1" />
		<tag k="name" v="Herad barnehage" />
		<tag k="no-barnehage:nsrid" v="2000293" />
		<tag k="operator" v="Gol kommune" />
		<tag k="operator:type" v="public" />
	</node>
	<node id="-2429" lat="60.70245" lon="8.94596">
		<tag k="amenity" v="kindergarten" />
		<tag k="capacity" v="15" />
		<tag k="contact:website" v="http://www.gol.kommune.no" />
		<tag k="max_age" v="5" />
		<tag k="min_age" v="1" />
		<tag k="name" v="Breidokk barnehage avd. Hallingmo" />
		<tag k="no-barnehage:nsrid" v="1017257" />
		<tag k="operator" v="Gol kommune" />
		<tag k="operator:type" v="public" />
	</node>
	<node id="-2428" lat="60.70328" lon="8.95803">
		<tag k="amenity" v="kindergarten" />
		<tag k="capacity" v="47" />
		<tag k="contact:website" v="http://www.gol.kommune.no" />
		<tag k="max_age" v="5" />
		<tag k="min_age" v="1" />
		<tag k="name" v="Breidokk barnehage" />
		<tag k="no-barnehage:nsrid" v="1018007" />
		<tag k="operator" v="Gol kommune" />
		<tag k="operator:type" v="public" />
	</node>
	<node id="-2434" lat="60.71882" lon="8.94144">
		<tag k="amenity" v="kindergarten" />
		<tag k="max_age" v="5" />
		<tag k="min_age" v="1" />
		<tag k="name" v="Ã…sgardane barnehage" />
		<tag k="no-barnehage:nsrid" v="1018010" />
		<tag k="operator" v="Gol kommune" />
		<tag k="operator:type" v="public" />
	</node>
	<node id="-2433" lat="60.69781" lon="8.92683">
		<tag k="amenity" v="kindergarten" />
		<tag k="capacity" v="59" />
		<tag k="max_age" v="5" />
		<tag k="min_age" v="1" />
		<tag k="name" v="Vesterhuset barnehage" />
		<tag k="no-barnehage:nsrid" v="1018009" />
		<tag k="operator" v="Gol kommune" />
		<tag k="operator:type" v="public" />
	</node>
</osm>
