<?xml version="1.0" encoding="UTF-8"?>
<osm generator="osmapis" version="0.6">
	<node id="-2368" lat="60.6978" lon="8.92683">
		<tag k="amenity" v="kindergarten" />
		<tag k="capacity" v="60" />
		<tag k="contact:email" v="nina.stensgard@gol.kommune" />
		<tag k="max_age" v="5" />
		<tag k="min_age" v="1" />
		<tag k="name" v="Vesterhuset barnehage" />
		<tag k="no-barnehage:nsrid" v="1018009" />
		<tag k="operator" v="Gol kommune" />
		<tag k="operator:type" v="public" />
		<tag k="start_date" v="1989-01-01" />
	</node>
	<node id="-2367" lat="60.6976" lon="8.91332">
		<tag k="amenity" v="kindergarten" />
		<tag k="capacity" v="22" />
		<tag k="contact:email" v="jorunn-borge.knaldre@gol.kommune.no" />
		<tag k="max_age" v="5" />
		<tag k="min_age" v="1" />
		<tag k="name" v="Rotneim barnehage" />
		<tag k="no-barnehage:nsrid" v="1016885" />
		<tag k="operator" v="Gol kommune" />
		<tag k="operator:type" v="public" />
		<tag k="start_date" v="1993-08-02" />
	</node>
	<node id="-2365" lat="60.7024" lon="8.94596">
		<tag k="amenity" v="kindergarten" />
		<tag k="capacity" v="15" />
		<tag k="contact:email" v="marita-ovrevold.bang@gol.kommune.no" />
		<tag k="max_age" v="5" />
		<tag k="min_age" v="1" />
		<tag k="name" v="Hallingmo barnehage" />
		<tag k="no-barnehage:nsrid" v="1017257" />
		<tag k="operator" v="Gol kommune" />
		<tag k="operator:type" v="public" />
		<tag k="start_date" v="2006-09-01" />
	</node>
	<node id="-2364" lat="60.7033" lon="8.95804">
		<tag k="amenity" v="kindergarten" />
		<tag k="capacity" v="48" />
		<tag k="contact:email" v="marita-ovrevold.bang@gol.kommune.no" />
		<tag k="max_age" v="5" />
		<tag k="min_age" v="1" />
		<tag k="name" v="Breidokk barnehage" />
		<tag k="no-barnehage:nsrid" v="1018007" />
		<tag k="operator" v="Gol kommune" />
		<tag k="operator:type" v="public" />
		<tag k="start_date" v="1989-01-01" />
	</node>
	<node id="-2370" lat="60.7188" lon="8.94144">
		<tag k="amenity" v="kindergarten" />
		<tag k="capacity" v="17" />
		<tag k="contact:email" v="ingrid.rodningen@gol.kommune.no" />
		<tag k="max_age" v="5" />
		<tag k="min_age" v="1" />
		<tag k="name" v="Åsgardane barnehage" />
		<tag k="no-barnehage:nsrid" v="1018010" />
		<tag k="operator" v="Gol kommune" />
		<tag k="operator:type" v="public" />
		<tag k="start_date" v="1989-01-01" />
	</node>
	<node id="-2369" lat="60.7494" lon="8.85879">
		<tag k="amenity" v="kindergarten" />
		<tag k="capacity" v="28" />
		<tag k="contact:email" v="gry.baekken@gol.kommune.no" />
		<tag k="max_age" v="5" />
		<tag k="min_age" v="1" />
		<tag k="name" v="Øygardane barnehage" />
		<tag k="no-barnehage:nsrid" v="1018008" />
		<tag k="operator" v="Gol kommune" />
		<tag k="operator:type" v="public" />
		<tag k="start_date" v="1989-01-01" />
	</node>
</osm>
