<?xml version="1.0" encoding="UTF-8"?>
<osm generator="osmapis" version="0.6">
	<node id="-1933" lat="60.78793" lon="11.32943">
		<tag k="amenity" v="kindergarten" />
		<tag k="capacity" v="26" />
		<tag k="max_age" v="5" />
		<tag k="min_age" v="1" />
		<tag k="name" v="Ådalsbruk barnehage" />
		<tag k="no-barnehage:nsrid" v="1012564" />
		<tag k="operator" v="Løten kommune" />
		<tag k="operator:type" v="public" />
	</node>
	<node id="-1932" lat="60.81758" lon="11.33843">
		<tag k="amenity" v="kindergarten" />
		<tag k="capacity" v="41" />
		<tag k="max_age" v="5" />
		<tag k="min_age" v="1" />
		<tag k="name" v="Skøienhagen barnehage" />
		<tag k="no-barnehage:nsrid" v="1016749" />
		<tag k="operator" v="Løten kommune" />
		<tag k="operator:type" v="public" />
	</node>
	<node id="-1931" lat="60.8269" lon="11.34963">
		<tag k="amenity" v="kindergarten" />
		<tag k="capacity" v="30" />
		<tag k="max_age" v="5" />
		<tag k="min_age" v="1" />
		<tag k="name" v="Ryli barnehage" />
		<tag k="no-barnehage:nsrid" v="1017568" />
		<tag k="operator" v="Løten kommune" />
		<tag k="operator:type" v="public" />
	</node>
	<node id="-1930" lat="60.81352" lon="11.3396">
		<tag k="amenity" v="kindergarten" />
		<tag k="capacity" v="84" />
		<tag k="max_age" v="5" />
		<tag k="min_age" v="1" />
		<tag k="name" v="Læringsverkstedet barnehage avd. Skogly" />
		<tag k="no-barnehage:nsrid" v="1021524" />
		<tag k="operator" v="Læringsverkstedet AS" />
		<tag k="operator:type" v="private" />
	</node>
	<node id="-1929" lat="0.0" lon="0.0">
		<tag k="amenity" v="kindergarten" />
		<tag k="capacity" v="27" />
		<tag k="max_age" v="5" />
		<tag k="min_age" v="1" />
		<tag k="name" v="Lund barnehage" />
		<tag k="no-barnehage:nsrid" v="1016018" />
		<tag k="operator" v="Løten kommune" />
		<tag k="operator:type" v="public" />
	</node>
	<node id="-1928" lat="60.83069" lon="11.39374">
		<tag k="amenity" v="kindergarten" />
		<tag k="capacity" v="40" />
		<tag k="max_age" v="5" />
		<tag k="min_age" v="1" />
		<tag k="name" v="Livenssveen gårdsbarnehage" />
		<tag k="no-barnehage:nsrid" v="1021219" />
		<tag k="operator" v="Livensveen Gårdsbarnehage AS" />
		<tag k="operator:type" v="private" />
	</node>
	<node id="-1927" lat="0.0" lon="0.0">
		<tag k="amenity" v="kindergarten" />
		<tag k="capacity" v="30" />
		<tag k="max_age" v="5" />
		<tag k="min_age" v="1" />
		<tag k="name" v="Jønsrud barnehage" />
		<tag k="no-barnehage:nsrid" v="1014878" />
		<tag k="operator" v="Løten kommune" />
		<tag k="operator:type" v="public" />
	</node>
	<node id="-1926" lat="0.0" lon="0.0">
		<tag k="amenity" v="kindergarten" />
		<tag k="name" v="Brovold barnehave Kari Strandvik" />
		<tag k="no-barnehage:nsrid" v="1026333" />
		<tag k="operator" v="Brovold Barnehave Kari Strandvik" />
		<tag k="operator:type" v="private" />
	</node>
	<node id="-1925" lat="0.0" lon="0.0">
		<tag k="amenity" v="kindergarten" />
		<tag k="capacity" v="58" />
		<tag k="max_age" v="5" />
		<tag k="min_age" v="1" />
		<tag k="name" v="Brovold barnehage" />
		<tag k="no-barnehage:nsrid" v="1016897" />
		<tag k="operator" v="Ulna AS" />
		<tag k="operator:type" v="private" />
	</node>
</osm>
