<?xml version="1.0" encoding="UTF-8"?>
<osm generator="osmapis" version="0.6">
	<node id="-1886" lat="60.789" lon="11.3273">
		<tag k="amenity" v="kindergarten" />
		<tag k="capacity" v="25" />
		<tag k="contact:email" v="Arnhild.Blystad@loten.kommune.no" />
		<tag k="contact:phone" v="+47 62 56 42 92" />
		<tag k="max_age" v="5" />
		<tag k="min_age" v="1" />
		<tag k="name" v="Ådalsbruk barnehage" />
		<tag k="no-barnehage:nsrid" v="1012564" />
		<tag k="operator" v="Løten kommune" />
		<tag k="operator:type" v="public" />
		<tag k="start_date" v="1992-01-01" />
	</node>
	<node id="-1885" lat="60.8182" lon="11.3379">
		<tag k="amenity" v="kindergarten" />
		<tag k="capacity" v="29" />
		<tag k="contact:email" v="ingrid.bjornstad@loten.kommune.no" />
		<tag k="contact:phone" v="+47 62 56 42 45" />
		<tag k="max_age" v="5" />
		<tag k="min_age" v="1" />
		<tag k="name" v="Skøienhagen barnehage" />
		<tag k="no-barnehage:nsrid" v="1016749" />
		<tag k="operator" v="Løten kommune" />
		<tag k="operator:type" v="public" />
		<tag k="start_date" v="1989-01-02" />
	</node>
	<node id="-1884" lat="60.81352" lon="11.33961">
		<tag k="amenity" v="kindergarten" />
		<tag k="capacity" v="93" />
		<tag k="contact:email" v="evabrenne@hotmail.com" />
		<tag k="contact:phone" v="+47 62 59 02 60" />
		<tag k="max_age" v="5" />
		<tag k="min_age" v="1" />
		<tag k="name" v="Skogly barnehage AS" />
		<tag k="no-barnehage:nsrid" v="1021524" />
		<tag k="operator" v="Skogly barnehage Løten AS" />
		<tag k="operator:type" v="private" />
		<tag k="start_date" v="2000-09-11" />
	</node>
	<node id="-1883" lat="60.8283" lon="11.3507">
		<tag k="amenity" v="kindergarten" />
		<tag k="capacity" v="27" />
		<tag k="contact:email" v="iren.skyltbekk@loten.kommune.no" />
		<tag k="contact:phone" v="+47 62 56 42 67" />
		<tag k="max_age" v="5" />
		<tag k="min_age" v="1" />
		<tag k="name" v="Ryli barnehage" />
		<tag k="no-barnehage:nsrid" v="1017568" />
		<tag k="operator" v="Løten kommune" />
		<tag k="operator:type" v="public" />
		<tag k="start_date" v="1988-04-01" />
	</node>
	<node id="-1882" lat="60.8325" lon="11.314">
		<tag k="amenity" v="kindergarten" />
		<tag k="capacity" v="30" />
		<tag k="contact:email" v="gunn.slettvold@loten.kommune.no" />
		<tag k="contact:phone" v="+47 62 56 42 73" />
		<tag k="max_age" v="5" />
		<tag k="min_age" v="1" />
		<tag k="name" v="Lund barnehage" />
		<tag k="no-barnehage:nsrid" v="1016018" />
		<tag k="operator" v="Løten kommune" />
		<tag k="operator:type" v="public" />
		<tag k="start_date" v="1998-02-23" />
	</node>
	<node id="-1881" lat="60.81712" lon="11.33755">
		<tag k="amenity" v="kindergarten" />
		<tag k="capacity" v="42" />
		<tag k="contact:email" v="ane.cecilie@livensveen.no" />
		<tag k="max_age" v="5" />
		<tag k="min_age" v="1" />
		<tag k="name" v="Livenssveen Gardsbarnehage" />
		<tag k="no-barnehage:nsrid" v="1021219" />
		<tag k="operator" v="Livenssveen Gardsbarnehage" />
		<tag k="operator:type" v="private" />
		<tag k="start_date" v="2005-07-04" />
	</node>
	<node id="-1880" lat="60.8171" lon="11.3376">
		<tag k="amenity" v="kindergarten" />
		<tag k="capacity" v="29" />
		<tag k="contact:email" v="tove.paulsen.traetteberg@loten.kommune.no" />
		<tag k="contact:phone" v="+47 62 56 42 86" />
		<tag k="max_age" v="5" />
		<tag k="min_age" v="1" />
		<tag k="name" v="Jønsrud barnehage" />
		<tag k="no-barnehage:nsrid" v="1014878" />
		<tag k="operator" v="Løten kommune" />
		<tag k="operator:type" v="public" />
		<tag k="start_date" v="1996-01-01" />
	</node>
	<node id="-1879" lat="60.7966" lon="11.3112">
		<tag k="amenity" v="kindergarten" />
		<tag k="capacity" v="55" />
		<tag k="contact:email" v="solvar.stensbyvake@ulna.no" />
		<tag k="contact:phone" v="+47 62 59 22 30" />
		<tag k="max_age" v="5" />
		<tag k="min_age" v="1" />
		<tag k="name" v="Brovold barnehage" />
		<tag k="no-barnehage:nsrid" v="1016897" />
		<tag k="operator" v="Ulna AS" />
		<tag k="operator:type" v="private" />
		<tag k="start_date" v="1995-08-15" />
	</node>
</osm>
