<?xml version="1.0" encoding="UTF-8"?>
<osm generator="osmapis" version="0.6">
	<node id="-5104" lat="63.43257" lon="10.82819">
		<tag k="ADDRESS" v="Flatholmvegen 30, 7550 HOMMELVIK" />
		<tag k="amenity" v="kindergarten" />
		<tag k="capacity" v="80" />
		<tag k="max_age" v="5" />
		<tag k="min_age" v="1" />
		<tag k="name" v="Espira Muruvik barnehage" />
		<tag k="no-barnehage:nsrid" v="995663597" />
		<tag k="operator" v="Espira Muruvik barnehage AS" />
		<tag k="operator:type" v="private" />
	</node>
	<node id="-5105" lat="63.41449" lon="10.81525">
		<tag k="ADDRESS" v="Korntrøvegen 9, 7550 HOMMELVIK" />
		<tag k="amenity" v="kindergarten" />
		<tag k="capacity" v="46" />
		<tag k="contact:website" v="http://www.korntroberget.no" />
		<tag k="max_age" v="5" />
		<tag k="min_age" v="1" />
		<tag k="name" v="Korntrøberget barnehage" />
		<tag k="no-barnehage:nsrid" v="990384177" />
		<tag k="operator" v="Korntrøberget barnehage AS" />
		<tag k="operator:type" v="private" />
	</node>
	<node id="-5107" lat="63.43283" lon="10.63753">
		<tag k="ADDRESS" v="Planetringen 2, 7560 VIKHAMMER" />
		<tag k="amenity" v="kindergarten" />
		<tag k="capacity" v="72" />
		<tag k="max_age" v="5" />
		<tag k="min_age" v="1" />
		<tag k="name" v="Planetringen barnehage" />
		<tag k="no-barnehage:nsrid" v="982565499" />
		<tag k="operator" v="Malvik kommune" />
		<tag k="operator:type" v="public" />
	</node>
	<node id="-5108" lat="63.43348" lon="10.59922">
		<tag k="ADDRESS" v="Sigrid Saxedatters veg 14, 7562 SAKSVIK" />
		<tag k="amenity" v="kindergarten" />
		<tag k="capacity" v="105" />
		<tag k="max_age" v="5" />
		<tag k="min_age" v="1" />
		<tag k="name" v="Saksvik barnehage" />
		<tag k="no-barnehage:nsrid" v="975311708" />
		<tag k="operator" v="Malvik kommune" />
		<tag k="operator:type" v="public" />
	</node>
	<node id="-5109" lat="63.41494" lon="10.80512">
		<tag k="ADDRESS" v="Havnevegen, 7550 HOMMELVIK" />
		<tag k="amenity" v="kindergarten" />
		<tag k="capacity" v="104" />
		<tag k="max_age" v="5" />
		<tag k="min_age" v="1" />
		<tag k="name" v="Sandfjæra barnehage" />
		<tag k="no-barnehage:nsrid" v="975311694" />
		<tag k="operator" v="Malvik kommune" />
		<tag k="operator:type" v="public" />
	</node>
	<node id="-5110" lat="63.43898" lon="10.59105">
		<tag k="ADDRESS" v="Sjølystvegen 43, 7562 SAKSVIK" />
		<tag k="amenity" v="kindergarten" />
		<tag k="capacity" v="74" />
		<tag k="max_age" v="5" />
		<tag k="min_age" v="1" />
		<tag k="name" v="Sjølyst FUS barnehage" />
		<tag k="no-barnehage:nsrid" v="988801585" />
		<tag k="operator" v="Sjølyst Fus barnehage AS" />
		<tag k="operator:type" v="private" />
	</node>
	<node id="-5112" lat="0.0" lon="0.0">
		<tag k="ADDRESS" v="MIDTSANDAN, 7563 MALVIK" />
		<tag k="amenity" v="kindergarten" />
		<tag k="capacity" v="68" />
		<tag k="max_age" v="5" />
		<tag k="min_age" v="1" />
		<tag k="name" v="Solstrand barnehage" />
		<tag k="no-barnehage:nsrid" v="976975669" />
		<tag k="operator" v="Malvik kommune" />
		<tag k="operator:type" v="public" />
	</node>
	<node id="-5113" lat="63.42263" lon="10.76212">
		<tag k="ADDRESS" v="Svebergvegen 8, 7550 HOMMELVIK" />
		<tag k="amenity" v="kindergarten" />
		<tag k="capacity" v="64" />
		<tag k="contact:website" v="http://www.sveberg.barnehage.no" />
		<tag k="max_age" v="5" />
		<tag k="min_age" v="1" />
		<tag k="name" v="Sveberg barnehage" />
		<tag k="no-barnehage:nsrid" v="984569742" />
		<tag k="operator" v="Sveberg barnehage SA" />
		<tag k="operator:type" v="private" />
	</node>
	<node id="-5115" lat="63.4379" lon="10.62395">
		<tag k="ADDRESS" v="Stasjonsvegen 14, 7560 VIKHAMMER" />
		<tag k="amenity" v="kindergarten" />
		<tag k="capacity" v="28" />
		<tag k="max_age" v="5" />
		<tag k="min_age" v="1" />
		<tag k="name" v="Vikhammer Vestre barnehage" />
		<tag k="no-barnehage:nsrid" v="880457772" />
		<tag k="operator" v="Malvik kommune" />
		<tag k="operator:type" v="public" />
	</node>
</osm>
