<?xml version="1.0" encoding="UTF-8"?>
<osm generator="osmapis" version="0.6">
	<node id="-3466" lat="63.43306" lon="10.59603">
		<tag k="ADDRESS" v="Lauglobuen 9b, 7562 SAKSVIK" />
		<tag k="amenity" v="kindergarten" />
		<tag k="capacity" v="7" />
		<tag k="max_age" v="5" />
		<tag k="min_age" v="1" />
		<tag k="name" v="Utsikten familiebarnehage Borghild Lucie Vikhammermo" />
		<tag k="no-barnehage:nsrid" v="1020510" />
		<tag k="operator" v="Utsikten Familiebarnehage Borghild Lucie Vikhammermo" />
		<tag k="operator:type" v="private" />
	</node>
	<node id="-3465" lat="63.43244" lon="10.70313">
		<tag k="ADDRESS" v="Skansenvegen 2, 7563 MALVIK" />
		<tag k="amenity" v="kindergarten" />
		<tag k="capacity" v="4" />
		<tag k="max_age" v="2" />
		<tag k="min_age" v="1" />
		<tag k="name" v="Småtroll familiebarnehage Lena Birgit Hansson" />
		<tag k="no-barnehage:nsrid" v="2000169" />
		<tag k="operator" v="Småtroll Familiebarnehage Lena Birgit Hansson" />
		<tag k="operator:type" v="private" />
	</node>
</osm>
