<?xml version="1.0" encoding="UTF-8"?>
<osm generator="osmapis" version="0.6">
	<node id="-2134" lat="59.39962" lon="9.952609">
		<tag k="amenity" v="kindergarten" />
		<tag k="name" v="Svarstad åpen barnehage" />
		<tag k="no-barnehage:nsrid" v="2000250" />
		<tag k="operator" v="Larvik kommune" />
		<tag k="operator:type" v="public" />
	</node>
	<node id="-2133" lat="59.3995" lon="9.97253">
		<tag k="amenity" v="kindergarten" />
		<tag k="capacity" v="56" />
		<tag k="max_age" v="5" />
		<tag k="min_age" v="1" />
		<tag k="name" v="Svarstad barnehage" />
		<tag k="no-barnehage:nsrid" v="1015539" />
		<tag k="operator" v="Larvik kommune" />
		<tag k="operator:type" v="public" />
	</node>
	<node id="-2132" lat="59.3128" lon="9.89138">
		<tag k="amenity" v="kindergarten" />
		<tag k="capacity" v="45" />
		<tag k="max_age" v="5" />
		<tag k="min_age" v="1" />
		<tag k="name" v="Styrvoll barnehage" />
		<tag k="no-barnehage:nsrid" v="1016037" />
		<tag k="operator" v="Larvik kommune" />
		<tag k="operator:type" v="public" />
	</node>
	<node id="-2130" lat="59.00336" lon="10.02192">
		<tag k="amenity" v="kindergarten" />
		<tag k="name" v="Stavern åpen barnehage" />
		<tag k="no-barnehage:nsrid" v="1025680" />
		<tag k="operator" v="Larvik kommune" />
		<tag k="operator:type" v="public" />
	</node>
	<node id="-2129" lat="59.01" lon="10.0238">
		<tag k="amenity" v="kindergarten" />
		<tag k="capacity" v="69" />
		<tag k="max_age" v="5" />
		<tag k="min_age" v="1" />
		<tag k="name" v="Solstad barnehage" />
		<tag k="no-barnehage:nsrid" v="1012808" />
		<tag k="operator" v="Larvik kommune" />
		<tag k="operator:type" v="public" />
	</node>
	<node id="-2128" lat="59.0368" lon="9.993252">
		<tag k="amenity" v="kindergarten" />
		<tag k="capacity" v="62" />
		<tag k="max_age" v="5" />
		<tag k="min_age" v="1" />
		<tag k="name" v="Skattekista barnehage" />
		<tag k="no-barnehage:nsrid" v="1020693" />
		<tag k="operator" v="Skattekista barnehage Sa" />
		<tag k="operator:type" v="private" />
	</node>
	<node id="-2127" lat="58.9983" lon="10.0356">
		<tag k="amenity" v="kindergarten" />
		<tag k="capacity" v="66" />
		<tag k="max_age" v="5" />
		<tag k="min_age" v="1" />
		<tag k="name" v="Sjøparken Kanvas-barnehage" />
		<tag k="no-barnehage:nsrid" v="1014153" />
		<tag k="operator" v="Stiftelsen Kanvas" />
		<tag k="operator:type" v="private" />
	</node>
	<node id="-2126" lat="59.07346" lon="10.19695">
		<tag k="amenity" v="kindergarten" />
		<tag k="capacity" v="74" />
		<tag k="max_age" v="5" />
		<tag k="min_age" v="1" />
		<tag k="name" v="Salbutangen FUS barnehage" />
		<tag k="no-barnehage:nsrid" v="1021557" />
		<tag k="operator" v="Salbutangen Fus barnehage AS" />
		<tag k="operator:type" v="private" />
	</node>
	<node id="-2125" lat="59.1033" lon="10.113">
		<tag k="amenity" v="kindergarten" />
		<tag k="capacity" v="67" />
		<tag k="max_age" v="5" />
		<tag k="min_age" v="1" />
		<tag k="name" v="Rødbøl barnehage" />
		<tag k="no-barnehage:nsrid" v="1017223" />
		<tag k="operator" v="Larvik kommune" />
		<tag k="operator:type" v="public" />
	</node>
	<node id="-2124" lat="59.04866" lon="10.04204">
		<tag k="amenity" v="kindergarten" />
		<tag k="name" v="Mesterfjellet åpen barnehage" />
		<tag k="no-barnehage:nsrid" v="1026166" />
		<tag k="operator" v="Larvik kommune" />
		<tag k="operator:type" v="public" />
	</node>
	<node id="-2123" lat="59.0256" lon="10.0758">
		<tag k="amenity" v="kindergarten" />
		<tag k="capacity" v="84" />
		<tag k="contact:website" v="http://Laringsverkstedet.no/gonveien" />
		<tag k="max_age" v="5" />
		<tag k="min_age" v="1" />
		<tag k="name" v="Læringsverkstedet barnehage avd. Gonveien" />
		<tag k="no-barnehage:nsrid" v="1016582" />
		<tag k="operator" v="Læringsverkstedet AS" />
		<tag k="operator:type" v="private" />
	</node>
	<node id="-2122" lat="59.05373" lon="10.01088">
		<tag k="amenity" v="kindergarten" />
		<tag k="capacity" v="28" />
		<tag k="contact:website" v="http://www.leikvangbarnehage.no" />
		<tag k="max_age" v="5" />
		<tag k="min_age" v="1" />
		<tag k="name" v="Leikvang barnehage" />
		<tag k="no-barnehage:nsrid" v="1019887" />
		<tag k="operator" v="Leikvang barnehage Sa" />
		<tag k="operator:type" v="private" />
	</node>
	<node id="-2121" lat="59.1924" lon="9.968871">
		<tag k="amenity" v="kindergarten" />
		<tag k="name" v="Kvelde åpen barnehage" />
		<tag k="no-barnehage:nsrid" v="1025681" />
		<tag k="operator" v="Larvik kommune" />
		<tag k="operator:type" v="public" />
	</node>
	<node id="-2120" lat="59.20034" lon="9.968315">
		<tag k="amenity" v="kindergarten" />
		<tag k="capacity" v="49" />
		<tag k="max_age" v="5" />
		<tag k="min_age" v="1" />
		<tag k="name" v="Kvelde barnehage" />
		<tag k="no-barnehage:nsrid" v="1019660" />
		<tag k="operator" v="Kvelde barnehage" />
		<tag k="operator:type" v="private" />
	</node>
	<node id="-2119" lat="59.0529" lon="10.031">
		<tag k="amenity" v="kindergarten" />
		<tag k="capacity" v="32" />
		<tag k="max_age" v="5" />
		<tag k="min_age" v="1" />
		<tag k="name" v="Jegersborg barnehage" />
		<tag k="no-barnehage:nsrid" v="1012806" />
		<tag k="operator" v="Larvik kommune" />
		<tag k="operator:type" v="public" />
	</node>
	<node id="-2118" lat="58.997" lon="9.86718">
		<tag k="amenity" v="kindergarten" />
		<tag k="capacity" v="47" />
		<tag k="max_age" v="5" />
		<tag k="min_age" v="1" />
		<tag k="name" v="Ifokus barnehagene Torpeløkka barnehage" />
		<tag k="no-barnehage:nsrid" v="1017759" />
		<tag k="operator" v="Ifokus Barnehagene AS" />
		<tag k="operator:type" v="private" />
	</node>
	<node id="-2117" lat="59.0574" lon="10.1396">
		<tag k="amenity" v="kindergarten" />
		<tag k="capacity" v="87" />
		<tag k="max_age" v="5" />
		<tag k="min_age" v="1" />
		<tag k="name" v="Ifokus barnehagene Tjølling barnehage" />
		<tag k="no-barnehage:nsrid" v="1016887" />
		<tag k="operator" v="Ifokus Barnehagene AS" />
		<tag k="operator:type" v="private" />
	</node>
	<node id="-2116" lat="59.0277" lon="10.0161">
		<tag k="amenity" v="kindergarten" />
		<tag k="capacity" v="76" />
		<tag k="max_age" v="5" />
		<tag k="min_age" v="1" />
		<tag k="name" v="Ifokus barnehagene Lysheim barnehage" />
		<tag k="no-barnehage:nsrid" v="1016886" />
		<tag k="operator" v="Ifokus Barnehagene AS" />
		<tag k="operator:type" v="private" />
	</node>
	<node id="-2115" lat="58.9887" lon="10.0285">
		<tag k="amenity" v="kindergarten" />
		<tag k="capacity" v="69" />
		<tag k="max_age" v="5" />
		<tag k="min_age" v="1" />
		<tag k="name" v="Ifokus barnehagene Grevle barnehage" />
		<tag k="no-barnehage:nsrid" v="1017738" />
		<tag k="operator" v="Ifokus Barnehagene AS" />
		<tag k="operator:type" v="private" />
	</node>
	<node id="-2114" lat="59.399" lon="9.969854">
		<tag k="amenity" v="kindergarten" />
		<tag k="capacity" v="20" />
		<tag k="max_age" v="5" />
		<tag k="min_age" v="1" />
		<tag k="name" v="Hem barnehage Sidsel Berg Sjulstad" />
		<tag k="no-barnehage:nsrid" v="1020114" />
		<tag k="operator" v="Hem barnehage Sa" />
		<tag k="operator:type" v="private" />
	</node>
	<node id="-2113" lat="58.9853" lon="9.86776">
		<tag k="amenity" v="kindergarten" />
		<tag k="capacity" v="65" />
		<tag k="max_age" v="5" />
		<tag k="min_age" v="1" />
		<tag k="name" v="Helgeroa barnehage" />
		<tag k="no-barnehage:nsrid" v="1012803" />
		<tag k="operator" v="Larvik kommune" />
		<tag k="operator:type" v="public" />
	</node>
	<node id="-2111" lat="59.05365" lon="10.04149">
		<tag k="amenity" v="kindergarten" />
		<tag k="capacity" v="24" />
		<tag k="max_age" v="5" />
		<tag k="min_age" v="1" />
		<tag k="name" v="Hakkebakkeskogen barnehage" />
		<tag k="no-barnehage:nsrid" v="1019714" />
		<tag k="operator" v="Hakkebakkeskogen barnehage Sa" />
		<tag k="operator:type" v="private" />
	</node>
	<node id="-2110" lat="59.0538" lon="10.0296">
		<tag k="amenity" v="kindergarten" />
		<tag k="capacity" v="32" />
		<tag k="max_age" v="5" />
		<tag k="min_age" v="1" />
		<tag k="name" v="Gøy på Landet barnehage" />
		<tag k="no-barnehage:nsrid" v="1015952" />
		<tag k="operator" v="Fritzøe Gård Aktiv AS" />
		<tag k="operator:type" v="private" />
	</node>
	<node id="-2109" lat="59.04691" lon="10.09827">
		<tag k="amenity" v="kindergarten" />
		<tag k="capacity" v="75" />
		<tag k="max_age" v="5" />
		<tag k="min_age" v="1" />
		<tag k="name" v="Guriskogen barnehage" />
		<tag k="no-barnehage:nsrid" v="1019780" />
		<tag k="operator" v="Guriskogen barnehage Sa" />
		<tag k="operator:type" v="private" />
	</node>
	<node id="-2108" lat="59.065" lon="10.0528">
		<tag k="amenity" v="kindergarten" />
		<tag k="name" v="Gullskatt åpen barnehage" />
		<tag k="no-barnehage:nsrid" v="1018372" />
		<tag k="operator" v="Vineyard Kristne Felleskap Larvik" />
		<tag k="operator:type" v="private" />
	</node>
	<node id="-2107" lat="59.06064" lon="10.08472">
		<tag k="amenity" v="kindergarten" />
		<tag k="capacity" v="20" />
		<tag k="contact:website" v="http://Gjerstad.barnehage.no" />
		<tag k="max_age" v="5" />
		<tag k="min_age" v="1" />
		<tag k="name" v="Gjerstad gård/ Gjerstad natur- og gårdsbarnehage" />
		<tag k="no-barnehage:nsrid" v="1020445" />
		<tag k="operator" v="Audun E Tvedten" />
		<tag k="operator:type" v="private" />
	</node>
	<node id="-2106" lat="59.05806" lon="10.06239">
		<tag k="amenity" v="kindergarten" />
		<tag k="capacity" v="64" />
		<tag k="max_age" v="5" />
		<tag k="min_age" v="1" />
		<tag k="name" v="Gapatrosten barnehage" />
		<tag k="no-barnehage:nsrid" v="1020429" />
		<tag k="operator" v="Gapatrosten barnehage Sa" />
		<tag k="operator:type" v="private" />
	</node>
	<node id="-2105" lat="59.0607" lon="10.0326">
		<tag k="amenity" v="kindergarten" />
		<tag k="name" v="Fagerli åpen barnehage" />
		<tag k="no-barnehage:nsrid" v="1016468" />
		<tag k="operator" v="Larvik kommune" />
		<tag k="operator:type" v="public" />
	</node>
	<node id="-2104" lat="59.07053" lon="10.04303">
		<tag k="amenity" v="kindergarten" />
		<tag k="capacity" v="121" />
		<tag k="max_age" v="5" />
		<tag k="min_age" v="1" />
		<tag k="name" v="Fagerli barnehage" />
		<tag k="no-barnehage:nsrid" v="1026375" />
		<tag k="operator" v="Larvik kommune" />
		<tag k="operator:type" v="public" />
	</node>
	<node id="-2103" lat="59.05274" lon="9.995039">
		<tag k="amenity" v="kindergarten" />
		<tag k="capacity" v="91" />
		<tag k="contact:website" v="http://www.eventyrskogenbarnehage.no" />
		<tag k="max_age" v="5" />
		<tag k="min_age" v="1" />
		<tag k="name" v="Eventyrskogen barnehage" />
		<tag k="no-barnehage:nsrid" v="1020642" />
		<tag k="operator" v="Eventyrskogen barnehage Sa" />
		<tag k="operator:type" v="private" />
	</node>
	<node id="-2102" lat="59.05522" lon="10.0561">
		<tag k="amenity" v="kindergarten" />
		<tag k="capacity" v="137" />
		<tag k="max_age" v="5" />
		<tag k="min_age" v="1" />
		<tag k="name" v="Byskogen barnehage" />
		<tag k="no-barnehage:nsrid" v="2000208" />
		<tag k="operator" v="Larvik kommune" />
		<tag k="operator:type" v="public" />
	</node>
	<node id="-2101" lat="59.059" lon="10.0411">
		<tag k="amenity" v="kindergarten" />
		<tag k="capacity" v="71" />
		<tag k="max_age" v="5" />
		<tag k="min_age" v="1" />
		<tag k="name" v="Borgejordet barnehage" />
		<tag k="no-barnehage:nsrid" v="1012807" />
		<tag k="operator" v="Larvik kommune" />
		<tag k="operator:type" v="public" />
	</node>
	<node id="-2100" lat="59.04765" lon="10.07567">
		<tag k="amenity" v="kindergarten" />
		<tag k="capacity" v="83" />
		<tag k="contact:website" v="http://www.bisjord.bhg.no" />
		<tag k="max_age" v="5" />
		<tag k="min_age" v="1" />
		<tag k="name" v="Bisjord FUS barnehage" />
		<tag k="no-barnehage:nsrid" v="1021669" />
		<tag k="operator" v="Bisjord Fus barnehage AS" />
		<tag k="operator:type" v="private" />
	</node>
	<node id="-2099" lat="59.0338" lon="10.0785">
		<tag k="amenity" v="kindergarten" />
		<tag k="capacity" v="76" />
		<tag k="max_age" v="5" />
		<tag k="min_age" v="1" />
		<tag k="name" v="Bergeskogen idrettsbarnehage" />
		<tag k="no-barnehage:nsrid" v="1025365" />
		<tag k="operator" v="Larvik kommune" />
		<tag k="operator:type" v="public" />
	</node>
	<node id="-2098" lat="59.05722" lon="10.03879">
		<tag k="amenity" v="kindergarten" />
		<tag k="capacity" v="25" />
		<tag k="max_age" v="5" />
		<tag k="min_age" v="1" />
		<tag k="name" v="Bakkebygrenda barnehage" />
		<tag k="no-barnehage:nsrid" v="1019799" />
		<tag k="operator" v="Bakkebygrenda barnehage Sa" />
		<tag k="operator:type" v="private" />
	</node>
</osm>
