<?xml version="1.0" encoding="UTF-8"?>
<osm generator="osmapis" version="0.6">
	<node id="-5368" lat="64.49356" lon="11.94812">
		<tag k="amenity" v="kindergarten" />
		<tag k="capacity" v="30" />
		<tag k="contact:phone" v="74 28 14 04" />
		<tag k="max_age" v="5" />
		<tag k="min_age" v="1" />
		<tag k="name" v="Gammelstua barnehage Sa" />
		<tag k="no-barnehage:nsrid" v="1020440" />
		<tag k="operator" v="Gammelstua barnehage Sa" />
		<tag k="operator:type" v="private" />
		<tag k="start_date" v="1997-05-14" />
	</node>
	<node id="-5371" lat="64.4702" lon="11.7508">
		<tag k="amenity" v="kindergarten" />
		<tag k="capacity" v="79" />
		<tag k="contact:phone" v="91889811" />
		<tag k="max_age" v="5" />
		<tag k="min_age" v="1" />
		<tag k="name" v="Skage barnehage" />
		<tag k="no-barnehage:nsrid" v="1013644" />
		<tag k="operator" v="Overhalla kommune" />
		<tag k="operator:type" v="public" />
		<tag k="start_date" v="1989-01-01" />
	</node>
	<node id="-5370" lat="64.4936" lon="11.9481">
		<tag k="amenity" v="kindergarten" />
		<tag k="capacity" v="86" />
		<tag k="contact:phone" v="91709422" />
		<tag k="max_age" v="5" />
		<tag k="min_age" v="1" />
		<tag k="name" v="Ranemsletta barnehage" />
		<tag k="no-barnehage:nsrid" v="1013643" />
		<tag k="operator" v="Overhalla kommune" />
		<tag k="operator:type" v="public" />
		<tag k="start_date" v="1989-01-01" />
	</node>
	<node id="-5369" lat="64.4623" lon="12.0508">
		<tag k="amenity" v="kindergarten" />
		<tag k="capacity" v="49" />
		<tag k="max_age" v="5" />
		<tag k="min_age" v="1" />
		<tag k="name" v="Moamarka barnehage" />
		<tag k="no-barnehage:nsrid" v="1014951" />
		<tag k="operator" v="Overhalla kommune" />
		<tag k="operator:type" v="public" />
		<tag k="start_date" v="1991-07-01" />
	</node>
</osm>
