<?xml version="1.0" encoding="UTF-8"?>
<osm version="0.6" generator="osmapis">
	<node lat="59.26522" lon="9.25789" id="-3638">
		<tag k="ADDRESS" v="Herregårdsvegen 87, 3830 ULEFOSS" />
		<tag k="amenity" v="kindergarten" />
		<tag k="capacity" v="75" />
		<tag k="max_age" v="5" />
		<tag k="min_age" v="1" />
		<tag k="name" v="Fagerli barnehage" />
		<tag k="no-barnehage:nsrid" v="890686052" />
		<tag k="operator" v="Nome kommune" />
		<tag k="operator:type" v="public" />
	</node>
	<node lat="59.25563" lon="9.3593" id="-3639">
		<tag k="ADDRESS" v="Skiensvegen 385, 3830 ULEFOSS" />
		<tag k="amenity" v="kindergarten" />
		<tag k="capacity" v="29" />
		<tag k="max_age" v="5" />
		<tag k="min_age" v="1" />
		<tag k="name" v="Helgen barnehage" />
		<tag k="no-barnehage:nsrid" v="973795120" />
		<tag k="operator" v="Nome kommune" />
		<tag k="operator:type" v="public" />
	</node>
	<node lat="59.27184" lon="9.25722" id="-3640">
		<tag k="ADDRESS" v="Herregårdsvegen 27, 3830 ULEFOSS" />
		<tag k="amenity" v="kindergarten" />
		<tag k="capacity" v="71" />
		<tag k="max_age" v="5" />
		<tag k="min_age" v="1" />
		<tag k="name" v="Herregårdshavna barnehage" />
		<tag k="no-barnehage:nsrid" v="974608677" />
		<tag k="operator" v="Nome kommune" />
		<tag k="operator:type" v="public" />
	</node>
	<node lat="59.29575" lon="9.08826" id="-3641">
		<tag k="ADDRESS" v="Strengenvegen 60, 3825 LUNDE" />
		<tag k="amenity" v="kindergarten" />
		<tag k="capacity" v="39" />
		<tag k="max_age" v="5" />
		<tag k="min_age" v="1" />
		<tag k="name" v="Skoemyra barnehage" />
		<tag k="no-barnehage:nsrid" v="974608723" />
		<tag k="operator" v="Nome kommune" />
		<tag k="operator:type" v="public" />
	</node>
	<node lat="59.29782" lon="9.09256" id="-3642">
		<tag k="ADDRESS" v="Slusevegen 19, 3825 LUNDE" />
		<tag k="amenity" v="kindergarten" />
		<tag k="capacity" v="54" />
		<tag k="max_age" v="5" />
		<tag k="min_age" v="1" />
		<tag k="name" v="Sluseparken barnehage" />
		<tag k="no-barnehage:nsrid" v="974608669" />
		<tag k="operator" v="Nome kommune" />
		<tag k="operator:type" v="public" />
	</node>
	<node lat="59.33601" lon="9.09592" id="-3643">
		<tag k="ADDRESS" v="Norheimvegen 21, 3825 LUNDE" />
		<tag k="amenity" v="kindergarten" />
		<tag k="capacity" v="25" />
		<tag k="max_age" v="5" />
		<tag k="min_age" v="1" />
		<tag k="name" v="Svenseid barnehage" />
		<tag k="no-barnehage:nsrid" v="885155162" />
		<tag k="operator" v="Nome kommune" />
		<tag k="operator:type" v="public" />
	</node>
</osm>
