<?xml version="1.0" encoding="UTF-8"?>
<osm generator="osmapis" version="0.6">
	<node id="-1639" lat="61.31962" lon="9.860602">
		<tag k="amenity" v="kindergarten" />
		<tag k="capacity" v="9" />
		<tag k="max_age" v="5" />
		<tag k="min_age" v="1" />
		<tag k="name" v="Øvre Svatsum barnehage-sfo" />
		<tag k="no-barnehage:nsrid" v="2000163" />
		<tag k="operator" v="Øvre Svatsum Barnehage-Sfo Sa" />
		<tag k="operator:type" v="private" />
	</node>
	<node id="-1638" lat="61.2565" lon="10.1645">
		<tag k="amenity" v="kindergarten" />
		<tag k="capacity" v="31" />
		<tag k="max_age" v="5" />
		<tag k="min_age" v="1" />
		<tag k="name" v="Myra barnehage" />
		<tag k="no-barnehage:nsrid" v="1017958" />
		<tag k="operator" v="Gausdal kommune" />
		<tag k="operator:type" v="public" />
	</node>
	<node id="-1636" lat="61.21564" lon="10.29049">
		<tag k="amenity" v="kindergarten" />
		<tag k="capacity" v="58" />
		<tag k="max_age" v="5" />
		<tag k="min_age" v="1" />
		<tag k="name" v="Follebu barnehage" />
		<tag k="no-barnehage:nsrid" v="1021737" />
		<tag k="operator" v="Follebu Fus barnehage AS" />
		<tag k="operator:type" v="private" />
	</node>
	<node id="-1635" lat="61.2565" lon="10.1645">
		<tag k="amenity" v="kindergarten" />
		<tag k="capacity" v="40" />
		<tag k="max_age" v="5" />
		<tag k="min_age" v="1" />
		<tag k="name" v="Fjerdum barnehage" />
		<tag k="no-barnehage:nsrid" v="1017955" />
		<tag k="operator" v="Gausdal kommune" />
		<tag k="operator:type" v="public" />
	</node>
	<node id="-1634" lat="61.23311" lon="10.18754">
		<tag k="amenity" v="kindergarten" />
		<tag k="capacity" v="32" />
		<tag k="max_age" v="5" />
		<tag k="min_age" v="1" />
		<tag k="name" v="Baklia Stall &amp; gårdsbarnehage" />
		<tag k="no-barnehage:nsrid" v="1020808" />
		<tag k="operator" v="Baklia Stall &amp; Gårdsbarnehage Da" />
		<tag k="operator:type" v="private" />
	</node>
</osm>
