<?xml version="1.0" encoding="UTF-8"?>
<osm generator="osmapis" version="0.6">
	<node id="-2130" lat="61.2565" lon="10.1645">
		<tag k="amenity" v="kindergarten" />
		<tag k="capacity" v="38" />
		<tag k="max_age" v="5" />
		<tag k="min_age" v="1" />
		<tag k="name" v="Myra barnehage" />
		<tag k="no-barnehage:nsrid" v="1017958" />
		<tag k="operator" v="Gausdal kommune" />
		<tag k="operator:type" v="public" />
		<tag k="start_date" v="1988-04-01" />
	</node>
	<node id="-2128" lat="61.2156" lon="10.2905">
		<tag k="amenity" v="kindergarten" />
		<tag k="capacity" v="52" />
		<tag k="contact:phone" v="61 22 09 79" />
		<tag k="max_age" v="5" />
		<tag k="min_age" v="1" />
		<tag k="name" v="Kornhaug barnehage" />
		<tag k="no-barnehage:nsrid" v="1017956" />
		<tag k="operator" v="Gausdal kommune" />
		<tag k="operator:type" v="public" />
		<tag k="start_date" v="1988-04-01" />
	</node>
	<node id="-2127" lat="61.2005" lon="10.1456">
		<tag k="amenity" v="kindergarten" />
		<tag k="capacity" v="53" />
		<tag k="max_age" v="5" />
		<tag k="min_age" v="1" />
		<tag k="name" v="Forset barnehage" />
		<tag k="no-barnehage:nsrid" v="1017957" />
		<tag k="operator" v="Gausdal kommune" />
		<tag k="operator:type" v="public" />
		<tag k="start_date" v="1988-04-01" />
	</node>
	<node id="-2126" lat="61.21564" lon="10.29049">
		<tag k="amenity" v="kindergarten" />
		<tag k="capacity" v="48" />
		<tag k="contact:email" v="dl.follebu@bhg.no" />
		<tag k="max_age" v="5" />
		<tag k="min_age" v="1" />
		<tag k="name" v="Follebu barnehage" />
		<tag k="no-barnehage:nsrid" v="1021737" />
		<tag k="operator" v="Follebu Fus barnehage AS" />
		<tag k="operator:type" v="private" />
		<tag k="start_date" v="2007-11-20" />
	</node>
	<node id="-2125" lat="61.2565" lon="10.1645">
		<tag k="amenity" v="kindergarten" />
		<tag k="capacity" v="49" />
		<tag k="max_age" v="5" />
		<tag k="min_age" v="1" />
		<tag k="name" v="Fjerdum barnehage" />
		<tag k="no-barnehage:nsrid" v="1017955" />
		<tag k="operator" v="Gausdal kommune" />
		<tag k="operator:type" v="public" />
		<tag k="start_date" v="1988-04-01" />
	</node>
	<node id="-2124" lat="61.35329" lon="9.715423">
		<tag k="amenity" v="kindergarten" />
		<tag k="capacity" v="6" />
		<tag k="contact:email" v="barnehagenisvatsum@hotmail.com" />
		<tag k="contact:phone" v="92 29 10 96" />
		<tag k="max_age" v="5" />
		<tag k="min_age" v="1" />
		<tag k="name" v="Barnehagen i Svatsum Da" />
		<tag k="no-barnehage:nsrid" v="1022168" />
		<tag k="operator" v="Barnehagen i Svatsum Da" />
		<tag k="operator:type" v="private" />
		<tag k="start_date" v="2011-02-01" />
	</node>
	<node id="-2123" lat="61.23311" lon="10.18754">
		<tag k="amenity" v="kindergarten" />
		<tag k="capacity" v="28" />
		<tag k="contact:email" v="bakliastalloggbhg@yahoo.no" />
		<tag k="contact:phone" v="61 22 35 01" />
		<tag k="max_age" v="5" />
		<tag k="min_age" v="1" />
		<tag k="name" v="Baklia Stall &amp; Gårdsbarnehage Da" />
		<tag k="no-barnehage:nsrid" v="1020808" />
		<tag k="operator" v="Baklia Stall &amp; Gårdsbarnehage Da" />
		<tag k="operator:type" v="private" />
		<tag k="start_date" v="2002-06-13" />
	</node>
</osm>
