<?xml version="1.0" encoding="UTF-8"?>
<osm generator="osmapis" version="0.6">
	<node id="-1785" lat="59.66" lon="9.63723">
		<tag k="amenity" v="kindergarten" />
		<tag k="capacity" v="49" />
		<tag k="max_age" v="5" />
		<tag k="min_age" v="1" />
		<tag k="name" v="Venåsløkka barnehage" />
		<tag k="no-barnehage:nsrid" v="1012741" />
		<tag k="operator" v="Kongsberg kommune" />
		<tag k="operator:type" v="public" />
	</node>
	<node id="-1784" lat="59.6579" lon="9.65376">
		<tag k="amenity" v="kindergarten" />
		<tag k="capacity" v="83" />
		<tag k="max_age" v="5" />
		<tag k="min_age" v="1" />
		<tag k="name" v="Tislegård barnehage" />
		<tag k="no-barnehage:nsrid" v="1012744" />
		<tag k="operator" v="Kongsberg kommune" />
		<tag k="operator:type" v="public" />
	</node>
	<node id="-1783" lat="59.68618" lon="9.637635">
		<tag k="amenity" v="kindergarten" />
		<tag k="capacity" v="70" />
		<tag k="contact:website" v="http://sølvstuffen.no" />
		<tag k="max_age" v="5" />
		<tag k="min_age" v="1" />
		<tag k="name" v="Sølvstuffen barnehage" />
		<tag k="no-barnehage:nsrid" v="1021709" />
		<tag k="operator" v="Sølvstuffen AS" />
		<tag k="operator:type" v="private" />
	</node>
	<node id="-1782" lat="59.6685" lon="9.66053">
		<tag k="amenity" v="kindergarten" />
		<tag k="capacity" v="63" />
		<tag k="max_age" v="5" />
		<tag k="min_age" v="1" />
		<tag k="name" v="Studentsamskipnaden i Sørøst-norge Risteigen studentbarnehage" />
		<tag k="no-barnehage:nsrid" v="1016645" />
		<tag k="operator" v="Studentsamskipnaden i Sørøst-Norge" />
		<tag k="operator:type" v="private" />
	</node>
	<node id="-1780" lat="59.62751" lon="9.648663">
		<tag k="amenity" v="kindergarten" />
		<tag k="capacity" v="77" />
		<tag k="contact:website" v="http://www.skrimtrollet.barnehage.no" />
		<tag k="max_age" v="5" />
		<tag k="min_age" v="1" />
		<tag k="name" v="Skrimtrollet barnehage" />
		<tag k="no-barnehage:nsrid" v="1021902" />
		<tag k="operator" v="Skrimtrollet barnehage Sa" />
		<tag k="operator:type" v="private" />
	</node>
	<node id="-1779" lat="59.60185" lon="9.755977">
		<tag k="amenity" v="kindergarten" />
		<tag k="capacity" v="39" />
		<tag k="contact:website" v="http://www.sandsvar.barnehage.no" />
		<tag k="max_age" v="5" />
		<tag k="min_age" v="1" />
		<tag k="name" v="Sandsvær barnehage" />
		<tag k="no-barnehage:nsrid" v="1021194" />
		<tag k="operator" v="Sandsvær barnehage Sa" />
		<tag k="operator:type" v="private" />
	</node>
	<node id="-1778" lat="59.62633" lon="9.623683">
		<tag k="amenity" v="kindergarten" />
		<tag k="capacity" v="21" />
		<tag k="contact:website" v="http://saggrenda.barnehage.no" />
		<tag k="max_age" v="5" />
		<tag k="min_age" v="1" />
		<tag k="name" v="Saggrenda barnehage" />
		<tag k="no-barnehage:nsrid" v="1020405" />
		<tag k="operator" v="Saggrenda barnehage" />
		<tag k="operator:type" v="private" />
	</node>
	<node id="-1777" lat="59.68519" lon="9.645499">
		<tag k="amenity" v="kindergarten" />
		<tag k="capacity" v="52" />
		<tag k="contact:website" v="http://www.raumyr.barnehage.no" />
		<tag k="max_age" v="5" />
		<tag k="min_age" v="1" />
		<tag k="name" v="Raumyr barnehage" />
		<tag k="no-barnehage:nsrid" v="1020566" />
		<tag k="operator" v="Raumyr barnehage Sa" />
		<tag k="operator:type" v="private" />
	</node>
	<node id="-1776" lat="59.6411" lon="9.6626">
		<tag k="amenity" v="kindergarten" />
		<tag k="capacity" v="88" />
		<tag k="max_age" v="5" />
		<tag k="min_age" v="1" />
		<tag k="name" v="Mormors Have barnehage" />
		<tag k="no-barnehage:nsrid" v="1016290" />
		<tag k="operator" v="Teb Eiendom AS" />
		<tag k="operator:type" v="private" />
	</node>
	<node id="-1775" lat="59.6706" lon="9.6734">
		<tag k="amenity" v="kindergarten" />
		<tag k="capacity" v="70" />
		<tag k="max_age" v="5" />
		<tag k="min_age" v="1" />
		<tag k="name" v="Madsebakken barnehage" />
		<tag k="no-barnehage:nsrid" v="1016417" />
		<tag k="operator" v="Nakuba AS" />
		<tag k="operator:type" v="private" />
	</node>
	<node id="-1774" lat="59.65823" lon="9.670492">
		<tag k="amenity" v="kindergarten" />
		<tag k="capacity" v="24" />
		<tag k="contact:website" v="http://lovasbh.no" />
		<tag k="max_age" v="5" />
		<tag k="min_age" v="1" />
		<tag k="name" v="Løvås barnehage" />
		<tag k="no-barnehage:nsrid" v="1020308" />
		<tag k="operator" v="Åsen Foreldrelag Sa" />
		<tag k="operator:type" v="private" />
	</node>
	<node id="-1773" lat="59.6589" lon="9.67646">
		<tag k="amenity" v="kindergarten" />
		<tag k="capacity" v="91" />
		<tag k="max_age" v="5" />
		<tag k="min_age" v="1" />
		<tag k="name" v="Langekjenntunet barnehage" />
		<tag k="no-barnehage:nsrid" v="1017903" />
		<tag k="operator" v="Teb Eiendom AS" />
		<tag k="operator:type" v="private" />
	</node>
	<node id="-1772" lat="59.6584" lon="9.64612">
		<tag k="amenity" v="kindergarten" />
		<tag k="capacity" v="29" />
		<tag k="max_age" v="5" />
		<tag k="min_age" v="1" />
		<tag k="name" v="Kragsgate barnehage" />
		<tag k="no-barnehage:nsrid" v="1014880" />
		<tag k="operator" v="Kongsberg kommune" />
		<tag k="operator:type" v="public" />
	</node>
	<node id="-1771" lat="59.67823" lon="9.641463">
		<tag k="amenity" v="kindergarten" />
		<tag k="capacity" v="34" />
		<tag k="contact:website" v="http://kongsbergmontessoribarnehage.no" />
		<tag k="max_age" v="5" />
		<tag k="min_age" v="1" />
		<tag k="name" v="Kongsberg Montessori barnehage" />
		<tag k="no-barnehage:nsrid" v="1020913" />
		<tag k="operator" v="Kongsberg Montessori barnehage Sa" />
		<tag k="operator:type" v="private" />
	</node>
	<node id="-1770" lat="59.6833" lon="9.65101">
		<tag k="amenity" v="kindergarten" />
		<tag k="capacity" v="40" />
		<tag k="contact:website" v="http://www.kongsberg.kommune.no/Tjenester/Oppvekst/Kommunale-barnehager/Kommunale-barnehager/Vibehaugen" />
		<tag k="max_age" v="5" />
		<tag k="min_age" v="1" />
		<tag k="name" v="Kampestadlia barnehage" />
		<tag k="no-barnehage:nsrid" v="1013512" />
		<tag k="operator" v="Kongsberg kommune" />
		<tag k="operator:type" v="public" />
	</node>
	<node id="-1769" lat="59.70317" lon="9.523517">
		<tag k="amenity" v="kindergarten" />
		<tag k="capacity" v="12" />
		<tag k="max_age" v="5" />
		<tag k="min_age" v="1" />
		<tag k="name" v="Jondalen barnehage" />
		<tag k="no-barnehage:nsrid" v="1019796" />
		<tag k="operator" v="Jondalen barnehage" />
		<tag k="operator:type" v="private" />
	</node>
	<node id="-1768" lat="59.6485" lon="9.635007">
		<tag k="amenity" v="kindergarten" />
		<tag k="capacity" v="60" />
		<tag k="max_age" v="5" />
		<tag k="min_age" v="1" />
		<tag k="name" v="Idea Kompetanse avd. barnehage Kongsberg" />
		<tag k="no-barnehage:nsrid" v="1014801" />
		<tag k="operator" v="Idea Kompetanse AS" />
		<tag k="operator:type" v="private" />
	</node>
	<node id="-1767" lat="59.62582" lon="9.711973">
		<tag k="amenity" v="kindergarten" />
		<tag k="capacity" v="16" />
		<tag k="contact:website" v="http://www.nyhusgarden.no" />
		<tag k="max_age" v="2" />
		<tag k="min_age" v="1" />
		<tag k="name" v="Huldraheimen Steinerbarnehage Ii" />
		<tag k="no-barnehage:nsrid" v="1022043" />
		<tag k="operator" v="Huldraheimen Steinerbarnehage Ii AS" />
		<tag k="operator:type" v="private" />
	</node>
	<node id="-1766" lat="59.6715" lon="9.6872">
		<tag k="amenity" v="kindergarten" />
		<tag k="capacity" v="74" />
		<tag k="max_age" v="5" />
		<tag k="min_age" v="1" />
		<tag k="name" v="Hovdeplassen barnehage" />
		<tag k="no-barnehage:nsrid" v="1014272" />
		<tag k="operator" v="Nakuba AS" />
		<tag k="operator:type" v="private" />
	</node>
	<node id="-1765" lat="59.6517" lon="9.66167">
		<tag k="amenity" v="kindergarten" />
		<tag k="capacity" v="59" />
		<tag k="max_age" v="5" />
		<tag k="min_age" v="1" />
		<tag k="name" v="Gamlegrendåsen barnehage" />
		<tag k="no-barnehage:nsrid" v="1012743" />
		<tag k="operator" v="Kongsberg kommune" />
		<tag k="operator:type" v="public" />
	</node>
	<node id="-1764" lat="59.48866" lon="10.00783">
		<tag k="amenity" v="kindergarten" />
		<tag k="capacity" v="62" />
		<tag k="max_age" v="5" />
		<tag k="min_age" v="1" />
		<tag k="name" v="Bjørkebakken barnehage" />
		<tag k="no-barnehage:nsrid" v="1020984" />
		<tag k="operator" v="Bjørkebakken Andelslag Sa" />
		<tag k="operator:type" v="private" />
	</node>
</osm>
