<?xml version="1.0" encoding="UTF-8"?>
<osm generator="osmapis" version="0.6">
	<node id="-2303" lat="59.66" lon="9.63723">
		<tag k="amenity" v="kindergarten" />
		<tag k="capacity" v="45" />
		<tag k="contact:email" v="nina.helgesplass@kongsberg.kommune.no" />
		<tag k="contact:phone" v="+47 32764680" />
		<tag k="max_age" v="5" />
		<tag k="min_age" v="1" />
		<tag k="name" v="Venåsløkka barnehage" />
		<tag k="no-barnehage:nsrid" v="1012741" />
		<tag k="operator" v="Kongsberg kommune" />
		<tag k="operator:type" v="public" />
		<tag k="start_date" v="1989-01-01" />
	</node>
	<node id="-2302" lat="59.6579" lon="9.65376">
		<tag k="amenity" v="kindergarten" />
		<tag k="capacity" v="89" />
		<tag k="contact:email" v="trude.abelsen@kongsberg.kommune.no" />
		<tag k="contact:phone" v="+47 32733553" />
		<tag k="max_age" v="5" />
		<tag k="min_age" v="1" />
		<tag k="name" v="Tislegård barnehage" />
		<tag k="no-barnehage:nsrid" v="1012744" />
		<tag k="operator" v="Kongsberg kommune" />
		<tag k="operator:type" v="public" />
		<tag k="start_date" v="1989-01-01" />
	</node>
	<node id="-2301" lat="59.68618" lon="9.637635">
		<tag k="amenity" v="kindergarten" />
		<tag k="capacity" v="77" />
		<tag k="contact:email" v="styrer@stuffen.no" />
		<tag k="contact:phone" v="+47 995 09 316" />
		<tag k="max_age" v="5" />
		<tag k="min_age" v="1" />
		<tag k="name" v="Sølvstuffen barnehage" />
		<tag k="no-barnehage:nsrid" v="1021709" />
		<tag k="operator" v="Sølvstuffen AS" />
		<tag k="operator:type" v="private" />
		<tag k="start_date" v="2007-12-01" />
	</node>
	<node id="-2300" lat="59.6685" lon="9.66053">
		<tag k="amenity" v="kindergarten" />
		<tag k="capacity" v="63" />
		<tag k="contact:email" v="inger.holmen@hbv.no" />
		<tag k="contact:phone" v="+47 032725500" />
		<tag k="max_age" v="5" />
		<tag k="min_age" v="1" />
		<tag k="name" v="Studentsamskipnaden i Sørøst-Norge Sibu Barn Risteigen" />
		<tag k="no-barnehage:nsrid" v="1016645" />
		<tag k="operator" v="Studentsamskipnaden i Sørøst-Norge" />
		<tag k="operator:type" v="private" />
		<tag k="start_date" v="1989-01-02" />
	</node>
	<node id="-2298" lat="59.68056" lon="9.650066">
		<tag k="amenity" v="kindergarten" />
		<tag k="capacity" v="47" />
		<tag k="contact:email" v="post@skytterlokkabarnehage.no" />
		<tag k="contact:phone" v="+47 45 95 60 70" />
		<tag k="contact:website" v="http://www.skytterlokkabarnehage.no" />
		<tag k="max_age" v="5" />
		<tag k="min_age" v="1" />
		<tag k="name" v="Skytterløkka barnehage Sa" />
		<tag k="no-barnehage:nsrid" v="1020009" />
		<tag k="operator" v="Skytterløkka barnehage Sa" />
		<tag k="operator:type" v="private" />
		<tag k="start_date" v="1991-01-01" />
	</node>
	<node id="-2297" lat="59.62751" lon="9.648663">
		<tag k="amenity" v="kindergarten" />
		<tag k="capacity" v="79" />
		<tag k="contact:email" v="post@skrimtrollet.no" />
		<tag k="contact:phone" v="+47 32 76 53 00" />
		<tag k="contact:website" v="http://www.skrimtrollet.barnehage.no" />
		<tag k="max_age" v="5" />
		<tag k="min_age" v="1" />
		<tag k="name" v="Skrimtrollet barnehage Sa" />
		<tag k="no-barnehage:nsrid" v="1021902" />
		<tag k="operator" v="Skrimtrollet barnehage Sa" />
		<tag k="operator:type" v="private" />
		<tag k="start_date" v="2008-11-18" />
	</node>
	<node id="-2296" lat="59.6822" lon="9.63662">
		<tag k="amenity" v="kindergarten" />
		<tag k="capacity" v="41" />
		<tag k="contact:email" v="kaja.nicolaysen@kongsberg.kommune.no" />
		<tag k="contact:phone" v="+47 32732451" />
		<tag k="max_age" v="5" />
		<tag k="min_age" v="1" />
		<tag k="name" v="Skavanger barnehage" />
		<tag k="no-barnehage:nsrid" v="1016025" />
		<tag k="operator" v="Kongsberg kommune" />
		<tag k="operator:type" v="public" />
		<tag k="start_date" v="1989-01-01" />
	</node>
	<node id="-2295" lat="59.60185" lon="9.755977">
		<tag k="amenity" v="kindergarten" />
		<tag k="capacity" v="43" />
		<tag k="contact:email" v="post@sandsvarbhg.no" />
		<tag k="contact:phone" v="+47 32 76 93 20" />
		<tag k="contact:website" v="http://www.sandsvarbarnehage.no" />
		<tag k="max_age" v="5" />
		<tag k="min_age" v="1" />
		<tag k="name" v="Sandsvær barnehage Sa" />
		<tag k="no-barnehage:nsrid" v="1021194" />
		<tag k="operator" v="Sandsvær barnehage Sa" />
		<tag k="operator:type" v="private" />
		<tag k="start_date" v="2005-02-01" />
	</node>
	<node id="-2294" lat="59.62633" lon="9.623683">
		<tag k="amenity" v="kindergarten" />
		<tag k="capacity" v="22" />
		<tag k="contact:email" v="saggrendabarn@yahoo.no" />
		<tag k="contact:phone" v="+47 32 76 57 27" />
		<tag k="max_age" v="5" />
		<tag k="min_age" v="1" />
		<tag k="name" v="Saggrenda barnehage" />
		<tag k="no-barnehage:nsrid" v="1020405" />
		<tag k="operator" v="Saggrenda barnehage" />
		<tag k="operator:type" v="private" />
		<tag k="start_date" v="1989-01-02" />
	</node>
	<node id="-2293" lat="59.601" lon="9.67316">
		<tag k="amenity" v="kindergarten" />
		<tag k="capacity" v="30" />
		<tag k="contact:email" v="karin.barstad@kongsberg.kommune.no" />
		<tag k="contact:phone" v="+47 32731640" />
		<tag k="max_age" v="5" />
		<tag k="min_age" v="1" />
		<tag k="name" v="Rekrutten barnehage" />
		<tag k="no-barnehage:nsrid" v="1014879" />
		<tag k="operator" v="Kongsberg kommune" />
		<tag k="operator:type" v="public" />
		<tag k="start_date" v="1996-01-01" />
	</node>
	<node id="-2292" lat="59.68519" lon="9.645499">
		<tag k="amenity" v="kindergarten" />
		<tag k="capacity" v="55" />
		<tag k="contact:email" v="leder@raumyrbarnehage.no" />
		<tag k="contact:phone" v="+47 32 72 27 42" />
		<tag k="max_age" v="5" />
		<tag k="min_age" v="1" />
		<tag k="name" v="Raumyr barnehage" />
		<tag k="no-barnehage:nsrid" v="1020566" />
		<tag k="operator" v="Raumyr barnehage Sa" />
		<tag k="operator:type" v="private" />
		<tag k="start_date" v="1999-10-31" />
	</node>
	<node id="-2291" lat="59.62582" lon="9.711973">
		<tag k="amenity" v="kindergarten" />
		<tag k="capacity" v="16" />
		<tag k="contact:email" v="post@nyhusgarden.no" />
		<tag k="contact:phone" v="+47 482 79 512" />
		<tag k="contact:website" v="http://www.nyhusgarden.no" />
		<tag k="max_age" v="2" />
		<tag k="min_age" v="1" />
		<tag k="name" v="Nyhusgården Steinerbarnehage Ii AS" />
		<tag k="no-barnehage:nsrid" v="1022043" />
		<tag k="operator" v="Nyhusgården Steinerbarnehage Ii AS" />
		<tag k="operator:type" v="private" />
		<tag k="start_date" v="2010-04-06" />
	</node>
	<node id="-2290" lat="59.63069" lon="9.720179">
		<tag k="amenity" v="kindergarten" />
		<tag k="capacity" v="29" />
		<tag k="contact:email" v="post@nyhusgarden.no" />
		<tag k="contact:phone" v="+47 482 79 512" />
		<tag k="contact:website" v="http://www.nyhusgarden.org" />
		<tag k="max_age" v="5" />
		<tag k="min_age" v="1" />
		<tag k="name" v="Nyhusgården Steinerbarnehage i AS" />
		<tag k="no-barnehage:nsrid" v="1021762" />
		<tag k="operator" v="Nyhusgården Steinerbarnehage i AS" />
		<tag k="operator:type" v="private" />
		<tag k="start_date" v="2000-05-16" />
	</node>
	<node id="-2289" lat="59.6411" lon="9.6626">
		<tag k="amenity" v="kindergarten" />
		<tag k="capacity" v="106" />
		<tag k="contact:email" v="therese@barnehageledelse.no" />
		<tag k="contact:phone" v="+47 32 77 09 90" />
		<tag k="max_age" v="5" />
		<tag k="min_age" v="1" />
		<tag k="name" v="Mormors Have barnehage" />
		<tag k="no-barnehage:nsrid" v="1016290" />
		<tag k="operator" v="Teb Eiendom AS" />
		<tag k="operator:type" v="private" />
		<tag k="start_date" v="2001-06-01" />
	</node>
	<node id="-2288" lat="59.6706" lon="9.6734">
		<tag k="amenity" v="kindergarten" />
		<tag k="capacity" v="78" />
		<tag k="contact:email" v="post@madsebakkenbarnehage.no" />
		<tag k="contact:phone" v="+47 32 72 85 88" />
		<tag k="max_age" v="5" />
		<tag k="min_age" v="1" />
		<tag k="name" v="Madsebakken barnehage" />
		<tag k="no-barnehage:nsrid" v="1016417" />
		<tag k="operator" v="Nakuba AS" />
		<tag k="operator:type" v="private" />
		<tag k="start_date" v="2003-01-01" />
	</node>
	<node id="-2287" lat="59.65823" lon="9.670492">
		<tag k="amenity" v="kindergarten" />
		<tag k="capacity" v="24" />
		<tag k="contact:email" v="bbjerkvik@hotmail.com" />
		<tag k="contact:phone" v="+47 32720550" />
		<tag k="contact:website" v="http://lovasbh.no" />
		<tag k="max_age" v="5" />
		<tag k="min_age" v="1" />
		<tag k="name" v="Løvås barnehage" />
		<tag k="no-barnehage:nsrid" v="1020308" />
		<tag k="operator" v="Åsen Foreldrelag Sa" />
		<tag k="operator:type" v="private" />
		<tag k="start_date" v="1990-01-01" />
	</node>
	<node id="-2286" lat="59.64745" lon="9.659603">
		<tag k="amenity" v="kindergarten" />
		<tag k="capacity" v="10" />
		<tag k="contact:email" v="dl.leik@bhg.no" />
		<tag k="max_age" v="5" />
		<tag k="min_age" v="1" />
		<tag k="name" v="Leik Fus barnehage AS" />
		<tag k="no-barnehage:nsrid" v="1022022" />
		<tag k="operator" v="Leik Fus barnehage AS" />
		<tag k="operator:type" v="private" />
		<tag k="start_date" v="1990-01-01" />
	</node>
	<node id="-2285" lat="59.6589" lon="9.67646">
		<tag k="amenity" v="kindergarten" />
		<tag k="capacity" v="93" />
		<tag k="contact:email" v="britt@barnehageledelse.no" />
		<tag k="max_age" v="5" />
		<tag k="min_age" v="1" />
		<tag k="name" v="Langekjenntunet barnehage" />
		<tag k="no-barnehage:nsrid" v="1017903" />
		<tag k="operator" v="Teb Eiendom AS" />
		<tag k="operator:type" v="private" />
		<tag k="start_date" v="2007-08-01" />
	</node>
	<node id="-2284" lat="59.6584" lon="9.64612">
		<tag k="amenity" v="kindergarten" />
		<tag k="capacity" v="31" />
		<tag k="contact:email" v="liss.hammerborg@kongsberg.kommune.no" />
		<tag k="contact:phone" v="+47 32735445" />
		<tag k="max_age" v="5" />
		<tag k="min_age" v="1" />
		<tag k="name" v="Kragsgate barnehage" />
		<tag k="no-barnehage:nsrid" v="1014880" />
		<tag k="operator" v="Kongsberg kommune" />
		<tag k="operator:type" v="public" />
		<tag k="start_date" v="1996-01-01" />
	</node>
	<node id="-2283" lat="59.67823" lon="9.641463">
		<tag k="amenity" v="kindergarten" />
		<tag k="capacity" v="33" />
		<tag k="contact:email" v="kongsbergmontessori@gmail.com" />
		<tag k="contact:phone" v="+47 32 76 42 53" />
		<tag k="contact:website" v="http://kongsbergmontessoribarnehage.no" />
		<tag k="max_age" v="5" />
		<tag k="min_age" v="1" />
		<tag k="name" v="Kongsberg Montessori barnehage" />
		<tag k="no-barnehage:nsrid" v="1020913" />
		<tag k="operator" v="Kongsberg Montessori barnehage Sa" />
		<tag k="operator:type" v="private" />
		<tag k="start_date" v="2006-11-01" />
	</node>
	<node id="-2282" lat="59.64751" lon="9.659486">
		<tag k="amenity" v="kindergarten" />
		<tag k="name" v="Kongsberg International Preschool Fus AS" />
		<tag k="no-barnehage:nsrid" v="2000010" />
		<tag k="operator" v="Kongsberg International Preschool Fus AS" />
		<tag k="operator:type" v="private" />
		<tag k="start_date" v="2016-05-04" />
	</node>
	<node id="-2281" lat="59.6764" lon="9.642511">
		<tag k="amenity" v="kindergarten" />
		<tag k="capacity" v="18" />
		<tag k="contact:email" v="janne.fiskum@kischool.org" />
		<tag k="max_age" v="5" />
		<tag k="min_age" v="3" />
		<tag k="name" v="Kongsberg International Preschool" />
		<tag k="no-barnehage:nsrid" v="1021924" />
		<tag k="operator" v="Kongsberg International Preschool" />
		<tag k="operator:type" v="private" />
		<tag k="start_date" v="2009-03-04" />
	</node>
	<node id="-2279" lat="59.6833" lon="9.65101">
		<tag k="amenity" v="kindergarten" />
		<tag k="capacity" v="42" />
		<tag k="contact:email" v="kari-loken.thorsen@kongsberg.kommune.no" />
		<tag k="contact:phone" v="+47 48166179" />
		<tag k="contact:website" v="http://www.kongsberg.kommune.no/Tjenester/Oppvekst/Kommunale-barnehager/Kommunale-barnehager/Vibehaugen" />
		<tag k="max_age" v="5" />
		<tag k="min_age" v="1" />
		<tag k="name" v="Kampestadlia barnehage" />
		<tag k="no-barnehage:nsrid" v="1013512" />
		<tag k="operator" v="Kongsberg kommune" />
		<tag k="operator:type" v="public" />
		<tag k="start_date" v="2011-08-01" />
	</node>
	<node id="-2278" lat="59.70317" lon="9.523517">
		<tag k="amenity" v="kindergarten" />
		<tag k="capacity" v="12" />
		<tag k="contact:email" v="JONDALENBARNEHAGE@HOTMAIL.COM" />
		<tag k="contact:phone" v="+47 32 73 12 07" />
		<tag k="max_age" v="5" />
		<tag k="min_age" v="1" />
		<tag k="name" v="Jondalen barnehage" />
		<tag k="no-barnehage:nsrid" v="1019796" />
		<tag k="operator" v="Jondalen barnehage" />
		<tag k="operator:type" v="private" />
		<tag k="start_date" v="1989-01-01" />
	</node>
	<node id="-2277" lat="59.67959" lon="9.628336">
		<tag k="amenity" v="kindergarten" />
		<tag k="capacity" v="61" />
		<tag k="contact:email" v="kaja.nicolaysen@kongsberg.kommune.no" />
		<tag k="max_age" v="5" />
		<tag k="min_age" v="1" />
		<tag k="name" v="Idrettsparken barnehage" />
		<tag k="no-barnehage:nsrid" v="1025700" />
		<tag k="operator" v="Kongsberg kommune" />
		<tag k="operator:type" v="public" />
		<tag k="start_date" v="2015-08-01" />
	</node>
	<node id="-2276" lat="59.6485" lon="9.635007">
		<tag k="amenity" v="kindergarten" />
		<tag k="capacity" v="59" />
		<tag k="contact:email" v="elk@ideakompetanse.no" />
		<tag k="contact:phone" v="+47 35029695" />
		<tag k="max_age" v="5" />
		<tag k="min_age" v="1" />
		<tag k="name" v="Idea Kompetanse AS Avd barnehage Kongsberg" />
		<tag k="no-barnehage:nsrid" v="1014801" />
		<tag k="operator" v="Idea Kompetanse AS" />
		<tag k="operator:type" v="private" />
		<tag k="start_date" v="1993-08-01" />
	</node>
	<node id="-2275" lat="59.4905" lon="10.0116">
		<tag k="amenity" v="kindergarten" />
		<tag k="capacity" v="16" />
		<tag k="contact:email" v="inger-lise.bjerknes@kongsberg.kommune.no" />
		<tag k="contact:phone" v="+47 32768435" />
		<tag k="max_age" v="5" />
		<tag k="min_age" v="1" />
		<tag k="name" v="Hvittingfoss barnehage" />
		<tag k="no-barnehage:nsrid" v="1012742" />
		<tag k="operator" v="Kongsberg kommune" />
		<tag k="operator:type" v="public" />
		<tag k="start_date" v="1989-01-01" />
	</node>
	<node id="-2274" lat="59.6715" lon="9.6872">
		<tag k="amenity" v="kindergarten" />
		<tag k="capacity" v="77" />
		<tag k="contact:email" v="post@hovdeplassenbarnehage.no" />
		<tag k="max_age" v="5" />
		<tag k="min_age" v="1" />
		<tag k="name" v="Hovdeplassen barnehage" />
		<tag k="no-barnehage:nsrid" v="1014272" />
		<tag k="operator" v="Nakuba AS" />
		<tag k="operator:type" v="private" />
		<tag k="start_date" v="2011-01-01" />
	</node>
	<node id="-2273" lat="59.6517" lon="9.66167">
		<tag k="amenity" v="kindergarten" />
		<tag k="capacity" v="63" />
		<tag k="contact:email" v="hanna.sandven@kongsberg.kommune.no" />
		<tag k="contact:phone" v="+47 32 73 48 57" />
		<tag k="max_age" v="5" />
		<tag k="min_age" v="1" />
		<tag k="name" v="Gamlegrendåsen barnehage" />
		<tag k="no-barnehage:nsrid" v="1012743" />
		<tag k="operator" v="Kongsberg kommune" />
		<tag k="operator:type" v="public" />
		<tag k="start_date" v="1989-01-01" />
	</node>
	<node id="-2272" lat="59.67463" lon="9.641886">
		<tag k="amenity" v="kindergarten" />
		<tag k="capacity" v="102" />
		<tag k="contact:email" v="margit@dampsagabhg.no" />
		<tag k="max_age" v="5" />
		<tag k="min_age" v="1" />
		<tag k="name" v="Dampsaga barnehage AS" />
		<tag k="no-barnehage:nsrid" v="1026167" />
		<tag k="operator" v="Dampsaga barnehage AS" />
		<tag k="operator:type" v="private" />
		<tag k="start_date" v="2015-08-01" />
	</node>
	<node id="-2271" lat="59.48866" lon="10.00783">
		<tag k="amenity" v="kindergarten" />
		<tag k="capacity" v="48" />
		<tag k="contact:email" v="post@bjorkebakkenbarnehage.no" />
		<tag k="contact:phone" v="+47 32 72 19 25" />
		<tag k="max_age" v="5" />
		<tag k="min_age" v="1" />
		<tag k="name" v="Bjørkebakken barnehage" />
		<tag k="no-barnehage:nsrid" v="1020984" />
		<tag k="operator" v="Bjørkebakken Andelslag Sa" />
		<tag k="operator:type" v="private" />
		<tag k="start_date" v="2003-11-18" />
	</node>
</osm>
