<?xml version="1.0" encoding="UTF-8"?>
<osm generator="osmapis" version="0.6">
	<node id="-4480" lat="61.7398" lon="6.4233">
		<tag k="amenity" v="kindergarten" />
		<tag k="capacity" v="67" />
		<tag k="contact:email" v="anette.stoyva@gloppen.kommune.no" />
		<tag k="max_age" v="5" />
		<tag k="min_age" v="1" />
		<tag k="name" v="Breim barnehage" />
		<tag k="no-barnehage:nsrid" v="1014174" />
		<tag k="operator" v="Gloppen kommune" />
		<tag k="operator:type" v="public" />
		<tag k="start_date" v="2010-01-01" />
	</node>
	<node id="-4479" lat="61.80537" lon="6.146067">
		<tag k="amenity" v="kindergarten" />
		<tag k="capacity" v="16" />
		<tag k="contact:email" v="bakkelidgrenda.barnehage@yahoo.no" />
		<tag k="contact:phone" v="+47 476 61 220" />
		<tag k="max_age" v="5" />
		<tag k="min_age" v="1" />
		<tag k="name" v="Bakkelidgrenda barnehage Else Lundestad Bakkelid" />
		<tag k="no-barnehage:nsrid" v="1021864" />
		<tag k="operator" v="Bakkelidgrenda barnehage Else Lundestad Bakkelid" />
		<tag k="operator:type" v="private" />
		<tag k="start_date" v="2008-10-01" />
	</node>
	<node id="-4478" lat="61.80537" lon="6.146067">
		<tag k="amenity" v="kindergarten" />
		<tag k="capacity" v="25" />
		<tag k="contact:email" v="gunnsvendsen@gmail.com" />
		<tag k="contact:phone" v="+47 57866220" />
		<tag k="max_age" v="5" />
		<tag k="min_age" v="1" />
		<tag k="name" v="Austrheim barnehage" />
		<tag k="no-barnehage:nsrid" v="1020569" />
		<tag k="operator" v="Stiftinga Austrheim barnehage" />
		<tag k="operator:type" v="private" />
		<tag k="start_date" v="1989-01-02" />
	</node>
	<node id="-4485" lat="61.779" lon="6.12421">
		<tag k="amenity" v="kindergarten" />
		<tag k="capacity" v="29" />
		<tag k="contact:email" v="post@ryggbarnehage.no" />
		<tag k="contact:phone" v="+47 57 86 77 30" />
		<tag k="max_age" v="5" />
		<tag k="min_age" v="1" />
		<tag k="name" v="Rygg barnehage Sa" />
		<tag k="no-barnehage:nsrid" v="1020376" />
		<tag k="operator" v="Rygg barnehage Sa" />
		<tag k="operator:type" v="private" />
		<tag k="start_date" v="1989-01-02" />
	</node>
	<node id="-4484" lat="61.76584" lon="6.207547">
		<tag k="amenity" v="kindergarten" />
		<tag k="capacity" v="23" />
		<tag k="contact:email" v="ragnemari.kandal@enivest.net" />
		<tag k="contact:phone" v="+47 90587216" />
		<tag k="max_age" v="5" />
		<tag k="min_age" v="1" />
		<tag k="name" v="Nygård barnehage AS" />
		<tag k="no-barnehage:nsrid" v="1021952" />
		<tag k="operator" v="Nygård barnehage AS" />
		<tag k="operator:type" v="private" />
		<tag k="start_date" v="2009-06-01" />
	</node>
	<node id="-4483" lat="61.80537" lon="6.146067">
		<tag k="amenity" v="kindergarten" />
		<tag k="capacity" v="32" />
		<tag k="contact:email" v="leiar@nordstrandabarnehage.no" />
		<tag k="max_age" v="5" />
		<tag k="min_age" v="1" />
		<tag k="name" v="Nordstranda barnehage" />
		<tag k="no-barnehage:nsrid" v="1020742" />
		<tag k="operator" v="Nordstranda barnehage" />
		<tag k="operator:type" v="private" />
		<tag k="start_date" v="2001-08-01" />
	</node>
	<node id="-4482" lat="61.7685" lon="6.22661">
		<tag k="amenity" v="kindergarten" />
		<tag k="capacity" v="85" />
		<tag k="contact:email" v="margrete.huus.fjellestad@gloppen.kommune.no" />
		<tag k="max_age" v="5" />
		<tag k="min_age" v="1" />
		<tag k="name" v="Mona barnehage" />
		<tag k="no-barnehage:nsrid" v="1018166" />
		<tag k="operator" v="Gloppen kommune" />
		<tag k="operator:type" v="public" />
		<tag k="start_date" v="1989-01-01" />
	</node>
	<node id="-4481" lat="61.7361" lon="5.91717">
		<tag k="amenity" v="kindergarten" />
		<tag k="capacity" v="12" />
		<tag k="contact:email" v="hyen.barnehage@gloppen.kommune.no" />
		<tag k="max_age" v="5" />
		<tag k="min_age" v="1" />
		<tag k="name" v="Hyen barnehage" />
		<tag k="no-barnehage:nsrid" v="1012516" />
		<tag k="operator" v="Gloppen kommune" />
		<tag k="operator:type" v="public" />
		<tag k="start_date" v="1989-01-01" />
	</node>
</osm>
