<?xml version="1.0" encoding="UTF-8"?>
<osm version="0.6" generator="osmapis">
	<node lat="0.0" lon="0.0" id="-4281">
		<tag k="ADDRESS" v="BRANDSØY, 6900 FLORØ" />
		<tag k="amenity" v="kindergarten" />
		<tag k="capacity" v="26" />
		<tag k="max_age" v="5" />
		<tag k="min_age" v="1" />
		<tag k="name" v="Brandsøy barnehage" />
		<tag k="no-barnehage:nsrid" v="976674286" />
		<tag k="operator" v="Kinn kommune" />
		<tag k="operator:type" v="public" />
	</node>
	<node lat="61.5929" lon="5.03507" id="-4282">
		<tag k="ADDRESS" v="Dalvegen 1, 6906 FLORØ" />
		<tag k="amenity" v="kindergarten" />
		<tag k="capacity" v="26" />
		<tag k="max_age" v="5" />
		<tag k="min_age" v="1" />
		<tag k="name" v="Dalvegen barnehage" />
		<tag k="no-barnehage:nsrid" v="975309266" />
		<tag k="operator" v="Kinn kommune" />
		<tag k="operator:type" v="public" />
	</node>
	<node lat="0.0" lon="0.0" id="-4283">
		<tag k="ADDRESS" v=", 6940 EIKEFJORD" />
		<tag k="amenity" v="kindergarten" />
		<tag k="capacity" v="57" />
		<tag k="max_age" v="5" />
		<tag k="min_age" v="1" />
		<tag k="name" v="Eikefjord barnehage" />
		<tag k="no-barnehage:nsrid" v="975309274" />
		<tag k="operator" v="Kinn kommune" />
		<tag k="operator:type" v="public" />
	</node>
	<node lat="61.6017" lon="5.06893" id="-4284">
		<tag k="ADDRESS" v="Furustien 4, 6907 FLORØ" />
		<tag k="amenity" v="kindergarten" />
		<tag k="capacity" v="63" />
		<tag k="contact:website" v="http://www.furuhaugane.barnehage.no" />
		<tag k="max_age" v="5" />
		<tag k="min_age" v="1" />
		<tag k="name" v="Furuhaugane barnehage" />
		<tag k="no-barnehage:nsrid" v="972398888" />
		<tag k="operator" v="Furuhaugane barnehage SA" />
		<tag k="operator:type" v="private" />
	</node>
	<node lat="61.59879" lon="5.00819" id="-4285">
		<tag k="ADDRESS" v="Porsvegen 11, 6905 FLORØ" />
		<tag k="amenity" v="kindergarten" />
		<tag k="capacity" v="62" />
		<tag k="max_age" v="5" />
		<tag k="min_age" v="1" />
		<tag k="name" v="Havrenes barnehage" />
		<tag k="no-barnehage:nsrid" v="975309282" />
		<tag k="operator" v="Kinn kommune" />
		<tag k="operator:type" v="public" />
	</node>
	<node lat="0.0" lon="0.0" id="-4286">
		<tag k="ADDRESS" v="HOLVIK, 6700 MÅLØY" />
		<tag k="amenity" v="kindergarten" />
		<tag k="capacity" v="48" />
		<tag k="max_age" v="5" />
		<tag k="min_age" v="1" />
		<tag k="name" v="Holvik barnehage" />
		<tag k="no-barnehage:nsrid" v="975309967" />
		<tag k="operator" v="Kinn kommune" />
		<tag k="operator:type" v="public" />
	</node>
	<node lat="0.0" lon="0.0" id="-4287">
		<tag k="ADDRESS" v="Dyreholtvegen, 6907 FLORØ" />
		<tag k="amenity" v="kindergarten" />
		<tag k="capacity" v="65" />
		<tag k="max_age" v="5" />
		<tag k="min_age" v="1" />
		<tag k="name" v="Krokane barnehage" />
		<tag k="no-barnehage:nsrid" v="975309304" />
		<tag k="operator" v="Kinn kommune" />
		<tag k="operator:type" v="public" />
	</node>
	<node lat="0.0" lon="0.0" id="-4288">
		<tag k="ADDRESS" v="EVJEGATA, 6900 FLORØ" />
		<tag k="amenity" v="kindergarten" />
		<tag k="capacity" v="29" />
		<tag k="max_age" v="5" />
		<tag k="min_age" v="1" />
		<tag k="name" v="Nepjarhaugen barnehage" />
		<tag k="no-barnehage:nsrid" v="975309339" />
		<tag k="operator" v="Kinn kommune" />
		<tag k="operator:type" v="public" />
	</node>
	<node lat="0.0" lon="0.0" id="-4289">
		<tag k="ADDRESS" v="Nyheimvegen 8, 6905 FLORØ" />
		<tag k="amenity" v="kindergarten" />
		<tag k="capacity" v="25" />
		<tag k="max_age" v="5" />
		<tag k="min_age" v="1" />
		<tag k="name" v="Nyheimvegen barnehage" />
		<tag k="no-barnehage:nsrid" v="975325482" />
		<tag k="operator" v="Kinn kommune" />
		<tag k="operator:type" v="public" />
	</node>
	<node lat="61.98561" lon="5.13563" id="-4290">
		<tag k="ADDRESS" v="Øvrevegen 148, 6710 RAUDEBERG" />
		<tag k="amenity" v="kindergarten" />
		<tag k="capacity" v="41" />
		<tag k="max_age" v="5" />
		<tag k="min_age" v="1" />
		<tag k="name" v="Skarevik barnehage" />
		<tag k="no-barnehage:nsrid" v="884521262" />
		<tag k="operator" v="Skarevik barnehage SA" />
		<tag k="operator:type" v="private" />
	</node>
	<node lat="61.91857" lon="5.15346" id="-4291">
		<tag k="ADDRESS" v="Nordfjordvegen 9201, 6718 DEKNEPOLLEN" />
		<tag k="amenity" v="kindergarten" />
		<tag k="capacity" v="70" />
		<tag k="max_age" v="5" />
		<tag k="min_age" v="1" />
		<tag k="name" v="Skavøypoll barnehage" />
		<tag k="no-barnehage:nsrid" v="975309975" />
		<tag k="operator" v="Kinn kommune" />
		<tag k="operator:type" v="public" />
	</node>
	<node lat="61.53587" lon="5.18505" id="-4292">
		<tag k="ADDRESS" v="Stavangvegen 47, 6944 STAVANG" />
		<tag k="amenity" v="kindergarten" />
		<tag k="capacity" v="6" />
		<tag k="max_age" v="5" />
		<tag k="min_age" v="1" />
		<tag k="name" v="Stavang barnehage" />
		<tag k="no-barnehage:nsrid" v="976674294" />
		<tag k="operator" v="Kinn kommune" />
		<tag k="operator:type" v="public" />
	</node>
	<node lat="61.59517" lon="5.03965" id="-4293">
		<tag k="ADDRESS" v="Em Holevegen 22, 6906 FLORØ" />
		<tag k="amenity" v="kindergarten" />
		<tag k="capacity" v="66" />
		<tag k="max_age" v="5" />
		<tag k="min_age" v="1" />
		<tag k="name" v="Storevatn barnehage" />
		<tag k="no-barnehage:nsrid" v="975309371" />
		<tag k="operator" v="Kinn kommune" />
		<tag k="operator:type" v="public" />
	</node>
	<node lat="61.58697" lon="5.03092" id="-4294">
		<tag k="ADDRESS" v="Sørstrandvegen 18, 6906 FLORØ" />
		<tag k="amenity" v="kindergarten" />
		<tag k="capacity" v="74" />
		<tag k="max_age" v="5" />
		<tag k="min_age" v="1" />
		<tag k="name" v="Sørstrand Maritime FUS barnehage" />
		<tag k="no-barnehage:nsrid" v="991424806" />
		<tag k="operator" v="Sørstrand Maritime Fus barnehage AS" />
		<tag k="operator:type" v="private" />
	</node>
	<node lat="61.59934" lon="5.07792" id="-4295">
		<tag k="ADDRESS" v="Torvmyra 2, 6908 FLORØ" />
		<tag k="amenity" v="kindergarten" />
		<tag k="capacity" v="69" />
		<tag k="max_age" v="5" />
		<tag k="min_age" v="1" />
		<tag k="name" v="Torvmyrane barnehage" />
		<tag k="no-barnehage:nsrid" v="982384923" />
		<tag k="operator" v="Kinn kommune" />
		<tag k="operator:type" v="public" />
	</node>
	<node lat="0.0" lon="0.0" id="-4296">
		<tag k="ADDRESS" v="Idrettsvegen, 6700 MÅLØY" />
		<tag k="amenity" v="kindergarten" />
		<tag k="capacity" v="80" />
		<tag k="contact:website" v="http://www.trollskogenmaaloy.barnehage.no" />
		<tag k="max_age" v="5" />
		<tag k="min_age" v="1" />
		<tag k="name" v="Trollskogen barnehage" />
		<tag k="no-barnehage:nsrid" v="982271371" />
		<tag k="operator" v="Trollskogen barnehage SA" />
		<tag k="operator:type" v="private" />
	</node>
</osm>
