<?xml version="1.0" encoding="UTF-8"?>
<osm version="0.6" generator="osmapis">
	<node lat="0.0" lon="0.0" id="-5135">
		<tag k="ADDRESS" v="Sandvollanvegen 330, 7670 INDERØY" />
		<tag k="amenity" v="kindergarten" />
		<tag k="capacity" v="22" />
		<tag k="max_age" v="5" />
		<tag k="min_age" v="1" />
		<tag k="name" v="Eventyrskogen naturbarnehage" />
		<tag k="no-barnehage:nsrid" v="989589199" />
		<tag k="operator" v="Eventyrskogen naturbarnehage AS" />
		<tag k="operator:type" v="private" />
	</node>
	<node lat="63.87425" lon="11.29205" id="-5137">
		<tag k="ADDRESS" v="Vennavegen 1B, 7670 INDERØY" />
		<tag k="amenity" v="kindergarten" />
		<tag k="capacity" v="49" />
		<tag k="max_age" v="5" />
		<tag k="min_age" v="1" />
		<tag k="name" v="Kribelin barnehage" />
		<tag k="no-barnehage:nsrid" v="985071969" />
		<tag k="operator" v="Kribelin barnehage AS" />
		<tag k="operator:type" v="private" />
	</node>
	<node lat="63.89664" lon="11.18637" id="-5138">
		<tag k="ADDRESS" v="Vågavegen 415, 7670 INDERØY" />
		<tag k="amenity" v="kindergarten" />
		<tag k="capacity" v="29" />
		<tag k="max_age" v="5" />
		<tag k="min_age" v="1" />
		<tag k="name" v="Lyngstad barnehage" />
		<tag k="no-barnehage:nsrid" v="975324052" />
		<tag k="operator" v="Inderøy kommune" />
		<tag k="operator:type" v="public" />
	</node>
	<node lat="63.81874" lon="11.00576" id="-5140">
		<tag k="ADDRESS" v="Køppenvegen 4, 7690 MOSVIK" />
		<tag k="amenity" v="kindergarten" />
		<tag k="capacity" v="19" />
		<tag k="max_age" v="5" />
		<tag k="min_age" v="1" />
		<tag k="name" v="Mosvik barnehage" />
		<tag k="no-barnehage:nsrid" v="974037149" />
		<tag k="operator" v="Inderøy kommune" />
		<tag k="operator:type" v="public" />
	</node>
	<node lat="63.86227" lon="11.39221" id="-5141">
		<tag k="ADDRESS" v="Torvmyra 15, 7670 INDERØY" />
		<tag k="amenity" v="kindergarten" />
		<tag k="capacity" v="60" />
		<tag k="max_age" v="5" />
		<tag k="min_age" v="1" />
		<tag k="name" v="Røra barnehage" />
		<tag k="no-barnehage:nsrid" v="975312038" />
		<tag k="operator" v="Inderøy kommune" />
		<tag k="operator:type" v="public" />
	</node>
	<node lat="63.87855" lon="11.29099" id="-5142">
		<tag k="ADDRESS" v="Årfallvegen 34, 7670 INDERØY" />
		<tag k="amenity" v="kindergarten" />
		<tag k="capacity" v="75" />
		<tag k="max_age" v="5" />
		<tag k="min_age" v="1" />
		<tag k="name" v="Sakshaug barnehage" />
		<tag k="no-barnehage:nsrid" v="974037971" />
		<tag k="operator" v="Inderøy kommune" />
		<tag k="operator:type" v="public" />
	</node>
	<node lat="63.9496" lon="11.33555" id="-5143">
		<tag k="ADDRESS" v="Skjelbreivegen 15, 7670 INDERØY" />
		<tag k="amenity" v="kindergarten" />
		<tag k="capacity" v="44" />
		<tag k="max_age" v="5" />
		<tag k="min_age" v="1" />
		<tag k="name" v="Sandvollan barnehage" />
		<tag k="no-barnehage:nsrid" v="975317889" />
		<tag k="operator" v="Inderøy kommune" />
		<tag k="operator:type" v="public" />
	</node>
	<node lat="63.86076" lon="11.15476" id="-5144">
		<tag k="ADDRESS" v="Utøyvegen 744, 7670 INDERØY" />
		<tag k="amenity" v="kindergarten" />
		<tag k="capacity" v="26" />
		<tag k="max_age" v="5" />
		<tag k="min_age" v="1" />
		<tag k="name" v="Utøy barnehage" />
		<tag k="no-barnehage:nsrid" v="975320820" />
		<tag k="operator" v="Inderøy kommune" />
		<tag k="operator:type" v="public" />
	</node>
</osm>
