<?xml version="1.0" encoding="UTF-8"?>
<osm generator="osmapis" version="0.6">
	<node id="-2392" lat="60.1803" lon="9.6231">
		<tag k="amenity" v="kindergarten" />
		<tag k="capacity" v="51" />
		<tag k="contact:email" v="kari.kjensmo@krodsherad.kommune.no" />
		<tag k="max_age" v="5" />
		<tag k="min_age" v="1" />
		<tag k="name" v="Noresund barnehage" />
		<tag k="no-barnehage:nsrid" v="1012884" />
		<tag k="operator" v="Krødsherad kommune" />
		<tag k="operator:type" v="public" />
		<tag k="start_date" v="1979-01-18" />
	</node>
	<node id="-2389" lat="60.2468" lon="9.62227">
		<tag k="amenity" v="kindergarten" />
		<tag k="capacity" v="59" />
		<tag k="contact:email" v="ingunn.svartaas@krodsherad.kommune.no" />
		<tag k="max_age" v="5" />
		<tag k="min_age" v="1" />
		<tag k="name" v="Krøderen barnehage" />
		<tag k="no-barnehage:nsrid" v="1016026" />
		<tag k="operator" v="Krødsherad kommune" />
		<tag k="operator:type" v="public" />
		<tag k="start_date" v="1989-01-01" />
	</node>
</osm>
