<?xml version="1.0" encoding="UTF-8"?>
<osm generator="osmapis" version="0.6">
	<node id="-5438" lat="64.8688" lon="11.2363">
		<tag k="amenity" v="kindergarten" />
		<tag k="capacity" v="59" />
		<tag k="contact:email" v="lise.laugen@vikna.kommune.no" />
		<tag k="contact:phone" v="74 39 34 40" />
		<tag k="max_age" v="5" />
		<tag k="min_age" v="1" />
		<tag k="name" v="Tårnet barnehage" />
		<tag k="no-barnehage:nsrid" v="1014967" />
		<tag k="operator" v="Vikna kommune" />
		<tag k="operator:type" v="public" />
		<tag k="start_date" v="1997-01-01" />
	</node>
	<node id="-5437" lat="64.86023" lon="11.21553">
		<tag k="amenity" v="kindergarten" />
		<tag k="capacity" v="37" />
		<tag k="contact:email" v="postmaster@triobarnehager.no" />
		<tag k="contact:phone" v="74 39 23 10" />
		<tag k="max_age" v="5" />
		<tag k="min_age" v="1" />
		<tag k="name" v="Trio Barnehager AS" />
		<tag k="no-barnehage:nsrid" v="1020387" />
		<tag k="operator" v="Trio Barnehager AS" />
		<tag k="operator:type" v="private" />
		<tag k="start_date" v="2005-06-02" />
	</node>
	<node id="-5436" lat="64.8723" lon="11.2351">
		<tag k="amenity" v="kindergarten" />
		<tag k="capacity" v="31" />
		<tag k="max_age" v="5" />
		<tag k="min_age" v="1" />
		<tag k="name" v="Ril barnehage" />
		<tag k="no-barnehage:nsrid" v="1015975" />
		<tag k="operator" v="Rørvik Idrettslag" />
		<tag k="operator:type" v="private" />
		<tag k="start_date" v="1992-01-01" />
	</node>
	<node id="-5435" lat="64.87036" lon="11.24214">
		<tag k="amenity" v="kindergarten" />
		<tag k="capacity" v="34" />
		<tag k="max_age" v="5" />
		<tag k="min_age" v="1" />
		<tag k="name" v="Heimen barnehage AS" />
		<tag k="no-barnehage:nsrid" v="1021645" />
		<tag k="operator" v="Heimen barnehage AS" />
		<tag k="operator:type" v="private" />
		<tag k="start_date" v="2003-01-01" />
	</node>
	<node id="-5434" lat="64.86705" lon="11.23977">
		<tag k="amenity" v="kindergarten" />
		<tag k="capacity" v="31" />
		<tag k="max_age" v="5" />
		<tag k="min_age" v="1" />
		<tag k="name" v="Bikuben Friluftsbarnehage AS" />
		<tag k="no-barnehage:nsrid" v="1021593" />
		<tag k="operator" v="Bikuben Friluftsbarnehage AS" />
		<tag k="operator:type" v="private" />
		<tag k="start_date" v="2007-02-12" />
	</node>
	<node id="-5433" lat="64.8692" lon="11.22898">
		<tag k="amenity" v="kindergarten" />
		<tag k="capacity" v="35" />
		<tag k="contact:email" v="elin.k.k@frisurf.no" />
		<tag k="contact:phone" v="74 36 14 00" />
		<tag k="max_age" v="5" />
		<tag k="min_age" v="1" />
		<tag k="name" v="Bergheim Friluftsbarnehage AS" />
		<tag k="no-barnehage:nsrid" v="1020941" />
		<tag k="operator" v="Bergheim Friluftsbarnehage AS" />
		<tag k="operator:type" v="private" />
		<tag k="start_date" v="2003-07-22" />
	</node>
	<node id="-5432" lat="64.8621" lon="11.2373">
		<tag k="amenity" v="kindergarten" />
		<tag k="capacity" v="24" />
		<tag k="contact:email" v="elin.johansen@vikna.kommune.no" />
		<tag k="max_age" v="5" />
		<tag k="min_age" v="1" />
		<tag k="name" v="Austafjord Oppvekstsenter Avdeling Barnehage" />
		<tag k="no-barnehage:nsrid" v="1013859" />
		<tag k="operator" v="Vikna kommune" />
		<tag k="operator:type" v="public" />
		<tag k="start_date" v="1989-01-02" />
	</node>
</osm>
