<?xml version="1.0" encoding="UTF-8"?>
<osm version="0.6" generator="osmapis">
	<node lat="60.25696" lon="11.04604" id="-2573">
		<tag k="ADDRESS" v="Dvergspettvegen 13, 2032 MAURA" />
		<tag k="amenity" v="kindergarten" />
		<tag k="capacity" v="73" />
		<tag k="max_age" v="5" />
		<tag k="min_age" v="1" />
		<tag k="name" v="Bjerke barnehage" />
		<tag k="no-barnehage:nsrid" v="875302132" />
		<tag k="operator" v="Nannestad kommune" />
		<tag k="operator:type" v="public" />
	</node>
	<node lat="60.24787" lon="11.02063" id="-2574">
		<tag k="ADDRESS" v="Gamle Dalsveg 3, 2032 MAURA" />
		<tag k="amenity" v="kindergarten" />
		<tag k="capacity" v="85" />
		<tag k="max_age" v="5" />
		<tag k="min_age" v="1" />
		<tag k="name" v="Breenenga FUS barnehage" />
		<tag k="no-barnehage:nsrid" v="987381035" />
		<tag k="operator" v="Breenenga Fus barnehage AS" />
		<tag k="operator:type" v="private" />
	</node>
	<node lat="60.13517" lon="11.01437" id="-2575">
		<tag k="ADDRESS" v="Øyungsvegen 10, 2034 HOLTER" />
		<tag k="amenity" v="kindergarten" />
		<tag k="capacity" v="120" />
		<tag k="contact:website" v="http://www.nannestad.kommune.no/holterbarnehage" />
		<tag k="max_age" v="5" />
		<tag k="min_age" v="1" />
		<tag k="name" v="Holter barnehage" />
		<tag k="no-barnehage:nsrid" v="975302148" />
		<tag k="operator" v="Nannestad kommune" />
		<tag k="operator:type" v="public" />
	</node>
	<node lat="60.20953" lon="10.94645" id="-2576">
		<tag k="ADDRESS" v="Fåmyrsrøet 14, 2030 NANNESTAD" />
		<tag k="amenity" v="kindergarten" />
		<tag k="capacity" v="11" />
		<tag k="max_age" v="5" />
		<tag k="min_age" v="1" />
		<tag k="name" v="Lykkeliten naturbarnehage Lise Granås" />
		<tag k="no-barnehage:nsrid" v="985323852" />
		<tag k="operator" v="Lykkeliten naturbarnehage V/Lise Granås" />
		<tag k="operator:type" v="private" />
	</node>
	<node lat="60.26147" lon="11.02937" id="-2577">
		<tag k="ADDRESS" v="Rosenfinkringen 8, 2032 MAURA" />
		<tag k="amenity" v="kindergarten" />
		<tag k="capacity" v="76" />
		<tag k="contact:website" v="http://laringsverkstedet.no/barnehage/maura" />
		<tag k="max_age" v="5" />
		<tag k="min_age" v="1" />
		<tag k="name" v="Læringsverkstedet Maura barnehage" />
		<tag k="no-barnehage:nsrid" v="992782765" />
		<tag k="operator" v="Læringsverkstedet Maura barnehage AS" />
		<tag k="operator:type" v="private" />
	</node>
	<node lat="60.14462" lon="11.03709" id="-2578">
		<tag k="ADDRESS" v="Vestlykkja 60, 2034 HOLTER" />
		<tag k="amenity" v="kindergarten" />
		<tag k="capacity" v="21" />
		<tag k="contact:website" v="http://lokka.barnehage.no" />
		<tag k="max_age" v="5" />
		<tag k="min_age" v="1" />
		<tag k="name" v="Løkka barnehage" />
		<tag k="no-barnehage:nsrid" v="987811412" />
		<tag k="operator" v="Løkka barnehage AS" />
		<tag k="operator:type" v="private" />
	</node>
	<node lat="60.22318" lon="11.0171" id="-2579">
		<tag k="ADDRESS" v="Prestmosvegen 3, 2030 NANNESTAD" />
		<tag k="amenity" v="kindergarten" />
		<tag k="capacity" v="112" />
		<tag k="max_age" v="5" />
		<tag k="min_age" v="1" />
		<tag k="name" v="Midtbygda barnehage" />
		<tag k="no-barnehage:nsrid" v="975302156" />
		<tag k="operator" v="Nannestad kommune" />
		<tag k="operator:type" v="public" />
	</node>
	<node lat="60.13205" lon="11.01336" id="-2580">
		<tag k="ADDRESS" v="Willy Moes veg 4, 2034 HOLTER" />
		<tag k="amenity" v="kindergarten" />
		<tag k="capacity" v="83" />
		<tag k="contact:website" v="http://www.eltonasen.norlandiabarnehagene.no" />
		<tag k="max_age" v="5" />
		<tag k="min_age" v="1" />
		<tag k="name" v="Norlandia Eltonåsen friluftsbarnehage" />
		<tag k="no-barnehage:nsrid" v="984914571" />
		<tag k="operator" v="Norlandia Eltonåsen barnehage AS" />
		<tag k="operator:type" v="private" />
	</node>
	<node lat="60.22926" lon="11.0267" id="-2581">
		<tag k="ADDRESS" v="Prestmosvegen 30, 2030 NANNESTAD" />
		<tag k="amenity" v="kindergarten" />
		<tag k="capacity" v="86" />
		<tag k="contact:website" v="http://fus.no/prestmosen" />
		<tag k="max_age" v="5" />
		<tag k="min_age" v="1" />
		<tag k="name" v="Prestmosen FUS barnehage" />
		<tag k="no-barnehage:nsrid" v="989305425" />
		<tag k="operator" v="Prestmosen Fus barnehage AS" />
		<tag k="operator:type" v="private" />
	</node>
	<node lat="60.25112" lon="11.02589" id="-2582">
		<tag k="ADDRESS" v="Skogduevegen 33, 2032 MAURA" />
		<tag k="amenity" v="kindergarten" />
		<tag k="capacity" v="66" />
		<tag k="contact:website" v="http://www.solheim.barnehage.no" />
		<tag k="max_age" v="5" />
		<tag k="min_age" v="1" />
		<tag k="name" v="Solheim barnehage Al" />
		<tag k="no-barnehage:nsrid" v="973501151" />
		<tag k="operator" v="Solheim barnehage SA" />
		<tag k="operator:type" v="private" />
	</node>
	<node lat="60.16477" lon="10.9932" id="-2583">
		<tag k="ADDRESS" v="Ramstaddammen 1, 2033 ÅSGREINA" />
		<tag k="amenity" v="kindergarten" />
		<tag k="capacity" v="131" />
		<tag k="max_age" v="5" />
		<tag k="min_age" v="1" />
		<tag k="name" v="Åsgreina barnehage" />
		<tag k="no-barnehage:nsrid" v="988532754" />
		<tag k="operator" v="Nannestad kommune" />
		<tag k="operator:type" v="public" />
	</node>
</osm>
