<?xml version="1.0" encoding="UTF-8"?>
<osm generator="osmapis" version="0.6">
	<node id="-3134" lat="60.15453" lon="11.18628">
		<tag k="ADDRESS" v="Tiurkroken 2, 2069 JESSHEIM" />
		<tag k="amenity" v="kindergarten" />
		<tag k="capacity" v="50" />
		<tag k="max_age" v="5" />
		<tag k="min_age" v="1" />
		<tag k="name" v="Tiurkroken barnehage" />
		<tag k="no-barnehage:nsrid" v="1016014" />
		<tag k="operator" v="Ullensaker kommune" />
		<tag k="operator:type" v="public" />
	</node>
	<node id="-3133" lat="60.15866" lon="11.17968">
		<tag k="ADDRESS" v="Krusesvingen 12, 2068 JESSHEIM" />
		<tag k="amenity" v="kindergarten" />
		<tag k="capacity" v="80" />
		<tag k="max_age" v="5" />
		<tag k="min_age" v="1" />
		<tag k="name" v="Sørholtet andelsbarnehage" />
		<tag k="no-barnehage:nsrid" v="1020717" />
		<tag k="operator" v="Sørholtet Andelslag Sa" />
		<tag k="operator:type" v="private" />
	</node>
	<node id="-3132" lat="60.07738" lon="11.14368">
		<tag k="ADDRESS" v="Kongsvingervegen 10, 2040 KLØFTA" />
		<tag k="amenity" v="kindergarten" />
		<tag k="capacity" v="17" />
		<tag k="max_age" v="5" />
		<tag k="min_age" v="1" />
		<tag k="name" v="Soria Moria barnehage" />
		<tag k="no-barnehage:nsrid" v="1020353" />
		<tag k="operator" v="Stiftelsen Soria Moria barnehage" />
		<tag k="operator:type" v="private" />
	</node>
	<node id="-3126" lat="60.08246" lon="11.13766">
		<tag k="ADDRESS" v="Handelsvegen 4, 2040 KLØFTA" />
		<tag k="amenity" v="kindergarten" />
		<tag k="capacity" v="62" />
		<tag k="max_age" v="5" />
		<tag k="min_age" v="1" />
		<tag k="name" v="Olstadmoen barnehage" />
		<tag k="no-barnehage:nsrid" v="1020995" />
		<tag k="operator" v="Olstadmoen barnehage Sa" />
		<tag k="operator:type" v="private" />
	</node>
	<node id="-3125" lat="60.14055" lon="11.16111">
		<tag k="ADDRESS" v="Langbråten 50, 2063 JESSHEIM" />
		<tag k="amenity" v="kindergarten" />
		<tag k="capacity" v="71" />
		<tag k="max_age" v="5" />
		<tag k="min_age" v="1" />
		<tag k="name" v="Norlandia Romsaas barnehage" />
		<tag k="no-barnehage:nsrid" v="1016433" />
		<tag k="operator" v="Norlandia Barnehagene AS" />
		<tag k="operator:type" v="private" />
	</node>
	<node id="-3124" lat="60.15974" lon="11.18661">
		<tag k="ADDRESS" v="Oppløpssiden 3, 2069 JESSHEIM" />
		<tag k="amenity" v="kindergarten" />
		<tag k="capacity" v="57" />
		<tag k="contact:website" v="http://nordbyhagen.norlandiabarnehagene.no" />
		<tag k="max_age" v="5" />
		<tag k="min_age" v="1" />
		<tag k="name" v="Norlandia Nordbyhagen barnehage" />
		<tag k="no-barnehage:nsrid" v="1013116" />
		<tag k="operator" v="Norlandia Barnehagene AS" />
		<tag k="operator:type" v="private" />
	</node>
	<node id="-3123" lat="60.22943" lon="11.16697">
		<tag k="ADDRESS" v="Løvenbergvegen 2, 2054 MOGREINA" />
		<tag k="amenity" v="kindergarten" />
		<tag k="capacity" v="112" />
		<tag k="max_age" v="5" />
		<tag k="min_age" v="1" />
		<tag k="name" v="Norlandia Mogreina barnehage" />
		<tag k="no-barnehage:nsrid" v="1016398" />
		<tag k="operator" v="Norlandia Barnehagene AS" />
		<tag k="operator:type" v="private" />
	</node>
	<node id="-3122" lat="60.15397" lon="11.17902">
		<tag k="ADDRESS" v="Nordbyvegen 15, 2069 JESSHEIM" />
		<tag k="amenity" v="kindergarten" />
		<tag k="capacity" v="64" />
		<tag k="max_age" v="5" />
		<tag k="min_age" v="1" />
		<tag k="name" v="Nordby barnehage" />
		<tag k="no-barnehage:nsrid" v="1017326" />
		<tag k="operator" v="Ullensaker kommune" />
		<tag k="operator:type" v="public" />
	</node>
	<node id="-3121" lat="60.07126" lon="11.13096">
		<tag k="ADDRESS" v="Reisoppvegen 9, 2040 KLØFTA" />
		<tag k="amenity" v="kindergarten" />
		<tag k="capacity" v="120" />
		<tag k="contact:website" v="http://www.mamia.no" />
		<tag k="max_age" v="5" />
		<tag k="min_age" v="1" />
		<tag k="name" v="Mamma Mia barnehage" />
		<tag k="no-barnehage:nsrid" v="1021782" />
		<tag k="operator" v="Mamma Mia barnehage AS" />
		<tag k="operator:type" v="private" />
	</node>
	<node id="-3120" lat="60.1613" lon="11.13526">
		<tag k="ADDRESS" v="Vilbergvegen 54, 2067 JESSHEIM" />
		<tag k="amenity" v="kindergarten" />
		<tag k="capacity" v="24" />
		<tag k="contact:website" v="http://www.laringsverkstedet.no/olalokka" />
		<tag k="max_age" v="5" />
		<tag k="min_age" v="1" />
		<tag k="name" v="Læringsverkstedet barnehage avd. Olaløkka" />
		<tag k="no-barnehage:nsrid" v="1015471" />
		<tag k="operator" v="Læringsverkstedet AS" />
		<tag k="operator:type" v="private" />
	</node>
	<node id="-3119" lat="60.13825" lon="11.16797">
		<tag k="ADDRESS" v="Verkensvegen 16, 2050 JESSHEIM" />
		<tag k="amenity" v="kindergarten" />
		<tag k="capacity" v="40" />
		<tag k="contact:website" v="http://www.laringsverkstedet.no/verkensveien" />
		<tag k="max_age" v="5" />
		<tag k="min_age" v="1" />
		<tag k="name" v="Læringsverkstedet barnehage avd. Verkensveien" />
		<tag k="no-barnehage:nsrid" v="1016985" />
		<tag k="operator" v="Læringsverkstedet AS" />
		<tag k="operator:type" v="private" />
	</node>
	<node id="-3118" lat="60.14038" lon="11.1995">
		<tag k="ADDRESS" v="Løkkavegen 1, 2052 JESSHEIM" />
		<tag k="amenity" v="kindergarten" />
		<tag k="capacity" v="137" />
		<tag k="contact:website" v="http://www.laringsverkstedet.no/skogmo" />
		<tag k="max_age" v="5" />
		<tag k="min_age" v="1" />
		<tag k="name" v="Læringsverkstedet barnehage avd. Skogmo" />
		<tag k="no-barnehage:nsrid" v="1017187" />
		<tag k="operator" v="Læringsverkstedet AS" />
		<tag k="operator:type" v="private" />
	</node>
	<node id="-3117" lat="60.15018" lon="11.12698">
		<tag k="ADDRESS" v="Nedre Solhellinga 2, 2067 JESSHEIM" />
		<tag k="amenity" v="kindergarten" />
		<tag k="capacity" v="78" />
		<tag k="contact:website" v="http://www.laringsverkstedet.no/solhellinga" />
		<tag k="max_age" v="5" />
		<tag k="min_age" v="1" />
		<tag k="name" v="Læringsverkstedet barnehage avd. Solhellinga" />
		<tag k="no-barnehage:nsrid" v="1017855" />
		<tag k="operator" v="Læringsverkstedet AS" />
		<tag k="operator:type" v="private" />
	</node>
	<node id="-3116" lat="60.153" lon="11.18993">
		<tag k="ADDRESS" v="Aktivitetsvegen 2, 2069 JESSHEIM" />
		<tag k="amenity" v="kindergarten" />
		<tag k="capacity" v="79" />
		<tag k="max_age" v="5" />
		<tag k="min_age" v="1" />
		<tag k="name" v="Læringsverkstedet barnehage avd. Gystadmarka" />
		<tag k="no-barnehage:nsrid" v="1015119" />
		<tag k="operator" v="Læringsverkstedet AS" />
		<tag k="operator:type" v="private" />
	</node>
	<node id="-3115" lat="60.09868" lon="11.22164">
		<tag k="ADDRESS" v="Dugnadsvegen 9, 2040 KLØFTA" />
		<tag k="amenity" v="kindergarten" />
		<tag k="capacity" v="78" />
		<tag k="contact:website" v="http://www.laringsverkstedet.no/borgen" />
		<tag k="max_age" v="5" />
		<tag k="min_age" v="1" />
		<tag k="name" v="Læringsverkstedet barnehage avd. Borgen" />
		<tag k="no-barnehage:nsrid" v="1015115" />
		<tag k="operator" v="Læringsverkstedet AS" />
		<tag k="operator:type" v="private" />
	</node>
	<node id="-3114" lat="60.13772" lon="11.22376">
		<tag k="ADDRESS" v="Lysåsvegen 2, 2052 JESSHEIM" />
		<tag k="amenity" v="kindergarten" />
		<tag k="capacity" v="122" />
		<tag k="contact:website" v="http://www.laringsverkstedet.no/ekornrud" />
		<tag k="max_age" v="5" />
		<tag k="min_age" v="1" />
		<tag k="name" v="Læringsverkstedet barnehage avd. Ekornrud" />
		<tag k="no-barnehage:nsrid" v="1018418" />
		<tag k="operator" v="Læringsverkstedet AS" />
		<tag k="operator:type" v="private" />
	</node>
	<node id="-3113" lat="60.16273" lon="11.18943">
		<tag k="ADDRESS" v="Rugdevegen 89, 2069 JESSHEIM" />
		<tag k="amenity" v="kindergarten" />
		<tag k="capacity" v="76" />
		<tag k="contact:website" v="http://www.laringsverkstedet.no/nordbymoen" />
		<tag k="max_age" v="5" />
		<tag k="min_age" v="1" />
		<tag k="name" v="Læringsverkstedet barnehage avd. Nordbymoen" />
		<tag k="no-barnehage:nsrid" v="1018417" />
		<tag k="operator" v="Læringsverkstedet AS" />
		<tag k="operator:type" v="private" />
	</node>
	<node id="-3112" lat="60.15067" lon="11.15266">
		<tag k="ADDRESS" v="Kverndalsvegen 10, 2067 JESSHEIM" />
		<tag k="amenity" v="kindergarten" />
		<tag k="capacity" v="18" />
		<tag k="max_age" v="5" />
		<tag k="min_age" v="1" />
		<tag k="name" v="Kverndalen barnehage" />
		<tag k="no-barnehage:nsrid" v="1018600" />
		<tag k="operator" v="Ulna AS" />
		<tag k="operator:type" v="private" />
	</node>
	<node id="-3111" lat="60.07161" lon="11.12412">
		<tag k="ADDRESS" v="Gamlevegen 35, 2040 KLØFTA" />
		<tag k="amenity" v="kindergarten" />
		<tag k="capacity" v="34" />
		<tag k="max_age" v="5" />
		<tag k="min_age" v="1" />
		<tag k="name" v="Kløftahallen barnehage" />
		<tag k="no-barnehage:nsrid" v="1017885" />
		<tag k="operator" v="Ullensaker kommune" />
		<tag k="operator:type" v="public" />
	</node>
	<node id="-3110" lat="60.07738" lon="11.14168">
		<tag k="ADDRESS" v="Holmsmoen 9, 2040 KLØFTA" />
		<tag k="amenity" v="kindergarten" />
		<tag k="capacity" v="48" />
		<tag k="max_age" v="5" />
		<tag k="min_age" v="1" />
		<tag k="name" v="Kløfta barnehage" />
		<tag k="no-barnehage:nsrid" v="1016919" />
		<tag k="operator" v="Ullensaker kommune" />
		<tag k="operator:type" v="public" />
	</node>
	<node id="-3109" lat="60.1447" lon="11.17519">
		<tag k="ADDRESS" v="Rådhusvegen 5, 2066 JESSHEIM" />
		<tag k="amenity" v="kindergarten" />
		<tag k="name" v="Jessheim åpen barnehage" />
		<tag k="no-barnehage:nsrid" v="1020407" />
		<tag k="operator" v="Hovin Sokn" />
		<tag k="operator:type" v="private" />
	</node>
	<node id="-3108" lat="60.1447" lon="11.16558">
		<tag k="ADDRESS" v="Gardermovegen 17c, 2050 JESSHEIM" />
		<tag k="amenity" v="kindergarten" />
		<tag k="capacity" v="74" />
		<tag k="max_age" v="5" />
		<tag k="min_age" v="1" />
		<tag k="name" v="Jessheim barnehage" />
		<tag k="no-barnehage:nsrid" v="1025406" />
		<tag k="operator" v="Ullensaker kommune" />
		<tag k="operator:type" v="public" />
	</node>
	<node id="-3107" lat="60.15228" lon="11.18266">
		<tag k="ADDRESS" v="Industrivegen 34, 2069 JESSHEIM" />
		<tag k="amenity" v="kindergarten" />
		<tag k="capacity" v="112" />
		<tag k="max_age" v="5" />
		<tag k="min_age" v="1" />
		<tag k="name" v="Hoppenspretthallen" />
		<tag k="no-barnehage:nsrid" v="1021617" />
		<tag k="operator" v="Hoppenspretthallen AS" />
		<tag k="operator:type" v="private" />
	</node>
	<node id="-3106" lat="60.06968" lon="11.13541">
		<tag k="ADDRESS" v="Bakkevegen 1, 2040 KLØFTA" />
		<tag k="amenity" v="kindergarten" />
		<tag k="capacity" v="48" />
		<tag k="contact:website" v="http://hoppensprett.no" />
		<tag k="max_age" v="5" />
		<tag k="min_age" v="1" />
		<tag k="name" v="Hoppensprett avd. Solbakken" />
		<tag k="no-barnehage:nsrid" v="1017701" />
		<tag k="operator" v="Hoppensprett AS" />
		<tag k="operator:type" v="private" />
	</node>
	<node id="-3105" lat="60.13723" lon="11.19504">
		<tag k="ADDRESS" v="Skogmovegen 10, 2053 JESSHEIM" />
		<tag k="amenity" v="kindergarten" />
		<tag k="capacity" v="85" />
		<tag k="max_age" v="5" />
		<tag k="min_age" v="1" />
		<tag k="name" v="Hoppensprett avd. Skogmo" />
		<tag k="no-barnehage:nsrid" v="1017071" />
		<tag k="operator" v="Hoppensprett AS" />
		<tag k="operator:type" v="private" />
	</node>
	<node id="-3104" lat="60.18887" lon="11.26355">
		<tag k="ADDRESS" v="Storvegen 34, 2055 NORDKISA" />
		<tag k="amenity" v="kindergarten" />
		<tag k="capacity" v="78" />
		<tag k="max_age" v="5" />
		<tag k="min_age" v="1" />
		<tag k="name" v="Hoppensprett avd. Nordkisa" />
		<tag k="no-barnehage:nsrid" v="1013034" />
		<tag k="operator" v="Hoppensprett AS" />
		<tag k="operator:type" v="private" />
	</node>
	<node id="-3103" lat="60.14166" lon="11.21335">
		<tag k="ADDRESS" v="Helga Holms Veg 9, 2052 JESSHEIM" />
		<tag k="amenity" v="kindergarten" />
		<tag k="capacity" v="60" />
		<tag k="max_age" v="5" />
		<tag k="min_age" v="1" />
		<tag k="name" v="Hoppensprett avd. Gystad" />
		<tag k="no-barnehage:nsrid" v="1016546" />
		<tag k="operator" v="Hoppensprett AS" />
		<tag k="operator:type" v="private" />
	</node>
	<node id="-3102" lat="60.18658" lon="11.19908">
		<tag k="ADDRESS" v="Hauerseterkvartalet 21, 2055 NORDKISA" />
		<tag k="amenity" v="kindergarten" />
		<tag k="capacity" v="31" />
		<tag k="max_age" v="5" />
		<tag k="min_age" v="1" />
		<tag k="name" v="Hauerseter friluftsbarnehage" />
		<tag k="no-barnehage:nsrid" v="1016975" />
		<tag k="operator" v="Ulna AS" />
		<tag k="operator:type" v="private" />
	</node>
	<node id="-3099" lat="60.13557" lon="11.20562">
		<tag k="ADDRESS" v="Hestehovstien, 2052 JESSHEIM" />
		<tag k="amenity" v="kindergarten" />
		<tag k="capacity" v="43" />
		<tag k="max_age" v="5" />
		<tag k="min_age" v="1" />
		<tag k="name" v="Fladbyseter barnehage" />
		<tag k="no-barnehage:nsrid" v="1014873" />
		<tag k="operator" v="Ullensaker kommune" />
		<tag k="operator:type" v="public" />
	</node>
	<node id="-3097" lat="60.13775" lon="11.16778">
		<tag k="ADDRESS" v="Veslevegen 5, 2050 JESSHEIM" />
		<tag k="amenity" v="kindergarten" />
		<tag k="capacity" v="52" />
		<tag k="contact:website" v="http://www.dolibarnehage.no" />
		<tag k="max_age" v="5" />
		<tag k="min_age" v="1" />
		<tag k="name" v="Døli barnehage" />
		<tag k="no-barnehage:nsrid" v="1019891" />
		<tag k="operator" v="Døli barnehage Sa" />
		<tag k="operator:type" v="private" />
	</node>
	<node id="-3095" lat="60.10088" lon="11.2193">
		<tag k="ADDRESS" v="Fredrik Borgens Veg 1, 2040 KLØFTA" />
		<tag k="amenity" v="kindergarten" />
		<tag k="capacity" v="65" />
		<tag k="max_age" v="5" />
		<tag k="min_age" v="1" />
		<tag k="name" v="Borgen FUS barnehage" />
		<tag k="no-barnehage:nsrid" v="1021129" />
		<tag k="operator" v="Borgen Fus barnehage AS" />
		<tag k="operator:type" v="private" />
	</node>
	<node id="-3092" lat="60.06823" lon="11.13147">
		<tag k="ADDRESS" v="Skolevegen 12, 2040 KLØFTA" />
		<tag k="amenity" v="kindergarten" />
		<tag k="capacity" v="60" />
		<tag k="max_age" v="5" />
		<tag k="min_age" v="1" />
		<tag k="name" v="Bakkedalen FUS barnehage" />
		<tag k="no-barnehage:nsrid" v="1020555" />
		<tag k="operator" v="Bakkedalen Fus barnehage AS" />
		<tag k="operator:type" v="private" />
	</node>
	<node id="-3091" lat="60.0691" lon="11.13658">
		<tag k="ADDRESS" v="Bakkestien 6, 2040 KLØFTA" />
		<tag k="amenity" v="kindergarten" />
		<tag k="capacity" v="61" />
		<tag k="max_age" v="5" />
		<tag k="min_age" v="1" />
		<tag k="name" v="Bakke barnehage" />
		<tag k="no-barnehage:nsrid" v="1017386" />
		<tag k="operator" v="Ullensaker kommune" />
		<tag k="operator:type" v="public" />
	</node>
	<node id="-3090" lat="60.13958" lon="11.22029">
		<tag k="ADDRESS" v="Gamleveien 103, 2040 KLØFTA" />
		<tag k="amenity" v="kindergarten" />
		<tag k="capacity" v="53" />
		<tag k="max_age" v="5" />
		<tag k="min_age" v="1" />
		<tag k="name" v="Alvheim barnehage" />
		<tag k="no-barnehage:nsrid" v="1013257" />
		<tag k="operator" v="Ulna AS" />
		<tag k="operator:type" v="private" />
	</node>
</osm>
