<?xml version="1.0" encoding="UTF-8"?>
<osm version="0.6" generator="osmapis">
	<node lat="0.0" lon="0.0" id="-3916">
		<tag k="ADDRESS" v="Andabeløy, 4434 ANDABELØY" />
		<tag k="amenity" v="kindergarten" />
		<tag k="name" v="Andabeløy åpne barnehage" />
		<tag k="no-barnehage:nsrid" v="896427792" />
		<tag k="operator" v="Andabeløy Velforening" />
		<tag k="operator:type" v="private" />
	</node>
	<node lat="58.28891" lon="6.66329" id="-3917">
		<tag k="ADDRESS" v="Grønnes 11, 4407 FLEKKEFJORD" />
		<tag k="amenity" v="kindergarten" />
		<tag k="capacity" v="60" />
		<tag k="contact:website" v="http://www.gronnesbarnehage.no" />
		<tag k="max_age" v="5" />
		<tag k="min_age" v="1" />
		<tag k="name" v="Grønnes barnehage" />
		<tag k="no-barnehage:nsrid" v="973458809" />
		<tag k="operator" v="Grønnes barnehage SA" />
		<tag k="operator:type" v="private" />
	</node>
	<node lat="0.0" lon="0.0" id="-3918">
		<tag k="ADDRESS" v="Gyland, 4436 GYLAND" />
		<tag k="amenity" v="kindergarten" />
		<tag k="capacity" v="18" />
		<tag k="max_age" v="5" />
		<tag k="min_age" v="1" />
		<tag k="name" v="Gyland barnehage" />
		<tag k="no-barnehage:nsrid" v="973842021" />
		<tag k="operator" v="Flekkefjord kommune" />
		<tag k="operator:type" v="public" />
	</node>
	<node lat="0.0" lon="0.0" id="-3919">
		<tag k="ADDRESS" v="Aagenes, 4432 HIDRASUND" />
		<tag k="amenity" v="kindergarten" />
		<tag k="capacity" v="31" />
		<tag k="max_age" v="5" />
		<tag k="min_age" v="1" />
		<tag k="name" v="Hidra barnehage" />
		<tag k="no-barnehage:nsrid" v="974614251" />
		<tag k="operator" v="Flekkefjord kommune" />
		<tag k="operator:type" v="public" />
	</node>
	<node lat="58.29658" lon="6.64747" id="-3920">
		<tag k="ADDRESS" v="Tjørsvågveien 15, 4404 FLEKKEFJORD" />
		<tag k="amenity" v="kindergarten" />
		<tag k="capacity" v="81" />
		<tag k="max_age" v="5" />
		<tag k="min_age" v="1" />
		<tag k="name" v="Kringlatoppen barnehage" />
		<tag k="no-barnehage:nsrid" v="973842013" />
		<tag k="operator" v="Flekkefjord kommune" />
		<tag k="operator:type" v="public" />
	</node>
	<node lat="58.30009" lon="6.63692" id="-3921">
		<tag k="ADDRESS" v="Søylandsveien 124, 4404 FLEKKEFJORD" />
		<tag k="amenity" v="kindergarten" />
		<tag k="capacity" v="49" />
		<tag k="contact:website" v="http://www.litledalen.barnehage.no" />
		<tag k="max_age" v="5" />
		<tag k="min_age" v="1" />
		<tag k="name" v="Litledalen barnehage" />
		<tag k="no-barnehage:nsrid" v="973483471" />
		<tag k="operator" v="Litledalen barnehage SA" />
		<tag k="operator:type" v="private" />
	</node>
	<node lat="0.0" lon="0.0" id="-3922">
		<tag k="ADDRESS" v="Glendrange, 4400 FLEKKEFJORD" />
		<tag k="amenity" v="kindergarten" />
		<tag k="capacity" v="26" />
		<tag k="contact:website" v="http://laringsverkstedet.no/barnehage/læringsverkstedet-glendrange" />
		<tag k="max_age" v="5" />
		<tag k="min_age" v="1" />
		<tag k="name" v="Læringsverkstedet barnehage avd. Glendrange barnehage" />
		<tag k="no-barnehage:nsrid" v="973644653" />
		<tag k="operator" v="Læringsverkstedet AS" />
		<tag k="operator:type" v="private" />
	</node>
	<node lat="58.28414" lon="6.67423" id="-3923">
		<tag k="ADDRESS" v="Snerthammerveien 15, 4407 FLEKKEFJORD" />
		<tag k="amenity" v="kindergarten" />
		<tag k="capacity" v="64" />
		<tag k="max_age" v="5" />
		<tag k="min_age" v="1" />
		<tag k="name" v="Rauli barnehage" />
		<tag k="no-barnehage:nsrid" v="974614235" />
		<tag k="operator" v="Flekkefjord kommune" />
		<tag k="operator:type" v="public" />
	</node>
	<node lat="58.29512" lon="6.66493" id="-3924">
		<tag k="ADDRESS" v="Bernhard Hanssens gate 5, 4405 FLEKKEFJORD" />
		<tag k="amenity" v="kindergarten" />
		<tag k="capacity" v="62" />
		<tag k="max_age" v="5" />
		<tag k="min_age" v="1" />
		<tag k="name" v="Sentrum barnehage" />
		<tag k="no-barnehage:nsrid" v="974614243" />
		<tag k="operator" v="Flekkefjord kommune" />
		<tag k="operator:type" v="public" />
	</node>
	<node lat="58.41568" lon="6.66025" id="-3925">
		<tag k="ADDRESS" v="Sirnesvegen 124, 4438 SIRA" />
		<tag k="amenity" v="kindergarten" />
		<tag k="capacity" v="36" />
		<tag k="max_age" v="5" />
		<tag k="min_age" v="1" />
		<tag k="name" v="Sira barnehage" />
		<tag k="no-barnehage:nsrid" v="874614262" />
		<tag k="operator" v="Flekkefjord kommune" />
		<tag k="operator:type" v="public" />
	</node>
</osm>
