<?xml version="1.0" encoding="UTF-8"?>
<osm version="0.6" generator="osmapis">
	<node lat="0.0" lon="0.0" id="-1280">
		<tag k="ADDRESS" v=", 6216 GEIRANGER" />
		<tag k="amenity" v="kindergarten" />
		<tag k="capacity" v="8" />
		<tag k="max_age" v="5" />
		<tag k="min_age" v="1" />
		<tag k="name" v="Geiranger barnehage" />
		<tag k="no-barnehage:nsrid" v="975315517" />
		<tag k="operator" v="Stranda kommune" />
		<tag k="operator:type" v="public" />
	</node>
	<node lat="0.0" lon="0.0" id="-1281">
		<tag k="ADDRESS" v=", 6200 STRANDA" />
		<tag k="amenity" v="kindergarten" />
		<tag k="capacity" v="33" />
		<tag k="max_age" v="5" />
		<tag k="min_age" v="1" />
		<tag k="name" v="Helstad barnehage" />
		<tag k="no-barnehage:nsrid" v="976675827" />
		<tag k="operator" v="Stranda kommune" />
		<tag k="operator:type" v="public" />
	</node>
	<node lat="0.0" lon="0.0" id="-1282">
		<tag k="ADDRESS" v="HEVSDALSVEIEN, 6200 STRANDA" />
		<tag k="amenity" v="kindergarten" />
		<tag k="capacity" v="59" />
		<tag k="max_age" v="5" />
		<tag k="min_age" v="1" />
		<tag k="name" v="Ringstad barnehage" />
		<tag k="no-barnehage:nsrid" v="875297392" />
		<tag k="operator" v="Stranda kommune" />
		<tag k="operator:type" v="public" />
	</node>
	<node lat="62.08988" lon="6.85677" id="-1283">
		<tag k="ADDRESS" v="Ringdalsvegen 21, 6218 HELLESYLT" />
		<tag k="amenity" v="kindergarten" />
		<tag k="capacity" v="30" />
		<tag k="max_age" v="5" />
		<tag k="min_age" v="1" />
		<tag k="name" v="Sunnylven barnehage" />
		<tag k="no-barnehage:nsrid" v="975310523" />
		<tag k="operator" v="Stranda kommune" />
		<tag k="operator:type" v="public" />
	</node>
	<node lat="62.29724" lon="6.90302" id="-1284">
		<tag k="ADDRESS" v="Dalevegen 165, 6200 STRANDA" />
		<tag k="amenity" v="kindergarten" />
		<tag k="capacity" v="18" />
		<tag k="max_age" v="5" />
		<tag k="min_age" v="1" />
		<tag k="name" v="Trollhaugen barnehage Stranda" />
		<tag k="no-barnehage:nsrid" v="973502697" />
		<tag k="operator" v="Trollhaugen barnehage Stranda SA" />
		<tag k="operator:type" v="private" />
	</node>
	<node lat="62.30845" lon="6.90704" id="-1285">
		<tag k="ADDRESS" v="Tegane 24, 6200 STRANDA" />
		<tag k="amenity" v="kindergarten" />
		<tag k="capacity" v="46" />
		<tag k="contact:website" v="http://www.tusenfrydbarnehage.no" />
		<tag k="max_age" v="5" />
		<tag k="min_age" v="1" />
		<tag k="name" v="Tusenfryd barnehage Stranda" />
		<tag k="no-barnehage:nsrid" v="976343859" />
		<tag k="operator" v="Tusenfryd barnehage Stranda SA" />
		<tag k="operator:type" v="private" />
	</node>
</osm>
