<?xml version="1.0" encoding="UTF-8"?>
<osm version="0.6" generator="osmapis">
	<node lat="60.98747" lon="9.24585" id="-3289">
		<tag k="ADDRESS" v="Øvrevegen 15, 2900 FAGERNES" />
		<tag k="amenity" v="kindergarten" />
		<tag k="capacity" v="59" />
		<tag k="max_age" v="5" />
		<tag k="min_age" v="1" />
		<tag k="name" v="Fagernes barnehage" />
		<tag k="no-barnehage:nsrid" v="975303993" />
		<tag k="operator" v="Nord-Aurdal kommune" />
		<tag k="operator:type" v="public" />
	</node>
	<node lat="60.9695" lon="9.30295" id="-3290">
		<tag k="ADDRESS" v="Sylvsmedvegen 27, 2920 LEIRA I VALDRES" />
		<tag k="amenity" v="kindergarten" />
		<tag k="capacity" v="27" />
		<tag k="max_age" v="5" />
		<tag k="min_age" v="1" />
		<tag k="name" v="Leira barnehage" />
		<tag k="no-barnehage:nsrid" v="975304000" />
		<tag k="operator" v="Nord-Aurdal kommune" />
		<tag k="operator:type" v="public" />
	</node>
	<node lat="60.99599" lon="9.24495" id="-3291">
		<tag k="ADDRESS" v="Raneisvegen 365, 2900 FAGERNES" />
		<tag k="amenity" v="kindergarten" />
		<tag k="capacity" v="24" />
		<tag k="max_age" v="5" />
		<tag k="min_age" v="1" />
		<tag k="name" v="Ranheim naturbarnehage" />
		<tag k="no-barnehage:nsrid" v="995714868" />
		<tag k="operator" v="Ranheim naturbarnehage SA" />
		<tag k="operator:type" v="private" />
	</node>
	<node lat="61.03275" lon="9.20665" id="-3292">
		<tag k="ADDRESS" v="Skogstadvegen 16, 2917 SKRAUTVÅL" />
		<tag k="amenity" v="kindergarten" />
		<tag k="capacity" v="48" />
		<tag k="max_age" v="5" />
		<tag k="min_age" v="1" />
		<tag k="name" v="Skrautvål barnehage" />
		<tag k="no-barnehage:nsrid" v="975304019" />
		<tag k="operator" v="Nord-Aurdal kommune" />
		<tag k="operator:type" v="public" />
	</node>
	<node lat="60.99862" lon="9.10145" id="-3293">
		<tag k="ADDRESS" v="Panoramavegen 89, 2918 ULNES" />
		<tag k="amenity" v="kindergarten" />
		<tag k="capacity" v="34" />
		<tag k="max_age" v="5" />
		<tag k="min_age" v="1" />
		<tag k="name" v="Ulnes barnehage" />
		<tag k="no-barnehage:nsrid" v="975314537" />
		<tag k="operator" v="Nord-Aurdal kommune" />
		<tag k="operator:type" v="public" />
	</node>
	<node lat="60.93019" lon="9.32642" id="-3294">
		<tag k="ADDRESS" v="Vestringslinna 630, 2910 AURDAL" />
		<tag k="amenity" v="kindergarten" />
		<tag k="capacity" v="65" />
		<tag k="max_age" v="5" />
		<tag k="min_age" v="1" />
		<tag k="name" v="Vestringsbygda barnehage" />
		<tag k="no-barnehage:nsrid" v="975203999" />
		<tag k="operator" v="Nord-Aurdal kommune" />
		<tag k="operator:type" v="public" />
	</node>
</osm>
