<?xml version="1.0" encoding="UTF-8"?>
<osm generator="osmapis" version="0.6">
	<node id="-2950" lat="59.4254" lon="8.18085">
		<tag k="amenity" v="kindergarten" />
		<tag k="capacity" v="7" />
		<tag k="contact:email" v="andrea.lid.stromme@tokke.kommune.no" />
		<tag k="contact:phone" v="+47 35 07 67 01" />
		<tag k="max_age" v="5" />
		<tag k="min_age" v="1" />
		<tag k="name" v="Høydalsmo barnehage Lårdal" />
		<tag k="no-barnehage:nsrid" v="1015723" />
		<tag k="operator" v="Tokke kommune" />
		<tag k="operator:type" v="public" />
		<tag k="start_date" v="1999-01-01" />
	</node>
	<node id="-2949" lat="59.498" lon="8.1946">
		<tag k="amenity" v="kindergarten" />
		<tag k="capacity" v="20" />
		<tag k="contact:email" v="andrea.lid.stromme@tokke.kommune.no" />
		<tag k="contact:phone" v="+47 035076231" />
		<tag k="max_age" v="5" />
		<tag k="min_age" v="1" />
		<tag k="name" v="Høydalsmo barnehage" />
		<tag k="no-barnehage:nsrid" v="1016651" />
		<tag k="operator" v="Tokke kommune" />
		<tag k="operator:type" v="public" />
		<tag k="start_date" v="1989-01-01" />
	</node>
	<node id="-2948" lat="59.3772" lon="8.03642">
		<tag k="amenity" v="kindergarten" />
		<tag k="capacity" v="16" />
		<tag k="contact:email" v="dagny.skjelbreid@tokke.kommune.no" />
		<tag k="contact:phone" v="+47 35 07 93 50" />
		<tag k="max_age" v="5" />
		<tag k="min_age" v="1" />
		<tag k="name" v="Dalen barnehage Åmdals Verk" />
		<tag k="no-barnehage:nsrid" v="1015714" />
		<tag k="operator" v="Tokke kommune" />
		<tag k="operator:type" v="public" />
		<tag k="start_date" v="1999-01-01" />
	</node>
	<node id="-2947" lat="59.44474" lon="8.011686">
		<tag k="amenity" v="kindergarten" />
		<tag k="capacity" v="61" />
		<tag k="contact:email" v="dagny.skjelbreid@tokke.kommune.no" />
		<tag k="contact:phone" v="+47 035075200" />
		<tag k="max_age" v="5" />
		<tag k="min_age" v="1" />
		<tag k="name" v="Dalen barnehage" />
		<tag k="no-barnehage:nsrid" v="1016650" />
		<tag k="operator" v="Tokke kommune" />
		<tag k="operator:type" v="public" />
		<tag k="start_date" v="1976-12-24" />
	</node>
</osm>
