<?xml version="1.0" encoding="UTF-8"?>
<osm generator="osmapis" version="0.6">
	<node id="-1464" lat="0.0" lon="0.0">
		<tag k="ADDRESS" v=", 5614 ÅLVIK" />
		<tag k="amenity" v="kindergarten" />
		<tag k="capacity" v="21" />
		<tag k="max_age" v="5" />
		<tag k="min_age" v="1" />
		<tag k="name" v="Ålvik barnehage" />
		<tag k="no-barnehage:nsrid" v="1019528" />
		<tag k="operator" v="Kvam kommune" />
		<tag k="operator:type" v="public" />
	</node>
	<node id="-1463" lat="60.37801" lon="6.19526">
		<tag k="ADDRESS" v="Vavollen 137, 5610 ØYSTESE" />
		<tag k="amenity" v="kindergarten" />
		<tag k="capacity" v="159" />
		<tag k="contact:website" v="http://øystesebarnehage.no" />
		<tag k="max_age" v="5" />
		<tag k="min_age" v="1" />
		<tag k="name" v="Øystese barnehage" />
		<tag k="no-barnehage:nsrid" v="1016095" />
		<tag k="operator" v="Kvam kommune" />
		<tag k="operator:type" v="public" />
	</node>
	<node id="-1462" lat="60.30407" lon="6.16234">
		<tag k="ADDRESS" v="Tørvikbygdvegen 343, 5620 TØRVIKBYGD" />
		<tag k="amenity" v="kindergarten" />
		<tag k="capacity" v="24" />
		<tag k="max_age" v="5" />
		<tag k="min_age" v="1" />
		<tag k="name" v="Tørvikbygd barnehage" />
		<tag k="no-barnehage:nsrid" v="1013429" />
		<tag k="operator" v="Kvam kommune" />
		<tag k="operator:type" v="public" />
	</node>
	<node id="-1461" lat="0.0" lon="0.0">
		<tag k="ADDRESS" v="Tangerås, 5630 STRANDEBARM" />
		<tag k="amenity" v="kindergarten" />
		<tag k="capacity" v="49" />
		<tag k="max_age" v="5" />
		<tag k="min_age" v="1" />
		<tag k="name" v="Strandebarm barnehage" />
		<tag k="no-barnehage:nsrid" v="1016094" />
		<tag k="operator" v="Kvam kommune" />
		<tag k="operator:type" v="public" />
	</node>
	<node id="-1460" lat="60.3704" lon="6.13736">
		<tag k="ADDRESS" v="Gamle Dalavegen 38, 5600 NORHEIMSUND" />
		<tag k="amenity" v="kindergarten" />
		<tag k="capacity" v="87" />
		<tag k="max_age" v="5" />
		<tag k="min_age" v="1" />
		<tag k="name" v="Sandven FUS barnehage" />
		<tag k="no-barnehage:nsrid" v="1021768" />
		<tag k="operator" v="Sandven Fus barnehage AS" />
		<tag k="operator:type" v="private" />
	</node>
	<node id="-1459" lat="60.36911" lon="6.14336">
		<tag k="ADDRESS" v="Kyrkjevegen 30, 5600 NORHEIMSUND" />
		<tag k="amenity" v="kindergarten" />
		<tag k="capacity" v="92" />
		<tag k="max_age" v="5" />
		<tag k="min_age" v="1" />
		<tag k="name" v="Norheimsund barnehage" />
		<tag k="no-barnehage:nsrid" v="1015534" />
		<tag k="operator" v="Kvam kommune" />
		<tag k="operator:type" v="public" />
	</node>
</osm>
