<?xml version="1.0" encoding="UTF-8"?>
<osm version="0.6" generator="osmapis">
	<node lat="59.59524" lon="10.74743" id="-2376">
		<tag k="ADDRESS" v="Garderveien 77, 1540 VESTBY" />
		<tag k="amenity" v="kindergarten" />
		<tag k="capacity" v="38" />
		<tag k="contact:website" v="http://www.vestbynaturbarnehage.no" />
		<tag k="max_age" v="5" />
		<tag k="min_age" v="1" />
		<tag k="name" v="Barnas Sundbytoppen" />
		<tag k="no-barnehage:nsrid" v="990664005" />
		<tag k="operator" v="Barnas Sundbytoppen AS" />
		<tag k="operator:type" v="private" />
	</node>
	<node lat="59.61631" lon="10.78835" id="-2377">
		<tag k="ADDRESS" v="Kroerveien 300, 1544 VESTBY" />
		<tag k="amenity" v="kindergarten" />
		<tag k="capacity" v="42" />
		<tag k="contact:website" v="http://www.vestbynaturbarnehage.no" />
		<tag k="max_age" v="5" />
		<tag k="min_age" v="1" />
		<tag k="name" v="Barnehagegården Vestby naturbarnehage" />
		<tag k="no-barnehage:nsrid" v="981974816" />
		<tag k="operator" v="Barnehagegården Vestby naturbarnehage AS" />
		<tag k="operator:type" v="private" />
	</node>
	<node lat="59.52572" lon="10.69788" id="-2378">
		<tag k="ADDRESS" v="Strømbråtenveien 20, 1553 SON" />
		<tag k="amenity" v="kindergarten" />
		<tag k="capacity" v="32" />
		<tag k="contact:website" v="http://www.vestbynaturbarnehage.no" />
		<tag k="max_age" v="5" />
		<tag k="min_age" v="1" />
		<tag k="name" v="Bjørkekollen barnehage" />
		<tag k="no-barnehage:nsrid" v="989759345" />
		<tag k="operator" v="Bjørkekollen barnehage AS" />
		<tag k="operator:type" v="private" />
	</node>
	<node lat="59.52126" lon="10.70212" id="-2379">
		<tag k="ADDRESS" v="Husjordveien 5, 1553 SON" />
		<tag k="amenity" v="kindergarten" />
		<tag k="capacity" v="60" />
		<tag k="max_age" v="5" />
		<tag k="min_age" v="1" />
		<tag k="name" v="Deør barnehage" />
		<tag k="no-barnehage:nsrid" v="975301109" />
		<tag k="operator" v="Vestby kommune" />
		<tag k="operator:type" v="public" />
	</node>
	<node lat="59.58129" lon="10.80782" id="-2380">
		<tag k="ADDRESS" v="Garderveien 649, 1544 VESTBY" />
		<tag k="amenity" v="kindergarten" />
		<tag k="capacity" v="31" />
		<tag k="max_age" v="5" />
		<tag k="min_age" v="1" />
		<tag k="name" v="Garder barnehage" />
		<tag k="no-barnehage:nsrid" v="973594656" />
		<tag k="operator" v="Garder barnehage" />
		<tag k="operator:type" v="private" />
	</node>
	<node lat="59.51676" lon="10.69999" id="-2381">
		<tag k="ADDRESS" v="Sonsveien 51, 1553 SON" />
		<tag k="amenity" v="kindergarten" />
		<tag k="capacity" v="81" />
		<tag k="max_age" v="5" />
		<tag k="min_age" v="1" />
		<tag k="name" v="Grevlingen barnehage" />
		<tag k="no-barnehage:nsrid" v="990065144" />
		<tag k="operator" v="Vestby kommune" />
		<tag k="operator:type" v="public" />
	</node>
	<node lat="59.61294" lon="10.74645" id="-2382">
		<tag k="ADDRESS" v="Randemfaret 15, 1543 VESTBY" />
		<tag k="amenity" v="kindergarten" />
		<tag k="capacity" v="41" />
		<tag k="max_age" v="5" />
		<tag k="min_age" v="1" />
		<tag k="name" v="Hjertehagen" />
		<tag k="no-barnehage:nsrid" v="911717395" />
		<tag k="operator" v="Hjertehagen AS" />
		<tag k="operator:type" v="private" />
	</node>
	<node lat="0.0" lon="0.0" id="-2383">
		<tag k="ADDRESS" v="Grendehuset Thomas Olsens vei 32, 1545 HVITSTEN" />
		<tag k="amenity" v="kindergarten" />
		<tag k="capacity" v="21" />
		<tag k="contact:website" v="http://www.hvitsten.barnehageside.no/" />
		<tag k="max_age" v="5" />
		<tag k="min_age" v="1" />
		<tag k="name" v="Hvitsten naturbarnehage" />
		<tag k="no-barnehage:nsrid" v="974102226" />
		<tag k="operator" v="Hvitsten naturbarnehage SA" />
		<tag k="operator:type" v="private" />
	</node>
	<node lat="59.54213" lon="10.74241" id="-2384">
		<tag k="ADDRESS" v="Noras hage 17, 1550 HØLEN" />
		<tag k="amenity" v="kindergarten" />
		<tag k="capacity" v="69" />
		<tag k="max_age" v="5" />
		<tag k="min_age" v="1" />
		<tag k="name" v="Hølen FUS barnehage" />
		<tag k="no-barnehage:nsrid" v="995994259" />
		<tag k="operator" v="Hølen Fus barnehage AS" />
		<tag k="operator:type" v="private" />
	</node>
	<node lat="59.5928" lon="10.71089" id="-2385">
		<tag k="ADDRESS" v="Johnsrudveien 11, 1542 VESTBY" />
		<tag k="amenity" v="kindergarten" />
		<tag k="capacity" v="9" />
		<tag k="contact:website" v="http://www.vestbynaturbarnehage.no" />
		<tag k="max_age" v="5" />
		<tag k="min_age" v="1" />
		<tag k="name" v="Johnsrudhuset barnehage" />
		<tag k="no-barnehage:nsrid" v="973469096" />
		<tag k="operator" v="Johnsrudhuset barnehage AS" />
		<tag k="operator:type" v="private" />
	</node>
	<node lat="59.6037" lon="10.70829" id="-2387">
		<tag k="ADDRESS" v="Skolemesterens vei 3, 1542 VESTBY" />
		<tag k="amenity" v="kindergarten" />
		<tag k="capacity" v="89" />
		<tag k="max_age" v="5" />
		<tag k="min_age" v="1" />
		<tag k="name" v="Pepperstadmarka barnehage" />
		<tag k="no-barnehage:nsrid" v="975301656" />
		<tag k="operator" v="Vestby kommune" />
		<tag k="operator:type" v="public" />
	</node>
	<node lat="59.59687" lon="10.71056" id="-2388">
		<tag k="ADDRESS" v="Risilveien 60, 1542 VESTBY" />
		<tag k="amenity" v="kindergarten" />
		<tag k="capacity" v="83" />
		<tag k="max_age" v="5" />
		<tag k="min_age" v="1" />
		<tag k="name" v="Risil barnehage" />
		<tag k="no-barnehage:nsrid" v="993033898" />
		<tag k="operator" v="Vestby kommune" />
		<tag k="operator:type" v="public" />
	</node>
	<node lat="59.61924" lon="10.71249" id="-2389">
		<tag k="ADDRESS" v="Drøbakveien 80, 1542 VESTBY" />
		<tag k="amenity" v="kindergarten" />
		<tag k="capacity" v="51" />
		<tag k="contact:website" v="http://barnehagenett.no" />
		<tag k="max_age" v="5" />
		<tag k="min_age" v="1" />
		<tag k="name" v="Skaug barnehage" />
		<tag k="no-barnehage:nsrid" v="987549912" />
		<tag k="operator" v="Skaug barnehage AS" />
		<tag k="operator:type" v="private" />
	</node>
	<node lat="59.60121" lon="10.75819" id="-2390">
		<tag k="ADDRESS" v="Balders vei 2, 1540 VESTBY" />
		<tag k="amenity" v="kindergarten" />
		<tag k="capacity" v="61" />
		<tag k="max_age" v="5" />
		<tag k="min_age" v="1" />
		<tag k="name" v="Sole Skog barnehage" />
		<tag k="no-barnehage:nsrid" v="873512962" />
		<tag k="operator" v="Vestby Stiftelsesbarnehager" />
		<tag k="operator:type" v="private" />
	</node>
	<node lat="59.59494" lon="10.75817" id="-2391">
		<tag k="ADDRESS" v="Solerunden 11, 1540 VESTBY" />
		<tag k="amenity" v="kindergarten" />
		<tag k="capacity" v="68" />
		<tag k="max_age" v="5" />
		<tag k="min_age" v="1" />
		<tag k="name" v="Solerunden barnehage" />
		<tag k="no-barnehage:nsrid" v="975301095" />
		<tag k="operator" v="Vestby kommune" />
		<tag k="operator:type" v="public" />
	</node>
	<node lat="59.50562" lon="10.68874" id="-2392">
		<tag k="ADDRESS" v="Falkeveien 25, 1554 SON" />
		<tag k="amenity" v="kindergarten" />
		<tag k="capacity" v="86" />
		<tag k="max_age" v="5" />
		<tag k="min_age" v="1" />
		<tag k="name" v="Solåsen FUS barnehage" />
		<tag k="no-barnehage:nsrid" v="994441116" />
		<tag k="operator" v="Solåsen Fus barnehage AS" />
		<tag k="operator:type" v="private" />
	</node>
	<node lat="59.50469" lon="10.69194" id="-2393">
		<tag k="ADDRESS" v="Myrsnipeveien 5, 1554 SON" />
		<tag k="amenity" v="kindergarten" />
		<tag k="capacity" v="66" />
		<tag k="max_age" v="5" />
		<tag k="min_age" v="1" />
		<tag k="name" v="Store Brevik barnehage" />
		<tag k="no-barnehage:nsrid" v="875211382" />
		<tag k="operator" v="Vestby Stiftelsesbarnehager" />
		<tag k="operator:type" v="private" />
	</node>
	<node lat="59.50469" lon="10.69194" id="-2394">
		<tag k="ADDRESS" v="Myrsnipeveien 5, 1554 SON" />
		<tag k="amenity" v="kindergarten" />
		<tag k="name" v="Store Brevik barnehage" />
		<tag k="no-barnehage:nsrid" v="932792257" />
		<tag k="operator" v="Store Brevik barnehage AS" />
		<tag k="operator:type" v="private" />
	</node>
	<node lat="0.0" lon="0.0" id="-2395">
		<tag k="ADDRESS" v="Støttumveien 9, 1543 VESTBY" />
		<tag k="amenity" v="kindergarten" />
		<tag k="capacity" v="57" />
		<tag k="max_age" v="5" />
		<tag k="min_age" v="1" />
		<tag k="name" v="Støttumveien barnehage" />
		<tag k="no-barnehage:nsrid" v="986170820" />
		<tag k="operator" v="Vestby kommune" />
		<tag k="operator:type" v="public" />
	</node>
	<node lat="59.59932" lon="10.75641" id="-2396">
		<tag k="ADDRESS" v="Odins vei 33, 1540 VESTBY" />
		<tag k="amenity" v="kindergarten" />
		<tag k="capacity" v="60" />
		<tag k="max_age" v="5" />
		<tag k="min_age" v="1" />
		<tag k="name" v="Østbydammen barnehage" />
		<tag k="no-barnehage:nsrid" v="989753908" />
		<tag k="operator" v="Vestby kommune" />
		<tag k="operator:type" v="public" />
	</node>
	<node lat="59.51147" lon="10.69147" id="-2397">
		<tag k="ADDRESS" v="Granittveien 1, 1555 SON" />
		<tag k="amenity" v="kindergarten" />
		<tag k="capacity" v="59" />
		<tag k="max_age" v="5" />
		<tag k="min_age" v="1" />
		<tag k="name" v="Øståsen barnehage" />
		<tag k="no-barnehage:nsrid" v="984709269" />
		<tag k="operator" v="Vestby kommune" />
		<tag k="operator:type" v="public" />
	</node>
</osm>
