<?xml version="1.0" encoding="UTF-8"?>
<osm generator="osmapis" version="0.6">
	<node id="-1973" lat="62.4989" lon="11.2388">
		<tag k="amenity" v="kindergarten" />
		<tag k="capacity" v="18" />
		<tag k="max_age" v="2" />
		<tag k="min_age" v="1" />
		<tag k="name" v="Sundmoen barnehage" />
		<tag k="no-barnehage:nsrid" v="1013595" />
		<tag k="operator" v="Os kommune" />
		<tag k="operator:type" v="public" />
		<tag k="start_date" v="2013-09-01" />
	</node>
	<node id="-1972" lat="62.4932" lon="11.2188">
		<tag k="amenity" v="kindergarten" />
		<tag k="capacity" v="39" />
		<tag k="contact:email" v="postmottak@os.kommune.no" />
		<tag k="contact:phone" v="62 47 04 30" />
		<tag k="max_age" v="5" />
		<tag k="min_age" v="1" />
		<tag k="name" v="Os Kommunale barnehage" />
		<tag k="no-barnehage:nsrid" v="1017600" />
		<tag k="operator" v="Os kommune" />
		<tag k="operator:type" v="public" />
		<tag k="start_date" v="1988-04-01" />
	</node>
	<node id="-1971" lat="62.49648" lon="11.22326">
		<tag k="amenity" v="kindergarten" />
		<tag k="capacity" v="18" />
		<tag k="contact:phone" v="62 49 80 12" />
		<tag k="max_age" v="5" />
		<tag k="min_age" v="3" />
		<tag k="name" v="Dalsbygda barnehage" />
		<tag k="no-barnehage:nsrid" v="1017599" />
		<tag k="operator" v="Os kommune" />
		<tag k="operator:type" v="public" />
		<tag k="start_date" v="1988-04-01" />
	</node>
</osm>
