<?xml version="1.0" encoding="UTF-8"?>
<osm generator="osmapis" version="0.6">
	<node id="-1166" lat="62.73882" lon="7.14343">
		<tag k="ADDRESS" v="Bekkevollvegen 8B, 6412 MOLDE" />
		<tag k="amenity" v="kindergarten" />
		<tag k="capacity" v="70" />
		<tag k="contact:website" v="http://www.molde.kommune.no/hjem.399075.no.html" />
		<tag k="max_age" v="5" />
		<tag k="min_age" v="1" />
		<tag k="name" v="Barnas Hus barnehage" />
		<tag k="no-barnehage:nsrid" v="975290905" />
		<tag k="operator" v="Molde kommune" />
		<tag k="operator:type" v="public" />
	</node>
	<node id="-1167" lat="62.73763" lon="7.11793">
		<tag k="ADDRESS" v="Bjørnstjerne Bjørnsons veg 117, 6410 MOLDE" />
		<tag k="amenity" v="kindergarten" />
		<tag k="capacity" v="33" />
		<tag k="max_age" v="5" />
		<tag k="min_age" v="1" />
		<tag k="name" v="Bjørset barnehage" />
		<tag k="no-barnehage:nsrid" v="973383531" />
		<tag k="operator" v="Molde Indremisjon" />
		<tag k="operator:type" v="private" />
	</node>
	<node id="-1168" lat="0.0" lon="0.0">
		<tag k="ADDRESS" v=", 6460 EIDSVÅG I ROMSDAL" />
		<tag k="amenity" v="kindergarten" />
		<tag k="capacity" v="71" />
		<tag k="max_age" v="5" />
		<tag k="min_age" v="1" />
		<tag k="name" v="Eidsvåg barnehage" />
		<tag k="no-barnehage:nsrid" v="975310620" />
		<tag k="operator" v="Molde kommune" />
		<tag k="operator:type" v="public" />
	</node>
	<node id="-1169" lat="0.0" lon="0.0">
		<tag k="ADDRESS" v="Frisvollhagen, 6470 ERESFJORD" />
		<tag k="amenity" v="kindergarten" />
		<tag k="capacity" v="20" />
		<tag k="max_age" v="5" />
		<tag k="min_age" v="1" />
		<tag k="name" v="Eresfjord barnehage" />
		<tag k="no-barnehage:nsrid" v="975310639" />
		<tag k="operator" v="Molde kommune" />
		<tag k="operator:type" v="public" />
	</node>
	<node id="-1170" lat="62.75434" lon="7.2914">
		<tag k="ADDRESS" v="Årølivegen 47, 6421 MOLDE" />
		<tag k="amenity" v="kindergarten" />
		<tag k="capacity" v="107" />
		<tag k="contact:website" v="http://www.arolia.espira.no" />
		<tag k="max_age" v="5" />
		<tag k="min_age" v="1" />
		<tag k="name" v="Espira Årølia barnehage" />
		<tag k="no-barnehage:nsrid" v="997466152" />
		<tag k="operator" v="Espira barnehager AS" />
		<tag k="operator:type" v="private" />
	</node>
	<node id="-1171" lat="0.0" lon="0.0">
		<tag k="ADDRESS" v="Eidsøra, 6460 EIDSVÅG I ROMSDAL" />
		<tag k="amenity" v="kindergarten" />
		<tag k="capacity" v="23" />
		<tag k="max_age" v="5" />
		<tag k="min_age" v="1" />
		<tag k="name" v="Farmen friluftsbarnehage" />
		<tag k="no-barnehage:nsrid" v="993487902" />
		<tag k="operator" v="Farmen friluftsbarnehage AS" />
		<tag k="operator:type" v="private" />
	</node>
	<node id="-1172" lat="0.0" lon="0.0">
		<tag k="ADDRESS" v=", 6475 MIDSUND" />
		<tag k="amenity" v="kindergarten" />
		<tag k="capacity" v="53" />
		<tag k="max_age" v="5" />
		<tag k="min_age" v="1" />
		<tag k="name" v="Gjerdet barnehage" />
		<tag k="no-barnehage:nsrid" v="975310671" />
		<tag k="operator" v="Molde kommune" />
		<tag k="operator:type" v="public" />
	</node>
	<node id="-1173" lat="62.74503" lon="7.15797">
		<tag k="ADDRESS" v="Hatlehaugvegen 1, 6414 MOLDE" />
		<tag k="amenity" v="kindergarten" />
		<tag k="capacity" v="89" />
		<tag k="contact:website" v="http://www.molde.kommune.no/hjem.405929.no.html" />
		<tag k="max_age" v="5" />
		<tag k="min_age" v="1" />
		<tag k="name" v="Hatlelia barnehage" />
		<tag k="no-barnehage:nsrid" v="875295322" />
		<tag k="operator" v="Molde kommune" />
		<tag k="operator:type" v="public" />
	</node>
	<node id="-1174" lat="62.75293" lon="7.20518">
		<tag k="ADDRESS" v="Romemyra 2, 6429 MOLDE" />
		<tag k="amenity" v="kindergarten" />
		<tag k="capacity" v="92" />
		<tag k="contact:website" v="http://www.molde.kommune.no/hjem.405951.no.html" />
		<tag k="max_age" v="5" />
		<tag k="min_age" v="1" />
		<tag k="name" v="Hauglegda barnehage" />
		<tag k="no-barnehage:nsrid" v="975325202" />
		<tag k="operator" v="Molde kommune" />
		<tag k="operator:type" v="public" />
	</node>
	<node id="-1175" lat="62.78204" lon="7.50427">
		<tag k="ADDRESS" v="Vigvollvegen 20, 6450 HJELSET" />
		<tag k="amenity" v="kindergarten" />
		<tag k="capacity" v="62" />
		<tag k="contact:website" v="http://www.molde.kommune.no/hjem.405973.no.html" />
		<tag k="max_age" v="5" />
		<tag k="min_age" v="1" />
		<tag k="name" v="Hjelset barnehage" />
		<tag k="no-barnehage:nsrid" v="975300358" />
		<tag k="operator" v="Molde kommune" />
		<tag k="operator:type" v="public" />
	</node>
	<node id="-1176" lat="62.79453" lon="7.64199">
		<tag k="ADDRESS" v="Osvegen, 6453 KLEIVE" />
		<tag k="amenity" v="kindergarten" />
		<tag k="capacity" v="33" />
		<tag k="contact:website" v="http://www.molde.kommune.no/hjem.405995.no.html" />
		<tag k="max_age" v="5" />
		<tag k="min_age" v="1" />
		<tag k="name" v="Kleive oppvekstsenter barnehage" />
		<tag k="no-barnehage:nsrid" v="874336742" />
		<tag k="operator" v="Molde kommune" />
		<tag k="operator:type" v="public" />
	</node>
	<node id="-1177" lat="62.75004" lon="7.26341">
		<tag k="ADDRESS" v="Krohnsvingen 10, 6421 MOLDE" />
		<tag k="amenity" v="kindergarten" />
		<tag k="capacity" v="83" />
		<tag k="max_age" v="5" />
		<tag k="min_age" v="1" />
		<tag k="name" v="Krohnstad Montessori barnehage" />
		<tag k="no-barnehage:nsrid" v="983477607" />
		<tag k="operator" v="Krohnstad Montessori barnehage AS" />
		<tag k="operator:type" v="private" />
	</node>
	<node id="-1178" lat="62.7365" lon="7.09675">
		<tag k="ADDRESS" v="Mekvegen 11, 6411 MOLDE" />
		<tag k="amenity" v="kindergarten" />
		<tag k="capacity" v="50" />
		<tag k="contact:website" v="http://www.molde.kommune.no/hjem.406017.no.html" />
		<tag k="max_age" v="5" />
		<tag k="min_age" v="1" />
		<tag k="name" v="Kvam barnehage" />
		<tag k="no-barnehage:nsrid" v="975310116" />
		<tag k="operator" v="Molde kommune" />
		<tag k="operator:type" v="public" />
	</node>
	<node id="-1179" lat="62.74267" lon="7.17906">
		<tag k="ADDRESS" v="Vejlevegen 20, 6415 MOLDE" />
		<tag k="amenity" v="kindergarten" />
		<tag k="capacity" v="31" />
		<tag k="contact:website" v="http://www.molde.kommune.no/hjem.406040.no.html" />
		<tag k="max_age" v="5" />
		<tag k="min_age" v="1" />
		<tag k="name" v="Langmyra barnehage" />
		<tag k="no-barnehage:nsrid" v="974799472" />
		<tag k="operator" v="Molde kommune" />
		<tag k="operator:type" v="public" />
	</node>
	<node id="-1180" lat="62.77604" lon="8.05877">
		<tag k="ADDRESS" v="Nedre Liedgardsveg 16, 6460 EIDSVÅG I ROMSDAL" />
		<tag k="amenity" v="kindergarten" />
		<tag k="capacity" v="23" />
		<tag k="contact:website" v="http://www.liedgarden.barnehage.no" />
		<tag k="max_age" v="5" />
		<tag k="min_age" v="1" />
		<tag k="name" v="Liedgarden barnehage" />
		<tag k="no-barnehage:nsrid" v="988226750" />
		<tag k="operator" v="Liedgarden barnehage AS" />
		<tag k="operator:type" v="private" />
	</node>
	<node id="-1181" lat="62.73823" lon="7.13373">
		<tag k="ADDRESS" v="Glomstuvegen 33, 6412 MOLDE" />
		<tag k="amenity" v="kindergarten" />
		<tag k="capacity" v="75" />
		<tag k="contact:website" v="http://www.molde.kommune.no/hjem.406062.no.html" />
		<tag k="max_age" v="5" />
		<tag k="min_age" v="1" />
		<tag k="name" v="Lillekollen barnehage" />
		<tag k="no-barnehage:nsrid" v="974745577" />
		<tag k="operator" v="Molde kommune" />
		<tag k="operator:type" v="public" />
	</node>
	<node id="-1182" lat="0.0" lon="0.0">
		<tag k="ADDRESS" v=", 6475 MIDSUND" />
		<tag k="amenity" v="kindergarten" />
		<tag k="capacity" v="37" />
		<tag k="max_age" v="5" />
		<tag k="min_age" v="1" />
		<tag k="name" v="Midsund barnehage" />
		<tag k="no-barnehage:nsrid" v="975310655" />
		<tag k="operator" v="Molde kommune" />
		<tag k="operator:type" v="public" />
	</node>
	<node id="-1183" lat="62.73204" lon="7.31479">
		<tag k="ADDRESS" v="Vardholmvegen 3, 6457 BOLSØYA" />
		<tag k="amenity" v="kindergarten" />
		<tag k="capacity" v="37" />
		<tag k="contact:website" v="http://bolsoya.mobarn.no" />
		<tag k="max_age" v="5" />
		<tag k="min_age" v="1" />
		<tag k="name" v="Mobarn Bolsøya barnehage" />
		<tag k="no-barnehage:nsrid" v="988715425" />
		<tag k="operator" v="Mobarn SA" />
		<tag k="operator:type" v="private" />
	</node>
	<node id="-1184" lat="62.74024" lon="7.13321">
		<tag k="ADDRESS" v="Cecilienfrydvegen 13, 6412 MOLDE" />
		<tag k="amenity" v="kindergarten" />
		<tag k="capacity" v="100" />
		<tag k="max_age" v="5" />
		<tag k="min_age" v="1" />
		<tag k="name" v="Mobarn Cecilienfryd barnehage" />
		<tag k="no-barnehage:nsrid" v="973873741" />
		<tag k="operator" v="Mobarn SA" />
		<tag k="operator:type" v="private" />
	</node>
	<node id="-1185" lat="62.7497" lon="7.18728">
		<tag k="ADDRESS" v="Blåbærlia 4, 6429 MOLDE" />
		<tag k="amenity" v="kindergarten" />
		<tag k="capacity" v="67" />
		<tag k="max_age" v="5" />
		<tag k="min_age" v="1" />
		<tag k="name" v="Mobarn Høgnakken barnehage" />
		<tag k="no-barnehage:nsrid" v="986131523" />
		<tag k="operator" v="Mobarn SA" />
		<tag k="operator:type" v="private" />
	</node>
	<node id="-1186" lat="62.75315" lon="7.24028">
		<tag k="ADDRESS" v="Flaggspettvegen 11B, 6425 MOLDE" />
		<tag k="amenity" v="kindergarten" />
		<tag k="capacity" v="52" />
		<tag k="max_age" v="5" />
		<tag k="min_age" v="1" />
		<tag k="name" v="Mobarn Nordbyen barnehage" />
		<tag k="no-barnehage:nsrid" v="974187515" />
		<tag k="operator" v="Mobarn SA" />
		<tag k="operator:type" v="private" />
	</node>
	<node id="-1187" lat="62.71315" lon="7.42363">
		<tag k="ADDRESS" v="Isdamvegen 4, 6456 SKÅLA" />
		<tag k="amenity" v="kindergarten" />
		<tag k="capacity" v="58" />
		<tag k="contact:website" v="http://www.vaagsetra.mobarn.no" />
		<tag k="max_age" v="5" />
		<tag k="min_age" v="1" />
		<tag k="name" v="Mobarn Vågsetra barnehage" />
		<tag k="no-barnehage:nsrid" v="974205076" />
		<tag k="operator" v="Mobarn SA" />
		<tag k="operator:type" v="private" />
	</node>
	<node id="-1188" lat="62.74601" lon="7.21243">
		<tag k="ADDRESS" v="Øverlandsvegen 35, 6416 MOLDE" />
		<tag k="amenity" v="kindergarten" />
		<tag k="capacity" v="110" />
		<tag k="max_age" v="5" />
		<tag k="min_age" v="1" />
		<tag k="name" v="Mobarn Øverland barnehage" />
		<tag k="no-barnehage:nsrid" v="974187574" />
		<tag k="operator" v="Mobarn SA" />
		<tag k="operator:type" v="private" />
	</node>
	<node id="-1189" lat="0.0" lon="0.0">
		<tag k="ADDRESS" v="Mordal, 6409 MOLDE" />
		<tag k="amenity" v="kindergarten" />
		<tag k="capacity" v="15" />
		<tag k="max_age" v="5" />
		<tag k="min_age" v="1" />
		<tag k="name" v="Mordalstua barnehage" />
		<tag k="no-barnehage:nsrid" v="994891073" />
		<tag k="operator" v="Brunstad Kristelige Menighet Molde" />
		<tag k="operator:type" v="private" />
	</node>
	<node id="-1190" lat="62.75245" lon="7.21954">
		<tag k="ADDRESS" v="Mårskrenten 87, 6425 MOLDE" />
		<tag k="amenity" v="kindergarten" />
		<tag k="capacity" v="16" />
		<tag k="max_age" v="5" />
		<tag k="min_age" v="1" />
		<tag k="name" v="Mårskrenten barnehage" />
		<tag k="no-barnehage:nsrid" v="973482602" />
		<tag k="operator" v="Mårskrenten Borettslag" />
		<tag k="operator:type" v="private" />
	</node>
	<node id="-1191" lat="62.65202" lon="7.33872">
		<tag k="ADDRESS" v="Håkon Herdebreis veg 741, 6418 SEKKEN" />
		<tag k="amenity" v="kindergarten" />
		<tag k="capacity" v="6" />
		<tag k="contact:website" v="http://www.molde.kommune.no/sekken-oppvekstsenter-barnehage.265235.no.html" />
		<tag k="max_age" v="5" />
		<tag k="min_age" v="1" />
		<tag k="name" v="Sekken oppvekstsenter barnehage" />
		<tag k="no-barnehage:nsrid" v="977381088" />
		<tag k="operator" v="Molde kommune" />
		<tag k="operator:type" v="public" />
	</node>
	<node id="-1192" lat="62.73711" lon="7.1047">
		<tag k="ADDRESS" v="Britvegen 6, 6410 MOLDE" />
		<tag k="amenity" v="kindergarten" />
		<tag k="capacity" v="42" />
		<tag k="max_age" v="5" />
		<tag k="min_age" v="1" />
		<tag k="name" v="Simolde Anestua barnehage" />
		<tag k="no-barnehage:nsrid" v="975858456" />
		<tag k="operator" v="Studentsamskipnaden i Molde" />
		<tag k="operator:type" v="private" />
	</node>
	<node id="-1193" lat="0.0" lon="0.0">
		<tag k="ADDRESS" v="Solemdal, 6456 SKÅLA" />
		<tag k="amenity" v="kindergarten" />
		<tag k="capacity" v="23" />
		<tag k="max_age" v="5" />
		<tag k="min_age" v="1" />
		<tag k="name" v="Solemdal barnehage" />
		<tag k="no-barnehage:nsrid" v="973458396" />
		<tag k="operator" v="Solemdal Velforening" />
		<tag k="operator:type" v="private" />
	</node>
	<node id="-1194" lat="62.73565" lon="7.15037">
		<tag k="ADDRESS" v="Bjørnstjerne Bjørnsons veg 8, 6412 MOLDE" />
		<tag k="amenity" v="kindergarten" />
		<tag k="capacity" v="38" />
		<tag k="contact:website" v="http://www.molde.kommune.no/hjem.406106.no.html" />
		<tag k="max_age" v="5" />
		<tag k="min_age" v="1" />
		<tag k="name" v="St Sunniva barnehage" />
		<tag k="no-barnehage:nsrid" v="974745550" />
		<tag k="operator" v="Molde kommune" />
		<tag k="operator:type" v="public" />
	</node>
	<node id="-1195" lat="62.75196" lon="7.18145">
		<tag k="ADDRESS" v="Tranebærvegen 11, 6429 MOLDE" />
		<tag k="amenity" v="kindergarten" />
		<tag k="capacity" v="24" />
		<tag k="max_age" v="5" />
		<tag k="min_age" v="1" />
		<tag k="name" v="Tranebæret" />
		<tag k="no-barnehage:nsrid" v="982472261" />
		<tag k="operator" v="Tranebæret AS" />
		<tag k="operator:type" v="private" />
	</node>
	<node id="-1196" lat="0.0" lon="0.0">
		<tag k="ADDRESS" v=", 6364 VISTDAL" />
		<tag k="amenity" v="kindergarten" />
		<tag k="capacity" v="11" />
		<tag k="max_age" v="5" />
		<tag k="min_age" v="1" />
		<tag k="name" v="Vistdal barnehage" />
		<tag k="no-barnehage:nsrid" v="975310647" />
		<tag k="operator" v="Molde kommune" />
		<tag k="operator:type" v="public" />
	</node>
	<node id="-1197" lat="62.74569" lon="7.22396">
		<tag k="ADDRESS" v="Nøisomhedvegen 30, 6419 MOLDE" />
		<tag k="amenity" v="kindergarten" />
		<tag k="capacity" v="19" />
		<tag k="contact:website" v="http://www.molde.kommune.no/hjem.406128.no.html" />
		<tag k="max_age" v="5" />
		<tag k="min_age" v="1" />
		<tag k="name" v="Øvre Bergmo barnehage" />
		<tag k="no-barnehage:nsrid" v="975268047" />
		<tag k="operator" v="Molde kommune" />
		<tag k="operator:type" v="public" />
	</node>
</osm>
