<?xml version="1.0" encoding="UTF-8"?>
<osm generator="osmapis" version="0.6">
	<node id="-2368" lat="60.576" lon="9.11805">
		<tag k="amenity" v="kindergarten" />
		<tag k="capacity" v="29" />
		<tag k="contact:phone" v="32 07 00 90" />
		<tag k="max_age" v="5" />
		<tag k="min_age" v="1" />
		<tag k="name" v="Friskussen barnehage" />
		<tag k="no-barnehage:nsrid" v="1015451" />
		<tag k="operator" v="Nes kommune" />
		<tag k="operator:type" v="public" />
		<tag k="start_date" v="1990-08-01" />
	</node>
	<node id="-2367" lat="60.578" lon="9.11798">
		<tag k="amenity" v="kindergarten" />
		<tag k="capacity" v="34" />
		<tag k="contact:phone" v="32071603" />
		<tag k="max_age" v="5" />
		<tag k="min_age" v="1" />
		<tag k="name" v="Briskebyen barnehage" />
		<tag k="no-barnehage:nsrid" v="1018005" />
		<tag k="operator" v="Nes kommune" />
		<tag k="operator:type" v="public" />
		<tag k="start_date" v="1989-01-01" />
	</node>
	<node id="-2372" lat="60.5681" lon="9.10274">
		<tag k="amenity" v="kindergarten" />
		<tag k="capacity" v="9" />
		<tag k="contact:phone" v="32 06 87 30" />
		<tag k="max_age" v="5" />
		<tag k="min_age" v="1" />
		<tag k="name" v="Rukkedalen barnehage" />
		<tag k="no-barnehage:nsrid" v="1016890" />
		<tag k="operator" v="Nes kommune" />
		<tag k="operator:type" v="public" />
		<tag k="start_date" v="1994-08-01" />
	</node>
	<node id="-2371" lat="60.5681" lon="9.10274">
		<tag k="amenity" v="kindergarten" />
		<tag k="capacity" v="15" />
		<tag k="contact:phone" v="32071630" />
		<tag k="max_age" v="5" />
		<tag k="min_age" v="1" />
		<tag k="name" v="Nesbyen barnehage Avd Høva" />
		<tag k="no-barnehage:nsrid" v="1017136" />
		<tag k="operator" v="Nes kommune" />
		<tag k="operator:type" v="public" />
		<tag k="start_date" v="2005-01-01" />
	</node>
	<node id="-2370" lat="60.5712" lon="9.09491">
		<tag k="amenity" v="kindergarten" />
		<tag k="capacity" v="29" />
		<tag k="contact:phone" v="32071950" />
		<tag k="max_age" v="5" />
		<tag k="min_age" v="1" />
		<tag k="name" v="Nesbyen barnehage Avd Elvefaret" />
		<tag k="no-barnehage:nsrid" v="1018006" />
		<tag k="operator" v="Nes kommune" />
		<tag k="operator:type" v="public" />
		<tag k="start_date" v="1989-01-01" />
	</node>
	<node id="-2369" lat="60.5691" lon="9.12366">
		<tag k="amenity" v="kindergarten" />
		<tag k="capacity" v="6" />
		<tag k="contact:phone" v="32071707" />
		<tag k="max_age" v="2" />
		<tag k="min_age" v="1" />
		<tag k="name" v="Friskussen barnehage Avd Tøllemo" />
		<tag k="no-barnehage:nsrid" v="1017137" />
		<tag k="operator" v="Nes kommune" />
		<tag k="operator:type" v="public" />
		<tag k="start_date" v="2005-01-01" />
	</node>
</osm>
