<?xml version="1.0" encoding="UTF-8"?>
<osm generator="osmapis" version="0.6">
	<node id="-2101" lat="61.1337" lon="9.08439">
		<tag k="amenity" v="kindergarten" />
		<tag k="capacity" v="28" />
		<tag k="max_age" v="5" />
		<tag k="min_age" v="1" />
		<tag k="name" v="Tingvang barnehage" />
		<tag k="no-barnehage:nsrid" v="1017982" />
		<tag k="operator" v="Øystre Slidre kommune" />
		<tag k="operator:type" v="public" />
	</node>
	<node id="-2100" lat="61.0818" lon="9.12923">
		<tag k="amenity" v="kindergarten" />
		<tag k="capacity" v="60" />
		<tag k="max_age" v="5" />
		<tag k="min_age" v="1" />
		<tag k="name" v="Rogne barnehage" />
		<tag k="no-barnehage:nsrid" v="1017391" />
		<tag k="operator" v="Øystre Slidre kommune" />
		<tag k="operator:type" v="public" />
	</node>
	<node id="-2099" lat="61.16013" lon="9.050546">
		<tag k="amenity" v="kindergarten" />
		<tag k="capacity" v="21" />
		<tag k="contact:website" v="http://heggebo.barnehage.no" />
		<tag k="max_age" v="5" />
		<tag k="min_age" v="1" />
		<tag k="name" v="Heggebø friluftsbarnehage" />
		<tag k="no-barnehage:nsrid" v="1019515" />
		<tag k="operator" v="Heggebø Friluftsbarnehage Sa" />
		<tag k="operator:type" v="private" />
	</node>
	<node id="-2098" lat="61.2349" lon="8.88226">
		<tag k="amenity" v="kindergarten" />
		<tag k="capacity" v="35" />
		<tag k="max_age" v="5" />
		<tag k="min_age" v="1" />
		<tag k="name" v="Beito barnehage" />
		<tag k="no-barnehage:nsrid" v="1017981" />
		<tag k="operator" v="Øystre Slidre kommune" />
		<tag k="operator:type" v="public" />
	</node>
</osm>
