<?xml version="1.0" encoding="UTF-8"?>
<osm version="0.6" generator="osmapis">
	<node lat="60.23852" lon="10.3525" id="-2607">
		<tag k="ADDRESS" v="Musmyrveien 165, 3520 JEVNAKER" />
		<tag k="amenity" v="kindergarten" />
		<tag k="capacity" v="70" />
		<tag k="max_age" v="5" />
		<tag k="min_age" v="1" />
		<tag k="name" v="Bergerbakken barnehage" />
		<tag k="no-barnehage:nsrid" v="973710397" />
		<tag k="operator" v="Jevnaker kommune" />
		<tag k="operator:type" v="public" />
	</node>
	<node lat="60.23962" lon="10.42335" id="-2608">
		<tag k="ADDRESS" v="Vangskroken 2, 3520 JEVNAKER" />
		<tag k="amenity" v="kindergarten" />
		<tag k="capacity" v="55" />
		<tag k="max_age" v="5" />
		<tag k="min_age" v="1" />
		<tag k="name" v="Hovsenga barnehage" />
		<tag k="no-barnehage:nsrid" v="975323404" />
		<tag k="operator" v="Jevnaker kommune" />
		<tag k="operator:type" v="public" />
	</node>
	<node lat="60.25926" lon="10.38025" id="-2609">
		<tag k="ADDRESS" v="Bakkavegen 30, 3520 JEVNAKER" />
		<tag k="amenity" v="kindergarten" />
		<tag k="capacity" v="49" />
		<tag k="max_age" v="5" />
		<tag k="min_age" v="1" />
		<tag k="name" v="Mari Bjertnæs" />
		<tag k="no-barnehage:nsrid" v="978298052" />
		<tag k="operator" v="Mari Bjertnæs" />
		<tag k="operator:type" v="private" />
	</node>
	<node lat="60.23925" lon="10.3822" id="-2610">
		<tag k="ADDRESS" v="Brugata 8, 3520 JEVNAKER" />
		<tag k="amenity" v="kindergarten" />
		<tag k="capacity" v="56" />
		<tag k="max_age" v="5" />
		<tag k="min_age" v="1" />
		<tag k="name" v="Nesbakken barnehage" />
		<tag k="no-barnehage:nsrid" v="975303683" />
		<tag k="operator" v="Jevnaker kommune" />
		<tag k="operator:type" v="public" />
	</node>
	<node lat="60.2266" lon="10.36239" id="-2611">
		<tag k="ADDRESS" v="Samsmoveien 21, 3520 JEVNAKER" />
		<tag k="amenity" v="kindergarten" />
		<tag k="capacity" v="69" />
		<tag k="max_age" v="5" />
		<tag k="min_age" v="1" />
		<tag k="name" v="Samsmoen barnehage" />
		<tag k="no-barnehage:nsrid" v="975303691" />
		<tag k="operator" v="Jevnaker kommune" />
		<tag k="operator:type" v="public" />
	</node>
	<node lat="0.0" lon="0.0" id="-2612">
		<tag k="ADDRESS" v="Prestensrud, 3520 JEVNAKER" />
		<tag k="amenity" v="kindergarten" />
		<tag k="capacity" v="35" />
		<tag k="max_age" v="5" />
		<tag k="min_age" v="1" />
		<tag k="name" v="Stortjernet barnehage" />
		<tag k="no-barnehage:nsrid" v="989178083" />
		<tag k="operator" v="Stortjernet barnehage AS" />
		<tag k="operator:type" v="private" />
	</node>
</osm>
