<?xml version="1.0" encoding="UTF-8"?>
<osm generator="osmapis" version="0.6">
	<node id="-5149" lat="64.47056" lon="11.49176">
		<tag k="amenity" v="kindergarten" />
		<tag k="capacity" v="10" />
		<tag k="contact:email" v="vikabarnehage@online.no" />
		<tag k="contact:phone" v="+47 74 27 23 62" />
		<tag k="contact:website" v="http://vikabarnehage.barnehage.no/" />
		<tag k="max_age" v="2" />
		<tag k="min_age" v="1" />
		<tag k="name" v="Vika barnehage AS" />
		<tag k="no-barnehage:nsrid" v="1021894" />
		<tag k="operator" v="Vika barnehage AS" />
		<tag k="operator:type" v="private" />
		<tag k="start_date" v="1995-08-01" />
	</node>
	<node id="-5148" lat="64.4748" lon="11.4626">
		<tag k="amenity" v="kindergarten" />
		<tag k="capacity" v="31" />
		<tag k="contact:email" v="vestbyen.barnehage@namsos.kommune.no" />
		<tag k="contact:phone" v="+47 480 38 850" />
		<tag k="max_age" v="5" />
		<tag k="min_age" v="1" />
		<tag k="name" v="Vestbyen barnehage" />
		<tag k="no-barnehage:nsrid" v="1014683" />
		<tag k="operator" v="Namsos kommune" />
		<tag k="operator:type" v="public" />
		<tag k="start_date" v="1991-01-01" />
	</node>
	<node id="-5147" lat="64.4663" lon="11.4956">
		<tag k="amenity" v="kindergarten" />
		<tag k="capacity" v="32" />
		<tag k="contact:email" v="sissel.brattøy@namsos.kommune.no" />
		<tag k="max_age" v="5" />
		<tag k="min_age" v="1" />
		<tag k="name" v="Sørenget Oppvekstsenter Avd Barnehage" />
		<tag k="no-barnehage:nsrid" v="1013123" />
		<tag k="operator" v="Namsos kommune" />
		<tag k="operator:type" v="public" />
		<tag k="start_date" v="2004-08-01" />
	</node>
	<node id="-5146" lat="64.4423" lon="11.5125">
		<tag k="amenity" v="kindergarten" />
		<tag k="capacity" v="24" />
		<tag k="contact:email" v="Dordi.Helene.Bruun@Namsos.kommune.no" />
		<tag k="contact:phone" v="+47 479 00 296" />
		<tag k="max_age" v="5" />
		<tag k="min_age" v="1" />
		<tag k="name" v="Spillum barnehage" />
		<tag k="no-barnehage:nsrid" v="1018265" />
		<tag k="operator" v="Namsos kommune" />
		<tag k="operator:type" v="public" />
		<tag k="start_date" v="1989-01-01" />
	</node>
	<node id="-5145" lat="64.46785" lon="11.5125">
		<tag k="amenity" v="kindergarten" />
		<tag k="capacity" v="52" />
		<tag k="max_age" v="5" />
		<tag k="min_age" v="1" />
		<tag k="name" v="Solvang barnehage" />
		<tag k="no-barnehage:nsrid" v="2000027" />
		<tag k="operator" v="Namsos kommune" />
		<tag k="operator:type" v="public" />
		<tag k="start_date" v="2016-08-08" />
	</node>
	<node id="-5143" lat="64.47386" lon="11.53606">
		<tag k="amenity" v="kindergarten" />
		<tag k="capacity" v="59" />
		<tag k="contact:email" v="firmapost@skoglyvegen-barnehage.no" />
		<tag k="contact:phone" v="+47 99509968" />
		<tag k="max_age" v="5" />
		<tag k="min_age" v="1" />
		<tag k="name" v="Skoglyveien barnehage AS" />
		<tag k="no-barnehage:nsrid" v="1021098" />
		<tag k="operator" v="Skoglyveien barnehage AS" />
		<tag k="operator:type" v="private" />
		<tag k="start_date" v="2004-06-30" />
	</node>
	<node id="-5142" lat="64.5404" lon="11.2724">
		<tag k="amenity" v="kindergarten" />
		<tag k="capacity" v="27" />
		<tag k="contact:email" v="turid-finnanger.sund@namsos.kommune.no" />
		<tag k="contact:phone" v="+47 959 96 550" />
		<tag k="max_age" v="5" />
		<tag k="min_age" v="1" />
		<tag k="name" v="Otterøy Oppvekstsenter Avd barnehage" />
		<tag k="no-barnehage:nsrid" v="1018264" />
		<tag k="operator" v="Namsos kommune" />
		<tag k="operator:type" v="public" />
		<tag k="start_date" v="1989-01-01" />
	</node>
	<node id="-5141" lat="64.4663" lon="11.4956">
		<tag k="amenity" v="kindergarten" />
		<tag k="capacity" v="28" />
		<tag k="contact:email" v="adm@natur-idrettsbarnehagen.no" />
		<tag k="max_age" v="5" />
		<tag k="min_age" v="1" />
		<tag k="name" v="Natur &amp; Idrettsbarnehagen Avd. Høknes" />
		<tag k="no-barnehage:nsrid" v="1014261" />
		<tag k="operator" v="Natur &amp; Idrettsbarnehagen AS" />
		<tag k="operator:type" v="private" />
		<tag k="start_date" v="2010-02-01" />
	</node>
	<node id="-5140" lat="64.3937" lon="11.3928">
		<tag k="amenity" v="kindergarten" />
		<tag k="capacity" v="47" />
		<tag k="contact:email" v="adm@natur-idrettsbarnehagen.no" />
		<tag k="contact:phone" v="+47 74 28 33 60" />
		<tag k="max_age" v="5" />
		<tag k="min_age" v="1" />
		<tag k="name" v="Natur &amp; Idrettsbarnehagen Avd. Bråten" />
		<tag k="no-barnehage:nsrid" v="1016507" />
		<tag k="operator" v="Natur &amp; Idrettsbarnehagen AS" />
		<tag k="operator:type" v="private" />
		<tag k="start_date" v="2003-05-01" />
	</node>
	<node id="-5139" lat="64.4719" lon="11.52144">
		<tag k="amenity" v="kindergarten" />
		<tag k="capacity" v="32" />
		<tag k="contact:email" v="NAMSOS.MUSIKKBARNEHAGE@ONLINE.NO" />
		<tag k="contact:phone" v="+47 74 21 42 22" />
		<tag k="max_age" v="5" />
		<tag k="min_age" v="1" />
		<tag k="name" v="Namsos Musikkbarnehage AS" />
		<tag k="no-barnehage:nsrid" v="1020928" />
		<tag k="operator" v="Namsos Musikkbarnehage AS" />
		<tag k="operator:type" v="private" />
		<tag k="start_date" v="2003-08-01" />
	</node>
	<node id="-5138" lat="64.45946" lon="11.5379">
		<tag k="amenity" v="kindergarten" />
		<tag k="capacity" v="52" />
		<tag k="contact:email" v="post@namsos-barnehage.no" />
		<tag k="contact:phone" v="+47 74276495" />
		<tag k="max_age" v="5" />
		<tag k="min_age" v="1" />
		<tag k="name" v="Namsos barnehage" />
		<tag k="no-barnehage:nsrid" v="1019970" />
		<tag k="operator" v="Namsos barnehage Sa" />
		<tag k="operator:type" v="private" />
		<tag k="start_date" v="1991-01-01" />
	</node>
	<node id="-5136" lat="64.4725" lon="11.5263">
		<tag k="amenity" v="kindergarten" />
		<tag k="capacity" v="40" />
		<tag k="contact:email" v="kleppen.barnehage@namsos.kommune.no" />
		<tag k="contact:phone" v="+47 476 70 191" />
		<tag k="max_age" v="5" />
		<tag k="min_age" v="1" />
		<tag k="name" v="Kleppen barnehage" />
		<tag k="no-barnehage:nsrid" v="1018263" />
		<tag k="operator" v="Namsos kommune" />
		<tag k="operator:type" v="public" />
		<tag k="start_date" v="1989-01-01" />
	</node>
	<node id="-5135" lat="64.4765" lon="11.46694">
		<tag k="amenity" v="kindergarten" />
		<tag k="capacity" v="52" />
		<tag k="contact:email" v="gullvika.naturbarnehage@gmail.com" />
		<tag k="max_age" v="5" />
		<tag k="min_age" v="1" />
		<tag k="name" v="Gullvika Naturbarnehage AS" />
		<tag k="no-barnehage:nsrid" v="1021656" />
		<tag k="operator" v="Gullvika Naturbarnehage AS" />
		<tag k="operator:type" v="private" />
		<tag k="start_date" v="2003-03-19" />
	</node>
	<node id="-5134" lat="64.47928" lon="11.50661">
		<tag k="amenity" v="kindergarten" />
		<tag k="capacity" v="25" />
		<tag k="contact:email" v="granasen@barnehage.no" />
		<tag k="contact:phone" v="+47 74 27 52 23" />
		<tag k="max_age" v="5" />
		<tag k="min_age" v="1" />
		<tag k="name" v="Granåsen barnehage Sa" />
		<tag k="no-barnehage:nsrid" v="1019901" />
		<tag k="operator" v="Granåsen barnehage Sa" />
		<tag k="operator:type" v="private" />
		<tag k="start_date" v="1990-08-01" />
	</node>
	<node id="-5133" lat="64.4814" lon="11.5397">
		<tag k="amenity" v="kindergarten" />
		<tag k="capacity" v="30" />
		<tag k="contact:email" v="astrid.smevik@namsos.kommune.no" />
		<tag k="contact:phone" v="+47 476 57 227" />
		<tag k="max_age" v="5" />
		<tag k="min_age" v="1" />
		<tag k="name" v="Fossbrenna barnehage" />
		<tag k="no-barnehage:nsrid" v="1014937" />
		<tag k="operator" v="Namsos kommune" />
		<tag k="operator:type" v="public" />
		<tag k="start_date" v="1994-08-01" />
	</node>
	<node id="-5132" lat="64.37288" lon="11.41046">
		<tag k="amenity" v="kindergarten" />
		<tag k="capacity" v="20" />
		<tag k="contact:email" v="renatea.ped@gmail.com" />
		<tag k="contact:phone" v="+47 917 18 943" />
		<tag k="max_age" v="5" />
		<tag k="min_age" v="1" />
		<tag k="name" v="Flak Naturbarnehage AS" />
		<tag k="no-barnehage:nsrid" v="1021100" />
		<tag k="operator" v="Flak Naturbarnehage AS" />
		<tag k="operator:type" v="private" />
		<tag k="start_date" v="2004-06-22" />
	</node>
	<node id="-5131" lat="64.47398" lon="11.52026">
		<tag k="amenity" v="kindergarten" />
		<tag k="capacity" v="67" />
		<tag k="contact:email" v="tone.lillevik@bjorumbarnehage.no" />
		<tag k="max_age" v="5" />
		<tag k="min_age" v="1" />
		<tag k="name" v="Bjørum barnehage AS" />
		<tag k="no-barnehage:nsrid" v="1021688" />
		<tag k="operator" v="Bjørum barnehage AS" />
		<tag k="operator:type" v="private" />
		<tag k="start_date" v="1989-01-02" />
	</node>
	<node id="-5130" lat="64.4198" lon="11.5113">
		<tag k="amenity" v="kindergarten" />
		<tag k="capacity" v="22" />
		<tag k="contact:email" v="post@barstadbarnehage.no" />
		<tag k="contact:phone" v="+47 74 27 66 48" />
		<tag k="max_age" v="5" />
		<tag k="min_age" v="1" />
		<tag k="name" v="Barstad barnehage Sa" />
		<tag k="no-barnehage:nsrid" v="1019853" />
		<tag k="operator" v="Barstad barnehage Sa" />
		<tag k="operator:type" v="private" />
		<tag k="start_date" v="1989-01-02" />
	</node>
	<node id="-5129" lat="64.3893" lon="11.3962">
		<tag k="amenity" v="kindergarten" />
		<tag k="capacity" v="31" />
		<tag k="contact:email" v="arne-ingar.ramberg@namsos.kommune.no" />
		<tag k="contact:phone" v="+47 476 59 840" />
		<tag k="contact:website" v="http://minbarnehage.no/bangsund" />
		<tag k="max_age" v="5" />
		<tag k="min_age" v="1" />
		<tag k="name" v="Bangsund barnehage" />
		<tag k="no-barnehage:nsrid" v="1018261" />
		<tag k="operator" v="Namsos kommune" />
		<tag k="operator:type" v="public" />
		<tag k="start_date" v="1989-01-01" />
	</node>
</osm>
