<?xml version="1.0" encoding="UTF-8"?>
<osm version="0.6" generator="osmapis">
	<node lat="69.97182" lon="23.29234" id="-5321">
		<tag k="ADDRESS" v="Nøkkelstien 2, 9510 ALTA" />
		<tag k="amenity" v="kindergarten" />
		<tag k="capacity" v="47" />
		<tag k="contact:website" v="http://www.altasiida.barnehage.no" />
		<tag k="max_age" v="5" />
		<tag k="min_age" v="1" />
		<tag k="name" v="Áltta Siida" />
		<tag k="no-barnehage:nsrid" v="987948604" />
		<tag k="operator" v="Áltta Siida AS" />
		<tag k="operator:type" v="private" />
	</node>
	<node lat="69.96735" lon="23.31347" id="-5322">
		<tag k="ADDRESS" v="Holstsletta 10, 9514 ALTA" />
		<tag k="amenity" v="kindergarten" />
		<tag k="capacity" v="50" />
		<tag k="contact:website" v="http://www.aronnes.altabarnehagene.no" />
		<tag k="max_age" v="5" />
		<tag k="min_age" v="1" />
		<tag k="name" v="Aronnes barnehage" />
		<tag k="no-barnehage:nsrid" v="974065037" />
		<tag k="operator" v="Alta kommune" />
		<tag k="operator:type" v="public" />
	</node>
	<node lat="69.95615" lon="23.23955" id="-5323">
		<tag k="ADDRESS" v="Thomasbakkveien 26, 9513 ALTA" />
		<tag k="amenity" v="kindergarten" />
		<tag k="capacity" v="34" />
		<tag k="max_age" v="5" />
		<tag k="min_age" v="1" />
		<tag k="name" v="Bossekop barnehage" />
		<tag k="no-barnehage:nsrid" v="986092145" />
		<tag k="operator" v="Bossekop barnehage AS" />
		<tag k="operator:type" v="private" />
	</node>
	<node lat="69.96977" lon="23.25964" id="-5324">
		<tag k="ADDRESS" v="Breidablikk 34, 9511 ALTA" />
		<tag k="amenity" v="kindergarten" />
		<tag k="capacity" v="47" />
		<tag k="contact:website" v="http://www.alta.kommune.no/breidablikk-barnehage.571606.no.html" />
		<tag k="max_age" v="5" />
		<tag k="min_age" v="1" />
		<tag k="name" v="Breidablikk barnehage" />
		<tag k="no-barnehage:nsrid" v="985709645" />
		<tag k="operator" v="Alta kommune" />
		<tag k="operator:type" v="public" />
	</node>
	<node lat="69.95708" lon="23.23773" id="-5325">
		<tag k="ADDRESS" v="Thomasbakkveien 22B, 9513 ALTA" />
		<tag k="amenity" v="kindergarten" />
		<tag k="capacity" v="53" />
		<tag k="contact:website" v="http://www.betania-alta.no/barnehager/breverud-barnehage/" />
		<tag k="max_age" v="5" />
		<tag k="min_age" v="1" />
		<tag k="name" v="Breverud barnehage" />
		<tag k="no-barnehage:nsrid" v="896678272" />
		<tag k="operator" v="Breverud barnehage AS" />
		<tag k="operator:type" v="private" />
	</node>
	<node lat="69.95265" lon="23.20645" id="-5326">
		<tag k="ADDRESS" v="Furuly 23, 9512 ALTA" />
		<tag k="amenity" v="kindergarten" />
		<tag k="capacity" v="67" />
		<tag k="max_age" v="5" />
		<tag k="min_age" v="1" />
		<tag k="name" v="Furuly kulturbarnehage" />
		<tag k="no-barnehage:nsrid" v="973190121" />
		<tag k="operator" v="Furuly barnehage AS" />
		<tag k="operator:type" v="private" />
	</node>
	<node lat="69.96845" lon="23.26704" id="-5327">
		<tag k="ADDRESS" v="Maskinsvingen 9, 9511 ALTA" />
		<tag k="amenity" v="kindergarten" />
		<tag k="capacity" v="29" />
		<tag k="contact:website" v="http://www.alta.kommune.no/cppage.571607.no" />
		<tag k="max_age" v="5" />
		<tag k="min_age" v="1" />
		<tag k="name" v="Guovddás Mánáidgárdi" />
		<tag k="no-barnehage:nsrid" v="975314014" />
		<tag k="operator" v="Alta kommune" />
		<tag k="operator:type" v="public" />
	</node>
	<node lat="69.94077" lon="23.28719" id="-5328">
		<tag k="ADDRESS" v="Holmen 46, 9518 ALTA" />
		<tag k="amenity" v="kindergarten" />
		<tag k="capacity" v="26" />
		<tag k="contact:website" v="http://holmen.barnehage.no" />
		<tag k="max_age" v="5" />
		<tag k="min_age" v="1" />
		<tag k="name" v="Holmen gårds og naturbarnehage" />
		<tag k="no-barnehage:nsrid" v="994568612" />
		<tag k="operator" v="Holmen Gårds og naturbarnehage AS" />
		<tag k="operator:type" v="private" />
	</node>
	<node lat="69.95782" lon="23.24544" id="-5329">
		<tag k="ADDRESS" v="Holtenalleen 3, 9513 ALTA" />
		<tag k="amenity" v="kindergarten" />
		<tag k="capacity" v="32" />
		<tag k="max_age" v="5" />
		<tag k="min_age" v="1" />
		<tag k="name" v="Holten barnehage" />
		<tag k="no-barnehage:nsrid" v="973449850" />
		<tag k="operator" v="Stiftelsen Holten barnehage" />
		<tag k="operator:type" v="private" />
	</node>
	<node lat="69.96382" lon="23.24402" id="-5330">
		<tag k="ADDRESS" v="Bakkeveien 11, 9513 ALTA" />
		<tag k="amenity" v="kindergarten" />
		<tag k="capacity" v="72" />
		<tag k="contact:website" v="http://www.imi-barnehage.no" />
		<tag k="max_age" v="5" />
		<tag k="min_age" v="1" />
		<tag k="name" v="Imi barnehage" />
		<tag k="no-barnehage:nsrid" v="974157187" />
		<tag k="operator" v="Stiftelsen Imi barnehage" />
		<tag k="operator:type" v="private" />
	</node>
	<node lat="69.95612" lon="23.37321" id="-5331">
		<tag k="ADDRESS" v="Myrullveien 2, 9516 ALTA" />
		<tag k="amenity" v="kindergarten" />
		<tag k="capacity" v="51" />
		<tag k="contact:website" v="http://www.alta.kommune.no/kaiskuru-naermiljoesenter" />
		<tag k="max_age" v="5" />
		<tag k="min_age" v="1" />
		<tag k="name" v="Kaiskuru barnehage" />
		<tag k="no-barnehage:nsrid" v="975214036" />
		<tag k="operator" v="Alta kommune" />
		<tag k="operator:type" v="public" />
	</node>
	<node lat="69.96521" lon="23.37444" id="-5332">
		<tag k="ADDRESS" v="Spireaveien 27, 9515 ALTA" />
		<tag k="amenity" v="kindergarten" />
		<tag k="capacity" v="42" />
		<tag k="contact:website" v="http://www.kronstad.altabarnehagene.no" />
		<tag k="max_age" v="5" />
		<tag k="min_age" v="1" />
		<tag k="name" v="Kronstad barnehage" />
		<tag k="no-barnehage:nsrid" v="975314022" />
		<tag k="operator" v="Alta kommune" />
		<tag k="operator:type" v="public" />
	</node>
	<node lat="70.12071" lon="23.39393" id="-5333">
		<tag k="ADDRESS" v="Kvibyveien 64B, 9519 KVIBY" />
		<tag k="amenity" v="kindergarten" />
		<tag k="capacity" v="7" />
		<tag k="contact:website" v="http://alta.kommune.no/leirbotn-oppvekstsenter.5716110.no.html" />
		<tag k="max_age" v="5" />
		<tag k="min_age" v="1" />
		<tag k="name" v="Leirbotn barnehage" />
		<tag k="no-barnehage:nsrid" v="975324419" />
		<tag k="operator" v="Alta kommune" />
		<tag k="operator:type" v="public" />
	</node>
	<node lat="69.97342" lon="23.35521" id="-5334">
		<tag k="ADDRESS" v="Altaveien 220C, 9515 ALTA" />
		<tag k="amenity" v="kindergarten" />
		<tag k="capacity" v="67" />
		<tag k="contact:website" v="http://laringsverkstedet.no/barnehage/læringsverkstedet-furua" />
		<tag k="max_age" v="5" />
		<tag k="min_age" v="1" />
		<tag k="name" v="Læringsverkstedet Furua naturbarnehage" />
		<tag k="no-barnehage:nsrid" v="985202303" />
		<tag k="operator" v="Læringverkstedet Furua naturbarnehage AS" />
		<tag k="operator:type" v="private" />
	</node>
	<node lat="69.9789" lon="23.28999" id="-5335">
		<tag k="ADDRESS" v="Komsahøyden 5, 9511 ALTA" />
		<tag k="amenity" v="kindergarten" />
		<tag k="capacity" v="37" />
		<tag k="contact:website" v="http://www.komsatoppen.no" />
		<tag k="max_age" v="5" />
		<tag k="min_age" v="1" />
		<tag k="name" v="Læringsverkstedet Komsatoppen Doremi" />
		<tag k="no-barnehage:nsrid" v="973899228" />
		<tag k="operator" v="Læringsverkstedet Komsatoppen Doremi barnehage AS" />
		<tag k="operator:type" v="private" />
	</node>
	<node lat="69.95673" lon="23.23031" id="-5336">
		<tag k="ADDRESS" v="Vesterhaugveien 23, 9513 ALTA" />
		<tag k="amenity" v="kindergarten" />
		<tag k="capacity" v="51" />
		<tag k="contact:website" v="http://laringsverkstedet.no/barnehage/tornerose" />
		<tag k="max_age" v="5" />
		<tag k="min_age" v="1" />
		<tag k="name" v="Læringsverkstedet Tornerose barnehage" />
		<tag k="no-barnehage:nsrid" v="972340278" />
		<tag k="operator" v="Læringsverkstedet Tornerose barnehage AS" />
		<tag k="operator:type" v="private" />
	</node>
	<node lat="69.96908" lon="23.28391" id="-5337">
		<tag k="ADDRESS" v="Follumsvei 27, 9510 ALTA" />
		<tag k="amenity" v="kindergarten" />
		<tag k="capacity" v="45" />
		<tag k="contact:website" v="http://samskipnaden.no/barnehager/vare-barnehager/nyland-studentbarnehage" />
		<tag k="max_age" v="5" />
		<tag k="min_age" v="1" />
		<tag k="name" v="Nyland studentbarnehage" />
		<tag k="no-barnehage:nsrid" v="873190132" />
		<tag k="operator" v="Nyland studentbarnehage AS" />
		<tag k="operator:type" v="private" />
	</node>
	<node lat="69.94984" lon="23.20454" id="-5338">
		<tag k="ADDRESS" v="Oterfaret 41, 9512 ALTA" />
		<tag k="amenity" v="kindergarten" />
		<tag k="capacity" v="51" />
		<tag k="contact:website" v="http://www.alta.kommune.no/oterfaret-barnehage.571611.no.html" />
		<tag k="max_age" v="5" />
		<tag k="min_age" v="1" />
		<tag k="name" v="Oterfaret barnehage" />
		<tag k="no-barnehage:nsrid" v="991581383" />
		<tag k="operator" v="Alta kommune" />
		<tag k="operator:type" v="public" />
	</node>
	<node lat="70.02341" lon="23.53596" id="-5339">
		<tag k="ADDRESS" v="Rafsbotnveien 87, 9538 ALTA" />
		<tag k="amenity" v="kindergarten" />
		<tag k="capacity" v="14" />
		<tag k="contact:website" v="http://www.alta.kommune.no/rafsbotn-barnehage.571612.no.html" />
		<tag k="max_age" v="5" />
		<tag k="min_age" v="1" />
		<tag k="name" v="Rafsbotn barnehage" />
		<tag k="no-barnehage:nsrid" v="975324400" />
		<tag k="operator" v="Alta kommune" />
		<tag k="operator:type" v="public" />
	</node>
	<node lat="69.97222" lon="23.36367" id="-5340">
		<tag k="ADDRESS" v="Altagårdsveien 55, 9515 ALTA" />
		<tag k="amenity" v="kindergarten" />
		<tag k="capacity" v="40" />
		<tag k="contact:website" v="http://www.rishaugenbarnehage.no" />
		<tag k="max_age" v="5" />
		<tag k="min_age" v="1" />
		<tag k="name" v="Rishaugen barnehage" />
		<tag k="no-barnehage:nsrid" v="972286524" />
		<tag k="operator" v="Rishaugen barnehage SA" />
		<tag k="operator:type" v="private" />
	</node>
	<node lat="69.96053" lon="23.41315" id="-5341">
		<tag k="ADDRESS" v="Saga 5, 9517 ALTA" />
		<tag k="amenity" v="kindergarten" />
		<tag k="capacity" v="74" />
		<tag k="contact:website" v="http://www.alta.kommune.no/saga-barnehage.571613.no.htm" />
		<tag k="max_age" v="5" />
		<tag k="min_age" v="1" />
		<tag k="name" v="Saga barnehage" />
		<tag k="no-barnehage:nsrid" v="987019530" />
		<tag k="operator" v="Alta kommune" />
		<tag k="operator:type" v="public" />
	</node>
	<node lat="69.97224" lon="23.28673" id="-5342">
		<tag k="ADDRESS" v="Skoleveien 51, 9510 ALTA" />
		<tag k="amenity" v="kindergarten" />
		<tag k="capacity" v="62" />
		<tag k="contact:website" v="http://www.sentrum.altabarnehagene.no/" />
		<tag k="max_age" v="5" />
		<tag k="min_age" v="1" />
		<tag k="name" v="Sentrum barnehage" />
		<tag k="no-barnehage:nsrid" v="975314030" />
		<tag k="operator" v="Alta kommune" />
		<tag k="operator:type" v="public" />
	</node>
	<node lat="69.97428" lon="23.34769" id="-5343">
		<tag k="ADDRESS" v="Altaveien 214, 9515 ALTA" />
		<tag k="amenity" v="kindergarten" />
		<tag k="capacity" v="40" />
		<tag k="contact:website" v="http://www.snehvit-barnehage.no" />
		<tag k="max_age" v="5" />
		<tag k="min_age" v="1" />
		<tag k="name" v="Snehvit barnehage" />
		<tag k="no-barnehage:nsrid" v="972290912" />
		<tag k="operator" v="Snehvit barnehage AS" />
		<tag k="operator:type" v="private" />
	</node>
	<node lat="70.04199" lon="22.94537" id="-5344">
		<tag k="ADDRESS" v="Mellomgjerdet 7, 9540 TALVIK" />
		<tag k="amenity" v="kindergarten" />
		<tag k="capacity" v="13" />
		<tag k="contact:website" v="http://www.alta.kommune.no/talvik-oppvekstsenter.571615.no.html" />
		<tag k="max_age" v="5" />
		<tag k="min_age" v="1" />
		<tag k="name" v="Talvik barnehage" />
		<tag k="no-barnehage:nsrid" v="975314049" />
		<tag k="operator" v="Alta kommune" />
		<tag k="operator:type" v="public" />
	</node>
	<node lat="69.92508" lon="23.48941" id="-5345">
		<tag k="ADDRESS" v="Sønvismoen 46, 9537 TVERRELVDALEN" />
		<tag k="amenity" v="kindergarten" />
		<tag k="capacity" v="38" />
		<tag k="max_age" v="5" />
		<tag k="min_age" v="1" />
		<tag k="name" v="Tverrelvdalen barnehage" />
		<tag k="no-barnehage:nsrid" v="974205181" />
		<tag k="operator" v="Alta kommune" />
		<tag k="operator:type" v="public" />
	</node>
	<node lat="69.9581" lon="23.24803" id="-5346">
		<tag k="ADDRESS" v="Skoleåsen 81, 9513 ALTA" />
		<tag k="amenity" v="kindergarten" />
		<tag k="capacity" v="43" />
		<tag k="contact:website" v="http://aasenbarnehage.no" />
		<tag k="max_age" v="5" />
		<tag k="min_age" v="1" />
		<tag k="name" v="Åsen barnehage" />
		<tag k="no-barnehage:nsrid" v="972197440" />
		<tag k="operator" v="Stiftelsen Åsen barnehage" />
		<tag k="operator:type" v="private" />
	</node>
</osm>
