<?xml version="1.0" encoding="UTF-8"?>
<osm version="0.6" generator="osmapis">
	<node lat="70.66605" lon="23.69663" id="-5379">
		<tag k="ADDRESS" v="Moreneveien 19, 9603 HAMMERFEST" />
		<tag k="amenity" v="kindergarten" />
		<tag k="capacity" v="77" />
		<tag k="max_age" v="5" />
		<tag k="min_age" v="1" />
		<tag k="name" v="Elvetun barnehage" />
		<tag k="no-barnehage:nsrid" v="874064122" />
		<tag k="operator" v="Hammerfest kommune" />
		<tag k="operator:type" v="public" />
	</node>
	<node lat="0.0" lon="0.0" id="-5380">
		<tag k="ADDRESS" v="Breidablikk, 9610 RYPEFJORD" />
		<tag k="amenity" v="kindergarten" />
		<tag k="capacity" v="62" />
		<tag k="max_age" v="5" />
		<tag k="min_age" v="1" />
		<tag k="name" v="Fjordadalen FUS barnehage" />
		<tag k="no-barnehage:nsrid" v="996398358" />
		<tag k="operator" v="Fjordadalen Fus barnehage AS" />
		<tag k="operator:type" v="private" />
	</node>
	<node lat="70.72192" lon="23.79715" id="-5381">
		<tag k="ADDRESS" v="Skoleveien 20, 9612 FORSØL" />
		<tag k="amenity" v="kindergarten" />
		<tag k="capacity" v="6" />
		<tag k="max_age" v="5" />
		<tag k="min_age" v="3" />
		<tag k="name" v="Forsøl barnehage" />
		<tag k="no-barnehage:nsrid" v="875314092" />
		<tag k="operator" v="Hammerfest kommune" />
		<tag k="operator:type" v="public" />
	</node>
	<node lat="70.67674" lon="23.68019" id="-5382">
		<tag k="ADDRESS" v="Melkøyveien 1, 9601 HAMMERFEST" />
		<tag k="amenity" v="kindergarten" />
		<tag k="capacity" v="54" />
		<tag k="max_age" v="5" />
		<tag k="min_age" v="1" />
		<tag k="name" v="Håja barnehage" />
		<tag k="no-barnehage:nsrid" v="974795876" />
		<tag k="operator" v="Hammerfest kommune" />
		<tag k="operator:type" v="public" />
	</node>
	<node lat="70.68091" lon="23.69805" id="-5383">
		<tag k="ADDRESS" v="Isbjørnveien 4, 9602 HAMMERFEST" />
		<tag k="amenity" v="kindergarten" />
		<tag k="capacity" v="40" />
		<tag k="max_age" v="5" />
		<tag k="min_age" v="1" />
		<tag k="name" v="Isbjørnhiet barnehage" />
		<tag k="no-barnehage:nsrid" v="995226855" />
		<tag k="operator" v="Isbjørnhiet barnehage SA" />
		<tag k="operator:type" v="private" />
	</node>
	<node lat="70.61227" lon="24.64101" id="-5384">
		<tag k="ADDRESS" v="Kokelvveien 39, 9715 KOKELV" />
		<tag k="amenity" v="kindergarten" />
		<tag k="capacity" v="3" />
		<tag k="max_age" v="5" />
		<tag k="min_age" v="1" />
		<tag k="name" v="Kokelv oppvekstsenter" />
		<tag k="no-barnehage:nsrid" v="974065800" />
		<tag k="operator" v="Hammerfest kommune" />
		<tag k="operator:type" v="public" />
	</node>
	<node lat="70.49699" lon="23.9812" id="-5385">
		<tag k="ADDRESS" v="Dalvegen 30A, 9620 KVALSUND" />
		<tag k="amenity" v="kindergarten" />
		<tag k="capacity" v="23" />
		<tag k="max_age" v="5" />
		<tag k="min_age" v="1" />
		<tag k="name" v="Kvalsund barnehage" />
		<tag k="no-barnehage:nsrid" v="975314111" />
		<tag k="operator" v="Hammerfest kommune" />
		<tag k="operator:type" v="public" />
	</node>
	<node lat="70.67393" lon="23.65499" id="-5386">
		<tag k="ADDRESS" v="Mylingen 3, 9601 HAMMERFEST" />
		<tag k="amenity" v="kindergarten" />
		<tag k="capacity" v="33" />
		<tag k="max_age" v="5" />
		<tag k="min_age" v="1" />
		<tag k="name" v="Mylingen barnehage" />
		<tag k="no-barnehage:nsrid" v="975268101" />
		<tag k="operator" v="Hammerfest kommune" />
		<tag k="operator:type" v="public" />
	</node>
	<node lat="0.0" lon="0.0" id="-5387">
		<tag k="ADDRESS" v="Storvannsveien 96, 9603 HAMMERFEST" />
		<tag k="amenity" v="kindergarten" />
		<tag k="capacity" v="24" />
		<tag k="max_age" v="5" />
		<tag k="min_age" v="1" />
		<tag k="name" v="Nissenskogen barnehage" />
		<tag k="no-barnehage:nsrid" v="975313883" />
		<tag k="operator" v="Hammerfest kommune" />
		<tag k="operator:type" v="public" />
	</node>
	<node lat="70.68969" lon="23.69184" id="-5388">
		<tag k="ADDRESS" v="Mercurs vei 4, 9602 HAMMERFEST" />
		<tag k="amenity" v="kindergarten" />
		<tag k="capacity" v="22" />
		<tag k="contact:website" v="http://www.prarienbarnehage.no" />
		<tag k="max_age" v="5" />
		<tag k="min_age" v="1" />
		<tag k="name" v="Prærien barnehage" />
		<tag k="no-barnehage:nsrid" v="972179361" />
		<tag k="operator" v="Stiftelsen Prærien barnehage" />
		<tag k="operator:type" v="private" />
	</node>
	<node lat="70.67711" lon="23.67569" id="-5389">
		<tag k="ADDRESS" v="Forsølveien 38, 9601 HAMMERFEST" />
		<tag k="amenity" v="kindergarten" />
		<tag k="capacity" v="39" />
		<tag k="max_age" v="5" />
		<tag k="min_age" v="1" />
		<tag k="name" v="Radioen barnehage" />
		<tag k="no-barnehage:nsrid" v="975324583" />
		<tag k="operator" v="Hammerfest kommune" />
		<tag k="operator:type" v="public" />
	</node>
	<node lat="70.6909" lon="23.70079" id="-5390">
		<tag k="ADDRESS" v="Uranusveien 7, 9602 HAMMERFEST" />
		<tag k="amenity" v="kindergarten" />
		<tag k="capacity" v="40" />
		<tag k="max_age" v="5" />
		<tag k="min_age" v="1" />
		<tag k="name" v="Reindalen barnehage" />
		<tag k="no-barnehage:nsrid" v="975315738" />
		<tag k="operator" v="Hammerfest kommune" />
		<tag k="operator:type" v="public" />
	</node>
	<node lat="70.63572" lon="23.68027" id="-5391">
		<tag k="ADDRESS" v="Breidablikk 3, 9610 RYPEFJORD" />
		<tag k="amenity" v="kindergarten" />
		<tag k="capacity" v="40" />
		<tag k="max_age" v="5" />
		<tag k="min_age" v="1" />
		<tag k="name" v="Rypefjord barnehage" />
		<tag k="no-barnehage:nsrid" v="975314103" />
		<tag k="operator" v="Hammerfest kommune" />
		<tag k="operator:type" v="public" />
	</node>
	<node lat="70.64703" lon="23.67229" id="-5392">
		<tag k="ADDRESS" v="Mellomveien 2, 9610 RYPEFJORD" />
		<tag k="amenity" v="kindergarten" />
		<tag k="capacity" v="14" />
		<tag k="contact:website" v="http://www.roverhiet.no" />
		<tag k="max_age" v="5" />
		<tag k="min_age" v="1" />
		<tag k="name" v="Røverhiet" />
		<tag k="no-barnehage:nsrid" v="972340243" />
		<tag k="operator" v="Røverhiet AS" />
		<tag k="operator:type" v="private" />
	</node>
	<node lat="70.65547" lon="23.69725" id="-5393">
		<tag k="ADDRESS" v="Turistveien 6, 9603 HAMMERFEST" />
		<tag k="amenity" v="kindergarten" />
		<tag k="capacity" v="66" />
		<tag k="max_age" v="5" />
		<tag k="min_age" v="1" />
		<tag k="name" v="Tyven barnehage" />
		<tag k="no-barnehage:nsrid" v="972217964" />
		<tag k="operator" v="Hammerfest kommune" />
		<tag k="operator:type" v="public" />
	</node>
</osm>
