<?xml version="1.0" encoding="UTF-8"?>
<osm generator="osmapis" version="0.6">
	<node id="-5617" lat="66.7798" lon="13.541">
		<tag k="amenity" v="kindergarten" />
		<tag k="capacity" v="40" />
		<tag k="contact:email" v="ann.mari.kristensen@meloy.kommune.no" />
		<tag k="contact:phone" v="+47 75751970" />
		<tag k="max_age" v="5" />
		<tag k="min_age" v="1" />
		<tag k="name" v="Vall barnehage" />
		<tag k="no-barnehage:nsrid" v="1014754" />
		<tag k="operator" v="Meløy kommune" />
		<tag k="operator:type" v="public" />
		<tag k="start_date" v="1992-08-01" />
	</node>
	<node id="-5616" lat="66.864" lon="13.7294">
		<tag k="amenity" v="kindergarten" />
		<tag k="capacity" v="30" />
		<tag k="contact:email" v="monika.farestveit@meloy.kommune.no" />
		<tag k="contact:phone" v="+47 75710880" />
		<tag k="max_age" v="5" />
		<tag k="min_age" v="1" />
		<tag k="name" v="Spildra barnehage" />
		<tag k="no-barnehage:nsrid" v="1013302" />
		<tag k="operator" v="Meløy kommune" />
		<tag k="operator:type" v="public" />
		<tag k="start_date" v="2001-08-01" />
	</node>
	<node id="-5615" lat="66.9113" lon="13.6275">
		<tag k="amenity" v="kindergarten" />
		<tag k="capacity" v="58" />
		<tag k="contact:email" v="Trine.stromsvik@meloy.kommune.no" />
		<tag k="contact:phone" v="+47 75710470" />
		<tag k="max_age" v="5" />
		<tag k="min_age" v="1" />
		<tag k="name" v="Reipå barnehage" />
		<tag k="no-barnehage:nsrid" v="1014755" />
		<tag k="operator" v="Meløy kommune" />
		<tag k="operator:type" v="public" />
		<tag k="start_date" v="1992-08-01" />
	</node>
	<node id="-5614" lat="66.8366" lon="13.7692">
		<tag k="amenity" v="kindergarten" />
		<tag k="capacity" v="42" />
		<tag k="contact:email" v="lise.barvik.bergli@meloy.kommune.no" />
		<tag k="contact:phone" v="+47 75710390" />
		<tag k="max_age" v="5" />
		<tag k="min_age" v="1" />
		<tag k="name" v="Neverdal barnehage" />
		<tag k="no-barnehage:nsrid" v="1013670" />
		<tag k="operator" v="Meløy kommune" />
		<tag k="operator:type" v="public" />
		<tag k="start_date" v="1989-01-01" />
	</node>
	<node id="-5613" lat="66.8275" lon="13.3981">
		<tag k="amenity" v="kindergarten" />
		<tag k="capacity" v="12" />
		<tag k="contact:email" v="elisabeth.tostrup@meloy.kommune.no" />
		<tag k="max_age" v="5" />
		<tag k="min_age" v="1" />
		<tag k="name" v="Meløy Oppvekstsenter Avd Solsikken barnehage" />
		<tag k="no-barnehage:nsrid" v="1016425" />
		<tag k="operator" v="Meløy kommune" />
		<tag k="operator:type" v="public" />
		<tag k="start_date" v="2002-08-19" />
	</node>
	<node id="-5612" lat="66.7429" lon="13.5784">
		<tag k="amenity" v="kindergarten" />
		<tag k="capacity" v="44" />
		<tag k="contact:email" v="monica.farsund.nilsen@meloy.kommune.no" />
		<tag k="contact:phone" v="+47 75710355" />
		<tag k="max_age" v="5" />
		<tag k="min_age" v="1" />
		<tag k="name" v="Halsa barnehage" />
		<tag k="no-barnehage:nsrid" v="1013669" />
		<tag k="operator" v="Meløy kommune" />
		<tag k="operator:type" v="public" />
		<tag k="start_date" v="1989-01-01" />
	</node>
	<node id="-5611" lat="66.8127" lon="13.9685">
		<tag k="amenity" v="kindergarten" />
		<tag k="capacity" v="69" />
		<tag k="contact:email" v="marthe.barvik@meloy.kommune.no" />
		<tag k="contact:phone" v="+47 75710900" />
		<tag k="max_age" v="5" />
		<tag k="min_age" v="1" />
		<tag k="name" v="Glomfjord barnehage" />
		<tag k="no-barnehage:nsrid" v="1012534" />
		<tag k="operator" v="Meløy kommune" />
		<tag k="operator:type" v="public" />
		<tag k="start_date" v="1989-01-01" />
	</node>
	<node id="-5610" lat="66.8744" lon="13.712">
		<tag k="amenity" v="kindergarten" />
		<tag k="capacity" v="30" />
		<tag k="contact:email" v="heidi.grytvik@meloy.kommune.no" />
		<tag k="contact:phone" v="+47 75710890" />
		<tag k="max_age" v="5" />
		<tag k="min_age" v="1" />
		<tag k="name" v="Fjøshaugen barnehage" />
		<tag k="no-barnehage:nsrid" v="1016134" />
		<tag k="operator" v="Meløy kommune" />
		<tag k="operator:type" v="public" />
		<tag k="start_date" v="1990-01-01" />
	</node>
	<node id="-5609" lat="66.8024" lon="13.2059">
		<tag k="amenity" v="kindergarten" />
		<tag k="capacity" v="3" />
		<tag k="contact:email" v="wenche.jonassen@meloy.kommune.no" />
		<tag k="max_age" v="5" />
		<tag k="min_age" v="1" />
		<tag k="name" v="Bolga Oppvekstsenter Avd barnehage" />
		<tag k="no-barnehage:nsrid" v="1017914" />
		<tag k="operator" v="Meløy kommune" />
		<tag k="operator:type" v="public" />
		<tag k="start_date" v="2007-08-01" />
	</node>
</osm>
