<?xml version="1.0" encoding="UTF-8"?>
<osm version="0.6" generator="osmapis">
	<node lat="59.2318" lon="10.97565" id="-1822">
		<tag k="ADDRESS" v="Konditorveien 6, 1619 FREDRIKSTAD" />
		<tag k="amenity" v="kindergarten" />
		<tag k="capacity" v="5" />
		<tag k="max_age" v="5" />
		<tag k="min_age" v="1" />
		<tag k="name" v="Hjertestua familiebarnehage" />
		<tag k="no-barnehage:nsrid" v="893008292" />
		<tag k="operator" v="Wenche Pettersen" />
		<tag k="operator:type" v="private" />
	</node>
	<node lat="59.21517" lon="11.00449" id="-1834">
		<tag k="ADDRESS" v="Kong Sverres vei 15, 1639 GAMLE FREDRIKSTAD" />
		<tag k="amenity" v="kindergarten" />
		<tag k="capacity" v="4" />
		<tag k="max_age" v="2" />
		<tag k="min_age" v="1" />
		<tag k="name" v="Lilleputt familiebarnehage Linda Norheim" />
		<tag k="no-barnehage:nsrid" v="981535022" />
		<tag k="operator" v="Lilleputt familiebarnehage Linda Norheim" />
		<tag k="operator:type" v="private" />
	</node>
	<node lat="59.22824" lon="10.99223" id="-1851">
		<tag k="ADDRESS" v="Trykkeriveien 5, 1653 SELLEBAKK" />
		<tag k="amenity" v="kindergarten" />
		<tag k="capacity" v="5" />
		<tag k="max_age" v="5" />
		<tag k="min_age" v="1" />
		<tag k="name" v="Sesam familiebarnehage" />
		<tag k="no-barnehage:nsrid" v="995078732" />
		<tag k="operator" v="Sesam familiebarnehage Anita Jeanett Saastad" />
		<tag k="operator:type" v="private" />
	</node>
	<node lat="59.22879" lon="10.97474" id="-1857">
		<tag k="ADDRESS" v="Lauritz Johnsens vei 3, 1619 FREDRIKSTAD" />
		<tag k="amenity" v="kindergarten" />
		<tag k="capacity" v="5" />
		<tag k="max_age" v="5" />
		<tag k="min_age" v="1" />
		<tag k="name" v="Solstua familiebarnehage" />
		<tag k="no-barnehage:nsrid" v="990642508" />
		<tag k="operator" v="Solstua familiebarnehage Solbjørg Lund Bernabé" />
		<tag k="operator:type" v="private" />
	</node>
	<node lat="59.21812" lon="11.06574" id="-1860">
		<tag k="ADDRESS" v="Hunnbakken 9C, 1655 SELLEBAKK" />
		<tag k="amenity" v="kindergarten" />
		<tag k="capacity" v="5" />
		<tag k="max_age" v="5" />
		<tag k="min_age" v="3" />
		<tag k="name" v="Tommeliten familiebarnehage" />
		<tag k="no-barnehage:nsrid" v="990081891" />
		<tag k="operator" v="Tommeliten familiebarnehage AS" />
		<tag k="operator:type" v="private" />
	</node>
	<node lat="59.22424" lon="11.04151" id="-1861">
		<tag k="ADDRESS" v="Haldenveien 76, 1655 SELLEBAKK" />
		<tag k="amenity" v="kindergarten" />
		<tag k="capacity" v="5" />
		<tag k="max_age" v="5" />
		<tag k="min_age" v="1" />
		<tag k="name" v="Tornerose familiebarnehage" />
		<tag k="no-barnehage:nsrid" v="989408577" />
		<tag k="operator" v="Anett Vikanes Tornerose" />
		<tag k="operator:type" v="private" />
	</node>
	<node lat="59.22701" lon="10.9217" id="-1867">
		<tag k="ADDRESS" v="Mølleveien 4, 1613 FREDRIKSTAD" />
		<tag k="amenity" v="kindergarten" />
		<tag k="capacity" v="5" />
		<tag k="max_age" v="5" />
		<tag k="min_age" v="1" />
		<tag k="name" v="Trosvikhaven familiebarnehage" />
		<tag k="no-barnehage:nsrid" v="995078651" />
		<tag k="operator" v="Trosvikhaven familiebarnehage Anne Marit Osen" />
		<tag k="operator:type" v="private" />
	</node>
	<node lat="59.22764" lon="11.0151" id="-1872">
		<tag k="ADDRESS" v="Nannasvei 35, 1654 SELLEBAKK" />
		<tag k="amenity" v="kindergarten" />
		<tag k="capacity" v="9" />
		<tag k="max_age" v="5" />
		<tag k="min_age" v="1" />
		<tag k="name" v="Ville Villekulla familiebarnehage" />
		<tag k="no-barnehage:nsrid" v="881068842" />
		<tag k="operator" v="Ville Villekulla familiebarnehage AS" />
		<tag k="operator:type" v="private" />
	</node>
	<node lat="59.22335" lon="10.95567" id="-1874">
		<tag k="ADDRESS" v="Holbergs vei 4A, 1605 FREDRIKSTAD" />
		<tag k="amenity" v="kindergarten" />
		<tag k="capacity" v="5" />
		<tag k="max_age" v="5" />
		<tag k="min_age" v="1" />
		<tag k="name" v="Wilberg familiebarnehage" />
		<tag k="no-barnehage:nsrid" v="994945645" />
		<tag k="operator" v="Wilberg familiebarnehage Qun Shen" />
		<tag k="operator:type" v="private" />
	</node>
</osm>
