<?xml version="1.0" encoding="UTF-8"?>
<osm generator="osmapis" version="0.6">
	<node id="-5459" lat="70.08507" lon="29.70734">
		<tag k="ADDRESS" v="Hermann Dahls gate 8, 9801 VADSØ" />
		<tag k="amenity" v="kindergarten" />
		<tag k="capacity" v="44" />
		<tag k="max_age" v="5" />
		<tag k="min_age" v="1" />
		<tag k="name" v="Glimmerstua barnehage" />
		<tag k="no-barnehage:nsrid" v="975184161" />
		<tag k="operator" v="Vadsø kommune" />
		<tag k="operator:type" v="public" />
	</node>
	<node id="-5460" lat="70.07554" lon="29.79244">
		<tag k="ADDRESS" v="Rypeveien 3, 9803 VADSØ" />
		<tag k="amenity" v="kindergarten" />
		<tag k="capacity" v="46" />
		<tag k="max_age" v="5" />
		<tag k="min_age" v="1" />
		<tag k="name" v="Lomakka barnehage" />
		<tag k="no-barnehage:nsrid" v="979332068" />
		<tag k="operator" v="Vadsø kommune" />
		<tag k="operator:type" v="public" />
	</node>
	<node id="-5461" lat="0.0" lon="0.0">
		<tag k="ADDRESS" v="Engstien 7, 9800 VADSØ" />
		<tag k="amenity" v="kindergarten" />
		<tag k="capacity" v="38" />
		<tag k="max_age" v="5" />
		<tag k="min_age" v="1" />
		<tag k="name" v="Maurtua barnehage" />
		<tag k="no-barnehage:nsrid" v="974064561" />
		<tag k="operator" v="Vadsø kommune" />
		<tag k="operator:type" v="public" />
	</node>
	<node id="-5462" lat="70.08839" lon="29.718">
		<tag k="ADDRESS" v="Finnmarksveien 10, 9801 VADSØ" />
		<tag k="amenity" v="kindergarten" />
		<tag k="capacity" v="43" />
		<tag k="max_age" v="5" />
		<tag k="min_age" v="1" />
		<tag k="name" v="Ruija barnehage" />
		<tag k="no-barnehage:nsrid" v="875321862" />
		<tag k="operator" v="Vadsø kommune" />
		<tag k="operator:type" v="public" />
	</node>
	<node id="-5463" lat="70.08206" lon="29.72369">
		<tag k="ADDRESS" v="Stubben 1, 9803 VADSØ" />
		<tag k="amenity" v="kindergarten" />
		<tag k="capacity" v="46" />
		<tag k="max_age" v="5" />
		<tag k="min_age" v="1" />
		<tag k="name" v="Stubben barnehage" />
		<tag k="no-barnehage:nsrid" v="975313921" />
		<tag k="operator" v="Vadsø kommune" />
		<tag k="operator:type" v="public" />
	</node>
	<node id="-5464" lat="70.11742" lon="29.33384">
		<tag k="ADDRESS" v="Lilledalsveien, 9802 VESTRE JAKOBSELV" />
		<tag k="amenity" v="kindergarten" />
		<tag k="capacity" v="22" />
		<tag k="max_age" v="5" />
		<tag k="min_age" v="1" />
		<tag k="name" v="Vadsø kommune Vestre Jakobselv oppvekstsenter avd. barnehage" />
		<tag k="no-barnehage:nsrid" v="972726109" />
		<tag k="operator" v="Vadsø kommune" />
		<tag k="operator:type" v="public" />
	</node>
</osm>
