<?xml version="1.0" encoding="UTF-8"?>
<osm generator="osmapis" version="0.6">
	<node id="-1823" lat="60.16194" lon="10.24144">
		<tag k="amenity" v="kindergarten" />
		<tag k="capacity" v="60" />
		<tag k="contact:website" v="http://blaabaerskogen.barnehage.no" />
		<tag k="max_age" v="5" />
		<tag k="min_age" v="1" />
		<tag k="name" v="Blåbærskogen barnehage" />
		<tag k="no-barnehage:nsrid" v="1020893" />
		<tag k="operator" v="Blåbærskogen barnehage Sa" />
		<tag k="operator:type" v="private" />
	</node>
	<node id="-1822" lat="60.20934" lon="10.37506">
		<tag k="amenity" v="kindergarten" />
		<tag k="capacity" v="27" />
		<tag k="max_age" v="5" />
		<tag k="min_age" v="1" />
		<tag k="name" v="Almgrenda Steinerbarnehage" />
		<tag k="no-barnehage:nsrid" v="1021523" />
		<tag k="operator" v="Stiftelsen Almgrenda Steinerbarnehage" />
		<tag k="operator:type" v="private" />
	</node>
	<node id="-1821" lat="60.18941" lon="10.27345">
		<tag k="amenity" v="kindergarten" />
		<tag k="capacity" v="73" />
		<tag k="max_age" v="5" />
		<tag k="min_age" v="1" />
		<tag k="name" v="Almemoen FUS barnehage" />
		<tag k="no-barnehage:nsrid" v="1021601" />
		<tag k="operator" v="Almemoen Fus barnehage AS" />
		<tag k="operator:type" v="private" />
	</node>
	<node id="-1843" lat="60.17727" lon="10.3422">
		<tag k="amenity" v="kindergarten" />
		<tag k="capacity" v="37" />
		<tag k="contact:website" v="http://www.smeden.barnehageside.no" />
		<tag k="max_age" v="5" />
		<tag k="min_age" v="1" />
		<tag k="name" v="Smeden barnehage" />
		<tag k="no-barnehage:nsrid" v="1020223" />
		<tag k="operator" v="Småbarnsforeldrenes barnehage Ringerike Sa" />
		<tag k="operator:type" v="private" />
	</node>
	<node id="-1841" lat="60.525" lon="10.1036">
		<tag k="amenity" v="kindergarten" />
		<tag k="capacity" v="12" />
		<tag k="max_age" v="5" />
		<tag k="min_age" v="1" />
		<tag k="name" v="Nes barnehage" />
		<tag k="no-barnehage:nsrid" v="1013327" />
		<tag k="operator" v="Ringerike kommune" />
		<tag k="operator:type" v="public" />
	</node>
	<node id="-1840" lat="60.18113" lon="10.32443">
		<tag k="amenity" v="kindergarten" />
		<tag k="capacity" v="77" />
		<tag k="contact:website" v="http://nedreaurengards.barnehage.no/" />
		<tag k="max_age" v="5" />
		<tag k="min_age" v="1" />
		<tag k="name" v="Nedre Auren gårdsbarnehage" />
		<tag k="no-barnehage:nsrid" v="1026048" />
		<tag k="operator" v="Nedre Auren Gårdsbarnehage AS" />
		<tag k="operator:type" v="private" />
	</node>
	<node id="-1839" lat="60.24317" lon="9.925528">
		<tag k="amenity" v="kindergarten" />
		<tag k="capacity" v="22" />
		<tag k="max_age" v="5" />
		<tag k="min_age" v="1" />
		<tag k="name" v="Kirkemoen barnehage" />
		<tag k="no-barnehage:nsrid" v="1019956" />
		<tag k="operator" v="Kirkemoen barnehage Sa" />
		<tag k="operator:type" v="private" />
	</node>
	<node id="-1838" lat="60.1651" lon="10.2566">
		<tag k="amenity" v="kindergarten" />
		<tag k="capacity" v="113" />
		<tag k="max_age" v="5" />
		<tag k="min_age" v="1" />
		<tag k="name" v="Hønefoss barnehage" />
		<tag k="no-barnehage:nsrid" v="1018000" />
		<tag k="operator" v="Ringerike kommune" />
		<tag k="operator:type" v="public" />
	</node>
	<node id="-1837" lat="60.145" lon="10.2471">
		<tag k="amenity" v="kindergarten" />
		<tag k="capacity" v="46" />
		<tag k="max_age" v="5" />
		<tag k="min_age" v="1" />
		<tag k="name" v="Hvervenmoen barnehage" />
		<tag k="no-barnehage:nsrid" v="1013922" />
		<tag k="operator" v="Ringerike kommune" />
		<tag k="operator:type" v="public" />
	</node>
	<node id="-1835" lat="60.18087" lon="10.27909">
		<tag k="amenity" v="kindergarten" />
		<tag k="capacity" v="73" />
		<tag k="max_age" v="5" />
		<tag k="min_age" v="1" />
		<tag k="name" v="Hov barnehage" />
		<tag k="no-barnehage:nsrid" v="1020450" />
		<tag k="operator" v="Hov barnehage Sa" />
		<tag k="operator:type" v="private" />
	</node>
	<node id="-1834" lat="60.1816" lon="10.1979">
		<tag k="amenity" v="kindergarten" />
		<tag k="capacity" v="70" />
		<tag k="contact:website" v="http://www.ringerike.kommune.no/Tjenester/Barnehager/Barnehager-i-Ringerike/Heradsbygda-barnehage/" />
		<tag k="max_age" v="5" />
		<tag k="min_age" v="1" />
		<tag k="name" v="Heradsbygda barnehage" />
		<tag k="no-barnehage:nsrid" v="1017999" />
		<tag k="operator" v="Ringerike kommune" />
		<tag k="operator:type" v="public" />
	</node>
	<node id="-1833" lat="60.1912" lon="10.1815">
		<tag k="amenity" v="kindergarten" />
		<tag k="capacity" v="28" />
		<tag k="max_age" v="5" />
		<tag k="min_age" v="1" />
		<tag k="name" v="Heggen barnehage" />
		<tag k="no-barnehage:nsrid" v="1015139" />
		<tag k="operator" v="Ringerike kommune" />
		<tag k="operator:type" v="public" />
	</node>
	<node id="-1832" lat="60.1733" lon="10.3238">
		<tag k="amenity" v="kindergarten" />
		<tag k="capacity" v="50" />
		<tag k="max_age" v="5" />
		<tag k="min_age" v="1" />
		<tag k="name" v="Haug barnehage" />
		<tag k="no-barnehage:nsrid" v="1017998" />
		<tag k="operator" v="Ringerike kommune" />
		<tag k="operator:type" v="public" />
	</node>
	<node id="-1831" lat="60.2688" lon="10.1789">
		<tag k="amenity" v="kindergarten" />
		<tag k="capacity" v="64" />
		<tag k="max_age" v="5" />
		<tag k="min_age" v="1" />
		<tag k="name" v="Hallingby barnehage" />
		<tag k="no-barnehage:nsrid" v="1014687" />
		<tag k="operator" v="Ringerike kommune" />
		<tag k="operator:type" v="public" />
	</node>
	<node id="-1829" lat="60.14674" lon="10.26259">
		<tag k="amenity" v="kindergarten" />
		<tag k="capacity" v="62" />
		<tag k="max_age" v="5" />
		<tag k="min_age" v="1" />
		<tag k="name" v="Espira Trygstad barnehage" />
		<tag k="no-barnehage:nsrid" v="1021986" />
		<tag k="operator" v="Espira Barnehager AS" />
		<tag k="operator:type" v="private" />
	</node>
	<node id="-1828" lat="60.18196" lon="10.26426">
		<tag k="amenity" v="kindergarten" />
		<tag k="capacity" v="83" />
		<tag k="contact:website" v="http://www.espira.no" />
		<tag k="max_age" v="5" />
		<tag k="min_age" v="1" />
		<tag k="name" v="Espira Hovsmarka barnehage" />
		<tag k="no-barnehage:nsrid" v="1022006" />
		<tag k="operator" v="Espira Barnehager AS" />
		<tag k="operator:type" v="private" />
	</node>
	<node id="-1827" lat="60.23497" lon="9.965029">
		<tag k="amenity" v="kindergarten" />
		<tag k="capacity" v="37" />
		<tag k="max_age" v="5" />
		<tag k="min_age" v="1" />
		<tag k="name" v="Elling H Tuft &amp; Sokna natur- og gårdsbarnehage" />
		<tag k="no-barnehage:nsrid" v="1020425" />
		<tag k="operator" v="Elling H Tuft &amp; Sokna Natur- og Gårdsbarnehage" />
		<tag k="operator:type" v="private" />
	</node>
	<node id="-1826" lat="60.1583" lon="10.2543">
		<tag k="amenity" v="kindergarten" />
		<tag k="capacity" v="80" />
		<tag k="max_age" v="5" />
		<tag k="min_age" v="1" />
		<tag k="name" v="Eikli barnehage" />
		<tag k="no-barnehage:nsrid" v="1012494" />
		<tag k="operator" v="Ringerike kommune" />
		<tag k="operator:type" v="public" />
	</node>
	<node id="-1825" lat="60.15421" lon="10.25493">
		<tag k="amenity" v="kindergarten" />
		<tag k="capacity" v="49" />
		<tag k="max_age" v="5" />
		<tag k="min_age" v="1" />
		<tag k="name" v="Dalsbråten barnehage" />
		<tag k="no-barnehage:nsrid" v="1019981" />
		<tag k="operator" v="Dalsbråten barnehage Sa" />
		<tag k="operator:type" v="private" />
	</node>
</osm>
