<?xml version="1.0" encoding="UTF-8"?>
<osm generator="osmapis" version="0.6">
	<node id="-2400" lat="60.17749" lon="10.23759">
		<tag k="amenity" v="kindergarten" />
		<tag k="capacity" v="10" />
		<tag k="max_age" v="5" />
		<tag k="min_age" v="1" />
		<tag k="name" v="Vesleveien familiebarnehage" />
		<tag k="no-barnehage:nsrid" v="1021853" />
		<tag k="operator" v="Vesleveien Familiebarnehage AS" />
		<tag k="operator:type" v="private" />
	</node>
	<node id="-2374" lat="60.28704" lon="10.18934">
		<tag k="amenity" v="kindergarten" />
		<tag k="capacity" v="10" />
		<tag k="max_age" v="5" />
		<tag k="min_age" v="1" />
		<tag k="name" v="Bondeheimen familiebarnehage" />
		<tag k="no-barnehage:nsrid" v="1022391" />
		<tag k="operator" v="Vestre Aker Omsorg AS" />
		<tag k="operator:type" v="private" />
	</node>
	<node id="-2380" lat="60.09165" lon="10.10926">
		<tag k="amenity" v="kindergarten" />
		<tag k="capacity" v="9" />
		<tag k="max_age" v="5" />
		<tag k="min_age" v="1" />
		<tag k="name" v="Fegri familiebarnehage" />
		<tag k="no-barnehage:nsrid" v="1021169" />
		<tag k="operator" v="Fegri Familiebarnehage Siv Modalen Bakken" />
		<tag k="operator:type" v="private" />
	</node>
	<node id="-2386" lat="60.249" lon="10.17164">
		<tag k="amenity" v="kindergarten" />
		<tag k="capacity" v="8" />
		<tag k="max_age" v="2" />
		<tag k="min_age" v="1" />
		<tag k="name" v="Hundremeterskogen familiebarnehage Grethe Marie Madsen Simarud" />
		<tag k="no-barnehage:nsrid" v="1022277" />
		<tag k="operator" v="Hundremeterskogen Familiebarnehage Grethe Marie Madsen Simarud" />
		<tag k="operator:type" v="private" />
	</node>
	<node id="-2393" lat="60.1646" lon="10.34434">
		<tag k="amenity" v="kindergarten" />
		<tag k="capacity" v="8" />
		<tag k="max_age" v="2" />
		<tag k="min_age" v="1" />
		<tag k="name" v="Skogstjernen familiebarnehage" />
		<tag k="no-barnehage:nsrid" v="1022296" />
		<tag k="operator" v="Skogstjernen Familiebarnehage AS" />
		<tag k="operator:type" v="private" />
	</node>
</osm>
