<?xml version="1.0" encoding="UTF-8"?>
<osm generator="osmapis" version="0.6">
	<node id="-2330" lat="60.16822" lon="10.25642">
		<tag k="amenity" v="kindergarten" />
		<tag k="capacity" v="3" />
		<tag k="contact:email" v="torbjorg_elise@outlook.com" />
		<tag k="contact:phone" v="+47 41673555" />
		<tag k="max_age" v="2" />
		<tag k="min_age" v="1" />
		<tag k="name" v="Viul Familiebarnehage T E Faafeng" />
		<tag k="no-barnehage:nsrid" v="1021184" />
		<tag k="operator" v="Viul Familiebarnehage T E Faafeng" />
		<tag k="operator:type" v="private" />
		<tag k="start_date" v="2005-02-15" />
	</node>
	<node id="-2329" lat="60.1775" lon="10.23759">
		<tag k="amenity" v="kindergarten" />
		<tag k="capacity" v="11" />
		<tag k="contact:email" v="vesleveienfamiliebarnehage@outlook.com" />
		<tag k="contact:phone" v="+47 92408229" />
		<tag k="max_age" v="5" />
		<tag k="min_age" v="1" />
		<tag k="name" v="Vesleveien Familiebarnehage AS" />
		<tag k="no-barnehage:nsrid" v="1021853" />
		<tag k="operator" v="Vesleveien Familiebarnehage AS" />
		<tag k="operator:type" v="private" />
		<tag k="start_date" v="1998-02-16" />
	</node>
	<node id="-2324" lat="60.07673" lon="10.10247">
		<tag k="amenity" v="kindergarten" />
		<tag k="capacity" v="10" />
		<tag k="contact:email" v="marion_amundsen@hotmail.com" />
		<tag k="contact:phone" v="+47 456 01 099" />
		<tag k="max_age" v="5" />
		<tag k="min_age" v="1" />
		<tag k="name" v="Solstad Familiebarnehage M Amundsen" />
		<tag k="no-barnehage:nsrid" v="1021954" />
		<tag k="operator" v="Solstad Familiebarnehage M Amundsen" />
		<tag k="operator:type" v="private" />
		<tag k="start_date" v="2009-08-24" />
	</node>
	<node id="-2322" lat="60.1646" lon="10.34434">
		<tag k="amenity" v="kindergarten" />
		<tag k="capacity" v="8" />
		<tag k="contact:email" v="skogstjernen@hotmail.no" />
		<tag k="contact:phone" v="+47 976 71 369" />
		<tag k="max_age" v="2" />
		<tag k="min_age" v="1" />
		<tag k="name" v="Skogstjernen Familiebarnehage AS" />
		<tag k="no-barnehage:nsrid" v="1022296" />
		<tag k="operator" v="Skogstjernen Familiebarnehage AS" />
		<tag k="operator:type" v="private" />
		<tag k="start_date" v="2012-06-26" />
	</node>
	<node id="-2317" lat="60.27143" lon="10.18451">
		<tag k="amenity" v="kindergarten" />
		<tag k="capacity" v="8" />
		<tag k="contact:email" v="post@100meterskogenfamiliebarnehage.no" />
		<tag k="contact:phone" v="+47 90513811" />
		<tag k="max_age" v="2" />
		<tag k="min_age" v="1" />
		<tag k="name" v="Hundremeterskogen Familiebarnehage Grethe Marie Madsen Simarud" />
		<tag k="no-barnehage:nsrid" v="1022277" />
		<tag k="operator" v="Hundremeterskogen Familiebarnehage Grethe Marie Madsen Simarud" />
		<tag k="operator:type" v="private" />
		<tag k="start_date" v="2012-10-01" />
	</node>
	<node id="-2311" lat="60.09166" lon="10.10926">
		<tag k="amenity" v="kindergarten" />
		<tag k="capacity" v="11" />
		<tag k="contact:email" v="runba@online.no" />
		<tag k="contact:phone" v="+47 32 12 40 41" />
		<tag k="max_age" v="5" />
		<tag k="min_age" v="1" />
		<tag k="name" v="Fegri Familiebarnehage Avd Siv" />
		<tag k="no-barnehage:nsrid" v="1021169" />
		<tag k="operator" v="Fegri Familiebarnehage Siv Modalen Bakken" />
		<tag k="operator:type" v="private" />
		<tag k="start_date" v="2005-03-01" />
	</node>
	<node id="-2305" lat="60.28708" lon="10.18936">
		<tag k="amenity" v="kindergarten" />
		<tag k="capacity" v="8" />
		<tag k="contact:email" v="ochrkleppe@hotmail.no" />
		<tag k="contact:phone" v="+47 41519357" />
		<tag k="max_age" v="5" />
		<tag k="min_age" v="1" />
		<tag k="name" v="Bondeheimen Familiebarnehage" />
		<tag k="no-barnehage:nsrid" v="1022391" />
		<tag k="operator" v="Vestre Aker Omsorg AS" />
		<tag k="operator:type" v="private" />
		<tag k="start_date" v="2013-05-01" />
	</node>
</osm>
