<?xml version="1.0" encoding="UTF-8"?>
<osm generator="osmapis" version="0.6">
	<node id="-1725" lat="60.1779" lon="12.0269">
		<tag k="amenity" v="kindergarten" />
		<tag k="capacity" v="42" />
		<tag k="contact:email" v="may.elin.solheim@edu.kongsvinger.kommune.no" />
		<tag k="contact:phone" v="+47 62815241" />
		<tag k="doNotImportAddress" v="Bokfinkvegen 36 2209 KONGSVINGER" />
		<tag k="max_age" v="5" />
		<tag k="min_age" v="1" />
		<tag k="name" v="Vinger barnehage avd. Vennersberg" />
		<tag k="no-barnehage:nsrid" v="1012747" />
		<tag k="operator" v="Kongsvinger kommune" />
		<tag k="operator:type" v="public" />
	</node>
	<node id="-1724" lat="60.1741" lon="12.0301">
		<tag k="amenity" v="kindergarten" />
		<tag k="capacity" v="54" />
		<tag k="contact:email" v="may.elin.solheim@edu.kongsvinger.kommune.no" />
		<tag k="contact:phone" v="+47 62823470" />
		<tag k="doNotImportAddress" v="Kråkevegen 40 2209 KONGSVINGER" />
		<tag k="max_age" v="5" />
		<tag k="min_age" v="1" />
		<tag k="name" v="Vinger barnehage avd. Amundheimet" />
		<tag k="no-barnehage:nsrid" v="1016017" />
		<tag k="operator" v="Kongsvinger kommune" />
		<tag k="operator:type" v="public" />
	</node>
	<node id="-1723" lat="60.2039" lon="11.9781">
		<tag k="amenity" v="kindergarten" />
		<tag k="capacity" v="57" />
		<tag k="contact:email" v="maria.chr.bjolseth@kongsvinger.kommune.no" />
		<tag k="contact:phone" v="+47 62 81 84 33" />
		<tag k="doNotImportAddress" v="Vangenspissen 2 2212 KONGSVINGER" />
		<tag k="max_age" v="5" />
		<tag k="min_age" v="1" />
		<tag k="name" v="Vangen barnehage" />
		<tag k="no-barnehage:nsrid" v="1012748" />
		<tag k="operator" v="Kongsvinger kommune" />
		<tag k="operator:type" v="public" />
	</node>
	<node id="-1722" lat="60.1798" lon="12.00835">
		<tag k="amenity" v="kindergarten" />
		<tag k="capacity" v="141" />
		<tag k="contact:email" v="dl.puttara@bhg.no" />
		<tag k="contact:phone" v="+47 90 26 81 53" />
		<tag k="doNotImportAddress" v="Holtbergvegen 7 2211 KONGSVINGER" />
		<tag k="max_age" v="5" />
		<tag k="min_age" v="1" />
		<tag k="name" v="Puttara FUS barnehage" />
		<tag k="no-barnehage:nsrid" v="1022111" />
		<tag k="operator" v="Puttara Fus barnehage AS" />
		<tag k="operator:type" v="private" />
	</node>
	<node id="-1721" lat="60.25073" lon="12.05645">
		<tag k="amenity" v="kindergarten" />
		<tag k="capacity" v="78" />
		<tag k="contact:email" v="dagligleder@myrulla.no" />
		<tag k="contact:phone" v="+47 62 88 86 90" />
		<tag k="doNotImportAddress" v="Mygglivegen 13 2216 ROVERUD" />
		<tag k="max_age" v="5" />
		<tag k="min_age" v="1" />
		<tag k="name" v="Myrulla barnehage" />
		<tag k="no-barnehage:nsrid" v="1019953" />
		<tag k="operator" v="Roverud barnehage Sa" />
		<tag k="operator:type" v="private" />
	</node>
	<node id="-1720" lat="60.1898" lon="11.9754">
		<tag k="amenity" v="kindergarten" />
		<tag k="capacity" v="62" />
		<tag k="contact:email" v="Inger.Leersandstad@kongsvinger.kommune.no" />
		<tag k="contact:phone" v="+47 62802690" />
		<tag k="doNotImportAddress" v="Jørgen Dales Veg 2 2208 KONGSVINGER" />
		<tag k="max_age" v="5" />
		<tag k="min_age" v="1" />
		<tag k="name" v="Marikollen barnehage" />
		<tag k="no-barnehage:nsrid" v="1017241" />
		<tag k="operator" v="Kongsvinger kommune" />
		<tag k="operator:type" v="public" />
	</node>
	<node id="-1719" lat="60.18607" lon="11.98415">
		<tag k="amenity" v="kindergarten" />
		<tag k="capacity" v="108" />
		<tag k="contact:email" v="hilde@liabarnehage.no" />
		<tag k="contact:phone" v="+47 62 81 14 20" />
		<tag k="contact:website" v="http://www.liabarnehage.no" />
		<tag k="doNotImportAddress" v="Bæreiavegen 116 2208 KONGSVINGER" />
		<tag k="max_age" v="5" />
		<tag k="min_age" v="1" />
		<tag k="name" v="Lia barnehage" />
		<tag k="no-barnehage:nsrid" v="1019955" />
		<tag k="operator" v="Lia barnehage Sa" />
		<tag k="operator:type" v="private" />
	</node>
	<node id="-1718" lat="60.1969" lon="11.9935">
		<tag k="amenity" v="kindergarten" />
		<tag k="capacity" v="75" />
		<tag k="contact:email" v="maria.chr.bjolseth@kongsvinger.kommune.no" />
		<tag k="contact:phone" v="+47 62 80 84 50" />
		<tag k="doNotImportAddress" v="W.Faye Hansens Veg 5 2214 KONGSVINGER" />
		<tag k="max_age" v="5" />
		<tag k="min_age" v="1" />
		<tag k="name" v="Langeland barnehage" />
		<tag k="no-barnehage:nsrid" v="1012746" />
		<tag k="operator" v="Kongsvinger kommune" />
		<tag k="operator:type" v="public" />
	</node>
	<node id="-1717" lat="60.1754" lon="12.0141">
		<tag k="amenity" v="kindergarten" />
		<tag k="capacity" v="65" />
		<tag k="contact:email" v="gunn.kristin.haugen@eskoleia.no" />
		<tag k="contact:phone" v="+47 98090527" />
		<tag k="doNotImportAddress" v="Bevervegen 8 2211 KONGSVINGER" />
		<tag k="max_age" v="5" />
		<tag k="min_age" v="1" />
		<tag k="name" v="Eskoleia barnehage" />
		<tag k="no-barnehage:nsrid" v="1014015" />
		<tag k="operator" v="Eskoleia AS" />
		<tag k="operator:type" v="private" />
	</node>
	<node id="-1716" lat="60.3272" lon="12.0001">
		<tag k="amenity" v="kindergarten" />
		<tag k="capacity" v="36" />
		<tag k="contact:email" v="MariAnne.Rapstad@kongsvinger.kommune.no" />
		<tag k="contact:phone" v="+47 62823630" />
		<tag k="doNotImportAddress" v="Strandli 21 2219 BRANDVAL" />
		<tag k="max_age" v="5" />
		<tag k="min_age" v="1" />
		<tag k="name" v="Brandval barnehage" />
		<tag k="no-barnehage:nsrid" v="1012750" />
		<tag k="operator" v="Kongsvinger kommune" />
		<tag k="operator:type" v="public" />
	</node>
	<node id="-1715" lat="60.10291" lon="12.31977">
		<tag k="amenity" v="kindergarten" />
		<tag k="capacity" v="28" />
		<tag k="contact:email" v="austmarka.barnehage@east.no" />
		<tag k="contact:phone" v="+47 62 82 82 70" />
		<tag k="doNotImportAddress" v="Åbogenvegen 31 2224 AUSTMARKA" />
		<tag k="max_age" v="5" />
		<tag k="min_age" v="1" />
		<tag k="name" v="Austmarka barnehage" />
		<tag k="no-barnehage:nsrid" v="1020040" />
		<tag k="operator" v="Austmarka barnehage Sa" />
		<tag k="operator:type" v="private" />
	</node>
</osm>
