<?xml version="1.0" encoding="UTF-8"?>
<osm generator="osmapis" version="0.6">
	<node id="-1785" lat="60.1779" lon="12.0269">
		<tag k="amenity" v="kindergarten" />
		<tag k="capacity" v="49" />
		<tag k="contact:email" v="mayelin.solheim@kongsvinger.kommune.no" />
		<tag k="contact:phone" v="62815241" />
		<tag k="max_age" v="5" />
		<tag k="min_age" v="1" />
		<tag k="name" v="Vinger barnehage Avd Vennersberg" />
		<tag k="no-barnehage:nsrid" v="1012747" />
		<tag k="operator" v="Kongsvinger kommune" />
		<tag k="operator:type" v="public" />
		<tag k="start_date" v="1988-04-01" />
	</node>
	<node id="-1784" lat="60.1741" lon="12.0301">
		<tag k="amenity" v="kindergarten" />
		<tag k="capacity" v="52" />
		<tag k="contact:email" v="mayelin.solheim@kongsvinger.kommune.no" />
		<tag k="contact:phone" v="62823470" />
		<tag k="max_age" v="5" />
		<tag k="min_age" v="1" />
		<tag k="name" v="Vinger barnehage Avd Amundheimet" />
		<tag k="no-barnehage:nsrid" v="1016017" />
		<tag k="operator" v="Kongsvinger kommune" />
		<tag k="operator:type" v="public" />
		<tag k="start_date" v="1990-08-15" />
	</node>
	<node id="-1783" lat="60.2039" lon="11.9781">
		<tag k="amenity" v="kindergarten" />
		<tag k="capacity" v="58" />
		<tag k="contact:email" v="maria.chr.bjolseth@kongsvinger.kommune.no" />
		<tag k="contact:phone" v="62 81 84 33" />
		<tag k="max_age" v="5" />
		<tag k="min_age" v="1" />
		<tag k="name" v="Vangen barnehage" />
		<tag k="no-barnehage:nsrid" v="1012748" />
		<tag k="operator" v="Kongsvinger kommune" />
		<tag k="operator:type" v="public" />
		<tag k="start_date" v="1988-04-01" />
	</node>
	<node id="-1782" lat="60.1969" lon="11.9935">
		<tag k="amenity" v="kindergarten" />
		<tag k="capacity" v="78" />
		<tag k="contact:email" v="maria.chr.bjolseth@kongsvinger.kommune.no" />
		<tag k="contact:phone" v="62 80 84 50" />
		<tag k="max_age" v="5" />
		<tag k="min_age" v="1" />
		<tag k="name" v="Sentrum barnehage Avd Langeland" />
		<tag k="no-barnehage:nsrid" v="1012746" />
		<tag k="operator" v="Kongsvinger kommune" />
		<tag k="operator:type" v="public" />
		<tag k="start_date" v="1988-04-01" />
	</node>
	<node id="-1781" lat="60.1798" lon="12.00835">
		<tag k="amenity" v="kindergarten" />
		<tag k="capacity" v="146" />
		<tag k="contact:email" v="hege.b.a@online.no" />
		<tag k="contact:phone" v="90 26 81 53" />
		<tag k="max_age" v="5" />
		<tag k="min_age" v="1" />
		<tag k="name" v="Puttara Fus barnehage AS" />
		<tag k="no-barnehage:nsrid" v="1022111" />
		<tag k="operator" v="Puttara Fus barnehage AS" />
		<tag k="operator:type" v="private" />
		<tag k="start_date" v="2011-01-01" />
	</node>
	<node id="-1780" lat="60.25073" lon="12.05645">
		<tag k="amenity" v="kindergarten" />
		<tag k="capacity" v="77" />
		<tag k="contact:email" v="styrer@myrulla.no" />
		<tag k="contact:phone" v="62 88 86 90" />
		<tag k="max_age" v="5" />
		<tag k="min_age" v="1" />
		<tag k="name" v="Myrulla barnehage" />
		<tag k="no-barnehage:nsrid" v="1019953" />
		<tag k="operator" v="Roverud barnehage Sa" />
		<tag k="operator:type" v="private" />
		<tag k="start_date" v="1991-01-01" />
	</node>
	<node id="-1779" lat="60.1898" lon="11.9754">
		<tag k="amenity" v="kindergarten" />
		<tag k="capacity" v="61" />
		<tag k="contact:email" v="Inger.Leersandstad@kongsvinger.kommune.no" />
		<tag k="contact:phone" v="62802690" />
		<tag k="max_age" v="5" />
		<tag k="min_age" v="1" />
		<tag k="name" v="Marikollen barnehage" />
		<tag k="no-barnehage:nsrid" v="1017241" />
		<tag k="operator" v="Kongsvinger kommune" />
		<tag k="operator:type" v="public" />
		<tag k="start_date" v="2007-01-01" />
	</node>
	<node id="-1778" lat="60.18607" lon="11.98415">
		<tag k="amenity" v="kindergarten" />
		<tag k="capacity" v="109" />
		<tag k="contact:email" v="hilde@liabarnehage.no" />
		<tag k="contact:phone" v="62 81 14 20" />
		<tag k="contact:website" v="http://www.liabarnehage.no" />
		<tag k="max_age" v="5" />
		<tag k="min_age" v="1" />
		<tag k="name" v="Lia barnehage Sa" />
		<tag k="no-barnehage:nsrid" v="1019955" />
		<tag k="operator" v="Lia barnehage Sa" />
		<tag k="operator:type" v="private" />
		<tag k="start_date" v="1991-01-01" />
	</node>
	<node id="-1777" lat="60.1754" lon="12.0141">
		<tag k="amenity" v="kindergarten" />
		<tag k="capacity" v="75" />
		<tag k="contact:email" v="gunn.kristin.haugen@eskoleia.no" />
		<tag k="contact:phone" v="98090527" />
		<tag k="max_age" v="5" />
		<tag k="min_age" v="1" />
		<tag k="name" v="Eskoleia barnehage" />
		<tag k="no-barnehage:nsrid" v="1014015" />
		<tag k="operator" v="Eskoleia AS" />
		<tag k="operator:type" v="private" />
		<tag k="start_date" v="2009-01-01" />
	</node>
	<node id="-1776" lat="60.3272" lon="12.0001">
		<tag k="amenity" v="kindergarten" />
		<tag k="capacity" v="39" />
		<tag k="contact:email" v="MariAnne.Rapstad@kongsvinger.kommune.no" />
		<tag k="contact:phone" v="62823630" />
		<tag k="max_age" v="5" />
		<tag k="min_age" v="1" />
		<tag k="name" v="Brandval barnehage" />
		<tag k="no-barnehage:nsrid" v="1012750" />
		<tag k="operator" v="Kongsvinger kommune" />
		<tag k="operator:type" v="public" />
		<tag k="start_date" v="1989-01-02" />
	</node>
	<node id="-1775" lat="60.10291" lon="12.31977">
		<tag k="amenity" v="kindergarten" />
		<tag k="capacity" v="29" />
		<tag k="contact:email" v="austmarka.barnehage@east.no" />
		<tag k="contact:phone" v="62 82 82 70" />
		<tag k="max_age" v="5" />
		<tag k="min_age" v="1" />
		<tag k="name" v="Austmarka barnehage Al" />
		<tag k="no-barnehage:nsrid" v="1020040" />
		<tag k="operator" v="Austmarka barnehage Sa" />
		<tag k="operator:type" v="private" />
		<tag k="start_date" v="1991-08-01" />
	</node>
</osm>
