<?xml version="1.0" encoding="UTF-8"?>
<osm generator="osmapis" version="0.6">
	<node id="-1920" lat="61.1909" lon="10.3083">
		<tag k="amenity" v="kindergarten" />
		<tag k="capacity" v="18" />
		<tag k="max_age" v="5" />
		<tag k="min_age" v="1" />
		<tag k="name" v="Buvollen barnehage" />
		<tag k="no-barnehage:nsrid" v="1012784" />
		<tag k="operator" v="Lillehammer kommune" />
		<tag k="operator:type" v="public" />
	</node>
	<node id="-1918" lat="61.13411" lon="10.50637">
		<tag k="amenity" v="kindergarten" />
		<tag k="capacity" v="27" />
		<tag k="max_age" v="5" />
		<tag k="min_age" v="1" />
		<tag k="name" v="Birkebeineren friluftsbarnehage" />
		<tag k="no-barnehage:nsrid" v="1020514" />
		<tag k="operator" v="Birkebeineren Friluftsbarnehage Sa" />
		<tag k="operator:type" v="private" />
	</node>
	<node id="-1917" lat="61.11195" lon="10.47774">
		<tag k="amenity" v="kindergarten" />
		<tag k="capacity" v="17" />
		<tag k="contact:website" v="http://www.aladden.info" />
		<tag k="max_age" v="5" />
		<tag k="min_age" v="1" />
		<tag k="name" v="Askeladden barnehage" />
		<tag k="no-barnehage:nsrid" v="1019638" />
		<tag k="operator" v="Askeladden barnehage Sa" />
		<tag k="operator:type" v="private" />
	</node>
	<node id="-1926" lat="61.10253" lon="10.50963">
		<tag k="amenity" v="kindergarten" />
		<tag k="capacity" v="13" />
		<tag k="contact:website" v="http://www.hestehoven-barnehage.no" />
		<tag k="max_age" v="5" />
		<tag k="min_age" v="1" />
		<tag k="name" v="Hestehoven barnehage" />
		<tag k="no-barnehage:nsrid" v="1019694" />
		<tag k="operator" v="Hestehoven barnehage Sa" />
		<tag k="operator:type" v="private" />
	</node>
	<node id="-1925" lat="61.13067" lon="10.4514">
		<tag k="amenity" v="kindergarten" />
		<tag k="capacity" v="77" />
		<tag k="max_age" v="5" />
		<tag k="min_age" v="1" />
		<tag k="name" v="Hammermo FUS barnehage" />
		<tag k="no-barnehage:nsrid" v="1021741" />
		<tag k="operator" v="Hammermo Fus barnehage AS" />
		<tag k="operator:type" v="private" />
	</node>
	<node id="-1924" lat="61.09467" lon="10.48539">
		<tag k="amenity" v="kindergarten" />
		<tag k="capacity" v="30" />
		<tag k="max_age" v="5" />
		<tag k="min_age" v="1" />
		<tag k="name" v="Hagehaugen barnehage" />
		<tag k="no-barnehage:nsrid" v="1019774" />
		<tag k="operator" v="Hagehaugen barnehage Sa" />
		<tag k="operator:type" v="private" />
	</node>
	<node id="-1923" lat="61.13613" lon="10.46395">
		<tag k="amenity" v="kindergarten" />
		<tag k="capacity" v="82" />
		<tag k="max_age" v="5" />
		<tag k="min_age" v="1" />
		<tag k="name" v="Fagstadlia FUS barnehage avd. Ã˜vre" />
		<tag k="no-barnehage:nsrid" v="1021239" />
		<tag k="operator" v="Fagstadlia Fus barnehage AS" />
		<tag k="operator:type" v="private" />
	</node>
	<node id="-1922" lat="61.13397" lon="10.45187">
		<tag k="amenity" v="kindergarten" />
		<tag k="capacity" v="38" />
		<tag k="contact:website" v="http://www.hovslageren.barnehage.no" />
		<tag k="max_age" v="5" />
		<tag k="min_age" v="1" />
		<tag k="name" v="Fagstadlia FUS barnehage avd. Nedre" />
		<tag k="no-barnehage:nsrid" v="1019750" />
		<tag k="operator" v="Fagstadlia Fus barnehage AS" />
		<tag k="operator:type" v="private" />
	</node>
	<node id="-1921" lat="61.09518" lon="10.48265">
		<tag k="amenity" v="kindergarten" />
		<tag k="capacity" v="90" />
		<tag k="max_age" v="5" />
		<tag k="min_age" v="1" />
		<tag k="name" v="Engesvea FUS barnehage" />
		<tag k="no-barnehage:nsrid" v="1021602" />
		<tag k="operator" v="Engesvea Fus barnehage AS" />
		<tag k="operator:type" v="private" />
	</node>
</osm>
