<?xml version="1.0" encoding="UTF-8"?>
<osm generator="osmapis" version="0.6">
	<node id="-1690" lat="60.41282" lon="10.54981">
		<tag k="amenity" v="kindergarten" />
		<tag k="capacity" v="80" />
		<tag k="contact:website" v="http://www.trulserudenga.no" />
		<tag k="max_age" v="5" />
		<tag k="min_age" v="1" />
		<tag k="name" v="Trulserudenga barnehage" />
		<tag k="no-barnehage:nsrid" v="1020892" />
		<tag k="operator" v="Trulserudenga barnehage Sa" />
		<tag k="operator:type" v="private" />
	</node>
	<node id="-1689" lat="60.3827" lon="10.5769">
		<tag k="amenity" v="kindergarten" />
		<tag k="capacity" v="64" />
		<tag k="max_age" v="5" />
		<tag k="min_age" v="1" />
		<tag k="name" v="Solheim barnehage" />
		<tag k="no-barnehage:nsrid" v="1017971" />
		<tag k="operator" v="Gran kommune" />
		<tag k="operator:type" v="public" />
	</node>
	<node id="-1688" lat="60.33435" lon="10.53694">
		<tag k="amenity" v="kindergarten" />
		<tag k="capacity" v="42" />
		<tag k="contact:website" v="http://www.rakalauv.barnehageside.no" />
		<tag k="max_age" v="5" />
		<tag k="min_age" v="1" />
		<tag k="name" v="Rakalauv barnehage" />
		<tag k="no-barnehage:nsrid" v="1020216" />
		<tag k="operator" v="Rakalauv barnehage Sa" />
		<tag k="operator:type" v="private" />
	</node>
	<node id="-1687" lat="60.4115" lon="10.5029">
		<tag k="amenity" v="kindergarten" />
		<tag k="capacity" v="50" />
		<tag k="max_age" v="5" />
		<tag k="min_age" v="1" />
		<tag k="name" v="Marka barnehage" />
		<tag k="no-barnehage:nsrid" v="1012561" />
		<tag k="operator" v="Gran kommune" />
		<tag k="operator:type" v="public" />
	</node>
	<node id="-1686" lat="60.3578" lon="10.4637">
		<tag k="amenity" v="kindergarten" />
		<tag k="capacity" v="30" />
		<tag k="max_age" v="5" />
		<tag k="min_age" v="1" />
		<tag k="name" v="Leikvoll barnehage" />
		<tag k="no-barnehage:nsrid" v="1017500" />
		<tag k="operator" v="Gran kommune" />
		<tag k="operator:type" v="public" />
	</node>
	<node id="-1683" lat="60.4178" lon="10.5569">
		<tag k="amenity" v="kindergarten" />
		<tag k="capacity" v="89" />
		<tag k="max_age" v="5" />
		<tag k="min_age" v="1" />
		<tag k="name" v="Fagerlund barnehage" />
		<tag k="no-barnehage:nsrid" v="1017907" />
		<tag k="operator" v="Gran kommune" />
		<tag k="operator:type" v="public" />
	</node>
	<node id="-1681" lat="60.4651" lon="10.4858">
		<tag k="amenity" v="kindergarten" />
		<tag k="capacity" v="21" />
		<tag k="max_age" v="5" />
		<tag k="min_age" v="1" />
		<tag k="name" v="Bjørklund barnehage" />
		<tag k="no-barnehage:nsrid" v="1017970" />
		<tag k="operator" v="Gran kommune" />
		<tag k="operator:type" v="public" />
	</node>
	<node id="-1680" lat="60.41285" lon="10.50686">
		<tag k="amenity" v="kindergarten" />
		<tag k="capacity" v="34" />
		<tag k="contact:website" v="http://www.bergseng.barnehageside.no" />
		<tag k="max_age" v="5" />
		<tag k="min_age" v="1" />
		<tag k="name" v="Bergseng bondegårdsbarnehage" />
		<tag k="no-barnehage:nsrid" v="1020226" />
		<tag k="operator" v="Tøfte Mette Irene Bergseng Bondegårdsbarnehage" />
		<tag k="operator:type" v="private" />
	</node>
</osm>
