<?xml version="1.0" encoding="UTF-8"?>
<osm generator="osmapis" version="0.6">
	<node id="-2193" lat="60.41282" lon="10.54981">
		<tag k="amenity" v="kindergarten" />
		<tag k="capacity" v="79" />
		<tag k="contact:email" v="post@trulserudenga.no" />
		<tag k="contact:phone" v="61 33 66 77" />
		<tag k="contact:website" v="http://www.trulserudenga.no" />
		<tag k="max_age" v="5" />
		<tag k="min_age" v="1" />
		<tag k="name" v="Trulserudenga barnehage" />
		<tag k="no-barnehage:nsrid" v="1020892" />
		<tag k="operator" v="Trulserudenga barnehage Sa" />
		<tag k="operator:type" v="private" />
		<tag k="start_date" v="2003-03-03" />
	</node>
	<node id="-2192" lat="60.43977" lon="10.58834">
		<tag k="amenity" v="kindergarten" />
		<tag k="capacity" v="34" />
		<tag k="max_age" v="5" />
		<tag k="min_age" v="1" />
		<tag k="name" v="Solsida Barnebeite Da" />
		<tag k="no-barnehage:nsrid" v="1020800" />
		<tag k="operator" v="Solsida Barnebeite Da" />
		<tag k="operator:type" v="private" />
		<tag k="start_date" v="2002-05-15" />
	</node>
	<node id="-2191" lat="60.3827" lon="10.5769">
		<tag k="amenity" v="kindergarten" />
		<tag k="capacity" v="92" />
		<tag k="max_age" v="5" />
		<tag k="min_age" v="1" />
		<tag k="name" v="Solheim barnehage" />
		<tag k="no-barnehage:nsrid" v="1017971" />
		<tag k="operator" v="Gran kommune" />
		<tag k="operator:type" v="public" />
		<tag k="start_date" v="1988-04-01" />
	</node>
	<node id="-2190" lat="60.3916" lon="10.5283">
		<tag k="amenity" v="kindergarten" />
		<tag k="capacity" v="29" />
		<tag k="contact:email" v="habilitering@roysumtunet.no" />
		<tag k="contact:phone" v="61 33 35 00" />
		<tag k="max_age" v="5" />
		<tag k="min_age" v="1" />
		<tag k="name" v="Røysum barnehage" />
		<tag k="no-barnehage:nsrid" v="1015935" />
		<tag k="operator" v="Diakonistiftelsen Røysum" />
		<tag k="operator:type" v="private" />
		<tag k="start_date" v="1989-01-01" />
	</node>
	<node id="-2189" lat="60.33435" lon="10.53694">
		<tag k="amenity" v="kindergarten" />
		<tag k="capacity" v="45" />
		<tag k="contact:email" v="styrer@rakalauv.no" />
		<tag k="contact:phone" v="92060530" />
		<tag k="contact:website" v="http://www.rakalauv.barnehageside.no" />
		<tag k="max_age" v="5" />
		<tag k="min_age" v="1" />
		<tag k="name" v="Rakalauv barnehage Sa" />
		<tag k="no-barnehage:nsrid" v="1020216" />
		<tag k="operator" v="Rakalauv barnehage Sa" />
		<tag k="operator:type" v="private" />
		<tag k="start_date" v="1995-09-04" />
	</node>
	<node id="-2188" lat="60.4178" lon="10.5569">
		<tag k="amenity" v="kindergarten" />
		<tag k="capacity" v="30" />
		<tag k="max_age" v="5" />
		<tag k="min_age" v="1" />
		<tag k="name" v="Moen barnehage" />
		<tag k="no-barnehage:nsrid" v="1017907" />
		<tag k="operator" v="Gran kommune" />
		<tag k="operator:type" v="public" />
		<tag k="start_date" v="2007-11-01" />
	</node>
	<node id="-2187" lat="60.4115" lon="10.5029">
		<tag k="amenity" v="kindergarten" />
		<tag k="capacity" v="51" />
		<tag k="max_age" v="5" />
		<tag k="min_age" v="1" />
		<tag k="name" v="Marka barnehage" />
		<tag k="no-barnehage:nsrid" v="1012561" />
		<tag k="operator" v="Gran kommune" />
		<tag k="operator:type" v="public" />
		<tag k="start_date" v="1991-01-01" />
	</node>
	<node id="-2186" lat="60.3578" lon="10.4637">
		<tag k="amenity" v="kindergarten" />
		<tag k="capacity" v="34" />
		<tag k="max_age" v="5" />
		<tag k="min_age" v="1" />
		<tag k="name" v="Leikvoll barnehage" />
		<tag k="no-barnehage:nsrid" v="1017500" />
		<tag k="operator" v="Gran kommune" />
		<tag k="operator:type" v="public" />
		<tag k="start_date" v="1988-01-01" />
	</node>
	<node id="-2183" lat="60.34065" lon="10.59687">
		<tag k="amenity" v="kindergarten" />
		<tag k="capacity" v="91" />
		<tag k="contact:email" v="post@espira.no" />
		<tag k="contact:phone" v="52 84 50 20" />
		<tag k="contact:website" v="http://www.espira.no" />
		<tag k="max_age" v="5" />
		<tag k="min_age" v="1" />
		<tag k="name" v="Espira Romholt barnehage" />
		<tag k="no-barnehage:nsrid" v="1021278" />
		<tag k="operator" v="Espira Romholt AS" />
		<tag k="operator:type" v="private" />
		<tag k="start_date" v="2005-07-26" />
	</node>
	<node id="-2181" lat="60.4651" lon="10.4858">
		<tag k="amenity" v="kindergarten" />
		<tag k="capacity" v="24" />
		<tag k="max_age" v="5" />
		<tag k="min_age" v="1" />
		<tag k="name" v="Bjørklund barnehage" />
		<tag k="no-barnehage:nsrid" v="1017970" />
		<tag k="operator" v="Gran kommune" />
		<tag k="operator:type" v="public" />
		<tag k="start_date" v="1988-04-01" />
	</node>
	<node id="-2180" lat="60.5158" lon="10.2974">
		<tag k="amenity" v="kindergarten" />
		<tag k="capacity" v="14" />
		<tag k="max_age" v="5" />
		<tag k="min_age" v="1" />
		<tag k="name" v="Bjoneroa barnehage" />
		<tag k="no-barnehage:nsrid" v="1025511" />
		<tag k="operator" v="Gran kommune" />
		<tag k="operator:type" v="public" />
		<tag k="start_date" v="1988-04-01" />
	</node>
	<node id="-2179" lat="60.41285" lon="10.50686">
		<tag k="amenity" v="kindergarten" />
		<tag k="capacity" v="35" />
		<tag k="contact:phone" v="61 33 55 10" />
		<tag k="max_age" v="5" />
		<tag k="min_age" v="1" />
		<tag k="name" v="Bergseng Bondegårdsbarnehage" />
		<tag k="no-barnehage:nsrid" v="1020226" />
		<tag k="operator" v="Tøfte Mette Irene Bergseng Bondegårdsbarnehage" />
		<tag k="operator:type" v="private" />
		<tag k="start_date" v="1994-08-01" />
	</node>
</osm>
