<?xml version="1.0" encoding="UTF-8"?>
<osm generator="osmapis" version="0.6">
	<node id="-2112" lat="60.4649" lon="10.50774">
		<tag k="amenity" v="kindergarten" />
		<tag k="capacity" v="12" />
		<tag k="contact:email" v="anneberit@1000-meterskogen.no" />
		<tag k="contact:phone" v="+47 61 33 22 77" />
		<tag k="max_age" v="5" />
		<tag k="min_age" v="1" />
		<tag k="name" v="1000meterskogen Fam-Og Naturbhg" />
		<tag k="no-barnehage:nsrid" v="1020481" />
		<tag k="operator" v="1000meterskogen Familie &amp; Natur- barnehage Anne-Berit Dahl-Tomter" />
		<tag k="operator:type" v="private" />
		<tag k="start_date" v="2004-06-05" />
	</node>
	<node id="-2119" lat="60.3933" lon="10.5603">
		<tag k="amenity" v="kindergarten" />
		<tag k="capacity" v="33" />
		<tag k="contact:email" v="Grethe.skoglund@gran.kommune.no" />
		<tag k="max_age" v="5" />
		<tag k="min_age" v="1" />
		<tag k="name" v="Gran kommune Familiebarnehage" />
		<tag k="no-barnehage:nsrid" v="1013776" />
		<tag k="operator" v="Gran kommune" />
		<tag k="operator:type" v="public" />
		<tag k="start_date" v="1989-01-02" />
	</node>
	<node id="-2120" lat="60.39666" lon="10.56487">
		<tag k="amenity" v="kindergarten" />
		<tag k="capacity" v="9" />
		<tag k="contact:email" v="lindamoksnes@hebb.no" />
		<tag k="contact:phone" v="+47 47614266" />
		<tag k="max_age" v="2" />
		<tag k="min_age" v="1" />
		<tag k="name" v="Knærten Familiebarnehage Linda Merete Bakken" />
		<tag k="no-barnehage:nsrid" v="1020821" />
		<tag k="operator" v="Knærten Familiebarnehage Linda Merete Bakken" />
		<tag k="operator:type" v="private" />
		<tag k="start_date" v="2002-08-01" />
	</node>
	<node id="-2116" lat="60.41456" lon="10.58968">
		<tag k="amenity" v="kindergarten" />
		<tag k="capacity" v="12" />
		<tag k="contact:email" v="emsetrolla@gmail.com" />
		<tag k="contact:phone" v="+47 61 32 93 22" />
		<tag k="max_age" v="2" />
		<tag k="min_age" v="1" />
		<tag k="name" v="Emsetrolla Familiebarnehage" />
		<tag k="no-barnehage:nsrid" v="1020857" />
		<tag k="operator" v="Skapalen Familiebarnehage" />
		<tag k="operator:type" v="private" />
		<tag k="start_date" v="2003-01-01" />
	</node>
</osm>
