<?xml version="1.0" encoding="UTF-8"?>
<osm generator="osmapis" version="0.6">
	<node id="-2927" lat="63.43426" lon="10.4227">
		<tag k="ADDRESS" v="Weidemanns Vei 40, 7043 TRONDHEIM" />
		<tag k="amenity" v="kindergarten" />
		<tag k="capacity" v="26" />
		<tag k="contact:website" v="http://wvbarnehage.no" />
		<tag k="max_age" v="5" />
		<tag k="min_age" v="1" />
		<tag k="name" v="Weidemannsveien barnehage" />
		<tag k="no-barnehage:nsrid" v="1020377" />
		<tag k="operator" v="Weidemannsveien barnehage Sa" />
		<tag k="operator:type" v="private" />
	</node>
	<node id="-2926" lat="63.43784" lon="10.43022">
		<tag k="ADDRESS" v="Mellomveien 5, 7067 TRONDHEIM" />
		<tag k="amenity" v="kindergarten" />
		<tag k="capacity" v="42" />
		<tag k="max_age" v="5" />
		<tag k="min_age" v="1" />
		<tag k="name" v="Voldsminde barnehage" />
		<tag k="no-barnehage:nsrid" v="1016908" />
		<tag k="operator" v="Trondheim kommune" />
		<tag k="operator:type" v="public" />
	</node>
	<node id="-2924" lat="63.42201" lon="10.54462">
		<tag k="ADDRESS" v="Ranheimshøgda 3d, 7054 RANHEIM" />
		<tag k="amenity" v="kindergarten" />
		<tag k="max_age" v="5" />
		<tag k="min_age" v="1" />
		<tag k="name" v="Vikelva familiebarnehage" />
		<tag k="no-barnehage:nsrid" v="1020270" />
		<tag k="operator" v="Vikelva Familiebarnehage Britt Berger" />
		<tag k="operator:type" v="private" />
	</node>
	<node id="-2923" lat="63.4096" lon="10.43695">
		<tag k="ADDRESS" v="Jonsvannsveien 115, 7050 TRONDHEIM" />
		<tag k="amenity" v="kindergarten" />
		<tag k="capacity" v="32" />
		<tag k="max_age" v="5" />
		<tag k="min_age" v="1" />
		<tag k="name" v="Vesletun barnehage" />
		<tag k="no-barnehage:nsrid" v="1018227" />
		<tag k="operator" v="Trondheim kommune" />
		<tag k="operator:type" v="public" />
	</node>
	<node id="-2922" lat="63.45155" lon="10.44481">
		<tag k="ADDRESS" v="Østmarkveien 26g, 7040 TRONDHEIM" />
		<tag k="amenity" v="kindergarten" />
		<tag k="capacity" v="99" />
		<tag k="max_age" v="5" />
		<tag k="min_age" v="1" />
		<tag k="name" v="Tiriltoppen barnehage" />
		<tag k="no-barnehage:nsrid" v="1016732" />
		<tag k="operator" v="Trondheim kommune" />
		<tag k="operator:type" v="public" />
	</node>
	<node id="-2921" lat="63.36018" lon="10.38542">
		<tag k="ADDRESS" v="Romemyra 66, 7091 TILLER" />
		<tag k="amenity" v="kindergarten" />
		<tag k="contact:website" v="http://www.facebook.com/Tiller-%C3%A5pen-barnehage-431880970164822/" />
		<tag k="name" v="Tiller åpen barnehage" />
		<tag k="no-barnehage:nsrid" v="1016882" />
		<tag k="operator" v="Tiller Sokn" />
		<tag k="operator:type" v="private" />
	</node>
	<node id="-2920" lat="63.34795" lon="10.33527">
		<tag k="ADDRESS" v="Kongsvegen 24, 7082 KATTEM" />
		<tag k="amenity" v="kindergarten" />
		<tag k="name" v="Thyra barnehager" />
		<tag k="no-barnehage:nsrid" v="1019551" />
		<tag k="operator" v="Trondheim kommune" />
		<tag k="operator:type" v="public" />
	</node>
	<node id="-2919" lat="63.42132" lon="10.35688">
		<tag k="ADDRESS" v="Sverresborg Alle 13, 7020 TRONDHEIM" />
		<tag k="amenity" v="kindergarten" />
		<tag k="name" v="Sverrestunet åpen barnehage" />
		<tag k="no-barnehage:nsrid" v="1019614" />
		<tag k="operator" v="Trøndelag Folkemuseum Stiftelse" />
		<tag k="operator:type" v="private" />
	</node>
	<node id="-2918" lat="63.41866" lon="10.36291">
		<tag k="ADDRESS" v="Riiser-Larsens Vei 18, 7020 TRONDHEIM" />
		<tag k="amenity" v="kindergarten" />
		<tag k="capacity" v="81" />
		<tag k="max_age" v="5" />
		<tag k="min_age" v="1" />
		<tag k="name" v="Sverresborg barnehage" />
		<tag k="no-barnehage:nsrid" v="1024556" />
		<tag k="operator" v="Trondheim kommune" />
		<tag k="operator:type" v="public" />
	</node>
	<node id="-2917" lat="63.44889" lon="10.44046">
		<tag k="ADDRESS" v="Gunnlaugs Vei 15, 7040 TRONDHEIM" />
		<tag k="amenity" v="kindergarten" />
		<tag k="capacity" v="80" />
		<tag k="max_age" v="5" />
		<tag k="min_age" v="3" />
		<tag k="name" v="Stabburet barnehage" />
		<tag k="no-barnehage:nsrid" v="1016846" />
		<tag k="operator" v="Trondheim kommune" />
		<tag k="operator:type" v="public" />
	</node>
	<node id="-2915" lat="63.39698" lon="10.43183">
		<tag k="ADDRESS" v="Nordre Risvolltun 34, 7036 TRONDHEIM" />
		<tag k="amenity" v="kindergarten" />
		<tag k="capacity" v="55" />
		<tag k="max_age" v="5" />
		<tag k="min_age" v="1" />
		<tag k="name" v="Sollia barnehage" />
		<tag k="no-barnehage:nsrid" v="1013901" />
		<tag k="operator" v="Trondheim kommune" />
		<tag k="operator:type" v="public" />
	</node>
	<node id="-2914" lat="63.4054" lon="10.40206">
		<tag k="ADDRESS" v="Øystein Møylas Veg 35, 7031 TRONDHEIM" />
		<tag k="amenity" v="kindergarten" />
		<tag k="capacity" v="27" />
		<tag k="contact:website" v="http://www.solflata.no" />
		<tag k="max_age" v="5" />
		<tag k="min_age" v="1" />
		<tag k="name" v="Solflata barnehage" />
		<tag k="no-barnehage:nsrid" v="1019873" />
		<tag k="operator" v="Stiftelsen Barnas Beste" />
		<tag k="operator:type" v="private" />
	</node>
	<node id="-2913" lat="63.36254" lon="10.37194">
		<tag k="ADDRESS" v="Vestre Rosten 77, 7075 TILLER" />
		<tag k="amenity" v="kindergarten" />
		<tag k="capacity" v="20" />
		<tag k="max_age" v="5" />
		<tag k="min_age" v="1" />
		<tag k="name" v="Skuta barnehage" />
		<tag k="no-barnehage:nsrid" v="1019836" />
		<tag k="operator" v="Skuta barnehage Sa" />
		<tag k="operator:type" v="private" />
	</node>
	<node id="-2912" lat="63.3467" lon="10.33244">
		<tag k="ADDRESS" v="Mårvegen 32, 7082 KATTEM" />
		<tag k="amenity" v="kindergarten" />
		<tag k="capacity" v="42" />
		<tag k="max_age" v="5" />
		<tag k="min_age" v="1" />
		<tag k="name" v="Skjetlein barnehage" />
		<tag k="no-barnehage:nsrid" v="1018224" />
		<tag k="operator" v="Trondheim kommune" />
		<tag k="operator:type" v="public" />
	</node>
	<node id="-2911" lat="63.40936" lon="10.43019">
		<tag k="ADDRESS" v="Prestekragevegen 16, 7050 TRONDHEIM" />
		<tag k="amenity" v="kindergarten" />
		<tag k="max_age" v="5" />
		<tag k="min_age" v="1" />
		<tag k="name" v="Sit Studentsamskipnaden i Gjøvik, Ålesund og Trondheim" />
		<tag k="no-barnehage:nsrid" v="1016819" />
		<tag k="operator" v="Sit Studentsamskipnaden i Gjøvik, Ålesund og Trondheim" />
		<tag k="operator:type" v="private" />
	</node>
	<node id="-2910" lat="63.40742" lon="10.48078">
		<tag k="ADDRESS" v="Stokkanhaugen 181, 7048 TRONDHEIM" />
		<tag k="amenity" v="kindergarten" />
		<tag k="name" v="Sit Studentsamskipnaden i Gjøvik, Ålesund og Trondheim" />
		<tag k="no-barnehage:nsrid" v="1019511" />
		<tag k="operator" v="Sit Studentsamskipnaden i Gjøvik, Ålesund og Trondheim" />
		<tag k="operator:type" v="private" />
	</node>
	<node id="-2909" lat="63.43784" lon="10.43022">
		<tag k="ADDRESS" v="Mellomveien 5, 7067 TRONDHEIM" />
		<tag k="amenity" v="kindergarten" />
		<tag k="name" v="Sentrum barnehager" />
		<tag k="no-barnehage:nsrid" v="1019552" />
		<tag k="operator" v="Trondheim kommune" />
		<tag k="operator:type" v="public" />
	</node>
	<node id="-2908" lat="63.4407" lon="10.43476">
		<tag k="ADDRESS" v="Ladeveien 1, 7066 TRONDHEIM" />
		<tag k="amenity" v="kindergarten" />
		<tag k="name" v="Rosenborg barnehageforening" />
		<tag k="no-barnehage:nsrid" v="1020148" />
		<tag k="operator" v="Rosenborg Barnehageforening" />
		<tag k="operator:type" v="private" />
	</node>
	<node id="-2907" lat="63.36025" lon="10.38684">
		<tag k="ADDRESS" v="Romemyra 70, 7091 TILLER" />
		<tag k="amenity" v="kindergarten" />
		<tag k="capacity" v="53" />
		<tag k="max_age" v="5" />
		<tag k="min_age" v="1" />
		<tag k="name" v="Romemyra barnehage" />
		<tag k="no-barnehage:nsrid" v="1012524" />
		<tag k="operator" v="Trondheim kommune" />
		<tag k="operator:type" v="public" />
	</node>
	<node id="-2906" lat="63.429" lon="10.53108">
		<tag k="ADDRESS" v="Lutelvvegen 1, 7055 RANHEIM" />
		<tag k="amenity" v="kindergarten" />
		<tag k="name" v="Ranheimsfjæra barnehage" />
		<tag k="no-barnehage:nsrid" v="2000528" />
		<tag k="operator" v="Trondheim kommune" />
		<tag k="operator:type" v="public" />
	</node>
	<node id="-2905" lat="63.3588" lon="10.39845">
		<tag k="ADDRESS" v="Ivar Reitens Veg 6, 7091 TILLER" />
		<tag k="amenity" v="kindergarten" />
		<tag k="capacity" v="70" />
		<tag k="max_age" v="5" />
		<tag k="min_age" v="1" />
		<tag k="name" v="Porsmyra barnehage" />
		<tag k="no-barnehage:nsrid" v="1017829" />
		<tag k="operator" v="Trondheim kommune" />
		<tag k="operator:type" v="public" />
	</node>
	<node id="-2904" lat="63.38162" lon="10.37731">
		<tag k="ADDRESS" v="Okstadvegen 5, 7075 TILLER" />
		<tag k="amenity" v="kindergarten" />
		<tag k="capacity" v="79" />
		<tag k="max_age" v="5" />
		<tag k="min_age" v="3" />
		<tag k="name" v="Okstadvegen barnehage" />
		<tag k="no-barnehage:nsrid" v="1017812" />
		<tag k="operator" v="Trondheim kommune" />
		<tag k="operator:type" v="public" />
	</node>
	<node id="-2903" lat="63.38236" lon="10.37905">
		<tag k="ADDRESS" v="Turistveien 22, 7075 TILLER" />
		<tag k="amenity" v="kindergarten" />
		<tag k="capacity" v="54" />
		<tag k="max_age" v="2" />
		<tag k="min_age" v="1" />
		<tag k="name" v="Okstad barnehage" />
		<tag k="no-barnehage:nsrid" v="1014732" />
		<tag k="operator" v="Trondheim kommune" />
		<tag k="operator:type" v="public" />
	</node>
	<node id="-2902" lat="63.33065" lon="10.3107">
		<tag k="ADDRESS" v="Kammen 75, 7083 LEINSTRAND" />
		<tag k="amenity" v="kindergarten" />
		<tag k="capacity" v="69" />
		<tag k="max_age" v="5" />
		<tag k="min_age" v="1" />
		<tag k="name" v="Nypvang barnehage" />
		<tag k="no-barnehage:nsrid" v="1017802" />
		<tag k="operator" v="Trondheim kommune" />
		<tag k="operator:type" v="public" />
	</node>
	<node id="-2900" lat="63.38462" lon="10.40214">
		<tag k="ADDRESS" v="Nordslettvegen 139, 7038 TRONDHEIM" />
		<tag k="amenity" v="kindergarten" />
		<tag k="capacity" v="47" />
		<tag k="max_age" v="5" />
		<tag k="min_age" v="1" />
		<tag k="name" v="Nordslettvegen barnehage" />
		<tag k="no-barnehage:nsrid" v="1012523" />
		<tag k="operator" v="Trondheim kommune" />
		<tag k="operator:type" v="public" />
	</node>
	<node id="-2898" lat="63.43636" lon="10.41335">
		<tag k="ADDRESS" v="Dyre Halses Gate 6, 7042 TRONDHEIM" />
		<tag k="amenity" v="kindergarten" />
		<tag k="capacity" v="30" />
		<tag k="max_age" v="5" />
		<tag k="min_age" v="1" />
		<tag k="name" v="Nedre Elvehavn barnehage" />
		<tag k="no-barnehage:nsrid" v="1017798" />
		<tag k="operator" v="Trondheim kommune" />
		<tag k="operator:type" v="public" />
	</node>
	<node id="-2897" lat="63.40693" lon="10.41769">
		<tag k="ADDRESS" v="Sørenga 2, 7032 TRONDHEIM" />
		<tag k="amenity" v="kindergarten" />
		<tag k="capacity" v="69" />
		<tag k="max_age" v="5" />
		<tag k="min_age" v="1" />
		<tag k="name" v="Nardo barnehage" />
		<tag k="no-barnehage:nsrid" v="1015950" />
		<tag k="operator" v="Trondheim kommune" />
		<tag k="operator:type" v="public" />
	</node>
	<node id="-2896" lat="63.40338" lon="10.33802">
		<tag k="ADDRESS" v="Olaf Grilstads Veg 1, 7025 TRONDHEIM" />
		<tag k="amenity" v="kindergarten" />
		<tag k="capacity" v="67" />
		<tag k="max_age" v="5" />
		<tag k="min_age" v="1" />
		<tag k="name" v="Myra barnehage" />
		<tag k="no-barnehage:nsrid" v="1016737" />
		<tag k="operator" v="Trondheim kommune" />
		<tag k="operator:type" v="public" />
	</node>
	<node id="-2895" lat="63.39342" lon="10.42425">
		<tag k="ADDRESS" v="Sigurd Einbus Veg 2, 7036 TRONDHEIM" />
		<tag k="amenity" v="kindergarten" />
		<tag k="capacity" v="15" />
		<tag k="contact:website" v="http://www.motbakken.no" />
		<tag k="max_age" v="2" />
		<tag k="min_age" v="1" />
		<tag k="name" v="Motbakken barnehage" />
		<tag k="no-barnehage:nsrid" v="1020095" />
		<tag k="operator" v="Motbakken barnehage Sa" />
		<tag k="operator:type" v="private" />
	</node>
	<node id="-2894" lat="63.42714" lon="10.38653">
		<tag k="ADDRESS" v="Elvegata 1b, 7012 TRONDHEIM" />
		<tag k="amenity" v="kindergarten" />
		<tag k="capacity" v="35" />
		<tag k="max_age" v="5" />
		<tag k="min_age" v="1" />
		<tag k="name" v="Midtbyen barnehage" />
		<tag k="no-barnehage:nsrid" v="1025398" />
		<tag k="operator" v="Trondhjems Asylselskap" />
		<tag k="operator:type" v="private" />
	</node>
	<node id="-2892" lat="63.41468" lon="10.53103">
		<tag k="ADDRESS" v="Markaplassen 192, 7054 RANHEIM" />
		<tag k="amenity" v="kindergarten" />
		<tag k="capacity" v="70" />
		<tag k="contact:website" v="http://www.markaplassen-barnehage.no" />
		<tag k="max_age" v="5" />
		<tag k="min_age" v="1" />
		<tag k="name" v="Markaplassen barnehage" />
		<tag k="no-barnehage:nsrid" v="1020150" />
		<tag k="operator" v="Markaplassen barnehage Sa" />
		<tag k="operator:type" v="private" />
	</node>
	<node id="-2890" lat="63.34415" lon="10.33467">
		<tag k="ADDRESS" v="Gaupevegen 38, 7082 KATTEM" />
		<tag k="amenity" v="kindergarten" />
		<tag k="capacity" v="41" />
		<tag k="max_age" v="5" />
		<tag k="min_age" v="1" />
		<tag k="name" v="Lyngmyra barnehage" />
		<tag k="no-barnehage:nsrid" v="1018216" />
		<tag k="operator" v="Trondheim kommune" />
		<tag k="operator:type" v="public" />
	</node>
	<node id="-2888" lat="63.42896" lon="10.46117">
		<tag k="ADDRESS" v="Peder Østlunds Veg 1, 7045 TRONDHEIM" />
		<tag k="amenity" v="kindergarten" />
		<tag k="capacity" v="62" />
		<tag k="contact:website" v="http://www.leangenkulturbarnehage.no" />
		<tag k="max_age" v="5" />
		<tag k="min_age" v="1" />
		<tag k="name" v="Leangen kulturbarnehage" />
		<tag k="no-barnehage:nsrid" v="1019913" />
		<tag k="operator" v="Leangen Kulturbarnehage Sa" />
		<tag k="operator:type" v="private" />
	</node>
	<node id="-2887" lat="63.39644" lon="10.32966">
		<tag k="ADDRESS" v="Inge Krokanns Veg 3, 7071 TRONDHEIM" />
		<tag k="amenity" v="kindergarten" />
		<tag k="capacity" v="53" />
		<tag k="max_age" v="5" />
		<tag k="min_age" v="1" />
		<tag k="name" v="Kystadåsen barnehage" />
		<tag k="no-barnehage:nsrid" v="1018215" />
		<tag k="operator" v="Trondheim kommune" />
		<tag k="operator:type" v="public" />
	</node>
	<node id="-2886" lat="63.41835" lon="10.39038">
		<tag k="ADDRESS" v="Harald Hardrådes Gate 16, 7030 TRONDHEIM" />
		<tag k="amenity" v="kindergarten" />
		<tag k="capacity" v="61" />
		<tag k="max_age" v="5" />
		<tag k="min_age" v="1" />
		<tag k="name" v="Krinkelkroken barnehage" />
		<tag k="no-barnehage:nsrid" v="1016736" />
		<tag k="operator" v="Trondheim kommune" />
		<tag k="operator:type" v="public" />
	</node>
	<node id="-2885" lat="63.36135" lon="10.35149">
		<tag k="ADDRESS" v="Søbstadvegen 65, 7088 HEIMDAL" />
		<tag k="amenity" v="kindergarten" />
		<tag k="capacity" v="21" />
		<tag k="max_age" v="5" />
		<tag k="min_age" v="1" />
		<tag k="name" v="Kolstad barnehage avd. Møller" />
		<tag k="no-barnehage:nsrid" v="1014004" />
		<tag k="operator" v="Trondheim kommune" />
		<tag k="operator:type" v="public" />
	</node>
	<node id="-2884" lat="63.4134" lon="10.40123">
		<tag k="ADDRESS" v="Hans Osnes' Veg 2, 7030 TRONDHEIM" />
		<tag k="amenity" v="kindergarten" />
		<tag k="capacity" v="70" />
		<tag k="max_age" v="5" />
		<tag k="min_age" v="1" />
		<tag k="name" v="Klæbuveien barnehage" />
		<tag k="no-barnehage:nsrid" v="1017818" />
		<tag k="operator" v="Trondheim kommune" />
		<tag k="operator:type" v="public" />
	</node>
	<node id="-2883" lat="63.4146" lon="10.36691">
		<tag k="ADDRESS" v="Breidablikveien 66, 7021 TRONDHEIM" />
		<tag k="amenity" v="kindergarten" />
		<tag k="capacity" v="24" />
		<tag k="max_age" v="5" />
		<tag k="min_age" v="1" />
		<tag k="name" v="Julius barnehage" />
		<tag k="no-barnehage:nsrid" v="1020517" />
		<tag k="operator" v="Julius barnehage AS" />
		<tag k="operator:type" v="private" />
	</node>
	<node id="-2881" lat="63.4298" lon="10.36631">
		<tag k="ADDRESS" v="Koefoedgeilan 2c, 7018 TRONDHEIM" />
		<tag k="amenity" v="kindergarten" />
		<tag k="capacity" v="67" />
		<tag k="max_age" v="5" />
		<tag k="min_age" v="1" />
		<tag k="name" v="Ila barnehage" />
		<tag k="no-barnehage:nsrid" v="1016912" />
		<tag k="operator" v="Trondheim kommune" />
		<tag k="operator:type" v="public" />
	</node>
	<node id="-2880" lat="63.36883" lon="10.34176">
		<tag k="ADDRESS" v="Nordre Husebytun 2, 7097 SAUPSTAD" />
		<tag k="amenity" v="kindergarten" />
		<tag k="capacity" v="81" />
		<tag k="max_age" v="5" />
		<tag k="min_age" v="1" />
		<tag k="name" v="Huseby barnehage" />
		<tag k="no-barnehage:nsrid" v="1018213" />
		<tag k="operator" v="Trondheim kommune" />
		<tag k="operator:type" v="public" />
	</node>
	<node id="-2879" lat="63.42544" lon="10.42935">
		<tag k="ADDRESS" v="Dr. Sands Veg 30, 7052 TRONDHEIM" />
		<tag k="amenity" v="kindergarten" />
		<tag k="capacity" v="25" />
		<tag k="contact:website" v="http://100mskogen.barnehage.no" />
		<tag k="max_age" v="5" />
		<tag k="min_age" v="1" />
		<tag k="name" v="Hundremeterskogenbarnehagesa" />
		<tag k="no-barnehage:nsrid" v="1020094" />
		<tag k="operator" v="Hundremeterskogen Bhg Sa" />
		<tag k="operator:type" v="private" />
	</node>
	<node id="-2878" lat="63.39773" lon="10.42923">
		<tag k="ADDRESS" v="Nordre Risvolltun 2, 7036 TRONDHEIM" />
		<tag k="amenity" v="kindergarten" />
		<tag k="name" v="Hoeggen åpen barnehage" />
		<tag k="no-barnehage:nsrid" v="1015778" />
		<tag k="operator" v="Hoeggen Sokn" />
		<tag k="operator:type" v="private" />
	</node>
	<node id="-2877" lat="63.4255" lon="10.43847">
		<tag k="ADDRESS" v="Gina Krogs Veg 20, 7046 TRONDHEIM" />
		<tag k="amenity" v="kindergarten" />
		<tag k="capacity" v="16" />
		<tag k="contact:website" v="http://hagebyenbarnehage.no/" />
		<tag k="max_age" v="5" />
		<tag k="min_age" v="1" />
		<tag k="name" v="Hagebyen private barnehage" />
		<tag k="no-barnehage:nsrid" v="1020147" />
		<tag k="operator" v="Hagebyen Private barnehage Sa" />
		<tag k="operator:type" v="private" />
	</node>
	<node id="-2876" lat="63.43583" lon="10.50298">
		<tag k="ADDRESS" v="Grillstadfjæra 42, 7053 RANHEIM" />
		<tag k="amenity" v="kindergarten" />
		<tag k="capacity" v="83" />
		<tag k="max_age" v="5" />
		<tag k="min_age" v="1" />
		<tag k="name" v="Grillstadfjæra barnehage" />
		<tag k="no-barnehage:nsrid" v="1015185" />
		<tag k="operator" v="Trondheim kommune" />
		<tag k="operator:type" v="public" />
	</node>
	<node id="-2875" lat="63.37883" lon="10.3097">
		<tag k="ADDRESS" v="Kongsvegen 204, 7026 TRONDHEIM" />
		<tag k="amenity" v="kindergarten" />
		<tag k="capacity" v="76" />
		<tag k="max_age" v="5" />
		<tag k="min_age" v="1" />
		<tag k="name" v="Granåsen barnehage" />
		<tag k="no-barnehage:nsrid" v="1017817" />
		<tag k="operator" v="Trondheim kommune" />
		<tag k="operator:type" v="public" />
	</node>
	<node id="-2874" lat="63.39066" lon="10.34874">
		<tag k="ADDRESS" v="Olav Nygards Veg 35b, 7023 TRONDHEIM" />
		<tag k="amenity" v="kindergarten" />
		<tag k="name" v="Elin Theresa Næve Burkeland" />
		<tag k="no-barnehage:nsrid" v="1020634" />
		<tag k="operator" v="Elin Theresa Næve" />
		<tag k="operator:type" v="private" />
	</node>
	<node id="-2872" lat="63.34794" lon="10.36606">
		<tag k="ADDRESS" v="Anders Haarstads Veg 2, 7072 HEIMDAL" />
		<tag k="amenity" v="kindergarten" />
		<tag k="name" v="Breidablikk åpen barnehage" />
		<tag k="no-barnehage:nsrid" v="1020145" />
		<tag k="operator" v="Breidablikk Helselag Åpen barnehage" />
		<tag k="operator:type" v="private" />
	</node>
	<node id="-2871" lat="63.35025" lon="10.36516">
		<tag k="ADDRESS" v="Idrettsveien 21, 7072 HEIMDAL" />
		<tag k="amenity" v="kindergarten" />
		<tag k="capacity" v="123" />
		<tag k="max_age" v="5" />
		<tag k="min_age" v="1" />
		<tag k="name" v="Breidablikk barnehage" />
		<tag k="no-barnehage:nsrid" v="1013756" />
		<tag k="operator" v="Trondheim kommune" />
		<tag k="operator:type" v="public" />
	</node>
	<node id="-2870" lat="63.41796" lon="10.42797">
		<tag k="ADDRESS" v="Øvre Bergsvingen 19, 7052 TRONDHEIM" />
		<tag k="amenity" v="kindergarten" />
		<tag k="capacity" v="38" />
		<tag k="contact:website" v="http://www.asylselskapet.no/berg" />
		<tag k="max_age" v="5" />
		<tag k="min_age" v="1" />
		<tag k="name" v="Berg barnehage" />
		<tag k="no-barnehage:nsrid" v="1025646" />
		<tag k="operator" v="Trondhjems Asylselskap" />
		<tag k="operator:type" v="private" />
	</node>
	<node id="-2869" lat="63.42262" lon="10.38465">
		<tag k="ADDRESS" v="Guttorms Gate 4, 7030 TRONDHEIM" />
		<tag k="amenity" v="kindergarten" />
		<tag k="capacity" v="30" />
		<tag k="max_age" v="5" />
		<tag k="min_age" v="1" />
		<tag k="name" v="Barnas Hus barnehage" />
		<tag k="no-barnehage:nsrid" v="1016817" />
		<tag k="operator" v="Trondhjems Asylselskap" />
		<tag k="operator:type" v="private" />
	</node>
	<node id="-2866" lat="63.41642" lon="10.46195">
		<tag k="ADDRESS" v="Granåsvegen 35, 7048 TRONDHEIM" />
		<tag k="amenity" v="kindergarten" />
		<tag k="capacity" v="27" />
		<tag k="max_age" v="5" />
		<tag k="min_age" v="1" />
		<tag k="name" v="Angelltrøa barnehage" />
		<tag k="no-barnehage:nsrid" v="1017823" />
		<tag k="operator" v="Trondheim kommune" />
		<tag k="operator:type" v="public" />
	</node>
	<node id="-2865" lat="63.4257" lon="10.38137">
		<tag k="ADDRESS" v="Klostergata 82, 7030 TRONDHEIM" />
		<tag k="amenity" v="kindergarten" />
		<tag k="capacity" v="31" />
		<tag k="max_age" v="5" />
		<tag k="min_age" v="1" />
		<tag k="name" v="Andungen barnehage Trondheim" />
		<tag k="no-barnehage:nsrid" v="1020093" />
		<tag k="operator" v="Andungen barnehage Trondheim Sa" />
		<tag k="operator:type" v="private" />
	</node>
</osm>
