<?xml version="1.0" encoding="UTF-8"?>
<osm generator="osmapis" version="0.6">
	<node id="-2432" lat="63.38935" lon="10.32865">
		<tag k="amenity" v="kindergarten" />
		<tag k="capacity" v="8" />
		<tag k="max_age" v="2" />
		<tag k="min_age" v="1" />
		<tag k="name" v="Knøttene familiebarnehage Kristin Strøm" />
		<tag k="no-barnehage:nsrid" v="1021137" />
		<tag k="operator" v="Knøttene Familiebarnehage Kristin Strøm" />
		<tag k="operator:type" v="private" />
	</node>
	<node id="-2538" lat="63.42559" lon="10.36092">
		<tag k="amenity" v="kindergarten" />
		<tag k="capacity" v="4" />
		<tag k="max_age" v="2" />
		<tag k="min_age" v="1" />
		<tag k="name" v="Steinberget familiebarnehage" />
		<tag k="no-barnehage:nsrid" v="1021151" />
		<tag k="operator" v="Mona Falk- Larssen" />
		<tag k="operator:type" v="private" />
	</node>
	<node id="-2425" lat="63.4151" lon="10.49007">
		<tag k="amenity" v="kindergarten" />
		<tag k="capacity" v="4" />
		<tag k="max_age" v="2" />
		<tag k="min_age" v="1" />
		<tag k="name" v="Jakobsli familiebarnehage Sissel Grøthe" />
		<tag k="no-barnehage:nsrid" v="1020856" />
		<tag k="operator" v="Jakobsli Familiebarnehage Sissel Grøthe" />
		<tag k="operator:type" v="private" />
	</node>
	<node id="-2552" lat="63.35601" lon="10.34927">
		<tag k="amenity" v="kindergarten" />
		<tag k="capacity" v="8" />
		<tag k="max_age" v="2" />
		<tag k="min_age" v="1" />
		<tag k="name" v="Sørbruveien familiebarnehage Tove Bjerke" />
		<tag k="no-barnehage:nsrid" v="1021872" />
		<tag k="operator" v="Sørbruveien Familiebarnehage Tove Bjerke" />
		<tag k="operator:type" v="private" />
	</node>
	<node id="-2419" lat="63.36805" lon="10.34203">
		<tag k="amenity" v="kindergarten" />
		<tag k="capacity" v="6" />
		<tag k="max_age" v="5" />
		<tag k="min_age" v="1" />
		<tag k="name" v="Husebygrenda familiebarneh Ysland" />
		<tag k="no-barnehage:nsrid" v="1020583" />
		<tag k="operator" v="Husebygrenda Familiebarnehage Toril Ysland" />
		<tag k="operator:type" v="private" />
	</node>
	<node id="-2413" lat="63.35287" lon="10.36472">
		<tag k="amenity" v="kindergarten" />
		<tag k="capacity" v="10" />
		<tag k="max_age" v="5" />
		<tag k="min_age" v="1" />
		<tag k="name" v="Heimdal familiebarnehage Monica Svestad Kvamstad" />
		<tag k="no-barnehage:nsrid" v="1021840" />
		<tag k="operator" v="Heimdal Familiebarnehage Monica Svestad Kvamstad" />
		<tag k="operator:type" v="private" />
	</node>
	<node id="-2410" lat="63.38831" lon="10.38989">
		<tag k="amenity" v="kindergarten" />
		<tag k="capacity" v="8" />
		<tag k="max_age" v="2" />
		<tag k="min_age" v="1" />
		<tag k="name" v="Haugnessvingen familiebarnehage Beate Aakerholm" />
		<tag k="no-barnehage:nsrid" v="1022052" />
		<tag k="operator" v="Haugnessvingen Familiebarnehage Beate Aakerholm" />
		<tag k="operator:type" v="private" />
	</node>
	<node id="-2409" lat="63.4122" lon="10.3779">
		<tag k="amenity" v="kindergarten" />
		<tag k="capacity" v="4" />
		<tag k="max_age" v="2" />
		<tag k="min_age" v="1" />
		<tag k="name" v="Hammersborg familiebarnehage" />
		<tag k="no-barnehage:nsrid" v="1021018" />
		<tag k="operator" v="Hammersborg Familiebarnehage Hege Strømsem" />
		<tag k="operator:type" v="private" />
	</node>
	<node id="-2492" lat="63.38604" lon="10.32065">
		<tag k="amenity" v="kindergarten" />
		<tag k="capacity" v="8" />
		<tag k="contact:website" v="http://www.persstua-familiebarnehage.no" />
		<tag k="max_age" v="2" />
		<tag k="min_age" v="1" />
		<tag k="name" v="Persstua familiebarnehage" />
		<tag k="no-barnehage:nsrid" v="1022231" />
		<tag k="operator" v="Persstua Familiebarnehage AS" />
		<tag k="operator:type" v="private" />
	</node>
	<node id="-2406" lat="63.35834" lon="10.34589">
		<tag k="amenity" v="kindergarten" />
		<tag k="capacity" v="4" />
		<tag k="max_age" v="2" />
		<tag k="min_age" v="1" />
		<tag k="name" v="Guldbrandsvegen familiebarnehage" />
		<tag k="no-barnehage:nsrid" v="1020846" />
		<tag k="operator" v="Gulbrandsvegen Familiebarnehage Ann Høvik Molden" />
		<tag k="operator:type" v="private" />
	</node>
	<node id="-2405" lat="63.34888" lon="10.34014">
		<tag k="amenity" v="kindergarten" />
		<tag k="capacity" v="3" />
		<tag k="max_age" v="2" />
		<tag k="min_age" v="1" />
		<tag k="name" v="Gråtrostvegen familiebarnehage Hilde Hoff" />
		<tag k="no-barnehage:nsrid" v="1021275" />
		<tag k="operator" v="Gråtrostvegen Familiebarnehage Hilde Hoff" />
		<tag k="operator:type" v="private" />
	</node>
	<node id="-2404" lat="63.37434" lon="10.40297">
		<tag k="amenity" v="kindergarten" />
		<tag k="capacity" v="4" />
		<tag k="max_age" v="2" />
		<tag k="min_age" v="1" />
		<tag k="name" v="Grisungen familiebarnehage Stølen" />
		<tag k="no-barnehage:nsrid" v="1021505" />
		<tag k="operator" v="Grisungen Familiebarnehage Stølen" />
		<tag k="operator:type" v="private" />
	</node>
	<node id="-2531" lat="63.43324" lon="10.58622">
		<tag k="amenity" v="kindergarten" />
		<tag k="capacity" v="8" />
		<tag k="max_age" v="5" />
		<tag k="min_age" v="1" />
		<tag k="name" v="Solstrålen familiebarnehage Ann Kristin Olderskog" />
		<tag k="no-barnehage:nsrid" v="1020927" />
		<tag k="operator" v="Solstrålen Familiebarnehage Ann Kristin Olderskog" />
		<tag k="operator:type" v="private" />
	</node>
	<node id="-2530" lat="63.35566" lon="10.39447">
		<tag k="amenity" v="kindergarten" />
		<tag k="capacity" v="8" />
		<tag k="max_age" v="5" />
		<tag k="min_age" v="1" />
		<tag k="name" v="Solplassen familiebarnehage Cecilie Johansen" />
		<tag k="no-barnehage:nsrid" v="1021911" />
		<tag k="operator" v="Solplassen Familiebarnehage Cecilie Johansen" />
		<tag k="operator:type" v="private" />
	</node>
	<node id="-2395" lat="63.4201" lon="10.55575">
		<tag k="amenity" v="kindergarten" />
		<tag k="capacity" v="8" />
		<tag k="max_age" v="2" />
		<tag k="min_age" v="1" />
		<tag k="name" v="Fykenveien familiebarnehage" />
		<tag k="no-barnehage:nsrid" v="1021034" />
		<tag k="operator" v="Fykenveien Familie-Barnehage Ans" />
		<tag k="operator:type" v="private" />
	</node>
	<node id="-2532" lat="63.34814" lon="10.3461">
		<tag k="amenity" v="kindergarten" />
		<tag k="capacity" v="5" />
		<tag k="max_age" v="5" />
		<tag k="min_age" v="1" />
		<tag k="name" v="Soltun familiebarnehage" />
		<tag k="no-barnehage:nsrid" v="1021276" />
		<tag k="operator" v="Soltun Familiebarnehage Vanja Buberg Stamsve" />
		<tag k="operator:type" v="private" />
	</node>
	<node id="-2517" lat="63.37313" lon="10.38759">
		<tag k="amenity" v="kindergarten" />
		<tag k="capacity" v="4" />
		<tag k="max_age" v="2" />
		<tag k="min_age" v="1" />
		<tag k="name" v="Sjetnemarka familiebarnehage Merethe Olsen" />
		<tag k="no-barnehage:nsrid" v="1022080" />
		<tag k="operator" v="Sjetnemarka Familiebarnehage Merethe Olsen" />
		<tag k="operator:type" v="private" />
	</node>
	<node id="-2387" lat="63.41937" lon="10.55235">
		<tag k="amenity" v="kindergarten" />
		<tag k="capacity" v="8" />
		<tag k="max_age" v="2" />
		<tag k="min_age" v="1" />
		<tag k="name" v="Einmoen familiebarnehage Birgitte Nielsen" />
		<tag k="no-barnehage:nsrid" v="1021318" />
		<tag k="operator" v="Einmoen Familiebarnehage Birgitte Nielsen" />
		<tag k="operator:type" v="private" />
	</node>
	<node id="-2386" lat="63.35202" lon="10.32757">
		<tag k="amenity" v="kindergarten" />
		<tag k="capacity" v="8" />
		<tag k="max_age" v="5" />
		<tag k="min_age" v="1" />
		<tag k="name" v="Duttestien familiebarnehage" />
		<tag k="no-barnehage:nsrid" v="1021585" />
		<tag k="operator" v="Duttestien Familiebarnehage AS" />
		<tag k="operator:type" v="private" />
	</node>
	<node id="-2507" lat="63.34781" lon="10.33683">
		<tag k="amenity" v="kindergarten" />
		<tag k="capacity" v="8" />
		<tag k="max_age" v="5" />
		<tag k="min_age" v="1" />
		<tag k="name" v="Rypeveien familiebarnehage Hovdahl" />
		<tag k="no-barnehage:nsrid" v="1021010" />
		<tag k="operator" v="Rypeveien Familiebarnehage Hovdahl" />
		<tag k="operator:type" v="private" />
	</node>
	<node id="-2375" lat="63.35878" lon="10.3589">
		<tag k="amenity" v="kindergarten" />
		<tag k="capacity" v="4" />
		<tag k="max_age" v="2" />
		<tag k="min_age" v="1" />
		<tag k="name" v="Brudalstunet familiebarnehage" />
		<tag k="no-barnehage:nsrid" v="1020831" />
		<tag k="operator" v="Ann Iren Solberg" />
		<tag k="operator:type" v="private" />
	</node>
	<node id="-2367" lat="63.39714" lon="10.33159">
		<tag k="amenity" v="kindergarten" />
		<tag k="capacity" v="8" />
		<tag k="max_age" v="5" />
		<tag k="min_age" v="1" />
		<tag k="name" v="Bjørnebyen familiebarnehage" />
		<tag k="no-barnehage:nsrid" v="1021025" />
		<tag k="operator" v="Bjørnebyen Familiebarnehage Ans" />
		<tag k="operator:type" v="private" />
	</node>
	<node id="-2364" lat="63.41835" lon="10.42633">
		<tag k="amenity" v="kindergarten" />
		<tag k="capacity" v="7" />
		<tag k="max_age" v="5" />
		<tag k="min_age" v="1" />
		<tag k="name" v="Berg familiebarnehage Ruth Rødsjø Lein" />
		<tag k="no-barnehage:nsrid" v="1020824" />
		<tag k="operator" v="Berg Familiebarnehage Ruth Rødsjø Lein" />
		<tag k="operator:type" v="private" />
	</node>
	<node id="-2491" lat="63.3566" lon="10.34087">
		<tag k="amenity" v="kindergarten" />
		<tag k="capacity" v="4" />
		<tag k="max_age" v="5" />
		<tag k="min_age" v="1" />
		<tag k="name" v="Perslia familiebarnehage" />
		<tag k="no-barnehage:nsrid" v="1021353" />
		<tag k="operator" v="Perslia Familebarnehage Tesaker" />
		<tag k="operator:type" v="private" />
	</node>
	<node id="-2362" lat="63.3932" lon="10.33177">
		<tag k="amenity" v="kindergarten" />
		<tag k="capacity" v="8" />
		<tag k="contact:website" v="http://www.facebook.com/Bekkenfamiliebarnehage/" />
		<tag k="max_age" v="2" />
		<tag k="min_age" v="1" />
		<tag k="name" v="Bekken familiebarnehage" />
		<tag k="no-barnehage:nsrid" v="1022399" />
		<tag k="operator" v="Bekken Familiebarnehage AS" />
		<tag k="operator:type" v="private" />
	</node>
	<node id="-2360" lat="63.35966" lon="10.36937">
		<tag k="amenity" v="kindergarten" />
		<tag k="capacity" v="9" />
		<tag k="max_age" v="5" />
		<tag k="min_age" v="1" />
		<tag k="name" v="Bamsehiet familiebarnehage" />
		<tag k="no-barnehage:nsrid" v="1020959" />
		<tag k="operator" v="Bamsehiet Familiebarnehage Da" />
		<tag k="operator:type" v="private" />
	</node>
	<node id="-2359" lat="63.35982" lon="10.35182">
		<tag k="amenity" v="kindergarten" />
		<tag k="capacity" v="4" />
		<tag k="max_age" v="2" />
		<tag k="min_age" v="1" />
		<tag k="name" v="Bambi familiebarnehage Didovic" />
		<tag k="no-barnehage:nsrid" v="1020564" />
		<tag k="operator" v="Bambi Familiebarnehage Didovic" />
		<tag k="operator:type" v="private" />
	</node>
	<node id="-2486" lat="63.41338" lon="10.53657">
		<tag k="amenity" v="kindergarten" />
		<tag k="capacity" v="5" />
		<tag k="max_age" v="5" />
		<tag k="min_age" v="1" />
		<tag k="name" v="Nydammen familiebarnehage" />
		<tag k="no-barnehage:nsrid" v="1020735" />
		<tag k="operator" v="Nydammen Familiebarne Hege Skylstad Dahl" />
		<tag k="operator:type" v="private" />
	</node>
	<node id="-2547" lat="63.4025" lon="10.37926">
		<tag k="amenity" v="kindergarten" />
		<tag k="capacity" v="4" />
		<tag k="contact:website" v="http://Svalevegenfamiliebarnehage.com" />
		<tag k="max_age" v="2" />
		<tag k="min_age" v="1" />
		<tag k="name" v="Svalevegen familiebarnehage Marit Dahl" />
		<tag k="no-barnehage:nsrid" v="1021841" />
		<tag k="operator" v="Svalevegen Familiebarnehage Marit Dahl" />
		<tag k="operator:type" v="private" />
	</node>
	<node id="-2480" lat="63.37691" lon="10.3503">
		<tag k="amenity" v="kindergarten" />
		<tag k="capacity" v="4" />
		<tag k="max_age" v="5" />
		<tag k="min_age" v="1" />
		<tag k="name" v="Nedre Flatåsen familiebarnehage Wenche Storfjord Lunde" />
		<tag k="no-barnehage:nsrid" v="1020823" />
		<tag k="operator" v="Nedre Flatåsen Familiebarnehage Wenche Storfjord Lunde" />
		<tag k="operator:type" v="private" />
	</node>
	<node id="-2467" lat="63.43127" lon="10.36799">
		<tag k="amenity" v="kindergarten" />
		<tag k="capacity" v="8" />
		<tag k="max_age" v="2" />
		<tag k="min_age" v="1" />
		<tag k="name" v="Mellomila familiebarnehage og Progressiv Institutt" />
		<tag k="no-barnehage:nsrid" v="1020884" />
		<tag k="operator" v="Mellomila Familiebarnehage og Progressiv Institutt AS" />
		<tag k="operator:type" v="private" />
	</node>
	<node id="-2465" lat="63.41838" lon="10.49444">
		<tag k="amenity" v="kindergarten" />
		<tag k="capacity" v="4" />
		<tag k="max_age" v="2" />
		<tag k="min_age" v="1" />
		<tag k="name" v="Marija Kolak" />
		<tag k="no-barnehage:nsrid" v="1021375" />
		<tag k="operator" v="Marija Kolak" />
		<tag k="operator:type" v="private" />
	</node>
	<node id="-2464" lat="63.44906" lon="10.43748">
		<tag k="amenity" v="kindergarten" />
		<tag k="capacity" v="8" />
		<tag k="max_age" v="2" />
		<tag k="min_age" v="1" />
		<tag k="name" v="Marihøna familiebarnehage" />
		<tag k="no-barnehage:nsrid" v="1021108" />
		<tag k="operator" v="Vibeke Eia Hegset" />
		<tag k="operator:type" v="private" />
	</node>
	<node id="-2461" lat="63.43052" lon="10.39505">
		<tag k="amenity" v="kindergarten" />
		<tag k="capacity" v="9" />
		<tag k="max_age" v="5" />
		<tag k="min_age" v="1" />
		<tag k="name" v="Løkka familiebarnehage Grete Mortensen" />
		<tag k="no-barnehage:nsrid" v="1020330" />
		<tag k="operator" v="Løkka Familiebarnehage Grete Mortensen" />
		<tag k="operator:type" v="private" />
	</node>
	<node id="-2450" lat="63.41407" lon="10.53823">
		<tag k="amenity" v="kindergarten" />
		<tag k="capacity" v="9" />
		<tag k="max_age" v="5" />
		<tag k="min_age" v="1" />
		<tag k="name" v="Lekeplassen familiebarnehage" />
		<tag k="no-barnehage:nsrid" v="1020660" />
		<tag k="operator" v="Lekeplassen Familiebarnehage Nina Antonsen" />
		<tag k="operator:type" v="private" />
	</node>
	<node id="-2448" lat="63.37169" lon="10.40314">
		<tag k="amenity" v="kindergarten" />
		<tag k="capacity" v="8" />
		<tag k="max_age" v="2" />
		<tag k="min_age" v="1" />
		<tag k="name" v="Leirfossen familiebarnehage Unni Therese Nenne Iversen" />
		<tag k="no-barnehage:nsrid" v="1021815" />
		<tag k="operator" v="Leirfossen Familiebarnehage Unni Therese Nenne Iversen" />
		<tag k="operator:type" v="private" />
	</node>
	<node id="-2444" lat="63.44712" lon="10.43109">
		<tag k="amenity" v="kindergarten" />
		<tag k="capacity" v="4" />
		<tag k="max_age" v="2" />
		<tag k="min_age" v="1" />
		<tag k="name" v="Ladehammeren familiebarnehage Tone Thronæs" />
		<tag k="no-barnehage:nsrid" v="1021016" />
		<tag k="operator" v="Ladehammeren Familiebarnehage Tone Thronæs" />
		<tag k="operator:type" v="private" />
	</node>
	<node id="-2441" lat="63.39202" lon="10.33607">
		<tag k="amenity" v="kindergarten" />
		<tag k="capacity" v="8" />
		<tag k="max_age" v="2" />
		<tag k="min_age" v="1" />
		<tag k="name" v="Kystadhaugen familiebarnehage" />
		<tag k="no-barnehage:nsrid" v="1022256" />
		<tag k="operator" v="Kystadhaugen Familiebarnehage May-Linn Holden" />
		<tag k="operator:type" v="private" />
	</node>
	<node id="-2436" lat="63.40462" lon="10.33603">
		<tag k="amenity" v="kindergarten" />
		<tag k="capacity" v="10" />
		<tag k="max_age" v="5" />
		<tag k="min_age" v="1" />
		<tag k="name" v="Kongletoppen familiebarnehage" />
		<tag k="no-barnehage:nsrid" v="1021870" />
		<tag k="operator" v="Kongletoppen Familiebarnehage AS" />
		<tag k="operator:type" v="private" />
	</node>
</osm>
