<?xml version="1.0" encoding="UTF-8"?>
<osm generator="osmapis" version="0.6">
	<node id="-4950" lat="59.75205" lon="10.14513">
		<tag k="ADDRESS" v="Vårveien 5, 3024 DRAMMEN" />
		<tag k="amenity" v="kindergarten" />
		<tag k="capacity" v="42" />
		<tag k="max_age" v="5" />
		<tag k="min_age" v="1" />
		<tag k="name" v="Åssiden barnehage" />
		<tag k="no-barnehage:nsrid" v="1014771" />
		<tag k="operator" v="Drammen kommune" />
		<tag k="operator:type" v="public" />
	</node>
	<node id="-4949" lat="59.75911" lon="10.13398">
		<tag k="ADDRESS" v="Dalegårdsveien 24b, 3028 DRAMMEN" />
		<tag k="amenity" v="kindergarten" />
		<tag k="capacity" v="25" />
		<tag k="contact:website" v="http://www.aslokka.barnehage.no" />
		<tag k="max_age" v="5" />
		<tag k="min_age" v="1" />
		<tag k="name" v="Åsløkka barnehage" />
		<tag k="no-barnehage:nsrid" v="1019795" />
		<tag k="operator" v="Åssiden Kvinne og Familielag" />
		<tag k="operator:type" v="private" />
	</node>
	<node id="-4947" lat="59.73608" lon="10.02538">
		<tag k="ADDRESS" v="Bekkemoen 6, 3050 MJØNDALEN" />
		<tag k="amenity" v="kindergarten" />
		<tag k="capacity" v="66" />
		<tag k="max_age" v="5" />
		<tag k="min_age" v="1" />
		<tag k="name" v="Åsen barnehage" />
		<tag k="no-barnehage:nsrid" v="1025351" />
		<tag k="operator" v="Drammen kommune" />
		<tag k="operator:type" v="public" />
	</node>
	<node id="-4946" lat="0.0" lon="0.0">
		<tag k="ADDRESS" v="Ullvannsveien, 3054 KROKSTADELVA" />
		<tag k="amenity" v="kindergarten" />
		<tag k="capacity" v="43" />
		<tag k="contact:website" v="http://www.aarbogen.no" />
		<tag k="max_age" v="5" />
		<tag k="min_age" v="1" />
		<tag k="name" v="Årbogen barnehage" />
		<tag k="no-barnehage:nsrid" v="1019974" />
		<tag k="operator" v="Årbogen barnehage" />
		<tag k="operator:type" v="private" />
	</node>
	<node id="-4945" lat="59.75162" lon="10.16934">
		<tag k="ADDRESS" v="Hotvetveien 112, 3023 DRAMMEN" />
		<tag k="amenity" v="kindergarten" />
		<tag k="capacity" v="60" />
		<tag k="max_age" v="5" />
		<tag k="min_age" v="1" />
		<tag k="name" v="Øren andelsbarnehage" />
		<tag k="no-barnehage:nsrid" v="1020680" />
		<tag k="operator" v="Øren Andelslag Sa" />
		<tag k="operator:type" v="private" />
	</node>
	<node id="-4944" lat="59.76046" lon="10.10346">
		<tag k="ADDRESS" v="Lillevinnes 14, 3057 SOLBERGELVA" />
		<tag k="amenity" v="kindergarten" />
		<tag k="capacity" v="45" />
		<tag k="contact:website" v="http://www.vinnesbarnehage.no" />
		<tag k="max_age" v="5" />
		<tag k="min_age" v="1" />
		<tag k="name" v="Vinnes barnehage" />
		<tag k="no-barnehage:nsrid" v="1019973" />
		<tag k="operator" v="Vinnes barnehage Sa" />
		<tag k="operator:type" v="private" />
	</node>
	<node id="-4943" lat="59.74596" lon="10.01624">
		<tag k="ADDRESS" v="Hagatjernveien 17, 3050 MJØNDALEN" />
		<tag k="amenity" v="kindergarten" />
		<tag k="capacity" v="90" />
		<tag k="max_age" v="5" />
		<tag k="min_age" v="1" />
		<tag k="name" v="Vassenga barnehage" />
		<tag k="no-barnehage:nsrid" v="1012622" />
		<tag k="operator" v="Drammen kommune" />
		<tag k="operator:type" v="public" />
	</node>
	<node id="-4942" lat="59.61131" lon="10.39833">
		<tag k="ADDRESS" v="Sivles Vei 14, 3060 SVELVIK" />
		<tag k="amenity" v="kindergarten" />
		<tag k="capacity" v="54" />
		<tag k="contact:website" v="http://www.facebook.com/tømmeråsbarnehage" />
		<tag k="max_age" v="5" />
		<tag k="min_age" v="1" />
		<tag k="name" v="Tømmerås barnehage" />
		<tag k="no-barnehage:nsrid" v="1020982" />
		<tag k="operator" v="Tømmerås barnehage Sa" />
		<tag k="operator:type" v="private" />
	</node>
	<node id="-4941" lat="59.74663" lon="10.15664">
		<tag k="ADDRESS" v="Øvre Eikervei 25, 3048 DRAMMEN" />
		<tag k="amenity" v="kindergarten" />
		<tag k="capacity" v="70" />
		<tag k="contact:website" v="http://tekna.barnehage.no" />
		<tag k="max_age" v="5" />
		<tag k="min_age" v="1" />
		<tag k="name" v="Teknabarnehagen Tellus" />
		<tag k="no-barnehage:nsrid" v="1015936" />
		<tag k="operator" v="Stiftelsen Teknabarnehagene Drammen" />
		<tag k="operator:type" v="private" />
	</node>
	<node id="-4940" lat="59.70325" lon="10.15944">
		<tag k="ADDRESS" v="Jarlsbergveien 225, 3032 DRAMMEN" />
		<tag k="amenity" v="kindergarten" />
		<tag k="capacity" v="39" />
		<tag k="contact:website" v="http://tekna.barnehage.no" />
		<tag k="max_age" v="5" />
		<tag k="min_age" v="1" />
		<tag k="name" v="Teknabarnehagen Rådyrtråkket" />
		<tag k="no-barnehage:nsrid" v="1016588" />
		<tag k="operator" v="Stiftelsen Teknabarnehagene Drammen" />
		<tag k="operator:type" v="private" />
	</node>
	<node id="-4939" lat="59.74947" lon="10.19201">
		<tag k="ADDRESS" v="Heyerdahls Gate 9, 3019 DRAMMEN" />
		<tag k="amenity" v="kindergarten" />
		<tag k="capacity" v="96" />
		<tag k="max_age" v="5" />
		<tag k="min_age" v="1" />
		<tag k="name" v="Sørbyløkka barnehage" />
		<tag k="no-barnehage:nsrid" v="1016646" />
		<tag k="operator" v="Drammen kommune" />
		<tag k="operator:type" v="public" />
	</node>
	<node id="-4938" lat="59.71442" lon="10.14996">
		<tag k="ADDRESS" v="Torsbergveien 15, 3032 DRAMMEN" />
		<tag k="amenity" v="kindergarten" />
		<tag k="capacity" v="45" />
		<tag k="max_age" v="5" />
		<tag k="min_age" v="1" />
		<tag k="name" v="Svensedammen barnehage" />
		<tag k="no-barnehage:nsrid" v="1014699" />
		<tag k="operator" v="Drammen kommune" />
		<tag k="operator:type" v="public" />
	</node>
	<node id="-4937" lat="59.68945" lon="10.3375">
		<tag k="ADDRESS" v="Svelvikveien 700, 3060 SVELVIK" />
		<tag k="amenity" v="kindergarten" />
		<tag k="capacity" v="72" />
		<tag k="max_age" v="5" />
		<tag k="min_age" v="1" />
		<tag k="name" v="Støa barnehage" />
		<tag k="no-barnehage:nsrid" v="1018024" />
		<tag k="operator" v="Drammen kommune" />
		<tag k="operator:type" v="public" />
	</node>
	<node id="-4935" lat="59.73385" lon="10.2045">
		<tag k="ADDRESS" v="Knoffs Gate 20, 3044 DRAMMEN" />
		<tag k="amenity" v="kindergarten" />
		<tag k="capacity" v="95" />
		<tag k="max_age" v="5" />
		<tag k="min_age" v="1" />
		<tag k="name" v="Strømsø barnehage" />
		<tag k="no-barnehage:nsrid" v="1013933" />
		<tag k="operator" v="Drammen kommune" />
		<tag k="operator:type" v="public" />
	</node>
	<node id="-4934" lat="59.7159" lon="10.26105">
		<tag k="ADDRESS" v="Nordbyveien 59, 3038 DRAMMEN" />
		<tag k="amenity" v="kindergarten" />
		<tag k="capacity" v="60" />
		<tag k="max_age" v="5" />
		<tag k="min_age" v="1" />
		<tag k="name" v="Stiftelsen Nordby gård barnehage" />
		<tag k="no-barnehage:nsrid" v="1019992" />
		<tag k="operator" v="Stiftelsen Nordby Gård barnehage" />
		<tag k="operator:type" v="private" />
	</node>
	<node id="-4933" lat="59.73785" lon="10.18531">
		<tag k="ADDRESS" v="Lassebakken 2, 3046 DRAMMEN" />
		<tag k="amenity" v="kindergarten" />
		<tag k="capacity" v="40" />
		<tag k="max_age" v="5" />
		<tag k="min_age" v="1" />
		<tag k="name" v="Stiftelsen Lassebakken barnehage" />
		<tag k="no-barnehage:nsrid" v="1020683" />
		<tag k="operator" v="Stiftelsen Lassebakken barnehage" />
		<tag k="operator:type" v="private" />
	</node>
	<node id="-4932" lat="59.75722" lon="10.035">
		<tag k="ADDRESS" v="Stensethalleen 1, 3055 KROKSTADELVA" />
		<tag k="amenity" v="kindergarten" />
		<tag k="capacity" v="36" />
		<tag k="max_age" v="5" />
		<tag k="min_age" v="1" />
		<tag k="name" v="Stensethalleen barnehage" />
		<tag k="no-barnehage:nsrid" v="1015066" />
		<tag k="operator" v="Drammen kommune" />
		<tag k="operator:type" v="public" />
	</node>
	<node id="-4931" lat="59.7626" lon="10.03038">
		<tag k="ADDRESS" v="Nordlysveien 11, 3055 KROKSTADELVA" />
		<tag k="amenity" v="kindergarten" />
		<tag k="capacity" v="76" />
		<tag k="contact:website" v="http://stenseth.barnehage.no" />
		<tag k="max_age" v="5" />
		<tag k="min_age" v="1" />
		<tag k="name" v="Stenseth barnehage" />
		<tag k="no-barnehage:nsrid" v="1020895" />
		<tag k="operator" v="Stenseth barnehage Sa" />
		<tag k="operator:type" v="private" />
	</node>
	<node id="-4930" lat="59.76037" lon="9.98804">
		<tag k="ADDRESS" v="Bedehusgata 29, 3055 KROKSTADELVA" />
		<tag k="amenity" v="kindergarten" />
		<tag k="capacity" v="63" />
		<tag k="max_age" v="5" />
		<tag k="min_age" v="1" />
		<tag k="name" v="Stenberghaugen barnehage" />
		<tag k="no-barnehage:nsrid" v="1013434" />
		<tag k="operator" v="Drammen kommune" />
		<tag k="operator:type" v="public" />
	</node>
	<node id="-4929" lat="59.75798" lon="9.95957">
		<tag k="ADDRESS" v="Nedre Skistadvei, 3053 STEINBERG" />
		<tag k="amenity" v="kindergarten" />
		<tag k="capacity" v="63" />
		<tag k="max_age" v="5" />
		<tag k="min_age" v="1" />
		<tag k="name" v="Steinberg barnehage" />
		<tag k="no-barnehage:nsrid" v="1012621" />
		<tag k="operator" v="Drammen kommune" />
		<tag k="operator:type" v="public" />
	</node>
	<node id="-4928" lat="59.72765" lon="10.23893">
		<tag k="ADDRESS" v="Tors Vei 4, 3040 DRAMMEN" />
		<tag k="amenity" v="kindergarten" />
		<tag k="capacity" v="65" />
		<tag k="max_age" v="5" />
		<tag k="min_age" v="1" />
		<tag k="name" v="St. Hansberget barnehage" />
		<tag k="no-barnehage:nsrid" v="1017997" />
		<tag k="operator" v="Drammen kommune" />
		<tag k="operator:type" v="public" />
	</node>
	<node id="-4927" lat="59.73675" lon="10.20589">
		<tag k="ADDRESS" v="Mallinggata 1, 3044 DRAMMEN" />
		<tag k="amenity" v="kindergarten" />
		<tag k="capacity" v="41" />
		<tag k="max_age" v="5" />
		<tag k="min_age" v="1" />
		<tag k="name" v="Solstreif barnehage" />
		<tag k="no-barnehage:nsrid" v="1019794" />
		<tag k="operator" v="Stiftelsen Mallinggata 1" />
		<tag k="operator:type" v="private" />
	</node>
	<node id="-4926" lat="59.7241" lon="10.13484">
		<tag k="ADDRESS" v="Hauanveien 37, 3031 DRAMMEN" />
		<tag k="amenity" v="kindergarten" />
		<tag k="capacity" v="81" />
		<tag k="max_age" v="5" />
		<tag k="min_age" v="1" />
		<tag k="name" v="Solhaugen barnehage" />
		<tag k="no-barnehage:nsrid" v="1015679" />
		<tag k="operator" v="Drammen kommune" />
		<tag k="operator:type" v="public" />
	</node>
	<node id="-4925" lat="59.75727" lon="10.13011">
		<tag k="ADDRESS" v="Bolstadhagen 6, 3028 DRAMMEN" />
		<tag k="amenity" v="kindergarten" />
		<tag k="capacity" v="45" />
		<tag k="max_age" v="5" />
		<tag k="min_age" v="1" />
		<tag k="name" v="Solhagen Rudolf Steiner barnehage" />
		<tag k="no-barnehage:nsrid" v="1021341" />
		<tag k="operator" v="Stiftelsen Mallinggata 1" />
		<tag k="operator:type" v="private" />
	</node>
	<node id="-4924" lat="59.7579" lon="10.05167">
		<tag k="ADDRESS" v="Gamle Riksvei 137b, 3058 SOLBERGMOEN" />
		<tag k="amenity" v="kindergarten" />
		<tag k="capacity" v="92" />
		<tag k="contact:website" v="http://www.sprellopp.no" />
		<tag k="max_age" v="5" />
		<tag k="min_age" v="1" />
		<tag k="name" v="Solbergmoen barnehage" />
		<tag k="no-barnehage:nsrid" v="1021792" />
		<tag k="operator" v="Solbergmoen barnehage AS" />
		<tag k="operator:type" v="private" />
	</node>
	<node id="-4923" lat="59.7616" lon="10.0986">
		<tag k="ADDRESS" v="Gamle Riksvei 24, 3057 SOLBERGELVA" />
		<tag k="amenity" v="kindergarten" />
		<tag k="capacity" v="116" />
		<tag k="contact:website" v="http://www.sprellopp.no" />
		<tag k="max_age" v="5" />
		<tag k="min_age" v="1" />
		<tag k="name" v="Solbergelva barnehage" />
		<tag k="no-barnehage:nsrid" v="1022285" />
		<tag k="operator" v="Solbergelva barnehage AS" />
		<tag k="operator:type" v="private" />
	</node>
	<node id="-4922" lat="59.7661" lon="10.07261">
		<tag k="ADDRESS" v="Skyttelveien 2, 3057 SOLBERGELVA" />
		<tag k="amenity" v="kindergarten" />
		<tag k="capacity" v="61" />
		<tag k="max_age" v="5" />
		<tag k="min_age" v="1" />
		<tag k="name" v="Skyttelveien barnehage" />
		<tag k="no-barnehage:nsrid" v="1021727" />
		<tag k="operator" v="Skyttelveien barnehage AS" />
		<tag k="operator:type" v="private" />
	</node>
	<node id="-4921" lat="59.72041" lon="10.2207">
		<tag k="ADDRESS" v="Laurits Grønlands Vei 12, 3035 DRAMMEN" />
		<tag k="amenity" v="kindergarten" />
		<tag k="capacity" v="68" />
		<tag k="contact:website" v="http://skattekisten.net" />
		<tag k="max_age" v="5" />
		<tag k="min_age" v="1" />
		<tag k="name" v="Skattekisten barnehage" />
		<tag k="no-barnehage:nsrid" v="1021020" />
		<tag k="operator" v="Skattekisten barnehage Sa" />
		<tag k="operator:type" v="private" />
	</node>
	<node id="-4920" lat="59.71766" lon="10.22239">
		<tag k="ADDRESS" v="Laurits Grønlands Vei 28, 3035 DRAMMEN" />
		<tag k="amenity" v="kindergarten" />
		<tag k="capacity" v="80" />
		<tag k="max_age" v="5" />
		<tag k="min_age" v="1" />
		<tag k="name" v="Senterbarnehagen FUS" />
		<tag k="no-barnehage:nsrid" v="1021827" />
		<tag k="operator" v="Senterbarnehagen Fus AS" />
		<tag k="operator:type" v="private" />
	</node>
	<node id="-4919" lat="59.71769" lon="10.15814">
		<tag k="ADDRESS" v="Røyseplassen 12b, 3033 DRAMMEN" />
		<tag k="amenity" v="kindergarten" />
		<tag k="capacity" v="47" />
		<tag k="contact:website" v="http://www.royseplassen.no/" />
		<tag k="max_age" v="5" />
		<tag k="min_age" v="1" />
		<tag k="name" v="Røyseplassen barnehage" />
		<tag k="no-barnehage:nsrid" v="1020031" />
		<tag k="operator" v="Røyseplassen barnehage Sa" />
		<tag k="operator:type" v="private" />
	</node>
	<node id="-4918" lat="59.74562" lon="10.19452">
		<tag k="ADDRESS" v="Øvre Storgate 18, 3018 DRAMMEN" />
		<tag k="amenity" v="kindergarten" />
		<tag k="capacity" v="98" />
		<tag k="max_age" v="5" />
		<tag k="min_age" v="1" />
		<tag k="name" v="Parktunet barnehage" />
		<tag k="no-barnehage:nsrid" v="1017996" />
		<tag k="operator" v="Drammen kommune" />
		<tag k="operator:type" v="public" />
	</node>
	<node id="-4917" lat="59.71989" lon="10.2649">
		<tag k="ADDRESS" v="Hans Langbachs Vei 1, 3039 DRAMMEN" />
		<tag k="amenity" v="kindergarten" />
		<tag k="capacity" v="50" />
		<tag k="contact:website" v="http://laringsverkstedet.no/barnehage/nostodden" />
		<tag k="max_age" v="5" />
		<tag k="min_age" v="1" />
		<tag k="name" v="Nøstodden barnehage" />
		<tag k="no-barnehage:nsrid" v="1021707" />
		<tag k="operator" v="Nøstodden barnehage AS" />
		<tag k="operator:type" v="private" />
	</node>
	<node id="-4916" lat="59.74915" lon="10.16955">
		<tag k="ADDRESS" v="Christoffer Knudsens Gate 35, 3023 DRAMMEN" />
		<tag k="amenity" v="kindergarten" />
		<tag k="capacity" v="39" />
		<tag k="contact:website" v="http://www.drmb.no" />
		<tag k="max_age" v="5" />
		<tag k="min_age" v="1" />
		<tag k="name" v="Norlights montessoribarnehage Drammen" />
		<tag k="no-barnehage:nsrid" v="1022147" />
		<tag k="operator" v="Norlights Montessoribarnehage Drammen AS" />
		<tag k="operator:type" v="private" />
	</node>
	<node id="-4915" lat="59.71603" lon="10.25967">
		<tag k="ADDRESS" v="Nordbyveien 57b, 3038 DRAMMEN" />
		<tag k="amenity" v="kindergarten" />
		<tag k="capacity" v="68" />
		<tag k="max_age" v="5" />
		<tag k="min_age" v="1" />
		<tag k="name" v="Nordbylunden barnehage" />
		<tag k="no-barnehage:nsrid" v="1017995" />
		<tag k="operator" v="Drammen kommune" />
		<tag k="operator:type" v="public" />
	</node>
	<node id="-4914" lat="59.75152" lon="10.13492">
		<tag k="ADDRESS" v="Farmen Nedre 6, 3024 DRAMMEN" />
		<tag k="amenity" v="kindergarten" />
		<tag k="capacity" v="25" />
		<tag k="contact:website" v="http://tryggheim-drammen.barnehage.no/" />
		<tag k="max_age" v="5" />
		<tag k="min_age" v="1" />
		<tag k="name" v="NLM barnehagene avd. Tryggheim barnehage Drammen" />
		<tag k="no-barnehage:nsrid" v="1016177" />
		<tag k="operator" v="Nlm-Barnehagene AS" />
		<tag k="operator:type" v="private" />
	</node>
	<node id="-4912" lat="59.75808" lon="10.01648">
		<tag k="ADDRESS" v="Prestebråtveien 2, 3055 KROKSTADELVA" />
		<tag k="amenity" v="kindergarten" />
		<tag k="capacity" v="71" />
		<tag k="contact:website" v="http://www.drammen.kommune.no" />
		<tag k="max_age" v="5" />
		<tag k="min_age" v="1" />
		<tag k="name" v="Møllenhof barnehage" />
		<tag k="no-barnehage:nsrid" v="1016258" />
		<tag k="operator" v="Drammen kommune" />
		<tag k="operator:type" v="public" />
	</node>
	<node id="-4910" lat="59.73523" lon="10.19684">
		<tag k="ADDRESS" v="Schreiners Gate 4, 3045 DRAMMEN" />
		<tag k="amenity" v="kindergarten" />
		<tag k="capacity" v="22" />
		<tag k="max_age" v="5" />
		<tag k="min_age" v="3" />
		<tag k="name" v="Marienlyst barnehage" />
		<tag k="no-barnehage:nsrid" v="1017994" />
		<tag k="operator" v="Drammen kommune" />
		<tag k="operator:type" v="public" />
	</node>
	<node id="-4909" lat="59.74762" lon="10.22509">
		<tag k="ADDRESS" v="Lammers Gate 22, 3014 DRAMMEN" />
		<tag k="amenity" v="kindergarten" />
		<tag k="capacity" v="40" />
		<tag k="max_age" v="5" />
		<tag k="min_age" v="1" />
		<tag k="name" v="Løkkebergene Vels barnehage" />
		<tag k="no-barnehage:nsrid" v="1019633" />
		<tag k="operator" v="Løkkebergene Vels barnehage" />
		<tag k="operator:type" v="private" />
	</node>
	<node id="-4908" lat="59.68613" lon="10.21658">
		<tag k="ADDRESS" v="Jarlsbergveien 716, 3039 DRAMMEN" />
		<tag k="amenity" v="kindergarten" />
		<tag k="capacity" v="68" />
		<tag k="contact:website" v="http://laringsverkstedet.no/barnehage/skoger" />
		<tag k="max_age" v="5" />
		<tag k="min_age" v="1" />
		<tag k="name" v="Læringsverkstedet barnehage avd. Skoger" />
		<tag k="no-barnehage:nsrid" v="1015057" />
		<tag k="operator" v="Læringsverkstedet AS" />
		<tag k="operator:type" v="private" />
	</node>
	<node id="-4907" lat="59.74768" lon="10.19945">
		<tag k="ADDRESS" v="Amtmand Bangs Gate 8, 3019 DRAMMEN" />
		<tag k="amenity" v="kindergarten" />
		<tag k="capacity" v="42" />
		<tag k="max_age" v="5" />
		<tag k="min_age" v="1" />
		<tag k="name" v="Lilleløkka barnehage" />
		<tag k="no-barnehage:nsrid" v="1013397" />
		<tag k="operator" v="Drammen kommune" />
		<tag k="operator:type" v="public" />
	</node>
	<node id="-4906" lat="59.77024" lon="9.99951">
		<tag k="ADDRESS" v="Tyrihans 2, 3055 KROKSTADELVA" />
		<tag k="amenity" v="kindergarten" />
		<tag k="capacity" v="81" />
		<tag k="max_age" v="5" />
		<tag k="min_age" v="1" />
		<tag k="name" v="Langløkka barnehage" />
		<tag k="no-barnehage:nsrid" v="1016259" />
		<tag k="operator" v="Drammen kommune" />
		<tag k="operator:type" v="public" />
	</node>
	<node id="-4905" lat="59.71922" lon="10.14714">
		<tag k="ADDRESS" v="Bernåsbakken 8, 3032 DRAMMEN" />
		<tag k="amenity" v="kindergarten" />
		<tag k="capacity" v="50" />
		<tag k="max_age" v="5" />
		<tag k="min_age" v="1" />
		<tag k="name" v="Konnerud barnehage" />
		<tag k="no-barnehage:nsrid" v="1017993" />
		<tag k="operator" v="Drammen kommune" />
		<tag k="operator:type" v="public" />
	</node>
	<node id="-4904" lat="59.72861" lon="10.22977">
		<tag k="ADDRESS" v="Kobbervikveien 10, 3040 DRAMMEN" />
		<tag k="amenity" v="kindergarten" />
		<tag k="capacity" v="91" />
		<tag k="max_age" v="5" />
		<tag k="min_age" v="1" />
		<tag k="name" v="Kobbervik gård barnehage" />
		<tag k="no-barnehage:nsrid" v="1013543" />
		<tag k="operator" v="Drammen kommune" />
		<tag k="operator:type" v="public" />
	</node>
	<node id="-4903" lat="59.75531" lon="10.20274">
		<tag k="ADDRESS" v="Slettåsen 25, 3014 DRAMMEN" />
		<tag k="amenity" v="kindergarten" />
		<tag k="capacity" v="65" />
		<tag k="contact:website" v="http://www.klokkergaarden.barnehage.no" />
		<tag k="max_age" v="5" />
		<tag k="min_age" v="1" />
		<tag k="name" v="Klokkergården barnehage" />
		<tag k="no-barnehage:nsrid" v="1021544" />
		<tag k="operator" v="Klokkergården barnehage AS" />
		<tag k="operator:type" v="private" />
	</node>
	<node id="-4902" lat="59.74237" lon="10.14816">
		<tag k="ADDRESS" v="Skogliveien 142, 3047 DRAMMEN" />
		<tag k="amenity" v="kindergarten" />
		<tag k="capacity" v="65" />
		<tag k="max_age" v="5" />
		<tag k="min_age" v="1" />
		<tag k="name" v="Kjerraten barnehage" />
		<tag k="no-barnehage:nsrid" v="1020519" />
		<tag k="operator" v="Kjerraten barnehage Sa" />
		<tag k="operator:type" v="private" />
	</node>
	<node id="-4901" lat="59.70528" lon="10.15695">
		<tag k="ADDRESS" v="Jarlsbergveien 201, 3032 DRAMMEN" />
		<tag k="amenity" v="kindergarten" />
		<tag k="capacity" v="96" />
		<tag k="max_age" v="5" />
		<tag k="min_age" v="1" />
		<tag k="name" v="Jordbrekkskogen barnehage" />
		<tag k="no-barnehage:nsrid" v="1017992" />
		<tag k="operator" v="Drammen kommune" />
		<tag k="operator:type" v="public" />
	</node>
	<node id="-4900" lat="59.71535" lon="10.26377">
		<tag k="ADDRESS" v="Helleristningen 45, 3038 DRAMMEN" />
		<tag k="amenity" v="kindergarten" />
		<tag k="capacity" v="13" />
		<tag k="max_age" v="5" />
		<tag k="min_age" v="1" />
		<tag k="name" v="Helleristningen barnehage Bente Hennum" />
		<tag k="no-barnehage:nsrid" v="1021116" />
		<tag k="operator" v="Helleristningen barnehage Bente Hennum" />
		<tag k="operator:type" v="private" />
	</node>
	<node id="-4899" lat="59.7276" lon="10.24124">
		<tag k="ADDRESS" v="Gamle Kongevei 107, 3040 DRAMMEN" />
		<tag k="amenity" v="kindergarten" />
		<tag k="capacity" v="54" />
		<tag k="contact:website" v="http://www.hedensrud.barnehage.no" />
		<tag k="max_age" v="5" />
		<tag k="min_age" v="1" />
		<tag k="name" v="Hedensrud barnehage" />
		<tag k="no-barnehage:nsrid" v="1020027" />
		<tag k="operator" v="Hedensrud barnehage Sa" />
		<tag k="operator:type" v="private" />
	</node>
	<node id="-4898" lat="59.75036" lon="10.00322">
		<tag k="ADDRESS" v="Evjegata 15, 3050 MJØNDALEN" />
		<tag k="amenity" v="kindergarten" />
		<tag k="capacity" v="77" />
		<tag k="max_age" v="5" />
		<tag k="min_age" v="1" />
		<tag k="name" v="Hatten barnehage" />
		<tag k="no-barnehage:nsrid" v="1016257" />
		<tag k="operator" v="Drammen kommune" />
		<tag k="operator:type" v="public" />
	</node>
	<node id="-4895" lat="59.74733" lon="10.15705">
		<tag k="ADDRESS" v="Øvre Eikervei 30, 3048 DRAMMEN" />
		<tag k="amenity" v="kindergarten" />
		<tag k="capacity" v="96" />
		<tag k="max_age" v="5" />
		<tag k="min_age" v="1" />
		<tag k="name" v="Gulskogen barnehage avd. Øvre Eikervei" />
		<tag k="no-barnehage:nsrid" v="1017904" />
		<tag k="operator" v="Drammen kommune" />
		<tag k="operator:type" v="public" />
	</node>
	<node id="-4894" lat="59.74546" lon="10.15374">
		<tag k="ADDRESS" v="Rødgata 24, 3048 DRAMMEN" />
		<tag k="amenity" v="kindergarten" />
		<tag k="capacity" v="31" />
		<tag k="max_age" v="5" />
		<tag k="min_age" v="1" />
		<tag k="name" v="Gulskogen barnehage avd. Rødgata" />
		<tag k="no-barnehage:nsrid" v="1017991" />
		<tag k="operator" v="Drammen kommune" />
		<tag k="operator:type" v="public" />
	</node>
	<node id="-4893" lat="59.763" lon="10.05854">
		<tag k="ADDRESS" v="Liaveien 28, 3058 SOLBERGMOEN" />
		<tag k="amenity" v="kindergarten" />
		<tag k="capacity" v="56" />
		<tag k="max_age" v="5" />
		<tag k="min_age" v="1" />
		<tag k="name" v="Grinde barnehage" />
		<tag k="no-barnehage:nsrid" v="1016256" />
		<tag k="operator" v="Drammen kommune" />
		<tag k="operator:type" v="public" />
	</node>
	<node id="-4892" lat="59.71895" lon="10.2228">
		<tag k="ADDRESS" v="Laurits Grønlands Vei 25, 3035 DRAMMEN" />
		<tag k="amenity" v="kindergarten" />
		<tag k="capacity" v="67" />
		<tag k="max_age" v="5" />
		<tag k="min_age" v="1" />
		<tag k="name" v="Fjellhagen barnehage" />
		<tag k="no-barnehage:nsrid" v="1017990" />
		<tag k="operator" v="Drammen kommune" />
		<tag k="operator:type" v="public" />
	</node>
	<node id="-4891" lat="59.71677" lon="10.2235">
		<tag k="ADDRESS" v="Fjellsveien 5, 3035 DRAMMEN" />
		<tag k="amenity" v="kindergarten" />
		<tag k="capacity" v="96" />
		<tag k="max_age" v="5" />
		<tag k="min_age" v="1" />
		<tag k="name" v="Fjell barnehage" />
		<tag k="no-barnehage:nsrid" v="1017989" />
		<tag k="operator" v="Drammen kommune" />
		<tag k="operator:type" v="public" />
	</node>
	<node id="-4890" lat="59.73195" lon="10.13788">
		<tag k="ADDRESS" v="Stollen 5, 3030 DRAMMEN" />
		<tag k="amenity" v="kindergarten" />
		<tag k="capacity" v="116" />
		<tag k="contact:website" v="http://www.espira.no" />
		<tag k="max_age" v="5" />
		<tag k="min_age" v="1" />
		<tag k="name" v="Espira Vannverksdammen barnehage" />
		<tag k="no-barnehage:nsrid" v="1021529" />
		<tag k="operator" v="Espira Vannverksdammen AS" />
		<tag k="operator:type" v="private" />
	</node>
	<node id="-4889" lat="59.71975" lon="10.16266">
		<tag k="ADDRESS" v="Djupdalsveien 227, 3033 DRAMMEN" />
		<tag k="amenity" v="kindergarten" />
		<tag k="capacity" v="71" />
		<tag k="contact:website" v="http://www.espira.no" />
		<tag k="max_age" v="5" />
		<tag k="min_age" v="1" />
		<tag k="name" v="Espira Torsbergskogen barnehage" />
		<tag k="no-barnehage:nsrid" v="1021667" />
		<tag k="operator" v="Espira Torsbergskogen AS" />
		<tag k="operator:type" v="private" />
	</node>
	<node id="-4888" lat="59.70164" lon="10.2681">
		<tag k="ADDRESS" v="Kniveveien 55, 3036 DRAMMEN" />
		<tag k="amenity" v="kindergarten" />
		<tag k="capacity" v="118" />
		<tag k="contact:website" v="http://www.espira.no" />
		<tag k="max_age" v="5" />
		<tag k="min_age" v="1" />
		<tag k="name" v="Espira Kniveåsen barnehage" />
		<tag k="no-barnehage:nsrid" v="1021530" />
		<tag k="operator" v="Espira Kniveåsen AS" />
		<tag k="operator:type" v="private" />
	</node>
	<node id="-4887" lat="59.71577" lon="10.156">
		<tag k="ADDRESS" v="Pettersvollen 31, 3032 DRAMMEN" />
		<tag k="amenity" v="kindergarten" />
		<tag k="capacity" v="72" />
		<tag k="contact:website" v="http://www.espira.no" />
		<tag k="max_age" v="5" />
		<tag k="min_age" v="1" />
		<tag k="name" v="Espira Gåserud barnehage" />
		<tag k="no-barnehage:nsrid" v="1020861" />
		<tag k="operator" v="Espira Gåserud AS" />
		<tag k="operator:type" v="private" />
	</node>
	<node id="-4886" lat="59.75059" lon="10.03909">
		<tag k="ADDRESS" v="Eplehagan 1, 3050 MJØNDALEN" />
		<tag k="amenity" v="kindergarten" />
		<tag k="capacity" v="70" />
		<tag k="contact:website" v="http://www.eplehagan.no" />
		<tag k="max_age" v="5" />
		<tag k="min_age" v="1" />
		<tag k="name" v="Eplehagan barnehage" />
		<tag k="no-barnehage:nsrid" v="1020567" />
		<tag k="operator" v="Eplehagan barnehage Sa" />
		<tag k="operator:type" v="private" />
	</node>
	<node id="-4885" lat="59.75068" lon="10.17817">
		<tag k="ADDRESS" v="Hotvetveien 33, 3018 DRAMMEN" />
		<tag k="amenity" v="kindergarten" />
		<tag k="capacity" v="50" />
		<tag k="contact:website" v="http://www.ekornheia.barnehage.no" />
		<tag k="max_age" v="5" />
		<tag k="min_age" v="1" />
		<tag k="name" v="Ekornheia barnehage" />
		<tag k="no-barnehage:nsrid" v="1019937" />
		<tag k="operator" v="Ekornheia barnehage Sa" />
		<tag k="operator:type" v="private" />
	</node>
	<node id="-4884" lat="59.76016" lon="10.01224">
		<tag k="ADDRESS" v="Eknesveien 13a, 3055 KROKSTADELVA" />
		<tag k="amenity" v="kindergarten" />
		<tag k="capacity" v="32" />
		<tag k="max_age" v="5" />
		<tag k="min_age" v="1" />
		<tag k="name" v="Eknes barnehage" />
		<tag k="no-barnehage:nsrid" v="1021224" />
		<tag k="operator" v="Eknes barnehage AS" />
		<tag k="operator:type" v="private" />
	</node>
	<node id="-4883" lat="59.62814" lon="10.39664">
		<tag k="ADDRESS" v="Markveien 34, 3060 SVELVIK" />
		<tag k="amenity" v="kindergarten" />
		<tag k="capacity" v="74" />
		<tag k="max_age" v="5" />
		<tag k="min_age" v="1" />
		<tag k="name" v="Ebbestad barnehage" />
		<tag k="no-barnehage:nsrid" v="1014991" />
		<tag k="operator" v="Drammen kommune" />
		<tag k="operator:type" v="public" />
	</node>
	<node id="-4882" lat="59.7171" lon="10.15316">
		<tag k="ADDRESS" v="Gramsborgveien 3, 3032 DRAMMEN" />
		<tag k="amenity" v="kindergarten" />
		<tag k="capacity" v="16" />
		<tag k="max_age" v="5" />
		<tag k="min_age" v="1" />
		<tag k="name" v="Amicus barnehage" />
		<tag k="no-barnehage:nsrid" v="1014915" />
		<tag k="operator" v="Drammen Kirkelig Fellesråd" />
		<tag k="operator:type" v="private" />
	</node>
	<node id="-4881" lat="59.75423" lon="10.14314">
		<tag k="ADDRESS" v="Åkerveien 2, 3024 DRAMMEN" />
		<tag k="amenity" v="kindergarten" />
		<tag k="capacity" v="18" />
		<tag k="contact:website" v="http://aassidenmenighetsbhg.no" />
		<tag k="max_age" v="5" />
		<tag k="min_age" v="1" />
		<tag k="name" v="Åssiden menighets barnehage" />
		<tag k="no-barnehage:nsrid" v="1015537" />
		<tag k="operator" v="Drammen Kirkelig Fellesråd" />
		<tag k="operator:type" v="private" />
	</node>
	<node id="-4880" lat="59.72661" lon="10.24282">
		<tag k="ADDRESS" v="Gamle Kongevei 116, 3040 DRAMMEN" />
		<tag k="amenity" v="kindergarten" />
		<tag k="capacity" v="20" />
		<tag k="max_age" v="5" />
		<tag k="min_age" v="1" />
		<tag k="name" v="Baltazar barnehage" />
		<tag k="no-barnehage:nsrid" v="1015526" />
		<tag k="operator" v="Drammen Kirkelig Fellesråd" />
		<tag k="operator:type" v="private" />
	</node>
	<node id="-4879" lat="59.72403" lon="10.20246">
		<tag k="ADDRESS" v="Drafnkollen 70, 3042 DRAMMEN" />
		<tag k="amenity" v="kindergarten" />
		<tag k="capacity" v="71" />
		<tag k="max_age" v="5" />
		<tag k="min_age" v="1" />
		<tag k="name" v="Drafnkollen FUS barnehage" />
		<tag k="no-barnehage:nsrid" v="1021721" />
		<tag k="operator" v="Drafnkollen Fus barnehage AS" />
		<tag k="operator:type" v="private" />
	</node>
	<node id="-4878" lat="59.73368" lon="10.19689">
		<tag k="ADDRESS" v="Skolegata 19, 3046 DRAMMEN" />
		<tag k="amenity" v="kindergarten" />
		<tag k="capacity" v="70" />
		<tag k="max_age" v="5" />
		<tag k="min_age" v="1" />
		<tag k="name" v="Danvik barnehage" />
		<tag k="no-barnehage:nsrid" v="1017988" />
		<tag k="operator" v="Drammen kommune" />
		<tag k="operator:type" v="public" />
	</node>
	<node id="-4877" lat="59.74964" lon="10.19425">
		<tag k="ADDRESS" v="Wergelands Gate 12, 3019 DRAMMEN" />
		<tag k="amenity" v="kindergarten" />
		<tag k="capacity" v="63" />
		<tag k="max_age" v="5" />
		<tag k="min_age" v="1" />
		<tag k="name" v="Dampsentralen barnehage" />
		<tag k="no-barnehage:nsrid" v="1014170" />
		<tag k="operator" v="Drammen kommune" />
		<tag k="operator:type" v="public" />
	</node>
	<node id="-4876" lat="59.75856" lon="10.13368">
		<tag k="ADDRESS" v="Dalegårdsveien 24, 3028 DRAMMEN" />
		<tag k="amenity" v="kindergarten" />
		<tag k="capacity" v="56" />
		<tag k="max_age" v="5" />
		<tag k="min_age" v="1" />
		<tag k="name" v="Dalegårdsveien barnehage" />
		<tag k="no-barnehage:nsrid" v="1012493" />
		<tag k="operator" v="Drammen kommune" />
		<tag k="operator:type" v="public" />
	</node>
	<node id="-4875" lat="59.76205" lon="10.11617">
		<tag k="ADDRESS" v="Kristian Brenners Vei 170, 3029 DRAMMEN" />
		<tag k="amenity" v="kindergarten" />
		<tag k="capacity" v="84" />
		<tag k="contact:website" v="http://www.brottet.barnehage.no" />
		<tag k="max_age" v="5" />
		<tag k="min_age" v="1" />
		<tag k="name" v="Brøttet barnehage" />
		<tag k="no-barnehage:nsrid" v="1021244" />
		<tag k="operator" v="Brøttet barnehage Sa" />
		<tag k="operator:type" v="private" />
	</node>
	<node id="-4874" lat="59.7462" lon="10.21543">
		<tag k="ADDRESS" v="Løkkebergveien 6, 3014 DRAMMEN" />
		<tag k="amenity" v="kindergarten" />
		<tag k="capacity" v="28" />
		<tag k="max_age" v="5" />
		<tag k="min_age" v="3" />
		<tag k="name" v="Brannposten barnehage" />
		<tag k="no-barnehage:nsrid" v="1017987" />
		<tag k="operator" v="Drammen kommune" />
		<tag k="operator:type" v="public" />
	</node>
	<node id="-4873" lat="59.74137" lon="10.2191">
		<tag k="ADDRESS" v="Sankt Halvards Gate 1k, 3015 DRAMMEN" />
		<tag k="amenity" v="kindergarten" />
		<tag k="capacity" v="41" />
		<tag k="contact:website" v="http://bragernesstrandbarnehage.no" />
		<tag k="max_age" v="5" />
		<tag k="min_age" v="1" />
		<tag k="name" v="Bragernes Strand barnehage" />
		<tag k="no-barnehage:nsrid" v="1021761" />
		<tag k="operator" v="Bragernes Strand barnehage AS" />
		<tag k="operator:type" v="private" />
	</node>
	<node id="-4872" lat="59.72904" lon="10.14843">
		<tag k="ADDRESS" v="Vargveien 21, 3030 DRAMMEN" />
		<tag k="amenity" v="kindergarten" />
		<tag k="capacity" v="35" />
		<tag k="contact:website" v="http://www.btoppen.no" />
		<tag k="max_age" v="5" />
		<tag k="min_age" v="1" />
		<tag k="name" v="Blåbærtoppen barnehage" />
		<tag k="no-barnehage:nsrid" v="1020781" />
		<tag k="operator" v="Blåbærtoppen barnehage Sa" />
		<tag k="operator:type" v="private" />
	</node>
	<node id="-4871" lat="59.73034" lon="10.2029">
		<tag k="ADDRESS" v="Sigurds Gate 14, 3043 DRAMMEN" />
		<tag k="amenity" v="kindergarten" />
		<tag k="capacity" v="68" />
		<tag k="max_age" v="5" />
		<tag k="min_age" v="1" />
		<tag k="name" v="Bikkjestykket barnehage" />
		<tag k="no-barnehage:nsrid" v="1017677" />
		<tag k="operator" v="Drammen kommune" />
		<tag k="operator:type" v="public" />
	</node>
	<node id="-4870" lat="59.75211" lon="10.12495">
		<tag k="ADDRESS" v="Buskerudveien 142, 3027 DRAMMEN" />
		<tag k="amenity" v="kindergarten" />
		<tag k="capacity" v="34" />
		<tag k="max_age" v="5" />
		<tag k="min_age" v="1" />
		<tag k="name" v="Bessungen" />
		<tag k="no-barnehage:nsrid" v="1021685" />
		<tag k="operator" v="Bessungen AS" />
		<tag k="operator:type" v="private" />
	</node>
	<node id="-4869" lat="59.54839" lon="10.38244">
		<tag k="ADDRESS" v="Bergeråsveien 2, 3075 BERGER" />
		<tag k="amenity" v="kindergarten" />
		<tag k="capacity" v="44" />
		<tag k="contact:website" v="http://www.svelvik.kommune.no/barnehage/barnehage/barnehagene-i-svelvik/berger-barnehage/" />
		<tag k="max_age" v="5" />
		<tag k="min_age" v="1" />
		<tag k="name" v="Berger barnehage" />
		<tag k="no-barnehage:nsrid" v="1016034" />
		<tag k="operator" v="Drammen kommune" />
		<tag k="operator:type" v="public" />
	</node>
	<node id="-4868" lat="59.75375" lon="10.11974">
		<tag k="ADDRESS" v="Buskerudveien 172, 3027 DRAMMEN" />
		<tag k="amenity" v="kindergarten" />
		<tag k="capacity" v="105" />
		<tag k="contact:website" v="http://www.sprellopp.no" />
		<tag k="max_age" v="5" />
		<tag k="min_age" v="1" />
		<tag k="name" v="Bekkevollen barnehage" />
		<tag k="no-barnehage:nsrid" v="1021814" />
		<tag k="operator" v="Bekkevollen barnehage AS" />
		<tag k="operator:type" v="private" />
	</node>
	<node id="-4867" lat="59.74247" lon="10.03137">
		<tag k="ADDRESS" v="Hvitveisbakken 1, 3050 MJØNDALEN" />
		<tag k="amenity" v="kindergarten" />
		<tag k="capacity" v="112" />
		<tag k="contact:website" v="http://bakkefaret.bhg.no" />
		<tag k="max_age" v="5" />
		<tag k="min_age" v="1" />
		<tag k="name" v="Bakkefaret FUS barnehage" />
		<tag k="no-barnehage:nsrid" v="1021640" />
		<tag k="operator" v="Bakkefaret Fus barnehage AS" />
		<tag k="operator:type" v="private" />
	</node>
	<node id="-4866" lat="59.75013" lon="10.16756">
		<tag k="ADDRESS" v="Nedre Kiøsterudsgate 11b, 3023 DRAMMEN" />
		<tag k="amenity" v="kindergarten" />
		<tag k="capacity" v="72" />
		<tag k="max_age" v="5" />
		<tag k="min_age" v="1" />
		<tag k="name" v="Bacheparken barnehage" />
		<tag k="no-barnehage:nsrid" v="1017986" />
		<tag k="operator" v="Drammen kommune" />
		<tag k="operator:type" v="public" />
	</node>
	<node id="-4865" lat="59.76186" lon="10.12549">
		<tag k="ADDRESS" v="Dalegårdsveien 74, 3028 DRAMMEN" />
		<tag k="amenity" v="kindergarten" />
		<tag k="capacity" v="53" />
		<tag k="max_age" v="5" />
		<tag k="min_age" v="1" />
		<tag k="name" v="Aronsløkka barnehage" />
		<tag k="no-barnehage:nsrid" v="1013895" />
		<tag k="operator" v="Drammen kommune" />
		<tag k="operator:type" v="public" />
	</node>
</osm>
