<?xml version="1.0" encoding="UTF-8"?>
<osm generator="osmapis" version="0.6">
	<node id="-2000" lat="59.76155" lon="9.99501">
		<tag k="ADDRESS" v="Hasselbakken 18, 3055 KROKSTADELVA" />
		<tag k="amenity" v="kindergarten" />
		<tag k="capacity" v="5" />
		<tag k="max_age" v="5" />
		<tag k="min_age" v="1" />
		<tag k="name" v="Hasselbakken familiebarnehage" />
		<tag k="no-barnehage:nsrid" v="988001317" />
		<tag k="operator" v="Hege Olsrud Korsgård" />
		<tag k="operator:type" v="private" />
	</node>
	<node id="-2001" lat="59.76155" lon="9.99501">
		<tag k="ADDRESS" v="Hasselbakken 18, 3055 KROKSTADELVA" />
		<tag k="amenity" v="kindergarten" />
		<tag k="capacity" v="5" />
		<tag k="max_age" v="5" />
		<tag k="min_age" v="1" />
		<tag k="name" v="Hasselbakken familiebarnehage" />
		<tag k="no-barnehage:nsrid" v="988016497" />
		<tag k="operator" v="Heidi Gundersen" />
		<tag k="operator:type" v="private" />
	</node>
	<node id="-2015" lat="59.74326" lon="10.15104">
		<tag k="ADDRESS" v="Leiv Eriksons Gate 7, 3048 DRAMMEN" />
		<tag k="amenity" v="kindergarten" />
		<tag k="capacity" v="4" />
		<tag k="max_age" v="5" />
		<tag k="min_age" v="1" />
		<tag k="name" v="Markblomsten Camilla Larsen avd. Drammen" />
		<tag k="no-barnehage:nsrid" v="991767886" />
		<tag k="operator" v="Markblomsten Camilla Larsen" />
		<tag k="operator:type" v="private" />
	</node>
	<node id="-2017" lat="59.69902" lon="10.25059">
		<tag k="ADDRESS" v="Eikhaugen 56, 3036 DRAMMEN" />
		<tag k="amenity" v="kindergarten" />
		<tag k="capacity" v="6" />
		<tag k="max_age" v="2" />
		<tag k="min_age" v="1" />
		<tag k="name" v="Nedre Eik familiebarnehage Lisbeth Halmrast" />
		<tag k="no-barnehage:nsrid" v="976555562" />
		<tag k="operator" v="Nedre Eik Familiebarnehage Lisbeth Halmrast" />
		<tag k="operator:type" v="private" />
	</node>
	<node id="-2040" lat="59.72972" lon="10.21241">
		<tag k="ADDRESS" v="Colletts Gate 25, 3043 DRAMMEN" />
		<tag k="amenity" v="kindergarten" />
		<tag k="capacity" v="5" />
		<tag k="max_age" v="5" />
		<tag k="min_age" v="1" />
		<tag k="name" v="Strømsø familiebarnehage Qum Gilani" />
		<tag k="no-barnehage:nsrid" v="984167490" />
		<tag k="operator" v="Strømsø Familiebarnehage Qum Gilani" />
		<tag k="operator:type" v="private" />
	</node>
	<node id="-2052" lat="59.71292" lon="10.25271">
		<tag k="ADDRESS" v="Pedros Vei 34, 3038 DRAMMEN" />
		<tag k="amenity" v="kindergarten" />
		<tag k="capacity" v="4" />
		<tag k="max_age" v="2" />
		<tag k="min_age" v="1" />
		<tag k="name" v="Åskollen familiebarnehage Knerten Marit Fossum" />
		<tag k="no-barnehage:nsrid" v="876058782" />
		<tag k="operator" v="Åskollen Familiebarnehage Knerten Marit Fossum" />
		<tag k="operator:type" v="private" />
	</node>
</osm>
