<?xml version="1.0" encoding="UTF-8"?>
<osm generator="osmapis" version="0.6">
	<node id="-2720" lat="59.223" lon="10.3383">
		<tag k="amenity" v="kindergarten" />
		<tag k="capacity" v="40" />
		<tag k="contact:email" v="Anne.Lilleas@stokke.kommune.no" />
		<tag k="contact:phone" v="+47 33 29 56 10" />
		<tag k="contact:website" v="http://www.stokke.kommune.no" />
		<tag k="max_age" v="5" />
		<tag k="min_age" v="1" />
		<tag k="name" v="Barnas Hus" />
		<tag k="no-barnehage:nsrid" v="1014692" />
		<tag k="operator" v="Stokke kommune" />
		<tag k="operator:type" v="public" />
		<tag k="start_date" v="1991-02-01" />
	</node>
	<node id="-2731" lat="59.2226" lon="10.3103">
		<tag k="amenity" v="kindergarten" />
		<tag k="capacity" v="63" />
		<tag k="contact:email" v="inger.haugerod@stokke.kommune.no" />
		<tag k="contact:phone" v="+47 33 29 56 60" />
		<tag k="contact:website" v="http://www.stokke.kommune.no" />
		<tag k="max_age" v="5" />
		<tag k="min_age" v="1" />
		<tag k="name" v="Tuften barnehage" />
		<tag k="no-barnehage:nsrid" v="1013094" />
		<tag k="operator" v="Stokke kommune" />
		<tag k="operator:type" v="public" />
		<tag k="start_date" v="2004-08-01" />
	</node>
	<node id="-2730" lat="59.2278" lon="10.332">
		<tag k="amenity" v="kindergarten" />
		<tag k="capacity" v="37" />
		<tag k="contact:email" v="Anne.Lilleas@stokke.kommune.no" />
		<tag k="contact:phone" v="+47 33 29 56 50" />
		<tag k="contact:website" v="http://www.stokke.kommune.no" />
		<tag k="max_age" v="5" />
		<tag k="min_age" v="1" />
		<tag k="name" v="Trekanten barnehage" />
		<tag k="no-barnehage:nsrid" v="1018029" />
		<tag k="operator" v="Stokke kommune" />
		<tag k="operator:type" v="public" />
		<tag k="start_date" v="1989-01-01" />
	</node>
	<node id="-2729" lat="59.2586" lon="10.3672">
		<tag k="amenity" v="kindergarten" />
		<tag k="capacity" v="45" />
		<tag k="contact:email" v="hilde.magnussen@velle.no" />
		<tag k="contact:phone" v="+47 033365496" />
		<tag k="max_age" v="5" />
		<tag k="min_age" v="1" />
		<tag k="name" v="Sigridløkka barnehage" />
		<tag k="no-barnehage:nsrid" v="1015502" />
		<tag k="operator" v="Velle Utvikling AS" />
		<tag k="operator:type" v="private" />
		<tag k="start_date" v="1992-10-01" />
	</node>
	<node id="-2728" lat="59.2175" lon="10.3089">
		<tag k="amenity" v="kindergarten" />
		<tag k="capacity" v="44" />
		<tag k="contact:email" v="kristin.eriksen@velle.no" />
		<tag k="contact:phone" v="+47 99323589" />
		<tag k="max_age" v="5" />
		<tag k="min_age" v="1" />
		<tag k="name" v="Olaløkka barnehage" />
		<tag k="no-barnehage:nsrid" v="1014882" />
		<tag k="operator" v="Velle Utvikling AS" />
		<tag k="operator:type" v="private" />
		<tag k="start_date" v="1994-08-01" />
	</node>
	<node id="-2727" lat="59.22029" lon="10.24337">
		<tag k="amenity" v="kindergarten" />
		<tag k="capacity" v="19" />
		<tag k="contact:email" v="post@naturkameratene.no" />
		<tag k="contact:phone" v="+47 92 25 31 80" />
		<tag k="max_age" v="5" />
		<tag k="min_age" v="1" />
		<tag k="name" v="Naturkameratene Naturbarnehage Ans" />
		<tag k="no-barnehage:nsrid" v="1020532" />
		<tag k="operator" v="Naturkameratene Ans" />
		<tag k="operator:type" v="private" />
		<tag k="start_date" v="1998-09-10" />
	</node>
	<node id="-2726" lat="59.26399" lon="10.21109">
		<tag k="amenity" v="kindergarten" />
		<tag k="capacity" v="40" />
		<tag k="contact:email" v="gro@holtegrenda.no" />
		<tag k="max_age" v="5" />
		<tag k="min_age" v="1" />
		<tag k="name" v="Holtegrenda Gårdsbarnehage AS" />
		<tag k="no-barnehage:nsrid" v="1021471" />
		<tag k="operator" v="Holtegrenda Gårdsbarnehage AS" />
		<tag k="operator:type" v="private" />
		<tag k="start_date" v="2006-07-05" />
	</node>
	<node id="-2725" lat="59.23162" lon="10.27584">
		<tag k="amenity" v="kindergarten" />
		<tag k="capacity" v="58" />
		<tag k="contact:email" v="barnehagen@gjennestad.no" />
		<tag k="contact:phone" v="+47 477 76 070" />
		<tag k="max_age" v="5" />
		<tag k="min_age" v="1" />
		<tag k="name" v="Gjennestad barnehage" />
		<tag k="no-barnehage:nsrid" v="1021327" />
		<tag k="operator" v="Gjennestad barnehage" />
		<tag k="operator:type" v="private" />
		<tag k="start_date" v="1990-01-01" />
	</node>
	<node id="-2724" lat="59.2201" lon="10.2934">
		<tag k="amenity" v="kindergarten" />
		<tag k="capacity" v="82" />
		<tag k="contact:email" v="marit.ellingsen@stokke.kommune.no" />
		<tag k="contact:phone" v="+47 33295640" />
		<tag k="contact:website" v="http://www.stokke.kommune.no" />
		<tag k="max_age" v="5" />
		<tag k="min_age" v="1" />
		<tag k="name" v="Frydenberg barnehage" />
		<tag k="no-barnehage:nsrid" v="1014691" />
		<tag k="operator" v="Stokke kommune" />
		<tag k="operator:type" v="public" />
		<tag k="start_date" v="1991-08-01" />
	</node>
	<node id="-2723" lat="59.188" lon="10.31">
		<tag k="amenity" v="kindergarten" />
		<tag k="capacity" v="50" />
		<tag k="contact:email" v="cathrine.klaveness.tuengen@stokke.kommune.no" />
		<tag k="contact:phone" v="+47 33 29 56 70" />
		<tag k="contact:website" v="http://www.stokke.kommune.no" />
		<tag k="max_age" v="5" />
		<tag k="min_age" v="1" />
		<tag k="name" v="Feen barnehage" />
		<tag k="no-barnehage:nsrid" v="1014137" />
		<tag k="operator" v="Stokke kommune" />
		<tag k="operator:type" v="public" />
		<tag k="start_date" v="2010-08-01" />
	</node>
	<node id="-2722" lat="59.2917" lon="10.2463">
		<tag k="amenity" v="kindergarten" />
		<tag k="capacity" v="52" />
		<tag k="contact:email" v="kjersti.lysen.lund@stokke.kommune.no" />
		<tag k="contact:phone" v="+47 33 29 56 30" />
		<tag k="contact:website" v="http://www.stokke.kommune.no" />
		<tag k="max_age" v="5" />
		<tag k="min_age" v="1" />
		<tag k="name" v="Elverhøy barnehage" />
		<tag k="no-barnehage:nsrid" v="1018028" />
		<tag k="operator" v="Stokke kommune" />
		<tag k="operator:type" v="public" />
		<tag k="start_date" v="1989-01-01" />
	</node>
	<node id="-2721" lat="59.2568" lon="10.366">
		<tag k="amenity" v="kindergarten" />
		<tag k="capacity" v="79" />
		<tag k="contact:email" v="hilde.chluba@stokke.kommune.no" />
		<tag k="contact:phone" v="+47 33 29 56 20" />
		<tag k="contact:website" v="http://www.stokke.komune.no" />
		<tag k="max_age" v="5" />
		<tag k="min_age" v="1" />
		<tag k="name" v="Ekely barnehage" />
		<tag k="no-barnehage:nsrid" v="1018027" />
		<tag k="operator" v="Stokke kommune" />
		<tag k="operator:type" v="public" />
		<tag k="start_date" v="1989-01-01" />
	</node>
</osm>
