<?xml version="1.0" encoding="UTF-8"?>
<osm generator="osmapis" version="0.6">
	<node id="-269" lat="58.74825" lon="8.85984">
		<tag k="ADDRESS" v="Olstadveien 10, 4985 VEGÅRSHEI" />
		<tag k="amenity" v="kindergarten" />
		<tag k="capacity" v="27" />
		<tag k="max_age" v="5" />
		<tag k="min_age" v="1" />
		<tag k="name" v="Vegårshei barnehage avd. Myra" />
		<tag k="no-barnehage:nsrid" v="1018056" />
		<tag k="operator" v="Vegårshei kommune" />
		<tag k="operator:type" v="public" />
	</node>
	<node id="-268" lat="58.67434" lon="8.82909">
		<tag k="ADDRESS" v="Grasåsliveien 22, 4985 VEGÅRSHEI" />
		<tag k="amenity" v="kindergarten" />
		<tag k="capacity" v="18" />
		<tag k="max_age" v="5" />
		<tag k="min_age" v="1" />
		<tag k="name" v="Vegårshei barnehage avd. Ubergsmoen" />
		<tag k="no-barnehage:nsrid" v="1013407" />
		<tag k="operator" v="Vegårshei kommune" />
		<tag k="operator:type" v="public" />
	</node>
	<node id="-267" lat="58.75051" lon="8.8804">
		<tag k="ADDRESS" v="Ljøstadsaga 10, 4985 VEGÅRSHEI" />
		<tag k="amenity" v="kindergarten" />
		<tag k="capacity" v="39" />
		<tag k="max_age" v="5" />
		<tag k="min_age" v="1" />
		<tag k="name" v="Ljøstadsaga barnehage" />
		<tag k="no-barnehage:nsrid" v="1021144" />
		<tag k="operator" v="Ljøstadsaga barnehage AS" />
		<tag k="operator:type" v="private" />
	</node>
	<node id="-266" lat="58.7665" lon="8.86617">
		<tag k="ADDRESS" v="Presteveien 1610, 4985 VEGÅRSHEI" />
		<tag k="amenity" v="kindergarten" />
		<tag k="capacity" v="15" />
		<tag k="contact:website" v="http://dyrebogaardsbarnehage.no" />
		<tag k="max_age" v="5" />
		<tag k="min_age" v="1" />
		<tag k="name" v="Dyrebo gårdsbarnehage" />
		<tag k="no-barnehage:nsrid" v="1021780" />
		<tag k="operator" v="Dyrebo Gårdsbarnehage AS" />
		<tag k="operator:type" v="private" />
	</node>
</osm>
