<?xml version="1.0" encoding="UTF-8"?>
<osm generator="osmapis" version="0.6">
	<node id="-2163" lat="59.41969" lon="11.35019">
		<tag k="ADDRESS" v="Lundborgveien 9, 1890 RAKKESTAD" />
		<tag k="amenity" v="kindergarten" />
		<tag k="capacity" v="51" />
		<tag k="max_age" v="5" />
		<tag k="min_age" v="1" />
		<tag k="name" v="Bergenhus barnehage" />
		<tag k="no-barnehage:nsrid" v="975316750" />
		<tag k="operator" v="Rakkestad kommune" />
		<tag k="operator:type" v="public" />
	</node>
	<node id="-2164" lat="59.4179" lon="11.34843">
		<tag k="ADDRESS" v="Storgata 76, 1890 RAKKESTAD" />
		<tag k="amenity" v="kindergarten" />
		<tag k="capacity" v="58" />
		<tag k="max_age" v="5" />
		<tag k="min_age" v="1" />
		<tag k="name" v="Byggeklossen barnehage" />
		<tag k="no-barnehage:nsrid" v="992181486" />
		<tag k="operator" v="Rakkestad kommune" />
		<tag k="operator:type" v="public" />
	</node>
	<node id="-2165" lat="59.43956" lon="11.32121">
		<tag k="ADDRESS" v="Bergveien 19, 1890 RAKKESTAD" />
		<tag k="amenity" v="kindergarten" />
		<tag k="capacity" v="27" />
		<tag k="max_age" v="5" />
		<tag k="min_age" v="1" />
		<tag k="name" v="Elle Melle barnehage" />
		<tag k="no-barnehage:nsrid" v="995501805" />
		<tag k="operator" v="Rakkestad kommune" />
		<tag k="operator:type" v="public" />
	</node>
	<node id="-2166" lat="59.42578" lon="11.34691">
		<tag k="ADDRESS" v="Seljeveien 9, 1890 RAKKESTAD" />
		<tag k="amenity" v="kindergarten" />
		<tag k="capacity" v="39" />
		<tag k="max_age" v="5" />
		<tag k="min_age" v="1" />
		<tag k="name" v="Fladstad barnehage" />
		<tag k="no-barnehage:nsrid" v="875301292" />
		<tag k="operator" v="Rakkestad kommune" />
		<tag k="operator:type" v="public" />
	</node>
	<node id="-2167" lat="59.43136" lon="11.34065">
		<tag k="ADDRESS" v="Jordalslyngen 2, 1890 RAKKESTAD" />
		<tag k="amenity" v="kindergarten" />
		<tag k="capacity" v="22" />
		<tag k="max_age" v="5" />
		<tag k="min_age" v="1" />
		<tag k="name" v="Gudim barnehage Ina Cecilie Alme Johansen" />
		<tag k="no-barnehage:nsrid" v="985936897" />
		<tag k="operator" v="Gudim barnehage Ina Cecilie Alme Johansen" />
		<tag k="operator:type" v="private" />
	</node>
	<node id="-2168" lat="59.35772" lon="11.4225">
		<tag k="ADDRESS" v="Kirkengsletta 25, 1892 DEGERNES" />
		<tag k="amenity" v="kindergarten" />
		<tag k="capacity" v="82" />
		<tag k="max_age" v="5" />
		<tag k="min_age" v="1" />
		<tag k="name" v="Kirkeng barnehage" />
		<tag k="no-barnehage:nsrid" v="975301281" />
		<tag k="operator" v="Rakkestad kommune" />
		<tag k="operator:type" v="public" />
	</node>
	<node id="-2169" lat="59.42834" lon="11.33547">
		<tag k="ADDRESS" v="Mjørudgata 9, 1890 RAKKESTAD" />
		<tag k="amenity" v="kindergarten" />
		<tag k="capacity" v="40" />
		<tag k="max_age" v="5" />
		<tag k="min_age" v="1" />
		<tag k="name" v="Læringsverkstedet barnehage avd. Knertitten" />
		<tag k="no-barnehage:nsrid" v="985216312" />
		<tag k="operator" v="Læringsverkstedet AS" />
		<tag k="operator:type" v="private" />
	</node>
	<node id="-2170" lat="0.0" lon="0.0">
		<tag k="ADDRESS" v="Lyngby Allé 17, 1890 RAKKESTAD" />
		<tag k="amenity" v="kindergarten" />
		<tag k="capacity" v="33" />
		<tag k="max_age" v="5" />
		<tag k="min_age" v="1" />
		<tag k="name" v="Musikktrollet barnehage Liv Høidal Bjønnes" />
		<tag k="no-barnehage:nsrid" v="991323104" />
		<tag k="operator" v="Musikktrollet barnehage Liv Høidal Bjønnes" />
		<tag k="operator:type" v="private" />
	</node>
	<node id="-2171" lat="59.43921" lon="11.32177">
		<tag k="ADDRESS" v="Bergveien 13, 1890 RAKKESTAD" />
		<tag k="amenity" v="kindergarten" />
		<tag k="capacity" v="34" />
		<tag k="max_age" v="5" />
		<tag k="min_age" v="1" />
		<tag k="name" v="Noahs Ark barnehage" />
		<tag k="no-barnehage:nsrid" v="973382535" />
		<tag k="operator" v="Noahs Ark barnehage" />
		<tag k="operator:type" v="private" />
	</node>
</osm>
