<?xml version="1.0" encoding="UTF-8"?>
<osm version="0.6" generator="osmapis">
	<node lat="58.26027" lon="8.39771" id="-3950">
		<tag k="ADDRESS" v="Fasterdamveien 33, 4790 LILLESAND" />
		<tag k="amenity" v="kindergarten" />
		<tag k="capacity" v="41" />
		<tag k="max_age" v="5" />
		<tag k="min_age" v="1" />
		<tag k="name" v="Avigo barnehage" />
		<tag k="no-barnehage:nsrid" v="990178216" />
		<tag k="operator" v="Avigo Utvikling AS" />
		<tag k="operator:type" v="private" />
	</node>
	<node lat="58.25202" lon="8.3834" id="-3951">
		<tag k="ADDRESS" v="Bergstø 6, 4790 LILLESAND" />
		<tag k="amenity" v="kindergarten" />
		<tag k="capacity" v="31" />
		<tag k="max_age" v="5" />
		<tag k="min_age" v="1" />
		<tag k="name" v="Bergstø barnehage" />
		<tag k="no-barnehage:nsrid" v="973470078" />
		<tag k="operator" v="Bergstø barnehage SA" />
		<tag k="operator:type" v="private" />
	</node>
	<node lat="58.24067" lon="8.34676" id="-3952">
		<tag k="ADDRESS" v="Blåbæråsen 3, 4790 LILLESAND" />
		<tag k="amenity" v="kindergarten" />
		<tag k="capacity" v="52" />
		<tag k="contact:website" v="http://www.blåbæråsenbarnehage.no" />
		<tag k="max_age" v="5" />
		<tag k="min_age" v="1" />
		<tag k="name" v="Blåbæråsen barnehage" />
		<tag k="no-barnehage:nsrid" v="995835827" />
		<tag k="operator" v="Lillesand kommune" />
		<tag k="operator:type" v="public" />
	</node>
	<node lat="58.24558" lon="8.3614" id="-3953">
		<tag k="ADDRESS" v="Tunveien 45, 4790 LILLESAND" />
		<tag k="amenity" v="kindergarten" />
		<tag k="capacity" v="58" />
		<tag k="max_age" v="5" />
		<tag k="min_age" v="1" />
		<tag k="name" v="Borketun barnehage" />
		<tag k="no-barnehage:nsrid" v="974187531" />
		<tag k="operator" v="Lillesand kommune" />
		<tag k="operator:type" v="public" />
	</node>
	<node lat="58.23848" lon="8.34842" id="-3954">
		<tag k="ADDRESS" v="Sangereidlia 2, 4790 LILLESAND" />
		<tag k="amenity" v="kindergarten" />
		<tag k="capacity" v="71" />
		<tag k="max_age" v="5" />
		<tag k="min_age" v="1" />
		<tag k="name" v="Espira Sangereidåsen barnehage" />
		<tag k="no-barnehage:nsrid" v="922711348" />
		<tag k="operator" v="Espira barnehager AS" />
		<tag k="operator:type" v="private" />
	</node>
	<node lat="58.17095" lon="8.24154" id="-3955">
		<tag k="ADDRESS" v="Ringveien 3, 4770 HØVÅG" />
		<tag k="amenity" v="kindergarten" />
		<tag k="capacity" v="47" />
		<tag k="contact:website" v="http://www.framsynbarnehage.no/" />
		<tag k="max_age" v="5" />
		<tag k="min_age" v="1" />
		<tag k="name" v="Framsyn barnehage" />
		<tag k="no-barnehage:nsrid" v="974612666" />
		<tag k="operator" v="Lillesand kommune" />
		<tag k="operator:type" v="public" />
	</node>
	<node lat="0.0" lon="0.0" id="-3957">
		<tag k="ADDRESS" v="Nedre Kalvild gård, 4790 LILLESAND" />
		<tag k="amenity" v="kindergarten" />
		<tag k="name" v="Kalvild åpen barnehage" />
		<tag k="no-barnehage:nsrid" v="996318567" />
		<tag k="operator" v="Bcc Sørlandet" />
		<tag k="operator:type" v="private" />
	</node>
	<node lat="58.27527" lon="8.4156" id="-3958">
		<tag k="ADDRESS" v="Vestre Kaldvell 17, 4790 LILLESAND" />
		<tag k="amenity" v="kindergarten" />
		<tag k="capacity" v="45" />
		<tag k="contact:website" v="http://www.laringsverkstedet.no/kaldvell" />
		<tag k="max_age" v="5" />
		<tag k="min_age" v="1" />
		<tag k="name" v="Læringsverkstedet barnehage avd. Kaldvell" />
		<tag k="no-barnehage:nsrid" v="911987392" />
		<tag k="operator" v="Læringsverkstedet AS" />
		<tag k="operator:type" v="private" />
	</node>
	<node lat="58.25789" lon="8.36223" id="-3959">
		<tag k="ADDRESS" v="Møglestumoen 4, 4790 LILLESAND" />
		<tag k="amenity" v="kindergarten" />
		<tag k="capacity" v="70" />
		<tag k="contact:website" v="http://www.fus.no/moglestu" />
		<tag k="max_age" v="5" />
		<tag k="min_age" v="1" />
		<tag k="name" v="Møglestu FUS barnehage" />
		<tag k="no-barnehage:nsrid" v="991343474" />
		<tag k="operator" v="Møglestu Fus barnehage AS" />
		<tag k="operator:type" v="private" />
	</node>
	<node lat="58.26146" lon="8.35955" id="-3960">
		<tag k="ADDRESS" v="Prestholt 22, 4790 LILLESAND" />
		<tag k="amenity" v="kindergarten" />
		<tag k="capacity" v="46" />
		<tag k="max_age" v="5" />
		<tag k="min_age" v="1" />
		<tag k="name" v="Prestholt barnehage" />
		<tag k="no-barnehage:nsrid" v="873502142" />
		<tag k="operator" v="Lillesand kommune" />
		<tag k="operator:type" v="public" />
	</node>
	<node lat="58.16866" lon="8.25003" id="-3961">
		<tag k="ADDRESS" v="Blikssundveien 29, 4770 HØVÅG" />
		<tag k="amenity" v="kindergarten" />
		<tag k="capacity" v="19" />
		<tag k="contact:website" v="http://www.tripptrapptresko.no" />
		<tag k="max_age" v="5" />
		<tag k="min_age" v="1" />
		<tag k="name" v="Tripp-trapp-tresko" />
		<tag k="no-barnehage:nsrid" v="998271959" />
		<tag k="operator" v="Tripp-Trapp-Tresko AS" />
		<tag k="operator:type" v="private" />
	</node>
	<node lat="58.25351" lon="8.37202" id="-3962">
		<tag k="ADDRESS" v="Lofthus 22, 4790 LILLESAND" />
		<tag k="amenity" v="kindergarten" />
		<tag k="capacity" v="52" />
		<tag k="max_age" v="5" />
		<tag k="min_age" v="1" />
		<tag k="name" v="Villa Snøringsmoen montesorribarnehage" />
		<tag k="no-barnehage:nsrid" v="984666837" />
		<tag k="operator" v="Ulna AS" />
		<tag k="operator:type" v="private" />
	</node>
</osm>
