<?xml version="1.0" encoding="UTF-8"?>
<osm generator="osmapis" version="0.6">
	<node id="-3592" lat="59.20287" lon="9.63039">
		<tag k="ADDRESS" v="Bratsberghavna 7, 3714 SKIEN" />
		<tag k="amenity" v="kindergarten" />
		<tag k="capacity" v="4" />
		<tag k="contact:website" v="http://www.bratsberghavna.com" />
		<tag k="max_age" v="2" />
		<tag k="min_age" v="1" />
		<tag k="name" v="Bratsberghavna familiebarnehage" />
		<tag k="no-barnehage:nsrid" v="989491024" />
		<tag k="operator" v="Bratsberghavna Familiebarnehage Runar Thomas Byberg" />
		<tag k="operator:type" v="private" />
	</node>
	<node id="-3606" lat="59.24158" lon="9.58881">
		<tag k="ADDRESS" v="Luksefjellvegen 252, 3721 SKIEN" />
		<tag k="amenity" v="kindergarten" />
		<tag k="capacity" v="9" />
		<tag k="max_age" v="5" />
		<tag k="min_age" v="1" />
		<tag k="name" v="Hjerterommet familiebarnehage" />
		<tag k="no-barnehage:nsrid" v="973512706" />
		<tag k="operator" v="Hjerterommet familiebarnehage AS" />
		<tag k="operator:type" v="private" />
	</node>
	<node id="-3610" lat="59.19086" lon="9.61162">
		<tag k="ADDRESS" v="Porsgrunnsvegen 13, 3730 SKIEN" />
		<tag k="amenity" v="kindergarten" />
		<tag k="capacity" v="10" />
		<tag k="max_age" v="5" />
		<tag k="min_age" v="1" />
		<tag k="name" v="Knøttne familiebarnehage" />
		<tag k="no-barnehage:nsrid" v="976599292" />
		<tag k="operator" v="Knøttne familiebarnehage AS" />
		<tag k="operator:type" v="private" />
	</node>
	<node id="-3626" lat="59.23906" lon="9.56495">
		<tag k="ADDRESS" v="Fossumvegen 51, 3721 SKIEN" />
		<tag k="amenity" v="kindergarten" />
		<tag k="capacity" v="9" />
		<tag k="max_age" v="5" />
		<tag k="min_age" v="1" />
		<tag k="name" v="Skogstien familiebarnehage" />
		<tag k="no-barnehage:nsrid" v="990373930" />
		<tag k="operator" v="Skogstien Familiebarnehage Linda Årvik Andreassen" />
		<tag k="operator:type" v="private" />
	</node>
	<node id="-3633" lat="59.19728" lon="9.57061">
		<tag k="ADDRESS" v="Varpevegen 46, 3728 SKIEN" />
		<tag k="amenity" v="kindergarten" />
		<tag k="capacity" v="7" />
		<tag k="max_age" v="5" />
		<tag k="min_age" v="1" />
		<tag k="name" v="Varpet familiebarnehage" />
		<tag k="no-barnehage:nsrid" v="990451060" />
		<tag k="operator" v="Varpet familiebarnehage Ans" />
		<tag k="operator:type" v="private" />
	</node>
</osm>
