<?xml version="1.0" encoding="UTF-8"?>
<osm version="0.6" generator="osmapis">
	<node lat="59.20354" lon="9.59805" id="-3526">
		<tag k="ADDRESS" v="Søndre Falkumveg 11, 3725 SKIEN" />
		<tag k="amenity" v="kindergarten" />
		<tag k="capacity" v="63" />
		<tag k="max_age" v="5" />
		<tag k="min_age" v="1" />
		<tag k="name" v="Bakken barnehage" />
		<tag k="no-barnehage:nsrid" v="973784811" />
		<tag k="operator" v="Skien kommune" />
		<tag k="operator:type" v="public" />
	</node>
	<node lat="59.20514" lon="9.62753" id="-3527">
		<tag k="ADDRESS" v="Erik Munks veg 18, 3714 SKIEN" />
		<tag k="amenity" v="kindergarten" />
		<tag k="capacity" v="60" />
		<tag k="max_age" v="5" />
		<tag k="min_age" v="1" />
		<tag k="name" v="Barnehagen Gregorius" />
		<tag k="no-barnehage:nsrid" v="986083081" />
		<tag k="operator" v="Barnehagen Gregorius AS" />
		<tag k="operator:type" v="private" />
	</node>
	<node lat="59.20918" lon="9.59589" id="-3528">
		<tag k="ADDRESS" v="Bjørnstjerne Bjørnsons gate 6, 3722 SKIEN" />
		<tag k="amenity" v="kindergarten" />
		<tag k="capacity" v="19" />
		<tag k="max_age" v="5" />
		<tag k="min_age" v="1" />
		<tag k="name" v="Betanien barnehage" />
		<tag k="no-barnehage:nsrid" v="975183408" />
		<tag k="operator" v="Stiftelsen Betanien hospital Skien" />
		<tag k="operator:type" v="private" />
	</node>
	<node lat="59.16746" lon="9.65196" id="-3529">
		<tag k="ADDRESS" v="Gregorius Dagssons gate 244, 3712 SKIEN" />
		<tag k="amenity" v="kindergarten" />
		<tag k="capacity" v="68" />
		<tag k="max_age" v="5" />
		<tag k="min_age" v="1" />
		<tag k="name" v="Borgestad barnehage" />
		<tag k="no-barnehage:nsrid" v="974559935" />
		<tag k="operator" v="Skien kommune" />
		<tag k="operator:type" v="public" />
	</node>
	<node lat="59.21156" lon="9.61555" id="-3531">
		<tag k="ADDRESS" v="Grønlandsvegen 10, 3715 SKIEN" />
		<tag k="amenity" v="kindergarten" />
		<tag k="capacity" v="36" />
		<tag k="contact:website" v="http://brekke.barnehage.skien.no" />
		<tag k="max_age" v="5" />
		<tag k="min_age" v="1" />
		<tag k="name" v="Brekke barnehage" />
		<tag k="no-barnehage:nsrid" v="973470000" />
		<tag k="operator" v="Brekke barnehage SA" />
		<tag k="operator:type" v="private" />
	</node>
	<node lat="59.16529" lon="9.665" id="-3532">
		<tag k="ADDRESS" v="Buerløkka 2, 3711 SKIEN" />
		<tag k="amenity" v="kindergarten" />
		<tag k="capacity" v="75" />
		<tag k="max_age" v="5" />
		<tag k="min_age" v="1" />
		<tag k="name" v="Buerflata barnehage" />
		<tag k="no-barnehage:nsrid" v="992792507" />
		<tag k="operator" v="Skien kommune" />
		<tag k="operator:type" v="public" />
	</node>
	<node lat="0.0" lon="0.0" id="-3533">
		<tag k="ADDRESS" v="Slemdalsgata 31, 3722 SKIEN" />
		<tag k="amenity" v="kindergarten" />
		<tag k="capacity" v="117" />
		<tag k="contact:website" v="http://www.skien.kommune.no/skien-kommune/oppvekst/barnehage/duestien-barnehage/" />
		<tag k="max_age" v="5" />
		<tag k="min_age" v="1" />
		<tag k="name" v="Duestien barnehage" />
		<tag k="no-barnehage:nsrid" v="824369062" />
		<tag k="operator" v="Skien kommune" />
		<tag k="operator:type" v="public" />
	</node>
	<node lat="59.2095" lon="9.55761" id="-3534">
		<tag k="ADDRESS" v="Vestre Einaren 5, 3744 SKIEN" />
		<tag k="amenity" v="kindergarten" />
		<tag k="capacity" v="46" />
		<tag k="contact:website" v="http://www.einaren.barnehage.skien.no" />
		<tag k="max_age" v="5" />
		<tag k="min_age" v="1" />
		<tag k="name" v="Einaren barnehage" />
		<tag k="no-barnehage:nsrid" v="972211095" />
		<tag k="operator" v="Einaren barnehage SA" />
		<tag k="operator:type" v="private" />
	</node>
	<node lat="59.16822" lon="9.6621" id="-3535">
		<tag k="ADDRESS" v="Borgevegen 43, 3712 SKIEN" />
		<tag k="amenity" v="kindergarten" />
		<tag k="capacity" v="2" />
		<tag k="max_age" v="5" />
		<tag k="min_age" v="3" />
		<tag k="name" v="Enggrav skoles barnehage" />
		<tag k="no-barnehage:nsrid" v="976824512" />
		<tag k="operator" v="Skien kommune" />
		<tag k="operator:type" v="public" />
	</node>
	<node lat="59.20901" lon="9.52934" id="-3536">
		<tag k="ADDRESS" v="Forvalds veg 20, 3720 SKIEN" />
		<tag k="amenity" v="kindergarten" />
		<tag k="capacity" v="80" />
		<tag k="contact:website" v="http://kulturstien.vigilo.no/" />
		<tag k="max_age" v="5" />
		<tag k="min_age" v="1" />
		<tag k="name" v="Espira kulturstien" />
		<tag k="no-barnehage:nsrid" v="989596691" />
		<tag k="operator" v="Espira Kulturstien AS" />
		<tag k="operator:type" v="private" />
	</node>
	<node lat="59.21729" lon="9.59042" id="-3537">
		<tag k="ADDRESS" v="Hans Holtas veg 4, 3747 SKIEN" />
		<tag k="amenity" v="kindergarten" />
		<tag k="capacity" v="69" />
		<tag k="max_age" v="5" />
		<tag k="min_age" v="1" />
		<tag k="name" v="Falkum barnehage" />
		<tag k="no-barnehage:nsrid" v="873784822" />
		<tag k="operator" v="Skien kommune" />
		<tag k="operator:type" v="public" />
	</node>
	<node lat="59.19352" lon="9.60685" id="-3538">
		<tag k="ADDRESS" v="Kragerøgata 5, 3730 SKIEN" />
		<tag k="amenity" v="kindergarten" />
		<tag k="capacity" v="68" />
		<tag k="max_age" v="5" />
		<tag k="min_age" v="1" />
		<tag k="name" v="Gimsøy barnehage" />
		<tag k="no-barnehage:nsrid" v="973784757" />
		<tag k="operator" v="Skien kommune" />
		<tag k="operator:type" v="public" />
	</node>
	<node lat="59.22221" lon="9.61043" id="-3539">
		<tag k="ADDRESS" v="Håvundvegen 9, 3715 SKIEN" />
		<tag k="amenity" v="kindergarten" />
		<tag k="capacity" v="78" />
		<tag k="contact:website" v="http://www.gjerpenshavnabarnehage.no" />
		<tag k="max_age" v="5" />
		<tag k="min_age" v="1" />
		<tag k="name" v="Gjerpenshavna barnehage" />
		<tag k="no-barnehage:nsrid" v="983209432" />
		<tag k="operator" v="Gjerpenshavna barnehage SA" />
		<tag k="operator:type" v="private" />
	</node>
	<node lat="59.22297" lon="9.55428" id="-3540">
		<tag k="ADDRESS" v="Fugleleiken 1, 3742 SKIEN" />
		<tag k="amenity" v="kindergarten" />
		<tag k="capacity" v="34" />
		<tag k="max_age" v="5" />
		<tag k="min_age" v="1" />
		<tag k="name" v="Granåsen barnehage" />
		<tag k="no-barnehage:nsrid" v="973784803" />
		<tag k="operator" v="Skien kommune" />
		<tag k="operator:type" v="public" />
	</node>
	<node lat="59.19202" lon="9.58778" id="-3541">
		<tag k="ADDRESS" v="Maribakkane 6, 3728 SKIEN" />
		<tag k="amenity" v="kindergarten" />
		<tag k="capacity" v="106" />
		<tag k="max_age" v="5" />
		<tag k="min_age" v="1" />
		<tag k="name" v="Grep Maribakkane barnehage" />
		<tag k="no-barnehage:nsrid" v="984000685" />
		<tag k="operator" v="Grep barnehagene AS" />
		<tag k="operator:type" v="private" />
	</node>
	<node lat="59.18173" lon="9.61555" id="-3542">
		<tag k="ADDRESS" v="Soleievegen 7, 3734 SKIEN" />
		<tag k="amenity" v="kindergarten" />
		<tag k="capacity" v="57" />
		<tag k="max_age" v="5" />
		<tag k="min_age" v="1" />
		<tag k="name" v="Gråtenmoen barnehage" />
		<tag k="no-barnehage:nsrid" v="974559927" />
		<tag k="operator" v="Skien kommune" />
		<tag k="operator:type" v="public" />
	</node>
	<node lat="59.2176" lon="9.56051" id="-3543">
		<tag k="ADDRESS" v="Gulsetkåsa 43, 3743 SKIEN" />
		<tag k="amenity" v="kindergarten" />
		<tag k="capacity" v="59" />
		<tag k="max_age" v="5" />
		<tag k="min_age" v="1" />
		<tag k="name" v="Gulset barnehage" />
		<tag k="no-barnehage:nsrid" v="974559889" />
		<tag k="operator" v="Skien kommune" />
		<tag k="operator:type" v="public" />
	</node>
	<node lat="59.20153" lon="9.62195" id="-3545">
		<tag k="ADDRESS" v="Mikkel Blikks gate 9, 3714 SKIEN" />
		<tag k="amenity" v="kindergarten" />
		<tag k="capacity" v="31" />
		<tag k="contact:website" v="http://www.kapitelberget.barnehage.no" />
		<tag k="max_age" v="5" />
		<tag k="min_age" v="1" />
		<tag k="name" v="Kapitelberget natur - og kulturbarnehage" />
		<tag k="no-barnehage:nsrid" v="972285676" />
		<tag k="operator" v="Kapitelberget Natur - og kulturbarnehage SA" />
		<tag k="operator:type" v="private" />
	</node>
	<node lat="59.19158" lon="9.60194" id="-3546">
		<tag k="ADDRESS" v="Thor Bunkholts veg 23, 3733 SKIEN" />
		<tag k="amenity" v="kindergarten" />
		<tag k="capacity" v="52" />
		<tag k="max_age" v="5" />
		<tag k="min_age" v="1" />
		<tag k="name" v="Klosterskogen barnehage" />
		<tag k="no-barnehage:nsrid" v="974559854" />
		<tag k="operator" v="Skien kommune" />
		<tag k="operator:type" v="public" />
	</node>
	<node lat="59.14822" lon="9.62189" id="-3547">
		<tag k="ADDRESS" v="Kongerødvegen 8, 3737 SKIEN" />
		<tag k="amenity" v="kindergarten" />
		<tag k="name" v="Klyve åpen barnehage" />
		<tag k="no-barnehage:nsrid" v="989536338" />
		<tag k="operator" v="Gimsøy og Nenset Sokn" />
		<tag k="operator:type" v="private" />
	</node>
	<node lat="59.21141" lon="9.55783" id="-3549">
		<tag k="ADDRESS" v="Gulsetringen 155, 3727 SKIEN" />
		<tag k="amenity" v="kindergarten" />
		<tag k="capacity" v="61" />
		<tag k="contact:website" v="http://www.skien.kommune.no/kollmyrbhg" />
		<tag k="max_age" v="5" />
		<tag k="min_age" v="1" />
		<tag k="name" v="Kollmyr barnehage" />
		<tag k="no-barnehage:nsrid" v="973784749" />
		<tag k="operator" v="Skien kommune" />
		<tag k="operator:type" v="public" />
	</node>
	<node lat="59.14548" lon="9.61354" id="-3550">
		<tag k="ADDRESS" v="Klyvevegen 91, 3739 SKIEN" />
		<tag k="amenity" v="kindergarten" />
		<tag k="capacity" v="83" />
		<tag k="contact:website" v="http://www.skien.kommune.no/kverndammenbhg" />
		<tag k="max_age" v="5" />
		<tag k="min_age" v="1" />
		<tag k="name" v="Kverndammen barnehage" />
		<tag k="no-barnehage:nsrid" v="973784838" />
		<tag k="operator" v="Skien kommune" />
		<tag k="operator:type" v="public" />
	</node>
	<node lat="59.21752" lon="9.5669" id="-3551">
		<tag k="ADDRESS" v="Gulsetvegen 165, 3726 SKIEN" />
		<tag k="amenity" v="kindergarten" />
		<tag k="capacity" v="75" />
		<tag k="max_age" v="5" />
		<tag k="min_age" v="1" />
		<tag k="name" v="Lillefot barnehage" />
		<tag k="no-barnehage:nsrid" v="994249622" />
		<tag k="operator" v="Gulset og Skotfoss Sokn" />
		<tag k="operator:type" v="private" />
	</node>
	<node lat="59.21367" lon="9.598" id="-3552">
		<tag k="ADDRESS" v="Slemdalsgata 29, 3717 SKIEN" />
		<tag k="amenity" v="kindergarten" />
		<tag k="capacity" v="47" />
		<tag k="max_age" v="5" />
		<tag k="min_age" v="1" />
		<tag k="name" v="Lundedalen barnehage" />
		<tag k="no-barnehage:nsrid" v="974559900" />
		<tag k="operator" v="Skien kommune" />
		<tag k="operator:type" v="public" />
	</node>
	<node lat="59.148" lon="9.62383" id="-3553">
		<tag k="ADDRESS" v="Klyvevegen 48, 3740 SKIEN" />
		<tag k="amenity" v="kindergarten" />
		<tag k="capacity" v="111" />
		<tag k="contact:website" v="http://laringsverkstedet.no/barnehage/klyveskogen" />
		<tag k="max_age" v="5" />
		<tag k="min_age" v="1" />
		<tag k="name" v="Læringsverkstedet barnehage avd. Klyveskogen barnehage" />
		<tag k="no-barnehage:nsrid" v="983509347" />
		<tag k="operator" v="Læringsverkstedet AS" />
		<tag k="operator:type" v="private" />
	</node>
	<node lat="59.1764" lon="9.64585" id="-3554">
		<tag k="ADDRESS" v="Øvre Ilenveg 2, 3713 SKIEN" />
		<tag k="amenity" v="kindergarten" />
		<tag k="capacity" v="35" />
		<tag k="max_age" v="5" />
		<tag k="min_age" v="1" />
		<tag k="name" v="Læringsverkstedet barnehage avd. Solkollen Bøle" />
		<tag k="no-barnehage:nsrid" v="973512692" />
		<tag k="operator" v="Læringsverkstedet AS" />
		<tag k="operator:type" v="private" />
	</node>
	<node lat="59.19368" lon="9.58526" id="-3555">
		<tag k="ADDRESS" v="Bakkane 8, 3728 SKIEN" />
		<tag k="amenity" v="kindergarten" />
		<tag k="capacity" v="176" />
		<tag k="max_age" v="5" />
		<tag k="min_age" v="1" />
		<tag k="name" v="Læringsverkstedet barnehage avd. Maurtua barnehage" />
		<tag k="no-barnehage:nsrid" v="890182852" />
		<tag k="operator" v="Læringsverkstedet AS" />
		<tag k="operator:type" v="private" />
	</node>
	<node lat="59.24368" lon="9.58855" id="-3556">
		<tag k="ADDRESS" v="Limisvingen 6, 3721 SKIEN" />
		<tag k="amenity" v="kindergarten" />
		<tag k="capacity" v="87" />
		<tag k="contact:website" v="http://laringsverkstedet.no" />
		<tag k="max_age" v="5" />
		<tag k="min_age" v="1" />
		<tag k="name" v="Læringsverkstedet barnehage avd. Limi naturbarnehage" />
		<tag k="no-barnehage:nsrid" v="994349864" />
		<tag k="operator" v="Læringsverkstedet AS" />
		<tag k="operator:type" v="private" />
	</node>
	<node lat="59.20245" lon="9.62283" id="-3557">
		<tag k="ADDRESS" v="Anders Vasbunds veg 7, 3714 SKIEN" />
		<tag k="amenity" v="kindergarten" />
		<tag k="capacity" v="116" />
		<tag k="contact:website" v="http://www.laringsverkstedet.no" />
		<tag k="max_age" v="5" />
		<tag k="min_age" v="1" />
		<tag k="name" v="Læringsverkstedet barnehage Harmonien Doremi barnehage" />
		<tag k="no-barnehage:nsrid" v="995370530" />
		<tag k="operator" v="Læringsverkstedet AS" />
		<tag k="operator:type" v="private" />
	</node>
	<node lat="59.20953" lon="9.61518" id="-3558">
		<tag k="ADDRESS" v="Grensegata 36, 3715 SKIEN" />
		<tag k="amenity" v="kindergarten" />
		<tag k="capacity" v="45" />
		<tag k="max_age" v="5" />
		<tag k="min_age" v="1" />
		<tag k="name" v="Læringsverkstedet barnehage avd. Gustavas Hage barnehage" />
		<tag k="no-barnehage:nsrid" v="993252557" />
		<tag k="operator" v="Læringsverkstedet AS" />
		<tag k="operator:type" v="private" />
	</node>
	<node lat="59.15297" lon="9.62472" id="-3559">
		<tag k="ADDRESS" v="Trokåsa 10, 3737 SKIEN" />
		<tag k="amenity" v="kindergarten" />
		<tag k="capacity" v="99" />
		<tag k="max_age" v="5" />
		<tag k="min_age" v="1" />
		<tag k="name" v="Læringsverkstedet barnehage avd. Kongerød barnehage" />
		<tag k="no-barnehage:nsrid" v="992471174" />
		<tag k="operator" v="Læringsverkstedet AS" />
		<tag k="operator:type" v="private" />
	</node>
	<node lat="59.18945" lon="9.58441" id="-3560">
		<tag k="ADDRESS" v="Myrvegen 26, 3728 SKIEN" />
		<tag k="amenity" v="kindergarten" />
		<tag k="capacity" v="63" />
		<tag k="contact:website" v="http://www.laringsverkstedet.no" />
		<tag k="max_age" v="5" />
		<tag k="min_age" v="1" />
		<tag k="name" v="Læringsverkstedet barnehage avd. Trollmyra naturbarnehage" />
		<tag k="no-barnehage:nsrid" v="990747644" />
		<tag k="operator" v="Læringsverkstedet AS" />
		<tag k="operator:type" v="private" />
	</node>
	<node lat="59.17426" lon="9.38218" id="-3561">
		<tag k="ADDRESS" v="Bjørbekkvegen 5, 3729 SKIEN" />
		<tag k="amenity" v="kindergarten" />
		<tag k="capacity" v="26" />
		<tag k="contact:website" v="http://www.melumbarnehage.no" />
		<tag k="max_age" v="5" />
		<tag k="min_age" v="1" />
		<tag k="name" v="Melum barnehage" />
		<tag k="no-barnehage:nsrid" v="974146231" />
		<tag k="operator" v="Melum barnehage SA" />
		<tag k="operator:type" v="private" />
	</node>
	<node lat="59.19456" lon="9.63042" id="-3562">
		<tag k="ADDRESS" v="Jon Alvssons gate 12B, 3746 SKIEN" />
		<tag k="amenity" v="kindergarten" />
		<tag k="capacity" v="28" />
		<tag k="contact:website" v="http://www.skauenbarnehage.no" />
		<tag k="max_age" v="5" />
		<tag k="min_age" v="1" />
		<tag k="name" v="Skauen kristelige barnehage" />
		<tag k="no-barnehage:nsrid" v="989000470" />
		<tag k="operator" v="Skauen Kristelige barnehage AS" />
		<tag k="operator:type" v="private" />
	</node>
	<node lat="59.17914" lon="9.6175" id="-3563">
		<tag k="ADDRESS" v="Torvmyrvegen 13, 3734 SKIEN" />
		<tag k="amenity" v="kindergarten" />
		<tag k="capacity" v="51" />
		<tag k="max_age" v="5" />
		<tag k="min_age" v="1" />
		<tag k="name" v="Skogmusa barnehage" />
		<tag k="no-barnehage:nsrid" v="973494732" />
		<tag k="operator" v="Skogmusa barnehage SA" />
		<tag k="operator:type" v="private" />
	</node>
	<node lat="59.21409" lon="9.52646" id="-3564">
		<tag k="ADDRESS" v="Kirkebakken 1, 3720 SKIEN" />
		<tag k="amenity" v="kindergarten" />
		<tag k="capacity" v="23" />
		<tag k="max_age" v="5" />
		<tag k="min_age" v="1" />
		<tag k="name" v="Skotfoss oppvekstsenter avd. barnehage" />
		<tag k="no-barnehage:nsrid" v="979998627" />
		<tag k="operator" v="Skien kommune" />
		<tag k="operator:type" v="public" />
	</node>
	<node lat="0.0" lon="0.0" id="-3565">
		<tag k="ADDRESS" v="ULEFOSSVEIEN 35 B, 3710 SKIEN" />
		<tag k="amenity" v="kindergarten" />
		<tag k="capacity" v="52" />
		<tag k="max_age" v="5" />
		<tag k="min_age" v="1" />
		<tag k="name" v="Sykehuset Telemark HF Trekløveren barnehage" />
		<tag k="no-barnehage:nsrid" v="974633213" />
		<tag k="operator" v="Sykehuset Telemark Hf" />
	</node>
	<node lat="59.21047" lon="9.60024" id="-3566">
		<tag k="ADDRESS" v="Cort Adelers gate 14, 3717 SKIEN" />
		<tag k="amenity" v="kindergarten" />
		<tag k="capacity" v="18" />
		<tag k="contact:website" v="http://www.tabernaklet.no" />
		<tag k="max_age" v="5" />
		<tag k="min_age" v="1" />
		<tag k="name" v="Tabernaklets barnehage" />
		<tag k="no-barnehage:nsrid" v="975189228" />
		<tag k="operator" v="Pinsekirken Tabernaklet Skien" />
		<tag k="operator:type" v="private" />
	</node>
	<node lat="59.21135" lon="9.56416" id="-3567">
		<tag k="ADDRESS" v="Tiedemannsjordet 1, 3727 SKIEN" />
		<tag k="amenity" v="kindergarten" />
		<tag k="capacity" v="46" />
		<tag k="max_age" v="5" />
		<tag k="min_age" v="1" />
		<tag k="name" v="Tiedemannsjordet barnehage" />
		<tag k="no-barnehage:nsrid" v="974559919" />
		<tag k="operator" v="Skien kommune" />
		<tag k="operator:type" v="public" />
	</node>
	<node lat="59.16618" lon="9.61462" id="-3568">
		<tag k="ADDRESS" v="Lyngbakkvegen 122, 3735 SKIEN" />
		<tag k="amenity" v="kindergarten" />
		<tag k="capacity" v="41" />
		<tag k="contact:website" v="http://troenslivbarnehage.no" />
		<tag k="max_age" v="5" />
		<tag k="min_age" v="1" />
		<tag k="name" v="Troens Liv barnehage" />
		<tag k="no-barnehage:nsrid" v="974336316" />
		<tag k="operator" v="Troens Liv bibelsenter" />
		<tag k="operator:type" v="private" />
	</node>
	<node lat="59.24838" lon="9.58802" id="-3569">
		<tag k="ADDRESS" v="Tuftevegen 18, 3721 SKIEN" />
		<tag k="amenity" v="kindergarten" />
		<tag k="capacity" v="23" />
		<tag k="max_age" v="5" />
		<tag k="min_age" v="1" />
		<tag k="name" v="Tufte barnehage" />
		<tag k="no-barnehage:nsrid" v="974183552" />
		<tag k="operator" v="Skien kommune" />
		<tag k="operator:type" v="public" />
	</node>
	<node lat="59.2463" lon="9.57162" id="-3571">
		<tag k="ADDRESS" v="Smievegen 18, 3721 SKIEN" />
		<tag k="amenity" v="kindergarten" />
		<tag k="capacity" v="76" />
		<tag k="max_age" v="5" />
		<tag k="min_age" v="1" />
		<tag k="name" v="Venstøp barnehage" />
		<tag k="no-barnehage:nsrid" v="991497064" />
		<tag k="operator" v="Skien kommune" />
		<tag k="operator:type" v="public" />
	</node>
	<node lat="59.19739" lon="9.53592" id="-3572">
		<tag k="ADDRESS" v="Rambergvegen 21, 3731 SKIEN" />
		<tag k="amenity" v="kindergarten" />
		<tag k="capacity" v="53" />
		<tag k="max_age" v="5" />
		<tag k="min_age" v="1" />
		<tag k="name" v="Åfoss barnehage" />
		<tag k="no-barnehage:nsrid" v="973784781" />
		<tag k="operator" v="Skien kommune" />
		<tag k="operator:type" v="public" />
	</node>
</osm>
