<?xml version="1.0" encoding="UTF-8"?>
<osm version="0.6" generator="osmapis">
	<node lat="59.47079" lon="11.16107" id="-2092">
		<tag k="ADDRESS" v="Finlandstubben 23, 1816 SKIPTVET" />
		<tag k="amenity" v="kindergarten" />
		<tag k="capacity" v="57" />
		<tag k="max_age" v="5" />
		<tag k="min_age" v="1" />
		<tag k="name" v="Finlandsskogen barnehage" />
		<tag k="no-barnehage:nsrid" v="975316742" />
		<tag k="operator" v="Skiptvet kommune" />
		<tag k="operator:type" v="public" />
	</node>
	<node lat="59.52987" lon="11.16619" id="-2093">
		<tag k="ADDRESS" v="Riukveien 336, 1816 SKIPTVET" />
		<tag k="amenity" v="kindergarten" />
		<tag k="capacity" v="42" />
		<tag k="max_age" v="5" />
		<tag k="min_age" v="1" />
		<tag k="name" v="Hestehoven gårdsbarnehage" />
		<tag k="no-barnehage:nsrid" v="985988951" />
		<tag k="operator" v="Hestehoven gårdsbarnehage AS" />
		<tag k="operator:type" v="private" />
	</node>
	<node lat="59.47046" lon="11.16478" id="-2094">
		<tag k="ADDRESS" v="Finlandsveien 44, 1816 SKIPTVET" />
		<tag k="amenity" v="kindergarten" />
		<tag k="capacity" v="36" />
		<tag k="max_age" v="5" />
		<tag k="min_age" v="1" />
		<tag k="name" v="Lindormen barnehage" />
		<tag k="no-barnehage:nsrid" v="875301462" />
		<tag k="operator" v="Skiptvet kommune" />
		<tag k="operator:type" v="public" />
	</node>
	<node lat="59.46941" lon="11.167" id="-2095">
		<tag k="ADDRESS" v="Doktorsvingen 1, 1816 SKIPTVET" />
		<tag k="amenity" v="kindergarten" />
		<tag k="capacity" v="37" />
		<tag k="max_age" v="5" />
		<tag k="min_age" v="1" />
		<tag k="name" v="Solhaug barnehage" />
		<tag k="no-barnehage:nsrid" v="986251987" />
		<tag k="operator" v="Skiptvet kommune" />
		<tag k="operator:type" v="public" />
	</node>
</osm>
