<?xml version="1.0" encoding="UTF-8"?>
<osm generator="osmapis" version="0.6">
	<node id="-5832" lat="70.6123" lon="24.6437">
		<tag k="amenity" v="kindergarten" />
		<tag k="capacity" v="3" />
		<tag k="contact:email" v="heidi.ostensen@kvalsund.kommune.no" />
		<tag k="contact:phone" v="+47 92612522" />
		<tag k="max_age" v="5" />
		<tag k="min_age" v="1" />
		<tag k="name" v="Kokelv Oppvekstsenter Avd Barnehage" />
		<tag k="no-barnehage:nsrid" v="1016168" />
		<tag k="operator" v="Kvalsund kommune" />
		<tag k="operator:type" v="public" />
	</node>
	<node id="-5833" lat="70.497" lon="23.9812">
		<tag k="amenity" v="kindergarten" />
		<tag k="capacity" v="35" />
		<tag k="contact:email" v="merete.sivertsen@kvalsund.kommune.no" />
		<tag k="contact:phone" v="+47 47487560" />
		<tag k="max_age" v="5" />
		<tag k="min_age" v="1" />
		<tag k="name" v="Kvalsund barnehage" />
		<tag k="no-barnehage:nsrid" v="1013728" />
		<tag k="operator" v="Kvalsund kommune" />
		<tag k="operator:type" v="public" />
	</node>
</osm>
