<?xml version="1.0" encoding="UTF-8"?>
<osm generator="osmapis" version="0.6">
	<node id="-5924" lat="70.497" lon="23.9812">
		<tag k="amenity" v="kindergarten" />
		<tag k="capacity" v="37" />
		<tag k="contact:email" v="karl-inge.svendsen@kvalsund.kommune.no" />
		<tag k="contact:phone" v="+47 78 41 56 00" />
		<tag k="max_age" v="5" />
		<tag k="min_age" v="1" />
		<tag k="name" v="Kvalsund barnehage" />
		<tag k="no-barnehage:nsrid" v="1013728" />
		<tag k="operator" v="Kvalsund kommune" />
		<tag k="operator:type" v="public" />
		<tag k="start_date" v="1989-01-01" />
	</node>
	<node id="-5923" lat="70.6123" lon="24.6437">
		<tag k="amenity" v="kindergarten" />
		<tag k="capacity" v="4" />
		<tag k="contact:email" v="heidi.ostensen@kvalsund.kommune.no" />
		<tag k="contact:phone" v="+47 92612522" />
		<tag k="max_age" v="5" />
		<tag k="min_age" v="1" />
		<tag k="name" v="Kokelv Oppvekstsenter Avd Barnehage" />
		<tag k="no-barnehage:nsrid" v="1016168" />
		<tag k="operator" v="Kvalsund kommune" />
		<tag k="operator:type" v="public" />
		<tag k="start_date" v="1989-01-02" />
	</node>
</osm>
