<?xml version="1.0" encoding="UTF-8"?>
<osm generator="osmapis" version="0.6">
	<node id="-4550" lat="60.40098" lon="5.71061">
		<tag k="ADDRESS" v="Samnangervegen 404, 5652 ÅRLAND" />
		<tag k="amenity" v="kindergarten" />
		<tag k="capacity" v="29" />
		<tag k="contact:website" v="http://www.gards-barnehagen.no" />
		<tag k="max_age" v="5" />
		<tag k="min_age" v="1" />
		<tag k="name" v="Aadland Gards- og friluftsbarnehage" />
		<tag k="no-barnehage:nsrid" v="980771210" />
		<tag k="operator" v="Aadland Gards- og Friluftsbarnehage AS" />
		<tag k="operator:type" v="private" />
	</node>
	<node id="-4551" lat="60.39605" lon="5.76658">
		<tag k="ADDRESS" v="Nesjavegen 10, 5650 TYSSE" />
		<tag k="amenity" v="kindergarten" />
		<tag k="capacity" v="50" />
		<tag k="max_age" v="5" />
		<tag k="min_age" v="1" />
		<tag k="name" v="Dråpeslottet barnehage" />
		<tag k="no-barnehage:nsrid" v="975323323" />
		<tag k="operator" v="Samnanger kommune" />
		<tag k="operator:type" v="public" />
	</node>
	<node id="-4552" lat="60.40639" lon="5.72189">
		<tag k="ADDRESS" v="Reistadliane 37, 5652 ÅRLAND" />
		<tag k="amenity" v="kindergarten" />
		<tag k="capacity" v="52" />
		<tag k="max_age" v="5" />
		<tag k="min_age" v="1" />
		<tag k="name" v="Vassloppa barnehage" />
		<tag k="no-barnehage:nsrid" v="975321282" />
		<tag k="operator" v="Samnanger kommune" />
		<tag k="operator:type" v="public" />
	</node>
</osm>
