<?xml version="1.0" encoding="UTF-8"?>
<osm generator="osmapis" version="0.6">
	<node id="-5972" lat="70.2471" lon="22.3481">
		<tag k="amenity" v="kindergarten" />
		<tag k="capacity" v="23" />
		<tag k="contact:email" v="marie.lundquist@loppa.kommune.no" />
		<tag k="contact:phone" v="78 45 31 40" />
		<tag k="max_age" v="5" />
		<tag k="min_age" v="1" />
		<tag k="name" v="Ã˜ksfjord barnehage" />
		<tag k="no-barnehage:nsrid" v="1013723" />
		<tag k="operator" v="Loppa kommune" />
		<tag k="operator:type" v="public" />
		<tag k="start_date" v="1989-01-01" />
	</node>
	<node id="-5971" lat="70.2508" lon="21.7907">
		<tag k="amenity" v="kindergarten" />
		<tag k="capacity" v="4" />
		<tag k="contact:email" v="line.e.posti@loppa.kommune.no" />
		<tag k="contact:phone" v="78453170" />
		<tag k="max_age" v="5" />
		<tag k="min_age" v="3" />
		<tag k="name" v="Bergsfjord barnehage" />
		<tag k="no-barnehage:nsrid" v="1015772" />
		<tag k="operator" v="Loppa kommune" />
		<tag k="operator:type" v="public" />
		<tag k="start_date" v="1996-01-01" />
	</node>
</osm>
