<?xml version="1.0" encoding="UTF-8"?>
<osm version="0.6" generator="osmapis">
	<node lat="65.46882" lon="12.16397" id="-1495">
		<tag k="ADDRESS" v="Plantefeltet 1, 8909 BRØNNØYSUND" />
		<tag k="amenity" v="kindergarten" />
		<tag k="capacity" v="32" />
		<tag k="contact:website" v="http://fjellsoya.barnehage.no" />
		<tag k="max_age" v="5" />
		<tag k="min_age" v="1" />
		<tag k="name" v="Fjellsøya barnehage" />
		<tag k="no-barnehage:nsrid" v="995467445" />
		<tag k="operator" v="Fjellsøya barnehage AS" />
		<tag k="operator:type" v="private" />
	</node>
	<node lat="65.47293" lon="12.22007" id="-1496">
		<tag k="ADDRESS" v="St.Knuts gate 31, 8900 BRØNNØYSUND" />
		<tag k="amenity" v="kindergarten" />
		<tag k="capacity" v="72" />
		<tag k="max_age" v="5" />
		<tag k="min_age" v="1" />
		<tag k="name" v="Furutoppen barnehage" />
		<tag k="no-barnehage:nsrid" v="974621843" />
		<tag k="operator" v="Brønnøy kommune" />
		<tag k="operator:type" v="public" />
	</node>
	<node lat="0.0" lon="0.0" id="-1497">
		<tag k="ADDRESS" v=", 8960 VELFJORD" />
		<tag k="amenity" v="kindergarten" />
		<tag k="capacity" v="28" />
		<tag k="max_age" v="5" />
		<tag k="min_age" v="1" />
		<tag k="name" v="Klokkargarden barnehage" />
		<tag k="no-barnehage:nsrid" v="974044439" />
		<tag k="operator" v="Brønnøy kommune" />
		<tag k="operator:type" v="public" />
	</node>
	<node lat="65.49174" lon="12.25244" id="-1498">
		<tag k="ADDRESS" v="Ringveien 9, 8907 BRØNNØYSUND" />
		<tag k="amenity" v="kindergarten" />
		<tag k="capacity" v="75" />
		<tag k="contact:website" v="http://klovermarka.norlandiabarnehagene.no/" />
		<tag k="max_age" v="5" />
		<tag k="min_age" v="1" />
		<tag k="name" v="Norlandia Kløvermarka barnehage" />
		<tag k="no-barnehage:nsrid" v="986697853" />
		<tag k="operator" v="Norlandia barnehagene AS" />
		<tag k="operator:type" v="private" />
	</node>
	<node lat="65.48483" lon="12.22165" id="-1499">
		<tag k="ADDRESS" v="Jektskipperveien 8A, 8907 BRØNNØYSUND" />
		<tag k="amenity" v="kindergarten" />
		<tag k="capacity" v="32" />
		<tag k="max_age" v="5" />
		<tag k="min_age" v="1" />
		<tag k="name" v="Salhus barnehage" />
		<tag k="no-barnehage:nsrid" v="972240478" />
		<tag k="operator" v="Brønnøy kommune" />
		<tag k="operator:type" v="public" />
	</node>
	<node lat="65.49098" lon="12.23761" id="-1500">
		<tag k="ADDRESS" v="Sommerslettveien 5, 8907 BRØNNØYSUND" />
		<tag k="amenity" v="kindergarten" />
		<tag k="capacity" v="23" />
		<tag k="max_age" v="5" />
		<tag k="min_age" v="1" />
		<tag k="name" v="Soltun barnehage" />
		<tag k="no-barnehage:nsrid" v="972240486" />
		<tag k="operator" v="Soltun barnehage SA" />
		<tag k="operator:type" v="private" />
	</node>
	<node lat="65.494" lon="12.31104" id="-1501">
		<tag k="ADDRESS" v="Kjølsøyveien 1, 8908 BRØNNØYSUND" />
		<tag k="amenity" v="kindergarten" />
		<tag k="capacity" v="28" />
		<tag k="max_age" v="5" />
		<tag k="min_age" v="1" />
		<tag k="name" v="Sylteren barnehage" />
		<tag k="no-barnehage:nsrid" v="973700243" />
		<tag k="operator" v="Sylteren barnehage SA" />
		<tag k="operator:type" v="private" />
	</node>
	<node lat="65.46932" lon="12.14523" id="-1502">
		<tag k="ADDRESS" v="Toftveien 15, 8909 BRØNNØYSUND" />
		<tag k="amenity" v="kindergarten" />
		<tag k="capacity" v="27" />
		<tag k="max_age" v="5" />
		<tag k="min_age" v="1" />
		<tag k="name" v="Toftsundet barnehage" />
		<tag k="no-barnehage:nsrid" v="874621862" />
		<tag k="operator" v="Brønnøy kommune" />
		<tag k="operator:type" v="public" />
	</node>
</osm>
