<?xml version="1.0" encoding="UTF-8"?>
<osm generator="osmapis" version="0.6">
	<node id="-5519" lat="65.4736" lon="12.2077">
		<tag k="amenity" v="kindergarten" />
		<tag k="capacity" v="32" />
		<tag k="max_age" v="5" />
		<tag k="min_age" v="1" />
		<tag k="name" v="Toftsundet barnehage" />
		<tag k="no-barnehage:nsrid" v="1025376" />
		<tag k="operator" v="Brønnøy kommune" />
		<tag k="operator:type" v="public" />
		<tag k="start_date" v="1989-01-01" />
	</node>
	<node id="-5518" lat="65.47134" lon="12.20651">
		<tag k="amenity" v="kindergarten" />
		<tag k="capacity" v="27" />
		<tag k="contact:email" v="sylteren.barnehage@bronnoy.online.no" />
		<tag k="contact:phone" v="75 02 68 43" />
		<tag k="max_age" v="5" />
		<tag k="min_age" v="1" />
		<tag k="name" v="Sylteren barnehage Sa" />
		<tag k="no-barnehage:nsrid" v="1019916" />
		<tag k="operator" v="Sylteren barnehage Sa" />
		<tag k="operator:type" v="private" />
		<tag k="start_date" v="1990-08-27" />
	</node>
	<node id="-5517" lat="65.49098" lon="12.23761">
		<tag k="amenity" v="kindergarten" />
		<tag k="capacity" v="21" />
		<tag k="max_age" v="5" />
		<tag k="min_age" v="1" />
		<tag k="name" v="Soltun barnehage" />
		<tag k="no-barnehage:nsrid" v="1019967" />
		<tag k="operator" v="Soltun barnehage Sa" />
		<tag k="operator:type" v="private" />
		<tag k="start_date" v="1991-01-01" />
	</node>
	<node id="-5516" lat="65.4848" lon="12.2217">
		<tag k="amenity" v="kindergarten" />
		<tag k="capacity" v="51" />
		<tag k="contact:phone" v="75021133" />
		<tag k="max_age" v="5" />
		<tag k="min_age" v="1" />
		<tag k="name" v="Salhus barnehage" />
		<tag k="no-barnehage:nsrid" v="1015456" />
		<tag k="operator" v="Brønnøy kommune" />
		<tag k="operator:type" v="public" />
		<tag k="start_date" v="1991-01-01" />
	</node>
	<node id="-5515" lat="67.2849" lon="14.3816">
		<tag k="amenity" v="kindergarten" />
		<tag k="capacity" v="77" />
		<tag k="contact:phone" v="75 54 16 80" />
		<tag k="contact:website" v="http://www.barnekompaniet.no" />
		<tag k="max_age" v="5" />
		<tag k="min_age" v="1" />
		<tag k="name" v="Kløvermarka barnehage" />
		<tag k="no-barnehage:nsrid" v="1012995" />
		<tag k="operator" v="Norlandia Barnehagene AS" />
		<tag k="operator:type" v="private" />
		<tag k="start_date" v="2004-03-17" />
	</node>
	<node id="-5514" lat="65.4069" lon="12.552">
		<tag k="amenity" v="kindergarten" />
		<tag k="capacity" v="31" />
		<tag k="max_age" v="5" />
		<tag k="min_age" v="1" />
		<tag k="name" v="Klokkargarden barnehage" />
		<tag k="no-barnehage:nsrid" v="1016128" />
		<tag k="operator" v="Brønnøy kommune" />
		<tag k="operator:type" v="public" />
		<tag k="start_date" v="1989-01-01" />
	</node>
	<node id="-5513" lat="65.4716" lon="12.2196">
		<tag k="amenity" v="kindergarten" />
		<tag k="capacity" v="78" />
		<tag k="max_age" v="5" />
		<tag k="min_age" v="1" />
		<tag k="name" v="Furutoppen barnehage" />
		<tag k="no-barnehage:nsrid" v="1016612" />
		<tag k="operator" v="Brønnøy kommune" />
		<tag k="operator:type" v="public" />
		<tag k="start_date" v="1989-01-01" />
	</node>
	<node id="-5512" lat="65.4743" lon="12.2229">
		<tag k="amenity" v="kindergarten" />
		<tag k="capacity" v="62" />
		<tag k="max_age" v="5" />
		<tag k="min_age" v="1" />
		<tag k="name" v="Flaggstanghaugen barnehage" />
		<tag k="no-barnehage:nsrid" v="1016613" />
		<tag k="operator" v="Brønnøy kommune" />
		<tag k="operator:type" v="public" />
		<tag k="start_date" v="1991-01-01" />
	</node>
	<node id="-5511" lat="65.46882" lon="12.16397">
		<tag k="amenity" v="kindergarten" />
		<tag k="capacity" v="35" />
		<tag k="contact:email" v="fjellsoia@hotmail.com" />
		<tag k="contact:phone" v="988 21 208" />
		<tag k="contact:website" v="http://fjellsoya.barnehage.no" />
		<tag k="max_age" v="5" />
		<tag k="min_age" v="1" />
		<tag k="name" v="Fjellsøya barnehage AS" />
		<tag k="no-barnehage:nsrid" v="1022054" />
		<tag k="operator" v="Fjellsøya barnehage AS" />
		<tag k="operator:type" v="private" />
		<tag k="start_date" v="2010-04-08" />
	</node>
	<node id="-5510" lat="65.46803" lon="12.21193">
		<tag k="amenity" v="kindergarten" />
		<tag k="capacity" v="37" />
		<tag k="contact:phone" v="75 02 18 42" />
		<tag k="max_age" v="5" />
		<tag k="min_age" v="1" />
		<tag k="name" v="Barnetun barnehage Sa" />
		<tag k="no-barnehage:nsrid" v="1019746" />
		<tag k="operator" v="Barnetun barnehage Sa" />
		<tag k="operator:type" v="private" />
		<tag k="start_date" v="1989-01-02" />
	</node>
</osm>
