<?xml version="1.0" encoding="UTF-8"?>
<osm generator="osmapis" version="0.6">
	<node id="-5512" lat="0.0" lon="0.0">
		<tag k="amenity" v="kindergarten" />
		<tag k="capacity" v="21" />
		<tag k="max_age" v="5" />
		<tag k="min_age" v="1" />
		<tag k="name" v="Straumsvik barnehage" />
		<tag k="no-barnehage:nsrid" v="1021991" />
		<tag k="operator" v="Straumsvik barnehage Sa" />
		<tag k="operator:type" v="private" />
	</node>
	<node id="-5511" lat="63.32383" lon="8.67111">
		<tag k="amenity" v="kindergarten" />
		<tag k="capacity" v="19" />
		<tag k="max_age" v="5" />
		<tag k="min_age" v="1" />
		<tag k="name" v="Stemshaug barnehage" />
		<tag k="no-barnehage:nsrid" v="1016319" />
		<tag k="operator" v="Aure kommune" />
		<tag k="operator:type" v="public" />
	</node>
	<node id="-5510" lat="63.20504" lon="8.03243">
		<tag k="amenity" v="kindergarten" />
		<tag k="capacity" v="38" />
		<tag k="max_age" v="5" />
		<tag k="min_age" v="1" />
		<tag k="name" v="Steinhaugen barnehage" />
		<tag k="no-barnehage:nsrid" v="1013780" />
		<tag k="operator" v="Aure kommune" />
		<tag k="operator:type" v="public" />
	</node>
	<node id="-5509" lat="63.38831" lon="8.69871">
		<tag k="amenity" v="kindergarten" />
		<tag k="capacity" v="26" />
		<tag k="max_age" v="5" />
		<tag k="min_age" v="1" />
		<tag k="name" v="Nordlandet barnehage" />
		<tag k="no-barnehage:nsrid" v="1014898" />
		<tag k="operator" v="Aure kommune" />
		<tag k="operator:type" v="public" />
	</node>
	<node id="-5508" lat="63.26964" lon="8.53319">
		<tag k="amenity" v="kindergarten" />
		<tag k="capacity" v="45" />
		<tag k="max_age" v="5" />
		<tag k="min_age" v="1" />
		<tag k="name" v="Aure sentrumsbarnehage" />
		<tag k="no-barnehage:nsrid" v="1014745" />
		<tag k="operator" v="Aure kommune" />
		<tag k="operator:type" v="public" />
	</node>
</osm>
