<?xml version="1.0" encoding="UTF-8"?>
<osm generator="osmapis" version="0.6">
	<node id="-3719" lat="59.1454" lon="6.16766">
		<tag k="amenity" v="kindergarten" />
		<tag k="capacity" v="46" />
		<tag k="max_age" v="5" />
		<tag k="min_age" v="1" />
		<tag k="name" v="Årdal barnehage" />
		<tag k="no-barnehage:nsrid" v="1025479" />
		<tag k="operator" v="Hjelmeland kommune" />
		<tag k="operator:type" v="public" />
		<tag k="start_date" v="1982-01-01" />
	</node>
	<node id="-3718" lat="59.2769" lon="6.14934">
		<tag k="amenity" v="kindergarten" />
		<tag k="capacity" v="3" />
		<tag k="max_age" v="5" />
		<tag k="min_age" v="3" />
		<tag k="name" v="Jøsneset barnehage" />
		<tag k="no-barnehage:nsrid" v="1018094" />
		<tag k="operator" v="Hjelmeland kommune" />
		<tag k="operator:type" v="public" />
		<tag k="start_date" v="1989-01-01" />
	</node>
	<node id="-3717" lat="59.3286" lon="6.4429">
		<tag k="amenity" v="kindergarten" />
		<tag k="capacity" v="9" />
		<tag k="max_age" v="5" />
		<tag k="min_age" v="1" />
		<tag k="name" v="Jøsenfjorden barnehage" />
		<tag k="no-barnehage:nsrid" v="1018093" />
		<tag k="operator" v="Hjelmeland kommune" />
		<tag k="operator:type" v="public" />
		<tag k="start_date" v="1989-01-01" />
	</node>
	<node id="-3716" lat="59.2234" lon="6.18654">
		<tag k="amenity" v="kindergarten" />
		<tag k="capacity" v="77" />
		<tag k="max_age" v="5" />
		<tag k="min_age" v="1" />
		<tag k="name" v="Hjelmeland barnehage" />
		<tag k="no-barnehage:nsrid" v="1016844" />
		<tag k="operator" v="Hjelmeland kommune" />
		<tag k="operator:type" v="public" />
		<tag k="start_date" v="1976-12-24" />
	</node>
	<node id="-3715" lat="59.1667" lon="6.06667">
		<tag k="amenity" v="kindergarten" />
		<tag k="capacity" v="38" />
		<tag k="max_age" v="5" />
		<tag k="min_age" v="1" />
		<tag k="name" v="Fister barnehage" />
		<tag k="no-barnehage:nsrid" v="1015559" />
		<tag k="operator" v="Hjelmeland kommune" />
		<tag k="operator:type" v="public" />
		<tag k="start_date" v="1982-01-01" />
	</node>
</osm>
