<?xml version="1.0" encoding="UTF-8"?>
<osm generator="osmapis" version="0.6">
	<node id="-4256" lat="58.6212" lon="5.66036">
		<tag k="amenity" v="kindergarten" />
		<tag k="capacity" v="52" />
		<tag k="max_age" v="5" />
		<tag k="min_age" v="1" />
		<tag k="name" v="Varhaug idrettsbarnehage" />
		<tag k="no-barnehage:nsrid" v="1015109" />
		<tag k="operator" v="Hå kommune" />
		<tag k="operator:type" v="public" />
	</node>
	<node id="-4255" lat="58.65839" lon="5.64857">
		<tag k="amenity" v="kindergarten" />
		<tag k="capacity" v="44" />
		<tag k="max_age" v="5" />
		<tag k="min_age" v="1" />
		<tag k="name" v="Urhei barnehage" />
		<tag k="no-barnehage:nsrid" v="1017474" />
		<tag k="operator" v="Hå kommune" />
		<tag k="operator:type" v="public" />
	</node>
	<node id="-4254" lat="58.61675" lon="5.64974">
		<tag k="amenity" v="kindergarten" />
		<tag k="capacity" v="98" />
		<tag k="max_age" v="5" />
		<tag k="min_age" v="1" />
		<tag k="name" v="Trekløveren barnehage" />
		<tag k="no-barnehage:nsrid" v="1017329" />
		<tag k="operator" v="Hå kommune" />
		<tag k="operator:type" v="public" />
	</node>
	<node id="-4253" lat="58.61492" lon="5.65459">
		<tag k="amenity" v="kindergarten" />
		<tag k="capacity" v="54" />
		<tag k="contact:website" v="http://www.tjemslandshagen.barnehage.no" />
		<tag k="max_age" v="5" />
		<tag k="min_age" v="1" />
		<tag k="name" v="Tjemslandshagen barnehage" />
		<tag k="no-barnehage:nsrid" v="1020863" />
		<tag k="operator" v="Tjemslandshagen barnehage Sa" />
		<tag k="operator:type" v="private" />
	</node>
	<node id="-4252" lat="58.5585" lon="5.73863">
		<tag k="amenity" v="kindergarten" />
		<tag k="capacity" v="96" />
		<tag k="max_age" v="5" />
		<tag k="min_age" v="1" />
		<tag k="name" v="Stokkalandsmarka barnehage" />
		<tag k="no-barnehage:nsrid" v="1014047" />
		<tag k="operator" v="Hå kommune" />
		<tag k="operator:type" v="public" />
	</node>
	<node id="-4251" lat="58.65909" lon="5.65659">
		<tag k="amenity" v="kindergarten" />
		<tag k="capacity" v="72" />
		<tag k="max_age" v="5" />
		<tag k="min_age" v="1" />
		<tag k="name" v="Rosktoppen barnehage" />
		<tag k="no-barnehage:nsrid" v="1018527" />
		<tag k="operator" v="Hå kommune" />
		<tag k="operator:type" v="public" />
	</node>
	<node id="-4250" lat="58.65829" lon="5.65688">
		<tag k="amenity" v="kindergarten" />
		<tag k="name" v="Noas Ark Open barnehage" />
		<tag k="no-barnehage:nsrid" v="1015909" />
		<tag k="operator" v="Hå Kyrkjelege Fellesråd" />
		<tag k="operator:type" v="private" />
	</node>
	<node id="-4249" lat="58.67251" lon="5.63548">
		<tag k="amenity" v="kindergarten" />
		<tag k="capacity" v="76" />
		<tag k="contact:website" v="http://tryggheim.skyl.no/" />
		<tag k="max_age" v="5" />
		<tag k="min_age" v="1" />
		<tag k="name" v="NLM barnehagene avd. Tryggheim barnehage Nærbø" />
		<tag k="no-barnehage:nsrid" v="1025304" />
		<tag k="operator" v="Nlm-Barnehagene AS" />
		<tag k="operator:type" v="private" />
	</node>
	<node id="-4248" lat="58.50272" lon="5.80124">
		<tag k="amenity" v="kindergarten" />
		<tag k="capacity" v="68" />
		<tag k="max_age" v="5" />
		<tag k="min_age" v="1" />
		<tag k="name" v="Måken barnehage" />
		<tag k="no-barnehage:nsrid" v="1014926" />
		<tag k="operator" v="Hå kommune" />
		<tag k="operator:type" v="public" />
	</node>
	<node id="-4247" lat="58.65726" lon="5.64423">
		<tag k="amenity" v="kindergarten" />
		<tag k="capacity" v="89" />
		<tag k="max_age" v="5" />
		<tag k="min_age" v="1" />
		<tag k="name" v="Motlandsmarka barnehage" />
		<tag k="no-barnehage:nsrid" v="1026296" />
		<tag k="operator" v="Hå kommune" />
		<tag k="operator:type" v="public" />
	</node>
	<node id="-4246" lat="58.61472" lon="5.6417">
		<tag k="amenity" v="kindergarten" />
		<tag k="capacity" v="79" />
		<tag k="max_age" v="5" />
		<tag k="min_age" v="1" />
		<tag k="name" v="Lensmannsgarden barnehage" />
		<tag k="no-barnehage:nsrid" v="1014725" />
		<tag k="operator" v="Hå kommune" />
		<tag k="operator:type" v="public" />
	</node>
	<node id="-4245" lat="58.66508" lon="5.65138">
		<tag k="amenity" v="kindergarten" />
		<tag k="capacity" v="75" />
		<tag k="contact:website" v="http://www.espira.no" />
		<tag k="max_age" v="5" />
		<tag k="min_age" v="1" />
		<tag k="name" v="Espira Skjeaberget barnehage" />
		<tag k="no-barnehage:nsrid" v="1020832" />
		<tag k="operator" v="Espira Skjeraberget AS" />
		<tag k="operator:type" v="private" />
	</node>
	<node id="-4244" lat="58.66358" lon="5.6424">
		<tag k="amenity" v="kindergarten" />
		<tag k="capacity" v="46" />
		<tag k="max_age" v="5" />
		<tag k="min_age" v="1" />
		<tag k="name" v="Breidablikk kulturbarnehage" />
		<tag k="no-barnehage:nsrid" v="1014724" />
		<tag k="operator" v="Hå kommune" />
		<tag k="operator:type" v="public" />
	</node>
	<node id="-4243" lat="58.66842" lon="5.64786">
		<tag k="amenity" v="kindergarten" />
		<tag k="capacity" v="51" />
		<tag k="max_age" v="5" />
		<tag k="min_age" v="1" />
		<tag k="name" v="Bjorhaug barnehage" />
		<tag k="no-barnehage:nsrid" v="1014046" />
		<tag k="operator" v="Hå kommune" />
		<tag k="operator:type" v="public" />
	</node>
	<node id="-4242" lat="58.54047" lon="5.7443">
		<tag k="amenity" v="kindergarten" />
		<tag k="capacity" v="40" />
		<tag k="max_age" v="5" />
		<tag k="min_age" v="1" />
		<tag k="name" v="Askeladden barnehage" />
		<tag k="no-barnehage:nsrid" v="1016881" />
		<tag k="operator" v="Hå kommune" />
		<tag k="operator:type" v="public" />
	</node>
	<node id="-4259" lat="58.56876" lon="5.70385">
		<tag k="amenity" v="kindergarten" />
		<tag k="capacity" v="115" />
		<tag k="max_age" v="5" />
		<tag k="min_age" v="1" />
		<tag k="name" v="Vigrestad barnehage" />
		<tag k="no-barnehage:nsrid" v="1016915" />
		<tag k="operator" v="Hå kommune" />
		<tag k="operator:type" v="public" />
	</node>
	<node id="-4258" lat="58.65328" lon="5.58967">
		<tag k="amenity" v="kindergarten" />
		<tag k="capacity" v="59" />
		<tag k="max_age" v="5" />
		<tag k="min_age" v="1" />
		<tag k="name" v="Vigre barnehage" />
		<tag k="no-barnehage:nsrid" v="1012566" />
		<tag k="operator" v="Hå kommune" />
		<tag k="operator:type" v="public" />
	</node>
	<node id="-4257" lat="58.66669" lon="5.63603">
		<tag k="amenity" v="kindergarten" />
		<tag k="capacity" v="55" />
		<tag k="max_age" v="5" />
		<tag k="min_age" v="1" />
		<tag k="name" v="Vibereiret barnehage" />
		<tag k="no-barnehage:nsrid" v="1016916" />
		<tag k="operator" v="Hå kommune" />
		<tag k="operator:type" v="public" />
	</node>
</osm>
