<?xml version="1.0" encoding="UTF-8"?>
<osm version="0.6" generator="osmapis">
	<node lat="69.49612" lon="20.83404" id="-5298">
		<tag k="ADDRESS" v="Pelleveien 11, 9147 BIRTAVARRE" />
		<tag k="amenity" v="kindergarten" />
		<tag k="capacity" v="17" />
		<tag k="max_age" v="5" />
		<tag k="min_age" v="1" />
		<tag k="name" v="Birtavarre barnehage" />
		<tag k="no-barnehage:nsrid" v="974569299" />
		<tag k="operator" v="Gaivuona Suohkan Kåfjord kommune Kaivuonon Komuuni" />
		<tag k="operator:type" v="public" />
	</node>
	<node lat="0.0" lon="0.0" id="-5299">
		<tag k="ADDRESS" v="Sandmælen, 9144 SAMUELSBERG" />
		<tag k="amenity" v="kindergarten" />
		<tag k="capacity" v="21" />
		<tag k="max_age" v="5" />
		<tag k="min_age" v="1" />
		<tag k="name" v="Fossen barnehage" />
		<tag k="no-barnehage:nsrid" v="974569302" />
		<tag k="operator" v="Gaivuona Suohkan Kåfjord kommune Kaivuonon Komuuni" />
		<tag k="operator:type" v="public" />
	</node>
	<node lat="69.60713" lon="20.52663" id="-5300">
		<tag k="ADDRESS" v="Lindvallveien 3, 9146 OLDERDALEN" />
		<tag k="amenity" v="kindergarten" />
		<tag k="capacity" v="26" />
		<tag k="max_age" v="5" />
		<tag k="min_age" v="1" />
		<tag k="name" v="Olderdalen barnehage" />
		<tag k="no-barnehage:nsrid" v="974569280" />
		<tag k="operator" v="Gaivuona Suohkan Kåfjord kommune Kaivuonon Komuuni" />
		<tag k="operator:type" v="public" />
	</node>
</osm>
