<?xml version="1.0" encoding="UTF-8"?>
<osm generator="osmapis" version="0.6">
	<node id="-2702" lat="59.3357" lon="9.09405">
		<tag k="amenity" v="kindergarten" />
		<tag k="capacity" v="30" />
		<tag k="contact:email" v="lene.kolstad@nome.kommune.no" />
		<tag k="contact:phone" v="+47 35 94 93 20" />
		<tag k="max_age" v="5" />
		<tag k="min_age" v="1" />
		<tag k="name" v="Svenseid barnehage" />
		<tag k="no-barnehage:nsrid" v="1013316" />
		<tag k="operator" v="Nome kommune" />
		<tag k="operator:type" v="public" />
	</node>
	<node id="-2701" lat="59.30075" lon="9.112977">
		<tag k="amenity" v="kindergarten" />
		<tag k="capacity" v="54" />
		<tag k="contact:email" v="mona.hellestad@nome.kommune.no" />
		<tag k="contact:phone" v="+47 35 94 61 40" />
		<tag k="max_age" v="5" />
		<tag k="min_age" v="1" />
		<tag k="name" v="Sluseparken barnehage" />
		<tag k="no-barnehage:nsrid" v="1023777" />
		<tag k="operator" v="Nome kommune" />
		<tag k="operator:type" v="public" />
	</node>
	<node id="-2700" lat="59.2957" lon="9.08825">
		<tag k="amenity" v="kindergarten" />
		<tag k="capacity" v="37" />
		<tag k="contact:email" v="mona.hellestad@nome.kommune.no" />
		<tag k="contact:phone" v="+47 35 94 61 50" />
		<tag k="max_age" v="5" />
		<tag k="min_age" v="1" />
		<tag k="name" v="Skoemyra barnehage" />
		<tag k="no-barnehage:nsrid" v="1012886" />
		<tag k="operator" v="Nome kommune" />
		<tag k="operator:type" v="public" />
	</node>
	<node id="-2699" lat="59.2719" lon="9.25722">
		<tag k="amenity" v="kindergarten" />
		<tag k="capacity" v="75" />
		<tag k="contact:email" v="jill.heidi.sinnerud@nome.kommune.no" />
		<tag k="contact:phone" v="+47 35 94 61 60" />
		<tag k="max_age" v="5" />
		<tag k="min_age" v="1" />
		<tag k="name" v="HerregÃ¥rdshavna barnehage" />
		<tag k="no-barnehage:nsrid" v="1012885" />
		<tag k="operator" v="Nome kommune" />
		<tag k="operator:type" v="public" />
	</node>
	<node id="-2698" lat="59.2557" lon="9.35918">
		<tag k="amenity" v="kindergarten" />
		<tag k="capacity" v="19" />
		<tag k="contact:email" v="jill.heidi.sinnerud@nome.kommune.no" />
		<tag k="contact:phone" v="+47 35 94 88 30" />
		<tag k="max_age" v="5" />
		<tag k="min_age" v="1" />
		<tag k="name" v="Helgen barnehage" />
		<tag k="no-barnehage:nsrid" v="1016047" />
		<tag k="operator" v="Nome kommune" />
		<tag k="operator:type" v="public" />
	</node>
	<node id="-2697" lat="59.2652" lon="9.25789">
		<tag k="amenity" v="kindergarten" />
		<tag k="capacity" v="61" />
		<tag k="contact:email" v="line.pershaug@nome.kommune.no" />
		<tag k="contact:phone" v="+47 35 94 89 00" />
		<tag k="max_age" v="5" />
		<tag k="min_age" v="1" />
		<tag k="name" v="Fagerli barnehage" />
		<tag k="no-barnehage:nsrid" v="1013404" />
		<tag k="operator" v="Nome kommune" />
		<tag k="operator:type" v="public" />
	</node>
</osm>
