<?xml version="1.0" encoding="UTF-8"?>
<osm generator="osmapis" version="0.6">
	<node id="-1719" lat="60.8039" lon="11.1258">
		<tag k="amenity" v="kindergarten" />
		<tag k="capacity" v="47" />
		<tag k="max_age" v="5" />
		<tag k="min_age" v="1" />
		<tag k="name" v="Åker barnehage" />
		<tag k="no-barnehage:nsrid" v="1017567" />
		<tag k="operator" v="Hamar kommune" />
		<tag k="operator:type" v="public" />
	</node>
	<node id="-1718" lat="60.8069" lon="11.0357">
		<tag k="amenity" v="kindergarten" />
		<tag k="capacity" v="50" />
		<tag k="max_age" v="5" />
		<tag k="min_age" v="1" />
		<tag k="name" v="Vestenga barnehage" />
		<tag k="no-barnehage:nsrid" v="1017331" />
		<tag k="operator" v="Hamar kommune" />
		<tag k="operator:type" v="public" />
	</node>
	<node id="-1717" lat="60.81451" lon="11.1776">
		<tag k="amenity" v="kindergarten" />
		<tag k="capacity" v="39" />
		<tag k="max_age" v="5" />
		<tag k="min_age" v="1" />
		<tag k="name" v="Vangli barnehage Al" />
		<tag k="no-barnehage:nsrid" v="1019773" />
		<tag k="operator" v="Vangli barnehage Sa" />
		<tag k="operator:type" v="private" />
	</node>
	<node id="-1716" lat="60.8129" lon="11.0868">
		<tag k="amenity" v="kindergarten" />
		<tag k="capacity" v="44" />
		<tag k="max_age" v="5" />
		<tag k="min_age" v="1" />
		<tag k="name" v="Solvang barnehage" />
		<tag k="no-barnehage:nsrid" v="1017566" />
		<tag k="operator" v="Hamar kommune" />
		<tag k="operator:type" v="public" />
	</node>
	<node id="-1715" lat="60.8474" lon="11.2014">
		<tag k="amenity" v="kindergarten" />
		<tag k="capacity" v="22" />
		<tag k="max_age" v="5" />
		<tag k="min_age" v="1" />
		<tag k="name" v="Slemsrud barnehage" />
		<tag k="no-barnehage:nsrid" v="1017565" />
		<tag k="operator" v="Hamar kommune" />
		<tag k="operator:type" v="public" />
	</node>
	<node id="-1714" lat="60.8355" lon="11.2334">
		<tag k="amenity" v="kindergarten" />
		<tag k="capacity" v="28" />
		<tag k="max_age" v="5" />
		<tag k="min_age" v="1" />
		<tag k="name" v="Skramstad barnehage" />
		<tag k="no-barnehage:nsrid" v="1013892" />
		<tag k="operator" v="Hamar kommune" />
		<tag k="operator:type" v="public" />
	</node>
	<node id="-1712" lat="60.8051" lon="11.0433">
		<tag k="amenity" v="kindergarten" />
		<tag k="capacity" v="25" />
		<tag k="max_age" v="5" />
		<tag k="min_age" v="1" />
		<tag k="name" v="Prestrud barnehage" />
		<tag k="no-barnehage:nsrid" v="1017363" />
		<tag k="operator" v="Hamar kommune" />
		<tag k="operator:type" v="public" />
	</node>
	<node id="-1711" lat="60.8216" lon="11.0868">
		<tag k="amenity" v="kindergarten" />
		<tag k="capacity" v="27" />
		<tag k="max_age" v="5" />
		<tag k="min_age" v="1" />
		<tag k="name" v="Norsvin barnehage" />
		<tag k="no-barnehage:nsrid" v="1014013" />
		<tag k="operator" v="Norsvin barnehage AS" />
		<tag k="operator:type" v="private" />
	</node>
	<node id="-1710" lat="60.85083" lon="11.19876">
		<tag k="amenity" v="kindergarten" />
		<tag k="capacity" v="45" />
		<tag k="max_age" v="5" />
		<tag k="min_age" v="1" />
		<tag k="name" v="Nerby" />
		<tag k="no-barnehage:nsrid" v="1021941" />
		<tag k="operator" v="Nerby AS" />
		<tag k="operator:type" v="private" />
	</node>
	<node id="-1709" lat="60.7985" lon="11.0313">
		<tag k="amenity" v="kindergarten" />
		<tag k="capacity" v="65" />
		<tag k="contact:website" v="http://www.minbarnehage.no/martoddenbh" />
		<tag k="max_age" v="5" />
		<tag k="min_age" v="1" />
		<tag k="name" v="Martodden barnehage" />
		<tag k="no-barnehage:nsrid" v="1015164" />
		<tag k="operator" v="Hamar kommune" />
		<tag k="operator:type" v="public" />
	</node>
	<node id="-1708" lat="60.80428" lon="11.07791">
		<tag k="amenity" v="kindergarten" />
		<tag k="capacity" v="88" />
		<tag k="max_age" v="5" />
		<tag k="min_age" v="1" />
		<tag k="name" v="Lundbo barnehage" />
		<tag k="no-barnehage:nsrid" v="2000094" />
		<tag k="operator" v="Hamar kommune" />
		<tag k="operator:type" v="public" />
	</node>
	<node id="-1707" lat="60.7969" lon="11.1656">
		<tag k="amenity" v="kindergarten" />
		<tag k="capacity" v="45" />
		<tag k="max_age" v="5" />
		<tag k="min_age" v="1" />
		<tag k="name" v="Lovisenberg barnehage" />
		<tag k="no-barnehage:nsrid" v="1017564" />
		<tag k="operator" v="Hamar kommune" />
		<tag k="operator:type" v="public" />
	</node>
	<node id="-1706" lat="60.7981" lon="11.0762">
		<tag k="amenity" v="kindergarten" />
		<tag k="capacity" v="46" />
		<tag k="max_age" v="5" />
		<tag k="min_age" v="1" />
		<tag k="name" v="Kronborg barnehage" />
		<tag k="no-barnehage:nsrid" v="1014304" />
		<tag k="operator" v="Hamar kommune" />
		<tag k="operator:type" v="public" />
	</node>
	<node id="-1705" lat="60.8119" lon="11.0645">
		<tag k="amenity" v="kindergarten" />
		<tag k="capacity" v="60" />
		<tag k="max_age" v="5" />
		<tag k="min_age" v="1" />
		<tag k="name" v="Klukhagan barnehage" />
		<tag k="no-barnehage:nsrid" v="1018475" />
		<tag k="operator" v="Hamar kommune" />
		<tag k="operator:type" v="public" />
	</node>
	<node id="-1704" lat="60.8059" lon="11.0448">
		<tag k="amenity" v="kindergarten" />
		<tag k="capacity" v="42" />
		<tag k="max_age" v="5" />
		<tag k="min_age" v="1" />
		<tag k="name" v="Jønsrudløkka barnehage" />
		<tag k="no-barnehage:nsrid" v="1025417" />
		<tag k="operator" v="Hamar kommune" />
		<tag k="operator:type" v="public" />
	</node>
	<node id="-1703" lat="60.8293" lon="11.133">
		<tag k="amenity" v="kindergarten" />
		<tag k="capacity" v="27" />
		<tag k="max_age" v="5" />
		<tag k="min_age" v="1" />
		<tag k="name" v="Ingeberg barnehage" />
		<tag k="no-barnehage:nsrid" v="1017563" />
		<tag k="operator" v="Hamar kommune" />
		<tag k="operator:type" v="public" />
	</node>
	<node id="-1702" lat="60.80197" lon="11.08943">
		<tag k="amenity" v="kindergarten" />
		<tag k="capacity" v="60" />
		<tag k="max_age" v="5" />
		<tag k="min_age" v="1" />
		<tag k="name" v="Hvitveisen barnehage" />
		<tag k="no-barnehage:nsrid" v="1019886" />
		<tag k="operator" v="Hvitveisen barnehage Sa" />
		<tag k="operator:type" v="private" />
	</node>
	<node id="-1701" lat="60.80185" lon="11.12161">
		<tag k="amenity" v="kindergarten" />
		<tag k="capacity" v="18" />
		<tag k="max_age" v="5" />
		<tag k="min_age" v="1" />
		<tag k="name" v="Hompetitten barnehage Ridabu" />
		<tag k="no-barnehage:nsrid" v="1022452" />
		<tag k="operator" v="Hompetitten barnehage Ridabu AS" />
		<tag k="operator:type" v="private" />
	</node>
	<node id="-1700" lat="60.8162" lon="11.0431">
		<tag k="amenity" v="kindergarten" />
		<tag k="capacity" v="39" />
		<tag k="max_age" v="5" />
		<tag k="min_age" v="1" />
		<tag k="name" v="Hol barnehage" />
		<tag k="no-barnehage:nsrid" v="1017552" />
		<tag k="operator" v="Hamar kommune" />
		<tag k="operator:type" v="public" />
	</node>
	<node id="-1699" lat="60.7996" lon="11.0921">
		<tag k="amenity" v="kindergarten" />
		<tag k="capacity" v="59" />
		<tag k="max_age" v="5" />
		<tag k="min_age" v="1" />
		<tag k="name" v="Hempa barnehage" />
		<tag k="no-barnehage:nsrid" v="1017362" />
		<tag k="operator" v="Hamar kommune" />
		<tag k="operator:type" v="public" />
	</node>
	<node id="-1698" lat="60.79347" lon="11.08773">
		<tag k="amenity" v="kindergarten" />
		<tag k="capacity" v="67" />
		<tag k="contact:website" v="http://Hamar.barnehage.no" />
		<tag k="max_age" v="5" />
		<tag k="min_age" v="1" />
		<tag k="name" v="Hamarbarnehagen" />
		<tag k="no-barnehage:nsrid" v="1021980" />
		<tag k="operator" v="Hamarbarnehagen AS" />
		<tag k="operator:type" v="private" />
	</node>
	<node id="-1697" lat="60.81202" lon="11.05679">
		<tag k="amenity" v="kindergarten" />
		<tag k="capacity" v="28" />
		<tag k="contact:website" v="http://www.hamarbooking.no" />
		<tag k="max_age" v="5" />
		<tag k="min_age" v="1" />
		<tag k="name" v="Hamar gårdsbarnehage Solfrid Bjørge Goldsack" />
		<tag k="no-barnehage:nsrid" v="1021434" />
		<tag k="operator" v="Hamar Gårdsbarnehage Solfrid Bjørge Goldsack" />
		<tag k="operator:type" v="private" />
	</node>
	<node id="-1696" lat="60.8113" lon="11.0364">
		<tag k="amenity" v="kindergarten" />
		<tag k="capacity" v="26" />
		<tag k="max_age" v="5" />
		<tag k="min_age" v="1" />
		<tag k="name" v="Furuberget barnehage" />
		<tag k="no-barnehage:nsrid" v="1017551" />
		<tag k="operator" v="Hamar kommune" />
		<tag k="operator:type" v="public" />
	</node>
	<node id="-1695" lat="60.82813" lon="11.12279">
		<tag k="amenity" v="kindergarten" />
		<tag k="capacity" v="91" />
		<tag k="max_age" v="5" />
		<tag k="min_age" v="1" />
		<tag k="name" v="Flekkenga natur- og gårdsbarnehage" />
		<tag k="no-barnehage:nsrid" v="1022087" />
		<tag k="operator" v="Flekkenga Natur- og Gårdsbarnehage AS" />
		<tag k="operator:type" v="private" />
	</node>
	<node id="-1694" lat="60.7918" lon="11.0845">
		<tag k="amenity" v="kindergarten" />
		<tag k="capacity" v="46" />
		<tag k="max_age" v="5" />
		<tag k="min_age" v="1" />
		<tag k="name" v="Briskebyen Montessori International" />
		<tag k="no-barnehage:nsrid" v="1022072" />
		<tag k="operator" v="Briskebyen Montessori International AS" />
		<tag k="operator:type" v="private" />
	</node>
	<node id="-1693" lat="60.80848" lon="11.03274">
		<tag k="amenity" v="kindergarten" />
		<tag k="capacity" v="57" />
		<tag k="contact:website" v="http://www.blaaveisen.com" />
		<tag k="max_age" v="5" />
		<tag k="min_age" v="1" />
		<tag k="name" v="Blåveisen barnehage" />
		<tag k="no-barnehage:nsrid" v="1020001" />
		<tag k="operator" v="Blåveisen barnehage Sa" />
		<tag k="operator:type" v="private" />
	</node>
	<node id="-1692" lat="60.79917" lon="11.06045">
		<tag k="amenity" v="kindergarten" />
		<tag k="capacity" v="84" />
		<tag k="max_age" v="5" />
		<tag k="min_age" v="1" />
		<tag k="name" v="Bambini montessoribarnehage" />
		<tag k="no-barnehage:nsrid" v="1020845" />
		<tag k="operator" v="Bambini Montessoribarnehage AS" />
		<tag k="operator:type" v="private" />
	</node>
	<node id="-1691" lat="60.8012" lon="11.0678">
		<tag k="amenity" v="kindergarten" />
		<tag k="capacity" v="27" />
		<tag k="max_age" v="5" />
		<tag k="min_age" v="1" />
		<tag k="name" v="Ankerskogen barnehage" />
		<tag k="no-barnehage:nsrid" v="1014248" />
		<tag k="operator" v="Hamar kommune" />
		<tag k="operator:type" v="public" />
	</node>
	<node id="-1690" lat="60.7988" lon="11.0738">
		<tag k="amenity" v="kindergarten" />
		<tag k="capacity" v="24" />
		<tag k="max_age" v="5" />
		<tag k="min_age" v="1" />
		<tag k="name" v="Ankerløkken barnehage" />
		<tag k="no-barnehage:nsrid" v="1017466" />
		<tag k="operator" v="Hamar kommune" />
		<tag k="operator:type" v="public" />
	</node>
	<node id="-1688" lat="60.807" lon="11.0568">
		<tag k="amenity" v="kindergarten" />
		<tag k="capacity" v="38" />
		<tag k="max_age" v="5" />
		<tag k="min_age" v="1" />
		<tag k="name" v="Ajer barnehage" />
		<tag k="no-barnehage:nsrid" v="1017550" />
		<tag k="operator" v="Hamar kommune" />
		<tag k="operator:type" v="public" />
	</node>
</osm>
