<?xml version="1.0" encoding="UTF-8"?>
<osm generator="osmapis" version="0.6">
	<node id="-1847" lat="60.8039" lon="11.1258">
		<tag k="amenity" v="kindergarten" />
		<tag k="capacity" v="50" />
		<tag k="contact:phone" v="62 56 30 00" />
		<tag k="max_age" v="5" />
		<tag k="min_age" v="1" />
		<tag k="name" v="Åker barnehage" />
		<tag k="no-barnehage:nsrid" v="1017567" />
		<tag k="operator" v="Hamar kommune" />
		<tag k="operator:type" v="public" />
		<tag k="start_date" v="1988-04-01" />
	</node>
	<node id="-1845" lat="60.8069" lon="11.0357">
		<tag k="amenity" v="kindergarten" />
		<tag k="capacity" v="51" />
		<tag k="contact:phone" v="62 56 30 00" />
		<tag k="max_age" v="5" />
		<tag k="min_age" v="1" />
		<tag k="name" v="Vestenga barnehage" />
		<tag k="no-barnehage:nsrid" v="1017331" />
		<tag k="operator" v="Hamar kommune" />
		<tag k="operator:type" v="public" />
		<tag k="start_date" v="1976-12-24" />
	</node>
	<node id="-1844" lat="60.81451" lon="11.1776">
		<tag k="amenity" v="kindergarten" />
		<tag k="capacity" v="38" />
		<tag k="contact:phone" v="62 59 54 15" />
		<tag k="max_age" v="5" />
		<tag k="min_age" v="1" />
		<tag k="name" v="Vangli barnehage Al" />
		<tag k="no-barnehage:nsrid" v="1019773" />
		<tag k="operator" v="Vangli barnehage Sa" />
		<tag k="operator:type" v="private" />
		<tag k="start_date" v="1989-01-01" />
	</node>
	<node id="-1843" lat="60.8129" lon="11.0868">
		<tag k="amenity" v="kindergarten" />
		<tag k="capacity" v="51" />
		<tag k="contact:phone" v="62 56 30 00" />
		<tag k="max_age" v="5" />
		<tag k="min_age" v="1" />
		<tag k="name" v="Solvang barnehage" />
		<tag k="no-barnehage:nsrid" v="1017566" />
		<tag k="operator" v="Hamar kommune" />
		<tag k="operator:type" v="public" />
		<tag k="start_date" v="1988-04-01" />
	</node>
	<node id="-1842" lat="60.8474" lon="11.2014">
		<tag k="amenity" v="kindergarten" />
		<tag k="capacity" v="27" />
		<tag k="contact:phone" v="62 56 30 00" />
		<tag k="max_age" v="5" />
		<tag k="min_age" v="1" />
		<tag k="name" v="Slemsrud barnehage" />
		<tag k="no-barnehage:nsrid" v="1017565" />
		<tag k="operator" v="Hamar kommune" />
		<tag k="operator:type" v="public" />
		<tag k="start_date" v="1988-04-01" />
	</node>
	<node id="-1841" lat="60.8355" lon="11.2334">
		<tag k="amenity" v="kindergarten" />
		<tag k="capacity" v="34" />
		<tag k="contact:phone" v="62 56 30 00" />
		<tag k="max_age" v="5" />
		<tag k="min_age" v="1" />
		<tag k="name" v="Skramstad barnehage" />
		<tag k="no-barnehage:nsrid" v="1013892" />
		<tag k="operator" v="Hamar kommune" />
		<tag k="operator:type" v="public" />
		<tag k="start_date" v="1989-01-01" />
	</node>
	<node id="-1840" lat="60.8017" lon="11.0793">
		<tag k="amenity" v="kindergarten" />
		<tag k="capacity" v="35" />
		<tag k="contact:phone" v="62 56 30 00" />
		<tag k="max_age" v="5" />
		<tag k="min_age" v="1" />
		<tag k="name" v="Skjønsberg barnehage" />
		<tag k="no-barnehage:nsrid" v="1017554" />
		<tag k="operator" v="Hamar kommune" />
		<tag k="operator:type" v="public" />
		<tag k="start_date" v="1988-04-01" />
	</node>
	<node id="-1838" lat="60.7977" lon="11.0703">
		<tag k="amenity" v="kindergarten" />
		<tag k="capacity" v="48" />
		<tag k="contact:phone" v="62 56 30 00" />
		<tag k="max_age" v="5" />
		<tag k="min_age" v="1" />
		<tag k="name" v="Sagatun barnehage" />
		<tag k="no-barnehage:nsrid" v="1017553" />
		<tag k="operator" v="Hamar kommune" />
		<tag k="operator:type" v="public" />
		<tag k="start_date" v="1988-04-01" />
	</node>
	<node id="-1836" lat="60.8051" lon="11.0433">
		<tag k="amenity" v="kindergarten" />
		<tag k="capacity" v="27" />
		<tag k="contact:phone" v="62 56 30 00" />
		<tag k="max_age" v="5" />
		<tag k="min_age" v="1" />
		<tag k="name" v="Prestrud barnehage" />
		<tag k="no-barnehage:nsrid" v="1017363" />
		<tag k="operator" v="Hamar kommune" />
		<tag k="operator:type" v="public" />
		<tag k="start_date" v="1976-01-01" />
	</node>
	<node id="-1835" lat="60.8216" lon="11.0868">
		<tag k="amenity" v="kindergarten" />
		<tag k="capacity" v="28" />
		<tag k="max_age" v="5" />
		<tag k="min_age" v="1" />
		<tag k="name" v="Norsvin barnehage AS" />
		<tag k="no-barnehage:nsrid" v="1014013" />
		<tag k="operator" v="Norsvin barnehage AS" />
		<tag k="operator:type" v="private" />
		<tag k="start_date" v="2009-01-01" />
	</node>
	<node id="-1834" lat="60.85083" lon="11.19876">
		<tag k="amenity" v="kindergarten" />
		<tag k="capacity" v="50" />
		<tag k="max_age" v="5" />
		<tag k="min_age" v="1" />
		<tag k="name" v="Nerby AS" />
		<tag k="no-barnehage:nsrid" v="1021941" />
		<tag k="operator" v="Nerby AS" />
		<tag k="operator:type" v="private" />
		<tag k="start_date" v="2009-03-10" />
	</node>
	<node id="-1833" lat="60.7985" lon="11.0313">
		<tag k="amenity" v="kindergarten" />
		<tag k="capacity" v="55" />
		<tag k="max_age" v="5" />
		<tag k="min_age" v="1" />
		<tag k="name" v="Martodden barnehage" />
		<tag k="no-barnehage:nsrid" v="1015164" />
		<tag k="operator" v="Hamar kommune" />
		<tag k="operator:type" v="public" />
		<tag k="start_date" v="2012-09-01" />
	</node>
	<node id="-1832" lat="60.7969" lon="11.1656">
		<tag k="amenity" v="kindergarten" />
		<tag k="capacity" v="50" />
		<tag k="contact:phone" v="62 56 30 00" />
		<tag k="max_age" v="5" />
		<tag k="min_age" v="1" />
		<tag k="name" v="Lovisenberg barnehage" />
		<tag k="no-barnehage:nsrid" v="1017564" />
		<tag k="operator" v="Hamar kommune" />
		<tag k="operator:type" v="public" />
		<tag k="start_date" v="1988-04-01" />
	</node>
	<node id="-1831" lat="60.7981" lon="11.0762">
		<tag k="amenity" v="kindergarten" />
		<tag k="capacity" v="50" />
		<tag k="contact:phone" v="62 56 30 00" />
		<tag k="max_age" v="5" />
		<tag k="min_age" v="1" />
		<tag k="name" v="Kronborg barnehage" />
		<tag k="no-barnehage:nsrid" v="1014304" />
		<tag k="operator" v="Hamar kommune" />
		<tag k="operator:type" v="public" />
		<tag k="start_date" v="2011-08-01" />
	</node>
	<node id="-1830" lat="60.8119" lon="11.0645">
		<tag k="amenity" v="kindergarten" />
		<tag k="capacity" v="62" />
		<tag k="contact:email" v="postmottak@hamar.kommune.no" />
		<tag k="contact:phone" v="62 56 30 00" />
		<tag k="max_age" v="5" />
		<tag k="min_age" v="1" />
		<tag k="name" v="Klukhagan barnehage" />
		<tag k="no-barnehage:nsrid" v="1018475" />
		<tag k="operator" v="Hamar kommune" />
		<tag k="operator:type" v="public" />
		<tag k="start_date" v="2008-08-01" />
	</node>
	<node id="-1829" lat="60.8059" lon="11.0448">
		<tag k="amenity" v="kindergarten" />
		<tag k="capacity" v="39" />
		<tag k="contact:phone" v="62 56 30 00" />
		<tag k="max_age" v="5" />
		<tag k="min_age" v="1" />
		<tag k="name" v="Jønsrudløkka barnehage" />
		<tag k="no-barnehage:nsrid" v="1025417" />
		<tag k="operator" v="Hamar kommune" />
		<tag k="operator:type" v="public" />
		<tag k="start_date" v="1976-01-01" />
	</node>
	<node id="-1828" lat="60.8293" lon="11.133">
		<tag k="amenity" v="kindergarten" />
		<tag k="capacity" v="30" />
		<tag k="contact:phone" v="62 56 30 00" />
		<tag k="max_age" v="5" />
		<tag k="min_age" v="1" />
		<tag k="name" v="Ingeberg barnehage" />
		<tag k="no-barnehage:nsrid" v="1017563" />
		<tag k="operator" v="Hamar kommune" />
		<tag k="operator:type" v="public" />
		<tag k="start_date" v="1988-04-01" />
	</node>
	<node id="-1827" lat="60.80197" lon="11.08943">
		<tag k="amenity" v="kindergarten" />
		<tag k="capacity" v="63" />
		<tag k="contact:email" v="hvbarne@online.no" />
		<tag k="contact:phone" v="62 51 98 88" />
		<tag k="max_age" v="5" />
		<tag k="min_age" v="1" />
		<tag k="name" v="Hvitveisen barnehage" />
		<tag k="no-barnehage:nsrid" v="1019886" />
		<tag k="operator" v="Hvitveisen barnehage Sa" />
		<tag k="operator:type" v="private" />
		<tag k="start_date" v="1990-01-01" />
	</node>
	<node id="-1826" lat="60.80185" lon="11.12161">
		<tag k="amenity" v="kindergarten" />
		<tag k="capacity" v="16" />
		<tag k="max_age" v="5" />
		<tag k="min_age" v="1" />
		<tag k="name" v="Hompetitten barnehage Ridabu AS" />
		<tag k="no-barnehage:nsrid" v="1022452" />
		<tag k="operator" v="Hompetitten barnehage Ridabu AS" />
		<tag k="operator:type" v="private" />
		<tag k="start_date" v="1996-08-01" />
	</node>
	<node id="-1825" lat="60.8162" lon="11.0431">
		<tag k="amenity" v="kindergarten" />
		<tag k="capacity" v="37" />
		<tag k="contact:phone" v="62 56 30 00" />
		<tag k="max_age" v="5" />
		<tag k="min_age" v="1" />
		<tag k="name" v="Hol barnehage" />
		<tag k="no-barnehage:nsrid" v="1017552" />
		<tag k="operator" v="Hamar kommune" />
		<tag k="operator:type" v="public" />
		<tag k="start_date" v="1988-04-01" />
	</node>
	<node id="-1824" lat="60.7996" lon="11.0921">
		<tag k="amenity" v="kindergarten" />
		<tag k="capacity" v="64" />
		<tag k="contact:phone" v="62 56 30 00" />
		<tag k="max_age" v="5" />
		<tag k="min_age" v="1" />
		<tag k="name" v="Hempa barnehage" />
		<tag k="no-barnehage:nsrid" v="1017362" />
		<tag k="operator" v="Hamar kommune" />
		<tag k="operator:type" v="public" />
		<tag k="start_date" v="1976-01-01" />
	</node>
	<node id="-1823" lat="60.79347" lon="11.08773">
		<tag k="amenity" v="kindergarten" />
		<tag k="capacity" v="65" />
		<tag k="contact:email" v="agle@broadpark.no" />
		<tag k="contact:phone" v="98484866" />
		<tag k="max_age" v="5" />
		<tag k="min_age" v="1" />
		<tag k="name" v="Hamarbarnehagen AS" />
		<tag k="no-barnehage:nsrid" v="1021980" />
		<tag k="operator" v="Hamarbarnehagen AS" />
		<tag k="operator:type" v="private" />
		<tag k="start_date" v="2009-06-29" />
	</node>
	<node id="-1822" lat="60.81202" lon="11.05679">
		<tag k="amenity" v="kindergarten" />
		<tag k="capacity" v="33" />
		<tag k="contact:phone" v="99717066" />
		<tag k="contact:website" v="http://www.hamarbooking.no" />
		<tag k="max_age" v="5" />
		<tag k="min_age" v="1" />
		<tag k="name" v="Hamar Gårdsbarnehage Solfrid Bjørge Goldsack" />
		<tag k="no-barnehage:nsrid" v="1021434" />
		<tag k="operator" v="Hamar Gårdsbarnehage Solfrid Bjørge Goldsack" />
		<tag k="operator:type" v="private" />
		<tag k="start_date" v="2006-01-01" />
	</node>
	<node id="-1821" lat="60.8113" lon="11.0364">
		<tag k="amenity" v="kindergarten" />
		<tag k="capacity" v="27" />
		<tag k="contact:phone" v="62 56 30 00" />
		<tag k="max_age" v="5" />
		<tag k="min_age" v="1" />
		<tag k="name" v="Furuberget barnehage" />
		<tag k="no-barnehage:nsrid" v="1017551" />
		<tag k="operator" v="Hamar kommune" />
		<tag k="operator:type" v="public" />
		<tag k="start_date" v="1988-04-01" />
	</node>
	<node id="-1820" lat="60.80989" lon="11.03274">
		<tag k="amenity" v="kindergarten" />
		<tag k="contact:email" v="juljor19@gmail.com" />
		<tag k="contact:phone" v="980 83 725" />
		<tag k="name" v="Frukthagen barnehage Jørgensen" />
		<tag k="no-barnehage:nsrid" v="1025954" />
		<tag k="operator" v="Frukthagen barnehage Jørgensen" />
		<tag k="operator:type" v="private" />
		<tag k="start_date" v="2015-05-13" />
	</node>
	<node id="-1819" lat="60.82813" lon="11.12279">
		<tag k="amenity" v="kindergarten" />
		<tag k="capacity" v="90" />
		<tag k="contact:phone" v="971 11 880" />
		<tag k="max_age" v="5" />
		<tag k="min_age" v="1" />
		<tag k="name" v="Flekkenga Natur- og Gårdsbarnehage AS" />
		<tag k="no-barnehage:nsrid" v="1022087" />
		<tag k="operator" v="Flekkenga Natur- og Gårdsbarnehage AS" />
		<tag k="operator:type" v="private" />
		<tag k="start_date" v="2008-08-01" />
	</node>
	<node id="-1818" lat="60.7918" lon="11.0845">
		<tag k="amenity" v="kindergarten" />
		<tag k="capacity" v="39" />
		<tag k="contact:email" v="bmintas@gmail.com" />
		<tag k="contact:phone" v="62 53 05 80" />
		<tag k="max_age" v="5" />
		<tag k="min_age" v="1" />
		<tag k="name" v="Briskebyen Montessori International AS" />
		<tag k="no-barnehage:nsrid" v="1022072" />
		<tag k="operator" v="Briskebyen Montessori International AS" />
		<tag k="operator:type" v="private" />
		<tag k="start_date" v="2003-01-01" />
	</node>
	<node id="-1817" lat="60.8012" lon="11.0582">
		<tag k="amenity" v="kindergarten" />
		<tag k="capacity" v="26" />
		<tag k="contact:phone" v="62 56 30 00" />
		<tag k="max_age" v="5" />
		<tag k="min_age" v="1" />
		<tag k="name" v="Brattbakken barnehage" />
		<tag k="no-barnehage:nsrid" v="1017361" />
		<tag k="operator" v="Hamar kommune" />
		<tag k="operator:type" v="public" />
		<tag k="start_date" v="1976-01-01" />
	</node>
	<node id="-1816" lat="60.80848" lon="11.03274">
		<tag k="amenity" v="kindergarten" />
		<tag k="capacity" v="54" />
		<tag k="contact:phone" v="62 55 58 90" />
		<tag k="contact:website" v="http://www.blaaveisen.com" />
		<tag k="max_age" v="5" />
		<tag k="min_age" v="1" />
		<tag k="name" v="Blåveisen barnehage" />
		<tag k="no-barnehage:nsrid" v="1020001" />
		<tag k="operator" v="Blåveisen barnehage Sa" />
		<tag k="operator:type" v="private" />
		<tag k="start_date" v="1991-07-01" />
	</node>
	<node id="-1815" lat="60.79917" lon="11.06045">
		<tag k="amenity" v="kindergarten" />
		<tag k="capacity" v="83" />
		<tag k="contact:phone" v="99 01 83 06" />
		<tag k="max_age" v="5" />
		<tag k="min_age" v="1" />
		<tag k="name" v="Bambini Montessoribarnehage AS" />
		<tag k="no-barnehage:nsrid" v="1020845" />
		<tag k="operator" v="Bambini Montessoribarnehage AS" />
		<tag k="operator:type" v="private" />
		<tag k="start_date" v="2002-09-24" />
	</node>
	<node id="-1814" lat="60.8012" lon="11.0678">
		<tag k="amenity" v="kindergarten" />
		<tag k="capacity" v="27" />
		<tag k="contact:phone" v="62 56 30 00" />
		<tag k="max_age" v="5" />
		<tag k="min_age" v="1" />
		<tag k="name" v="Ankerskogen barnehage" />
		<tag k="no-barnehage:nsrid" v="1014248" />
		<tag k="operator" v="Hamar kommune" />
		<tag k="operator:type" v="public" />
		<tag k="start_date" v="2011-01-01" />
	</node>
	<node id="-1813" lat="60.7988" lon="11.0738">
		<tag k="amenity" v="kindergarten" />
		<tag k="capacity" v="25" />
		<tag k="contact:phone" v="62 56 30 00" />
		<tag k="max_age" v="5" />
		<tag k="min_age" v="1" />
		<tag k="name" v="Ankerløkken barnehage" />
		<tag k="no-barnehage:nsrid" v="1017466" />
		<tag k="operator" v="Hamar kommune" />
		<tag k="operator:type" v="public" />
		<tag k="start_date" v="1982-01-01" />
	</node>
	<node id="-1811" lat="60.807" lon="11.0568">
		<tag k="amenity" v="kindergarten" />
		<tag k="capacity" v="43" />
		<tag k="contact:phone" v="62 56 30 00" />
		<tag k="max_age" v="5" />
		<tag k="min_age" v="1" />
		<tag k="name" v="Ajer barnehage" />
		<tag k="no-barnehage:nsrid" v="1017550" />
		<tag k="operator" v="Hamar kommune" />
		<tag k="operator:type" v="public" />
		<tag k="start_date" v="1988-04-01" />
	</node>
</osm>
