<?xml version="1.0" encoding="UTF-8"?>
<osm generator="osmapis" version="0.6">
	<node id="-4736" lat="61.80144" lon="9.55137">
		<tag k="ADDRESS" v="Kyrkjevegen 13, 2670 OTTA" />
		<tag k="amenity" v="kindergarten" />
		<tag k="capacity" v="19" />
		<tag k="max_age" v="5" />
		<tag k="min_age" v="1" />
		<tag k="name" v="Selsverket barnehage" />
		<tag k="no-barnehage:nsrid" v="1015934" />
		<tag k="operator" v="Sel kommune" />
		<tag k="operator:type" v="public" />
	</node>
	<node id="-4735" lat="61.85118" lon="9.4143">
		<tag k="ADDRESS" v="Skulevegen 3, 2672 SEL" />
		<tag k="amenity" v="kindergarten" />
		<tag k="capacity" v="22" />
		<tag k="max_age" v="5" />
		<tag k="min_age" v="1" />
		<tag k="name" v="Sel barnehage" />
		<tag k="no-barnehage:nsrid" v="1017949" />
		<tag k="operator" v="Sel kommune" />
		<tag k="operator:type" v="public" />
	</node>
	<node id="-4734" lat="61.71295" lon="9.54969">
		<tag k="ADDRESS" v="Gudbrandsdalsvegen 471, 2670 OTTA" />
		<tag k="amenity" v="kindergarten" />
		<tag k="capacity" v="17" />
		<tag k="max_age" v="5" />
		<tag k="min_age" v="1" />
		<tag k="name" v="Sandbu barnehage" />
		<tag k="no-barnehage:nsrid" v="1017950" />
		<tag k="operator" v="Sel kommune" />
		<tag k="operator:type" v="public" />
	</node>
	<node id="-4733" lat="61.76694" lon="9.53582">
		<tag k="ADDRESS" v="Sliperigata 2, 2670 OTTA" />
		<tag k="amenity" v="kindergarten" />
		<tag k="capacity" v="48" />
		<tag k="max_age" v="5" />
		<tag k="min_age" v="1" />
		<tag k="name" v="Ottbragden barnehage" />
		<tag k="no-barnehage:nsrid" v="1013932" />
		<tag k="operator" v="Sel kommune" />
		<tag k="operator:type" v="public" />
	</node>
	<node id="-4732" lat="61.75112" lon="9.32198">
		<tag k="ADDRESS" v="Heidalsvegen 1589, 2676 HEIDAL" />
		<tag k="amenity" v="kindergarten" />
		<tag k="capacity" v="49" />
		<tag k="max_age" v="5" />
		<tag k="min_age" v="1" />
		<tag k="name" v="Heidal barnehage" />
		<tag k="no-barnehage:nsrid" v="1025506" />
		<tag k="operator" v="Sel kommune" />
		<tag k="operator:type" v="public" />
	</node>
	<node id="-4731" lat="61.7742" lon="9.50154">
		<tag k="ADDRESS" v="Heggelund 26, 2670 OTTA" />
		<tag k="amenity" v="kindergarten" />
		<tag k="capacity" v="19" />
		<tag k="max_age" v="5" />
		<tag k="min_age" v="1" />
		<tag k="name" v="Heggelund barnehage" />
		<tag k="no-barnehage:nsrid" v="1017948" />
		<tag k="operator" v="Sel kommune" />
		<tag k="operator:type" v="public" />
	</node>
	<node id="-4738" lat="61.76818" lon="9.49864">
		<tag k="ADDRESS" v="Veggumsvegen 178, 2670 OTTA" />
		<tag k="amenity" v="kindergarten" />
		<tag k="capacity" v="18" />
		<tag k="max_age" v="5" />
		<tag k="min_age" v="1" />
		<tag k="name" v="Thoskogen naturbarnehage" />
		<tag k="no-barnehage:nsrid" v="1021983" />
		<tag k="operator" v="Thoskogen Naturbarnehage AS" />
		<tag k="operator:type" v="private" />
	</node>
	<node id="-4737" lat="61.77979" lon="9.53657">
		<tag k="ADDRESS" v="Selsvegen 100, 2670 OTTA" />
		<tag k="amenity" v="kindergarten" />
		<tag k="capacity" v="40" />
		<tag k="contact:website" v="http://www.smurfebarn.no" />
		<tag k="max_age" v="5" />
		<tag k="min_age" v="1" />
		<tag k="name" v="Smurfen barnehage Otta" />
		<tag k="no-barnehage:nsrid" v="1022250" />
		<tag k="operator" v="Smurfen barnehage Otta AS" />
		<tag k="operator:type" v="private" />
	</node>
</osm>
