<?xml version="1.0" encoding="UTF-8"?>
<osm version="0.6" generator="osmapis">
	<node lat="0.0" lon="0.0" id="-1590">
		<tag k="ADDRESS" v="Bufjellvegen 3A, 8410 LØDINGEN" />
		<tag k="amenity" v="kindergarten" />
		<tag k="capacity" v="51" />
		<tag k="contact:website" v="http://laringsverkstedet.no/barnehage/lodingen" />
		<tag k="max_age" v="5" />
		<tag k="min_age" v="1" />
		<tag k="name" v="Læringsverkstedet Lødingen barnehage" />
		<tag k="no-barnehage:nsrid" v="874050512" />
		<tag k="operator" v="Læringsverkstedet Lødingen barnehage AS" />
		<tag k="operator:type" v="private" />
	</node>
	<node lat="0.0" lon="0.0" id="-1591">
		<tag k="ADDRESS" v="Vågehamn, 8412 VESTBYGD" />
		<tag k="amenity" v="kindergarten" />
		<tag k="capacity" v="8" />
		<tag k="max_age" v="5" />
		<tag k="min_age" v="1" />
		<tag k="name" v="Vestbygd barnehage" />
		<tag k="no-barnehage:nsrid" v="974050501" />
		<tag k="operator" v="Lødingen kommune" />
		<tag k="operator:type" v="public" />
	</node>
</osm>
