<?xml version="1.0" encoding="UTF-8"?>
<osm generator="osmapis" version="0.6">
	<node id="-4287" lat="60.56779" lon="5.053916">
		<tag k="amenity" v="kindergarten" />
		<tag k="capacity" v="44" />
		<tag k="contact:email" v="leirdalen@barnehage.no" />
		<tag k="contact:phone" v="56 17 93 60" />
		<tag k="max_age" v="5" />
		<tag k="min_age" v="1" />
		<tag k="name" v="Leirdalen barnehage Sa" />
		<tag k="no-barnehage:nsrid" v="1021205" />
		<tag k="operator" v="Leirdalen barnehage Sa" />
		<tag k="operator:type" v="private" />
		<tag k="start_date" v="2005-01-04" />
	</node>
	<node id="-4286" lat="60.51194" lon="5.239714">
		<tag k="amenity" v="kindergarten" />
		<tag k="capacity" v="96" />
		<tag k="contact:phone" v="56 17 67 01" />
		<tag k="max_age" v="5" />
		<tag k="min_age" v="1" />
		<tag k="name" v="Leiketun barnehage AS" />
		<tag k="no-barnehage:nsrid" v="1021369" />
		<tag k="operator" v="Leiketun barnehage AS" />
		<tag k="operator:type" v="private" />
		<tag k="start_date" v="1979-09-21" />
	</node>
	<node id="-4285" lat="60.51194" lon="5.239714">
		<tag k="amenity" v="kindergarten" />
		<tag k="capacity" v="96" />
		<tag k="contact:email" v="post@espira.no" />
		<tag k="contact:phone" v="52 84 50 20" />
		<tag k="contact:website" v="http://www.espira.no" />
		<tag k="max_age" v="5" />
		<tag k="min_age" v="1" />
		<tag k="name" v="Espira Marthahaugen barnehage" />
		<tag k="no-barnehage:nsrid" v="1021489" />
		<tag k="operator" v="Espira Marthahaugen AS" />
		<tag k="operator:type" v="private" />
		<tag k="start_date" v="2006-07-27" />
	</node>
	<node id="-4284" lat="60.50917" lon="5.222702">
		<tag k="amenity" v="kindergarten" />
		<tag k="capacity" v="130" />
		<tag k="contact:email" v="post@drommehagen.net" />
		<tag k="contact:phone" v="47 97 93 00" />
		<tag k="contact:website" v="http://www.facebook.com/DrommehagenBarnehage" />
		<tag k="max_age" v="5" />
		<tag k="min_age" v="1" />
		<tag k="name" v="Drømmehagen barnehage AS" />
		<tag k="no-barnehage:nsrid" v="1022232" />
		<tag k="operator" v="Drømmehagen barnehage AS" />
		<tag k="operator:type" v="private" />
		<tag k="start_date" v="2011-12-06" />
	</node>
	<node id="-4283" lat="60.53365" lon="5.15634">
		<tag k="amenity" v="kindergarten" />
		<tag k="capacity" v="120" />
		<tag k="contact:phone" v="56 17 74 90" />
		<tag k="max_age" v="5" />
		<tag k="min_age" v="1" />
		<tag k="name" v="Blåklokka barnehage" />
		<tag k="no-barnehage:nsrid" v="1021577" />
		<tag k="operator" v="Blåklokka barnehage AS" />
		<tag k="operator:type" v="private" />
		<tag k="start_date" v="1982-01-01" />
	</node>
	<node id="-4291" lat="60.5172" lon="5.24309">
		<tag k="amenity" v="kindergarten" />
		<tag k="capacity" v="30" />
		<tag k="contact:phone" v="56 17 13 80" />
		<tag k="max_age" v="5" />
		<tag k="min_age" v="1" />
		<tag k="name" v="Marihøna barnehage" />
		<tag k="no-barnehage:nsrid" v="1018125" />
		<tag k="operator" v="Meland kommune" />
		<tag k="operator:type" v="public" />
		<tag k="start_date" v="1989-01-01" />
	</node>
	<node id="-4290" lat="60.5103" lon="5.22496">
		<tag k="amenity" v="kindergarten" />
		<tag k="capacity" v="50" />
		<tag k="contact:email" v="maurtua@laringsverkstedet.no" />
		<tag k="contact:phone" v="96613235" />
		<tag k="contact:website" v="http://www.laringsverkstedet.no/maurtua" />
		<tag k="max_age" v="5" />
		<tag k="min_age" v="1" />
		<tag k="name" v="Læringsverkstedet Maurtua AS" />
		<tag k="no-barnehage:nsrid" v="1016395" />
		<tag k="operator" v="Læringsverkstedet Maurtua AS" />
		<tag k="operator:type" v="private" />
		<tag k="start_date" v="2002-06-07" />
	</node>
	<node id="-4289" lat="60.5366" lon="5.26311">
		<tag k="amenity" v="kindergarten" />
		<tag k="capacity" v="21" />
		<tag k="contact:phone" v="56 17 78 99" />
		<tag k="max_age" v="5" />
		<tag k="min_age" v="1" />
		<tag k="name" v="Læringsverkstedet barnehage Avd Flatøy" />
		<tag k="no-barnehage:nsrid" v="1016770" />
		<tag k="operator" v="Læringsverkstedet AS" />
		<tag k="operator:type" v="private" />
		<tag k="start_date" v="1978-11-30" />
	</node>
</osm>
