<?xml version="1.0" encoding="UTF-8"?>
<osm generator="osmapis" version="0.6">
	<node id="-4255" lat="69.9581" lon="23.24803">
		<tag k="ADDRESS" v="Skoleåsen 81, 9513 ALTA" />
		<tag k="amenity" v="kindergarten" />
		<tag k="capacity" v="42" />
		<tag k="max_age" v="5" />
		<tag k="min_age" v="1" />
		<tag k="name" v="Åsen barnehage" />
		<tag k="no-barnehage:nsrid" v="1019883" />
		<tag k="operator" v="Stiftelsen Åsen barnehage" />
		<tag k="operator:type" v="private" />
	</node>
	<node id="-4254" lat="69.92454" lon="23.49138">
		<tag k="ADDRESS" v="Sønvisskogen, 9517 ALTA" />
		<tag k="amenity" v="kindergarten" />
		<tag k="capacity" v="41" />
		<tag k="max_age" v="5" />
		<tag k="min_age" v="1" />
		<tag k="name" v="Tverrelvdalen barnehage" />
		<tag k="no-barnehage:nsrid" v="1016225" />
		<tag k="operator" v="Alta kommune" />
		<tag k="operator:type" v="public" />
	</node>
	<node id="-4253" lat="70.04199" lon="22.94537">
		<tag k="ADDRESS" v="Mellomgjerdet 7, 9540 TALVIK" />
		<tag k="amenity" v="kindergarten" />
		<tag k="capacity" v="19" />
		<tag k="max_age" v="5" />
		<tag k="min_age" v="1" />
		<tag k="name" v="Talvik barnehage" />
		<tag k="no-barnehage:nsrid" v="1013722" />
		<tag k="operator" v="Alta kommune" />
		<tag k="operator:type" v="public" />
	</node>
	<node id="-4252" lat="69.97428" lon="23.34769">
		<tag k="ADDRESS" v="Altaveien 214, 9515 ALTA" />
		<tag k="amenity" v="kindergarten" />
		<tag k="capacity" v="43" />
		<tag k="contact:website" v="http://www.snehvit.barnehageside.no" />
		<tag k="max_age" v="5" />
		<tag k="min_age" v="1" />
		<tag k="name" v="Snehvit barnehage" />
		<tag k="no-barnehage:nsrid" v="1020024" />
		<tag k="operator" v="Snehvit barnehage AS" />
		<tag k="operator:type" v="private" />
	</node>
	<node id="-4251" lat="69.97224" lon="23.28673">
		<tag k="ADDRESS" v="Skoleveien 51, 9510 ALTA" />
		<tag k="amenity" v="kindergarten" />
		<tag k="capacity" v="61" />
		<tag k="max_age" v="5" />
		<tag k="min_age" v="1" />
		<tag k="name" v="Sentrum barnehage" />
		<tag k="no-barnehage:nsrid" v="1013721" />
		<tag k="operator" v="Alta kommune" />
		<tag k="operator:type" v="public" />
	</node>
	<node id="-4250" lat="69.96053" lon="23.41315">
		<tag k="ADDRESS" v="Saga 5, 9517 ALTA" />
		<tag k="amenity" v="kindergarten" />
		<tag k="capacity" v="71" />
		<tag k="contact:website" v="http://www.sagabarnehage.no/" />
		<tag k="max_age" v="5" />
		<tag k="min_age" v="1" />
		<tag k="name" v="Saga barnehage" />
		<tag k="no-barnehage:nsrid" v="1013055" />
		<tag k="operator" v="Alta kommune" />
		<tag k="operator:type" v="public" />
	</node>
	<node id="-4249" lat="69.97222" lon="23.36367">
		<tag k="ADDRESS" v="Altagårdsveien 55, 9515 ALTA" />
		<tag k="amenity" v="kindergarten" />
		<tag k="capacity" v="38" />
		<tag k="contact:website" v="http://www.rishaugenbarnehage.no" />
		<tag k="max_age" v="5" />
		<tag k="min_age" v="1" />
		<tag k="name" v="Rishaugen barnehage" />
		<tag k="no-barnehage:nsrid" v="1020010" />
		<tag k="operator" v="Rishaugen barnehage Sa" />
		<tag k="operator:type" v="private" />
	</node>
	<node id="-4248" lat="0.0" lon="0.0">
		<tag k="ADDRESS" v="Rafsbotn, 9517 ALTA" />
		<tag k="amenity" v="kindergarten" />
		<tag k="capacity" v="16" />
		<tag k="max_age" v="5" />
		<tag k="min_age" v="1" />
		<tag k="name" v="Rafsbotn barnehage" />
		<tag k="no-barnehage:nsrid" v="1014761" />
		<tag k="operator" v="Alta kommune" />
		<tag k="operator:type" v="public" />
	</node>
	<node id="-4247" lat="69.94984" lon="23.20454">
		<tag k="ADDRESS" v="Oterfaret 41, 9512 ALTA" />
		<tag k="amenity" v="kindergarten" />
		<tag k="capacity" v="55" />
		<tag k="max_age" v="5" />
		<tag k="min_age" v="1" />
		<tag k="name" v="Oterfaret barnehage" />
		<tag k="no-barnehage:nsrid" v="1017869" />
		<tag k="operator" v="Alta kommune" />
		<tag k="operator:type" v="public" />
	</node>
	<node id="-4246" lat="69.96908" lon="23.28391">
		<tag k="ADDRESS" v="Follumsvei 27, 9510 ALTA" />
		<tag k="amenity" v="kindergarten" />
		<tag k="capacity" v="45" />
		<tag k="contact:website" v="http://samskipnaden.no/alta/nyland-studentbarnehage" />
		<tag k="max_age" v="5" />
		<tag k="min_age" v="1" />
		<tag k="name" v="Nyland studentbarnehage" />
		<tag k="no-barnehage:nsrid" v="1025307" />
		<tag k="operator" v="Norges Arktiske Studentsamskipnad" />
		<tag k="operator:type" v="private" />
	</node>
	<node id="-4245" lat="69.95673" lon="23.23031">
		<tag k="ADDRESS" v="Vesterhaugveien 23, 9513 ALTA" />
		<tag k="amenity" v="kindergarten" />
		<tag k="capacity" v="53" />
		<tag k="max_age" v="5" />
		<tag k="min_age" v="1" />
		<tag k="name" v="Læringsverkstedet barnehage avd. Tornerose barnehage" />
		<tag k="no-barnehage:nsrid" v="1020109" />
		<tag k="operator" v="Læringsverkstedet AS" />
		<tag k="operator:type" v="private" />
	</node>
	<node id="-4244" lat="0.0" lon="0.0">
		<tag k="ADDRESS" v=", 9519 KVIBY" />
		<tag k="amenity" v="kindergarten" />
		<tag k="capacity" v="5" />
		<tag k="max_age" v="5" />
		<tag k="min_age" v="3" />
		<tag k="name" v="Leirbotn barnehage" />
		<tag k="no-barnehage:nsrid" v="1014762" />
		<tag k="operator" v="Alta kommune" />
		<tag k="operator:type" v="public" />
	</node>
	<node id="-4243" lat="0.0" lon="0.0">
		<tag k="ADDRESS" v=", 9545 LANGFJORDBOTN" />
		<tag k="amenity" v="kindergarten" />
		<tag k="name" v="Langfjordbotn Barnetilbud" />
		<tag k="no-barnehage:nsrid" v="1019523" />
		<tag k="operator" v="Alta kommune" />
		<tag k="operator:type" v="public" />
	</node>
	<node id="-4242" lat="70.03943" lon="22.26667">
		<tag k="ADDRESS" v="Biveien 25, 9545 LANGFJORDBOTN" />
		<tag k="amenity" v="kindergarten" />
		<tag k="capacity" v="8" />
		<tag k="max_age" v="5" />
		<tag k="min_age" v="1" />
		<tag k="name" v="Langfjord Steinerbarnehage" />
		<tag k="no-barnehage:nsrid" v="2000603" />
		<tag k="operator" v="Langfjord Steinerbarnehage" />
		<tag k="operator:type" v="private" />
	</node>
	<node id="-4241" lat="69.96521" lon="23.37444">
		<tag k="ADDRESS" v="Spireaveien 27, 9515 ALTA" />
		<tag k="amenity" v="kindergarten" />
		<tag k="capacity" v="42" />
		<tag k="max_age" v="5" />
		<tag k="min_age" v="1" />
		<tag k="name" v="Kronstad barnehage" />
		<tag k="no-barnehage:nsrid" v="1013720" />
		<tag k="operator" v="Alta kommune" />
		<tag k="operator:type" v="public" />
	</node>
	<node id="-4240" lat="0.0" lon="0.0">
		<tag k="ADDRESS" v=", 9536 KORSFJORDEN" />
		<tag k="amenity" v="kindergarten" />
		<tag k="name" v="Korsfjord barnehage" />
		<tag k="no-barnehage:nsrid" v="1019524" />
		<tag k="operator" v="Alta kommune" />
		<tag k="operator:type" v="public" />
	</node>
	<node id="-4239" lat="69.9789" lon="23.28999">
		<tag k="ADDRESS" v="Komsahøyden 5, 9511 ALTA" />
		<tag k="amenity" v="kindergarten" />
		<tag k="capacity" v="37" />
		<tag k="contact:website" v="http://www.komsatoppen.no" />
		<tag k="max_age" v="5" />
		<tag k="min_age" v="1" />
		<tag k="name" v="Komsatoppen barnehage" />
		<tag k="no-barnehage:nsrid" v="1022444" />
		<tag k="operator" v="Komsatoppen barnehage AS" />
		<tag k="operator:type" v="private" />
	</node>
	<node id="-4238" lat="69.95612" lon="23.37321">
		<tag k="ADDRESS" v="Myrullveien 2, 9516 ALTA" />
		<tag k="amenity" v="kindergarten" />
		<tag k="capacity" v="62" />
		<tag k="max_age" v="5" />
		<tag k="min_age" v="1" />
		<tag k="name" v="Kaiskuru barnehage" />
		<tag k="no-barnehage:nsrid" v="1016888" />
		<tag k="operator" v="Alta kommune" />
		<tag k="operator:type" v="public" />
	</node>
	<node id="-4237" lat="69.97214" lon="23.2745">
		<tag k="ADDRESS" v="Midtbakkveien 53, 9511 ALTA" />
		<tag k="amenity" v="kindergarten" />
		<tag k="name" v="Imi barnehage avd. Komsabasen" />
		<tag k="no-barnehage:nsrid" v="1020329" />
		<tag k="operator" v="Stiftelsen Imi barnehage" />
		<tag k="operator:type" v="private" />
	</node>
	<node id="-4236" lat="69.96382" lon="23.24402">
		<tag k="ADDRESS" v="Bakkeveien 11, 9513 ALTA" />
		<tag k="amenity" v="kindergarten" />
		<tag k="capacity" v="68" />
		<tag k="contact:website" v="http://www.imi-barnehage.no" />
		<tag k="max_age" v="5" />
		<tag k="min_age" v="1" />
		<tag k="name" v="Imi barnehage avd. Bakkeveien" />
		<tag k="no-barnehage:nsrid" v="1016193" />
		<tag k="operator" v="Stiftelsen Imi barnehage" />
		<tag k="operator:type" v="private" />
	</node>
	<node id="-4235" lat="69.95782" lon="23.24544">
		<tag k="ADDRESS" v="Holtenalleen 3, 9513 ALTA" />
		<tag k="amenity" v="kindergarten" />
		<tag k="capacity" v="29" />
		<tag k="max_age" v="5" />
		<tag k="min_age" v="1" />
		<tag k="name" v="Holten barnehage" />
		<tag k="no-barnehage:nsrid" v="1019666" />
		<tag k="operator" v="Stiftelsen Holten barnehage" />
		<tag k="operator:type" v="private" />
	</node>
	<node id="-4234" lat="69.94077" lon="23.28719">
		<tag k="ADDRESS" v="Holmen 46, 9518 ALTA" />
		<tag k="amenity" v="kindergarten" />
		<tag k="capacity" v="27" />
		<tag k="contact:website" v="http://www.holmen.barnehage.no" />
		<tag k="max_age" v="5" />
		<tag k="min_age" v="1" />
		<tag k="name" v="Holmen gårds og naturbarnehage" />
		<tag k="no-barnehage:nsrid" v="1021988" />
		<tag k="operator" v="Holmen Gårds og Naturbarnehage AS" />
		<tag k="operator:type" v="private" />
	</node>
	<node id="-4233" lat="69.96845" lon="23.26704">
		<tag k="ADDRESS" v="Maskinsvingen 9, 9511 ALTA" />
		<tag k="amenity" v="kindergarten" />
		<tag k="capacity" v="23" />
		<tag k="contact:website" v="http://guovddas.altabarnehagene.no" />
		<tag k="max_age" v="5" />
		<tag k="min_age" v="1" />
		<tag k="name" v="Guovddá¿ Mánáidgárdi Samisk barnehage" />
		<tag k="no-barnehage:nsrid" v="1013719" />
		<tag k="operator" v="Alta kommune" />
		<tag k="operator:type" v="public" />
	</node>
	<node id="-4232" lat="69.9515" lon="23.22377">
		<tag k="ADDRESS" v="Gakoriveien 32, 9512 ALTA" />
		<tag k="amenity" v="kindergarten" />
		<tag k="max_age" v="5" />
		<tag k="min_age" v="1" />
		<tag k="name" v="Gakori barnehage" />
		<tag k="no-barnehage:nsrid" v="1013718" />
		<tag k="operator" v="Alta kommune" />
		<tag k="operator:type" v="public" />
	</node>
	<node id="-4231" lat="69.95265" lon="23.20645">
		<tag k="ADDRESS" v="Furuly 23, 9512 ALTA" />
		<tag k="amenity" v="kindergarten" />
		<tag k="capacity" v="63" />
		<tag k="max_age" v="5" />
		<tag k="min_age" v="1" />
		<tag k="name" v="Furuly kulturbarnehage" />
		<tag k="no-barnehage:nsrid" v="1015511" />
		<tag k="operator" v="Betania Alta" />
		<tag k="operator:type" v="private" />
	</node>
	<node id="-4230" lat="69.97342" lon="23.35521">
		<tag k="ADDRESS" v="Altaveien 220c, 9515 ALTA" />
		<tag k="amenity" v="kindergarten" />
		<tag k="capacity" v="66" />
		<tag k="max_age" v="5" />
		<tag k="min_age" v="1" />
		<tag k="name" v="Furua barnehage" />
		<tag k="no-barnehage:nsrid" v="1020869" />
		<tag k="operator" v="Furua barnehage AS" />
		<tag k="operator:type" v="private" />
	</node>
	<node id="-4229" lat="69.95708" lon="23.23773">
		<tag k="ADDRESS" v="Thomasbakkveien 22b, 9513 ALTA" />
		<tag k="amenity" v="kindergarten" />
		<tag k="capacity" v="43" />
		<tag k="contact:website" v="http://www.breverud-barnehage.no" />
		<tag k="max_age" v="5" />
		<tag k="min_age" v="1" />
		<tag k="name" v="Breverud barnehage" />
		<tag k="no-barnehage:nsrid" v="1022174" />
		<tag k="operator" v="Breverud barnehage AS" />
		<tag k="operator:type" v="private" />
	</node>
	<node id="-4228" lat="0.0" lon="0.0">
		<tag k="ADDRESS" v=", 9511 ALTA" />
		<tag k="amenity" v="kindergarten" />
		<tag k="capacity" v="61" />
		<tag k="max_age" v="5" />
		<tag k="min_age" v="1" />
		<tag k="name" v="Breidablikk barnehage" />
		<tag k="no-barnehage:nsrid" v="1016517" />
		<tag k="operator" v="Alta kommune" />
		<tag k="operator:type" v="public" />
	</node>
	<node id="-4227" lat="69.95615" lon="23.23955">
		<tag k="ADDRESS" v="Thomasbakkveien 26, 9513 ALTA" />
		<tag k="amenity" v="kindergarten" />
		<tag k="capacity" v="34" />
		<tag k="max_age" v="5" />
		<tag k="min_age" v="1" />
		<tag k="name" v="Bossekop barnehage" />
		<tag k="no-barnehage:nsrid" v="1020970" />
		<tag k="operator" v="Bossekop barnehage AS" />
		<tag k="operator:type" v="private" />
	</node>
	<node id="-4226" lat="69.97485" lon="23.30487">
		<tag k="ADDRESS" v="Holstbakkveien, 9514 ALTA" />
		<tag k="amenity" v="kindergarten" />
		<tag k="capacity" v="57" />
		<tag k="contact:website" v="http://www.aronnes.altabarnehagene.no" />
		<tag k="max_age" v="5" />
		<tag k="min_age" v="1" />
		<tag k="name" v="Aronnes barnehage" />
		<tag k="no-barnehage:nsrid" v="1016167" />
		<tag k="operator" v="Alta kommune" />
		<tag k="operator:type" v="public" />
	</node>
	<node id="-4225" lat="69.97182" lon="23.29234">
		<tag k="ADDRESS" v="Nøkkelstien 2, 9510 ALTA" />
		<tag k="amenity" v="kindergarten" />
		<tag k="capacity" v="51" />
		<tag k="contact:website" v="http://www.altasiida.barnehage.no" />
		<tag k="max_age" v="5" />
		<tag k="min_age" v="1" />
		<tag k="name" v="Áltta Siida" />
		<tag k="no-barnehage:nsrid" v="1021191" />
		<tag k="operator" v="Áltta Siida AS" />
		<tag k="operator:type" v="private" />
	</node>
</osm>
