<?xml version="1.0" encoding="UTF-8"?>
<osm generator="osmapis" version="0.6">
	<node id="-4602" lat="60.67725" lon="4.99442">
		<tag k="ADDRESS" v="Grindheimsvegen 127, 5936 MANGER" />
		<tag k="amenity" v="kindergarten" />
		<tag k="capacity" v="8" />
		<tag k="max_age" v="5" />
		<tag k="min_age" v="1" />
		<tag k="name" v="Grindheim familie- og gardsbarnehage" />
		<tag k="no-barnehage:nsrid" v="917114641" />
		<tag k="operator" v="Grindheim Familie- og Gardsbarnehage AS" />
		<tag k="operator:type" v="private" />
	</node>
	<node id="-4617" lat="60.57204" lon="5.22191">
		<tag k="ADDRESS" v="Leitet 3, 5911 ALVERSUND" />
		<tag k="amenity" v="kindergarten" />
		<tag k="capacity" v="10" />
		<tag k="contact:website" v="http://Smilehulletfamiliebarnehage" />
		<tag k="max_age" v="5" />
		<tag k="min_age" v="1" />
		<tag k="name" v="Smilehullet familiebarnehage/ Anne-mari Arnesen" />
		<tag k="no-barnehage:nsrid" v="880928422" />
		<tag k="operator" v="Smilehullet Familiebarnehage/ Anne-Mari Arnesen" />
		<tag k="operator:type" v="private" />
	</node>
	<node id="-4621" lat="60.73392" lon="5.16102">
		<tag k="ADDRESS" v="Veråsvegen 68, 5955 LINDÅS" />
		<tag k="amenity" v="kindergarten" />
		<tag k="capacity" v="8" />
		<tag k="max_age" v="5" />
		<tag k="min_age" v="1" />
		<tag k="name" v="Wilhaven" />
		<tag k="no-barnehage:nsrid" v="973800523" />
		<tag k="operator" v="Wilhaven AS" />
		<tag k="operator:type" v="private" />
	</node>
</osm>
