<?xml version="1.0" encoding="UTF-8"?>
<osm version="0.6" generator="osmapis">
	<node lat="60.69184" lon="5.03224" id="-4423">
		<tag k="ADDRESS" v="Slettevegen 872, 5939 SLETTA" />
		<tag k="amenity" v="kindergarten" />
		<tag k="capacity" v="19" />
		<tag k="max_age" v="5" />
		<tag k="min_age" v="1" />
		<tag k="name" v="Austebygd barnehage" />
		<tag k="no-barnehage:nsrid" v="975297276" />
		<tag k="operator" v="Alver kommune" />
		<tag k="operator:type" v="public" />
	</node>
	<node lat="60.65807" lon="5.34496" id="-4424">
		<tag k="ADDRESS" v="Mykingvegen 642, 5913 EIKANGERVÅG" />
		<tag k="amenity" v="kindergarten" />
		<tag k="capacity" v="23" />
		<tag k="contact:website" v="http://www.facebook.com/barnas.barnehage.klovheim/" />
		<tag k="max_age" v="5" />
		<tag k="min_age" v="1" />
		<tag k="name" v="Barnas barnehage Kløvheim" />
		<tag k="no-barnehage:nsrid" v="985787220" />
		<tag k="operator" v="Kløvheim naturbarnehage AS" />
		<tag k="operator:type" v="private" />
	</node>
	<node lat="60.53365" lon="5.15633" id="-4425">
		<tag k="ADDRESS" v="Melandsvegen 38, 5919 FREKHAUG" />
		<tag k="amenity" v="kindergarten" />
		<tag k="capacity" v="84" />
		<tag k="contact:website" v="http://www.blaklokka.barnehage.no" />
		<tag k="max_age" v="5" />
		<tag k="min_age" v="1" />
		<tag k="name" v="Blåklokka barnehage" />
		<tag k="no-barnehage:nsrid" v="973383469" />
		<tag k="operator" v="Blåklokka barnehage AS" />
		<tag k="operator:type" v="private" />
	</node>
	<node lat="0.0" lon="0.0" id="-4426">
		<tag k="ADDRESS" v="Nordbøvegen 67, 5937 BØVÅGEN" />
		<tag k="amenity" v="kindergarten" />
		<tag k="capacity" v="50" />
		<tag k="max_age" v="5" />
		<tag k="min_age" v="1" />
		<tag k="name" v="Bø barnehage" />
		<tag k="no-barnehage:nsrid" v="975309231" />
		<tag k="operator" v="Alver kommune" />
		<tag k="operator:type" v="public" />
	</node>
	<node lat="60.51072" lon="5.22307" id="-4427">
		<tag k="ADDRESS" v="Floghaugane 61, 5918 FREKHAUG" />
		<tag k="amenity" v="kindergarten" />
		<tag k="capacity" v="147" />
		<tag k="contact:website" v="http://www.drommehagenbarnehage.no" />
		<tag k="max_age" v="5" />
		<tag k="min_age" v="1" />
		<tag k="name" v="Drømmehagen barnehage" />
		<tag k="no-barnehage:nsrid" v="997702883" />
		<tag k="operator" v="Drømmehagen barnehage AS" />
		<tag k="operator:type" v="private" />
	</node>
	<node lat="60.54955" lon="5.21209" id="-4428">
		<tag k="ADDRESS" v="Ådlandsvegen 325, 5919 FREKHAUG" />
		<tag k="amenity" v="kindergarten" />
		<tag k="capacity" v="68" />
		<tag k="contact:website" v="http://marthahaugen.espira.no" />
		<tag k="max_age" v="5" />
		<tag k="min_age" v="1" />
		<tag k="name" v="Espira Marthahaugen barnehage" />
		<tag k="no-barnehage:nsrid" v="990106649" />
		<tag k="operator" v="Espira Marthahaugen AS" />
		<tag k="operator:type" v="private" />
	</node>
	<node lat="0.0" lon="0.0" id="-4429">
		<tag k="ADDRESS" v="BRUVEGEN 8, 5914 ISDALSTØ" />
		<tag k="amenity" v="kindergarten" />
		<tag k="capacity" v="35" />
		<tag k="max_age" v="5" />
		<tag k="min_age" v="1" />
		<tag k="name" v="Haugen barnehage" />
		<tag k="no-barnehage:nsrid" v="973965204" />
		<tag k="operator" v="Alver kommune" />
		<tag k="operator:type" v="public" />
	</node>
	<node lat="60.68193" lon="5.22454" id="-4430">
		<tag k="ADDRESS" v="Hundvinsvegen 5, 5956 HUNDVIN" />
		<tag k="amenity" v="kindergarten" />
		<tag k="capacity" v="27" />
		<tag k="contact:website" v="http://www.facebook.com/Barnas-Barnehage-Hundvin-143327779018513/" />
		<tag k="max_age" v="5" />
		<tag k="min_age" v="1" />
		<tag k="name" v="Hundvin naturbarnehage" />
		<tag k="no-barnehage:nsrid" v="989628089" />
		<tag k="operator" v="Hundvin naturbarnehage AS" />
		<tag k="operator:type" v="private" />
	</node>
	<node lat="60.55308" lon="5.28211" id="-4431">
		<tag k="ADDRESS" v="Lonsvegen 140, 5916 ISDALSTØ" />
		<tag k="amenity" v="kindergarten" />
		<tag k="capacity" v="101" />
		<tag k="max_age" v="5" />
		<tag k="min_age" v="1" />
		<tag k="name" v="Juvikstølen barnehage" />
		<tag k="no-barnehage:nsrid" v="991555749" />
		<tag k="operator" v="Alver kommune" />
		<tag k="operator:type" v="public" />
	</node>
	<node lat="60.55093" lon="5.29231" id="-4432">
		<tag k="ADDRESS" v="Lonsvegen 76, 5914 ISDALSTØ" />
		<tag k="amenity" v="kindergarten" />
		<tag k="capacity" v="110" />
		<tag k="contact:website" v="http://www.knarvikbarnehage.no" />
		<tag k="max_age" v="5" />
		<tag k="min_age" v="1" />
		<tag k="name" v="Knarvik barnehage" />
		<tag k="no-barnehage:nsrid" v="973383477" />
		<tag k="operator" v="Knarvik barnehage AS" />
		<tag k="operator:type" v="private" />
	</node>
	<node lat="60.51323" lon="5.23934" id="-4433">
		<tag k="ADDRESS" v="Holtermandsvegen 2B, 5918 FREKHAUG" />
		<tag k="amenity" v="kindergarten" />
		<tag k="capacity" v="88" />
		<tag k="max_age" v="5" />
		<tag k="min_age" v="1" />
		<tag k="name" v="Leiketun barnehage" />
		<tag k="no-barnehage:nsrid" v="973356550" />
		<tag k="operator" v="Leiketun barnehage AS" />
		<tag k="operator:type" v="private" />
	</node>
	<node lat="60.5729" lon="5.37707" id="-4434">
		<tag k="ADDRESS" v="Storneset 1, 5915 HJELMÅS" />
		<tag k="amenity" v="kindergarten" />
		<tag k="capacity" v="74" />
		<tag k="max_age" v="5" />
		<tag k="min_age" v="1" />
		<tag k="name" v="Leiknes FUS barnehage" />
		<tag k="no-barnehage:nsrid" v="986286683" />
		<tag k="operator" v="Leiknes Fus barnehage AS" />
		<tag k="operator:type" v="private" />
	</node>
	<node lat="60.55764" lon="5.05062" id="-4435">
		<tag k="ADDRESS" v="Ievegen 2, 5917 ROSSLAND" />
		<tag k="amenity" v="kindergarten" />
		<tag k="capacity" v="42" />
		<tag k="contact:website" v="http://leirdalen.barnehage.no" />
		<tag k="max_age" v="5" />
		<tag k="min_age" v="1" />
		<tag k="name" v="Leirdalen barnehage" />
		<tag k="no-barnehage:nsrid" v="888021442" />
		<tag k="operator" v="Leirdalen barnehage SA" />
		<tag k="operator:type" v="private" />
	</node>
	<node lat="60.73331" lon="5.16767" id="-4436">
		<tag k="ADDRESS" v="Fjellangersvingane 350, 5955 LINDÅS" />
		<tag k="amenity" v="kindergarten" />
		<tag k="capacity" v="51" />
		<tag k="max_age" v="5" />
		<tag k="min_age" v="1" />
		<tag k="name" v="Lindås barnehage" />
		<tag k="no-barnehage:nsrid" v="973965220" />
		<tag k="operator" v="Alver kommune" />
		<tag k="operator:type" v="public" />
	</node>
	<node lat="60.5812" lon="5.21289" id="-4437">
		<tag k="ADDRESS" v="Soltveitvegen 53, 5911 ALVERSUND" />
		<tag k="amenity" v="kindergarten" />
		<tag k="capacity" v="18" />
		<tag k="contact:website" v="http://www.facebook.com/lykkelitenbarnehage.alver" />
		<tag k="max_age" v="5" />
		<tag k="min_age" v="1" />
		<tag k="name" v="Lykkeliten barnehage" />
		<tag k="no-barnehage:nsrid" v="989981544" />
		<tag k="operator" v="Nordhordland barnehage AS" />
		<tag k="operator:type" v="private" />
	</node>
	<node lat="60.56485" lon="5.24421" id="-4438">
		<tag k="ADDRESS" v="Alvermarka 41, 5911 ALVERSUND" />
		<tag k="amenity" v="kindergarten" />
		<tag k="capacity" v="56" />
		<tag k="contact:website" v="http://laringsverkstedet.no/barnehage/alversund-montesorribarnehage" />
		<tag k="max_age" v="5" />
		<tag k="min_age" v="1" />
		<tag k="name" v="Læringsverkstedet Alversund barnehage" />
		<tag k="no-barnehage:nsrid" v="973484257" />
		<tag k="operator" v="Læringsverkstedet Alversund barnehage AS" />
		<tag k="operator:type" v="private" />
	</node>
	<node lat="60.51031" lon="5.22497" id="-4439">
		<tag k="ADDRESS" v="Juviknipa 1, 5918 FREKHAUG" />
		<tag k="amenity" v="kindergarten" />
		<tag k="capacity" v="50" />
		<tag k="max_age" v="5" />
		<tag k="min_age" v="1" />
		<tag k="name" v="Læringsverkstedet Maurtua barnehage" />
		<tag k="no-barnehage:nsrid" v="984597894" />
		<tag k="operator" v="Læringsverkstedet Maurtua barnehage AS" />
		<tag k="operator:type" v="private" />
	</node>
	<node lat="60.5172" lon="5.24309" id="-4440">
		<tag k="ADDRESS" v="Havnevegen 47, 5918 FREKHAUG" />
		<tag k="amenity" v="kindergarten" />
		<tag k="capacity" v="29" />
		<tag k="max_age" v="5" />
		<tag k="min_age" v="1" />
		<tag k="name" v="Marihøna barnehage" />
		<tag k="no-barnehage:nsrid" v="975309215" />
		<tag k="operator" v="Alver kommune" />
		<tag k="operator:type" v="public" />
	</node>
	<node lat="60.72697" lon="5.25518" id="-4441">
		<tag k="ADDRESS" v="Sævråsvegen 250, 5957 MYKING" />
		<tag k="amenity" v="kindergarten" />
		<tag k="capacity" v="27" />
		<tag k="max_age" v="5" />
		<tag k="min_age" v="1" />
		<tag k="name" v="Natås barnehage" />
		<tag k="no-barnehage:nsrid" v="973488651" />
		<tag k="operator" v="Natås barnehage SA" />
		<tag k="operator:type" v="private" />
	</node>
	<node lat="60.62757" lon="5.48581" id="-4442">
		<tag k="ADDRESS" v="Ørnnova 1, 5993 OSTEREIDET" />
		<tag k="amenity" v="kindergarten" />
		<tag k="capacity" v="57" />
		<tag k="max_age" v="5" />
		<tag k="min_age" v="1" />
		<tag k="name" v="Ostereidet FUS barnehage" />
		<tag k="no-barnehage:nsrid" v="992741945" />
		<tag k="operator" v="Ostereidet Fus barnehage AS" />
		<tag k="operator:type" v="private" />
	</node>
	<node lat="0.0" lon="0.0" id="-4443">
		<tag k="ADDRESS" v="Radøyvegen 1625, 5936 MANGER" />
		<tag k="amenity" v="kindergarten" />
		<tag k="capacity" v="115" />
		<tag k="max_age" v="5" />
		<tag k="min_age" v="1" />
		<tag k="name" v="Prestmarka barnehage" />
		<tag k="no-barnehage:nsrid" v="975298981" />
		<tag k="operator" v="Alver kommune" />
		<tag k="operator:type" v="public" />
	</node>
	<node lat="60.6184" lon="5.26744" id="-4444">
		<tag k="ADDRESS" v="Fuglevikvegen 21, 5912 SEIM" />
		<tag k="amenity" v="kindergarten" />
		<tag k="capacity" v="66" />
		<tag k="contact:website" v="http://www.seim.barnehage.no" />
		<tag k="max_age" v="5" />
		<tag k="min_age" v="1" />
		<tag k="name" v="Seim barnehage" />
		<tag k="no-barnehage:nsrid" v="991943854" />
		<tag k="operator" v="Seim barnehage SA" />
		<tag k="operator:type" v="private" />
	</node>
	<node lat="60.74256" lon="5.16583" id="-4446">
		<tag k="ADDRESS" v="Storbruhaugen 14, 5955 LINDÅS" />
		<tag k="amenity" v="kindergarten" />
		<tag k="capacity" v="50" />
		<tag k="contact:website" v="http://solhaugen-barnehage.no" />
		<tag k="max_age" v="5" />
		<tag k="min_age" v="1" />
		<tag k="name" v="Solhaugen barnehage" />
		<tag k="no-barnehage:nsrid" v="983043712" />
		<tag k="operator" v="Solhaugen barnehage SA" />
		<tag k="operator:type" v="private" />
	</node>
	<node lat="60.61861" lon="5.17785" id="-4447">
		<tag k="ADDRESS" v="Søre Austmarka 2, 5938 SÆBØVÅGEN" />
		<tag k="amenity" v="kindergarten" />
		<tag k="capacity" v="45" />
		<tag k="max_age" v="5" />
		<tag k="min_age" v="1" />
		<tag k="name" v="Sæbø barnehage" />
		<tag k="no-barnehage:nsrid" v="975297284" />
		<tag k="operator" v="Alver kommune" />
		<tag k="operator:type" v="public" />
	</node>
	<node lat="60.55925" lon="5.25453" id="-4448">
		<tag k="ADDRESS" v="Stølen 13, 5911 ALVERSUND" />
		<tag k="amenity" v="kindergarten" />
		<tag k="capacity" v="94" />
		<tag k="contact:website" v="http://trollskogen.barnehage.no" />
		<tag k="max_age" v="5" />
		<tag k="min_age" v="1" />
		<tag k="name" v="Trollskogen barnehage Ikenberget" />
		<tag k="no-barnehage:nsrid" v="982986850" />
		<tag k="operator" v="Trollskogen barnehage Ikenberget SA" />
		<tag k="operator:type" v="private" />
	</node>
</osm>
