<?xml version="1.0" encoding="UTF-8"?>
<osm version="0.6" generator="osmapis">
	<node lat="60.70331" lon="8.95805" id="-2817">
		<tag k="ADDRESS" v="Tunvegen 3, 3550 GOL" />
		<tag k="amenity" v="kindergarten" />
		<tag k="capacity" v="40" />
		<tag k="contact:website" v="http://www.gol.kommune.no" />
		<tag k="max_age" v="5" />
		<tag k="min_age" v="1" />
		<tag k="name" v="Breidokk barnehage" />
		<tag k="no-barnehage:nsrid" v="975306410" />
		<tag k="operator" v="Gol kommune" />
		<tag k="operator:type" v="public" />
	</node>
	<node lat="60.70245" lon="8.94596" id="-2818">
		<tag k="ADDRESS" v="Gymnasvegen 21, 3550 GOL" />
		<tag k="amenity" v="kindergarten" />
		<tag k="capacity" v="18" />
		<tag k="contact:website" v="http://www.gol.kommune.no" />
		<tag k="max_age" v="5" />
		<tag k="min_age" v="3" />
		<tag k="name" v="Breidokk barnehage avd. Hallingmo" />
		<tag k="no-barnehage:nsrid" v="990255857" />
		<tag k="operator" v="Gol kommune" />
		<tag k="operator:type" v="public" />
	</node>
	<node lat="60.6978" lon="9.01617" id="-2819">
		<tag k="ADDRESS" v="Liagardsvegen 25, 3550 GOL" />
		<tag k="amenity" v="kindergarten" />
		<tag k="capacity" v="67" />
		<tag k="contact:website" v="http://www.gol.kommune.no" />
		<tag k="max_age" v="5" />
		<tag k="min_age" v="1" />
		<tag k="name" v="Herad barnehage" />
		<tag k="no-barnehage:nsrid" v="921212860" />
		<tag k="operator" v="Gol kommune" />
		<tag k="operator:type" v="public" />
	</node>
	<node lat="60.69781" lon="8.92683" id="-2821">
		<tag k="ADDRESS" v="Vesterhusvegen 3, 3550 GOL" />
		<tag k="amenity" v="kindergarten" />
		<tag k="capacity" v="60" />
		<tag k="max_age" v="5" />
		<tag k="min_age" v="1" />
		<tag k="name" v="Vesterhuset barnehage" />
		<tag k="no-barnehage:nsrid" v="975306445" />
		<tag k="operator" v="Gol kommune" />
		<tag k="operator:type" v="public" />
	</node>
</osm>
