<?xml version="1.0" encoding="UTF-8"?>
<osm generator="osmapis" version="0.6">
	<node id="-2871" lat="59.0215" lon="8.52375">
		<tag k="amenity" v="kindergarten" />
		<tag k="capacity" v="16" />
		<tag k="contact:email" v="hilde.birkedal@nissedal.kommune.no" />
		<tag k="max_age" v="5" />
		<tag k="min_age" v="1" />
		<tag k="name" v="Treungen barnehage Avdeling HaugsjÃ¥sund" />
		<tag k="no-barnehage:nsrid" v="1013111" />
		<tag k="operator" v="Nissedal kommune" />
		<tag k="operator:type" v="public" />
		<tag k="start_date" v="2003-01-01" />
	</node>
	<node id="-2870" lat="59.0215" lon="8.52375">
		<tag k="amenity" v="kindergarten" />
		<tag k="capacity" v="36" />
		<tag k="contact:email" v="gro.midtsund@nissedal.kommune.no" />
		<tag k="max_age" v="5" />
		<tag k="min_age" v="1" />
		<tag k="name" v="Treungen barnehage" />
		<tag k="no-barnehage:nsrid" v="1016049" />
		<tag k="operator" v="Nissedal kommune" />
		<tag k="operator:type" v="public" />
		<tag k="start_date" v="2000-04-19" />
	</node>
	<node id="-2869" lat="59.167" lon="8.56603">
		<tag k="amenity" v="kindergarten" />
		<tag k="capacity" v="13" />
		<tag k="contact:email" v="marianne.braten.odden@nissedal.kommune.no" />
		<tag k="max_age" v="5" />
		<tag k="min_age" v="1" />
		<tag k="name" v="Kyrkjebygda barnehage" />
		<tag k="no-barnehage:nsrid" v="1013768" />
		<tag k="operator" v="Nissedal kommune" />
		<tag k="operator:type" v="public" />
		<tag k="start_date" v="1989-01-02" />
	</node>
	<node id="-2868" lat="58.9049" lon="8.74437">
		<tag k="amenity" v="kindergarten" />
		<tag k="capacity" v="10" />
		<tag k="contact:email" v="maria.odberg@nissedal.kommune.no" />
		<tag k="max_age" v="5" />
		<tag k="min_age" v="1" />
		<tag k="name" v="Felle barnehage" />
		<tag k="no-barnehage:nsrid" v="1015123" />
		<tag k="operator" v="Nissedal kommune" />
		<tag k="operator:type" v="public" />
		<tag k="start_date" v="2012-06-01" />
	</node>
</osm>
