<?xml version="1.0" encoding="UTF-8"?>
<osm version="0.6" generator="osmapis">
	<node lat="61.12587" lon="8.57917" id="-3193">
		<tag k="ADDRESS" v="Tyinvegen 5124, 2975 VANG I VALDRES" />
		<tag k="amenity" v="kindergarten" />
		<tag k="capacity" v="47" />
		<tag k="contact:website" v="http://www.vang.kommune.no/tenester/utdanning-og-kultur/utdanning/barnehage/fredheim-barnehage/" />
		<tag k="max_age" v="5" />
		<tag k="min_age" v="1" />
		<tag k="name" v="Fredheim barnehage" />
		<tag k="no-barnehage:nsrid" v="975305945" />
		<tag k="operator" v="Vang kommune" />
		<tag k="operator:type" v="public" />
	</node>
	<node lat="61.15059" lon="8.81515" id="-3194">
		<tag k="ADDRESS" v="Hørevegen 270, 2973 RYFOSS" />
		<tag k="amenity" v="kindergarten" />
		<tag k="capacity" v="21" />
		<tag k="contact:website" v="http://www.vang.kommune.no/tenester/utdanning-og-kultur/utdanning/barnehage/hore-barnehage/" />
		<tag k="max_age" v="5" />
		<tag k="min_age" v="1" />
		<tag k="name" v="Høre barnehage" />
		<tag k="no-barnehage:nsrid" v="975305953" />
		<tag k="operator" v="Vang kommune" />
		<tag k="operator:type" v="public" />
	</node>
</osm>
