<?xml version="1.0" encoding="UTF-8"?>
<osm generator="osmapis" version="0.6">
	<node id="-1695" lat="60.6274" lon="10.5105">
		<tag k="amenity" v="kindergarten" />
		<tag k="capacity" v="11" />
		<tag k="max_age" v="5" />
		<tag k="min_age" v="1" />
		<tag k="name" v="Trevatn barnehage" />
		<tag k="no-barnehage:nsrid" v="1015174" />
		<tag k="operator" v="Søndre Land kommune" />
		<tag k="operator:type" v="public" />
	</node>
	<node id="-1694" lat="60.68599" lon="10.36382">
		<tag k="amenity" v="kindergarten" />
		<tag k="capacity" v="8" />
		<tag k="max_age" v="2" />
		<tag k="min_age" v="1" />
		<tag k="name" v="Minstemann barnehage" />
		<tag k="no-barnehage:nsrid" v="1021281" />
		<tag k="operator" v="Minstemann barnehage Da" />
		<tag k="operator:type" v="private" />
	</node>
	<node id="-1693" lat="60.83157" lon="10.30359">
		<tag k="amenity" v="kindergarten" />
		<tag k="capacity" v="17" />
		<tag k="contact:website" v="http://www.landmontessori.no" />
		<tag k="max_age" v="5" />
		<tag k="min_age" v="1" />
		<tag k="name" v="Land montessoribarnehage" />
		<tag k="no-barnehage:nsrid" v="1022228" />
		<tag k="operator" v="Landåsbygda Montessoribarnehage Sa" />
		<tag k="operator:type" v="private" />
	</node>
	<node id="-1692" lat="60.6987" lon="10.3519">
		<tag k="amenity" v="kindergarten" />
		<tag k="capacity" v="41" />
		<tag k="max_age" v="5" />
		<tag k="min_age" v="1" />
		<tag k="name" v="Hov barnehage" />
		<tag k="no-barnehage:nsrid" v="1017973" />
		<tag k="operator" v="Søndre Land kommune" />
		<tag k="operator:type" v="public" />
	</node>
	<node id="-1691" lat="60.6962" lon="10.3606">
		<tag k="amenity" v="kindergarten" />
		<tag k="capacity" v="71" />
		<tag k="max_age" v="5" />
		<tag k="min_age" v="1" />
		<tag k="name" v="Grettegutua barnehage" />
		<tag k="no-barnehage:nsrid" v="1014719" />
		<tag k="operator" v="Søndre Land kommune" />
		<tag k="operator:type" v="public" />
	</node>
</osm>
