<?xml version="1.0" encoding="UTF-8"?>
<osm generator="osmapis" version="0.6">
	<node id="-2138" lat="60.642" lon="10.3336">
		<tag k="amenity" v="kindergarten" />
		<tag k="capacity" v="13" />
		<tag k="contact:email" v="anne.lilleengen@slk.skole.no" />
		<tag k="max_age" v="5" />
		<tag k="min_age" v="1" />
		<tag k="name" v="Vestsida Oppvekstsenter Avd Barnehage" />
		<tag k="no-barnehage:nsrid" v="1015142" />
		<tag k="operator" v="Søndre Land kommune" />
		<tag k="operator:type" v="public" />
		<tag k="start_date" v="2012-07-01" />
	</node>
	<node id="-2137" lat="60.6274" lon="10.5105">
		<tag k="amenity" v="kindergarten" />
		<tag k="capacity" v="10" />
		<tag k="contact:email" v="cathrine.berge@sondre-land.kommune.no" />
		<tag k="max_age" v="5" />
		<tag k="min_age" v="1" />
		<tag k="name" v="Trevatn barnehage" />
		<tag k="no-barnehage:nsrid" v="1015174" />
		<tag k="operator" v="Søndre Land kommune" />
		<tag k="operator:type" v="public" />
		<tag k="start_date" v="2012-12-01" />
	</node>
	<node id="-2136" lat="60.7685" lon="10.2486">
		<tag k="amenity" v="kindergarten" />
		<tag k="capacity" v="59" />
		<tag k="contact:email" v="Berit.AmlienSterud@sondre-land.kommune.no" />
		<tag k="max_age" v="5" />
		<tag k="min_age" v="1" />
		<tag k="name" v="Svingen barnehage" />
		<tag k="no-barnehage:nsrid" v="1017972" />
		<tag k="operator" v="Søndre Land kommune" />
		<tag k="operator:type" v="public" />
		<tag k="start_date" v="1988-04-01" />
	</node>
	<node id="-2135" lat="60.68599" lon="10.36382">
		<tag k="amenity" v="kindergarten" />
		<tag k="capacity" v="9" />
		<tag k="contact:email" v="aase.skogstad@visma.no" />
		<tag k="contact:phone" v="95783629" />
		<tag k="max_age" v="5" />
		<tag k="min_age" v="1" />
		<tag k="name" v="Minstemann barnehage Da" />
		<tag k="no-barnehage:nsrid" v="1021281" />
		<tag k="operator" v="Minstemann barnehage Da" />
		<tag k="operator:type" v="private" />
		<tag k="start_date" v="2005-07-15" />
	</node>
	<node id="-2134" lat="60.83157" lon="10.30359">
		<tag k="amenity" v="kindergarten" />
		<tag k="capacity" v="12" />
		<tag k="contact:email" v="post@landmontessori.no" />
		<tag k="contact:phone" v="61 12 56 50" />
		<tag k="max_age" v="5" />
		<tag k="min_age" v="1" />
		<tag k="name" v="Land Montessoribarnehage" />
		<tag k="no-barnehage:nsrid" v="1022228" />
		<tag k="operator" v="Landåsbygda Montessoribarnehage Sa" />
		<tag k="operator:type" v="private" />
		<tag k="start_date" v="2011-11-16" />
	</node>
	<node id="-2133" lat="60.6987" lon="10.3519">
		<tag k="amenity" v="kindergarten" />
		<tag k="capacity" v="37" />
		<tag k="contact:email" v="linn.kirsebom@sondre-land.kommune.no" />
		<tag k="max_age" v="5" />
		<tag k="min_age" v="1" />
		<tag k="name" v="Hov barnehage" />
		<tag k="no-barnehage:nsrid" v="1017973" />
		<tag k="operator" v="Søndre Land kommune" />
		<tag k="operator:type" v="public" />
		<tag k="start_date" v="1988-04-01" />
	</node>
	<node id="-2132" lat="60.6962" lon="10.3606">
		<tag k="amenity" v="kindergarten" />
		<tag k="capacity" v="61" />
		<tag k="contact:email" v="wenche.hellerud@sondre-land.kommune.no" />
		<tag k="max_age" v="5" />
		<tag k="min_age" v="1" />
		<tag k="name" v="Grettegutua barnehage" />
		<tag k="no-barnehage:nsrid" v="1014719" />
		<tag k="operator" v="Søndre Land kommune" />
		<tag k="operator:type" v="public" />
		<tag k="start_date" v="1992-08-01" />
	</node>
</osm>
