<?xml version="1.0" encoding="UTF-8"?>
<osm version="0.6" generator="osmapis">
	<node lat="61.23386" lon="10.18703" id="-3229">
		<tag k="ADDRESS" v="Baklivegen 1643, 2651 ØSTRE GAUSDAL" />
		<tag k="amenity" v="kindergarten" />
		<tag k="capacity" v="36" />
		<tag k="max_age" v="5" />
		<tag k="min_age" v="1" />
		<tag k="name" v="Baklia Stall &amp; gårdsbarnehage" />
		<tag k="no-barnehage:nsrid" v="984662491" />
		<tag k="operator" v="Baklia Stall &amp; gårdsbarnehage AS" />
		<tag k="operator:type" v="private" />
	</node>
	<node lat="61.2335" lon="10.20872" id="-3230">
		<tag k="ADDRESS" v="Østringsvegen 106B, 2651 ØSTRE GAUSDAL" />
		<tag k="amenity" v="kindergarten" />
		<tag k="capacity" v="68" />
		<tag k="max_age" v="5" />
		<tag k="min_age" v="1" />
		<tag k="name" v="Fjerdum barnehage" />
		<tag k="no-barnehage:nsrid" v="975303527" />
		<tag k="operator" v="Gausdal kommune" />
		<tag k="operator:type" v="public" />
	</node>
	<node lat="61.21622" lon="10.28946" id="-3231">
		<tag k="ADDRESS" v="Kornhaug 2, 2656 FOLLEBU" />
		<tag k="amenity" v="kindergarten" />
		<tag k="capacity" v="44" />
		<tag k="max_age" v="5" />
		<tag k="min_age" v="1" />
		<tag k="name" v="Follebu FUS barnehage" />
		<tag k="no-barnehage:nsrid" v="992098171" />
		<tag k="operator" v="Follebu Fus barnehage AS" />
		<tag k="operator:type" v="private" />
	</node>
	<node lat="61.20051" lon="10.14559" id="-3232">
		<tag k="ADDRESS" v="Brubakken 16, 2653 VESTRE GAUSDAL" />
		<tag k="amenity" v="kindergarten" />
		<tag k="capacity" v="49" />
		<tag k="max_age" v="5" />
		<tag k="min_age" v="1" />
		<tag k="name" v="Forset barnehage" />
		<tag k="no-barnehage:nsrid" v="975303543" />
		<tag k="operator" v="Gausdal kommune" />
		<tag k="operator:type" v="public" />
	</node>
	<node lat="0.0" lon="0.0" id="-3233">
		<tag k="ADDRESS" v="Kornhaug 13, 2656 FOLLEBU" />
		<tag k="amenity" v="kindergarten" />
		<tag k="capacity" v="27" />
		<tag k="max_age" v="5" />
		<tag k="min_age" v="1" />
		<tag k="name" v="Kornhaug barnehage" />
		<tag k="no-barnehage:nsrid" v="975303535" />
		<tag k="operator" v="Gausdal kommune" />
		<tag k="operator:type" v="public" />
	</node>
</osm>
