<?xml version="1.0" encoding="UTF-8"?>
<osm version="0.6" generator="osmapis">
	<node lat="61.5673" lon="11.06364" id="-3101">
		<tag k="ADDRESS" v="Skoleveien 50, 2480 KOPPANG" />
		<tag k="amenity" v="kindergarten" />
		<tag k="capacity" v="34" />
		<tag k="max_age" v="5" />
		<tag k="min_age" v="1" />
		<tag k="name" v="Koppang barnehage" />
		<tag k="no-barnehage:nsrid" v="974603632" />
		<tag k="operator" v="Stor-Elvdal kommune" />
		<tag k="operator:type" v="public" />
	</node>
	<node lat="61.84264" lon="10.23966" id="-3102">
		<tag k="ADDRESS" v="Rondeveien 711, 2477 SOLLIA" />
		<tag k="amenity" v="kindergarten" />
		<tag k="capacity" v="10" />
		<tag k="max_age" v="5" />
		<tag k="min_age" v="1" />
		<tag k="name" v="Sollia barnehage" />
		<tag k="no-barnehage:nsrid" v="975302768" />
		<tag k="operator" v="Stor-Elvdal kommune" />
		<tag k="operator:type" v="public" />
	</node>
	<node lat="61.57646" lon="11.03695" id="-3103">
		<tag k="ADDRESS" v="Industriveien 123, 2480 KOPPANG" />
		<tag k="amenity" v="kindergarten" />
		<tag k="capacity" v="22" />
		<tag k="max_age" v="5" />
		<tag k="min_age" v="1" />
		<tag k="name" v="Stor-elvdal naturbarnehage" />
		<tag k="no-barnehage:nsrid" v="926288784" />
		<tag k="operator" v="Stor-Elvdal naturbarnehage AS" />
		<tag k="operator:type" v="private" />
	</node>
</osm>
