<?xml version="1.0" encoding="UTF-8"?>
<osm generator="osmapis" version="0.6">
	<node id="-3725" lat="58.8886" lon="6.85198">
		<tag k="amenity" v="kindergarten" />
		<tag k="capacity" v="17" />
		<tag k="contact:email" v="wenchesvanes@sirdal.kommune.no" />
		<tag k="doNotImportAddress" v=" 4443 TJØRHOM" />
		<tag k="max_age" v="5" />
		<tag k="min_age" v="1" />
		<tag k="name" v="Øvre Sirdal barnehage" />
		<tag k="no-barnehage:nsrid" v="1018080" />
		<tag k="operator" v="Sirdal kommune" />
		<tag k="operator:type" v="public" />
	</node>
	<node id="-3724" lat="58.6626" lon="6.71695">
		<tag k="amenity" v="kindergarten" />
		<tag k="capacity" v="88" />
		<tag k="contact:email" v="merete.gursli@sirdal.kommune.no" />
		<tag k="doNotImportAddress" v="Fintlandsmonan 28 4440 TONSTAD" />
		<tag k="max_age" v="5" />
		<tag k="min_age" v="1" />
		<tag k="name" v="Tonstad barnehage" />
		<tag k="no-barnehage:nsrid" v="1018079" />
		<tag k="operator" v="Sirdal kommune" />
		<tag k="operator:type" v="public" />
	</node>
</osm>
