<?xml version="1.0" encoding="UTF-8"?>
<osm generator="osmapis" version="0.6">
	<node id="-1792" lat="60.28127" lon="11.77363">
		<tag k="amenity" v="kindergarten" />
		<tag k="capacity" v="27" />
		<tag k="max_age" v="5" />
		<tag k="min_age" v="1" />
		<tag k="name" v="Slåstad barnehage" />
		<tag k="no-barnehage:nsrid" v="1020157" />
		<tag k="operator" v="Slåstad barnehage Sa" />
		<tag k="operator:type" v="private" />
	</node>
	<node id="-1791" lat="60.2275" lon="11.8088">
		<tag k="amenity" v="kindergarten" />
		<tag k="capacity" v="39" />
		<tag k="max_age" v="5" />
		<tag k="min_age" v="1" />
		<tag k="name" v="Sander barnehage" />
		<tag k="no-barnehage:nsrid" v="1015569" />
		<tag k="operator" v="Sør-Odal kommune" />
		<tag k="operator:type" v="public" />
	</node>
	<node id="-1790" lat="60.32022" lon="11.65469">
		<tag k="amenity" v="kindergarten" />
		<tag k="capacity" v="28" />
		<tag k="contact:website" v="http://www.oppstad.barnehage.no" />
		<tag k="max_age" v="5" />
		<tag k="min_age" v="1" />
		<tag k="name" v="Oppstad gårds- og naturbarnehage" />
		<tag k="no-barnehage:nsrid" v="1022077" />
		<tag k="operator" v="Oppstad Gårds- og Naturbarnehage Sa" />
		<tag k="operator:type" v="private" />
	</node>
	<node id="-1789" lat="60.2525" lon="11.6689">
		<tag k="amenity" v="kindergarten" />
		<tag k="capacity" v="73" />
		<tag k="max_age" v="5" />
		<tag k="min_age" v="1" />
		<tag k="name" v="Korsmo barnehage" />
		<tag k="no-barnehage:nsrid" v="1016019" />
		<tag k="operator" v="Sør-Odal kommune" />
		<tag k="operator:type" v="public" />
	</node>
	<node id="-1788" lat="60.1955" lon="11.87843">
		<tag k="amenity" v="kindergarten" />
		<tag k="capacity" v="30" />
		<tag k="max_age" v="5" />
		<tag k="min_age" v="1" />
		<tag k="name" v="Galterud heltidsbarnehage" />
		<tag k="no-barnehage:nsrid" v="1019768" />
		<tag k="operator" v="Galterud barnehage Sa" />
		<tag k="operator:type" v="private" />
	</node>
	<node id="-1787" lat="60.1997" lon="11.641">
		<tag k="amenity" v="kindergarten" />
		<tag k="capacity" v="24" />
		<tag k="max_age" v="5" />
		<tag k="min_age" v="1" />
		<tag k="name" v="Disenå barnehage" />
		<tag k="no-barnehage:nsrid" v="1016207" />
		<tag k="operator" v="Sør-Odal kommune" />
		<tag k="operator:type" v="public" />
	</node>
	<node id="-1794" lat="60.22849" lon="11.63305">
		<tag k="amenity" v="kindergarten" />
		<tag k="capacity" v="42" />
		<tag k="max_age" v="5" />
		<tag k="min_age" v="1" />
		<tag k="name" v="Ullern barnehage" />
		<tag k="no-barnehage:nsrid" v="1020158" />
		<tag k="operator" v="Ullern barnehage Sa" />
		<tag k="operator:type" v="private" />
	</node>
	<node id="-1793" lat="60.2451" lon="11.6825">
		<tag k="amenity" v="kindergarten" />
		<tag k="capacity" v="47" />
		<tag k="max_age" v="5" />
		<tag k="min_age" v="1" />
		<tag k="name" v="Tronbøl barnehage" />
		<tag k="no-barnehage:nsrid" v="1017578" />
		<tag k="operator" v="Sør-Odal kommune" />
		<tag k="operator:type" v="public" />
	</node>
</osm>
