<?xml version="1.0" encoding="UTF-8"?>
<osm generator="osmapis" version="0.6">
	<node id="-1899" lat="60.22849" lon="11.63305">
		<tag k="amenity" v="kindergarten" />
		<tag k="capacity" v="43" />
		<tag k="contact:email" v="ullern.barnehage@sor-odal.kommune.no" />
		<tag k="contact:phone" v="62 96 58 80" />
		<tag k="max_age" v="5" />
		<tag k="min_age" v="1" />
		<tag k="name" v="Ullern barnehage Sa" />
		<tag k="no-barnehage:nsrid" v="1020158" />
		<tag k="operator" v="Ullern barnehage Sa" />
		<tag k="operator:type" v="private" />
		<tag k="start_date" v="1993-08-01" />
	</node>
	<node id="-1898" lat="60.2451" lon="11.6825">
		<tag k="amenity" v="kindergarten" />
		<tag k="capacity" v="70" />
		<tag k="contact:email" v="wenche.bunes@sor-odal.kommune.no" />
		<tag k="contact:phone" v="62 96 75 30" />
		<tag k="max_age" v="5" />
		<tag k="min_age" v="1" />
		<tag k="name" v="Tronbøl barnehage" />
		<tag k="no-barnehage:nsrid" v="1017578" />
		<tag k="operator" v="Sør-Odal kommune" />
		<tag k="operator:type" v="public" />
		<tag k="start_date" v="1988-04-01" />
	</node>
	<node id="-1897" lat="60.28127" lon="11.77363">
		<tag k="amenity" v="kindergarten" />
		<tag k="capacity" v="22" />
		<tag k="contact:email" v="post@slastadbarnehage.no" />
		<tag k="contact:phone" v="62 96 73 10" />
		<tag k="max_age" v="5" />
		<tag k="min_age" v="1" />
		<tag k="name" v="Slåstad barnehage Sa" />
		<tag k="no-barnehage:nsrid" v="1020157" />
		<tag k="operator" v="Slåstad barnehage Sa" />
		<tag k="operator:type" v="private" />
		<tag k="start_date" v="1993-08-01" />
	</node>
	<node id="-1896" lat="60.2275" lon="11.8088">
		<tag k="amenity" v="kindergarten" />
		<tag k="capacity" v="44" />
		<tag k="contact:email" v="Kari.Delviken@sor-odal.kommune.no" />
		<tag k="max_age" v="5" />
		<tag k="min_age" v="1" />
		<tag k="name" v="Sander barnehage" />
		<tag k="no-barnehage:nsrid" v="1015569" />
		<tag k="operator" v="Sør-Odal kommune" />
		<tag k="operator:type" v="public" />
		<tag k="start_date" v="1989-01-02" />
	</node>
	<node id="-1895" lat="60.32022" lon="11.65469">
		<tag k="amenity" v="kindergarten" />
		<tag k="capacity" v="30" />
		<tag k="contact:email" v="oppstad@barnehage.no" />
		<tag k="contact:phone" v="62 96 77 88" />
		<tag k="contact:website" v="http://www.oppstad.barnehage.no" />
		<tag k="max_age" v="5" />
		<tag k="min_age" v="1" />
		<tag k="name" v="Oppstad Gårds- og Naturbarnehage Sa" />
		<tag k="no-barnehage:nsrid" v="1022077" />
		<tag k="operator" v="Oppstad Gårds- og Naturbarnehage Sa" />
		<tag k="operator:type" v="private" />
		<tag k="start_date" v="2010-08-02" />
	</node>
	<node id="-1894" lat="60.2525" lon="11.6689">
		<tag k="amenity" v="kindergarten" />
		<tag k="capacity" v="74" />
		<tag k="contact:email" v="anne.gundersen@sor-odal.kommune.no" />
		<tag k="contact:phone" v="62 96 35 30" />
		<tag k="max_age" v="5" />
		<tag k="min_age" v="1" />
		<tag k="name" v="Korsmo barnehage" />
		<tag k="no-barnehage:nsrid" v="1016019" />
		<tag k="operator" v="Sør-Odal kommune" />
		<tag k="operator:type" v="public" />
		<tag k="start_date" v="1992-01-01" />
	</node>
	<node id="-1893" lat="60.1955" lon="11.87843">
		<tag k="amenity" v="kindergarten" />
		<tag k="capacity" v="30" />
		<tag k="contact:email" v="galterud.barnehage@sor-odal.kommune.no" />
		<tag k="contact:phone" v="62 96 78 60" />
		<tag k="max_age" v="5" />
		<tag k="min_age" v="1" />
		<tag k="name" v="Galterud Heltidsbarnehage" />
		<tag k="no-barnehage:nsrid" v="1019768" />
		<tag k="operator" v="Galterud barnehage Sa" />
		<tag k="operator:type" v="private" />
		<tag k="start_date" v="1989-01-01" />
	</node>
	<node id="-1892" lat="60.1997" lon="11.641">
		<tag k="amenity" v="kindergarten" />
		<tag k="capacity" v="29" />
		<tag k="contact:email" v="disena-bh@sor-odal.kommune.no" />
		<tag k="contact:phone" v="62 96 40 00" />
		<tag k="max_age" v="5" />
		<tag k="min_age" v="1" />
		<tag k="name" v="Disenå barnehage" />
		<tag k="no-barnehage:nsrid" v="1016207" />
		<tag k="operator" v="Sør-Odal kommune" />
		<tag k="operator:type" v="public" />
		<tag k="start_date" v="1989-01-02" />
	</node>
</osm>
