<?xml version="1.0" encoding="UTF-8"?>
<osm generator="osmapis" version="0.6">
	<node id="-6036" lat="68.53559" lon="16.74642">
		<tag k="ADDRESS" v="Indre Planterhaugen 33, 9440 EVENSKJER" />
		<tag k="amenity" v="kindergarten" />
		<tag k="capacity" v="15" />
		<tag k="max_age" v="5" />
		<tag k="min_age" v="1" />
		<tag k="name" v="Vardobaiki Markomanak barnehage" />
		<tag k="no-barnehage:nsrid" v="1015944" />
		<tag k="operator" v="Vardobaiki AS" />
		<tag k="operator:type" v="private" />
	</node>
	<node id="-6035" lat="68.68316" lon="16.81233">
		<tag k="ADDRESS" v="Sandstrand, 9445 TOVIK" />
		<tag k="amenity" v="kindergarten" />
		<tag k="capacity" v="18" />
		<tag k="max_age" v="5" />
		<tag k="min_age" v="1" />
		<tag k="name" v="Sandstrand oppvekstsenter avd. barnehage" />
		<tag k="no-barnehage:nsrid" v="1013923" />
		<tag k="operator" v="Skånland kommune" />
		<tag k="operator:type" v="public" />
	</node>
	<node id="-6034" lat="0.0" lon="0.0">
		<tag k="ADDRESS" v="Øvre Ressan, 9446 GROVFJORD" />
		<tag k="amenity" v="kindergarten" />
		<tag k="capacity" v="22" />
		<tag k="max_age" v="5" />
		<tag k="min_age" v="1" />
		<tag k="name" v="Ressan barnehage" />
		<tag k="no-barnehage:nsrid" v="1013693" />
		<tag k="operator" v="Skånland kommune" />
		<tag k="operator:type" v="public" />
	</node>
	<node id="-6033" lat="68.57991" lon="16.58702">
		<tag k="ADDRESS" v="Skoleveien 24, 9440 EVENSKJER" />
		<tag k="amenity" v="kindergarten" />
		<tag k="capacity" v="70" />
		<tag k="max_age" v="5" />
		<tag k="min_age" v="1" />
		<tag k="name" v="Evenskjer barnehage" />
		<tag k="no-barnehage:nsrid" v="1013692" />
		<tag k="operator" v="Skånland kommune" />
		<tag k="operator:type" v="public" />
	</node>
</osm>
