<?xml version="1.0" encoding="UTF-8"?>
<osm generator="osmapis" version="0.6">
	<node id="-5683" lat="0.0" lon="0.0">
		<tag k="ADDRESS" v="Látevuovdi 2, 9731 KARASJOK" />
		<tag k="amenity" v="kindergarten" />
		<tag k="capacity" v="19" />
		<tag k="max_age" v="5" />
		<tag k="min_age" v="1" />
		<tag k="name" v="Badjemánáid Beaiveruoktu" />
		<tag k="no-barnehage:nsrid" v="973503189" />
		<tag k="operator" v="Badjemánáid Beaiveruoktu Sa" />
		<tag k="operator:type" v="private" />
	</node>
	<node id="-5684" lat="69.47015" lon="25.52256">
		<tag k="ADDRESS" v="Niitonjárgeaidnu 1, 9730 KARASJOK" />
		<tag k="amenity" v="kindergarten" />
		<tag k="capacity" v="42" />
		<tag k="max_age" v="5" />
		<tag k="min_age" v="1" />
		<tag k="name" v="Guolban Manaidgardi" />
		<tag k="no-barnehage:nsrid" v="974066432" />
		<tag k="operator" v="Karasjoga Gielda / Karasjok kommune" />
		<tag k="operator:type" v="public" />
	</node>
	<node id="-5685" lat="0.0" lon="0.0">
		<tag k="ADDRESS" v="Jeagilvármádii 40, 9731 KARASJOK" />
		<tag k="amenity" v="kindergarten" />
		<tag k="capacity" v="43" />
		<tag k="max_age" v="5" />
		<tag k="min_age" v="1" />
		<tag k="name" v="Lattosluohka Manaidgardi" />
		<tag k="no-barnehage:nsrid" v="975324451" />
		<tag k="operator" v="Karasjoga Gielda / Karasjok kommune" />
		<tag k="operator:type" v="public" />
	</node>
</osm>
